country,airport,METARs,UTC/Time
United-states, Aberdeen Regional Airport (ABR/KABR) ,"['KABR 150953Z AUTO 30003KT 10SM CLR M16/M18 A3021 RMK AO2 SLP257 T11611178', 'KABR 150853Z AUTO 32005KT 10SM CLR M12/M14 A3021 RMK AO2 SLP254 T11171139 53001', 'KABR 150753Z AUTO 33007KT 10SM CLR M12/M15 A3021 RMK AO2 SLP253 T11221150', 'KABR 150653Z AUTO 34005KT 10SM CLR M12/M14 A3021 RMK AO2 SLP254 T11221144', 'KABR 150553Z AUTO 32007KT 10SM CLR M11/M13 A3021 RMK AO2 SLP253 T11111133 11022 21117 410221117 51013', 'KABR 150453Z AUTO 30007KT 10SM CLR M09/M12 A3020 RMK AO2 SLP248 T10891117', 'KABR 150353Z AUTO 30008KT 10SM CLR M07/M10 A3018 RMK AO2 SLP241 T10721100', 'KABR 150253Z AUTO 31006KT 10SM CLR M07/M10 A3017 RMK AO2 SLP236 T10721100 51010', 'KABR 150153Z AUTO 33007KT 10SM SCT027 M05/M08 A3016 RMK AO2 SLP234 T10501083', 'KABR 150053Z AUTO 34008KT 10SM OVC025 M02/M06 A3017 RMK AO2 SLP233 T10221061', 'KABR 142353Z AUTO 33006KT 10SM BKN027 OVC110 M03/M06 A3014 RMK AO2 SLP225 60010 T10281056 11022 21033 51009', 'KABR 142253Z AUTO 33007KT 10SM BKN026 OVC065 M02/M06 A3013 RMK AO2 SNE09B21E31 SLP224 P0000 T10221056', 'KABR 142210Z AUTO 34008KT 8SM FEW033 BKN041 OVC075 M02/M05 A3012 RMK AO2 SNE09 P0000 T10221050', 'KABR 142153Z AUTO 35010KT 1 3/4SM -SN FEW014 BKN027 OVC042 M02/M05 A3011 RMK AO2 SLP215 P0000 T10221050', 'KABR 142121Z AUTO 35009KT 2 1/2SM -SN SCT009 BKN036 OVC044 M02/M05 A3010 RMK AO2 P0000 T10221050', 'KABR 142053Z AUTO 36008KT 2SM -SN FEW008 BKN030 OVC038 M03/M06 A3010 RMK AO2 SLP213 P0003 60010 T10281056 56010', 'KABR 142014Z AUTO 36010KT 3/4SM -SN FEW008 BKN017 OVC026 M03/M06 A3011 RMK AO2 P0001 T10281056', 'KABR 141953Z AUTO 36009KT 3/4SM -SN BR SCT009 OVC014 M03/M05 A3011 RMK AO2 SLP215 P0003 T10281050', 'KABR 141900Z AUTO 01008KT 3/4SM -SN BR FEW008 OVC015 M03/M05 A3011 RMK AO2 P0001 T10281050', 'KABR 141853Z AUTO 01010KT 3/4SM -SN BR FEW006 FEW009 OVC013 M03/M06 A3011 RMK AO2 SLP217 P0004 T10331056', 'KABR 141802Z AUTO 02009KT 1/2SM SN FZFG VV011 M04/M06 A3013 RMK AO2 P0001 T10391056', 'KABR 141753Z AUTO 01008KT 1/4SM SN FZFG VV010 M03/M06 A3013 RMK AO2 SLP222 P0004 60004 T10331056 11028 21050 50004', 'KABR 141707Z AUTO 01010KT 1/2SM SN FZFG VV014 M03/M06 A3014 RMK AO2 P0001 T10331056', 'KABR 141653Z AUTO 36010KT 3/4SM -SN VV017 M03/M06 A3014 RMK AO2 SNB24 SLP227 P0000 T10331061', 'KABR 141553Z AUTO 01006KT 10SM BKN046 OVC055 M03/M07 A3014 RMK AO2 SLP222 T10281067', 'KABR 141453Z AUTO 03009KT 10SM OVC065 M03/M07 A3012 RMK AO2 SLP217 T10331072 51009', 'KABR 141353Z AUTO 01007KT 10SM OVC080 M03/M07 A3011 RMK AO2 SLP214 T10331067', 'KABR 141253Z AUTO 01005KT 10SM OVC095 M04/M06 A3011 RMK AO2 SLP211 T10391061', 'KABR 141153Z AUTO 35005KT 10SM BKN120 M05/M07 A3009 RMK AO2 SLP205 I6001 T10501072 11039 21072 53003', 'KABR 141053Z AUTO 32003KT 10SM CLR M07/M09 A3008 RMK AO2 SLP202 T10671089', 'KABR 140953Z AUTO 33004KT 9SM CLR M06/M07 A3007 RMK AO2 SLP198 I1001 T10611072', 'KABR 140853Z AUTO 24003KT 9SM CLR M06/M07 A3008 RMK AO2 SLP202 I1000 I3000 T10611072 51014', 'KABR 140753Z AUTO 27005KT 10SM CLR M06/M07 A3007 RMK AO2 SLP198 I1000 T10561067', 'KABR 140653Z AUTO 29003KT 10SM CLR M04/M06 A3005 RMK AO2 SLP192 I1000 T10441056', 'KABR 140553Z AUTO 21003KT 10SM CLR M04/M06 A3004 RMK AO2 SLP187 T10391056 10044 21050 400611056 51011', 'KABR 140453Z AUTO 17004KT 10SM CLR M04/M06 A3003 RMK AO2 SLP187 T10441056', 'KABR 140353Z AUTO 00000KT 10SM CLR M02/M04 A3002 RMK AO2 SLP183 T10221044', 'KABR 140253Z AUTO 31007KT 10SM CLR M02/M05 A3001 RMK AO2 SLP177 T10221050 51020', 'KABR 140153Z AUTO 32005KT 10SM CLR M01/M04 A3000 RMK AO2 SLP173 T10111039', 'KABR 140053Z AUTO 34006KT 10SM CLR 01/M02 A2998 RMK AO2 WSHFT 0001 SLP167 T00111022', 'KABR 140029Z AUTO 33009KT 10SM SCT025 BKN033 BKN042 03/M02 A2997 RMK AO2 WSHFT 0001 T00281017', 'KABR 132353Z AUTO 23004KT 10SM BKN029 OVC043 04/01 A2995 RMK AO2 SLP154 60000 T00390006 10061 20022 53004', 'KABR 132253Z AUTO 20005KT 10SM BKN033 06/01 A2993 RMK AO2 SLP150 T00560011', 'KABR 132153Z AUTO 24008KT 10SM OVC021 05/01 A2993 RMK AO2 SLP150 T00500006', 'KABR 132053Z AUTO 22009KT 10SM OVC024 05/01 A2992 RMK AO2 RAB26E36 SLP147 P0000 60000 T00500011 56017', 'KABR 131953Z AUTO 21010KT 10SM BKN036 BKN047 OVC055 05/01 A2993 RMK AO2 SLP151 T00500006', 'KABR 131853Z AUTO 21013KT 10SM OVC034 04/00 A2995 RMK AO2 SLP157 T00440000', 'KABR 131753Z AUTO 20013KT 10SM SCT032 BKN043 02/M01 A2998 RMK AO2 SLP166 T00221011 10028 21033 56004', 'KABR 131653Z AUTO 20014KT 10SM OVC060 02/M02 A2998 RMK AO2 SLP166 T00171022', 'KABR 131553Z AUTO 17010KT 10SM BKN060 OVC090 00/M03 A2998 RMK AO2 SLP167 T00001033', 'KABR 131453Z AUTO 16007KT 10SM OVC060 M01/M04 A2999 RMK AO2 SLP171 T10111039 53004', 'KABR 131353Z AUTO 17005KT 10SM BKN060 OVC085 M02/M04 A2998 RMK AO2 SLP167 T10221044', 'KABR 131253Z AUTO 18007KT 10SM OVC080 M02/M05 A2996 RMK AO2 SLP163 T10221050', 'KABR 131153Z AUTO 17005KT 10SM FEW075 OVC095 M03/M05 A2997 RMK AO2 SLP166 I6000 T10331050 11028 21056 57002', 'KABR 131053Z AUTO 17004KT 10SM OVC080 M04/M06 A2998 RMK AO2 SLP166 I1000 T10441061', 'KABR 130953Z AUTO 20003KT 10SM SCT110 M05/M07 A2998 RMK AO2 SLP165 I1000 T10501067', 'KABR 130853Z AUTO 17005KT 10SM SCT110 M04/M06 A2998 RMK AO2 SLP165 I1000 I3000 T10441061 53004', 'KABR 130753Z AUTO 13004KT 10SM CLR M06/M07 A2997 RMK AO2 SLP163 I1000 T10561067', 'KABR 130653Z AUTO 13004KT 10SM CLR M04/M06 A2997 RMK AO2 SLP165 I1000 T10441056', 'KABR 130553Z AUTO 11004KT 10SM CLR M04/M06 A2997 RMK AO2 SLP163 I1001 I6001 T10441061 10017 21050 400721072 51001', 'KABR 130453Z AUTO 00000KT 10SM CLR M03/M06 A2997 RMK AO2 SLP163 T10331056', 'KABR 130353Z AUTO 00000KT 10SM CLR M03/M04 A2997 RMK AO2 SLP164 T10281044', 'KABR 130253Z AUTO 00000KT 10SM CLR M03/M04 A2996 RMK AO2 SLP165 T10281044 53006', 'KABR 130153Z AUTO 05003KT 10SM CLR M01/M03 A2995 RMK AO2 SLP160 T10061033', 'KABR 130053Z AUTO 11003KT 10SM CLR 00/M03 A2995 RMK AO2 SLP160 T00001033', 'KABR 122353Z AUTO 03004KT 10SM CLR 01/M03 A2995 RMK AO2 SLP157 T00111028 10072 20011 53005', 'KABR 122253Z AUTO 04007KT 10SM CLR 04/M03 A2993 RMK AO2 SLP151 T00441028', 'KABR 122153Z AUTO 36008KT 10SM CLR 06/M03 A2993 RMK AO2 SLP150 T00611033', 'KABR 122053Z AUTO 01005KT 10SM CLR 07/M02 A2993 RMK AO2 SLP148 T00671022 56015', 'KABR 121953Z AUTO VRB03KT 10SM CLR 06/M03 A2994 RMK AO2 SLP150 T00611028', 'KABR 121853Z AUTO 27005KT 10SM CLR 04/M03 A2996 RMK AO2 SLP157 T00391028', 'KABR 121753Z AUTO VRB04KT 10SM CLR 03/M03 A2998 RMK AO2 SLP164 I6000 T00331028 10033 21067 51002', 'KABR 121653Z AUTO 34003KT 10SM CLR 02/M03 A2998 RMK AO2 SLP165 T00171033', 'KABR 121553Z AUTO 30006KT 10SM CLR M01/M04 A2998 RMK AO2 SLP166 T10061039', 'KABR 121453Z AUTO 25005KT 10SM CLR M03/M05 A2997 RMK AO2 SLP165 I3000 T10281050 53004', 'KABR 121353Z AUTO 22006KT 10SM CLR M06/M08 A2996 RMK AO2 SLP161 I1000 T10611078', 'KABR 121253Z AUTO 24005KT 10SM CLR M07/M08 A2996 RMK AO2 SLP161 I1000 T10671078', 'KABR 121153Z AUTO 00000KT 10SM CLR M06/M07 A2996 RMK AO2 SLP161 I1000 I6000 T10611072 11006 21072 53007', 'KABR 121053Z AUTO 20004KT 10SM CLR M04/M06 A2994 RMK AO2 SLP153 T10441061']","['2024-02-15 09:53:00', '2024-02-15 08:53:00', '2024-02-15 07:53:00', '2024-02-15 06:53:00', '2024-02-15 05:53:00', '2024-02-15 04:53:00', '2024-02-15 03:53:00', '2024-02-15 02:53:00', '2024-02-15 01:53:00', '2024-02-15 00:53:00', '2024-02-14 23:53:00', '2024-02-14 22:53:00', '2024-02-14 22:10:00', '2024-02-14 21:53:00', '2024-02-14 21:21:00', '2024-02-14 20:53:00', '2024-02-14 20:14:00', '2024-02-14 19:53:00', '2024-02-14 19:00:00', '2024-02-14 18:53:00', '2024-02-14 18:02:00', '2024-02-14 17:53:00', '2024-02-14 17:07:00', '2024-02-14 16:53:00', '2024-02-14 15:53:00', '2024-02-14 14:53:00', '2024-02-14 13:53:00', '2024-02-14 12:53:00', '2024-02-14 11:53:00', '2024-02-14 10:53:00', '2024-02-14 09:53:00', '2024-02-14 08:53:00', '2024-02-14 07:53:00', '2024-02-14 06:53:00', '2024-02-14 05:53:00', '2024-02-14 04:53:00', '2024-02-14 03:53:00', '2024-02-14 02:53:00', '2024-02-14 01:53:00', '2024-02-14 00:53:00', '2024-02-14 00:29:00', '2024-02-13 23:53:00', '2024-02-13 22:53:00', '2024-02-13 21:53:00', '2024-02-13 20:53:00', '2024-02-13 19:53:00', '2024-02-13 18:53:00', '2024-02-13 17:53:00', '2024-02-13 16:53:00', '2024-02-13 15:53:00', '2024-02-13 14:53:00', '2024-02-13 13:53:00', '2024-02-13 12:53:00', '2024-02-13 11:53:00', '2024-02-13 10:53:00', '2024-02-13 09:53:00', '2024-02-13 08:53:00', '2024-02-13 07:53:00', '2024-02-13 06:53:00', '2024-02-13 05:53:00', '2024-02-13 04:53:00', '2024-02-13 03:53:00', '2024-02-13 02:53:00', '2024-02-13 01:53:00', '2024-02-13 00:53:00', '2024-02-12 23:53:00', '2024-02-12 22:53:00', '2024-02-12 21:53:00', '2024-02-12 20:53:00', '2024-02-12 19:53:00', '2024-02-12 18:53:00', '2024-02-12 17:53:00', '2024-02-12 16:53:00', '2024-02-12 15:53:00', '2024-02-12 14:53:00', '2024-02-12 13:53:00', '2024-02-12 12:53:00', '2024-02-12 11:53:00', '2024-02-12 10:53:00']"
United-states, Abilene Regional Airport (ABI/KABI) ,"['KABI 150952Z 21009KT 10SM CLR 12/09 A3008 RMK AO2 SLP173 T01170094', 'KABI 150852Z 21008KT 10SM CLR 12/10 A3008 RMK AO2 SLP173 T01220100 53004', 'KABI 150752Z 21010KT 10SM CLR 13/10 A3006 RMK AO2 SLP166 T01280100', 'KABI 150652Z 20016G23KT 10SM CLR 13/10 A3008 RMK AO2 PK WND 21028/0626 SLP175 T01330100', 'KABI 150552Z 20013KT 10SM CLR 14/10 A3007 RMK AO2 PK WND 21028/0522 SLP172 T01390100 10189 20139 402110072 53003', 'KABI 150452Z 20016G28KT 10SM CLR 14/10 A3006 RMK AO2 PK WND 21028/0452 SLP169 T01440100', 'KABI 150352Z 18012G19KT 10SM CLR 14/09 A3005 RMK AO2 SLP168 T01440094', 'KABI 150252Z 18009KT 10SM CLR 16/09 A3006 RMK AO2 SLP169 T01560089 53014', 'KABI 150152Z 18008KT 10SM CLR 16/09 A3004 RMK AO2 SLP162 T01610089', 'KABI 150052Z 19012KT 10SM CLR 18/09 A3003 RMK AO2 SLP158 T01780089', 'KABI 142352Z 19012G19KT 10SM CLR 19/08 A3002 RMK AO2 SLP152 T01890083 10211 20144 53006', 'KABI 142252Z 19016G23KT 10SM CLR 20/09 A3001 RMK AO2 PK WND 23026/2228 SLP149 T02000089', 'KABI 142152Z 19012KT 10SM CLR 21/09 A2999 RMK AO2 PK WND 18027/2056 SLP142 T02060089', 'KABI 142052Z 20016KT 10SM CLR 20/09 A3000 RMK AO2 PK WND 18028/2033 SLP144 T02000094 58028', 'KABI 141952Z 20016G22KT 10SM CLR 18/09 A3004 RMK AO2 SLP159 T01830094', 'KABI 141852Z 20017G28KT 10SM CLR 17/09 A3007 RMK AO2 PK WND 23030/1754 SLP172 T01670089', 'KABI 141752Z 19019G30KT 10SM FEW018 14/08 A3009 RMK AO2 PK WND 23030/1749 SLP181 T01390083 10144 20083 58010', 'KABI 141652Z 20019G28KT 10SM BKN015 13/08 A3012 RMK AO2 PK WND 19029/1602 SLP191 T01280078', 'KABI 131952Z 19015KT 10SM CLR 18/01 A3008 RMK AO2 SLP182 T01830011', 'KABI 131852Z 20015KT 10SM CLR 17/01 A3012 RMK AO2 SLP193 T01720011', 'KABI 131752Z 20013G21KT 10SM CLR 16/02 A3015 RMK AO2 SLP204 T01560017 10156 20017 58002', 'KABI 131652Z 21016G20KT 10SM CLR 14/01 A3017 RMK AO2 SLP211 T01390011', 'KABI 131552Z 20011KT 10SM CLR 12/01 A3017 RMK AO2 SLP213 T01170011', 'KABI 131452Z 16005KT 10SM CLR 07/02 A3015 RMK AO2 SLP211 T00720022 53006', 'KABI 131352Z 15006KT 10SM CLR 02/M01 A3014 RMK AO2 SLP207 T00221006', 'KABI 131252Z 13007KT 10SM CLR 02/M01 A3013 RMK AO2 SLP204 T00221011', 'KABI 131152Z 15007KT 10SM CLR 02/M01 A3013 RMK AO2 SLP203 T00221006 10028 20006 53002', 'KABI 131052Z 16007KT 10SM CLR 02/M01 A3013 RMK AO2 SLP201 T00171006', 'KABI 130952Z 14004KT 10SM CLR 01/M01 A3013 RMK AO2 SLP201 T00111011', 'KABI 130852Z 19006KT 10SM CLR 01/M01 A3013 RMK AO2 SLP201 T00111006 50001', 'KABI 130752Z 18006KT 10SM CLR 01/M01 A3013 RMK AO2 SLP202 T00061011', 'KABI 130652Z 18005KT 10SM CLR 01/M01 A3012 RMK AO2 SLP201 T00111006', 'KABI 130552Z 17004KT 10SM CLR 03/M01 A3012 RMK AO2 SLP201 T00281006 10111 20028 401280006 51003', 'KABI 130452Z 17005KT 10SM CLR 03/00 A3012 RMK AO2 SLP200 T00330000', 'KABI 130352Z 18004KT 10SM CLR 05/01 A3012 RMK AO2 SLP201 T00500006', 'KABI 130252Z 16004KT 10SM CLR 04/00 A3011 RMK AO2 SLP200 T00440000 53012', 'KABI 130152Z 00000KT 10SM CLR 08/00 A3010 RMK AO2 SLP193 T00780000', 'KABI 130052Z 34005KT 10SM CLR 10/M01 A3009 RMK AO2 SLP190 T01001006', 'KABI 122352Z 32010KT 10SM CLR 11/M01 A3008 RMK AO2 SLP184 T01111011 10128 20094 55002', 'KABI 122252Z 28010KT 10SM CLR 12/M01 A3007 RMK AO2 PK WND 31026/2158 SLP182 T01221011', 'KABI 122152Z 27013G28KT 10SM CLR 12/00 A3007 RMK AO2 PK WND 32032/2108 SLP181 T01220000', 'KABI 122052Z 32010KT 10SM CLR 12/00 A3008 RMK AO2 SLP185 T01220000 56025', 'KABI 121952Z 31010KT 10SM CLR 12/00 A3011 RMK AO2 PK WND 32029/1857 SLP193 T01170000', 'KABI 121852Z 32011KT 10SM CLR 11/M01 A3014 RMK AO2 SLP205 T01061006', 'KABI 121752Z 31009KT 10SM CLR 09/01 A3016 RMK AO2 SLP214 T00940006 10094 20006 50006', 'KABI 121652Z 30010KT 10SM CLR 08/01 A3017 RMK AO2 SLP217 T00830006', 'KABI 121552Z 31010KT 10SM CLR 06/M01 A3016 RMK AO2 SLP217 T00611006', 'KABI 121452Z 31010KT 10SM CLR 03/M01 A3014 RMK AO2 SLP211 T00331011 53010', 'KABI 121352Z 31007KT 10SM CLR 01/M02 A3013 RMK AO2 SLP208 T00111017', 'KABI 121252Z 29008KT 10SM CLR 01/M01 A3011 RMK AO2 SLP203 T00111011', 'KABI 121152Z 29008KT 10SM CLR 02/M01 A3011 RMK AO2 SLP202 70001 T00171006 10028 20017 51005', 'KABI 121052Z 29010KT 10SM OVC028 03/01 A3011 RMK AO2 SLP199 T00280006']","['2024-02-15 09:52:00', '2024-02-15 08:52:00', '2024-02-15 07:52:00', '2024-02-15 06:52:00', '2024-02-15 05:52:00', '2024-02-15 04:52:00', '2024-02-15 03:52:00', '2024-02-15 02:52:00', '2024-02-15 01:52:00', '2024-02-15 00:52:00', '2024-02-14 23:52:00', '2024-02-14 22:52:00', '2024-02-14 21:52:00', '2024-02-14 20:52:00', '2024-02-14 19:52:00', '2024-02-14 18:52:00', '2024-02-14 17:52:00', '2024-02-14 16:52:00', '2024-02-13 19:52:00', '2024-02-13 18:52:00', '2024-02-13 17:52:00', '2024-02-13 16:52:00', '2024-02-13 15:52:00', '2024-02-13 14:52:00', '2024-02-13 13:52:00', '2024-02-13 12:52:00', '2024-02-13 11:52:00', '2024-02-13 10:52:00', '2024-02-13 09:52:00', '2024-02-13 08:52:00', '2024-02-13 07:52:00', '2024-02-13 06:52:00', '2024-02-13 05:52:00', '2024-02-13 04:52:00', '2024-02-13 03:52:00', '2024-02-13 02:52:00', '2024-02-13 01:52:00', '2024-02-13 00:52:00', '2024-02-12 23:52:00', '2024-02-12 22:52:00', '2024-02-12 21:52:00', '2024-02-12 20:52:00', '2024-02-12 19:52:00', '2024-02-12 18:52:00', '2024-02-12 17:52:00', '2024-02-12 16:52:00', '2024-02-12 15:52:00', '2024-02-12 14:52:00', '2024-02-12 13:52:00', '2024-02-12 12:52:00', '2024-02-12 11:52:00', '2024-02-12 10:52:00']"
United-states, Abingdon Virginia Highlands Airport (VJI/KVJI) ,"['KVJI 150955Z AUTO 00000KT 10SM CLR 00/M04 A3016 RMK AO2 T00001045', 'KVJI 150915Z AUTO 00000KT 10SM CLR 00/M05 A3017 RMK AO2 T00041050', 'KVJI 150855Z AUTO 10003KT 10SM CLR 00/M05 A3017 RMK AO2 T00011051', 'KVJI 150815Z AUTO 00000KT 10SM CLR 00/M04 A3018 RMK AO2 T00031044', 'KVJI 150755Z AUTO 11004KT 10SM CLR 01/M04 A3018 RMK AO2 T00091042', 'KVJI 150715Z AUTO 00000KT 10SM CLR 01/M05 A3019 RMK AO2 T00141047', 'KVJI 150655Z AUTO 00000KT 10SM CLR 01/M05 A3020 RMK AO2 T00061052', 'KVJI 150615Z AUTO 00000KT 10SM CLR 01/M05 A3018 RMK AO2 T00141050', 'KVJI 150555Z AUTO 00000KT 10SM CLR 02/M05 A3019 RMK AO2 T00181047 10088 20014 401161016', 'KVJI 150515Z AUTO 00000KT 10SM CLR 02/M05 A3021 RMK AO2 T00221047', 'KVJI 150455Z AUTO 00000KT 10SM CLR 02/M05 A3021 RMK AO2 T00231049', 'KVJI 150415Z AUTO 00000KT 10SM CLR 02/M05 A3020 RMK AO2 T00191048', 'KVJI 150355Z AUTO 00000KT 10SM CLR 02/M04 A3019 RMK AO2 T00231037', 'KVJI 150315Z AUTO 00000KT 10SM CLR 03/M04 A3019 RMK AO2 T00271040', 'KVJI 150255Z AUTO 00000KT 10SM CLR 04/M04 A3019 RMK AO2 T00411044', 'KVJI 150215Z AUTO 00000KT 10SM CLR 05/M04 A3020 RMK AO2 T00491039', 'KVJI 150155Z AUTO 00000KT 10SM CLR 05/M04 A3020 RMK AO2 T00451040', 'KVJI 150115Z AUTO 00000KT 10SM CLR 06/M04 A3019 RMK AO2 T00571041', 'KVJI 150055Z AUTO 29004KT 10SM CLR 07/M05 A3018 RMK AO2 T00711051', 'KVJI 150015Z AUTO 27003KT 10SM CLR 08/M04 A3018 RMK AO2 T00791036', 'KVJI 142355Z AUTO 00000KT 10SM SCT060 09/M04 A3017 RMK AO2 T00891039 10116 20087', 'KVJI 142315Z AUTO 29006KT 10SM SCT060 SCT070 09/M06 A3017 RMK AO2 T00941058', 'KVJI 142255Z AUTO 28006KT 10SM SCT060 BKN070 10/M04 A3016 RMK AO2 T01001037', 'KVJI 142215Z AUTO 27008G15KT 10SM BKN060 11/M04 A3016 RMK AO2 T01111040', 'KVJI 142155Z AUTO 27009KT 10SM BKN065 BKN070 11/M05 A3016 RMK AO2 T01121046', 'KVJI 142115Z AUTO 28010KT 10SM SCT065 12/M04 A3016 RMK AO2 T01151038', 'KVJI 142055Z AUTO 30008KT 10SM SCT050 SCT060 11/M04 A3016 RMK AO2 T01091042', 'KVJI 142015Z AUTO 31011G16KT 10SM SCT050 11/M04 A3016 RMK AO2 T01131041', 'KVJI 141955Z AUTO 31010G16KT 10SM CLR 11/M04 A3016 RMK AO2 T01121044', 'KVJI 141915Z AUTO 28009KT 260V320 10SM CLR 11/M04 A3017 RMK AO2 T01081037', 'KVJI 141855Z AUTO 33009G14KT 10SM CLR 10/M04 A3018 RMK AO2 T01041043', 'KVJI 141815Z AUTO 27013G17KT 10SM CLR 09/M04 A3019 RMK AO2 T00901038', 'KVJI 141755Z AUTO 27012G21KT 10SM CLR 09/M04 A3020 RMK AO2 T00871041 10087 21016', 'KVJI 141715Z AUTO 29010G16KT 270V330 10SM CLR 08/M05 A3022 RMK AO2 T00771047', 'KVJI 141655Z AUTO 30009KT 10SM CLR 08/M03 A3023 RMK AO2 T00761035', 'KVJI 141615Z AUTO 27008KT 10SM CLR 06/M03 A3023 RMK AO2 T00641034', 'KVJI 141555Z AUTO 25011KT 10SM CLR 06/M04 A3023 RMK AO2 T00561040', 'KVJI 141515Z AUTO 26007KT 10SM SCT100 04/M04 A3023 RMK AO2 T00411043', 'KVJI 141455Z AUTO 25007KT 10SM CLR 04/M04 A3023 RMK AO2 T00351042', 'KVJI 141415Z AUTO 26007KT 10SM CLR 02/M05 A3022 RMK AO2 T00201049', 'KVJI 141355Z AUTO 26006KT 10SM SCT090 01/M05 A3022 RMK AO2 T00121047', 'KVJI 141315Z AUTO 28005KT 10SM SCT002 00/M05 A3022 RMK AO2 T10011053', 'KVJI 141255Z AUTO 28005KT 10SM SCT002 M01/M06 A3021 RMK AO2 T10071056', 'KVJI 141215Z AUTO 28004KT 10SM CLR M01/M06 A3020 RMK AO2 T10121060', 'KVJI 141155Z AUTO 28003KT 10SM CLR M01/M06 A3019 RMK AO2 T10141061 10008 21014', 'KVJI 141115Z AUTO 28004KT 10SM CLR M01/M06 A3017 RMK AO2 T10071056', 'KVJI 141055Z AUTO 28006KT 10SM CLR 00/M05 A3016 RMK AO2 T10051055', 'KVJI 141015Z AUTO 28005KT 10SM CLR M01/M05 A3015 RMK AO2 T10061055', 'KVJI 140955Z AUTO 27005KT 10SM CLR 00/M05 A3014 RMK AO2 T10041053', 'KVJI 140915Z AUTO 28005KT 10SM CLR 00/M06 A3013 RMK AO2 T10041056', 'KVJI 140855Z AUTO 27005KT 10SM CLR 00/M06 A3013 RMK AO2 T10031057', 'KVJI 140815Z AUTO 27005KT 10SM CLR 00/M06 A3012 RMK AO2 T00001057', 'KVJI 140755Z AUTO 26004KT 10SM CLR 00/M06 A3012 RMK AO2 T00001057', 'KVJI 140715Z AUTO 27004KT 10SM CLR 00/M06 A3012 RMK AO2 T00031059', 'KVJI 140655Z AUTO 27005KT 10SM CLR 01/M06 A3011 RMK AO2 T00051060', 'KVJI 140615Z AUTO 27004KT 10SM CLR 01/M06 A3010 RMK AO2 T00081065', 'KVJI 140555Z AUTO 27004KT 10SM CLR 01/M08 A3011 RMK AO2 T00081083 10046 20007 400850007', 'KVJI 140515Z AUTO 26006KT 10SM CLR 01/M10 A3010 RMK AO2 T00111101', 'KVJI 140455Z AUTO 28004KT 10SM CLR 02/M09 A3010 RMK AO2 T00151086', 'KVJI 140415Z AUTO 28005KT 10SM CLR 01/M12 A3009 RMK AO2 T00131117', 'KVJI 140355Z AUTO 27006KT 10SM CLR 02/M11 A3009 RMK AO2 T00181109', 'KVJI 140315Z AUTO 29005KT 10SM CLR 02/M11 A3009 RMK AO2 T00221108', 'KVJI 140255Z AUTO 28005KT 10SM CLR 02/M11 A3009 RMK AO2 T00231111', 'KVJI 140215Z AUTO 29005KT 10SM CLR 03/M11 A3008 RMK AO2 T00261113', 'KVJI 140155Z AUTO 30005KT 10SM CLR 02/M09 A3008 RMK AO2 T00221088', 'KVJI 140115Z AUTO 00000KT 10SM CLR 03/M16 A3006 RMK AO2 T00301161', 'KVJI 140055Z AUTO 00000KT 10SM CLR 03/M15 A3007 RMK AO2 T00301154', 'KVJI 140015Z AUTO 31003KT 10SM CLR 05/M17 A3005 RMK AO2 T00451167', 'KVJI 132355Z AUTO 31003KT 10SM CLR 05/M17 A3005 RMK AO2 T00471168 10068 20043', 'KVJI 132315Z AUTO 33008KT 10SM CLR 05/M16 A3002 RMK AO2 T00531159', 'KVJI 132255Z AUTO 32008KT 10SM CLR 06/M17 A3001 RMK AO2 T00581168', 'KVJI 132215Z AUTO 33010G17KT 10SM CLR 07/M18 A3000 RMK AO2 T00651181', 'KVJI 132155Z AUTO 32008KT 10SM CLR 07/M17 A2999 RMK AO2 T00651175', 'KVJI 132115Z AUTO 31006G15KT 290V350 10SM SCT049 07/M17 A2998 RMK AO2 T00651167', 'KVJI 132055Z AUTO 31012G18KT 10SM SCT048 07/M17 A2997 RMK AO2 T00661166', 'KVJI 132015Z AUTO 32011G19KT 310V010 10SM CLR 06/M15 A2997 RMK AO2 T00601153', 'KVJI 131955Z AUTO 32011G17KT 10SM CLR 06/M16 A2997 RMK AO2 T00601159', 'KVJI 131915Z AUTO 35015G20KT 10SM SCT042 06/M14 A2997 RMK AO2 T00571140', 'KVJI 131855Z AUTO 34006G15KT 10SM BKN040 06/M16 A2997 RMK AO2 T00561164', 'KVJI 131815Z AUTO 35007G16KT 310V010 10SM SCT038 05/M16 A2998 RMK AO2 T00481163', 'KVJI 131755Z AUTO 33010G19KT 10SM SCT036 SCT044 04/M17 A2998 RMK AO2 T00421168 10045 20010', 'KVJI 131715Z AUTO 36007G15KT 10SM CLR 04/M13 A2998 RMK AO2 T00391126', 'KVJI 131655Z AUTO 35010G18KT 10SM CLR 03/M12 A2999 RMK AO2 T00321125', 'KVJI 131615Z AUTO 33010G16KT 10SM CLR 03/M12 A2998 RMK AO2 T00271116', 'KVJI 131555Z AUTO 36007G18KT 10SM SCT032 03/M11 A2996 RMK AO2 T00251114', 'KVJI 131515Z AUTO 32007KT 10SM BKN028 BKN035 02/M12 A2994 RMK AO2 T00211118', 'KVJI 131455Z AUTO 30009G17KT 10SM BKN026 BKN034 02/M11 A2993 RMK AO2 T00181107', 'KVJI 131415Z AUTO 32007G17KT 10SM BKN026 01/M21 A2990 RMK AO2 T00101210', 'KVJI 131355Z AUTO 32006G17KT 10SM BKN026 BKN033 01/M18 A2989 RMK AO2 T00111183', 'KVJI 131315Z AUTO 33011G18KT 280V360 10SM BKN024 BKN031 01/M10 A2985 RMK AO2 T00101101', 'KVJI 131255Z AUTO 33010G18KT 300V360 10SM BKN022 BKN027 01/M10 A2983 RMK AO2 T00101098', 'KVJI 131215Z AUTO 34011G18KT 10SM OVC018 02/M09 A2980 RMK AO2 T00151091', 'KVJI 131155Z AUTO 32010G15KT 10SM OVC018 02/M08 A2978 RMK AO2 60026 70069 T00151085 10085 20015', 'KVJI 131115Z AUTO 33013G19KT 10SM SCT020 BKN044 OVC080 02/M10 A2974 RMK AO2 T00161099', 'KVJI 131055Z AUTO 35015G27KT 7SM -SN BKN015 BKN025 OVC050 02/M09 A2972 RMK AO2 T00151094', 'KVJI 131015Z AUTO 35013G26KT 4SM -RA SCT012 OVC019 02/M16 A2968 RMK AO2 T00151160', 'KVJI 130955Z AUTO 35012G23KT 4SM RA BKN015 OVC021 02/M13 A2965 RMK AO2 T00181132', 'KVJI 130915Z AUTO 35015G32KT 10SM -RA BKN016 OVC022 04/01 A2958 RMK AO2 T00350009', 'KVJI 130855Z AUTO 35009G19KT 10SM -RA OVC014 04/02 A2957 RMK AO2 P0002 60026 T00400023', 'KVJI 130815Z AUTO 35012G22KT 10SM -RA OVC012 05/04 A2951 RMK AO2 P0001 T00490038', 'KVJI 130755Z AUTO 35012G18KT 320V020 7SM -RA BKN008 OVC022 06/05 A2949 RMK AO2 P0011 T00570049', 'KVJI 130715Z AUTO 28014G20KT 5SM RA OVC008 08/08 A2946 RMK AO2 P0002 T00760076', 'KVJI 130655Z AUTO 27013G18KT 5SM RA OVC006 08/08 A2945 RMK AO2 P0013 T00780078', 'KVJI 130615Z AUTO 26009KT 10SM RA OVC006 08/08 A2945 RMK AO2 T00840084', 'KVJI 130555Z AUTO 26004KT 10SM BKN006 OVC010 08/08 A2946 RMK AO2 P0010 60033 T00820082 10128 20080 401370080', 'KVJI 130515Z AUTO 29003KT 4SM RA BKN009 BKN013 OVC020 08/08 A2947 RMK AO2 P0008 T00810081', 'KVJI 130455Z AUTO 27005KT 7SM -RA BKN018 BKN024 OVC041 08/08 A2947 RMK AO2 P0008 T00800079', 'KVJI 130415Z AUTO 32011G18KT 10SM -RA SCT017 BKN036 OVC050 09/08 A2949 RMK AO2 P0002 T00850078', 'KVJI 130355Z AUTO 31014G31KT 5SM RA SCT012 BKN018 OVC043 09/09 A2949 RMK AO2 P0014 T00910085', 'KVJI 130315Z AUTO 00000KT 10SM RA SCT037 BKN060 OVC075 12/09 A2943 RMK AO2 T01190085', 'KVJI 130255Z AUTO 17004KT 10SM BKN070 BKN085 11/08 A2943 RMK AO2 T01060080', 'KVJI 130215Z AUTO 24004KT 10SM SCT036 SCT050 BKN110 13/08 A2946 RMK AO2 T01250083', 'KVJI 130155Z AUTO 00000KT 10SM SCT036 SCT043 BKN110 13/08 A2948 RMK AO2 T01260082', 'KVJI 130115Z AUTO 07003KT 10SM BKN060 BKN070 BKN080 11/11 A2948 RMK AO2 T01130110', 'KVJI 130055Z AUTO 10004KT 10SM OVC070 12/11 A2949 RMK AO2 T01150112', 'KVJI 130015Z AUTO 15003KT 7SM OVC090 11/11 A2952 RMK AO2 T01140114', 'KVJI 122355Z AUTO 10006KT 10SM SCT065 OVC090 12/12 A2953 RMK AO2 P0003 60005 T01170117 10137 20116', 'KVJI 122315Z AUTO 00000KT 5SM RA OVC065 12/12 A2959 RMK AO2 P0002 T01170116', 'KVJI 122255Z AUTO 00000KT 7SM -RA OVC065 12/12 A2960 RMK AO2 P0002 T01210118', 'KVJI 122215Z AUTO 00000KT 10SM -RA SCT034 BKN046 OVC080 13/12 A2962 RMK AO2 T01260116', 'KVJI 122155Z AUTO 17003KT 10SM BKN043 BKN070 OVC080 13/12 A2962 RMK AO2 T01260117', 'KVJI 122115Z AUTO 13005KT 10SM OVC036 13/12 A2963 RMK AO2 T01300118', 'KVJI 122055Z AUTO 00000KT 10SM BKN038 OVC050 13/12 A2967 RMK AO2 T01320118', 'KVJI 122015Z AUTO 00000KT 10SM BKN055 13/12 A2966 RMK AO2 T01300116', 'KVJI 121955Z AUTO 10004KT 10SM BKN055 13/12 A2965 RMK AO2 T01340117', 'KVJI 121915Z AUTO 00000KT 10SM SCT043 BKN055 OVC070 13/12 A2969 RMK AO2 T01340117', 'KVJI 121855Z AUTO 00000KT 10SM SCT032 BKN043 14/12 A2971 RMK AO2 T01350115', 'KVJI 121815Z AUTO 00000KT 10SM CLR 13/11 A2972 RMK AO2 T01310113', 'KVJI 121755Z AUTO 00000KT 10SM SCT038 SCT047 13/12 A2972 RMK AO2 60005 T01290115 10129 20091', 'KVJI 121715Z AUTO 08004KT 10SM SCT005 SCT041 12/11 A2972 RMK AO2 T01210112', 'KVJI 121655Z AUTO 11006KT 10SM BKN005 BKN030 BKN037 12/11 A2974 RMK AO2 T01180112', 'KVJI 121615Z AUTO 13009KT 10SM BKN005 OVC025 12/11 A2975 RMK AO2 T01160112', 'KVJI 121555Z AUTO 11009KT 10SM BKN003 BKN028 11/11 A2974 RMK AO2 P0001 T01120112', 'KVJI 121515Z AUTO 08004KT 5SM BR SCT005 OVC023 10/10 A2979 RMK AO2 P0001 T01020102', 'KVJI 121455Z AUTO 10003KT 4SM DZ SCT005 SCT014 OVC025 10/10 A2982 RMK AO2 P0004 60004 T01000100', 'KVJI 121415Z AUTO 00000KT 10SM SCT004 BKN023 OVC028 10/10 A2982 RMK AO2 T00970097', 'KVJI 121355Z AUTO 06003KT 10SM SCT029 OVC035 10/10 A2981 RMK AO2 T00960096', 'KVJI 121315Z AUTO 06005KT 7SM -DZ SCT006 OVC033 10/10 A2982 RMK AO2 T00960095', 'KVJI 121255Z AUTO 04003KT 10SM RA OVC031 10/10 A2982 RMK AO2 T00960095', 'KVJI 121215Z AUTO 05003KT 10SM -RA SCT013 OVC035 09/09 A2982 RMK AO2 T00920092', 'KVJI 121155Z AUTO 12005KT 10SM -DZ OVC037 09/09 A2981 RMK AO2 P0003 60003 70012 T00910090 10100 20085', 'KVJI 121115Z AUTO 16003KT 7SM +RA SCT017 SCT028 OVC037 10/09 A2982 RMK AO2 T00980086', 'KVJI 121055Z AUTO 07005KT 10SM BKN039 OVC060 10/09 A2980 RMK AO2 T01000086', 'KVJI 121015Z AUTO 08003KT 10SM SCT046 OVC070 09/09 A2981 RMK AO2 T00930087']","['2024-02-15 09:55:00', '2024-02-15 09:15:00', '2024-02-15 08:55:00', '2024-02-15 08:15:00', '2024-02-15 07:55:00', '2024-02-15 07:15:00', '2024-02-15 06:55:00', '2024-02-15 06:15:00', '2024-02-15 05:55:00', '2024-02-15 05:15:00', '2024-02-15 04:55:00', '2024-02-15 04:15:00', '2024-02-15 03:55:00', '2024-02-15 03:15:00', '2024-02-15 02:55:00', '2024-02-15 02:15:00', '2024-02-15 01:55:00', '2024-02-15 01:15:00', '2024-02-15 00:55:00', '2024-02-15 00:15:00', '2024-02-14 23:55:00', '2024-02-14 23:15:00', '2024-02-14 22:55:00', '2024-02-14 22:15:00', '2024-02-14 21:55:00', '2024-02-14 21:15:00', '2024-02-14 20:55:00', '2024-02-14 20:15:00', '2024-02-14 19:55:00', '2024-02-14 19:15:00', '2024-02-14 18:55:00', '2024-02-14 18:15:00', '2024-02-14 17:55:00', '2024-02-14 17:15:00', '2024-02-14 16:55:00', '2024-02-14 16:15:00', '2024-02-14 15:55:00', '2024-02-14 15:15:00', '2024-02-14 14:55:00', '2024-02-14 14:15:00', '2024-02-14 13:55:00', '2024-02-14 13:15:00', '2024-02-14 12:55:00', '2024-02-14 12:15:00', '2024-02-14 11:55:00', '2024-02-14 11:15:00', '2024-02-14 10:55:00', '2024-02-14 10:15:00', '2024-02-14 09:55:00', '2024-02-14 09:15:00', '2024-02-14 08:55:00', '2024-02-14 08:15:00', '2024-02-14 07:55:00', '2024-02-14 07:15:00', '2024-02-14 06:55:00', '2024-02-14 06:15:00', '2024-02-14 05:55:00', '2024-02-14 05:15:00', '2024-02-14 04:55:00', '2024-02-14 04:15:00', '2024-02-14 03:55:00', '2024-02-14 03:15:00', '2024-02-14 02:55:00', '2024-02-14 02:15:00', '2024-02-14 01:55:00', '2024-02-14 01:15:00', '2024-02-14 00:55:00', '2024-02-14 00:15:00', '2024-02-13 23:55:00', '2024-02-13 23:15:00', '2024-02-13 22:55:00', '2024-02-13 22:15:00', '2024-02-13 21:55:00', '2024-02-13 21:15:00', '2024-02-13 20:55:00', '2024-02-13 20:15:00', '2024-02-13 19:55:00', '2024-02-13 19:15:00', '2024-02-13 18:55:00', '2024-02-13 18:15:00', '2024-02-13 17:55:00', '2024-02-13 17:15:00', '2024-02-13 16:55:00', '2024-02-13 16:15:00', '2024-02-13 15:55:00', '2024-02-13 15:15:00', '2024-02-13 14:55:00', '2024-02-13 14:15:00', '2024-02-13 13:55:00', '2024-02-13 13:15:00', '2024-02-13 12:55:00', '2024-02-13 12:15:00', '2024-02-13 11:55:00', '2024-02-13 11:15:00', '2024-02-13 10:55:00', '2024-02-13 10:15:00', '2024-02-13 09:55:00', '2024-02-13 09:15:00', '2024-02-13 08:55:00', '2024-02-13 08:15:00', '2024-02-13 07:55:00', '2024-02-13 07:15:00', '2024-02-13 06:55:00', '2024-02-13 06:15:00', '2024-02-13 05:55:00', '2024-02-13 05:15:00', '2024-02-13 04:55:00', '2024-02-13 04:15:00', '2024-02-13 03:55:00', '2024-02-13 03:15:00', '2024-02-13 02:55:00', '2024-02-13 02:15:00', '2024-02-13 01:55:00', '2024-02-13 01:15:00', '2024-02-13 00:55:00', '2024-02-13 00:15:00', '2024-02-12 23:55:00', '2024-02-12 23:15:00', '2024-02-12 22:55:00', '2024-02-12 22:15:00', '2024-02-12 21:55:00', '2024-02-12 21:15:00', '2024-02-12 20:55:00', '2024-02-12 20:15:00', '2024-02-12 19:55:00', '2024-02-12 19:15:00', '2024-02-12 18:55:00', '2024-02-12 18:15:00', '2024-02-12 17:55:00', '2024-02-12 17:15:00', '2024-02-12 16:55:00', '2024-02-12 16:15:00', '2024-02-12 15:55:00', '2024-02-12 15:15:00', '2024-02-12 14:55:00', '2024-02-12 14:15:00', '2024-02-12 13:55:00', '2024-02-12 13:15:00', '2024-02-12 12:55:00', '2024-02-12 12:15:00', '2024-02-12 11:55:00', '2024-02-12 11:15:00', '2024-02-12 10:55:00', '2024-02-12 10:15:00']"
United-states, Ada Municipal Airport (ADT/KADH) ,"['KADH 121310Z AUTO 33007KT 10SM -DZ A3000 RMK AO2 TSNO', 'KADH 121230Z AUTO 34011G16KT 10SM A2999 RMK AO2 P0002 TSNO', 'KADH 121210Z AUTO 35011G19KT 310V010 10SM A2998 RMK AO2 P0001 TSNO', 'KADH 121150Z AUTO 34010G17KT 7SM -RA A2997 RMK AO2 P0003 TSNO', 'KADH 121110Z AUTO 34011G18KT 10SM A2995 RMK AO2 P0001 TSNO', 'KADH 121050Z AUTO 34008G14KT 5SM -SN A2995 RMK AO2 P0003 TSNO', 'KADH 121010Z AUTO 33008G15KT 290V360 2SM -SN A2994 RMK AO2 P0001 TSNO']","['2024-02-12 13:10:00', '2024-02-12 12:30:00', '2024-02-12 12:10:00', '2024-02-12 11:50:00', '2024-02-12 11:10:00', '2024-02-12 10:50:00', '2024-02-12 10:10:00']"
United-states, Adak Airport (ADK/PADK) ,"['PADK 150956Z AUTO 32003KT 10SM OVC043 M04/M08 A2985 RMK AO2 SLP106 T10441078 FZRANO $', 'PADK 150856Z AUTO 22006KT 10SM CLR M09/M11 A2986 RMK AO2 SLP110 T10891106 58007 FZRANO $', 'PADK 150756Z AUTO 22004KT 10SM CLR M08/M10 A2987 RMK AO2 SLP114 T10781100 400111122 FZRANO $', 'PADK 150656Z AUTO 23003KT 10SM CLR M08/M09 A2987 RMK AO2 SLP116 T10781094 FZRANO $', 'PADK 150556Z AUTO 00000KT 10SM SCT047 M04/M07 A2988 RMK AO2 SLP118 60000 T10391067 10011 21039 58004 FZRANO $', 'PADK 150456Z AUTO 23004KT 10SM BKN049 M03/M06 A2989 RMK AO2 SLP120 T10331061 FZRANO $', 'PADK 150356Z AUTO VRB03KT 10SM OVC049 M01/M05 A2989 RMK AO2 UPB33E45 SLP120 P0000 T10061050 FZRANO $', 'PADK 150256Z AUTO 22004KT 10SM OVC047 M01/M05 A2989 RMK AO2 SLP122 T10111050 55003 FZRANO $', 'PADK 150156Z AUTO 19006KT 10SM BKN049 01/M05 A2988 RMK AO2 SLP119 T00111050 FZRANO $', 'PADK 150056Z AUTO 22004KT 10SM CLR 00/M04 A2989 RMK AO2 SLP122 T00001044 FZRANO $', 'PADK 142356Z AUTO 00000KT 10SM CLR M01/M06 A2990 RMK AO2 SLP125 T10111056 10011 21122 58005 FZRANO $', 'PADK 142256Z AUTO 00000KT 10SM CLR M03/M07 A2990 RMK AO2 SLP126 T10331067 FZRANO $', 'PADK 142156Z AUTO 00000KT 10SM CLR M02/M05 A2991 RMK AO2 SLP129 T10221050 FZRANO $', 'PADK 142056Z AUTO 00000KT 10SM CLR M06/M08 A2991 RMK AO2 SLP129 T10611083 51007 FZRANO $', 'PADK 141956Z AUTO 23004KT 10SM CLR M11/M12 A2991 RMK AO2 SLP128 T11061122 FZRANO $', 'PADK 141856Z AUTO 00000KT 10SM CLR M11/M13 A2990 RMK AO2 SLP126 T11111128 FZRANO $', 'PADK 141756Z AUTO 24003KT 10SM CLR M11/M13 A2989 RMK AO2 SLP122 T11111128 11094 21117 53007 FZRANO $', 'PADK 141656Z AUTO 00000KT 10SM CLR M11/M12 A2988 RMK AO2 SLP119 T11061122 FZRANO $', 'PADK 141556Z AUTO 23004KT 10SM CLR M11/M13 A2988 RMK AO2 SLP117 T11111133 FZRANO $', 'PADK 141456Z AUTO 24003KT 10SM CLR M11/M13 A2987 RMK AO2 SLP115 T11111133 53004 FZRANO $', 'PADK 141356Z AUTO 00000KT 10SM CLR M11/M13 A2987 RMK AO2 SLP113 T11111133 FZRANO $', 'PADK 141256Z AUTO 00000KT 10SM CLR M11/M13 A2986 RMK AO2 SLP112 T11111133 FZRANO $', 'PADK 141156Z AUTO 26003KT 10SM CLR M09/M12 A2986 RMK AO2 SLP111 70003 T10941117 11089 21106 53012 FZRANO $', 'PADK 141056Z AUTO 24005KT 10SM CLR M09/M12 A2985 RMK AO2 SLP107 T10941117 FZRANO $', 'PADK 140956Z AUTO 22004KT 10SM CLR M11/M13 A2983 RMK AO2 SLP102 T11061128 FZRANO $', 'PADK 140856Z AUTO 00000KT 10SM CLR M10/M12 A2983 RMK AO2 SLP100 T11001122 51017 FZRANO $', 'PADK 140756Z AUTO 23005KT 10SM CLR M09/M11 A2981 RMK AO2 SLP094 T10891111 400111100 FZRANO $', 'PADK 140656Z AUTO 23005KT 10SM CLR M10/M12 A2980 RMK AO2 SLP090 T11001122 FZRANO $', 'PADK 140556Z AUTO 22005KT 10SM CLR M09/M11 A2978 RMK AO2 SLP083 T10891111 10000 21089 53016 FZRANO $', 'PADK 140456Z AUTO 22004KT 10SM CLR M07/M10 A2976 RMK AO2 SLP077 T10721100 FZRANO $', 'PADK 140356Z AUTO 23004KT 10SM CLR M04/M08 A2974 RMK AO2 SLP072 T10441078 FZRANO $', 'PADK 140256Z AUTO 22005KT 10SM CLR M03/M06 A2973 RMK AO2 SLP067 T10281061 53006 FZRANO $', 'PADK 140156Z AUTO 23003KT 10SM CLR M01/M04 A2972 RMK AO2 SLP062 T10061039 FZRANO $', 'PADK 140056Z AUTO 20005KT 10SM CLR M01/M04 A2971 RMK AO2 SLP060 T10111044 FZRANO $', 'PADK 132356Z AUTO 19006KT 10SM CLR M01/M04 A2971 RMK AO2 SLP061 P0002 60003 T10061039 10011 21078 51007 FZRANO $', 'PADK 132256Z AUTO 27008KT 10SM BKN035 00/M04 A2970 RMK AO2 SLP059 P0001 T00001039 FZRANO $', 'PADK 132156Z AUTO 00000KT 10SM FEW046 01/M03 A2970 RMK AO2 SLP059 T00111028 FZRANO $', 'PADK 132056Z AUTO 21005KT 10SM BKN041 M03/M06 A2969 RMK AO2 SLP053 60000 T10331056 53017 FZRANO $', 'PADK 131956Z AUTO 22007KT 10SM SCT044 SCT055 M07/M09 A2967 RMK AO2 SLP047 T10721089 FZRANO $', 'PADK 131856Z AUTO 23005KT 10SM CLR M07/M09 A2965 RMK AO2 SNB19E34 SLP040 P0000 T10721094 FZRANO $', 'PADK 131756Z AUTO VRB05KT 10SM FEW034 M04/M06 A2964 RMK AO2 SNE36 SLP037 P0000 60000 T10391061 11022 21067 53006 FZRANO $', 'PADK 131723Z AUTO 04011KT 9SM -SN SCT026 SCT031 OVC080 M03/M05 A2963 RMK AO2 P0000 FZRANO $', 'PADK 131700Z AUTO 04009KT 2SM -SN BR BKN026 BKN035 OVC048 M02/M04 A2963 RMK AO2 P0000 FZRANO $', 'PADK 131556Z AUTO 23005KT 10SM -SN FEW035 SCT045 BKN055 M06/M09 A2962 RMK AO2 SNB55 SLP031 P0000 T10611089 FZRANO $', 'PADK 131456Z AUTO 04009KT 10SM FEW033 BKN045 M03/M06 A2962 RMK AO2 SNE1359 SLP030 P0000 60000 T10331056 53004 FZRANO $', 'PADK 131356Z AUTO 05008KT 9SM -SN FEW027 SCT065 M03/M07 A2962 RMK AO2 SNB07 SLP029 P0000 T10331067 FZRANO $', 'PADK 131256Z AUTO 35006KT 10SM SCT043 BKN050 M03/M07 A2961 RMK AO2 SLP026 T10281072 FZRANO $', 'PADK 131156Z AUTO 02004KT 10SM FEW042 SCT070 M04/M08 A2961 RMK AO2 SNB11E40 SLP026 P0000 60000 70002 T10391078 11017 21039 53007 FZRANO $', 'PADK 131056Z AUTO 03008KT 10SM BKN044 M03/M08 A2960 RMK AO2 SLP022 T10331083 FZRANO $', 'PADK 130956Z AUTO 02011KT 10SM FEW050 M03/M08 A2960 RMK AO2 SLP022 T10331078 FZRANO $', 'PADK 130856Z AUTO 01012KT 10SM SCT043 SCT060 M03/M07 A2959 RMK AO2 SLP019 T10281067 51004 FZRANO $', 'PADK 130756Z AUTO 01012KT 10SM FEW033 M03/M07 A2958 RMK AO2 SLP017 T10281067 400171056 FZRANO $', 'PADK 130656Z AUTO 03011KT 10SM FEW022 M03/M06 A2959 RMK AO2 SLP019 T10281056 FZRANO $', 'PADK 130556Z AUTO 35010KT 10SM SCT045 M03/M07 A2958 RMK AO2 SNE06 SLP015 P0000 60000 T10331072 10000 21039 50001 FZRANO $', 'PADK 130507Z AUTO 02007KT 9SM FEW013 SCT023 BKN037 M03/M06 A2958 RMK AO2 SNE06 P0000 FZRANO $', 'PADK 130500Z AUTO 02006KT 9SM -SN SCT015 BKN028 OVC048 M02/M05 A2958 RMK AO2 P0000 FZRANO $', 'PADK 130356Z AUTO 02004KT 9SM FEW005 SCT025 SCT046 M03/M06 A2957 RMK AO2 SNB24E54 SLP014 P0000 T10281056 FZRANO $', 'PADK 130256Z AUTO 33011KT 10SM FEW020 SCT026 M01/M05 A2957 RMK AO2 SNB00E13 SLP012 P0000 60000 T10111050 55003 FZRANO $', 'PADK 130220Z AUTO 36012KT 10SM SCT028 BKN065 BKN090 M02/M05 A2957 RMK AO2 SNB00E13 P0000 FZRANO $', 'PADK 130156Z AUTO 35008KT 10SM BKN026 M01/M05 A2956 RMK AO2 UPB35E53SNE06 SLP011 P0000 T10111050 FZRANO $', 'PADK 130103Z AUTO 31003KT 4SM -SN FEW009 SCT025 BKN036 M02/M05 A2957 RMK AO2 P0000 FZRANO $', 'PADK 130100Z AUTO 32004KT 2SM -SN SCT009 BKN025 BKN036 M02/M05 A2957 RMK AO2 P0000 FZRANO $', 'PADK 122356Z AUTO 33009KT 7SM -SN FEW018 SCT027 BKN036 M01/M04 A2958 RMK AO2 UPB39E41SNB41 SLP016 P0001 60002 T10061039 10017 21056 56006 FZRANO $', 'PADK 122305Z AUTO 00000KT 10SM FEW011 SCT032 BKN042 M01/M04 A2958 RMK AO2 FZRANO $', 'PADK 122256Z AUTO 30003KT 9SM FEW011 SCT015 BKN029 M02/M05 A2958 RMK AO2 UPB26E28SNB28E53 SLP018 P0001 T10171050 FZRANO $', 'PADK 122218Z AUTO 21004KT 10SM SCT027 BKN033 00/M04 A2959 RMK AO2 FZRANO $', 'PADK 122156Z AUTO 24003KT 9SM SCT021 BKN027 BKN033 M01/M04 A2959 RMK AO2 SNE13B37E56 SLP021 P0000 T10111039 FZRANO $', 'PADK 122056Z AUTO VRB03KT 3SM -SN FEW014 BKN035 OVC042 M01/M04 A2960 RMK AO2 SLP025 P0000 60000 T10111039 58001 FZRANO $', 'PADK 122029Z AUTO 00000KT 9SM -SN FEW014 SCT028 BKN042 M03/M06 A2960 RMK AO2 P0000 FZRANO $', 'PADK 121958Z AUTO 00000KT 1SM -SN SCT008 BKN014 OVC030 M03/M06 A2961 RMK AO2 P0000 FZRANO $', 'PADK 121856Z AUTO 00000KT 10SM BKN045 BKN050 M05/M09 A2961 RMK AO2 SLP025 T10501089 FZRANO $', 'PADK 121756Z AUTO 30006KT 10SM FEW039 M04/M08 A2961 RMK AO2 SLP025 60000 T10441078 11011 21044 50002 FZRANO $', 'PADK 121656Z AUTO 32005KT 10SM BKN043 M03/M07 A2961 RMK AO2 SNB02E12 SLP026 P0000 T10281072 FZRANO $', 'PADK 121556Z AUTO 28007KT 10SM SCT043 BKN070 M03/M07 A2961 RMK AO2 SNE38 SLP025 P0000 T10331072 FZRANO $', 'PADK 121456Z AUTO 26005KT 6SM -SN BKN041 BKN050 BKN060 M02/M06 A2960 RMK AO2 SNE03B39 SLP024 P0000 60000 T10221056 50004 FZRANO $', 'PADK 121356Z AUTO 33003KT 9SM -SN FEW011 SCT027 BKN039 M02/M05 A2960 RMK AO2 SNB1258E07B37 SLP024 P0000 T10221050 FZRANO $', 'PADK 121314Z AUTO 36011KT 10SM BKN032 BKN040 OVC050 M02/M04 A2959 RMK AO2 SNB1258E07 P0000 FZRANO $', 'PADK 121256Z AUTO 36011G15KT 9SM FEW009 BKN029 OVC038 M02/M04 A2960 RMK AO2 SNE56 SLP022 P0000 T10171039 FZRANO $', 'PADK 121230Z AUTO 32006KT 3/4SM -SN FEW007 BKN025 OVC033 M02/M04 A2960 RMK AO2 P0000 FZRANO $', 'PADK 121156Z AUTO 33014KT 9SM -SN FEW026 BKN031 BKN039 M02/M04 A2959 RMK AO2 SNB15 SLP020 P0000 60000 70002 T10171044 10000 21017 52008 FZRANO $', 'PADK 121056Z AUTO 34011KT 10SM FEW013 SCT026 SCT030 M02/M05 A2958 RMK AO2 SNB0958E50 SLP015 P0000 T10171050 FZRANO $', 'PADK 121028Z AUTO 34014KT 2 1/2SM -SN FEW014 BKN029 OVC041 M01/M04 A2958 RMK AO2 VIS 1V5 SNB0958 P0000 FZRANO $']","['2024-02-15 09:56:00', '2024-02-15 08:56:00', '2024-02-15 07:56:00', '2024-02-15 06:56:00', '2024-02-15 05:56:00', '2024-02-15 04:56:00', '2024-02-15 03:56:00', '2024-02-15 02:56:00', '2024-02-15 01:56:00', '2024-02-15 00:56:00', '2024-02-14 23:56:00', '2024-02-14 22:56:00', '2024-02-14 21:56:00', '2024-02-14 20:56:00', '2024-02-14 19:56:00', '2024-02-14 18:56:00', '2024-02-14 17:56:00', '2024-02-14 16:56:00', '2024-02-14 15:56:00', '2024-02-14 14:56:00', '2024-02-14 13:56:00', '2024-02-14 12:56:00', '2024-02-14 11:56:00', '2024-02-14 10:56:00', '2024-02-14 09:56:00', '2024-02-14 08:56:00', '2024-02-14 07:56:00', '2024-02-14 06:56:00', '2024-02-14 05:56:00', '2024-02-14 04:56:00', '2024-02-14 03:56:00', '2024-02-14 02:56:00', '2024-02-14 01:56:00', '2024-02-14 00:56:00', '2024-02-13 23:56:00', '2024-02-13 22:56:00', '2024-02-13 21:56:00', '2024-02-13 20:56:00', '2024-02-13 19:56:00', '2024-02-13 18:56:00', '2024-02-13 17:56:00', '2024-02-13 17:23:00', '2024-02-13 17:00:00', '2024-02-13 15:56:00', '2024-02-13 14:56:00', '2024-02-13 13:56:00', '2024-02-13 12:56:00', '2024-02-13 11:56:00', '2024-02-13 10:56:00', '2024-02-13 09:56:00', '2024-02-13 08:56:00', '2024-02-13 07:56:00', '2024-02-13 06:56:00', '2024-02-13 05:56:00', '2024-02-13 05:07:00', '2024-02-13 05:00:00', '2024-02-13 03:56:00', '2024-02-13 02:56:00', '2024-02-13 02:20:00', '2024-02-13 01:56:00', '2024-02-13 01:03:00', '2024-02-13 01:00:00', '2024-02-12 23:56:00', '2024-02-12 23:05:00', '2024-02-12 22:56:00', '2024-02-12 22:18:00', '2024-02-12 21:56:00', '2024-02-12 20:56:00', '2024-02-12 20:29:00', '2024-02-12 19:58:00', '2024-02-12 18:56:00', '2024-02-12 17:56:00', '2024-02-12 16:56:00', '2024-02-12 15:56:00', '2024-02-12 14:56:00', '2024-02-12 13:56:00', '2024-02-12 13:14:00', '2024-02-12 12:56:00', '2024-02-12 12:30:00', '2024-02-12 11:56:00', '2024-02-12 10:56:00', '2024-02-12 10:28:00']"
United-states, Adrian Lenawee County Airport (ADG/KADG) ,"['KADG 150953Z AUTO 14006KT 10SM CLR M01/M06 A3002 RMK AO2 SLP173 T10061061 $', 'KADG 150853Z AUTO 13006KT 10SM CLR M01/M06 A3006 RMK AO2 SLP188 T10061061 58031 $', 'KADG 150753Z AUTO 14008KT 10SM BKN110 M01/M07 A3010 RMK AO2 SLP202 T10061067 $', 'KADG 150653Z AUTO 16006KT 10SM SCT120 00/M07 A3013 RMK AO2 SLP213 T00001067 $', 'KADG 150553Z AUTO 16006KT 10SM FEW120 M01/M07 A3015 RMK AO2 SLP222 T10061072 10011 21017 58014 $', 'KADG 150453Z AUTO 16005KT 10SM CLR M01/M07 A3017 RMK AO2 SLP228 T10111067 400501022 $', 'KADG 150353Z AUTO 17003KT 10SM CLR M01/M08 A3018 RMK AO2 SLP231 T10111078 $', 'KADG 150253Z AUTO 17003KT 10SM CLR M01/M07 A3020 RMK AO2 SLP235 T10111067 58011 $', 'KADG 150153Z AUTO 00000KT 10SM CLR M01/M07 A3021 RMK AO2 SLP240 T10061072 $', 'KADG 150053Z AUTO 20003KT 10SM CLR 00/M09 A3023 RMK AO2 SLP249 T00001089 $', 'KADG 142353Z AUTO 19003KT 10SM CLR 01/M09 A3023 RMK AO2 SLP247 T00111089 10050 20011 $', 'KADG 142253Z AUTO 00000KT 10SM CLR 03/M09 A3021 RMK AO2 SLP241 T00281089 $', 'KADG 142153Z AUTO 15003KT 10SM CLR 04/M09 A3021 RMK AO2 SLP238 T00391094 $', 'KADG 142053Z AUTO 30003KT 10SM CLR 04/M09 A3023 RMK AO2 SLP246 T00441089 $', 'KADG 141853Z AUTO 36003KT 10SM CLR 03/M09 A3023 RMK AO2 SLP247 T00331094', 'KADG 141753Z AUTO 35008G20KT 280V010 10SM BKN045 03/M08 A3026 RMK AO2 SLP256 T00281083 10028 21022 58002', 'KADG 141653Z AUTO 28006KT 10SM OVC043 02/M09 A3027 RMK AO2 SLP259 T00171089', 'KADG 141553Z AUTO 00000KT 10SM BKN043 01/M09 A3026 RMK AO2 SLP259 T00111094', 'KADG 141453Z AUTO 00000KT 10SM CLR 00/M09 A3026 RMK AO2 SLP259 T00001089 51018', 'KADG 141353Z AUTO 09004KT 10SM CLR M01/M08 A3025 RMK AO2 SLP254 T10061083', 'KADG 141253Z AUTO 00000KT 10SM CLR M02/M07 A3023 RMK AO2 SLP248 T10221072', 'KADG 141153Z AUTO 04003KT 10SM OVC046 M01/M07 A3021 RMK AO2 SLP240 T10111067 10006 21011 51019', 'KADG 141053Z AUTO 04005KT 10SM OVC045 M01/M07 A3019 RMK AO2 SLP235 T10111067', 'KADG 141012Z AUTO 36004KT 10SM SCT025 BKN035 OVC044 M01/M06 A3018 RMK AO2 T10061056', 'KADG 140953Z AUTO 35005KT 10SM BKN024 OVC046 M01/M06 A3018 RMK AO2 SLP228 T10061061', 'KADG 140853Z AUTO 00000KT 10SM OVC045 M01/M07 A3015 RMK AO2 SLP220 T10061067 52013', 'KADG 140753Z AUTO 31004KT 10SM OVC044 00/M07 A3014 RMK AO2 SLP217 T00001072', 'KADG 140653Z AUTO 31005KT 10SM OVC044 00/M08 A3012 RMK AO2 SLP209 T00001078', 'KADG 140553Z AUTO 31003KT 10SM OVC044 01/M08 A3011 RMK AO2 SLP206 60000 T00061078 10022 20006 51009', 'KADG 140453Z AUTO 31004KT 10SM OVC048 01/M09 A3010 RMK AO2 SLP203 T00061089 400501044', 'KADG 140353Z AUTO 32007KT 10SM OVC047 01/M08 A3010 RMK AO2 SLP201 T00111083', 'KADG 140253Z AUTO 32005KT 10SM OVC055 01/M07 A3008 RMK AO2 SLP196 60000 T00111067 51021', 'KADG 140153Z AUTO 31006KT 10SM OVC060 02/M06 A3007 RMK AO2 SNB08E18 SLP192 P0000 T00171056', 'KADG 140053Z AUTO 30009KT 10SM OVC055 02/M06 A3005 RMK AO2 SLP185 T00171056', 'KADG 132353Z AUTO 31004KT 10SM OVC060 02/M06 A3002 RMK AO2 SLP176 T00221056 10050 20022 53017', 'KADG 132253Z AUTO 29009KT 10SM OVC065 03/M06 A2999 RMK AO2 SLP167 T00281061', 'KADG 132153Z AUTO 29007KT 10SM BKN047 OVC065 03/M06 A2998 RMK AO2 SLP162 T00331061', 'KADG 132053Z AUTO 31006KT 10SM OVC060 03/M06 A2997 RMK AO2 SLP158 T00331056 53007', 'KADG 131953Z AUTO 31011G17KT 10SM SCT040 BKN060 04/M06 A2995 RMK AO2 SLP152 T00391061', 'KADG 131853Z AUTO 29008KT 10SM BKN035 OVC050 03/M05 A2995 RMK AO2 SLP152 T00331050', 'KADG 131753Z AUTO 32005KT 10SM SCT033 BKN041 OVC060 03/M04 A2995 RMK AO2 SLP151 T00331044 10039 21039 50016', 'KADG 131653Z AUTO 33007KT 10SM FEW027 BKN034 OVC042 03/M04 A2995 RMK AO2 SLP152 T00281039', 'KADG 131612Z AUTO 33005KT 10SM BKN037 OVC060 03/M03 A2993 RMK AO2 T00281033', 'KADG 131553Z AUTO 34006KT 10SM BKN028 OVC035 03/M03 A2993 RMK AO2 SLP143 T00281033', 'KADG 131512Z AUTO 31004KT 10SM SCT026 BKN065 02/M03 A2991 RMK AO2 T00221033', 'KADG 131453Z AUTO 34004KT 10SM BKN026 02/M03 A2990 RMK AO2 SLP135 T00171033 51016', 'KADG 131353Z AUTO 35006KT 9SM CLR 00/M04 A2988 RMK AO2 SLP127 T00001044', 'KADG 131253Z AUTO 30005KT 10SM CLR M02/M06 A2985 RMK AO2 SLP120 T10221061', 'KADG 131153Z AUTO 00000KT 10SM CLR M02/M07 A2983 RMK AO2 SLP112 T10171067 11011 21044 51015', 'KADG 131053Z AUTO 32004KT 10SM CLR M01/M07 A2982 RMK AO2 SLP108 T10111067', 'KADG 130953Z AUTO 31005KT 10SM CLR M02/M06 A2980 RMK AO2 SLP101 T10171061', 'KADG 130853Z AUTO 31003KT 10SM CLR M04/M07 A2979 RMK AO2 SLP097 T10391067 53006', 'KADG 130753Z AUTO 28003KT 10SM CLR M04/M07 A2979 RMK AO2 SLP097 T10391067', 'KADG 130653Z AUTO 00000KT 10SM CLR M04/M07 A2977 RMK AO2 SLP091 T10391067', 'KADG 130553Z AUTO 00000KT 10SM CLR M03/M07 A2977 RMK AO2 SLP091 T10331067 10028 21039 58005', 'KADG 130453Z AUTO 00000KT 10SM CLR M03/M07 A2977 RMK AO2 SLP092 T10281067 400611033', 'KADG 130353Z AUTO 00000KT 10SM CLR M02/M07 A2979 RMK AO2 SLP097 T10171067', 'KADG 130253Z AUTO 00000KT 10SM CLR M01/M07 A2978 RMK AO2 SLP096 T10111067 55000', 'KADG 130153Z AUTO 00000KT 10SM CLR 01/M07 A2978 RMK AO2 SLP094 T00061072', 'KADG 130053Z AUTO 02003KT 10SM CLR 01/M07 A2976 RMK AO2 SLP089 T00061067', 'KADG 122353Z AUTO 04003KT 10SM CLR 02/M07 A2978 RMK AO2 SLP095 T00221067 10061 20017 56021', 'KADG 122253Z AUTO 36006KT 10SM CLR 04/M06 A2980 RMK AO2 SLP098 T00391056', 'KADG 122153Z AUTO 33005KT 10SM CLR 06/M07 A2983 RMK AO2 SLP111 T00611067', 'KADG 122053Z AUTO 00000KT 10SM CLR 06/M08 A2985 RMK AO2 SLP116 T00561078 56010', 'KADG 121953Z AUTO 00000KT 10SM CLR 05/M07 A2985 RMK AO2 SLP117 T00501072', 'KADG 121853Z AUTO 30003KT 10SM CLR 04/M07 A2986 RMK AO2 SLP122 T00441067', 'KADG 121753Z AUTO VRB03KT 10SM CLR 04/M06 A2988 RMK AO2 SLP128 T00391061 10039 21033 58022', 'KADG 121653Z AUTO 00000KT 10SM CLR 02/M06 A2994 RMK AO2 SLP147 T00221056', 'KADG 121553Z AUTO 08007KT 10SM CLR 02/M05 A2994 RMK AO2 SLP149 T00171050', 'KADG 121453Z AUTO 08005KT 10SM CLR 01/M05 A2995 RMK AO2 SLP150 T00061050 58001', 'KADG 121353Z AUTO 35006KT 10SM CLR M01/M05 A2995 RMK AO2 SLP153 T10111050', 'KADG 121253Z AUTO 00000KT 10SM CLR M03/M06 A2997 RMK AO2 SLP158 T10281061', 'KADG 121153Z AUTO 36006KT 10SM FEW021 M03/M06 A2995 RMK AO2 SLP151 I6000 T10281061 11006 21033 58008', 'KADG 121053Z AUTO 36004KT 10SM OVC019 M01/M05 A2997 RMK AO2 SLP157 T10061050']","['2024-02-15 09:53:00', '2024-02-15 08:53:00', '2024-02-15 07:53:00', '2024-02-15 06:53:00', '2024-02-15 05:53:00', '2024-02-15 04:53:00', '2024-02-15 03:53:00', '2024-02-15 02:53:00', '2024-02-15 01:53:00', '2024-02-15 00:53:00', '2024-02-14 23:53:00', '2024-02-14 22:53:00', '2024-02-14 21:53:00', '2024-02-14 20:53:00', '2024-02-14 18:53:00', '2024-02-14 17:53:00', '2024-02-14 16:53:00', '2024-02-14 15:53:00', '2024-02-14 14:53:00', '2024-02-14 13:53:00', '2024-02-14 12:53:00', '2024-02-14 11:53:00', '2024-02-14 10:53:00', '2024-02-14 10:12:00', '2024-02-14 09:53:00', '2024-02-14 08:53:00', '2024-02-14 07:53:00', '2024-02-14 06:53:00', '2024-02-14 05:53:00', '2024-02-14 04:53:00', '2024-02-14 03:53:00', '2024-02-14 02:53:00', '2024-02-14 01:53:00', '2024-02-14 00:53:00', '2024-02-13 23:53:00', '2024-02-13 22:53:00', '2024-02-13 21:53:00', '2024-02-13 20:53:00', '2024-02-13 19:53:00', '2024-02-13 18:53:00', '2024-02-13 17:53:00', '2024-02-13 16:53:00', '2024-02-13 16:12:00', '2024-02-13 15:53:00', '2024-02-13 15:12:00', '2024-02-13 14:53:00', '2024-02-13 13:53:00', '2024-02-13 12:53:00', '2024-02-13 11:53:00', '2024-02-13 10:53:00', '2024-02-13 09:53:00', '2024-02-13 08:53:00', '2024-02-13 07:53:00', '2024-02-13 06:53:00', '2024-02-13 05:53:00', '2024-02-13 04:53:00', '2024-02-13 03:53:00', '2024-02-13 02:53:00', '2024-02-13 01:53:00', '2024-02-13 00:53:00', '2024-02-12 23:53:00', '2024-02-12 22:53:00', '2024-02-12 21:53:00', '2024-02-12 20:53:00', '2024-02-12 19:53:00', '2024-02-12 18:53:00', '2024-02-12 17:53:00', '2024-02-12 16:53:00', '2024-02-12 15:53:00', '2024-02-12 14:53:00', '2024-02-12 13:53:00', '2024-02-12 12:53:00', '2024-02-12 11:53:00', '2024-02-12 10:53:00']"
United-states, Afton Municipal Airport (AFO/KAFO) ,"['KAFO 150955Z AUTO 16010KT 3SM -SN SCT011 OVC018 00/M02 A2990 RMK AO2', 'KAFO 150915Z AUTO 15011KT 3SM -SN OVC018 00/M02 A2991 RMK AO2', 'KAFO 150855Z AUTO 16014KT 7SM -SN BKN020 BKN026 OVC031 00/M03 A2991 RMK AO2', 'KAFO 150815Z AUTO 17010KT 10SM SCT027 OVC035 00/M03 A2991 RMK AO2', 'KAFO 150755Z AUTO 17011KT 10SM SCT030 BKN034 OVC042 00/M03 A2992 RMK AO2', 'KAFO 150715Z AUTO 16012KT 10SM BKN050 OVC060 00/M05 A2992 RMK AO2', 'KAFO 150635Z AUTO 17011G14KT 10SM SCT031 SCT038 OVC046 00/M04 A2992 RMK AO2', 'KAFO 150615Z AUTO 17013KT 10SM SCT031 SCT040 OVC046 M01/M05 A2993 RMK AO2', 'KAFO 150555Z AUTO 18014KT 10SM BKN034 OVC044 00/M05 A2993 RMK AO2', 'KAFO 150515Z AUTO 20010KT 10SM BKN034 OVC042 M01/M05 A2994 RMK AO2', 'KAFO 150435Z AUTO 21011KT 10SM BKN041 OVC050 M01/M05 A2995 RMK AO2', 'KAFO 150415Z AUTO 21009KT 10SM SCT030 BKN041 OVC050 M02/M05 A2995 RMK AO2', 'KAFO 150355Z AUTO 19009KT 10SM SCT028 BKN032 OVC041 M01/M05 A2996 RMK AO2', 'KAFO 150315Z AUTO 18010KT 10SM SCT040 BKN050 OVC060 M01/M06 A2996 RMK AO2', 'KAFO 150255Z AUTO 15009KT 10SM SCT038 SCT045 OVC060 M01/M06 A2997 RMK AO2', 'KAFO 150215Z AUTO 17011KT 10SM BKN060 BKN075 BKN090 M01/M12 A2998 RMK AO2', 'KAFO 150155Z AUTO 16012KT 10SM SCT070 SCT095 BKN120 M01/M10 A2998 RMK AO2', 'KAFO 150115Z AUTO 17013G17KT 10SM SCT026 BKN050 OVC070 00/M10 A2998 RMK AO2', 'KAFO 150055Z AUTO 15011KT 10SM SCT019 SCT042 OVC050 00/M05 A2998 RMK AO2', 'KAFO 150015Z AUTO 16013KT 10SM SCT023 BKN033 OVC044 00/M05 A2998 RMK AO2', 'KAFO 142355Z AUTO 17015KT 10SM BKN042 BKN049 OVC070 00/M05 A2997 RMK AO2', 'KAFO 142310Z AUTO 18008KT 10SM SCT047 BKN050 OVC070 00/M08 A2998 RMK AO2', 'KAFO 142235Z AUTO 16006KT 10SM SCT028 BKN044 OVC060 00/M11 A2997 RMK AO2', 'KAFO 142215Z AUTO 13007KT 10SM SCT023 BKN045 OVC060 00/M11 A2997 RMK AO2', 'KAFO 142155Z AUTO 18005KT 10SM SCT044 SCT050 BKN060 00/M08 A2997 RMK AO2', 'KAFO 142115Z AUTO 14004KT 10SM SCT016 BKN065 OVC070 00/M16 A2997 RMK AO2', 'KAFO 142055Z AUTO 00000KT 7SM -SN SCT016 BKN038 OVC055 M01/M15 A2997 RMK AO2', 'KAFO 142015Z AUTO 26003KT 10SM SCT036 OVC046 00/M17 A2998 RMK AO2', 'KAFO 141955Z AUTO 16003KT 10SM BKN045 OVC050 00/M20 A2997 RMK AO2', 'KAFO 141910Z AUTO 19004KT 10SM BKN044 OVC050 00/M07 A2998 RMK AO2', 'KAFO 141855Z AUTO 17007KT 10SM SCT044 BKN050 00/M08 A2999 RMK AO2', 'KAFO 141815Z AUTO 16004KT 10SM -RA SCT019 BKN035 OVC047 M01/M06 A2999 RMK AO2', 'KAFO 141755Z AUTO 00000KT 10SM SCT016 SCT023 BKN038 M02/M10 A2999 RMK AO2', 'KAFO 141715Z AUTO 18003KT 10SM SCT030 BKN040 BKN050 M03/M07 A2999 RMK AO2', 'KAFO 141655Z AUTO 16004KT 10SM SCT018 BKN030 BKN037 M05/M08 A2999 RMK AO2', 'KAFO 141615Z AUTO 14003KT 10SM BKN036 BKN044 OVC060 M05/M07 A2998 RMK AO2', 'KAFO 141555Z AUTO 21003KT 3SM -SN SCT015 BKN021 OVC043 M04/M07 A2997 RMK AO2', 'KAFO 141515Z AUTO 24006KT 7SM -SN BKN022 OVC028 M05/M07 A2997 RMK AO2', 'KAFO 141455Z AUTO 27003KT 7SM -SN SCT011 BKN028 OVC041 M04/M07 A2996 RMK AO2', 'KAFO 141415Z AUTO 04004KT 3SM -SN SCT011 BKN022 OVC027 M05/M08 A2995 RMK AO2', 'KAFO 141355Z AUTO 15004KT 7SM SCT011 BKN031 OVC041 M06/M08 A2994 RMK AO2', 'KAFO 141315Z AUTO 00000KT 10SM SCT022 BKN038 OVC060 M06/M08 A2993 RMK AO2', 'KAFO 141255Z AUTO 31004KT 10SM SCT013 SCT024 OVC060 M03/M07 A2992 RMK AO2', 'KAFO 141215Z AUTO 01006KT 2 1/2SM -SN BKN015 BKN020 OVC025 M06/M08 A2992 RMK AO2', 'KAFO 141155Z AUTO 32005KT 3SM -SN SCT025 SCT030 OVC036 M05/M07 A2990 RMK AO2', 'KAFO 141115Z AUTO 00000KT 3SM -SN SCT017 BKN033 OVC040 M05/M08 A2990 RMK AO2', 'KAFO 141055Z AUTO 00000KT 3SM -SN SCT027 BKN033 OVC044 M05/M08 A2989 RMK AO2', 'KAFO 141015Z AUTO 15003KT 10SM SCT042 SCT048 OVC055 M06/M09 A2989 RMK AO2', 'KAFO 140955Z AUTO 21003KT 10SM SCT017 BKN042 OVC110 M06/M10 A2990 RMK AO2', 'KAFO 140915Z AUTO 00000KT 10SM OVC036 M05/M09 A2990 RMK AO2', 'KAFO 140855Z AUTO 33003KT 10SM BKN036 BKN060 OVC095 M06/M11 A2990 RMK AO2', 'KAFO 140820Z AUTO 04003KT 10SM BKN060 BKN075 OVC095 M06/M12 A2989 RMK AO2', 'KAFO 140655Z AUTO 00000KT 10SM SCT046 SCT060 OVC090 M06/M11 A2990 RMK AO2', 'KAFO 140615Z AUTO 00000KT 10SM SCT041 BKN070 OVC110 M06/M11 A2990 RMK AO2', 'KAFO 140535Z AUTO 00000KT 10SM OVC070 M07/M11 A2990 RMK AO2', 'KAFO 140515Z AUTO 00000KT 7SM OVC070 M08/M12 A2990 RMK AO2', 'KAFO 140435Z AUTO 00000KT 10SM OVC100 M06/M11 A2990 RMK AO2', 'KAFO 140415Z AUTO 00000KT 10SM SCT100 BKN120 M06/M09 A2990 RMK AO2', 'KAFO 140355Z AUTO 00000KT 10SM BKN100 M05/M08 A2990 RMK AO2', 'KAFO 140315Z AUTO 00000KT 1 1/4SM HZ OVC120 M05/M08 A2990 RMK AO2', 'KAFO 140255Z AUTO 00000KT 4SM HZ SCT110 M06/M09 A2990 RMK AO2', 'KAFO 140215Z AUTO 14004KT 7SM OVC095 M03/M07 A2990 RMK AO2', 'KAFO 140155Z AUTO 19005KT 1SM HZ BKN003 OVC095 M04/M07 A2990 RMK AO2', 'KAFO 140115Z AUTO 19003KT 7SM OVC100 M05/M08 A2989 RMK AO2', 'KAFO 140055Z AUTO 00000KT 5SM HZ OVC100 M04/M07 A2989 RMK AO2', 'KAFO 140015Z AUTO 02004KT 10SM SCT070 BKN080 M02/M06 A2989 RMK AO2', 'KAFO 132355Z AUTO 04003KT 7SM CLR M03/M08 A2989 RMK AO2', 'KAFO 132315Z AUTO 33005KT 10SM SCT042 SCT065 BKN110 M02/M08 A2989 RMK AO2', 'KAFO 132235Z AUTO 00000KT 10SM SCT025 BKN055 OVC070 00/M07 A2990 RMK AO2', 'KAFO 132215Z AUTO 13004KT 7SM SCT016 BKN025 OVC033 00/M07 A2990 RMK AO2', 'KAFO 132155Z AUTO 17006KT 2 1/2SM -SN SCT021 OVC027 00/M06 A2990 RMK AO2', 'KAFO 132115Z AUTO 00000KT 10SM SCT029 OVC037 00/M10 A2990 RMK AO2', 'KAFO 132055Z AUTO 00000KT 7SM BKN029 OVC037 00/M03 A2992 RMK AO2', 'KAFO 132015Z AUTO 00000KT 2 1/2SM BR BKN030 OVC037 M02/M04 A2993 RMK AO2', 'KAFO 131955Z AUTO 34004KT 5SM BR SCT035 OVC045 M02/M04 A2994 RMK AO2', 'KAFO 131915Z AUTO 01003KT 5SM HZ SCT033 OVC043 M02/M05 A2996 RMK AO2', 'KAFO 131855Z AUTO 32004KT 10SM SCT032 OVC039 M02/M07 A2997 RMK AO2', 'KAFO 131815Z AUTO 34003KT 3SM UP SCT025 OVC033 M02/M05 A2999 RMK AO2', 'KAFO 131755Z AUTO 01005KT 1 3/4SM -SN SCT015 OVC025 M03/M06 A2999 RMK AO2', 'KAFO 131715Z AUTO 35003KT 2 1/2SM -RA SCT017 BKN027 OVC035 M03/M06 A2999 RMK AO2', 'KAFO 131655Z AUTO 00000KT 1SM -SN BKN021 OVC027 M04/M06 A3000 RMK AO2', 'KAFO 131615Z AUTO 00000KT 1 1/4SM -SN OVC030 M05/M07 A3000 RMK AO2', 'KAFO 131555Z AUTO 00000KT 1 1/2SM -SN BKN029 OVC035 M05/M07 A3000 RMK AO2', 'KAFO 131515Z AUTO 00000KT 1 1/4SM -SN BKN022 OVC035 M06/M07 A3000 RMK AO2', 'KAFO 131455Z AUTO 00000KT 2SM -SN BKN027 OVC035 M06/M08 A3000 RMK AO2', 'KAFO 131415Z AUTO 00000KT 2 1/2SM -SN SCT015 BKN031 OVC037 M05/M07 A3000 RMK AO2', 'KAFO 131355Z AUTO 00000KT 1 1/4SM -SN OVC013 M05/M07 A3000 RMK AO2', 'KAFO 131315Z AUTO 35003KT 1 3/4SM -SN SCT016 OVC025 M06/M08 A3000 RMK AO2', 'KAFO 131255Z AUTO 00000KT 4SM -SN SCT019 BKN027 OVC039 M06/M08 A3000 RMK AO2', 'KAFO 131215Z AUTO 35003KT 5SM HZ SCT026 SCT033 OVC038 M06/M09 A3002 RMK AO2', 'KAFO 131155Z AUTO 00000KT 3SM HZ SCT028 BKN033 OVC039 M05/M12 A3002 RMK AO2', 'KAFO 131115Z AUTO 20004KT 7SM BKN030 OVC037 M04/M12 A3002 RMK AO2', 'KAFO 131055Z AUTO 21007KT 10SM SCT032 BKN039 OVC060 M05/M13 A3003 RMK AO2', 'KAFO 131015Z AUTO 00000KT 10SM BKN060 OVC075 M05/M15 A3003 RMK AO2', 'KAFO 130955Z AUTO 00000KT 10SM SCT075 OVC100 M06/M11 A3003 RMK AO2', 'KAFO 130915Z AUTO 18005KT 10SM SCT075 OVC110 M06/M11 A3004 RMK AO2', 'KAFO 130855Z AUTO 19007KT 10SM OVC075 M06/M10 A3005 RMK AO2', 'KAFO 130815Z AUTO 19007KT 10SM BKN075 OVC095 M06/M18 A3005 RMK AO2', 'KAFO 130755Z AUTO 16006KT 10SM OVC085 M05/M11 A3005 RMK AO2', 'KAFO 130715Z AUTO 18008KT 10SM OVC085 M05/M09 A3005 RMK AO2', 'KAFO 130655Z AUTO 19007KT 10SM OVC085 M05/M09 A3005 RMK AO2', 'KAFO 130615Z AUTO 17007KT 10SM BKN041 OVC085 M05/M11 A3005 RMK AO2', 'KAFO 130555Z AUTO 17006KT 10SM OVC041 M05/M17 A3005 RMK AO2', 'KAFO 130515Z AUTO 00000KT 10SM OVC043 M05/M09 A3005 RMK AO2', 'KAFO 130455Z AUTO 20003KT 10SM OVC041 M05/M08 A3006 RMK AO2', 'KAFO 130415Z AUTO 19007KT 10SM OVC039 M05/M11 A3006 RMK AO2', 'KAFO 130355Z AUTO 17006KT 10SM OVC039 M03/M11 A3006 RMK AO2', 'KAFO 130315Z AUTO 13003KT 10SM OVC039 M05/M16 A3006 RMK AO2', 'KAFO 130250Z AUTO 00000KT 10SM OVC039 M05/M17 A3007 RMK AO2', 'KAFO 130215Z AUTO 00000KT 10SM OVC037 M05/M17 A3007 RMK AO2', 'KAFO 130135Z AUTO 16003KT 10SM OVC039 M06/M20 A3005 RMK AO2', 'KAFO 130115Z AUTO 27006KT 10SM OVC039 M03/M23 A3005 RMK AO2', 'KAFO 130055Z AUTO 35004KT 10SM OVC039 M03/M21 A3005 RMK AO2', 'KAFO 130015Z AUTO 00000KT 10SM BKN043 OVC060 M03/M26 A3005 RMK AO2', 'KAFO 122355Z AUTO 00000KT 10SM SCT045 OVC060 M03/M29 A3005 RMK AO2', 'KAFO 122315Z AUTO 17003KT 10SM OVC049 M03/M28 A3005 RMK AO2', 'KAFO 122235Z AUTO 00000KT 10SM SCT044 OVC050 M03/M29 A3007 RMK AO2', 'KAFO 122215Z AUTO 00000KT 10SM OVC045 M03/M21 A3007 RMK AO2', 'KAFO 122155Z AUTO 00000KT 10SM OVC045 M03/M20 A3008 RMK AO2', 'KAFO 122115Z AUTO 00000KT 10SM OVC045 M03/M22 A3008 RMK AO2', 'KAFO 122055Z AUTO 00000KT 10SM OVC045 M03/M16 A3008 RMK AO2', 'KAFO 122015Z AUTO 00000KT 10SM OVC043 M03/M16 A3009 RMK AO2', 'KAFO 121955Z AUTO 32003KT 10SM OVC043 M05/M11 A3010 RMK AO2', 'KAFO 121915Z AUTO 33004KT 10SM OVC043 M06/M22 A3011 RMK AO2', 'KAFO 121855Z AUTO 00000KT 10SM OVC045 M06/M36 A3011 RMK AO2', 'KAFO 121815Z AUTO 00000KT 10SM OVC047 M07/M15 A3012 RMK AO2', 'KAFO 121755Z AUTO 00000KT 10SM OVC047 M07/M13 A3013 RMK AO2', 'KAFO 121715Z AUTO 00000KT 10SM BKN055 M08/M18 A3014 RMK AO2', 'KAFO 121655Z AUTO 00000KT 10SM OVC055 M09/M13 A3014 RMK AO2', 'KAFO 121615Z AUTO 00000KT 10SM OVC055 M11/M13 A3014 RMK AO2', 'KAFO 121550Z AUTO 00000KT 10SM OVC055 M11/M14 A3014 RMK AO2', 'KAFO 121515Z AUTO 00000KT 10SM OVC055 M12/M15 A3013 RMK AO2', 'KAFO 121455Z AUTO 00000KT 10SM OVC055 M12/M15 A3014 RMK AO2', 'KAFO 121415Z AUTO 00000KT 10SM OVC055 M11/M13 A3013 RMK AO2', 'KAFO 121355Z AUTO 00000KT 10SM OVC055 M10/M13 A3013 RMK AO2', 'KAFO 121315Z AUTO 19003KT 10SM OVC055 M10/M13 A3014 RMK AO2', 'KAFO 121230Z AUTO 00000KT 10SM OVC065 M11/M14 A3015 RMK AO2', 'KAFO 121215Z AUTO 00000KT 10SM OVC065 M11/M14 A3015 RMK AO2', 'KAFO 121155Z AUTO 00000KT 10SM OVC065 M11/M19 A3015 RMK AO2', 'KAFO 121115Z AUTO 00000KT 10SM OVC065 M11/M13 A3015 RMK AO2', 'KAFO 121055Z AUTO 00000KT 10SM SCT043 OVC065 M11/M21 A3016 RMK AO2', 'KAFO 121015Z AUTO 00000KT 10SM OVC043 M12/M16 A3017 RMK AO2']","['2024-02-15 09:55:00', '2024-02-15 09:15:00', '2024-02-15 08:55:00', '2024-02-15 08:15:00', '2024-02-15 07:55:00', '2024-02-15 07:15:00', '2024-02-15 06:35:00', '2024-02-15 06:15:00', '2024-02-15 05:55:00', '2024-02-15 05:15:00', '2024-02-15 04:35:00', '2024-02-15 04:15:00', '2024-02-15 03:55:00', '2024-02-15 03:15:00', '2024-02-15 02:55:00', '2024-02-15 02:15:00', '2024-02-15 01:55:00', '2024-02-15 01:15:00', '2024-02-15 00:55:00', '2024-02-15 00:15:00', '2024-02-14 23:55:00', '2024-02-14 23:10:00', '2024-02-14 22:35:00', '2024-02-14 22:15:00', '2024-02-14 21:55:00', '2024-02-14 21:15:00', '2024-02-14 20:55:00', '2024-02-14 20:15:00', '2024-02-14 19:55:00', '2024-02-14 19:10:00', '2024-02-14 18:55:00', '2024-02-14 18:15:00', '2024-02-14 17:55:00', '2024-02-14 17:15:00', '2024-02-14 16:55:00', '2024-02-14 16:15:00', '2024-02-14 15:55:00', '2024-02-14 15:15:00', '2024-02-14 14:55:00', '2024-02-14 14:15:00', '2024-02-14 13:55:00', '2024-02-14 13:15:00', '2024-02-14 12:55:00', '2024-02-14 12:15:00', '2024-02-14 11:55:00', '2024-02-14 11:15:00', '2024-02-14 10:55:00', '2024-02-14 10:15:00', '2024-02-14 09:55:00', '2024-02-14 09:15:00', '2024-02-14 08:55:00', '2024-02-14 08:20:00', '2024-02-14 06:55:00', '2024-02-14 06:15:00', '2024-02-14 05:35:00', '2024-02-14 05:15:00', '2024-02-14 04:35:00', '2024-02-14 04:15:00', '2024-02-14 03:55:00', '2024-02-14 03:15:00', '2024-02-14 02:55:00', '2024-02-14 02:15:00', '2024-02-14 01:55:00', '2024-02-14 01:15:00', '2024-02-14 00:55:00', '2024-02-14 00:15:00', '2024-02-13 23:55:00', '2024-02-13 23:15:00', '2024-02-13 22:35:00', '2024-02-13 22:15:00', '2024-02-13 21:55:00', '2024-02-13 21:15:00', '2024-02-13 20:55:00', '2024-02-13 20:15:00', '2024-02-13 19:55:00', '2024-02-13 19:15:00', '2024-02-13 18:55:00', '2024-02-13 18:15:00', '2024-02-13 17:55:00', '2024-02-13 17:15:00', '2024-02-13 16:55:00', '2024-02-13 16:15:00', '2024-02-13 15:55:00', '2024-02-13 15:15:00', '2024-02-13 14:55:00', '2024-02-13 14:15:00', '2024-02-13 13:55:00', '2024-02-13 13:15:00', '2024-02-13 12:55:00', '2024-02-13 12:15:00', '2024-02-13 11:55:00', '2024-02-13 11:15:00', '2024-02-13 10:55:00', '2024-02-13 10:15:00', '2024-02-13 09:55:00', '2024-02-13 09:15:00', '2024-02-13 08:55:00', '2024-02-13 08:15:00', '2024-02-13 07:55:00', '2024-02-13 07:15:00', '2024-02-13 06:55:00', '2024-02-13 06:15:00', '2024-02-13 05:55:00', '2024-02-13 05:15:00', '2024-02-13 04:55:00', '2024-02-13 04:15:00', '2024-02-13 03:55:00', '2024-02-13 03:15:00', '2024-02-13 02:50:00', '2024-02-13 02:15:00', '2024-02-13 01:35:00', '2024-02-13 01:15:00', '2024-02-13 00:55:00', '2024-02-13 00:15:00', '2024-02-12 23:55:00', '2024-02-12 23:15:00', '2024-02-12 22:35:00', '2024-02-12 22:15:00', '2024-02-12 21:55:00', '2024-02-12 21:15:00', '2024-02-12 20:55:00', '2024-02-12 20:15:00', '2024-02-12 19:55:00', '2024-02-12 19:15:00', '2024-02-12 18:55:00', '2024-02-12 18:15:00', '2024-02-12 17:55:00', '2024-02-12 17:15:00', '2024-02-12 16:55:00', '2024-02-12 16:15:00', '2024-02-12 15:50:00', '2024-02-12 15:15:00', '2024-02-12 14:55:00', '2024-02-12 14:15:00', '2024-02-12 13:55:00', '2024-02-12 13:15:00', '2024-02-12 12:30:00', '2024-02-12 12:15:00', '2024-02-12 11:55:00', '2024-02-12 11:15:00', '2024-02-12 10:55:00', '2024-02-12 10:15:00']"
United-states, Aiken Municipal Airport (AIK/KAIK) ,"['KAIK 150955Z AUTO 00000KT 10SM CLR 03/00 A3023 RMK AO2 T00250003', 'KAIK 150915Z AUTO 26003KT 10SM CLR 02/00 A3024 RMK AO2 T00220002', 'KAIK 150855Z AUTO 00000KT 10SM CLR 02/00 A3023 RMK AO2 T00170002', 'KAIK 150815Z AUTO 00000KT 10SM CLR 02/00 A3023 RMK AO2 T00190004', 'KAIK 150755Z AUTO 17003KT 10SM CLR 02/00 A3022 RMK AO2 T00211001', 'KAIK 150715Z AUTO 00000KT 10SM CLR 03/01 A3023 RMK AO2 T00280006', 'KAIK 150655Z AUTO 00000KT 10SM CLR 02/01 A3023 RMK AO2 T00240007', 'KAIK 150615Z AUTO 00000KT 10SM CLR 03/01 A3023 RMK AO2 T00300010', 'KAIK 150555Z AUTO 00000KT 10SM CLR 04/01 A3024 RMK AO2 T00390012 10124 20038', 'KAIK 150515Z AUTO 00000KT 10SM CLR 05/01 A3025 RMK AO2 T00450015', 'KAIK 150455Z AUTO 00000KT 10SM CLR 05/01 A3025 RMK AO2 T00490015', 'KAIK 150415Z AUTO 00000KT 10SM CLR 06/02 A3026 RMK AO2 T00560017', 'KAIK 150355Z AUTO 00000KT 10SM CLR 05/02 A3025 RMK AO2 T00500019', 'KAIK 150315Z AUTO 23005KT 10SM CLR 05/02 A3025 RMK AO2 T00500016', 'KAIK 150255Z AUTO 23003KT 10SM CLR 07/02 A3026 RMK AO2 T00710021', 'KAIK 150215Z AUTO 00000KT 10SM CLR 06/02 A3022 RMK AO2 T00630022', 'KAIK 150155Z AUTO 24004KT 10SM CLR 06/02 A3023 RMK AO2 T00640020', 'KAIK 150115Z AUTO 25003KT 10SM CLR 09/01 A3023 RMK AO2 T00850011', 'KAIK 150055Z AUTO 00000KT 10SM CLR 09/02 A3022 RMK AO2 T00900021', 'KAIK 150015Z AUTO 23004KT 10SM CLR 10/01 A3022 RMK AO2 T00990010', 'KAIK 142355Z AUTO 24004KT 10SM CLR 12/01 A3020 RMK AO2 T01250006 10188 20112 401881009', 'KAIK 142315Z AUTO 23004KT 10SM CLR 14/00 A3019 RMK AO2 T01420000', 'KAIK 142255Z AUTO 23006KT 10SM CLR 15/00 A3018 RMK AO2 T01490001', 'KAIK 142215Z AUTO 00000KT 10SM CLR 17/M02 A3019 RMK AO2 T01741020', 'KAIK 142155Z AUTO 21005KT 10SM CLR 18/M01 A3019 RMK AO2 T01811015', 'KAIK 142115Z AUTO 27004KT 10SM CLR 18/M02 A3019 RMK AO2 T01811024', 'KAIK 142055Z AUTO 36003KT 10SM CLR 18/M02 A3019 RMK AO2 T01801024', 'KAIK 142015Z AUTO 00000KT 10SM CLR 18/M02 A3019 RMK AO2 T01811022', 'KAIK 141955Z AUTO 16005KT 10SM CLR 18/M02 A3020 RMK AO2 T01791017', 'KAIK 141915Z AUTO 06004KT 10SM CLR 17/M02 A3021 RMK AO2 T01731021', 'KAIK 141855Z AUTO 33005KT 10SM CLR 18/M02 A3022 RMK AO2 T01781019', 'KAIK 141815Z AUTO 04003KT 10SM CLR 16/M02 A3024 RMK AO2 T01651017', 'KAIK 141755Z AUTO 24005KT 10SM CLR 16/M02 A3025 RMK AO2 T01601018 10163 21006', 'KAIK 141715Z AUTO 06006KT 10SM CLR 15/M02 A3027 RMK AO2 T01501017', 'KAIK 141655Z AUTO 07004KT 10SM CLR 15/M02 A3028 RMK AO2 T01461022', 'KAIK 141615Z AUTO 35003KT 10SM CLR 14/M01 A3029 RMK AO2 T01361008', 'KAIK 141555Z AUTO 08004KT 10SM CLR 13/M01 A3029 RMK AO2 T01291009', 'KAIK 141515Z AUTO 04003KT 10SM CLR 12/M02 A3029 RMK AO2 T01161015', 'KAIK 141455Z AUTO 06003KT 10SM CLR 11/M01 A3028 RMK AO2 T01141015', 'KAIK 141415Z AUTO 01004KT 10SM CLR 09/M01 A3027 RMK AO2 T00901010', 'KAIK 141355Z AUTO 02004KT 10SM CLR 08/00 A3027 RMK AO2 T00761003', 'KAIK 141315Z AUTO 00000KT 10SM CLR 03/01 A3025 RMK AO2 T00320006', 'KAIK 141255Z AUTO 00000KT 10SM CLR 01/M01 A3024 RMK AO2 T00081007', 'KAIK 141215Z AUTO 00000KT 10SM CLR 00/M01 A3022 RMK AO2 T10011014', 'KAIK 141155Z AUTO 00000KT 10SM CLR 00/M01 A3022 RMK AO2 T10041015 10050 21009', 'KAIK 141115Z AUTO 00000KT 10SM CLR M01/M02 A3021 RMK AO2 T10061017', 'KAIK 141055Z AUTO 00000KT 10SM CLR M01/M02 A3020 RMK AO2 T10071018', 'KAIK 141015Z AUTO 00000KT 10SM CLR 00/M01 A3019 RMK AO2 T00031009', 'KAIK 140955Z AUTO 27003KT 10SM CLR 00/M01 A3019 RMK AO2 T10031014', 'KAIK 140915Z AUTO 24003KT 10SM CLR 00/M01 A3017 RMK AO2 T00001010', 'KAIK 140855Z AUTO 00000KT 10SM CLR 01/M01 A3016 RMK AO2 T00051010', 'KAIK 140815Z AUTO 26003KT 10SM CLR 01/M01 A3015 RMK AO2 T00061007', 'KAIK 140755Z AUTO 28003KT 10SM CLR 01/M01 A3015 RMK AO2 T00111007', 'KAIK 140715Z AUTO 24003KT 10SM CLR 01/M01 A3014 RMK AO2 T00151010', 'KAIK 140655Z AUTO 00000KT 10SM CLR 02/00 A3014 RMK AO2 T00211004', 'KAIK 140615Z AUTO 00000KT 10SM CLR 04/00 A3012 RMK AO2 T00420000', 'KAIK 140555Z AUTO 00000KT 10SM CLR 05/00 A3012 RMK AO2 T00491001 10098 20041', 'KAIK 140515Z AUTO 00000KT 10SM CLR 05/00 A3011 RMK AO2 T00460003', 'KAIK 140455Z AUTO 32003KT 10SM CLR 05/01 A3011 RMK AO2 T00480006', 'KAIK 140415Z AUTO 28004KT 10SM CLR 06/01 A3010 RMK AO2 T00560006', 'KAIK 140355Z AUTO 27004KT 10SM CLR 05/01 A3010 RMK AO2 T00490009', 'KAIK 140315Z AUTO 26005KT 10SM CLR 07/01 A3010 RMK AO2 T00650009', 'KAIK 140255Z AUTO 23005KT 10SM CLR 07/01 A3009 RMK AO2 T00660010', 'KAIK 140215Z AUTO 25006KT 10SM CLR 07/01 A3008 RMK AO2 T00740012', 'KAIK 140155Z AUTO 26005KT 10SM CLR 07/01 A3007 RMK AO2 T00680015', 'KAIK 140115Z AUTO 25004KT 10SM CLR 07/01 A3006 RMK AO2 T00740010', 'KAIK 140055Z AUTO 24004KT 10SM CLR 09/01 A3006 RMK AO2 T00930011', 'KAIK 140015Z AUTO 24005KT 10SM CLR 08/01 A3004 RMK AO2 T00830012', 'KAIK 132355Z AUTO 28004KT 10SM CLR 09/01 A3004 RMK AO2 T00890011 10163 20084 401630075', 'KAIK 132315Z AUTO 27005KT 10SM CLR 12/00 A3002 RMK AO2 T01160005', 'KAIK 132255Z AUTO 27005KT 10SM CLR 13/00 A3001 RMK AO2 T01290004', 'KAIK 132215Z AUTO 27010KT 10SM CLR 15/00 A2999 RMK AO2 T01470002', 'KAIK 132155Z AUTO 30009KT 10SM CLR 15/00 A2999 RMK AO2 T01520002', 'KAIK 132115Z AUTO 25009KT 10SM CLR 16/00 A2996 RMK AO2 T01560005', 'KAIK 132055Z AUTO 28009KT 250V310 10SM CLR 16/01 A2996 RMK AO2 T01590010', 'KAIK 132015Z AUTO 28012KT 10SM CLR 16/01 A2995 RMK AO2 T01580009', 'KAIK 131955Z AUTO 32008G16KT 280V340 10SM CLR 15/00 A2995 RMK AO2 T01530004', 'KAIK 131915Z AUTO 26011KT 10SM CLR 15/01 A2994 RMK AO2 T01500010', 'KAIK 131855Z AUTO 30007G16KT 10SM CLR 15/01 A2994 RMK AO2 T01500012', 'KAIK 131815Z AUTO 31011G15KT 280V350 10SM CLR 14/01 A2995 RMK AO2 T01450014', 'KAIK 131755Z AUTO 26013KT 10SM CLR 14/02 A2995 RMK AO2 T01430017 10149 20075', 'KAIK 131715Z AUTO 29010G17KT 260V330 10SM CLR 14/03 A2994 RMK AO2 T01370025', 'KAIK 131635Z AUTO 28013KT 260V330 10SM CLR 13/03 A2995 RMK AO2 T01340032', 'KAIK 131615Z AUTO 30014G18KT 10SM CLR 13/03 A2994 RMK AO2 T01290031', 'KAIK 131555Z AUTO 28014KT 10SM CLR 12/03 A2992 RMK AO2 T01190029', 'KAIK 131515Z AUTO 28013G18KT 10SM CLR 11/03 A2991 RMK AO2 T01150032', 'KAIK 131455Z AUTO 27016KT 10SM CLR 11/03 A2991 RMK AO2 T01070029', 'KAIK 131415Z AUTO 28013G18KT 10SM CLR 10/03 A2987 RMK AO2 T00980029', 'KAIK 131355Z AUTO 27012G17KT 10SM CLR 09/03 A2986 RMK AO2 T00910028', 'KAIK 131315Z AUTO 27016KT 10SM CLR 08/03 A2983 RMK AO2 T00830028', 'KAIK 131255Z AUTO 26013KT 10SM CLR 08/03 A2982 RMK AO2 T00800029', 'KAIK 131215Z AUTO 27013KT 10SM CLR 08/03 A2979 RMK AO2 T00780030', 'KAIK 131155Z AUTO 26014G19KT 10SM CLR 08/03 A2977 RMK AO2 T00790030 10135 20079 70117', 'KAIK 131115Z AUTO 26012G23KT 10SM CLR 08/03 A2975 RMK AO2 T00840031', 'KAIK 131055Z AUTO 26018G22KT 10SM SCT029 SCT035 09/03 A2973 RMK AO2 T00860034', 'KAIK 131015Z AUTO 27018G27KT 10SM BKN031 09/04 A2971 RMK AO2 T00930040', 'KAIK 130955Z AUTO 26019G27KT 10SM OVC033 10/04 A2969 RMK AO2 T01000045', 'KAIK 130915Z AUTO 26016G26KT 10SM BKN035 10/04 A2967 RMK AO2 T01000044', 'KAIK 130855Z AUTO 26018G31KT 10SM OVC035 10/05 A2966 RMK AO2 T01040047', 'KAIK 130815Z AUTO 26017G29KT 10SM OVC035 10/05 A2966 RMK AO2 T01040049', 'KAIK 130755Z AUTO 25015G23KT 10SM BKN035 10/05 A2965 RMK AO2 T01010051', 'KAIK 130715Z AUTO 26016G24KT 10SM CLR 10/05 A2963 RMK AO2 T01010052', 'KAIK 130655Z AUTO 26018G30KT 10SM CLR 10/05 A2963 RMK AO2 T01040055', 'KAIK 130615Z AUTO 25017G24KT 10SM SCT025 BKN032 BKN060 12/08 A2961 RMK AO2 T01230078', 'KAIK 130555Z AUTO 26020G31KT 10SM SCT014 OVC023 14/10 A2960 RMK AO2 T01360100 10160 20135 60002', 'KAIK 130515Z AUTO 24015KT 10SM SCT010 OVC016 16/14 A2958 RMK AO2 T01560143', 'KAIK 130455Z AUTO 23013G20KT 10SM BKN010 OVC015 16/15 A2958 RMK AO2 T01580147', 'KAIK 130415Z AUTO 23014G21KT 10SM OVC006 16/15 A2958 RMK AO2 T01600150', 'KAIK 130355Z AUTO 22012KT 10SM OVC006 16/15 A2958 RMK AO2 T01590151', 'KAIK 130315Z AUTO 21013G19KT 10SM OVC002 16/15 A2959 RMK AO2 T01560152', 'KAIK 130255Z AUTO 19010KT 10SM OVC002 15/15 A2959 RMK AO2 T01530149 60002', 'KAIK 130215Z AUTO 17012G16KT 10SM OVC004 15/14 A2960 RMK AO2 T01460142', 'KAIK 130155Z AUTO 16011KT 10SM OVC004 14/14 A2962 RMK AO2 T01450141', 'KAIK 130115Z AUTO 15008KT 10SM -RA OVC004 14/14 A2962 RMK AO2 T01410137', 'KAIK 130055Z AUTO 15008KT 10SM -RA OVC004 14/13 A2964 RMK AO2 P0002 T01400135', 'KAIK 130015Z AUTO 12009KT 7SM RA OVC006 14/13 A2966 RMK AO2 P0001 T01400133', 'KAIK 122355Z AUTO 12006KT 10SM OVC008 14/13 A2965 RMK AO2 T01400132 10144 20137 401730137 60028', 'KAIK 122315Z AUTO 13008KT 10SM OVC010 14/13 A2969 RMK AO2 T01410130', 'KAIK 122255Z AUTO 12008KT 10SM OVC010 14/13 A2970 RMK AO2 T01410130', 'KAIK 122215Z AUTO 12007KT 10SM OVC008 14/13 A2971 RMK AO2 T01410131', 'KAIK 122155Z AUTO 12007KT 10SM OVC008 14/13 A2972 RMK AO2 P0001 T01410130', 'KAIK 122115Z AUTO 12015KT 10SM -RA SCT006 SCT027 OVC110 14/13 A2966 RMK AO2 P0001 T01370131', 'KAIK 122055Z AUTO 12011KT 7SM RA SCT008 BKN024 OVC110 14/13 A2973 RMK AO2 P0008 T01380131 60027', 'KAIK 122015Z AUTO 13010KT 7SM -RA BR SCT008 BKN029 OVC090 14/13 A2978 RMK AO2 P0003 T01410134', 'KAIK 121955Z AUTO 13009KT 7SM RA BR SCT006 BKN021 OVC090 14/13 A2979 RMK AO2 P0010 T01420135', 'KAIK 121915Z AUTO 13009G15KT 5SM RA BR BKN006 BKN024 OVC090 14/14 A2980 RMK AO2 P0003 T01440138', 'KAIK 121855Z AUTO 12011KT 10SM -RA SCT006 SCT019 OVC090 14/14 A2981 RMK AO2 P0009 T01430137', 'KAIK 121815Z AUTO 13006KT 5SM RA BR OVC090 14/14 A2985 RMK AO2 P0004 T01420135', 'KAIK 121755Z AUTO 12008KT 5SM RA BR OVC090 14/14 A2984 RMK AO2 P0020 T01430135 10149 20139 60087', 'KAIK 121715Z AUTO 09009KT 3SM +RA BR OVC085 14/14 A2986 RMK AO2 P0009 T01430137', 'KAIK 121655Z AUTO 11008KT 1 3/4SM +RA BR SCT055 OVC075 15/14 A2991 RMK AO2 LTG DSNT S P0028 T01450141', 'KAIK 121615Z AUTO 13004KT 3SM RA BR OVC090 15/14 A2995 RMK AO2 VIS 2 1/2V3 1/2 LTG DSNT S P0005 T01470143', 'KAIK 121555Z AUTO 13004KT 4SM RA BR OVC100 15/14 A2994 RMK AO2 LTG DSNT S P0005 T01480144', 'KAIK 121515Z AUTO 11004KT 10SM -RA OVC100 15/15 A2992 RMK AO2 P0001 T01480145', 'KAIK 121455Z AUTO 07004KT 10SM -RA SCT048 BKN080 OVC110 15/15 A2991 RMK AO2 P0010 T01480145 60032', 'KAIK 121415Z AUTO 00000KT 3SM RA BR OVC090 14/14 A2995 RMK AO2 LTG DSNT S AND SW P0004 T01440141', 'KAIK 121355Z AUTO 00000KT 2SM RA BR OVC090 15/14 A2994 RMK AO2 VIS 1V4 P0010 T01460143', 'KAIK 121315Z AUTO 00000KT 7SM RA SCT031 OVC100 15/14 A2991 RMK AO2 P0003 T01470145', 'KAIK 121255Z AUTO 35004KT 7SM RA SCT030 OVC100 15/14 A2991 RMK AO2 P0012 T01470144', 'KAIK 121215Z AUTO 03003KT 1SM +RA BR OVC100 14/14 A2989 RMK AO2 P0005 T01430141', 'KAIK 121155Z AUTO 00000KT 5SM RA BR OVC110 15/14 A2990 RMK AO2 P0006 T01450142 10166 20144 60068 70095', 'KAIK 121115Z AUTO 32003KT 10SM -RA SCT006 BKN050 OVC110 15/14 A2990 RMK AO2 LTG DSNT SW P0002 T01480144', 'KAIK 121055Z AUTO 30004KT 7SM RA SCT005 BKN048 OVC090 15/15 A2991 RMK AO2 LTG DSNT SE AND S P0021 T01490145', 'KAIK 121015Z AUTO 20006KT 5SM +RA BR BKN005 BKN017 OVC090 15/15 A2990 RMK AO2 LTG DSNT SW AND W P0007 T01500146']","['2024-02-15 09:55:00', '2024-02-15 09:15:00', '2024-02-15 08:55:00', '2024-02-15 08:15:00', '2024-02-15 07:55:00', '2024-02-15 07:15:00', '2024-02-15 06:55:00', '2024-02-15 06:15:00', '2024-02-15 05:55:00', '2024-02-15 05:15:00', '2024-02-15 04:55:00', '2024-02-15 04:15:00', '2024-02-15 03:55:00', '2024-02-15 03:15:00', '2024-02-15 02:55:00', '2024-02-15 02:15:00', '2024-02-15 01:55:00', '2024-02-15 01:15:00', '2024-02-15 00:55:00', '2024-02-15 00:15:00', '2024-02-14 23:55:00', '2024-02-14 23:15:00', '2024-02-14 22:55:00', '2024-02-14 22:15:00', '2024-02-14 21:55:00', '2024-02-14 21:15:00', '2024-02-14 20:55:00', '2024-02-14 20:15:00', '2024-02-14 19:55:00', '2024-02-14 19:15:00', '2024-02-14 18:55:00', '2024-02-14 18:15:00', '2024-02-14 17:55:00', '2024-02-14 17:15:00', '2024-02-14 16:55:00', '2024-02-14 16:15:00', '2024-02-14 15:55:00', '2024-02-14 15:15:00', '2024-02-14 14:55:00', '2024-02-14 14:15:00', '2024-02-14 13:55:00', '2024-02-14 13:15:00', '2024-02-14 12:55:00', '2024-02-14 12:15:00', '2024-02-14 11:55:00', '2024-02-14 11:15:00', '2024-02-14 10:55:00', '2024-02-14 10:15:00', '2024-02-14 09:55:00', '2024-02-14 09:15:00', '2024-02-14 08:55:00', '2024-02-14 08:15:00', '2024-02-14 07:55:00', '2024-02-14 07:15:00', '2024-02-14 06:55:00', '2024-02-14 06:15:00', '2024-02-14 05:55:00', '2024-02-14 05:15:00', '2024-02-14 04:55:00', '2024-02-14 04:15:00', '2024-02-14 03:55:00', '2024-02-14 03:15:00', '2024-02-14 02:55:00', '2024-02-14 02:15:00', '2024-02-14 01:55:00', '2024-02-14 01:15:00', '2024-02-14 00:55:00', '2024-02-14 00:15:00', '2024-02-13 23:55:00', '2024-02-13 23:15:00', '2024-02-13 22:55:00', '2024-02-13 22:15:00', '2024-02-13 21:55:00', '2024-02-13 21:15:00', '2024-02-13 20:55:00', '2024-02-13 20:15:00', '2024-02-13 19:55:00', '2024-02-13 19:15:00', '2024-02-13 18:55:00', '2024-02-13 18:15:00', '2024-02-13 17:55:00', '2024-02-13 17:15:00', '2024-02-13 16:35:00', '2024-02-13 16:15:00', '2024-02-13 15:55:00', '2024-02-13 15:15:00', '2024-02-13 14:55:00', '2024-02-13 14:15:00', '2024-02-13 13:55:00', '2024-02-13 13:15:00', '2024-02-13 12:55:00', '2024-02-13 12:15:00', '2024-02-13 11:55:00', '2024-02-13 11:15:00', '2024-02-13 10:55:00', '2024-02-13 10:15:00', '2024-02-13 09:55:00', '2024-02-13 09:15:00', '2024-02-13 08:55:00', '2024-02-13 08:15:00', '2024-02-13 07:55:00', '2024-02-13 07:15:00', '2024-02-13 06:55:00', '2024-02-13 06:15:00', '2024-02-13 05:55:00', '2024-02-13 05:15:00', '2024-02-13 04:55:00', '2024-02-13 04:15:00', '2024-02-13 03:55:00', '2024-02-13 03:15:00', '2024-02-13 02:55:00', '2024-02-13 02:15:00', '2024-02-13 01:55:00', '2024-02-13 01:15:00', '2024-02-13 00:55:00', '2024-02-13 00:15:00', '2024-02-12 23:55:00', '2024-02-12 23:15:00', '2024-02-12 22:55:00', '2024-02-12 22:15:00', '2024-02-12 21:55:00', '2024-02-12 21:15:00', '2024-02-12 20:55:00', '2024-02-12 20:15:00', '2024-02-12 19:55:00', '2024-02-12 19:15:00', '2024-02-12 18:55:00', '2024-02-12 18:15:00', '2024-02-12 17:55:00', '2024-02-12 17:15:00', '2024-02-12 16:55:00', '2024-02-12 16:15:00', '2024-02-12 15:55:00', '2024-02-12 15:15:00', '2024-02-12 14:55:00', '2024-02-12 14:15:00', '2024-02-12 13:55:00', '2024-02-12 13:15:00', '2024-02-12 12:55:00', '2024-02-12 12:15:00', '2024-02-12 11:55:00', '2024-02-12 11:15:00', '2024-02-12 10:55:00', '2024-02-12 10:15:00']"
United-states, Akron Canton Airport (CAK/KCAK) ,"['KCAK 150951Z 12006KT 10SM SCT150 OVC190 M04/M09 A3011 RMK AO2 SLP210 T10441089', 'KCAK 150851Z 14008KT 10SM BKN130 BKN250 M04/M08 A3013 RMK AO2 SLP217 T10441083 58022', 'KCAK 150751Z 15008KT 10SM BKN140 M04/M08 A3018 RMK AO2 SLP236 T10441083', 'KCAK 150651Z 16005KT 10SM CLR M06/M09 A3020 RMK AO2 SLP240 T10561089', 'KCAK 150551Z 12005KT 10SM CLR M05/M09 A3020 RMK AO2 SLP240 T10501094 11017 21050 57010', 'KCAK 150451Z 10005KT 10SM CLR M04/M09 A3020 RMK AO2 SLP242 T10441089 400111050', 'KCAK 150351Z 12003KT 10SM CLR M04/M09 A3022 RMK AO2 SLP250 T10441089', 'KCAK 150251Z 05003KT 10SM CLR M03/M09 A3023 RMK AO2 SLP251 T10331089 53001', 'KCAK 150151Z 02004KT 10SM CLR M03/M09 A3022 RMK AO2 SLP249 T10331089', 'KCAK 150051Z 35004KT 10SM CLR M02/M09 A3023 RMK AO2 SLP251 T10221089', 'KCAK 142351Z 35004KT 10SM CLR M02/M09 A3022 RMK AO2 SLP251 T10221089 10011 21028 53006', 'KCAK 142251Z 32005KT 10SM FEW038 M02/M09 A3022 RMK AO2 SLP248 T10171089', 'KCAK 142151Z 31005KT 10SM SCT038 01/M09 A3021 RMK AO2 SLP243 T00061089', 'KCAK 142051Z 30005KT 10SM SCT038 M01/M08 A3021 RMK AO2 SLP243 T10061083 55000', 'KCAK 141951Z 30009KT 10SM BKN038 01/M08 A3021 RMK AO2 SLP244 T00061083', 'KCAK 141851Z 33006KT 10SM OVC036 01/M08 A3019 RMK AO2 SLP237 T00061083', 'KCAK 141751Z VRB06KT 10SM OVC036 00/M08 A3021 RMK AO2 SLP242 60000 T00001078 10000 21033 58005', 'KCAK 141651Z 29003KT 10SM BKN034 OVC041 M01/M07 A3022 RMK AO2 SNE43 SLP248 P0000 T10061072', 'KCAK 141551Z VRB04KT 9SM -SN FEW028 OVC044 M01/M07 A3022 RMK AO2 SLP248 P0000 T10111072', 'KCAK 141451Z 04003KT 9SM -SN BKN023 OVC045 M02/M06 A3022 RMK AO2 SNB13 SLP248 P0000 60000 T10171061 51022', 'KCAK 141413Z 34005KT 10SM -SN BKN023 OVC046 M02/M06 A3022 RMK AO2 SNB13 P0000 T10171061', 'KCAK 141351Z 35003KT 10SM FEW021 OVC047 M02/M06 A3021 RMK AO2 SLP244 T10171061', 'KCAK 141251Z 02006KT 10SM OVC045 M03/M06 A3018 RMK AO2 SLP234 T10281061', 'KCAK 141151Z 33004KT 8SM OVC046 M03/M06 A3015 RMK AO2 SNE20 SLP226 P0000 60000 T10331056 11017 21033 53018 $', 'KCAK 141121Z 35003KT 9SM OVC046 M03/M06 A3014 RMK AO2 SNE20 P0000 T10331056 $', 'KCAK 141051Z 35005KT 9SM -SN OVC046 M03/M06 A3013 RMK AO2 SLP217 P0000 T10281056 $', 'KCAK 140951Z 35004KT 9SM -SN FEW032 OVC050 M03/M06 A3011 RMK AO2 SLP210 P0000 T10331056 $', 'KCAK 140851Z 34005KT 9SM -SN SCT032 OVC050 M02/M04 A3010 RMK AO2 SLP205 P0000 60000 T10221044 51015', 'KCAK 140810Z 35005KT 9SM -SN SCT017 SCT034 OVC050 M02/M04 A3009 RMK AO2 P0000 T10221044', 'KCAK 140751Z 35005KT 9SM -SN BKN017 OVC050 M02/M04 A3008 RMK AO2 SLP199 P0000 T10221044', 'KCAK 140651Z 31005KT 9SM -SN BKN017 OVC060 M02/M04 A3008 RMK AO2 SNB36 SLP196 P0000 T10171044', 'KCAK 140551Z 29004KT 10SM OVC060 M02/M05 A3005 RMK AO2 SLP188 60000 T10171050 10000 21017 51010', 'KCAK 140451Z 32005KT 10SM OVC060 M02/M05 A3004 RMK AO2 SLP184 T10171050 400501028', 'KCAK 140351Z 32007KT 10SM OVC065 M01/M05 A3004 RMK AO2 SNE03 SLP183 P0000 T10111050', 'KCAK 140303Z 32007KT 9SM FEW040 OVC065 M01/M04 A3003 RMK AO2 SNE03 P0000 T10061044', 'KCAK 140251Z 33008KT 8SM -SN FEW040 OVC065 M01/M04 A3002 RMK AO2 SNB18 SLP178 P0000 60000 T10061044 53014', 'KCAK 140218Z 30007KT 10SM -SN FEW040 OVC065 M01/M04 A3001 RMK AO2 SNB18 P0000 T10061044', 'KCAK 140151Z 32008KT 10SM OVC065 M01/M04 A3000 RMK AO2 SLP172 T10061039', 'KCAK 140051Z 32006KT 9SM SCT045 OVC070 M01/M04 A2999 RMK AO2 SNE50 SLP169 P0000 T10061039', 'KCAK 132351Z 30009KT 9SM -SN FEW025 OVC070 00/M03 A2998 RMK AO2 SLP163 P0000 60000 T00001033 10050 21006 51025', 'KCAK 132301Z 31009KT 6SM -SN BR FEW016 SCT023 BKN070 M01/M02 A2996 RMK AO2 P0000 T10061022', 'KCAK 132251Z 33007KT 6SM -SN BR SCT016 BKN023 BKN070 00/M02 A2995 RMK AO2 SLP155 P0000 T00001022', 'KCAK 132151Z 32010KT 3SM -SN SCT017 BKN027 OVC045 01/M02 A2993 RMK AO2 SFC VIS 3 SLP146 P0000 T00111017', 'KCAK 132051Z 33009KT 6SM -SN FEW033 BKN047 OVC060 02/M02 A2990 RMK AO2 SLP137 P0000 60000 T00171017 53009', 'KCAK 131951Z 29010KT 8SM -SN FEW034 BKN045 OVC055 03/M03 A2988 RMK AO2 SNB07 SLP130 P0000 T00281033', 'KCAK 131907Z 30016G24KT 8SM -SN BKN046 OVC065 03/M06 A2987 RMK AO2 SNB07 P0000 T00331056', 'KCAK 131851Z 31009KT 10SM FEW042 OVC065 04/M05 A2986 RMK AO2 SLP124 T00391050', 'KCAK 131751Z 30012KT 10SM SCT039 OVC060 04/M04 A2987 RMK AO2 SLP126 T00391044 10050 21028 50008', 'KCAK 131651Z 28010KT 10SM FEW022 SCT033 04/M03 A2988 RMK AO2 SLP127 T00441028', 'KCAK 131551Z 27009KT 8SM FEW011 SCT038 02/M02 A2986 RMK AO2 SLP123 T00221022', 'KCAK 131522Z 28007KT 7SM SCT011 BKN038 01/M02 A2986 RMK AO2 T00111022', 'KCAK 131451Z 32009KT 6SM BR BKN009 00/M02 A2985 RMK AO2 SLP119 T00001022 52028', 'KCAK 131351Z 32009G15KT 6SM BR SCT009 SCT250 M01/M03 A2982 RMK AO2 SLP109 T10111028', 'KCAK 131251Z 32004KT 10SM SCT008 SCT220 M03/M04 A2979 RMK AO2 SLP099 T10281039', 'KCAK 131151Z 33010KT 10SM BKN012 BKN220 M02/M03 A2976 RMK AO2 SLP088 T10171033 11011 21022 53033', 'KCAK 131051Z 34010KT 10SM OVC220 M02/M04 A2972 RMK AO2 SLP075 T10171044', 'KCAK 130951Z 35009KT 10SM OVC200 M02/M04 A2969 RMK AO2 SLP066 T10171044', 'KCAK 130851Z 35011KT 10SM OVC200 M02/M04 A2966 RMK AO2 SLP052 T10171044 53003', 'KCAK 130751Z 36011KT 10SM OVC190 M02/M05 A2965 RMK AO2 SLP049 T10171050', 'KCAK 130651Z 36009KT 10SM OVC180 M02/M05 A2965 RMK AO2 SLP050 T10171050', 'KCAK 130551Z 36007KT 10SM OVC180 M02/M04 A2965 RMK AO2 SLP050 T10171044 10028 21017 56013', 'KCAK 130451Z 01010KT 10SM OVC190 M01/M04 A2965 RMK AO2 SLP050 T10111039 400501039', 'KCAK 130351Z 01011KT 10SM OVC210 M01/M03 A2967 RMK AO2 SLP057 T10061033', 'KCAK 130251Z 01008KT 10SM OVC220 M01/M03 A2969 RMK AO2 SLP065 T10061033 56019', 'KCAK 130151Z 01010KT 10SM SCT160 OVC230 01/M03 A2971 RMK AO2 SLP073 T00061033', 'KCAK 130051Z 02007KT 10SM OVC160 02/M03 A2971 RMK AO2 SLP072 T00171028', 'KCAK 122351Z 06005KT 10SM OVC180 02/M03 A2975 RMK AO2 SLP085 T00221033 10050 20017 58014', 'KCAK 122251Z 02005KT 10SM FEW100 BKN220 02/M04 A2977 RMK AO2 SLP093 T00221039', 'KCAK 122151Z 04005KT 10SM FEW100 04/M03 A2977 RMK AO2 SLP091 T00391033', 'KCAK 122051Z 01004KT 10SM BKN180 04/M03 A2979 RMK AO2 SLP098 T00441033 58022', 'KCAK 121951Z 00000KT 10SM FEW120 SCT250 04/M03 A2983 RMK AO2 SLP111 T00391028', 'KCAK 121851Z 36007KT 10SM FEW120 SCT250 04/M03 A2984 RMK AO2 SLP114 T00391028', 'KCAK 121751Z 00000KT 10SM FEW019 SCT120 03/M03 A2985 RMK AO2 SLP121 T00281033 10028 21039 56022', 'KCAK 121726Z 15006KT 10SM SCT017 02/M03 A2986 RMK AO2 T00171028', 'KCAK 121651Z 06007KT 10SM BKN015 02/M03 A2987 RMK AO2 SLP126 T00171033', 'KCAK 121551Z 10008KT 10SM BKN015 BKN250 M01/M03 A2989 RMK AO2 SLP137 T10061033', 'KCAK 121451Z 10008KT 8SM FEW025 SCT130 BKN250 M01/M03 A2992 RMK AO2 SLP146 T10111033 55006', 'KCAK 121351Z 09004KT 6SM BR SCT130 SCT250 M02/M04 A2992 RMK AO2 SLP144 T10221039', 'KCAK 121251Z 10004KT 6SM BR FEW130 SCT250 M03/M05 A2993 RMK AO2 SLP150 T10331050', 'KCAK 121151Z 07005KT 7SM BKN130 BKN250 M03/M04 A2994 RMK AO2 SLP153 I6000 T10331044 11028 21039 51007', 'KCAK 121051Z 05004KT 7SM BKN130 OVC250 M03/M04 A2993 RMK AO2 SLP146 T10331039']","['2024-02-15 09:51:00', '2024-02-15 08:51:00', '2024-02-15 07:51:00', '2024-02-15 06:51:00', '2024-02-15 05:51:00', '2024-02-15 04:51:00', '2024-02-15 03:51:00', '2024-02-15 02:51:00', '2024-02-15 01:51:00', '2024-02-15 00:51:00', '2024-02-14 23:51:00', '2024-02-14 22:51:00', '2024-02-14 21:51:00', '2024-02-14 20:51:00', '2024-02-14 19:51:00', '2024-02-14 18:51:00', '2024-02-14 17:51:00', '2024-02-14 16:51:00', '2024-02-14 15:51:00', '2024-02-14 14:51:00', '2024-02-14 14:13:00', '2024-02-14 13:51:00', '2024-02-14 12:51:00', '2024-02-14 11:51:00', '2024-02-14 11:21:00', '2024-02-14 10:51:00', '2024-02-14 09:51:00', '2024-02-14 08:51:00', '2024-02-14 08:10:00', '2024-02-14 07:51:00', '2024-02-14 06:51:00', '2024-02-14 05:51:00', '2024-02-14 04:51:00', '2024-02-14 03:51:00', '2024-02-14 03:03:00', '2024-02-14 02:51:00', '2024-02-14 02:18:00', '2024-02-14 01:51:00', '2024-02-14 00:51:00', '2024-02-13 23:51:00', '2024-02-13 23:01:00', '2024-02-13 22:51:00', '2024-02-13 21:51:00', '2024-02-13 20:51:00', '2024-02-13 19:51:00', '2024-02-13 19:07:00', '2024-02-13 18:51:00', '2024-02-13 17:51:00', '2024-02-13 16:51:00', '2024-02-13 15:51:00', '2024-02-13 15:22:00', '2024-02-13 14:51:00', '2024-02-13 13:51:00', '2024-02-13 12:51:00', '2024-02-13 11:51:00', '2024-02-13 10:51:00', '2024-02-13 09:51:00', '2024-02-13 08:51:00', '2024-02-13 07:51:00', '2024-02-13 06:51:00', '2024-02-13 05:51:00', '2024-02-13 04:51:00', '2024-02-13 03:51:00', '2024-02-13 02:51:00', '2024-02-13 01:51:00', '2024-02-13 00:51:00', '2024-02-12 23:51:00', '2024-02-12 22:51:00', '2024-02-12 21:51:00', '2024-02-12 20:51:00', '2024-02-12 19:51:00', '2024-02-12 18:51:00', '2024-02-12 17:51:00', '2024-02-12 17:26:00', '2024-02-12 16:51:00', '2024-02-12 15:51:00', '2024-02-12 14:51:00', '2024-02-12 13:51:00', '2024-02-12 12:51:00', '2024-02-12 11:51:00', '2024-02-12 10:51:00']"
United-states, Akron Fulton International Airport (AKC/KAKR) ,"['KAKR 150954Z AUTO 13006KT 10SM CLR M03/M08 A3010 RMK AO2 SLP203 T10281083', 'KAKR 150854Z AUTO 14005KT 10SM FEW120 M03/M09 A3013 RMK AO2 SLP213 T10331089 58021', 'KAKR 150754Z AUTO 15006KT 10SM CLR M03/M09 A3017 RMK AO2 SLP228 T10331089', 'KAKR 150654Z AUTO 16003KT 10SM CLR M06/M09 A3019 RMK AO2 SLP237 T10561094', 'KAKR 150554Z AUTO 00000KT 10SM CLR M06/M09 A3019 RMK AO2 SLP237 T10561094 11006 21061 58010', 'KAKR 150454Z AUTO 00000KT 10SM CLR M06/M09 A3020 RMK AO2 SLP239 T10611094 400221061', 'KAKR 150354Z AUTO 00000KT 10SM CLR M04/M09 A3022 RMK AO2 SLP245 T10441089', 'KAKR 150254Z AUTO 00000KT 10SM CLR M06/M09 A3022 RMK AO2 SLP247 T10561094 55000', 'KAKR 150154Z AUTO 00000KT 10SM CLR M03/M08 A3022 RMK AO2 SLP245 T10281083', 'KAKR 150054Z AUTO 00000KT 10SM CLR M02/M09 A3023 RMK AO2 SLP247 T10171089', 'KAKR 142354Z AUTO 33003KT 10SM CLR M01/M09 A3022 RMK AO2 SLP245 T10061089 10022 21011 53007', 'KAKR 142254Z AUTO 31006KT 10SM CLR 00/M08 A3021 RMK AO2 SLP243 T00001083', 'KAKR 142154Z AUTO 33004KT 10SM CLR 02/M08 A3021 RMK AO2 SLP239 T00171078', 'KAKR 142054Z AUTO 29005KT 10SM FEW041 01/M09 A3020 RMK AO2 SLP237 T00061089 56002', 'KAKR 141954Z AUTO 32009KT 10SM OVC040 02/M08 A3021 RMK AO2 SLP240 T00171083', 'KAKR 141854Z AUTO 30004KT 10SM OVC039 01/M08 A3019 RMK AO2 SLP234 T00111083', 'KAKR 141754Z AUTO 30006KT 10SM OVC039 01/M08 A3021 RMK AO2 SLP238 T00061083 10006 21017 58006', 'KAKR 141654Z AUTO 29006KT 10SM OVC038 00/M08 A3022 RMK AO2 SLP244 T00001083', 'KAKR 141554Z AUTO 02005KT 10SM SCT030 OVC045 00/M07 A3022 RMK AO2 SLP243 T00001072', 'KAKR 141516Z AUTO 34003KT 10SM BKN027 OVC047 00/M07 A3023 RMK AO2 T00001072', 'KAKR 141454Z AUTO 35005KT 10SM SCT023 OVC047 M01/M07 A3022 RMK AO2 SLP244 T10061067 51022', 'KAKR 141403Z AUTO 02006KT 10SM SCT022 OVC048 M01/M06 A3021 RMK AO2 T10111061', 'KAKR 141354Z AUTO 34006KT 10SM BKN022 OVC048 M01/M06 A3021 RMK AO2 SLP240 T10111061', 'KAKR 141254Z AUTO 36004KT 10SM OVC047 M02/M06 A3018 RMK AO2 SLP231 T10171061', 'KAKR 141154Z AUTO 36006KT 10SM FEW035 OVC045 M02/M06 A3016 RMK AO2 SLP221 60000 T10171061 11006 21022 53019', 'KAKR 141054Z AUTO 01006KT 10SM FEW022 OVC048 M02/M06 A3013 RMK AO2 SLP213 T10171061', 'KAKR 141026Z AUTO 36006KT 10SM BKN022 OVC050 M02/M06 A3012 RMK AO2 T10171061', 'KAKR 140954Z AUTO 35006KT 10SM FEW019 OVC050 M02/M06 A3011 RMK AO2 SLP205 T10171056', 'KAKR 140854Z AUTO 35007KT 10SM BKN031 OVC055 M01/M05 A3010 RMK AO2 SLP200 60000 T10111050 51014', 'KAKR 140754Z AUTO 35006KT 10SM FEW038 OVC055 M01/M04 A3008 RMK AO2 SNB0658E27 SLP196 P0000 T10111044', 'KAKR 140654Z AUTO 35005KT 10SM FEW032 BKN047 OVC060 M01/M04 A3007 RMK AO2 SLP191 T10061044', 'KAKR 140612Z AUTO 35006KT 10SM BKN017 BKN050 OVC060 M01/M04 A3006 RMK AO2 T10061044', 'KAKR 140554Z AUTO 34004KT 10SM FEW015 OVC060 M01/M04 A3005 RMK AO2 SLP185 T10061044 10011 21006 53011', 'KAKR 140454Z AUTO 36007KT 10SM OVC060 00/M04 A3004 RMK AO2 SLP180 T00001039 400611011', 'KAKR 140354Z AUTO 33008KT 10SM OVC065 00/M04 A3003 RMK AO2 SLP178 T00001044', 'KAKR 140254Z AUTO 33010KT 10SM OVC065 01/M04 A3002 RMK AO2 SLP174 T00061044 53016', 'KAKR 140154Z AUTO 30008KT 10SM OVC070 01/M04 A3000 RMK AO2 SLP169 T00061039', 'KAKR 140054Z AUTO 31008KT 10SM OVC070 01/M04 A2998 RMK AO2 SLP163 T00061039', 'KAKR 132354Z AUTO 31008KT 10SM SCT022 OVC070 01/M03 A2997 RMK AO2 SLP158 60000 T00111033 10056 20011 53014', 'KAKR 132254Z AUTO 33008KT 10SM FEW018 SCT050 OVC070 01/M03 A2995 RMK AO2 SNE00 SLP151 P0000 T00111028', 'KAKR 132154Z AUTO 31009KT 3SM -SN SCT013 BKN021 OVC031 01/M02 A2993 RMK AO2 SNB23 SLP144 P0000 T00111017', 'KAKR 132054Z AUTO 32012KT 10SM SCT018 BKN026 OVC070 03/M02 A2990 RMK AO2 SNB13E24 SLP134 P0000 60000 T00281022 53012', 'KAKR 131954Z AUTO 33012KT 10SM FEW027 BKN048 OVC070 03/M03 A2988 RMK AO2 SLP127 T00331028', 'KAKR 131854Z AUTO 30011KT 10SM SCT040 BKN050 OVC065 04/M04 A2987 RMK AO2 SLP121 T00441039', 'KAKR 131754Z AUTO 29011KT 10SM BKN041 OVC050 04/M04 A2986 RMK AO2 SLP120 T00441044 10061 21011 50007', 'KAKR 131654Z AUTO 33007KT 10SM FEW029 SCT039 04/M03 A2987 RMK AO2 SLP123 T00441033', 'KAKR 131554Z AUTO 27008KT 9SM FEW018 03/M02 A2986 RMK AO2 SLP119 T00281022', 'KAKR 131454Z AUTO 31006KT 7SM BKN012 OVC041 01/M02 A2984 RMK AO2 SLP113 T00111022 51026', 'KAKR 131354Z AUTO 31010KT 7SM BKN011 00/M03 A2982 RMK AO2 SLP107 T00001033', 'KAKR 131254Z AUTO 30005KT 8SM BKN011 M01/M04 A2979 RMK AO2 SLP095 T10111039', 'KAKR 131154Z AUTO 33005KT 10SM OVC011 M01/M03 A2976 RMK AO2 SLP086 T10061033 11006 21011 52032', 'KAKR 131103Z AUTO 35009KT 10SM BKN011 M01/M04 A2974 RMK AO2 T10061039', 'KAKR 131054Z AUTO 35008KT 10SM SCT012 M01/M04 A2973 RMK AO2 SLP074 T10061039', 'KAKR 130954Z AUTO 35006KT 10SM CLR M01/M04 A2970 RMK AO2 SLP064 T10111044', 'KAKR 130854Z AUTO 36008KT 10SM CLR M01/M04 A2967 RMK AO2 SLP052 T10111044 53004', 'KAKR 130754Z AUTO 36009KT 10SM CLR M01/M04 A2966 RMK AO2 SLP048 T10111044', 'KAKR 130654Z AUTO 35007KT 10SM CLR M01/M05 A2966 RMK AO2 SLP049 T10061050', 'KAKR 130554Z AUTO 35008KT 10SM CLR M01/M05 A2965 RMK AO2 SLP049 T10061050 10033 21006 56014', 'KAKR 130454Z AUTO 03006KT 10SM CLR M01/M04 A2966 RMK AO2 SLP053 T10061044 400611039', 'KAKR 130354Z AUTO 03006KT 10SM CLR M01/M04 A2968 RMK AO2 SLP058 T10061039', 'KAKR 130254Z AUTO 01008KT 10SM CLR 01/M04 A2970 RMK AO2 SLP064 T00061039 56018', 'KAKR 130154Z AUTO 02007KT 10SM CLR 01/M04 A2972 RMK AO2 SLP072 T00111039', 'KAKR 130054Z AUTO 01007KT 10SM CLR 02/M03 A2971 RMK AO2 SLP070 T00221033', 'KAKR 122354Z AUTO 01009KT 10SM CLR 03/M03 A2975 RMK AO2 SLP083 T00331028 10061 20028 57010', 'KAKR 122254Z AUTO 06005KT 10SM CLR 04/M03 A2977 RMK AO2 SLP087 T00441033', 'KAKR 122154Z AUTO 03004KT 10SM CLR 06/M03 A2976 RMK AO2 SLP086 T00561028', 'KAKR 122054Z AUTO 04003KT 10SM SCT120 06/M03 A2978 RMK AO2 SLP091 T00561033 58024', 'KAKR 121954Z AUTO 00000KT 10SM CLR 05/M03 A2982 RMK AO2 SLP108 T00501033', 'KAKR 121854Z AUTO 10SM CLR 04/M03 A2983 RMK AO2 SLP109 T00441028', 'KAKR 121754Z AUTO 00000KT 10SM FEW021 03/M03 A2985 RMK AO2 SLP118 I6000 T00281033 10039 21039 56022', 'KAKR 121654Z AUTO 09005KT 10SM FEW018 02/M03 A2986 RMK AO2 SLP120 T00171033', 'KAKR 121618Z AUTO 07007KT 10SM BKN016 02/M03 A2989 RMK AO2 T00171033', 'KAKR 121554Z AUTO 08008KT 10SM SCT016 01/M04 A2989 RMK AO2 SLP131 T00111039', 'KAKR 121454Z AUTO 09006KT 10SM CLR 00/M04 A2992 RMK AO2 SLP141 I3000 T00001039 55008', 'KAKR 121354Z AUTO 06003KT 5SM BR CLR M03/M04 A2991 RMK AO2 SLP141 T10281044', 'KAKR 121254Z AUTO 00000KT 5SM BR CLR M03/M05 A2993 RMK AO2 SLP148 I1000 T10331050', 'KAKR 121154Z AUTO 00000KT 9SM CLR M02/M04 A2994 RMK AO2 SLP149 I6000 T10221044 11017 21039 51009', 'KAKR 121054Z AUTO 06005KT 9SM CLR M02/M04 A2993 RMK AO2 SLP143 T10221044']","['2024-02-15 09:54:00', '2024-02-15 08:54:00', '2024-02-15 07:54:00', '2024-02-15 06:54:00', '2024-02-15 05:54:00', '2024-02-15 04:54:00', '2024-02-15 03:54:00', '2024-02-15 02:54:00', '2024-02-15 01:54:00', '2024-02-15 00:54:00', '2024-02-14 23:54:00', '2024-02-14 22:54:00', '2024-02-14 21:54:00', '2024-02-14 20:54:00', '2024-02-14 19:54:00', '2024-02-14 18:54:00', '2024-02-14 17:54:00', '2024-02-14 16:54:00', '2024-02-14 15:54:00', '2024-02-14 15:16:00', '2024-02-14 14:54:00', '2024-02-14 14:03:00', '2024-02-14 13:54:00', '2024-02-14 12:54:00', '2024-02-14 11:54:00', '2024-02-14 10:54:00', '2024-02-14 10:26:00', '2024-02-14 09:54:00', '2024-02-14 08:54:00', '2024-02-14 07:54:00', '2024-02-14 06:54:00', '2024-02-14 06:12:00', '2024-02-14 05:54:00', '2024-02-14 04:54:00', '2024-02-14 03:54:00', '2024-02-14 02:54:00', '2024-02-14 01:54:00', '2024-02-14 00:54:00', '2024-02-13 23:54:00', '2024-02-13 22:54:00', '2024-02-13 21:54:00', '2024-02-13 20:54:00', '2024-02-13 19:54:00', '2024-02-13 18:54:00', '2024-02-13 17:54:00', '2024-02-13 16:54:00', '2024-02-13 15:54:00', '2024-02-13 14:54:00', '2024-02-13 13:54:00', '2024-02-13 12:54:00', '2024-02-13 11:54:00', '2024-02-13 11:03:00', '2024-02-13 10:54:00', '2024-02-13 09:54:00', '2024-02-13 08:54:00', '2024-02-13 07:54:00', '2024-02-13 06:54:00', '2024-02-13 05:54:00', '2024-02-13 04:54:00', '2024-02-13 03:54:00', '2024-02-13 02:54:00', '2024-02-13 01:54:00', '2024-02-13 00:54:00', '2024-02-12 23:54:00', '2024-02-12 22:54:00', '2024-02-12 21:54:00', '2024-02-12 20:54:00', '2024-02-12 19:54:00', '2024-02-12 18:54:00', '2024-02-12 17:54:00', '2024-02-12 16:54:00', '2024-02-12 16:18:00', '2024-02-12 15:54:00', '2024-02-12 14:54:00', '2024-02-12 13:54:00', '2024-02-12 12:54:00', '2024-02-12 11:54:00', '2024-02-12 10:54:00']"
United-states, Alamogordo White Sands Regional Airport (ALM/KALM) ,"['KALM 150955Z AUTO 12004KT 10SM FEW032 SCT043 01/M10 A3018 RMK AO2', 'KALM 150915Z AUTO 17004KT 10SM FEW039 FEW046 FEW070 03/M09 A3017 RMK AO2', 'KALM 150855Z AUTO 00000KT 10SM FEW036 FEW044 05/M09 A3018 RMK AO2', 'KALM 150815Z AUTO 06005KT 10SM FEW040 SCT047 05/M10 A3018 RMK AO2', 'KALM 150755Z AUTO 00000KT 10SM FEW036 SCT042 SCT049 06/M10 A3019 RMK AO2', 'KALM 150715Z AUTO 09006KT 10SM FEW034 FEW039 BKN046 09/M10 A3018 RMK AO2', 'KALM 150655Z AUTO 06007KT 10SM FEW032 FEW038 SCT047 08/M10 A3018 RMK AO2', 'KALM 150615Z AUTO 06007KT 10SM FEW035 FEW042 SCT049 07/M11 A3019 RMK AO2', 'KALM 150555Z AUTO 00000KT 10SM SCT042 SCT049 10/M11 A3018 RMK AO2', 'KALM 150515Z AUTO 15004KT 10SM FEW034 FEW041 SCT047 08/M10 A3018 RMK AO2', 'KALM 150455Z AUTO 16008KT 10SM FEW043 FEW049 09/M11 A3018 RMK AO2', 'KALM 150415Z AUTO 17009G14KT 10SM FEW043 FEW050 11/M11 A3016 RMK AO2', 'KALM 150355Z AUTO 17010KT 10SM FEW043 FEW050 11/M11 A3016 RMK AO2', 'KALM 150315Z AUTO 17009KT 10SM FEW045 FEW090 10/M09 A3013 RMK AO2', 'KALM 150255Z AUTO 16011KT 10SM FEW035 SCT044 SCT049 10/M08 A3013 RMK AO2', 'KALM 150215Z AUTO 16009KT 10SM FEW045 08/M08 A3011 RMK AO2', 'KALM 150155Z AUTO 15009KT 10SM CLR 09/M07 A3010 RMK AO2', 'KALM 150115Z AUTO 14005KT 13/M10 A3008 RMK AO2', 'KALM 150055Z AUTO RMK AO2 PNO PWINO TSNO', 'KALM 150015Z AUTO 00000KT 10SM CLR 18/M11 A3005 RMK AO2', 'KALM 142355Z AUTO VRB04KT 10SM CLR 18/M11 A3005 RMK AO2', 'KALM 142315Z AUTO 00000KT 10SM CLR 18/M11 A3005 RMK AO2', 'KALM 142255Z AUTO 30005KT 10SM CLR 18/M11 A3006 RMK AO2', 'KALM 142215Z AUTO 33004G10KT 10SM CLR 18/M12 A3006 RMK AO2', 'KALM 142155Z AUTO 26005G10KT 10SM CLR 18/M12 A3006 RMK AO2', 'KALM 142115Z AUTO 23007KT 190V270 10SM CLR 18/M10 A3006 RMK AO2', 'KALM 142055Z AUTO 30005KT 10SM CLR 18/M11 A3006 RMK AO2', 'KALM 142015Z AUTO VRB05G11KT 10SM CLR 17/M10 A3008 RMK AO2', 'KALM 141955Z AUTO 24008G13KT 210V290 10SM CLR 17/M10 A3009 RMK AO2', 'KALM 141915Z AUTO 17005KT 10SM CLR 16/M09 A3011 RMK AO2', 'KALM 141855Z AUTO VRB04KT 10SM CLR 16/M09 A3012 RMK AO2', 'KALM 141815Z AUTO 20007KT 10SM CLR 16/M08 A3013 RMK AO2', 'KALM 141755Z AUTO VRB05G12KT 10SM CLR 15/M08 A3012 RMK AO2', 'KALM 141715Z AUTO 20006KT 10SM CLR 14/M07 A3013 RMK AO2', 'KALM 141655Z AUTO 22006G12KT 10SM CLR 13/M07 A3013 RMK AO2', 'KALM 141615Z AUTO 19008KT 10SM CLR 11/M07 A3012 RMK AO2', 'KALM 141555Z AUTO 19008KT 10SM CLR 09/M07 A3013 RMK AO2', 'KALM 141515Z AUTO 00000KT 10SM CLR 06/M05 A3012 RMK AO2', 'KALM 141455Z AUTO 00000KT 10SM CLR 03/M06 A3011 RMK AO2', 'KALM 141415Z AUTO 00000KT 10SM CLR M01/M07 A3009 RMK AO2', 'KALM 141355Z AUTO 11003KT 10SM CLR M01/M08 A3009 RMK AO2', 'KALM 141315Z AUTO 00000KT 10SM FEW029 SCT036 BKN043 M01/M08 A3009 RMK AO2', 'KALM 141255Z AUTO 32003KT 10SM FEW028 SCT037 BKN042 01/M08 A3008 RMK AO2', 'KALM 141215Z AUTO 03006KT 10SM FEW035 FEW041 SCT050 M00/M08 A3006 RMK AO2', 'KALM 141155Z AUTO 00000KT 10SM FEW030 SCT035 SCT045 M00/M07 A3006 RMK AO2', 'KALM 141115Z AUTO 00000KT 10SM FEW050 M01/M08 A3005 RMK AO2', 'KALM 141055Z AUTO 27004KT 10SM FEW050 FEW060 00/M08 A3004 RMK AO2', 'KALM 141015Z AUTO 00000KT 10SM CLR M01/M08 A3005 RMK AO2', 'KALM 140955Z AUTO 00000KT 10SM FEW027 FEW038 FEW045 00/M08 A3005 RMK AO2', 'KALM 140915Z AUTO 00000KT 10SM SCT022 BKN028 OVC042 01/M07 A3006 RMK AO2', 'KALM 140855Z AUTO 03005KT 10SM SCT024 BKN030 OVC043 M00/M08 A3006 RMK AO2', 'KALM 140815Z AUTO 00000KT 10SM SCT026 BKN034 BKN042 01/M08 A3006 RMK AO2', 'KALM 140755Z AUTO 00000KT 10SM FEW024 BKN028 OVC040 02/M08 A3006 RMK AO2', 'KALM 140715Z AUTO 28004KT 10SM FEW029 SCT033 BKN047 03/M08 A3006 RMK AO2', 'KALM 140655Z AUTO 27007KT 10SM SCT028 BKN033 BKN040 03/M08 A3005 RMK AO2', 'KALM 140615Z AUTO 00000KT 10SM FEW030 SCT039 04/M09 A3005 RMK AO2', 'KALM 140555Z AUTO 08003KT 10SM FEW028 SCT034 BKN040 04/M09 A3005 RMK AO2', 'KALM 140515Z AUTO 10005KT 10SM FEW026 BKN034 BKN039 05/M09 A3005 RMK AO2', 'KALM 140455Z AUTO 10005KT 10SM FEW030 BKN036 BKN041 06/M09 A3005 RMK AO2', 'KALM 140415Z AUTO 08004KT 10SM SCT035 BKN042 04/M08 A3005 RMK AO2', 'KALM 140355Z AUTO 00000KT 10SM BKN040 BKN048 05/M08 A3005 RMK AO2', 'KALM 140315Z AUTO 00000KT 10SM FEW034 BKN043 06/M08 A3004 RMK AO2', 'KALM 140255Z AUTO 10003KT 10SM FEW035 SCT045 06/M08 A3004 RMK AO2', 'KALM 140215Z AUTO 07005KT 10SM FEW040 FEW047 07/M07 A3002 RMK AO2', 'KALM 140155Z AUTO 06006KT 10SM FEW041 FEW047 07/M07 A3002 RMK AO2', 'KALM 140115Z AUTO 00000KT 10SM CLR 12/M08 A3001 RMK AO2', 'KALM 140055Z AUTO 00000KT 10SM CLR 13/M08 A3001 RMK AO2', 'KALM 140015Z AUTO 22006KT 10SM CLR 15/M09 A3000 RMK AO2', 'KALM 132355Z AUTO 20004KT 10SM CLR 15/M08 A3000 RMK AO2', 'KALM 132315Z AUTO 22008KT 10SM CLR 16/M09 A3001 RMK AO2', 'KALM 132255Z AUTO 21007KT 10SM CLR 16/M09 A3001 RMK AO2', 'KALM 132215Z AUTO 20008KT 10SM CLR 15/M09 A3002 RMK AO2', 'KALM 132155Z AUTO 20007KT 10SM CLR 15/M09 A3002 RMK AO2', 'KALM 132115Z AUTO VRB05G11KT 10SM CLR 15/M08 A3003 RMK AO2', 'KALM 132055Z AUTO 20007G13KT 10SM CLR 14/M09 A3004 RMK AO2', 'KALM 132015Z AUTO 24007KT 210V280 10SM CLR 14/M08 A3006 RMK AO2', 'KALM 131955Z AUTO VRB06KT 10SM CLR 14/M08 A3007 RMK AO2', 'KALM 131915Z AUTO 00000KT 10SM CLR 12/M05 A3009 RMK AO2', 'KALM 131855Z AUTO 00000KT 10SM CLR 11/M04 A3011 RMK AO2', 'KALM 131815Z AUTO 00000KT 10SM CLR 10/M04 A3013 RMK AO2', 'KALM 131755Z AUTO 28004KT 10SM CLR 10/M04 A3014 RMK AO2', 'KALM 131715Z AUTO 00000KT 10SM CLR 09/M05 A3015 RMK AO2', 'KALM 131655Z AUTO 00000KT 10SM CLR 08/M04 A3014 RMK AO2', 'KALM 131615Z AUTO 00000KT 10SM CLR 05/M03 A3015 RMK AO2', 'KALM 131555Z AUTO 00000KT 10SM CLR 04/M03 A3015 RMK AO2', 'KALM 131515Z AUTO 00000KT 10SM CLR 00/M03 A3015 RMK AO2', 'KALM 131455Z AUTO 10SM CLR M01/M03 A3014 RMK AO2', 'KALM 131415Z AUTO 10SM CLR M04/M06 A3013 RMK AO2', 'KALM 131355Z AUTO 10SM CLR M04/M06 A3012 RMK AO2', 'KALM 131315Z AUTO 07004KT 10SM FEW035 FEW043 M04/M06 A3010 RMK AO2', 'KALM 131255Z AUTO 00000KT 10SM CLR M03/M05 A3010 RMK AO2', 'KALM 131215Z AUTO 12004KT 10SM CLR M03/M05 A3011 RMK AO2', 'KALM 131155Z AUTO 15004KT 10SM CLR M04/M06 A3011 RMK AO2', 'KALM 131115Z AUTO 00000KT 10SM FEW028 FEW033 SCT065 M02/M05 A3011 RMK AO2', 'KALM 131055Z AUTO 04004KT 10SM FEW035 FEW046 FEW110 M02/M05 A3010 RMK AO2', 'KALM 131015Z AUTO 04003KT 10SM FEW041 FEW070 M02/M05 A3011 RMK AO2', 'KALM 130955Z AUTO 07004KT 10SM FEW037 FEW044 M02/M05 A3012 RMK AO2', 'KALM 130915Z AUTO 11004KT 10SM FEW037 FEW047 SCT075 M02/M05 A3012 RMK AO2', 'KALM 130855Z AUTO 12004KT 10SM SCT037 SCT046 SCT075 M02/M05 A3013 RMK AO2', 'KALM 130815Z AUTO 19008KT 10SM CLR M01/M05 A3013 RMK AO2', 'KALM 130755Z AUTO 21004KT 10SM FEW043 M00/M06 A3012 RMK AO2', 'KALM 130715Z AUTO 07005KT 10SM FEW035 FEW043 00/M06 A3012 RMK AO2', 'KALM 130655Z AUTO 10003KT 10SM FEW044 01/M06 A3012 RMK AO2', 'KALM 130615Z AUTO 02005KT 10SM FEW035 FEW044 03/M03 A3013 RMK AO2', 'KALM 130555Z AUTO 02004KT 10SM FEW032 SCT039 SCT050 02/M04 A3012 RMK AO2', 'KALM 130515Z AUTO 03007KT 10SM FEW035 FEW045 03/M04 A3013 RMK AO2', 'KALM 130455Z AUTO 03009KT 10SM FEW042 FEW080 02/M04 A3013 RMK AO2', 'KALM 130415Z AUTO 04007KT 10SM FEW045 01/M04 A3013 RMK AO2', 'KALM 130355Z AUTO 03006KT 10SM FEW029 FEW041 FEW047 02/M03 A3013 RMK AO2', 'KALM 130315Z AUTO 34005KT 10SM CLR 05/M03 A3012 RMK AO2', 'KALM 130255Z AUTO 33004KT 10SM CLR 05/M02 A3012 RMK AO2', 'KALM 130215Z AUTO 01004KT 10SM FEW036 FEW043 06/M03 A3011 RMK AO2', 'KALM 130155Z AUTO 33004KT 10SM CLR 06/M03 A3011 RMK AO2', 'KALM 130115Z AUTO 35003KT 10SM CLR 08/M05 A3010 RMK AO2', 'KALM 130055Z AUTO 36003KT 10SM CLR 09/M06 A3010 RMK AO2', 'KALM 130015Z AUTO 29006KT 10SM CLR 10/M06 A3009 RMK AO2', 'KALM 122355Z AUTO 29008KT 10SM CLR 11/M06 A3009 RMK AO2', 'KALM 122315Z AUTO 34006KT 10SM CLR 11/M07 A3009 RMK AO2', 'KALM 122255Z AUTO 31008KT 10SM CLR 11/M07 A3009 RMK AO2', 'KALM 122215Z AUTO 32009KT 10SM CLR 11/M06 A3010 RMK AO2', 'KALM 122155Z AUTO 31010KT 10SM CLR 11/M06 A3010 RMK AO2', 'KALM 122115Z AUTO 31011KT 10SM CLR 11/M06 A3011 RMK AO2', 'KALM 122055Z AUTO 32010KT 10SM CLR 11/M06 A3012 RMK AO2', 'KALM 122015Z AUTO 00000KT 10SM CLR 10/M06 A3013 RMK AO2', 'KALM 121955Z AUTO 31006KT 10SM CLR 09/M04 A3014 RMK AO2', 'KALM 121915Z AUTO 01005KT 10SM CLR 08/M03 A3017 RMK AO2', 'KALM 121855Z AUTO VRB04KT 10SM CLR 08/M03 A3019 RMK AO2', 'KALM 121815Z AUTO 00000KT 10SM CLR 06/M03 A3021 RMK AO2', 'KALM 121755Z AUTO 00000KT 10SM CLR 06/M03 A3022 RMK AO2', 'KALM 121715Z AUTO 00000KT 10SM CLR 05/M04 A3023 RMK AO2', 'KALM 121655Z AUTO 00000KT 10SM CLR 04/M04 A3022 RMK AO2', 'KALM 121615Z AUTO 00000KT 10SM CLR 03/M04 A3022 RMK AO2', 'KALM 121555Z AUTO 00000KT 10SM CLR 02/M03 A3022 RMK AO2', 'KALM 121515Z AUTO 00000KT 10SM CLR 01/M04 A3021 RMK AO2', 'KALM 121455Z AUTO 00000KT 10SM CLR M01/M03 A3021 RMK AO2', 'KALM 121415Z AUTO 00000KT 10SM CLR M05/M06 A3019 RMK AO2', 'KALM 121355Z AUTO 00000KT 10SM CLR M04/M06 A3018 RMK AO2', 'KALM 121315Z AUTO 08004KT 10SM SCT044 M04/M06 A3017 RMK AO2', 'KALM 121255Z AUTO 05003KT 10SM FEW032 FEW042 SCT048 M04/M06 A3017 RMK AO2', 'KALM 121215Z AUTO 06004KT 10SM FEW034 SCT039 BKN045 M04/M05 A3017 RMK AO2', 'KALM 121155Z AUTO 07003KT 10SM FEW031 SCT038 SCT047 M04/M06 A3018 RMK AO2', 'KALM 121115Z AUTO 00000KT 10SM FEW031 SCT039 BKN047 M04/M05 A3018 RMK AO2', 'KALM 121055Z AUTO 07004KT 10SM FEW031 SCT038 BKN047 M04/M05 A3017 RMK AO2', 'KALM 121015Z AUTO 09004KT 10SM SCT036 SCT043 BKN050 M03/M05 A3018 RMK AO2']","['2024-02-15 09:55:00', '2024-02-15 09:15:00', '2024-02-15 08:55:00', '2024-02-15 08:15:00', '2024-02-15 07:55:00', '2024-02-15 07:15:00', '2024-02-15 06:55:00', '2024-02-15 06:15:00', '2024-02-15 05:55:00', '2024-02-15 05:15:00', '2024-02-15 04:55:00', '2024-02-15 04:15:00', '2024-02-15 03:55:00', '2024-02-15 03:15:00', '2024-02-15 02:55:00', '2024-02-15 02:15:00', '2024-02-15 01:55:00', '2024-02-15 01:15:00', '2024-02-15 00:55:00', '2024-02-15 00:15:00', '2024-02-14 23:55:00', '2024-02-14 23:15:00', '2024-02-14 22:55:00', '2024-02-14 22:15:00', '2024-02-14 21:55:00', '2024-02-14 21:15:00', '2024-02-14 20:55:00', '2024-02-14 20:15:00', '2024-02-14 19:55:00', '2024-02-14 19:15:00', '2024-02-14 18:55:00', '2024-02-14 18:15:00', '2024-02-14 17:55:00', '2024-02-14 17:15:00', '2024-02-14 16:55:00', '2024-02-14 16:15:00', '2024-02-14 15:55:00', '2024-02-14 15:15:00', '2024-02-14 14:55:00', '2024-02-14 14:15:00', '2024-02-14 13:55:00', '2024-02-14 13:15:00', '2024-02-14 12:55:00', '2024-02-14 12:15:00', '2024-02-14 11:55:00', '2024-02-14 11:15:00', '2024-02-14 10:55:00', '2024-02-14 10:15:00', '2024-02-14 09:55:00', '2024-02-14 09:15:00', '2024-02-14 08:55:00', '2024-02-14 08:15:00', '2024-02-14 07:55:00', '2024-02-14 07:15:00', '2024-02-14 06:55:00', '2024-02-14 06:15:00', '2024-02-14 05:55:00', '2024-02-14 05:15:00', '2024-02-14 04:55:00', '2024-02-14 04:15:00', '2024-02-14 03:55:00', '2024-02-14 03:15:00', '2024-02-14 02:55:00', '2024-02-14 02:15:00', '2024-02-14 01:55:00', '2024-02-14 01:15:00', '2024-02-14 00:55:00', '2024-02-14 00:15:00', '2024-02-13 23:55:00', '2024-02-13 23:15:00', '2024-02-13 22:55:00', '2024-02-13 22:15:00', '2024-02-13 21:55:00', '2024-02-13 21:15:00', '2024-02-13 20:55:00', '2024-02-13 20:15:00', '2024-02-13 19:55:00', '2024-02-13 19:15:00', '2024-02-13 18:55:00', '2024-02-13 18:15:00', '2024-02-13 17:55:00', '2024-02-13 17:15:00', '2024-02-13 16:55:00', '2024-02-13 16:15:00', '2024-02-13 15:55:00', '2024-02-13 15:15:00', '2024-02-13 14:55:00', '2024-02-13 14:15:00', '2024-02-13 13:55:00', '2024-02-13 13:15:00', '2024-02-13 12:55:00', '2024-02-13 12:15:00', '2024-02-13 11:55:00', '2024-02-13 11:15:00', '2024-02-13 10:55:00', '2024-02-13 10:15:00', '2024-02-13 09:55:00', '2024-02-13 09:15:00', '2024-02-13 08:55:00', '2024-02-13 08:15:00', '2024-02-13 07:55:00', '2024-02-13 07:15:00', '2024-02-13 06:55:00', '2024-02-13 06:15:00', '2024-02-13 05:55:00', '2024-02-13 05:15:00', '2024-02-13 04:55:00', '2024-02-13 04:15:00', '2024-02-13 03:55:00', '2024-02-13 03:15:00', '2024-02-13 02:55:00', '2024-02-13 02:15:00', '2024-02-13 01:55:00', '2024-02-13 01:15:00', '2024-02-13 00:55:00', '2024-02-13 00:15:00', '2024-02-12 23:55:00', '2024-02-12 23:15:00', '2024-02-12 22:55:00', '2024-02-12 22:15:00', '2024-02-12 21:55:00', '2024-02-12 21:15:00', '2024-02-12 20:55:00', '2024-02-12 20:15:00', '2024-02-12 19:55:00', '2024-02-12 19:15:00', '2024-02-12 18:55:00', '2024-02-12 18:15:00', '2024-02-12 17:55:00', '2024-02-12 17:15:00', '2024-02-12 16:55:00', '2024-02-12 16:15:00', '2024-02-12 15:55:00', '2024-02-12 15:15:00', '2024-02-12 14:55:00', '2024-02-12 14:15:00', '2024-02-12 13:55:00', '2024-02-12 13:15:00', '2024-02-12 12:55:00', '2024-02-12 12:15:00', '2024-02-12 11:55:00', '2024-02-12 11:15:00', '2024-02-12 10:55:00', '2024-02-12 10:15:00']"
United-states, Alamosa San Luis Valley Regional Airport (ALS/KALS) ,"['KALS 150952Z AUTO 00000KT 10SM CLR M06/M09 A3017 RMK AO2 SLP214 I1000 T10611089', 'KALS 150852Z AUTO 13004KT 10SM CLR M09/M11 A3017 RMK AO2 SLP222 T10891106 53008', 'KALS 150752Z AUTO 12003KT 10SM CLR M08/M10 A3016 RMK AO2 SLP219 T10831100', 'KALS 150652Z AUTO 00000KT 10SM CLR M08/M10 A3014 RMK AO2 SLP213 T10781100 400941111', 'KALS 150552Z AUTO 00000KT 10SM CLR M07/M09 A3014 RMK AO2 SLP218 T10671094 10061 21067 50006', 'KALS 150452Z AUTO 19004KT 10SM CLR M03/M08 A3014 RMK AO2 SLP216 T10331083', 'KALS 150352Z AUTO 18006KT 10SM CLR M03/M08 A3014 RMK AO2 SLP227 T10331078', 'KALS 150252Z AUTO 19005KT 10SM CLR M03/M08 A3012 RMK AO2 SLP230 T10281078 51021', 'KALS 150152Z AUTO 00000KT 10SM CLR 02/M08 A3010 RMK AO2 SLP222 T00171083', 'KALS 150052Z AUTO 34004KT 10SM CLR 03/M07 A3007 RMK AO2 SLP204 T00281072', 'KALS 142352Z AUTO 27012KT 10SM CLR 06/M08 A3004 RMK AO2 WSHFT 2327 SLP181 T00611078 10094 20028 51014', 'KALS 142252Z AUTO 28017G25KT 10SM BKN075 08/M11 A3001 RMK AO2 PK WND 25028/2219 SLP161 T00831106', 'KALS 142152Z AUTO 29017G26KT 10SM BKN085 08/M10 A2998 RMK AO2 PK WND 25026/2146 SLP153 T00831100', 'KALS 142052Z AUTO 30013G20KT 10SM OVC085 08/M11 A2997 RMK AO2 SLP148 T00781106 56011', 'KALS 141952Z AUTO 24013G17KT 10SM CLR 07/M10 A2997 RMK AO2 SLP148 T00721100', 'KALS 141852Z AUTO VRB06KT 10SM CLR 06/M09 A3000 RMK AO2 SLP153 T00611094', 'KALS 141752Z AUTO 00000KT 10SM CLR 03/M08 A3001 RMK AO2 SLP172 T00331083 10033 21111 53003', 'KALS 141652Z AUTO VRB03KT 10SM CLR 01/M08 A3001 RMK AO2 SLP169 T00061078', 'KALS 141552Z AUTO 19004KT 10SM CLR M03/M08 A3000 RMK AO2 SLP171 T10331078', 'KALS 141452Z AUTO 20003KT 10SM CLR M07/M09 A3000 RMK AO2 SLP182 T10721094 53005', 'KALS 141352Z AUTO 00000KT 10SM CLR M11/M13 A3000 RMK AO2 SLP195 T11111128', 'KALS 141252Z AUTO 26003KT 10SM FEW080 M10/M12 A2998 RMK AO2 SLP176 T11001122', 'KALS 141152Z AUTO 26006KT 10SM FEW075 M10/M12 A2998 RMK AO2 SLP162 T11001117 11044 21100 56004', 'KALS 141052Z AUTO 00000KT 10SM CLR M08/M11 A2999 RMK AO2 SLP160 T10831111', 'KALS 140952Z AUTO 18004KT 10SM CLR M08/M11 A3000 RMK AO2 SLP160 T10831111', 'KALS 140852Z AUTO 08005KT 10SM CLR M08/M11 A3000 RMK AO2 SLP168 T10831106 58003', 'KALS 140752Z AUTO 11004KT 10SM CLR M08/M10 A3001 RMK AO2 SLP174 T10781100', 'KALS 140652Z AUTO 00000KT 10SM CLR M05/M09 A3001 RMK AO2 SLP171 T10501094 400671133', 'KALS 140552Z AUTO 13004KT 10SM CLR M07/M10 A3001 RMK AO2 SLP186 T10671100 10061 21067 50004', 'KALS 140452Z AUTO 21003KT 10SM CLR M03/M09 A3002 RMK AO2 SLP184 T10331089', 'KALS 140352Z AUTO 21008KT 10SM CLR M02/M08 A3001 RMK AO2 SLP187 T10171083', 'KALS 140252Z AUTO 24009KT 10SM CLR M01/M08 A3000 RMK AO2 SLP188 T10111083 53006', 'KALS 140152Z AUTO 20006KT 10SM CLR M02/M08 A2999 RMK AO2 SLP200 T10171078', 'KALS 140052Z AUTO 21010KT 10SM CLR 02/M07 A2998 RMK AO2 SLP178 T00221072', 'KALS 132352Z AUTO 20008KT 10SM CLR 06/M09 A2997 RMK AO2 SLP163 T00611094 10067 21011 56011', 'KALS 132252Z AUTO 14008KT 10SM CLR 06/M06 A2998 RMK AO2 SLP169 T00611056', 'KALS 132152Z AUTO 14010G15KT 120V180 10SM CLR 07/M06 A2999 RMK AO2 SLP169 T00671061', 'KALS 132052Z AUTO 14007KT 10SM CLR 05/M07 A3002 RMK AO2 SLP178 T00501067 58029', 'KALS 131952Z AUTO 13004KT 10SM CLR 03/M07 A3005 RMK AO2 SLP198 T00281067', 'KALS 131852Z AUTO 00000KT 10SM CLR 02/M06 A3010 RMK AO2 SLP217 T00171061', 'KALS 131752Z AUTO 00000KT 10SM CLR M01/M06 A3012 RMK AO2 SLP230 I6001 T10111061 11011 21133 50000', 'KALS 131652Z AUTO VRB03KT 10SM CLR M04/M07 A3014 RMK AO2 SLP241 T10391072', 'KALS 131552Z AUTO 00000KT 10SM CLR M07/M09 A3013 RMK AO2 SLP244 T10671089', 'KALS 131452Z AUTO 00000KT 10SM CLR M09/M12 A3012 RMK AO2 SLP240 I3001 T10891117 53007', 'KALS 131352Z AUTO 00000KT 10SM CLR M13/M15 A3011 RMK AO2 SLP247 T11331150', 'KALS 131252Z AUTO 00000KT 10SM CLR M11/M13 A3010 RMK AO2 SLP232 I1001 T11111133', 'KALS 131152Z AUTO 00000KT 10SM CLR M11/M13 A3010 RMK AO2 SLP216 T11111133 11083 21122 51002', 'KALS 131052Z AUTO 00000KT 10SM CLR M12/M14 A3009 RMK AO2 SLP215 T11171139', 'KALS 130952Z AUTO 09003KT 10SM CLR M12/M13 A3009 RMK AO2 SLP220 T11171133', 'KALS 130852Z AUTO 25003KT 10SM CLR M10/M12 A3009 RMK AO2 SLP214 T11001122 53004', 'KALS 130752Z AUTO 00000KT 10SM CLR M09/M12 A3008 RMK AO2 SLP214 T10941117', 'KALS 130652Z AUTO 20003KT 10SM CLR M09/M11 A3008 RMK AO2 SLP217 T10941111 400391156', 'KALS 130552Z AUTO 22003KT 10SM CLR M08/M11 A3008 RMK AO2 SLP220 T10831106 10033 21089 51004', 'KALS 130452Z AUTO 26003KT 10SM CLR M08/M09 A3007 RMK AO2 SLP226 T10781089', 'KALS 130352Z AUTO 30003KT 10SM CLR M06/M08 A3007 RMK AO2 SLP229 T10561083', 'KALS 130252Z AUTO 30005KT 10SM CLR M04/M08 A3006 RMK AO2 SLP229 T10391083 53008', 'KALS 130152Z AUTO 30005KT 10SM CLR M02/M08 A3005 RMK AO2 SLP232 T10221078', 'KALS 130052Z AUTO 29005KT 10SM CLR M01/M07 A3004 RMK AO2 SLP217 T10111072', 'KALS 122352Z AUTO 00000KT 10SM CLR 03/M09 A3003 RMK AO2 SLP203 T00331094 10039 21028 56006', 'KALS 122252Z AUTO VRB04KT 10SM CLR 03/M09 A3003 RMK AO2 SLP198 T00331089', 'KALS 122152Z AUTO 19005KT 10SM CLR 03/M09 A3004 RMK AO2 SLP200 T00281094', 'KALS 122052Z AUTO VRB03KT 10SM CLR 02/M09 A3005 RMK AO2 SLP211 T00171094 58023', 'KALS 121952Z AUTO 20005KT 10SM CLR 01/M10 A3008 RMK AO2 SLP217 T00061100', 'KALS 121852Z AUTO 16003KT 10SM CLR M01/M11 A3011 RMK AO2 SLP233 T10061106', 'KALS 121752Z AUTO 00000KT 10SM CLR M03/M10 A3014 RMK AO2 SLP248 T10331100 11033 21156 50003', 'KALS 121652Z AUTO 22003KT 10SM CLR M06/M11 A3014 RMK AO2 SLP256 T10561111', 'KALS 121552Z AUTO 00000KT 10SM CLR M09/M12 A3013 RMK AO2 SLP266 T10941122 $', 'KALS 121452Z AUTO 00000KT 10SM CLR M12/M15 A3012 RMK AO2 SLP263 T11171150 53009 $', 'KALS 121352Z AUTO 00000KT 10SM CLR M16/M18 A3010 RMK AO2 SLP263 T11561178 $', 'KALS 121252Z AUTO 25003KT 10SM CLR M14/M17 A3009 RMK AO2 SLP243 T11391167 $', 'KALS 121152Z AUTO 20004KT 10SM CLR M14/M17 A3009 RMK AO2 SLP235 T11441167 11094 21144 53002 $', 'KALS 121052Z AUTO 23003KT 10SM CLR M12/M15 A3009 RMK AO2 SLP220 T11221150 $']","['2024-02-15 09:52:00', '2024-02-15 08:52:00', '2024-02-15 07:52:00', '2024-02-15 06:52:00', '2024-02-15 05:52:00', '2024-02-15 04:52:00', '2024-02-15 03:52:00', '2024-02-15 02:52:00', '2024-02-15 01:52:00', '2024-02-15 00:52:00', '2024-02-14 23:52:00', '2024-02-14 22:52:00', '2024-02-14 21:52:00', '2024-02-14 20:52:00', '2024-02-14 19:52:00', '2024-02-14 18:52:00', '2024-02-14 17:52:00', '2024-02-14 16:52:00', '2024-02-14 15:52:00', '2024-02-14 14:52:00', '2024-02-14 13:52:00', '2024-02-14 12:52:00', '2024-02-14 11:52:00', '2024-02-14 10:52:00', '2024-02-14 09:52:00', '2024-02-14 08:52:00', '2024-02-14 07:52:00', '2024-02-14 06:52:00', '2024-02-14 05:52:00', '2024-02-14 04:52:00', '2024-02-14 03:52:00', '2024-02-14 02:52:00', '2024-02-14 01:52:00', '2024-02-14 00:52:00', '2024-02-13 23:52:00', '2024-02-13 22:52:00', '2024-02-13 21:52:00', '2024-02-13 20:52:00', '2024-02-13 19:52:00', '2024-02-13 18:52:00', '2024-02-13 17:52:00', '2024-02-13 16:52:00', '2024-02-13 15:52:00', '2024-02-13 14:52:00', '2024-02-13 13:52:00', '2024-02-13 12:52:00', '2024-02-13 11:52:00', '2024-02-13 10:52:00', '2024-02-13 09:52:00', '2024-02-13 08:52:00', '2024-02-13 07:52:00', '2024-02-13 06:52:00', '2024-02-13 05:52:00', '2024-02-13 04:52:00', '2024-02-13 03:52:00', '2024-02-13 02:52:00', '2024-02-13 01:52:00', '2024-02-13 00:52:00', '2024-02-12 23:52:00', '2024-02-12 22:52:00', '2024-02-12 21:52:00', '2024-02-12 20:52:00', '2024-02-12 19:52:00', '2024-02-12 18:52:00', '2024-02-12 17:52:00', '2024-02-12 16:52:00', '2024-02-12 15:52:00', '2024-02-12 14:52:00', '2024-02-12 13:52:00', '2024-02-12 12:52:00', '2024-02-12 11:52:00', '2024-02-12 10:52:00']"
United-states, Albany Southwest Georgia Regional Airport (ABY/KABY) ,"['KABY 150953Z AUTO 00000KT 10SM CLR 05/03 A3023 RMK AO2 SLP236 T00500033', 'KABY 150853Z AUTO 00000KT 10SM CLR 06/04 A3023 RMK AO2 SLP237 T00560039 58001', 'KABY 150753Z AUTO 00000KT 10SM CLR 06/04 A3024 RMK AO2 SLP239 T00610039', 'KABY 150653Z AUTO 00000KT 10SM CLR 07/04 A3024 RMK AO2 SLP241 T00670044', 'KABY 150553Z AUTO 00000KT 10SM CLR 06/04 A3024 RMK AO2 SLP238 T00610039 10122 20056 58004', 'KABY 150453Z AUTO 00000KT 10SM CLR 06/04 A3025 RMK AO2 SLP244 T00610039 401890000', 'KABY 150353Z AUTO 00000KT 10SM CLR 06/03 A3026 RMK AO2 SLP247 T00610033', 'KABY 150253Z AUTO 00000KT 10SM CLR 07/04 A3025 RMK AO2 SLP244 T00720039 51009', 'KABY 150153Z AUTO 00000KT 10SM CLR 08/04 A3025 RMK AO2 SLP243 T00830044', 'KABY 150053Z AUTO 00000KT 10SM CLR 10/04 A3026 RMK AO2 SLP247 T01000039', 'KABY 142353Z 00000KT 10SM CLR 12/04 A3022 RMK AO2 SLP234 T01220039 10189 20122 53006', 'KABY 142253Z 03004KT 10SM CLR 17/02 A3020 RMK AO2 SLP226 T01720017', 'KABY 142153Z 10008KT 10SM CLR 18/01 A3018 RMK AO2 SLP219 T01830011', 'KABY 142053Z 01003KT 10SM CLR 19/02 A3020 RMK AO2 SLP227 T01890017 56023', 'KABY 141953Z VRB04KT 10SM CLR 18/02 A3022 RMK AO2 SLP234 T01780017', 'KABY 141853Z 00000KT 10SM CLR 17/02 A3024 RMK AO2 SLP239 T01720017', 'KABY 141753Z 05006KT 10SM CLR 16/00 A3027 RMK AO2 SLP251 T01610000 10161 20000 58010', 'KABY 141653Z 02006KT 10SM CLR 14/01 A3028 RMK AO2 SLP256 T01440006', 'KABY 141553Z 04007KT 10SM CLR 12/01 A3030 RMK AO2 SLP261 T01220011', 'KABY 141453Z 03007KT 10SM CLR 10/01 A3030 RMK AO2 SLP261 T01000006 51016', 'KABY 141353Z 35003KT 10SM CLR 06/02 A3029 RMK AO2 SLP259 T00610022', 'KABY 141253Z 00000KT 10SM CLR 01/00 A3028 RMK AO2 SLP255 T00110000', 'KABY 141153Z AUTO 21005KT 10SM CLR 00/M01 A3025 RMK AO2 SLP245 T00001011 10039 20000 53022', 'KABY 141053Z AUTO 00000KT 10SM CLR 01/M01 A3022 RMK AO2 SLP235 T00061006', 'KABY 140953Z AUTO 00000KT 10SM CLR 01/M01 A3020 RMK AO2 SLP227 T00111006', 'KABY 140853Z AUTO 00000KT 10SM CLR 02/00 A3019 RMK AO2 SLP223 T00170000 55001', 'KABY 140753Z AUTO 00000KT 10SM CLR 02/01 A3018 RMK AO2 SLP219 T00220006', 'KABY 140653Z AUTO 00000KT 10SM CLR 03/02 A3019 RMK AO2 SLP224 T00330017', 'KABY 140553Z AUTO 32003KT 10SM CLR 03/01 A3019 RMK AO2 SLP225 T00330011 10106 20033 51015', 'KABY 140453Z AUTO 30003KT 10SM CLR 05/02 A3018 RMK AO2 SLP222 T00500017 401670050', 'KABY 140353Z AUTO 00000KT 10SM CLR 06/02 A3016 RMK AO2 SLP215 T00610017', 'KABY 140253Z AUTO 30003KT 10SM CLR 08/02 A3015 RMK AO2 SLP209 T00780022 51017', 'KABY 140153Z AUTO 30005KT 10SM CLR 08/03 A3014 RMK AO2 SLP208 T00780028', 'KABY 140053Z AUTO 30004KT 10SM CLR 08/03 A3012 RMK AO2 SLP201 T00830033', 'KABY 132353Z 30003KT 10SM CLR 10/04 A3010 RMK AO2 SLP192 T01000039 10167 20100 53017', 'KABY 132253Z 31005KT 10SM CLR 15/01 A3007 RMK AO2 SLP183 T01500006', 'KABY 132153Z 30008KT 10SM CLR 16/01 A3006 RMK AO2 SLP178 T01610006', 'KABY 132053Z 29007KT 10SM CLR 16/01 A3005 RMK AO2 SLP174 T01610006 55013', 'KABY 131953Z 29010KT 10SM CLR 16/02 A3005 RMK AO2 SLP174 T01560022', 'KABY 131853Z 30010KT 10SM CLR 15/02 A3006 RMK AO2 SLP179 T01500017', 'KABY 131753Z 30009G17KT 10SM CLR 14/02 A3009 RMK AO2 SLP187 T01390022 10139 20072 58001', 'KABY 131653Z 32011KT 10SM CLR 13/03 A3010 RMK AO2 SLP193 T01280028', 'KABY 131553Z 31009G16KT 10SM FEW030 11/03 A3009 RMK AO2 SLP190 T01110028', 'KABY 131453Z 30014G19KT 10SM BKN028 09/03 A3009 RMK AO2 SLP188 T00940028 53031', 'KABY 131353Z 30011G17KT 10SM BKN030 08/02 A3005 RMK AO2 SLP176 T00830022', 'KABY 131253Z 29008KT 10SM SCT032 08/02 A3002 RMK AO2 SLP167 T00780022', 'KABY 131153Z AUTO 30010G20KT 10SM CLR 08/02 A3000 RMK AO2 SLP157 70264 T00780017 10122 20078 53033', 'KABY 131053Z AUTO 32010G24KT 10SM SCT033 09/03 A2996 RMK AO2 PK WND 30026/0954 SLP143 T00890028 $', 'KABY 130953Z AUTO 30012G25KT 10SM BKN035 10/03 A2992 RMK AO2 SLP131 T01000033 $', 'KABY 130853Z AUTO 29010KT 10SM BKN036 10/04 A2990 RMK AO2 SLP123 T01000039 51023 $', 'KABY 130753Z AUTO 29010G21KT 10SM OVC032 10/04 A2988 RMK AO2 PK WND 30026/0730 SLP118 T01000044 $', 'KABY 130653Z AUTO 29011KT 10SM CLR 11/05 A2986 RMK AO2 PK WND 29026/0611 SLP111 T01110050 $', 'KABY 130553Z AUTO 29019G26KT 10SM OVC043 12/07 A2983 RMK AO2 PK WND 29026/0552 SLP101 60000 T01220072 10189 20122 51028 $', 'KABY 130453Z AUTO 29008KT 10SM FEW030 13/08 A2980 RMK AO2 SLP092 T01280083 401940128 $', 'KABY 130353Z AUTO 29006KT 10SM CLR 14/09 A2979 RMK AO2 PK WND 29029/0258 SLP086 T01390094 $', 'KABY 130253Z AUTO 28015G30KT 10SM CLR 17/12 A2975 RMK AO2 PK WND 26030/0248 PRESRR SLP072 60000 T01670122 53023 $', 'KABY 130153Z AUTO 27015G26KT 10SM SCT013 SCT025 SCT039 18/16 A2970 RMK AO2 PK WND 26026/0148 RAB32E45 SLP056 P0000 T01830161 $', 'KABY 130117Z AUTO 23008KT 10SM FEW005 BKN011 OVC050 19/18 A2968 RMK AO2 T01890178 $', 'KABY 130053Z AUTO 27008KT 10SM SCT006 BKN030 BKN042 18/17 A2968 RMK AO2 SLP048 T01830172 $', 'KABY 122353Z 21004KT 10SM OVC004 17/17 A2967 RMK AO2 SLP046 P0001 60013 T01720167 10172 20144 58003 $', 'KABY 122309Z 20003KT 10SM OVC004 17/16 A2967 RMK AO2 P0001 T01670156 $', 'KABY 122253Z 00000KT 10SM OVC005 17/16 A2967 RMK AO2 RAB01E11 SLP045 P0000 T01670161 $', 'KABY 122153Z 15004KT 10SM OVC009 17/16 A2968 RMK AO2 RAB18E37 SLP050 P0000 T01670156 $', 'KABY 122100Z 11007KT 10SM OVC013 17/15 A2968 RMK AO2 T01670150 $', 'KABY 122053Z 11008KT 10SM BKN009 OVC020 17/15 A2969 RMK AO2 SLP052 60012 T01670150 56027 $', 'KABY 121953Z 09006KT 10SM BKN009 OVC022 17/15 A2971 RMK AO2 SLP059 T01670150', 'KABY 121917Z 09007KT 10SM FEW007 BKN024 OVC032 16/15 A2972 RMK AO2 T01610150', 'KABY 121853Z 10012KT 10SM BKN028 BKN036 OVC095 16/14 A2973 RMK AO2 WSHFT 1812 RAE44 SLP066 P0012 T01560144', 'KABY 121826Z 09016KT 3SM RA BR FEW008 BKN023 OVC060 15/14 A2975 RMK AO2 WSHFT 1812 PRESFR P0012 T01500139', 'KABY 121753Z 07010KT 3SM +RA BR FEW010 BKN031 OVC045 14/14 A2977 RMK AO2 PK WND 07028/1657 PRESFR SLP080 P0033 60251 T01440139 10189 20144 58028', 'KABY 121721Z 07014G23KT 3SM RA BR FEW010 BKN031 OVC045 15/14 A2981 RMK AO2 PK WND 07028/1657 P0009 T01500139', 'KABY 121653Z 06017G26KT 4SM RA BR BKN033 BKN041 OVC050 15/13 A2982 RMK AO2 PK WND 07034/1628 WSHFT 1547 LTG DSNT SE TSE10B12E19 SLP097 P0072 T01500133', 'KABY 121625Z 05021G29KT 2SM +RA BR FEW009 BKN023 OVC045 15/14 A2985 RMK AO2 PK WND 05030/1612 WSHFT 1547 LTG DSNT SE TSE10B12E19 P0059 T01500139', 'KABY 121553Z 02011G28KT 1SM +TSRA BR BKN014 BKN023 OVC030 15/14 A2987 RMK AO2 PK WND 03047/1537 LTG DSNT SE-W SLP114 P0088 T01500139', 'KABY 121453Z 02012G23KT 2SM +TSRA BR FEW007 BKN014 OVC018 15/14 A2985 RMK AO2 PK WND 07030/1433 LTG DSNT ALQDS TSB33E48B50 PRESRR SLP109 P0035 60058 T01500139 53028', 'KABY 121353Z 08003KT 7SM VCTS -RA FEW007 BKN012 OVC020 19/18 A2978 RMK AO2 LTG DSNT W-NE TSE25 SLP083 P0007 T01890183', 'KABY 121325Z 09007KT 4SM VCTS RA BR SCT005 BKN009 OVC015 19/18 A2975 RMK AO2 LTG DSNT ALQDS TSE25 P0006 T01890183', 'KABY 121253Z 06006KT 3SM TSRA BR OVC013 19/18 A2976 RMK AO2 LTG DSNT ALQDS TSB40 SLP076 P0016 T01890183', 'KABY 121220Z AUTO 13005KT 4SM VCTS RA BR BKN013 OVC020 19/18 A2978 RMK AO2 LTG DSNT S AND SW P0004 T01890178', 'KABY 121153Z AUTO 00000KT 10SM -RA BKN014 OVC021 19/18 A2977 RMK AO2 LTG DSNT S RAB13 SLP080 P0000 60001 70016 T01890178 10194 20183 58009', 'KABY 121117Z AUTO 18003KT 9SM VCTS -RA SCT013 BKN027 BKN120 19/18 A2978 RMK AO2 LTG DSNT W RAB13 P0000 T01940183', 'KABY 121053Z AUTO 17008KT 9SM SCT012 BKN085 BKN120 19/18 A2977 RMK AO2 SLP080 T01940183']","['2024-02-15 09:53:00', '2024-02-15 08:53:00', '2024-02-15 07:53:00', '2024-02-15 06:53:00', '2024-02-15 05:53:00', '2024-02-15 04:53:00', '2024-02-15 03:53:00', '2024-02-15 02:53:00', '2024-02-15 01:53:00', '2024-02-15 00:53:00', '2024-02-14 23:53:00', '2024-02-14 22:53:00', '2024-02-14 21:53:00', '2024-02-14 20:53:00', '2024-02-14 19:53:00', '2024-02-14 18:53:00', '2024-02-14 17:53:00', '2024-02-14 16:53:00', '2024-02-14 15:53:00', '2024-02-14 14:53:00', '2024-02-14 13:53:00', '2024-02-14 12:53:00', '2024-02-14 11:53:00', '2024-02-14 10:53:00', '2024-02-14 09:53:00', '2024-02-14 08:53:00', '2024-02-14 07:53:00', '2024-02-14 06:53:00', '2024-02-14 05:53:00', '2024-02-14 04:53:00', '2024-02-14 03:53:00', '2024-02-14 02:53:00', '2024-02-14 01:53:00', '2024-02-14 00:53:00', '2024-02-13 23:53:00', '2024-02-13 22:53:00', '2024-02-13 21:53:00', '2024-02-13 20:53:00', '2024-02-13 19:53:00', '2024-02-13 18:53:00', '2024-02-13 17:53:00', '2024-02-13 16:53:00', '2024-02-13 15:53:00', '2024-02-13 14:53:00', '2024-02-13 13:53:00', '2024-02-13 12:53:00', '2024-02-13 11:53:00', '2024-02-13 10:53:00', '2024-02-13 09:53:00', '2024-02-13 08:53:00', '2024-02-13 07:53:00', '2024-02-13 06:53:00', '2024-02-13 05:53:00', '2024-02-13 04:53:00', '2024-02-13 03:53:00', '2024-02-13 02:53:00', '2024-02-13 01:53:00', '2024-02-13 01:17:00', '2024-02-13 00:53:00', '2024-02-12 23:53:00', '2024-02-12 23:09:00', '2024-02-12 22:53:00', '2024-02-12 21:53:00', '2024-02-12 21:00:00', '2024-02-12 20:53:00', '2024-02-12 19:53:00', '2024-02-12 19:17:00', '2024-02-12 18:53:00', '2024-02-12 18:26:00', '2024-02-12 17:53:00', '2024-02-12 17:21:00', '2024-02-12 16:53:00', '2024-02-12 16:25:00', '2024-02-12 15:53:00', '2024-02-12 14:53:00', '2024-02-12 13:53:00', '2024-02-12 13:25:00', '2024-02-12 12:53:00', '2024-02-12 12:20:00', '2024-02-12 11:53:00', '2024-02-12 11:17:00', '2024-02-12 10:53:00']"
United-states, Albany International Airport (ALB/KALB) ,"['KALB 150951Z 33003KT 10SM CLR M07/M14 A3018 RMK AO2 SLP224 T10671144 $', 'KALB 150851Z 33003KT 10SM CLR M07/M14 A3018 RMK AO2 SLP224 T10671139 50006 $', 'KALB 150751Z 30008KT 10SM CLR M06/M14 A3018 RMK AO2 SLP225 T10561139 $', 'KALB 150651Z 28006KT 10SM CLR M05/M13 A3017 RMK AO2 SLP222 T10501133 $', 'KALB 150551Z 30008KT 10SM CLR M04/M13 A3016 RMK AO2 SLP218 T10441133 11028 21044 53011 $', 'KALB 150451Z 29013G20KT 10SM CLR M04/M13 A3015 RMK AO2 SLP214 T10391128 400171061 $', 'KALB 150351Z 29015G21KT 10SM CLR M04/M13 A3013 RMK AO2 SLP208 T10391128 $', 'KALB 150251Z 30012G21KT 10SM CLR M03/M13 A3013 RMK AO2 SLP207 T10331128 51013 $', 'KALB 150151Z 30011KT 10SM CLR M03/M12 A3013 RMK AO2 PK WND 28027/0055 SLP206 T10331122 $', 'KALB 150051Z 29016G27KT 10SM FEW045 M03/M12 A3011 RMK AO2 PK WND 30031/0002 SLP200 T10331122 $', 'KALB 142351Z 28017G29KT 10SM FEW040 M03/M13 A3009 RMK AO2 PK WND 29030/2322 SLP194 T10331128 11011 21033 53021 $', 'KALB 142251Z 28019G25KT 10SM FEW050 M03/M13 A3007 RMK AO2 PK WND 28031/2200 SLP185 T10281133 $', 'KALB 142151Z 28022G28KT 10SM FEW050 M02/M13 A3004 RMK AO2 PK WND 28038/2052 SLP176 T10221133 $', 'KALB 142051Z 28022G35KT 10SM FEW050 M01/M14 A3003 RMK AO2 PK WND 28035/2049 SLP171 T10111139 53005 $', 'KALB 141951Z 28021G33KT 10SM FEW050 M01/M13 A3002 RMK AO2 PK WND 26034/1933 SLP168 T10111133', 'KALB 141851Z 29016G30KT 10SM FEW050 M01/M14 A3001 RMK AO2 PK WND 25033/1820 SLP165 T10111139', 'KALB 141751Z 29021G35KT 10SM FEW050 M02/M14 A3001 RMK AO2 PK WND 31035/1750 SLP166 60000 T10171144 11017 21061 58003', 'KALB 141651Z 27020G27KT 10SM FEW045 M03/M14 A3002 RMK AO2 PK WND 26028/1627 SLP170 T10281144', 'KALB 141551Z 27018G24KT 10SM FEW040 M03/M14 A3004 RMK AO2 PK WND 31026/1504 SLP174 T10331144', 'KALB 141451Z 29014G25KT 10SM FEW030 M04/M14 A3002 RMK AO2 PK WND 27033/1437 SNE09 SLP168 P0000 60000 T10391139 51023', 'KALB 141409Z 28016G25KT 10SM FEW028 M05/M13 A3001 RMK AO2 SNE09 PRESENT WX VCSH P0000 T10501128', 'KALB 141351Z 28010G22KT 10SM -SN SCT033 M05/M13 A3000 RMK AO2 PK WND 29029/1254 SNB49 SLP163 PCPN VRY LGT P0000 T10501133', 'KALB 141251Z 29018G27KT 10SM FEW033 M06/M14 A2998 RMK AO2 PK WND 29031/1223 SLP156 SHSN DSNT SW-W T10561139', 'KALB 141151Z 30018G30KT 10SM FEW030 FEW080 M06/M13 A2995 RMK AO2 PK WND 30030/1149 SLP145 SHSN DSNT SW-W 60000 T10561133 10006 21056 51034', 'KALB 141051Z 26010KT 10SM FEW080 M04/M11 A2992 RMK AO2 PK WND 29028/1002 SLP134 T10441111', 'KALB 140951Z 28021G27KT 10SM OVC080 M03/M12 A2989 RMK AO2 PK WND 29035/0903 SLP124 T10331117', 'KALB 140851Z 28016G31KT 10SM CLR M03/M09 A2985 RMK AO2 PK WND 27035/0816 SLP111 60000 T10281094 51032', 'KALB 140751Z 28021G34KT 10SM FEW029 SCT040 M02/M08 A2982 RMK AO2 PK WND 27034/0745 SNB10E19 SLP102 P0000 T10171078', 'KALB 140719Z 28018G32KT 10SM FEW031 SCT042 M01/M08 A2981 RMK AO2 PK WND 27034/0652 SNB10E19 P0000 T10111078', 'KALB 140651Z 27018G31KT 10SM BKN043 M01/M08 A2979 RMK AO2 PK WND 26040/0602 SLP091 PRESENT WX VCSH T10061083', 'KALB 140551Z 26022G39KT 10SM SCT039 SCT100 01/M07 A2975 RMK AO2 PK WND 27039/0547 SLP079 60000 T00061072 10033 20006 53006', 'KALB 140451Z 26015G27KT 10SM SCT032 BKN055 OVC100 02/M05 A2974 RMK AO2 PK WND 26027/0446 SNB0355E45 SLP072 P0000 T00171050 400561028', 'KALB 140355Z 27009KT 10SM -SN FEW028 BKN050 OVC090 01/M05 A2974 RMK AO2 SNB55 P0000 T00111050', 'KALB 140251Z 27008KT 10SM BKN036 OVC050 02/M06 A2974 RMK AO2 SLP072 T00171056 50012', 'KALB 140151Z 27012KT 10SM OVC048 02/M07 A2974 RMK AO2 SLP072 T00221072', 'KALB 140051Z 27014KT 10SM BKN070 03/M08 A2972 RMK AO2 SLP068 T00281078', 'KALB 132351Z 27015G21KT 10SM BKN065 03/M07 A2970 RMK AO2 SLP060 T00331067 10056 20028 53027', 'KALB 132251Z VRB03KT 10SM BKN070 BKN250 04/M07 A2966 RMK AO2 SLP047 T00391072', 'KALB 132151Z 05004KT 10SM BKN065 BKN250 04/M06 A2963 RMK AO2 SLP035 T00441061', 'KALB 132051Z 01005KT 10SM SCT055 BKN250 06/M07 A2962 RMK AO2 SLP032 T00561067 51006', 'KALB 131951Z 34006KT 10SM BKN041 BKN180 BKN250 04/M07 A2961 RMK AO2 SLP030 T00441067', 'KALB 131851Z 34010KT 10SM BKN036 03/M06 A2961 RMK AO2 SLP030 T00281061', 'KALB 131751Z 35011KT 10SM OVC035 03/M06 A2960 RMK AO2 SLP027 T00281061 10033 20000 58001', 'KALB 131651Z 34011KT 10SM BKN039 BKN050 OVC180 03/M06 A2961 RMK AO2 SLP030 T00281056', 'KALB 131551Z 35006KT 10SM BKN037 OVC140 03/M05 A2962 RMK AO2 SLP032 T00281050', 'KALB 131451Z 34007KT 10SM BKN034 OVC140 02/M04 A2960 RMK AO2 SLP027 T00171044 56015', 'KALB 131351Z 36007KT 10SM BKN033 OVC140 01/M04 A2962 RMK AO2 SLP031 T00111044', 'KALB 131251Z 35005KT 10SM BKN034 BKN120 OVC140 01/M04 A2963 RMK AO2 SLP036 T00061039', 'KALB 131151Z 34003KT 10SM FEW030 OVC120 00/M04 A2965 RMK AO2 SLP043 VIRGA ALQDS T00001039 10000 21022 56015', 'KALB 131051Z 33003KT 10SM OVC110 00/M04 A2966 RMK AO2 SLP046 T00001039', 'KALB 130951Z 35003KT 10SM BKN120 OVC130 M01/M04 A2967 RMK AO2 SLP051 T10061039', 'KALB 130851Z 00000KT 10SM OVC200 M01/M04 A2969 RMK AO2 SLP058 T10111044 58020', 'KALB 130751Z 35005KT 10SM OVC160 M01/M04 A2971 RMK AO2 SLP062 T10061044', 'KALB 130651Z 00000KT 10SM BKN160 OVC230 M01/M05 A2976 RMK AO2 SLP082 T10111050', 'KALB 130551Z 36003KT 10SM SCT190 BKN230 M01/M06 A2976 RMK AO2 SLP079 T10111056 10033 21028 58027', 'KALB 130451Z 28003KT 10SM FEW044 BKN200 M02/M07 A2980 RMK AO2 SLP093 T10221067 400501022', 'KALB 130351Z 00000KT 10SM FEW130 FEW200 00/M06 A2981 RMK AO2 SLP098 T00001061', 'KALB 130251Z 33004KT 10SM FEW044 BKN130 02/M06 A2984 RMK AO2 SLP106 T00221061 58015', 'KALB 130151Z 30005KT 10SM BKN044 03/M06 A2986 RMK AO2 SLP113 T00281061', 'KALB 130051Z 29006KT 10SM OVC042 03/M05 A2987 RMK AO2 SLP118 T00331050', 'KALB 122351Z 27006KT 10SM OVC039 03/M04 A2988 RMK AO2 SLP120 T00331044 10050 20033 50008', 'KALB 122251Z 25007KT 10SM OVC036 03/M04 A2988 RMK AO2 SLP121 T00331039', 'KALB 122151Z 30007KT 10SM OVC034 04/M04 A2988 RMK AO2 SLP119 T00391044', 'KALB 122051Z 31006KT 10SM OVC034 04/M04 A2985 RMK AO2 SLP112 OCNL BINOVC T00441044 56016', 'KALB 121951Z 30008KT 10SM OVC035 05/M04 A2988 RMK AO2 SLP121 T00501044', 'KALB 121851Z 31009KT 10SM OVC035 04/M04 A2986 RMK AO2 SLP114 T00441044', 'KALB 121751Z 28010KT 10SM OVC032 04/M04 A2990 RMK AO2 SLP128 T00391039 10044 20017 56022', 'KALB 121651Z 29010KT 10SM OVC032 04/M04 A2991 RMK AO2 SLP131 T00391044', 'KALB 121551Z 29006KT 10SM OVC030 03/M04 A2995 RMK AO2 SLP143 T00331044', 'KALB 121519Z 30006KT 10SM OVC030 03/M04 A2997 RMK AO2 T00331039', 'KALB 121451Z 25005KT 10SM OVC026 03/M04 A2997 RMK AO2 SLP150 T00281039 53005', 'KALB 121351Z 28005KT 10SM OVC025 02/M03 A2994 RMK AO2 SLP142 T00221033', 'KALB 121251Z 29007KT 10SM OVC023 02/M03 A2995 RMK AO2 SLP143 T00221033', 'KALB 121151Z 29005KT 10SM OVC023 02/M03 A2995 RMK AO2 SLP144 T00171033 10022 20017 51010', 'KALB 121051Z 30005KT 10SM OVC022 02/M03 A2994 RMK AO2 SLP139 T00171033']","['2024-02-15 09:51:00', '2024-02-15 08:51:00', '2024-02-15 07:51:00', '2024-02-15 06:51:00', '2024-02-15 05:51:00', '2024-02-15 04:51:00', '2024-02-15 03:51:00', '2024-02-15 02:51:00', '2024-02-15 01:51:00', '2024-02-15 00:51:00', '2024-02-14 23:51:00', '2024-02-14 22:51:00', '2024-02-14 21:51:00', '2024-02-14 20:51:00', '2024-02-14 19:51:00', '2024-02-14 18:51:00', '2024-02-14 17:51:00', '2024-02-14 16:51:00', '2024-02-14 15:51:00', '2024-02-14 14:51:00', '2024-02-14 14:09:00', '2024-02-14 13:51:00', '2024-02-14 12:51:00', '2024-02-14 11:51:00', '2024-02-14 10:51:00', '2024-02-14 09:51:00', '2024-02-14 08:51:00', '2024-02-14 07:51:00', '2024-02-14 07:19:00', '2024-02-14 06:51:00', '2024-02-14 05:51:00', '2024-02-14 04:51:00', '2024-02-14 03:55:00', '2024-02-14 02:51:00', '2024-02-14 01:51:00', '2024-02-14 00:51:00', '2024-02-13 23:51:00', '2024-02-13 22:51:00', '2024-02-13 21:51:00', '2024-02-13 20:51:00', '2024-02-13 19:51:00', '2024-02-13 18:51:00', '2024-02-13 17:51:00', '2024-02-13 16:51:00', '2024-02-13 15:51:00', '2024-02-13 14:51:00', '2024-02-13 13:51:00', '2024-02-13 12:51:00', '2024-02-13 11:51:00', '2024-02-13 10:51:00', '2024-02-13 09:51:00', '2024-02-13 08:51:00', '2024-02-13 07:51:00', '2024-02-13 06:51:00', '2024-02-13 05:51:00', '2024-02-13 04:51:00', '2024-02-13 03:51:00', '2024-02-13 02:51:00', '2024-02-13 01:51:00', '2024-02-13 00:51:00', '2024-02-12 23:51:00', '2024-02-12 22:51:00', '2024-02-12 21:51:00', '2024-02-12 20:51:00', '2024-02-12 19:51:00', '2024-02-12 18:51:00', '2024-02-12 17:51:00', '2024-02-12 16:51:00', '2024-02-12 15:51:00', '2024-02-12 15:19:00', '2024-02-12 14:51:00', '2024-02-12 13:51:00', '2024-02-12 12:51:00', '2024-02-12 11:51:00', '2024-02-12 10:51:00']"
United-states, Albuquerque International Airport (ABQ/KABQ) ,"['KABQ 150952Z 00000KT 10SM CLR 01/M08 A3022 RMK AO2 SLP211 T00111078', 'KABQ 150852Z 13003KT 10SM CLR 02/M08 A3022 RMK AO2 SLP208 T00221083 51007', 'KABQ 150752Z 13005KT 10SM CLR 01/M08 A3021 RMK AO2 SLP214 T00061078', 'KABQ 150652Z 12004KT 10SM CLR 02/M08 A3020 RMK AO2 SLP209 T00221083 401501011', 'KABQ 150552Z 15004KT 10SM CLR 03/M08 A3019 RMK AO2 SLP209 T00281078 10139 20011 51020', 'KABQ 150452Z VRB04KT 10SM CLR 06/M08 A3017 RMK AO2 SLP201 T00611083', 'KABQ 150352Z 00000KT 10SM CLR 08/M09 A3015 RMK AO2 SLP194 T00831094', 'KABQ 150252Z 36005KT 10SM FEW250 09/M09 A3013 RMK AO2 SLP193 T00891089 52017', 'KABQ 150152Z 34007KT 10SM FEW250 11/M10 A3010 RMK AO2 SLP180 T01061100', 'KABQ 150052Z 33009KT 10SM FEW250 12/M11 A3009 RMK AO2 SLP176 T01171106', 'KABQ 142352Z 32015KT 10SM CLR 14/M12 A3007 RMK AO2 SLP161 T01391122 10150 20083 53007', 'KABQ 142252Z 32013G19KT 10SM CLR 15/M12 A3005 RMK AO2 SLP150 T01501117', 'KABQ 142152Z 29013G19KT 10SM CLR 14/M12 A3005 RMK AO2 WSHFT 2039 SLP150 T01441122', 'KABQ 142052Z 32013KT 10SM FEW100 14/M11 A3005 RMK AO2 WSHFT 2037 SLP153 T01391111 56020', 'KABQ 141952Z 26009G27KT 10SM FEW090 13/M12 A3006 RMK AO2 PK WND 25027/1935 SLP154 T01281117', 'KABQ 141852Z 21010G23KT 10SM FEW080 FEW200 12/M10 A3008 RMK AO2 SLP166 T01171100', 'KABQ 141752Z 24006KT 10SM FEW250 09/M07 A3011 RMK AO2 SLP179 T00891067 10089 21011 51007', 'KABQ 141652Z 00000KT 10SM FEW250 06/M07 A3011 RMK AO2 SLP183 T00611067', 'KABQ 141552Z 12004KT 10SM FEW250 04/M05 A3011 RMK AO2 SLP186 T00391050', 'KABQ 141452Z 00000KT 10SM SCT250 00/M06 A3009 RMK AO2 SLP187 T00001056 53010', 'KABQ 141352Z 11004KT 10SM FEW250 01/M07 A3008 RMK AO2 SLP179 T00061067', 'KABQ 141252Z 11006KT 10SM FEW250 M01/M06 A3006 RMK AO2 SLP166 T10061061 $', 'KABQ 141152Z 13006KT 10SM CLR 00/M06 A3005 RMK AO2 SLP159 T00001061 10039 21006 51005 $', 'KABQ 141052Z 15006KT 10SM CLR 01/M06 A3005 RMK AO2 SLP157 T00111056 $', 'KABQ 140952Z 15007KT 10SM CLR 01/M06 A3004 RMK AO2 SLP156 T00111056 $', 'KABQ 140852Z 12009KT 10SM CLR 01/M05 A3003 RMK AO2 SLP156 T00061050 50002 $', 'KABQ 140752Z 16004KT 10SM CLR 03/M05 A3004 RMK AO2 SLP155 T00281050 $', 'KABQ 140652Z 12006KT 10SM CLR 02/M05 A3003 RMK AO2 SLP155 T00221050 401281039 $', 'KABQ 140552Z 14006KT 10SM CLR 04/M05 A3003 RMK AO2 SLP156 T00391050 10117 20028 53003 $', 'KABQ 140452Z 00000KT 10SM CLR 04/M06 A3002 RMK AO2 SLP160 T00441056 $', 'KABQ 140352Z 11006KT 10SM CLR 05/M06 A3002 RMK AO2 SLP160 T00501056 $', 'KABQ 140252Z 00000KT 10SM FEW100 06/M06 A3002 RMK AO2 SLP164 T00561056 53008 $', 'KABQ 140152Z 12005KT 10SM FEW100 07/M06 A3000 RMK AO2 SLP160 T00671056 $', 'KABQ 140052Z 19004KT 10SM FEW080 FEW240 10/M07 A3000 RMK AO2 SLP152 T01001072 $', 'KABQ 132352Z 18006KT 10SM FEW080 BKN240 12/M09 A2999 RMK AO2 SLP141 T01171089 10128 20050 56012 $', 'KABQ 132252Z 00000KT 10SM FEW070 BKN240 12/M07 A2999 RMK AO2 SLP144 T01171067 $', 'KABQ 132152Z 18005KT 10SM FEW070 BKN250 11/M07 A3000 RMK AO2 SLP142 T01111067 $', 'KABQ 132052Z 00000KT 10SM BKN250 11/M06 A3003 RMK AO2 SLP150 T01061061 58033', 'KABQ 131952Z 00000KT 10SM BKN250 09/M06 A3007 RMK AO2 SLP166 T00941056', 'KABQ 131852Z 00000KT 10SM BKN250 07/M07 A3011 RMK AO2 SLP190 T00721067', 'KABQ 131752Z 00000KT 10SM BKN250 06/M05 A3014 RMK AO2 SLP203 T00611050 10061 21039 50003', 'KABQ 131652Z 30004KT 10SM SCT250 03/M05 A3015 RMK AO2 SLP206 T00281050', 'KABQ 131552Z 33005KT 10SM SCT250 01/M06 A3014 RMK AO2 SLP207 T00111056', 'KABQ 131452Z 35005KT 10SM FEW250 M01/M06 A3013 RMK AO2 SLP204 T10111056 51005', 'KABQ 131352Z 00000KT 10SM FEW250 M02/M07 A3012 RMK AO2 SLP202 T10221072', 'KABQ 131252Z 00000KT 10SM CLR M03/M07 A3012 RMK AO2 SLP200 T10331072', 'KABQ 131152Z 00000KT 10SM CLR M02/M07 A3011 RMK AO2 SLP195 T10221067 10022 21033 55001', 'KABQ 131052Z 00000KT 10SM CLR M02/M07 A3010 RMK AO2 SLP188 T10171067', 'KABQ 130952Z 36007KT 10SM CLR 01/M07 A3011 RMK AO2 SLP187 T00111072', 'KABQ 130852Z 35007KT 10SM CLR 01/M07 A3011 RMK AO2 SLP191 T00111067 58004', 'KABQ 130752Z 35007KT 10SM CLR 02/M07 A3012 RMK AO2 SLP194 T00171067', 'KABQ 130652Z 08004KT 10SM CLR 01/M06 A3013 RMK AO2 SLP202 T00061061 400891044', 'KABQ 130552Z 00000KT 10SM CLR 00/M06 A3013 RMK AO2 SLP206 T00001056 10089 20000 53007', 'KABQ 130452Z 36007KT 10SM CLR 04/M08 A3012 RMK AO2 SLP195 T00391078', 'KABQ 130352Z 03006KT 10SM CLR 04/M06 A3011 RMK AO2 SLP198 T00391061', 'KABQ 130252Z 35004KT 10SM CLR 05/M07 A3010 RMK AO2 SLP195 T00501067 53009', 'KABQ 130152Z 00000KT 10SM CLR 06/M07 A3009 RMK AO2 SLP194 T00611072', 'KABQ 130052Z 11004KT 10SM CLR 07/M07 A3007 RMK AO2 SLP185 T00721072', 'KABQ 122352Z 00000KT 10SM CLR 08/M08 A3007 RMK AO2 SLP184 T00781083 10089 20022 56012', 'KABQ 122252Z VRB04KT 10SM CLR 09/M08 A3008 RMK AO2 SLP183 T00891078', 'KABQ 122152Z 30004KT 10SM CLR 07/M07 A3009 RMK AO2 SLP189 T00721072', 'KABQ 122052Z 30004KT 10SM CLR 07/M07 A3011 RMK AO2 SLP195 T00671072 58020', 'KABQ 121952Z 33004KT 10SM FEW250 06/M07 A3014 RMK AO2 SLP205 T00561072', 'KABQ 121852Z VRB03KT 10SM FEW250 04/M07 A3017 RMK AO2 SLP220 T00441067', 'KABQ 121752Z 00000KT 10SM FEW250 03/M07 A3018 RMK AO2 SLP225 T00281072 10028 21044 50001', 'KABQ 121652Z VRB03KT 10SM FEW250 02/M07 A3019 RMK AO2 SLP227 T00221072', 'KABQ 121552Z 36004KT 10SM FEW250 01/M08 A3019 RMK AO2 SLP232 T00061078', 'KABQ 121452Z 00000KT 10SM FEW230 M01/M07 A3018 RMK AO2 SLP229 FZFG E-S T10111067 53009', 'KABQ 121352Z 06003KT 10SM FEW230 M04/M08 A3015 RMK AO2 SLP225 T10391078', 'KABQ 121252Z 00000KT 10SM FEW230 M03/M07 A3014 RMK AO2 SLP217 T10331072', 'KABQ 121152Z 10003KT 10SM CLR M03/M07 A3015 RMK AO2 SLP216 T10331072 10006 21044 53000', 'KABQ 121052Z 00000KT 10SM CLR M03/M07 A3014 RMK AO2 SLP211 T10331072']","['2024-02-15 09:52:00', '2024-02-15 08:52:00', '2024-02-15 07:52:00', '2024-02-15 06:52:00', '2024-02-15 05:52:00', '2024-02-15 04:52:00', '2024-02-15 03:52:00', '2024-02-15 02:52:00', '2024-02-15 01:52:00', '2024-02-15 00:52:00', '2024-02-14 23:52:00', '2024-02-14 22:52:00', '2024-02-14 21:52:00', '2024-02-14 20:52:00', '2024-02-14 19:52:00', '2024-02-14 18:52:00', '2024-02-14 17:52:00', '2024-02-14 16:52:00', '2024-02-14 15:52:00', '2024-02-14 14:52:00', '2024-02-14 13:52:00', '2024-02-14 12:52:00', '2024-02-14 11:52:00', '2024-02-14 10:52:00', '2024-02-14 09:52:00', '2024-02-14 08:52:00', '2024-02-14 07:52:00', '2024-02-14 06:52:00', '2024-02-14 05:52:00', '2024-02-14 04:52:00', '2024-02-14 03:52:00', '2024-02-14 02:52:00', '2024-02-14 01:52:00', '2024-02-14 00:52:00', '2024-02-13 23:52:00', '2024-02-13 22:52:00', '2024-02-13 21:52:00', '2024-02-13 20:52:00', '2024-02-13 19:52:00', '2024-02-13 18:52:00', '2024-02-13 17:52:00', '2024-02-13 16:52:00', '2024-02-13 15:52:00', '2024-02-13 14:52:00', '2024-02-13 13:52:00', '2024-02-13 12:52:00', '2024-02-13 11:52:00', '2024-02-13 10:52:00', '2024-02-13 09:52:00', '2024-02-13 08:52:00', '2024-02-13 07:52:00', '2024-02-13 06:52:00', '2024-02-13 05:52:00', '2024-02-13 04:52:00', '2024-02-13 03:52:00', '2024-02-13 02:52:00', '2024-02-13 01:52:00', '2024-02-13 00:52:00', '2024-02-12 23:52:00', '2024-02-12 22:52:00', '2024-02-12 21:52:00', '2024-02-12 20:52:00', '2024-02-12 19:52:00', '2024-02-12 18:52:00', '2024-02-12 17:52:00', '2024-02-12 16:52:00', '2024-02-12 15:52:00', '2024-02-12 14:52:00', '2024-02-12 13:52:00', '2024-02-12 12:52:00', '2024-02-12 11:52:00', '2024-02-12 10:52:00']"
United-states, Alexander City Thomas C Russell Field (ALX/KALX) ,"['KALX 150955Z AUTO 00000KT 10SM CLR 02/02 A3019 RMK AO2 T00180017', 'KALX 150915Z AUTO 00000KT 10SM CLR 02/02 A3020 RMK AO2 T00210020', 'KALX 150855Z AUTO 00000KT 10SM CLR 02/02 A3020 RMK AO2 T00180017', 'KALX 150815Z AUTO 00000KT 10SM CLR 02/02 A3022 RMK AO2 T00240023', 'KALX 150755Z AUTO 00000KT 10SM CLR 03/03 A3022 RMK AO2 T00260025', 'KALX 150715Z AUTO 00000KT 10SM CLR 03/03 A3021 RMK AO2 T00280027', 'KALX 150655Z AUTO 00000KT 10SM CLR 03/03 A3021 RMK AO2 T00310030', 'KALX 150615Z AUTO 00000KT 10SM CLR 03/03 A3020 RMK AO2 T00340032', 'KALX 150555Z AUTO 00000KT 10SM CLR 04/04 A3020 RMK AO2 T00380037 10137 20037', 'KALX 150515Z AUTO 00000KT 10SM CLR 05/04 A3020 RMK AO2 T00490041', 'KALX 150455Z AUTO 00000KT 10SM CLR 04/04 A3021 RMK AO2 T00380036 401901007', 'KALX 150415Z AUTO 00000KT 10SM CLR 06/03 A3022 RMK AO2 T00590033', 'KALX 150355Z AUTO 00000KT 10SM CLR 04/04 A3022 RMK AO2 T00420035', 'KALX 150315Z AUTO 00000KT 10SM CLR 07/04 A3022 RMK AO2 T00660035', 'KALX 150255Z AUTO 00000KT 10SM CLR 07/03 A3023 RMK AO2 T00710028', 'KALX 150215Z AUTO 00000KT 10SM CLR 08/04 A3021 RMK AO2 T00840039', 'KALX 150155Z AUTO 21003KT 10SM CLR 08/02 A3023 RMK AO2 T00760024', 'KALX 150115Z AUTO 00000KT 10SM CLR 10/03 A3020 RMK AO2 T01000026', 'KALX 150055Z AUTO 00000KT 10SM CLR 10/03 A3019 RMK AO2 T01040028', 'KALX 150015Z AUTO 00000KT 10SM CLR 12/03 A3021 RMK AO2 T01190025', 'KALX 142355Z AUTO 00000KT 10SM CLR 14/02 A3019 RMK AO2 T01360023 10190 20136', 'KALX 142315Z AUTO 00000KT 10SM CLR 17/01 A3019 RMK AO2 T01690006', 'KALX 142255Z AUTO 00000KT 10SM CLR 18/M01 A3018 RMK AO2 T01761007', 'KALX 142215Z AUTO 00000KT 10SM CLR 19/M01 A3016 RMK AO2 T01871008', 'KALX 142155Z AUTO 14003KT 10SM CLR 19/M01 A3016 RMK AO2 T01881011', 'KALX 142115Z AUTO 21003KT 10SM CLR 18/M01 A3017 RMK AO2 T01821011', 'KALX 142055Z AUTO 15005KT 10SM CLR 19/M01 A3018 RMK AO2 T01891006', 'KALX 142015Z AUTO 00000KT 10SM CLR 18/M02 A3019 RMK AO2 T01801019', 'KALX 141955Z AUTO 10004KT 10SM CLR 19/M01 A3020 RMK AO2 T01881013', 'KALX 141915Z AUTO 11005KT 10SM CLR 18/M01 A3022 RMK AO2 T01791013', 'KALX 141855Z AUTO 07005KT 10SM CLR 18/M01 A3022 RMK AO2 T01801010', 'KALX 141815Z AUTO 08004KT 10SM CLR 17/M02 A3025 RMK AO2 T01711017', 'KALX 141755Z AUTO 12004KT 10SM CLR 17/M01 A3027 RMK AO2 T01681008 10171 21007', 'KALX 141715Z AUTO 10003KT 10SM CLR 16/01 A3028 RMK AO2 T01570008', 'KALX 141655Z AUTO 00000KT 10SM CLR 15/01 A3029 RMK AO2 T01460006', 'KALX 141615Z AUTO 04003KT 10SM CLR 13/01 A3029 RMK AO2 T01290006', 'KALX 141555Z AUTO 03006KT 10SM CLR 12/00 A3030 RMK AO2 T01150001', 'KALX 141515Z AUTO 02007KT 10SM CLR 10/00 A3029 RMK AO2 T00960001', 'KALX 141455Z AUTO 01005KT 10SM CLR 08/00 A3030 RMK AO2 T00830003', 'KALX 141415Z AUTO 01003KT 10SM CLR 05/01 A3028 RMK AO2 T00530008', 'KALX 141355Z AUTO 00000KT 10SM CLR 03/02 A3027 RMK AO2 T00330017', 'KALX 141315Z AUTO 00000KT 10SM CLR 00/00 A3027 RMK AO2 T00040002', 'KALX 141255Z AUTO 00000KT 10SM CLR 00/00 A3026 RMK AO2 T10051005', 'KALX 141215Z AUTO 00000KT 10SM CLR 00/00 A3024 RMK AO2 T10051005', 'KALX 141155Z AUTO 00000KT 10SM CLR M01/M01 A3023 RMK AO2 T10071008 10013 21007', 'KALX 141115Z AUTO 00000KT 10SM CLR 00/00 A3022 RMK AO2 T00040001', 'KALX 141055Z AUTO 00000KT 10SM CLR 00/00 A3022 RMK AO2 T00001001', 'KALX 141015Z AUTO 00000KT 10SM CLR 00/00 A3021 RMK AO2 T00001001', 'KALX 140955Z AUTO 00000KT 10SM CLR 01/00 A3021 RMK AO2 T00050003', 'KALX 140915Z AUTO 00000KT 10SM CLR 00/00 A3021 RMK AO2 T00010000', 'KALX 140855Z AUTO 00000KT 10SM CLR 00/00 A3021 RMK AO2 T00010000', 'KALX 140655Z AUTO 00000KT 10SM CLR 00/00 A3019 RMK AO2 T00010000', 'KALX 140615Z AUTO 00000KT 10SM CLR 01/01 A3019 RMK AO2 T00050005', 'KALX 140555Z AUTO 00000KT 10SM CLR 01/01 A3018 RMK AO2 T00120011 10107 20010', 'KALX 140515Z AUTO 00000KT 10SM CLR 02/01 A3019 RMK AO2 T00150014', 'KALX 140455Z AUTO 00000KT 10SM CLR 02/02 A3018 RMK AO2 T00210019 401360016', 'KALX 140415Z AUTO 00000KT 10SM CLR 02/02 A3018 RMK AO2 T00200019', 'KALX 140355Z AUTO 00000KT 10SM CLR 03/03 A3017 RMK AO2 T00310030', 'KALX 140315Z AUTO 00000KT 10SM CLR 03/02 A3016 RMK AO2 T00320024', 'KALX 140255Z AUTO 00000KT 10SM CLR 04/03 A3016 RMK AO2 T00410027', 'KALX 140215Z AUTO 00000KT 10SM CLR 04/02 A3015 RMK AO2 T00430020', 'KALX 140155Z AUTO 00000KT 10SM CLR 05/02 A3015 RMK AO2 T00480019', 'KALX 140115Z AUTO 00000KT 10SM CLR 06/01 A3015 RMK AO2 T00630010', 'KALX 140055Z AUTO 00000KT 10SM CLR 07/01 A3015 RMK AO2 T00690008', 'KALX 140015Z AUTO 32005KT 10SM CLR 10/M01 A3014 RMK AO2 T00991011', 'KALX 132355Z AUTO 30003KT 10SM CLR 11/M02 A3013 RMK AO2 T01081018 10136 20106', 'KALX 132315Z AUTO 31006KT 10SM CLR 12/M02 A3011 RMK AO2 T01211022', 'KALX 132255Z AUTO 31005KT 10SM CLR 13/M02 A3010 RMK AO2 T01261024', 'KALX 132215Z AUTO 30008G14KT 10SM CLR 13/M03 A3009 RMK AO2 T01311027', 'KALX 132155Z AUTO 27007KT 10SM CLR 13/M03 A3009 RMK AO2 T01311027', 'KALX 132115Z AUTO 30007KT 10SM CLR 14/M02 A3008 RMK AO2 T01351022', 'KALX 132055Z AUTO 35006G17KT 10SM CLR 13/M03 A3008 RMK AO2 T01331033', 'KALX 132015Z AUTO 33010KT 270V010 10SM CLR 13/M02 A3007 RMK AO2 T01341019', 'KALX 131955Z AUTO 34005KT 10SM CLR 13/M02 A3007 RMK AO2 T01271018', 'KALX 131915Z AUTO 31007KT 10SM CLR 12/M02 A3009 RMK AO2 T01201017', 'KALX 131855Z AUTO 34009KT 10SM CLR 12/M02 A3010 RMK AO2 T01161020', 'KALX 131815Z AUTO 31007KT 10SM CLR 11/M01 A3010 RMK AO2 T01101013', 'KALX 131755Z AUTO 31009KT 290V360 10SM CLR 11/M01 A3011 RMK AO2 T01051006 10105 20051', 'KALX 131715Z AUTO 33010KT 10SM CLR 09/00 A3012 RMK AO2 T00911002', 'KALX 131655Z AUTO 28005KT 10SM CLR 08/01 A3013 RMK AO2 T00830006', 'KALX 131615Z AUTO 30006KT 10SM CLR 07/01 A3012 RMK AO2 T00720012', 'KALX 131555Z AUTO 33010G16KT 290V360 10SM CLR 07/02 A3012 RMK AO2 T00720016', 'KALX 131520Z AUTO 29008G14KT 260V350 10SM SCT021 07/02 A3011 RMK AO2 T00680018', 'KALX 131455Z AUTO 32009KT 10SM OVC021 06/01 A3010 RMK AO2 T00580013', 'KALX 131415Z AUTO 34008KT 10SM OVC023 06/01 A3010 RMK AO2 T00550014', 'KALX 131355Z AUTO 32009KT 10SM OVC023 05/01 A3009 RMK AO2 T00520012', 'KALX 131315Z AUTO 29006KT 10SM BKN023 05/02 A3006 RMK AO2 T00520019', 'KALX 131255Z AUTO 30006KT 10SM SCT025 05/01 A3005 RMK AO2 T00520013', 'KALX 131215Z AUTO 29006KT 10SM OVC023 06/03 A3003 RMK AO2 T00570025', 'KALX 131155Z AUTO 31008KT 10SM BKN023 OVC027 06/03 A3001 RMK AO2 70056 T00590026 10075 20058', 'KALX 131115Z AUTO 31009G14KT 10SM OVC019 06/03 A2999 RMK AO2 T00600032', 'KALX 131055Z AUTO 30008KT 10SM OVC019 06/03 A2998 RMK AO2 T00600032', 'KALX 131015Z AUTO 32005KT 10SM BKN019 OVC025 06/03 A2996 RMK AO2 T00600032', 'KALX 130955Z AUTO 31010G18KT 10SM OVC019 06/03 A2996 RMK AO2 T00610031', 'KALX 130915Z AUTO 31011G15KT 10SM OVC023 06/03 A2992 RMK AO2 T00620029', 'KALX 130855Z AUTO 32010KT 10SM OVC023 06/03 A2991 RMK AO2 T00630029', 'KALX 130815Z AUTO 30007KT 10SM BKN023 OVC029 06/04 A2990 RMK AO2 T00640036', 'KALX 130755Z AUTO 29009G15KT 10SM OVC023 07/03 A2989 RMK AO2 T00650034', 'KALX 130715Z AUTO 29009G16KT 10SM SCT025 BKN035 07/03 A2989 RMK AO2 T00670031', 'KALX 130655Z AUTO 28008G19KT 10SM SCT025 BKN037 07/03 A2989 RMK AO2 T00660030', 'KALX 130615Z AUTO 31016G26KT 10SM OVC025 07/04 A2986 RMK AO2 T00730036', 'KALX 130555Z AUTO 28012G22KT 10SM BKN025 OVC031 08/04 A2985 RMK AO2 T00750041 10129 20075', 'KALX 130515Z AUTO 29011G19KT 10SM BKN023 BKN029 OVC038 08/05 A2983 RMK AO2 T00810052', 'KALX 130455Z AUTO 30010G21KT 10SM OVC021 09/05 A2983 RMK AO2 T00850052 401650085', 'KALX 130415Z AUTO 28014G20KT 10SM BKN023 OVC030 09/06 A2981 RMK AO2 T00900060', 'KALX 130355Z AUTO 27010G21KT 10SM SCT023 OVC030 09/06 A2981 RMK AO2 T00920064', 'KALX 130315Z AUTO 25009G18KT 230V290 10SM BKN021 BKN026 BKN050 10/08 A2979 RMK AO2 T00970083', 'KALX 130255Z AUTO 28010G16KT 10SM SCT019 SCT029 BKN050 10/09 A2978 RMK AO2 T00960089', 'KALX 130215Z AUTO 29017G26KT 4SM DZ SCT008 BKN018 OVC035 10/10 A2976 RMK AO2 T01040102', 'KALX 130155Z AUTO 27009G17KT 10SM SCT030 BKN035 OVC050 11/10 A2975 RMK AO2 T01070099', 'KALX 130115Z AUTO 27007KT 10SM SCT032 11/09 A2974 RMK AO2 T01050093', 'KALX 130055Z AUTO 27008KT 10SM CLR 11/09 A2973 RMK AO2 T01100090', 'KALX 130015Z AUTO 27009G17KT 240V300 10SM SCT003 BKN018 OVC039 12/12 A2971 RMK AO2 T01170116', 'KALX 122355Z AUTO 28014G21KT 5SM RA BKN013 OVC017 13/13 A2970 RMK AO2 60010 T01310130 10161 20131', 'KALX 122315Z AUTO 26019G32KT 10SM SCT009 BKN016 OVC034 15/15 A2965 RMK AO2 T01500146', 'KALX 122255Z AUTO 22009KT 10SM SCT009 OVC017 16/16 A2962 RMK AO2 T01600158', 'KALX 122215Z AUTO 17005KT 10SM OVC009 16/16 A2961 RMK AO2 T01560155', 'KALX 122155Z AUTO 21004KT 10SM -RA OVC009 16/15 A2962 RMK AO2 P0004 T01550152', 'KALX 122115Z AUTO 14007KT 10SM -RA OVC009 15/15 A2962 RMK AO2 P0002 T01530152', 'KALX 122055Z AUTO 00000KT 4SM +RA OVC011 16/15 A2962 RMK AO2 P0002 60005 T01550153', 'KALX 122015Z AUTO 13006KT 10SM OVC011 16/15 A2963 RMK AO2 LTG DSNT N T01550152', 'KALX 121955Z AUTO 14004KT 10SM OVC011 16/15 A2964 RMK AO2 P0001 T01550153', 'KALX 121915Z AUTO 12010KT 10SM RA OVC011 15/15 A2963 RMK AO2 P0001 T01520151', 'KALX 121855Z AUTO 12008KT 10SM -RA OVC011 15/15 A2968 RMK AO2 P0002 T01520150', 'KALX 121815Z AUTO 16006KT 10SM OVC009 15/15 A2972 RMK AO2 LTG DSNT N T01530152', 'KALX 121755Z AUTO 12011G17KT 10SM -RA OVC009 15/15 A2968 RMK AO2 P0001 60046 T01500149 10150 20146', 'KALX 121715Z AUTO 12007G15KT 10SM -RA BKN007 OVC011 15/15 A2974 RMK AO2 LTG DSNT W P0001 T01460145', 'KALX 121655Z AUTO 13008KT 7SM RA BKN007 OVC013 15/15 A2977 RMK AO2 LTG DSNT SE AND W P0014 T01470145', 'KALX 121615Z AUTO 12005KT 4SM +RA BKN007 OVC013 15/15 A2977 RMK AO2 LTG DSNT SE P0006 T01470145', 'KALX 121555Z AUTO 13009KT 2 1/2SM +RA BKN009 OVC012 15/15 A2976 RMK AO2 LTG DSNT SE P0011 T01470146', 'KALX 121515Z AUTO 13006KT 7SM RA OVC009 15/15 A2976 RMK AO2 LTG DSNT SE AND NW P0001 T01480147', 'KALX 121455Z AUTO 14003KT 7SM RA OVC009 15/15 A2975 RMK AO2 LTG DSNT SE AND NW P0005 60020 T01490147', 'KALX 121415Z AUTO 11007KT 7SM VCTSRA OVC007 15/15 A2974 RMK AO2 LTG DSNT SE AND S P0002 T01480146', 'KALX 121355Z AUTO 12005KT 10SM RA OVC007 15/15 A2975 RMK AO2 LTG DSNT SE AND S P0003 T01480146', 'KALX 121315Z AUTO 13005KT 10SM -RA OVC009 15/15 A2979 RMK AO2 LTG DSNT E THRU S P0002 T01470146', 'KALX 121255Z AUTO 15004KT 10SM RA OVC009 15/15 A2979 RMK AO2 LTG DSNT E AND SE P0011 T01470146', 'KALX 121215Z AUTO 08008KT 040V110 7SM VCTSRA OVC009 15/15 A2978 RMK AO2 LTG DSNT SE AND S P0005 T01480146', 'KALX 121155Z AUTO 11003KT 7SM VCTSRA SCT004 BKN009 OVC014 15/15 A2980 RMK AO2 LTG DSNT ALQDS P0012 60158 70281 T01480147 10163 20148', 'KALX 121115Z AUTO 14005KT 7SM +TSRA SCT006 BKN009 OVC015 15/15 A2982 RMK AO2 LTG DSNT ALQDS P0003 T01500150', 'KALX 121055Z AUTO 05005KT 2 1/2SM +VCTSRA SCT009 BKN015 OVC039 15/15 A2980 RMK AO2 LTG DSNT ALQDS P0008 T01510150', 'KALX 121015Z AUTO 07008KT 10SM -VCTSDZ SCT005 BKN010 OVC050 15/15 A2976 RMK AO2 LTG DSNT ALQDS T01500149']","['2024-02-15 09:55:00', '2024-02-15 09:15:00', '2024-02-15 08:55:00', '2024-02-15 08:15:00', '2024-02-15 07:55:00', '2024-02-15 07:15:00', '2024-02-15 06:55:00', '2024-02-15 06:15:00', '2024-02-15 05:55:00', '2024-02-15 05:15:00', '2024-02-15 04:55:00', '2024-02-15 04:15:00', '2024-02-15 03:55:00', '2024-02-15 03:15:00', '2024-02-15 02:55:00', '2024-02-15 02:15:00', '2024-02-15 01:55:00', '2024-02-15 01:15:00', '2024-02-15 00:55:00', '2024-02-15 00:15:00', '2024-02-14 23:55:00', '2024-02-14 23:15:00', '2024-02-14 22:55:00', '2024-02-14 22:15:00', '2024-02-14 21:55:00', '2024-02-14 21:15:00', '2024-02-14 20:55:00', '2024-02-14 20:15:00', '2024-02-14 19:55:00', '2024-02-14 19:15:00', '2024-02-14 18:55:00', '2024-02-14 18:15:00', '2024-02-14 17:55:00', '2024-02-14 17:15:00', '2024-02-14 16:55:00', '2024-02-14 16:15:00', '2024-02-14 15:55:00', '2024-02-14 15:15:00', '2024-02-14 14:55:00', '2024-02-14 14:15:00', '2024-02-14 13:55:00', '2024-02-14 13:15:00', '2024-02-14 12:55:00', '2024-02-14 12:15:00', '2024-02-14 11:55:00', '2024-02-14 11:15:00', '2024-02-14 10:55:00', '2024-02-14 10:15:00', '2024-02-14 09:55:00', '2024-02-14 09:15:00', '2024-02-14 08:55:00', '2024-02-14 06:55:00', '2024-02-14 06:15:00', '2024-02-14 05:55:00', '2024-02-14 05:15:00', '2024-02-14 04:55:00', '2024-02-14 04:15:00', '2024-02-14 03:55:00', '2024-02-14 03:15:00', '2024-02-14 02:55:00', '2024-02-14 02:15:00', '2024-02-14 01:55:00', '2024-02-14 01:15:00', '2024-02-14 00:55:00', '2024-02-14 00:15:00', '2024-02-13 23:55:00', '2024-02-13 23:15:00', '2024-02-13 22:55:00', '2024-02-13 22:15:00', '2024-02-13 21:55:00', '2024-02-13 21:15:00', '2024-02-13 20:55:00', '2024-02-13 20:15:00', '2024-02-13 19:55:00', '2024-02-13 19:15:00', '2024-02-13 18:55:00', '2024-02-13 18:15:00', '2024-02-13 17:55:00', '2024-02-13 17:15:00', '2024-02-13 16:55:00', '2024-02-13 16:15:00', '2024-02-13 15:55:00', '2024-02-13 15:20:00', '2024-02-13 14:55:00', '2024-02-13 14:15:00', '2024-02-13 13:55:00', '2024-02-13 13:15:00', '2024-02-13 12:55:00', '2024-02-13 12:15:00', '2024-02-13 11:55:00', '2024-02-13 11:15:00', '2024-02-13 10:55:00', '2024-02-13 10:15:00', '2024-02-13 09:55:00', '2024-02-13 09:15:00', '2024-02-13 08:55:00', '2024-02-13 08:15:00', '2024-02-13 07:55:00', '2024-02-13 07:15:00', '2024-02-13 06:55:00', '2024-02-13 06:15:00', '2024-02-13 05:55:00', '2024-02-13 05:15:00', '2024-02-13 04:55:00', '2024-02-13 04:15:00', '2024-02-13 03:55:00', '2024-02-13 03:15:00', '2024-02-13 02:55:00', '2024-02-13 02:15:00', '2024-02-13 01:55:00', '2024-02-13 01:15:00', '2024-02-13 00:55:00', '2024-02-13 00:15:00', '2024-02-12 23:55:00', '2024-02-12 23:15:00', '2024-02-12 22:55:00', '2024-02-12 22:15:00', '2024-02-12 21:55:00', '2024-02-12 21:15:00', '2024-02-12 20:55:00', '2024-02-12 20:15:00', '2024-02-12 19:55:00', '2024-02-12 19:15:00', '2024-02-12 18:55:00', '2024-02-12 18:15:00', '2024-02-12 17:55:00', '2024-02-12 17:15:00', '2024-02-12 16:55:00', '2024-02-12 16:15:00', '2024-02-12 15:55:00', '2024-02-12 15:15:00', '2024-02-12 14:55:00', '2024-02-12 14:15:00', '2024-02-12 13:55:00', '2024-02-12 13:15:00', '2024-02-12 12:55:00', '2024-02-12 12:15:00', '2024-02-12 11:55:00', '2024-02-12 11:15:00', '2024-02-12 10:55:00', '2024-02-12 10:15:00']"
United-states, Alexandria Municipal Airport (AXN/KAXN) ,"['KAXN 150953Z AUTO 32008KT 10SM CLR M09/M12 A3010 RMK AO2 SLP220 T10941122', 'KAXN 150853Z AUTO 32006KT 10SM CLR M09/M12 A3011 RMK AO2 SLP222 I3000 T10941117 53004', 'KAXN 150753Z AUTO 33008KT 10SM CLR M08/M11 A3010 RMK AO2 SLP217 T10831111', 'KAXN 150653Z AUTO 31008KT 10SM CLR M08/M10 A3011 RMK AO2 SLP220 I1000 T10781100', 'KAXN 150553Z AUTO 31006KT 10SM CLR M08/M10 A3010 RMK AO2 SLP216 T10831100 11033 21083 400001083 53002', 'KAXN 150453Z AUTO 30006KT 10SM CLR M07/M09 A3009 RMK AO2 SLP214 T10721089', 'KAXN 150353Z AUTO 30006KT 10SM CLR M07/M09 A3009 RMK AO2 SLP212 T10671089', 'KAXN 150253Z AUTO 31006KT 10SM SCT023 SCT110 M05/M08 A3009 RMK AO2 SLP213 T10501083 51007', 'KAXN 150153Z AUTO 30007KT 10SM OVC022 M04/M07 A3009 RMK AO2 SLP212 T10391072', 'KAXN 150053Z AUTO 31006KT 10SM OVC070 M03/M07 A3008 RMK AO2 SLP210 T10331072', 'KAXN 142353Z AUTO 32006KT 10SM OVC055 M03/M06 A3007 RMK AO2 SLP205 60003 T10331061 11017 21033 53008', 'KAXN 142253Z AUTO 31006KT 5SM HZ OVC035 M03/M06 A3006 RMK AO2 SNE49 SLP200 P0000 T10331061', 'KAXN 142226Z AUTO 33007KT 1SM -SN BR SCT007 BKN011 OVC021 M03/M06 A3005 RMK AO2 P0000 T10331056', 'KAXN 142153Z AUTO 33006KT 1 1/2SM -SN BR FEW011 BKN024 OVC034 M03/M06 A3004 RMK AO2 SLP196 P0001 T10331056', 'KAXN 142111Z AUTO 33006KT 1 3/4SM -SN BR BKN028 OVC036 M03/M05 A3004 RMK AO2 P0000 T10281050', 'KAXN 142053Z AUTO 34008KT 1 1/2SM -SN BKN029 OVC039 M03/M06 A3004 RMK AO2 SLP194 P0001 60002 T10281056 58016', 'KAXN 142023Z AUTO 30006KT 1SM -SN BR BKN026 OVC034 M03/M05 A3006 RMK AO2 P0001 T10281050', 'KAXN 141953Z AUTO 29006KT 1SM -SN BR BKN024 OVC034 M03/M05 A3008 RMK AO2 SLP205 P0000 T10281050', 'KAXN 141914Z AUTO 27005KT 3/4SM -SN BR VV020 M03/M06 A3008 RMK AO2 P0000 T10331056', 'KAXN 141853Z AUTO 25007KT 3/4SM -SN BR VV017 M03/M06 A3009 RMK AO2 SNB14 SLP211 P0001 T10331056', 'KAXN 141823Z AUTO 28009KT 1 1/4SM -SN OVC024 M03/M07 A3010 RMK AO2 SNB14 P0000 T10281072', 'KAXN 141753Z AUTO 28008KT 10SM OVC060 M02/M07 A3009 RMK AO2 SLP210 T10171067 11017 21050 53007', 'KAXN 141653Z AUTO 29007KT 10SM OVC085 M02/M06 A3008 RMK AO2 SLP206 T10221056', 'KAXN 141553Z AUTO 28008KT 10SM CLR M02/M05 A3008 RMK AO2 SLP207 T10221050', 'KAXN 141453Z AUTO 29007KT 10SM FEW120 M03/M05 A3007 RMK AO2 SLP204 T10331050 53006', 'KAXN 141353Z AUTO 28007KT 8SM CLR M04/M06 A3006 RMK AO2 SLP202 T10441061', 'KAXN 141253Z AUTO 28007KT 9SM CLR M05/M06 A3006 RMK AO2 SLP199 T10501061', 'KAXN 141153Z AUTO 27007KT 10SM CLR M04/M06 A3005 RMK AO2 SLP198 T10391056 10000 21044 53009', 'KAXN 141053Z AUTO 29009KT 10SM CLR M03/M05 A3003 RMK AO2 SLP189 T10331050', 'KAXN 140953Z AUTO 28008KT 10SM SCT024 M02/M04 A3002 RMK AO2 SLP186 T10221044', 'KAXN 140920Z AUTO 28007KT 10SM BKN024 M01/M04 A3002 RMK AO2 T10111039', 'KAXN 140853Z AUTO 27008KT 10SM SCT028 M01/M04 A3002 RMK AO2 SLP186 T10111039 53007', 'KAXN 140753Z AUTO 28009KT 10SM BKN038 M01/M03 A3001 RMK AO2 SLP180 T10061028', 'KAXN 140701Z AUTO 24008KT 10SM BKN012 OVC041 00/M03 A3000 RMK AO2 T00001033', 'KAXN 140653Z AUTO 23008KT 10SM SCT014 OVC041 00/M03 A3000 RMK AO2 SLP179 T00001033', 'KAXN 140629Z AUTO 22009KT 10SM OVC014 00/M03 A3000 RMK AO2 T00001033', 'KAXN 140553Z AUTO 20009KT 10SM OVC018 00/M04 A3000 RMK AO2 SLP176 60000 T00001039 10000 21011 400061067 53004', 'KAXN 140453Z AUTO 19012KT 10SM OVC022 M01/M04 A2998 RMK AO2 SNB28E40 SLP173 P0000 T10061044', 'KAXN 140353Z AUTO 17009KT 10SM BKN026 OVC046 M01/M05 A2998 RMK AO2 SLP171 T10061050', 'KAXN 140253Z AUTO 16011KT 10SM OVC028 M01/M05 A2998 RMK AO2 SLP173 60000 T10061050 58001', 'KAXN 140153Z AUTO 15010KT 10SM OVC033 M01/M04 A2999 RMK AO2 SLP176 T10111044', 'KAXN 140053Z AUTO 14009KT 10SM OVC040 M01/M04 A2999 RMK AO2 SNE2356 SLP179 P0000 T10111039', 'KAXN 132353Z AUTO 14008KT 7SM -SN OVC050 M01/M04 A2999 RMK AO2 SNB35 SLP177 P0000 60000 T10061044 10006 21011 56001', 'KAXN 132253Z AUTO 17007KT 10SM BKN047 OVC060 00/M06 A2999 RMK AO2 SLP176 T00001061', 'KAXN 132153Z AUTO 20006KT 10SM FEW042 SCT050 OVC065 01/M06 A2999 RMK AO2 SLP174 T00061061', 'KAXN 132053Z AUTO 21006KT 10SM BKN050 01/M07 A2999 RMK AO2 SLP174 T00061067 56015', 'KAXN 131953Z AUTO 22006KT 10SM CLR 00/M07 A3000 RMK AO2 SLP177 T00001072', 'KAXN 131853Z AUTO 14003KT 10SM CLR 00/M07 A3001 RMK AO2 SLP182 T00001067', 'KAXN 131753Z AUTO 12003KT 10SM OVC037 M01/M08 A3003 RMK AO2 SLP191 T10111078 11006 21067 50005', 'KAXN 131653Z AUTO VRB03KT 10SM OVC038 M02/M08 A3004 RMK AO2 SLP192 T10171078', 'KAXN 131553Z AUTO 14004KT 10SM OVC038 M02/M07 A3003 RMK AO2 SLP190 T10221067', 'KAXN 131453Z AUTO 15005KT 10SM OVC037 M03/M07 A3002 RMK AO2 SLP186 T10331067 51007', 'KAXN 131353Z AUTO 16003KT 10SM OVC035 M04/M07 A3001 RMK AO2 SLP186 T10441072', 'KAXN 131253Z AUTO 00000KT 10SM OVC034 M06/M08 A3000 RMK AO2 SLP182 T10561078', 'KAXN 131153Z AUTO 11003KT 10SM BKN034 M06/M09 A3000 RMK AO2 SLP180 T10611089 11022 21061 51008', 'KAXN 131053Z AUTO 00000KT 10SM CLR M06/M08 A2999 RMK AO2 SLP178 T10561078', 'KAXN 130953Z AUTO 36003KT 10SM CLR M04/M08 A2998 RMK AO2 SLP172 T10441078', 'KAXN 130853Z AUTO 02004KT 10SM CLR M03/M08 A2997 RMK AO2 SLP168 T10331078 51007', 'KAXN 130753Z AUTO 33004KT 10SM SCT015 OVC039 M02/M06 A2996 RMK AO2 SLP164 T10221056', 'KAXN 130653Z AUTO 32004KT 10SM OVC039 M02/M06 A2996 RMK AO2 SLP163 T10221056', 'KAXN 130553Z AUTO 32005KT 10SM OVC037 M02/M06 A2995 RMK AO2 SLP160 T10221056 11011 21028 400331050 53003', 'KAXN 130453Z AUTO 32004KT 10SM OVC040 M02/M06 A2994 RMK AO2 SLP158 T10221061', 'KAXN 130353Z AUTO 32003KT 10SM OVC036 M02/M06 A2994 RMK AO2 SLP159 T10221056', 'KAXN 130253Z AUTO 33005KT 10SM OVC041 M03/M05 A2994 RMK AO2 SLP160 T10281050 51008', 'KAXN 130153Z AUTO 33007KT 10SM FEW043 M03/M05 A2993 RMK AO2 SLP159 T10281050', 'KAXN 130053Z AUTO 29006KT 10SM FEW027 M02/M05 A2993 RMK AO2 SLP155 T10171050', 'KAXN 122353Z AUTO 29006KT 10SM CLR M01/M05 A2992 RMK AO2 SLP151 T10111050 10033 21011 51008', 'KAXN 122253Z AUTO 31008KT 10SM CLR 01/M05 A2991 RMK AO2 SLP148 T00061050', 'KAXN 122153Z AUTO 31009KT 10SM BKN024 02/M04 A2991 RMK AO2 SLP145 T00221044', 'KAXN 122127Z AUTO 31008KT 10SM SCT024 02/M04 A2990 RMK AO2 T00221044', 'KAXN 122053Z AUTO 31009KT 10SM BKN023 03/M04 A2989 RMK AO2 SLP140 T00281039 55004', 'KAXN 122010Z AUTO 31011KT 10SM SCT022 02/M04 A2989 RMK AO2 T00221039', 'KAXN 121953Z AUTO 30008KT 10SM BKN021 03/M03 A2990 RMK AO2 SLP141 T00281033', 'KAXN 121853Z AUTO 30012KT 10SM BKN019 02/M03 A2991 RMK AO2 SLP145 T00221033', 'KAXN 121753Z AUTO 30010KT 10SM CLR 01/M04 A2991 RMK AO2 SLP148 I6000 T00111039 10011 21050 51006', 'KAXN 121653Z AUTO 30009KT 10SM CLR M01/M03 A2992 RMK AO2 SLP148 T10061033', 'KAXN 121553Z AUTO 32007KT 8SM CLR M02/M04 A2990 RMK AO2 SLP143 T10221039', 'KAXN 121453Z AUTO 30008KT 6SM BR CLR M03/M04 A2990 RMK AO2 SLP142 I3000 T10331044 51006', 'KAXN 121353Z AUTO 29006KT 5SM BR CLR M04/M06 A2989 RMK AO2 SLP142 I1000 T10441056', 'KAXN 121253Z AUTO 29007KT 7SM CLR M04/M06 A2988 RMK AO2 SLP138 I1000 T10441056', 'KAXN 121153Z AUTO 29006KT 7SM CLR M04/M06 A2988 RMK AO2 SLP136 I1000 I6000 T10441056 11011 21044 53003', 'KAXN 121053Z AUTO 27007KT 7SM CLR M04/M05 A2987 RMK AO2 SLP133 T10391050']","['2024-02-15 09:53:00', '2024-02-15 08:53:00', '2024-02-15 07:53:00', '2024-02-15 06:53:00', '2024-02-15 05:53:00', '2024-02-15 04:53:00', '2024-02-15 03:53:00', '2024-02-15 02:53:00', '2024-02-15 01:53:00', '2024-02-15 00:53:00', '2024-02-14 23:53:00', '2024-02-14 22:53:00', '2024-02-14 22:26:00', '2024-02-14 21:53:00', '2024-02-14 21:11:00', '2024-02-14 20:53:00', '2024-02-14 20:23:00', '2024-02-14 19:53:00', '2024-02-14 19:14:00', '2024-02-14 18:53:00', '2024-02-14 18:23:00', '2024-02-14 17:53:00', '2024-02-14 16:53:00', '2024-02-14 15:53:00', '2024-02-14 14:53:00', '2024-02-14 13:53:00', '2024-02-14 12:53:00', '2024-02-14 11:53:00', '2024-02-14 10:53:00', '2024-02-14 09:53:00', '2024-02-14 09:20:00', '2024-02-14 08:53:00', '2024-02-14 07:53:00', '2024-02-14 07:01:00', '2024-02-14 06:53:00', '2024-02-14 06:29:00', '2024-02-14 05:53:00', '2024-02-14 04:53:00', '2024-02-14 03:53:00', '2024-02-14 02:53:00', '2024-02-14 01:53:00', '2024-02-14 00:53:00', '2024-02-13 23:53:00', '2024-02-13 22:53:00', '2024-02-13 21:53:00', '2024-02-13 20:53:00', '2024-02-13 19:53:00', '2024-02-13 18:53:00', '2024-02-13 17:53:00', '2024-02-13 16:53:00', '2024-02-13 15:53:00', '2024-02-13 14:53:00', '2024-02-13 13:53:00', '2024-02-13 12:53:00', '2024-02-13 11:53:00', '2024-02-13 10:53:00', '2024-02-13 09:53:00', '2024-02-13 08:53:00', '2024-02-13 07:53:00', '2024-02-13 06:53:00', '2024-02-13 05:53:00', '2024-02-13 04:53:00', '2024-02-13 03:53:00', '2024-02-13 02:53:00', '2024-02-13 01:53:00', '2024-02-13 00:53:00', '2024-02-12 23:53:00', '2024-02-12 22:53:00', '2024-02-12 21:53:00', '2024-02-12 21:27:00', '2024-02-12 20:53:00', '2024-02-12 20:10:00', '2024-02-12 19:53:00', '2024-02-12 18:53:00', '2024-02-12 17:53:00', '2024-02-12 16:53:00', '2024-02-12 15:53:00', '2024-02-12 14:53:00', '2024-02-12 13:53:00', '2024-02-12 12:53:00', '2024-02-12 11:53:00', '2024-02-12 10:53:00']"
United-states, Alexandria International Airport (AEX/KAEX) ,"['KAEX 150953Z 00000KT 10SM CLR 08/06 A3017 RMK AO2 SLP220 T00780056', 'KAEX 150853Z 00000KT 10SM CLR 09/06 A3018 RMK AO2 SLP222 T00890056 55005', 'KAEX 150753Z 18005KT 10SM CLR 08/06 A3017 RMK AO2 SLP219 T00780056', 'KAEX 150653Z 16005KT 10SM CLR 08/06 A3017 RMK AO2 SLP222 T00830056', 'KAEX 150553Z 00000KT 10SM CLR 10/06 A3019 RMK AO2 SLP227 T01000056 10144 20094 401780022 50004', 'KAEX 150453Z 00000KT 10SM CLR 11/06 A3019 RMK AO2 SLP228 T01110056', 'KAEX 150353Z 21006KT 10SM CLR 11/06 A3018 RMK AO2 SLP224 T01110056', 'KAEX 150253Z 21007KT 10SM CLR 12/05 A3018 RMK AO2 SLP224 T01170050 50007', 'KAEX 150153Z 20006KT 10SM CLR 12/05 A3018 RMK AO2 SLP226 T01170050', 'KAEX 150053Z 17005KT 10SM CLR 13/05 A3017 RMK AO2 SLP220 T01280050', 'KAEX 142353Z 15007KT 10SM CLR 13/06 A3016 RMK AO2 SLP216 T01330061 10178 20133 53001', 'KAEX 142253Z 11007KT 10SM CLR 17/03 A3013 RMK AO2 SLP206 T01670033', 'KAEX 142153Z 13006KT 10SM CLR 17/03 A3015 RMK AO2 SLP215 T01720033', 'KAEX 142053Z 13004KT 10SM CLR 17/03 A3015 RMK AO2 SLP215 T01720033 56033', 'KAEX 141953Z 17007KT 10SM CLR 17/05 A3018 RMK AO2 SLP223 T01670050', 'KAEX 141853Z 11006KT 10SM CLR 16/03 A3020 RMK AO2 SLP231 T01610033', 'KAEX 141753Z 14005KT 10SM CLR 16/04 A3025 RMK AO2 SLP249 T01560039 10156 20022 58010', 'KAEX 141653Z 16003KT 10SM CLR 14/05 A3028 RMK AO2 SLP258 T01390050', 'KAEX 141553Z 00000KT 10SM CLR 13/06 A3028 RMK AO2 SLP260 T01280061', 'KAEX 141453Z 00000KT 10SM CLR 08/06 A3028 RMK AO2 SLP258 T00830056 51016', 'KAEX 141353Z 00000KT 9SM CLR 04/04 A3027 RMK AO2 SLP255 T00390039', 'KAEX 141253Z 00000KT 10SM CLR 02/02 A3026 RMK AO2 SLP252 T00220017', 'KAEX 141153Z 14003KT 8SM CLR 03/02 A3023 RMK AO2 SLP242 I1000 I6000 T00280022 10061 20022 53005', 'KAEX 141053Z 00000KT 10SM CLR 03/02 A3021 RMK AO2 SLP236 T00330022', 'KAEX 140953Z 00000KT 10SM CLR 03/02 A3021 RMK AO2 SLP235 T00330022', 'KAEX 140853Z 00000KT 9SM CLR 03/03 A3022 RMK AO2 SLP237 T00330028 50001', 'KAEX 140753Z 00000KT 10SM CLR 04/03 A3022 RMK AO2 SLP238 T00390028', 'KAEX 140653Z 00000KT 10SM CLR 04/03 A3022 RMK AO2 SLP238 T00440033', 'KAEX 140553Z 00000KT 10SM CLR 06/04 A3021 RMK AO2 SLP236 T00610039 10122 20056 401500011 53006', 'KAEX 140453Z 19003KT 10SM CLR 06/04 A3021 RMK AO2 SLP234 T00610039', 'KAEX 140353Z 00000KT 10SM CLR 07/04 A3020 RMK AO2 SLP233 T00670039', 'KAEX 140253Z 17003KT 10SM CLR 08/04 A3020 RMK AO2 SLP230 T00830044 53012', 'KAEX 140153Z 00000KT 10SM CLR 09/03 A3018 RMK AO2 SLP226 T00940028', 'KAEX 140053Z 00000KT 10SM CLR 10/04 A3017 RMK AO2 SLP222 T01000039', 'KAEX 132353Z 26003KT 10SM CLR 12/06 A3016 RMK AO2 SLP218 T01220056 10150 20117 55001', 'KAEX 132253Z 23004KT 10SM CLR 14/02 A3015 RMK AO2 SLP216 T01440017', 'KAEX 132153Z 25004KT 10SM CLR 14/02 A3016 RMK AO2 SLP217 T01440017', 'KAEX 132053Z 24006KT 10SM CLR 14/04 A3016 RMK AO2 SLP219 T01440039 56028', 'KAEX 131953Z 26005KT 10SM CLR 13/02 A3018 RMK AO2 SLP226 T01330022', 'KAEX 131853Z 02003KT 10SM CLR 14/01 A3021 RMK AO2 SLP235 T01390011', 'KAEX 131753Z 00000KT 10SM CLR 12/03 A3025 RMK AO2 SLP247 T01170028 10128 20011 50004', 'KAEX 131653Z 00000KT 10SM CLR 11/02 A3027 RMK AO2 SLP254 T01060017', 'KAEX 131553Z 00000KT 10SM CLR 09/02 A3026 RMK AO2 SLP253 T00890022', 'KAEX 131453Z 36003KT 10SM CLR 07/03 A3024 RMK AO2 SLP243 T00720033 51020', 'KAEX 131353Z 00000KT 10SM CLR 03/03 A3022 RMK AO2 SLP239 T00330028', 'KAEX 131253Z 29003KT 10SM CLR 02/01 A3020 RMK AO2 SLP232 T00170011', 'KAEX 131153Z 34003KT 10SM CLR 02/01 A3018 RMK AO2 SLP224 T00220011 10072 20022 51006', 'KAEX 131053Z 00000KT 10SM CLR 03/02 A3017 RMK AO2 SLP222 T00280017', 'KAEX 130953Z 00000KT 10SM CLR 03/02 A3016 RMK AO2 SLP219 T00330017', 'KAEX 130853Z 27003KT 10SM CLR 03/02 A3016 RMK AO2 SLP217 T00330017 53010', 'KAEX 130753Z 35005KT 10SM CLR 04/02 A3014 RMK AO2 SLP210 T00440017', 'KAEX 130653Z 34004KT 10SM CLR 06/02 A3014 RMK AO2 SLP210 T00560017', 'KAEX 130553Z 33008KT 10SM OVC034 07/02 A3013 RMK AO2 SLP207 T00720022 10083 20061 401280061 51017', 'KAEX 130453Z 33007KT 10SM OVC035 07/03 A3011 RMK AO2 SLP202 T00720028', 'KAEX 130353Z 33007KT 10SM BKN038 07/03 A3010 RMK AO2 SLP196 T00720028', 'KAEX 130253Z 31008KT 10SM BKN039 08/03 A3008 RMK AO2 SLP190 T00780033 53026', 'KAEX 130153Z 30005KT 10SM BKN042 07/03 A3005 RMK AO2 SLP180 T00670033', 'KAEX 130053Z 32006KT 10SM FEW042 07/03 A3003 RMK AO2 SLP172 T00670028', 'KAEX 122353Z 32007KT 10SM CLR 08/03 A3000 RMK AO2 SLP164 T00830033 10100 20083 53023', 'KAEX 122253Z 32013KT 10SM FEW032 09/03 A2997 RMK AO2 SLP154 T00940033', 'KAEX 122153Z 32020G28KT 10SM BKN031 09/03 A2995 RMK AO2 PK WND 32030/2129 SLP147 T00890033', 'KAEX 122053Z 32016G24KT 10SM OVC028 09/03 A2993 RMK AO2 PK WND 30026/2008 SLP141 T00890033 55002', 'KAEX 122022Z 31015KT 10SM OVC029 09/03 A2993 RMK AO2 PK WND 30026/2008 T00890033', 'KAEX 121953Z 30019G26KT 10SM OVC030 08/03 A2993 RMK AO2 PK WND 30029/1905 SLP140 T00830028', 'KAEX 121917Z 29017G25KT 10SM OVC030 08/03 A2994 RMK AO2 PK WND 30029/1905 T00830033', 'KAEX 121853Z 29022G27KT 10SM OVC029 08/03 A2994 RMK AO2 PK WND 30028/1842 SLP142 T00830033', 'KAEX 121828Z 29018G27KT 10SM OVC028 08/03 A2994 RMK AO2 PK WND 28027/1826 T00830028', 'KAEX 121753Z 29018G28KT 10SM OVC030 08/03 A2994 RMK AO2 PK WND 28028/1752 SLP143 T00830033 10122 20078 50018', 'KAEX 121653Z 30014G22KT 10SM OVC026 08/03 A2995 RMK AO2 PK WND 29033/1555 SLP147 T00780033', 'KAEX 121624Z 30017G29KT 10SM BKN030 OVC034 08/04 A2994 RMK AO2 PK WND 29033/1555 T00830039', 'KAEX 121553Z 29023G29KT 10SM BKN022 OVC028 08/04 A2992 RMK AO2 PK WND 29030/1541 SLP138 T00830044', 'KAEX 121453Z 29019G25KT 10SM BKN020 OVC026 09/07 A2989 RMK AO2 PK WND 29027/1430 SLP124 T00940067 51028', 'KAEX 121400Z 29017G23KT 10SM BKN013 OVC019 09/07 A2986 RMK AO2 T00940072', 'KAEX 121353Z 29013G25KT 10SM BKN009 OVC015 09/07 A2986 RMK AO2 PK WND 29030/1327 SLP115 T00940072', 'KAEX 121302Z 28020G29KT 10SM BKN009 OVC015 10/08 A2984 RMK AO2 PK WND 28029/1300 T01000078', 'KAEX 121253Z 28019G27KT 10SM OVC012 10/08 A2984 RMK AO2 PK WND 28027/1253 SLP107 T01000083', 'KAEX 121210Z 29019G26KT 10SM SCT008 OVC016 12/09 A2981 RMK AO2 PK WND 28026/1207 T01170094', 'KAEX 121153Z 32008KT 10SM BKN009 OVC031 12/11 A2980 RMK AO2 CIG 006V013 SLP095 70139 T01220111 10128 20117 58008', 'KAEX 121113Z 30005KT 4SM BKN009 BKN014 OVC029 12/11 A2983 RMK AO2 CIG 006V011 T01220111', 'KAEX 121053Z 29005KT 9SM SCT009 BKN014 OVC025 12/11 A2983 RMK AO2 SLP104 T01220111', 'KAEX 121023Z 32004KT 10SM SCT007 OVC012 12/11 A2981 RMK AO2 T01220111']","['2024-02-15 09:53:00', '2024-02-15 08:53:00', '2024-02-15 07:53:00', '2024-02-15 06:53:00', '2024-02-15 05:53:00', '2024-02-15 04:53:00', '2024-02-15 03:53:00', '2024-02-15 02:53:00', '2024-02-15 01:53:00', '2024-02-15 00:53:00', '2024-02-14 23:53:00', '2024-02-14 22:53:00', '2024-02-14 21:53:00', '2024-02-14 20:53:00', '2024-02-14 19:53:00', '2024-02-14 18:53:00', '2024-02-14 17:53:00', '2024-02-14 16:53:00', '2024-02-14 15:53:00', '2024-02-14 14:53:00', '2024-02-14 13:53:00', '2024-02-14 12:53:00', '2024-02-14 11:53:00', '2024-02-14 10:53:00', '2024-02-14 09:53:00', '2024-02-14 08:53:00', '2024-02-14 07:53:00', '2024-02-14 06:53:00', '2024-02-14 05:53:00', '2024-02-14 04:53:00', '2024-02-14 03:53:00', '2024-02-14 02:53:00', '2024-02-14 01:53:00', '2024-02-14 00:53:00', '2024-02-13 23:53:00', '2024-02-13 22:53:00', '2024-02-13 21:53:00', '2024-02-13 20:53:00', '2024-02-13 19:53:00', '2024-02-13 18:53:00', '2024-02-13 17:53:00', '2024-02-13 16:53:00', '2024-02-13 15:53:00', '2024-02-13 14:53:00', '2024-02-13 13:53:00', '2024-02-13 12:53:00', '2024-02-13 11:53:00', '2024-02-13 10:53:00', '2024-02-13 09:53:00', '2024-02-13 08:53:00', '2024-02-13 07:53:00', '2024-02-13 06:53:00', '2024-02-13 05:53:00', '2024-02-13 04:53:00', '2024-02-13 03:53:00', '2024-02-13 02:53:00', '2024-02-13 01:53:00', '2024-02-13 00:53:00', '2024-02-12 23:53:00', '2024-02-12 22:53:00', '2024-02-12 21:53:00', '2024-02-12 20:53:00', '2024-02-12 20:22:00', '2024-02-12 19:53:00', '2024-02-12 19:17:00', '2024-02-12 18:53:00', '2024-02-12 18:28:00', '2024-02-12 17:53:00', '2024-02-12 16:53:00', '2024-02-12 16:24:00', '2024-02-12 15:53:00', '2024-02-12 14:53:00', '2024-02-12 14:00:00', '2024-02-12 13:53:00', '2024-02-12 13:02:00', '2024-02-12 12:53:00', '2024-02-12 12:10:00', '2024-02-12 11:53:00', '2024-02-12 11:13:00', '2024-02-12 10:53:00', '2024-02-12 10:23:00']"
United-states, Alice International Airport (ALI/KALI) ,"['KALI 150953Z AUTO 02004KT 9SM BKN015 OVC021 17/17 A3011 RMK AO2 SLP195 T01720167', 'KALI 150853Z AUTO 00000KT 10SM OVC015 17/17 A3010 RMK AO2 SLP190 T01720167 58005', 'KALI 150753Z AUTO 09003KT 10SM OVC015 17/17 A3010 RMK AO2 SLP192 T01720167', 'KALI 150653Z AUTO 03005KT 9SM OVC016 17/17 A3011 RMK AO2 SLP195 T01720167', 'KALI 150553Z AUTO 00000KT 9SM OVC018 17/17 A3011 RMK AO2 SLP195 60002 T01720167 10178 20172 402060089 58014', 'KALI 150453Z AUTO 07004KT 9SM OVC019 17/16 A3014 RMK AO2 SLP204 T01720161', 'KALI 150353Z AUTO 05004KT 9SM OVC015 17/17 A3014 RMK AO2 RAB09E20 SLP204 P0000 T01720167', 'KALI 150253Z AUTO 09003KT 8SM OVC017 17/17 A3015 RMK AO2 SLP208 60002 T01720167 53017', 'KALI 150229Z AUTO 09003KT 9SM SCT004 OVC017 17/17 A3015 RMK AO2 T01720167', 'KALI 150153Z AUTO 10006KT 5SM BR OVC003 17/17 A3012 RMK AO2 RAB02E28 SLP196 P0001 T01720167', 'KALI 150053Z AUTO 11007KT 4SM BR OVC004 17/17 A3010 RMK AO2 RAE00B36E46 CIG 003V007 SLP192 P0001 T01720167', 'KALI 150021Z AUTO 12007KT 3SM BR OVC005 17/17 A3009 RMK AO2 RAE00 CIG 003V009 P0001 T01720167', 'KALI 142353Z AUTO 12008KT 2 1/2SM -RA BR OVC008 18/17 A3009 RMK AO2 RAB51 CIG 005V011 SLP189 P0000 60000 T01780167 10206 20178 50008', 'KALI 142319Z AUTO 11009KT 10SM BKN007 BKN016 OVC023 18/17 A3008 RMK AO2 T01780167', 'KALI 142253Z AUTO 12011KT 6SM BR SCT009 OVC015 18/17 A3009 RMK AO2 SLP189 T01780167', 'KALI 142153Z AUTO 12011KT 10SM BKN020 OVC027 19/16 A3010 RMK AO2 SLP190 T01890161', 'KALI 142108Z AUTO 11009KT 10SM SCT014 BKN021 OVC026 19/16 A3008 RMK AO2 T01940161', 'KALI 142053Z AUTO 12010KT 10SM BKN013 BKN021 OVC050 19/16 A3007 RMK AO2 SLP180 60000 T01890161 56020', 'KALI 142015Z AUTO 11009KT 7SM FEW016 SCT024 OVC043 18/17 A3007 RMK AO2 T01830167', 'KALI 141953Z AUTO 12008KT 5SM BR BKN022 BKN030 OVC034 18/17 A3010 RMK AO2 RAB03E27 SLP191 P0000 T01780167', 'KALI 141853Z AUTO 14009KT 10SM BKN024 OVC033 21/15 A3013 RMK AO2 SLP200 T02060150', 'KALI 141753Z AUTO 13012KT 10SM BKN027 OVC033 21/14 A3012 RMK AO2 SLP197 T02060144 10206 20094 58014', 'KALI 141705Z AUTO 11008KT 10SM BKN027 BKN038 OVC060 19/14 A3013 RMK AO2 T01940139', 'KALI 141653Z AUTO 10008KT 10SM FEW025 BKN040 OVC060 20/14 A3014 RMK AO2 SLP204 T02000139', 'KALI 141553Z AUTO 06006KT 10SM FEW034 BKN046 OVC055 17/12 A3015 RMK AO2 SLP207 T01670122', 'KALI 141453Z AUTO 05004KT 10SM BKN036 BKN046 OVC055 14/11 A3016 RMK AO2 SLP212 T01390111 53020', 'KALI 141353Z AUTO 05003KT 10SM CLR 12/10 A3013 RMK AO2 SLP203 T01170100', 'KALI 141253Z AUTO 03004KT 10SM CLR 10/08 A3012 RMK AO2 SLP200 T01000083', 'KALI 141153Z AUTO 04003KT 10SM CLR 09/08 A3010 RMK AO2 SLP192 T00940078 10106 20089 58007', 'KALI 141053Z AUTO 06003KT 10SM CLR 09/08 A3011 RMK AO2 SLP193 T00940078', 'KALI 140953Z AUTO 04003KT 10SM CLR 09/08 A3012 RMK AO2 SLP196 T00940078', 'KALI 140853Z AUTO 04003KT 10SM CLR 09/07 A3012 RMK AO2 SLP198 T00940072 58012', 'KALI 140753Z AUTO 04003KT 10SM CLR 09/07 A3014 RMK AO2 SLP203 T00940067', 'KALI 140653Z AUTO 09003KT 10SM CLR 09/07 A3014 RMK AO2 SLP206 T00890067', 'KALI 140553Z AUTO 12003KT 10SM CLR 10/07 A3016 RMK AO2 SLP210 T01000067 10178 20100 402220039 50004', 'KALI 140453Z AUTO 12004KT 10SM CLR 11/07 A3017 RMK AO2 SLP214 T01110072', 'KALI 140353Z AUTO 14005KT 10SM CLR 12/07 A3016 RMK AO2 SLP213 T01220072', 'KALI 140253Z AUTO 12009KT 10SM CLR 13/07 A3015 RMK AO2 SLP207 T01330067 51009', 'KALI 140153Z AUTO 13010KT 10SM CLR 14/07 A3014 RMK AO2 SLP206 T01440072', 'KALI 140053Z AUTO 13011KT 10SM CLR 16/07 A3013 RMK AO2 SLP201 T01610072', 'KALI 132353Z AUTO 15010KT 10SM CLR 18/05 A3012 RMK AO2 SLP198 T01780050 10222 20178 53008', 'KALI 132253Z AUTO 15009KT 10SM CLR 19/02 A3010 RMK AO2 SLP192 T01940022', 'KALI 132153Z AUTO 13011KT 10SM CLR 21/03 A3009 RMK AO2 SLP190 T02060028', 'KALI 132053Z AUTO 16009KT 10SM CLR 21/02 A3010 RMK AO2 SLP191 T02110022 57041', 'KALI 131953Z AUTO 13008KT 10SM CLR 21/02 A3014 RMK AO2 SLP204 T02110017', 'KALI 131853Z AUTO 13008KT 070V160 10SM CLR 22/02 A3018 RMK AO2 SLP216 T02170017', 'KALI 131753Z AUTO VRB04KT 10SM CLR 19/04 A3022 RMK AO2 SLP232 T01940039 10200 20039 58004', 'KALI 131653Z AUTO 15008KT 10SM CLR 18/06 A3025 RMK AO2 SLP241 T01830061', 'KALI 131553Z AUTO 12005KT 10SM CLR 16/07 A3024 RMK AO2 SLP238 T01560067', 'KALI 131453Z AUTO 00000KT 10SM CLR 12/05 A3023 RMK AO2 SLP236 T01220050 53013', 'KALI 131353Z AUTO 33003KT CLR 07/04 A3020 RMK AO2 SLP224 T00670039', 'KALI 131253Z AUTO 36003KT CLR 05/02 A3019 RMK AO2 SLP224 T00500017 $', 'KALI 131153Z AUTO 00000KT 10SM CLR 06/03 A3019 RMK AO2 SLP223 T00560028 10083 20050 53007 $', 'KALI 131053Z AUTO 01003KT CLR 05/03 A3017 RMK AO2 SLP214 T00500028 $', 'KALI 130953Z AUTO 00000KT CLR 06/03 A3019 RMK AO2 SLP222 T00610028 $', 'KALI 130853Z AUTO 27003KT 10SM CLR 06/03 A3017 RMK AO2 SLP216 T00610033 53000', 'KALI 130753Z AUTO 00000KT 10SM CLR 08/03 A3016 RMK AO2 SLP212 T00780033', 'KALI 130653Z AUTO 00000KT 10SM CLR 08/03 A3017 RMK AO2 SLP215 T00780033', 'KALI 130553Z AUTO 25004KT 10SM CLR 08/03 A3017 RMK AO2 SLP215 T00780028 10178 20061 402000061 50008', 'KALI 130453Z AUTO 00000KT 10SM CLR 08/02 A3017 RMK AO2 SLP217 T00780022', 'KALI 130353Z AUTO 00000KT 10SM CLR 08/03 A3015 RMK AO2 SLP207 T00780033', 'KALI 130253Z AUTO 00000KT 10SM CLR 09/02 A3014 RMK AO2 SLP207 T00890017 53018', 'KALI 130153Z AUTO 00000KT 10SM CLR 12/02 A3013 RMK AO2 SLP201 T01220017', 'KALI 130053Z AUTO 34003KT 10SM CLR 16/M01 A3010 RMK AO2 SLP193 T01611006', 'KALI 122353Z AUTO 34008KT 10SM CLR 18/M01 A3009 RMK AO2 SLP189 T01781006 10200 20161 55001', 'KALI 122253Z AUTO 34009KT 10SM CLR 19/M01 A3008 RMK AO2 SLP184 T01941006', 'KALI 122153Z AUTO 33008G18KT 10SM CLR 19/M01 A3007 RMK AO2 SLP182 T01941006', 'KALI 122053Z AUTO 34011G18KT 10SM CLR 19/M01 A3009 RMK AO2 SLP189 T01891006 56029', 'KALI 121953Z AUTO 33011G18KT 10SM CLR 19/00 A3011 RMK AO2 SLP196 T01890000', 'KALI 121853Z AUTO 32012G24KT 10SM CLR 18/01 A3015 RMK AO2 SLP207 T01780006', 'KALI 121753Z AUTO 31017G26KT 10SM CLR 16/01 A3018 RMK AO2 PK WND 31026/1753 SLP218 T01610006 10161 20089 50008', 'KALI 121653Z AUTO 33018G22KT 10SM CLR 15/01 A3020 RMK AO2 SLP226 T01500006', 'KALI 121553Z AUTO 33014G26KT 10SM CLR 13/01 A3018 RMK AO2 PK WND 35028/1500 SLP220 T01330006', 'KALI 121453Z AUTO 33017G25KT 10SM CLR 11/00 A3016 RMK AO2 PK WND 34026/1443 SLP210 T01110000 51022', 'KALI 121353Z AUTO 33016KT 10SM CLR 09/00 A3014 RMK AO2 SLP204 T00940000', 'KALI 121253Z AUTO 32012G21KT 10SM CLR 09/00 A3011 RMK AO2 SLP196 T00890000', 'KALI 121153Z AUTO 32015G25KT 10SM CLR 10/01 A3009 RMK AO2 PK WND 32026/1137 SLP188 T01000006 10139 20100 51015', 'KALI 121053Z AUTO 33016G26KT 10SM CLR 11/03 A3008 RMK AO2 PK WND 33026/1051 SLP185 T01110028']","['2024-02-15 09:53:00', '2024-02-15 08:53:00', '2024-02-15 07:53:00', '2024-02-15 06:53:00', '2024-02-15 05:53:00', '2024-02-15 04:53:00', '2024-02-15 03:53:00', '2024-02-15 02:53:00', '2024-02-15 02:29:00', '2024-02-15 01:53:00', '2024-02-15 00:53:00', '2024-02-15 00:21:00', '2024-02-14 23:53:00', '2024-02-14 23:19:00', '2024-02-14 22:53:00', '2024-02-14 21:53:00', '2024-02-14 21:08:00', '2024-02-14 20:53:00', '2024-02-14 20:15:00', '2024-02-14 19:53:00', '2024-02-14 18:53:00', '2024-02-14 17:53:00', '2024-02-14 17:05:00', '2024-02-14 16:53:00', '2024-02-14 15:53:00', '2024-02-14 14:53:00', '2024-02-14 13:53:00', '2024-02-14 12:53:00', '2024-02-14 11:53:00', '2024-02-14 10:53:00', '2024-02-14 09:53:00', '2024-02-14 08:53:00', '2024-02-14 07:53:00', '2024-02-14 06:53:00', '2024-02-14 05:53:00', '2024-02-14 04:53:00', '2024-02-14 03:53:00', '2024-02-14 02:53:00', '2024-02-14 01:53:00', '2024-02-14 00:53:00', '2024-02-13 23:53:00', '2024-02-13 22:53:00', '2024-02-13 21:53:00', '2024-02-13 20:53:00', '2024-02-13 19:53:00', '2024-02-13 18:53:00', '2024-02-13 17:53:00', '2024-02-13 16:53:00', '2024-02-13 15:53:00', '2024-02-13 14:53:00', '2024-02-13 13:53:00', '2024-02-13 12:53:00', '2024-02-13 11:53:00', '2024-02-13 10:53:00', '2024-02-13 09:53:00', '2024-02-13 08:53:00', '2024-02-13 07:53:00', '2024-02-13 06:53:00', '2024-02-13 05:53:00', '2024-02-13 04:53:00', '2024-02-13 03:53:00', '2024-02-13 02:53:00', '2024-02-13 01:53:00', '2024-02-13 00:53:00', '2024-02-12 23:53:00', '2024-02-12 22:53:00', '2024-02-12 21:53:00', '2024-02-12 20:53:00', '2024-02-12 19:53:00', '2024-02-12 18:53:00', '2024-02-12 17:53:00', '2024-02-12 16:53:00', '2024-02-12 15:53:00', '2024-02-12 14:53:00', '2024-02-12 13:53:00', '2024-02-12 12:53:00', '2024-02-12 11:53:00', '2024-02-12 10:53:00']"
United-states, Allentown Lehigh Valley International Airport (ABE/KABE) ,"['KABE 150951Z AUTO 23006KT 10SM CLR M07/M13 A3023 RMK AO2 SLP241 T10721133', 'KABE 150851Z 21005KT 10SM CLR M08/M13 A3021 RMK AO2 SLP236 T10781133 51003', 'KABE 150751Z 00000KT 10SM CLR M05/M12 A3020 RMK AO2 SLP233 T10501122', 'KABE 150651Z 26003KT 10SM CLR M04/M13 A3021 RMK AO2 SLP235 T10441128', 'KABE 150551Z 29006KT 10SM CLR M04/M13 A3020 RMK AO2 SLP232 T10391128 10000 21039 53014', 'KABE 150451Z VRB04KT 10SM CLR M03/M13 A3019 RMK AO2 SLP227 T10281133 400171039', 'KABE 150351Z 25004KT 10SM CLR M02/M13 A3018 RMK AO2 SLP223 T10221133', 'KABE 150251Z 29006KT 10SM CLR M02/M13 A3016 RMK AO2 SLP219 T10171133 53009', 'KABE 150151Z 31007KT 10SM CLR M02/M14 A3015 RMK AO2 SLP214 T10171139', 'KABE 150051Z 30007KT 10SM CLR M01/M14 A3013 RMK AO2 SLP209 T10111139', 'KABE 142351Z 29004KT 10SM CLR 00/M14 A3014 RMK AO2 SLP209 T00001139 10017 21006 53023', 'KABE 142251Z 29004KT 10SM CLR 01/M13 A3011 RMK AO2 SLP202 T00061133', 'KABE 142151Z 29013KT 10SM CLR 01/M13 A3008 RMK AO2 SLP190 T00111133', 'KABE 142051Z 29009KT 10SM CLR 01/M12 A3007 RMK AO2 SLP185 T00111122 55001', 'KABE 141951Z 30009KT 10SM CLR 01/M12 A3006 RMK AO2 SLP181 T00111117', 'KABE 141851Z 28012KT 10SM CLR 01/M12 A3005 RMK AO2 SLP179 T00061117', 'KABE 141751Z 31014G21KT 10SM CLR 00/M11 A3007 RMK AO2 SLP187 T00001111 10000 21028 58005', 'KABE 141651Z 29013G20KT 10SM CLR M01/M12 A3009 RMK AO2 PK WND 31026/1634 SLP193 T10061117', 'KABE 141551Z 31015G21KT 10SM CLR M02/M12 A3010 RMK AO2 SLP196 T10171122', 'KABE 141451Z 30016G22KT 10SM CLR M02/M13 A3009 RMK AO2 PK WND 30028/1416 SLP192 T10221128 51024', 'KABE 141351Z 32016G24KT 10SM CLR M02/M13 A3007 RMK AO2 SLP187 T10221133', 'KABE 141251Z 30012G20KT 10SM FEW037 M02/M12 A3004 RMK AO2 SLP176 T10221117', 'KABE 141151Z 32012KT 10SM CLR M03/M11 A3001 RMK AO2 SLP168 70043 T10281106 10011 21028 53033', 'KABE 141051Z 33012KT 10SM OVC055 M02/M10 A2998 RMK AO2 SLP155 T10171100', 'KABE 140951Z 33011G17KT 10SM OVC055 M01/M09 A2994 RMK AO2 SLP143 T10061089', 'KABE 140851Z 30014KT 10SM OVC065 01/M10 A2992 RMK AO2 SLP134 T00061100 51013', 'KABE 140751Z 31007KT 10SM OVC070 01/M10 A2990 RMK AO2 SLP128 T00061100', 'KABE 140651Z 29011G17KT 10SM OVC065 01/M08 A2990 RMK AO2 SLP127 T00111078', 'KABE 140551Z AUTO 30009G19KT 10SM SCT070 01/M07 A2988 RMK AO2 PK WND 30027/0502 SLP121 T00111072 10039 20011 53017', 'KABE 140451Z 27010KT 10SM OVC070 02/M07 A2986 RMK AO2 SLP115 T00171072 400441006', 'KABE 140351Z 28007KT 10SM SCT070 02/M07 A2983 RMK AO2 SLP105 T00171072', 'KABE 140251Z 28006KT 10SM OVC070 03/M07 A2983 RMK AO2 SLP103 T00281067 51015', 'KABE 140151Z 28007KT 10SM OVC080 03/M06 A2982 RMK AO2 SLP100 T00331056', 'KABE 140051Z 26003KT 10SM OVC080 02/M04 A2979 RMK AO2 SLP092 T00221044', 'KABE 132351Z 00000KT 10SM SCT080 02/M05 A2978 RMK AO2 SLP088 T00221050 10044 20017 51032', 'KABE 132251Z 30005KT 10SM FEW080 03/M06 A2975 RMK AO2 SLP079 T00331056', 'KABE 132151Z 32011KT 10SM CLR 04/M06 A2972 RMK AO2 SLP067 T00391056', 'KABE 132051Z 31013KT 10SM CLR 04/M06 A2968 RMK AO2 SLP055 T00441056 53023', 'KABE 131951Z AUTO 33011KT 10SM FEW045 04/M04 A2966 RMK AO2 SLP047 T00391044', 'KABE 131851Z 32016KT 10SM BKN039 03/M04 A2964 RMK AO2 SLP040 T00331039', 'KABE 131751Z 31013KT 10SM CLR 02/M03 A2962 RMK AO2 SLP032 60043 T00221033 10022 21006 53011', 'KABE 131706Z 32010KT 10SM BKN032 02/M02 A2960 RMK AO2 T00171022', 'KABE 131651Z 31009KT 10SM BKN029 OVC036 01/M02 A2960 RMK AO2 SNE1552 SLP028 P0000 T00111017', 'KABE 131551Z 32006KT 9SM -SN FEW011 OVC025 00/M02 A2958 RMK AO2 SLP021 P0005 T00001017', 'KABE 131451Z 32004KT 1/2SM SN FZFG VV008 M01/M01 A2956 RMK AO2 SLP014 P0009 60038 T10061011 51028', 'KABE 131351Z 36007KT 1/2SM SN FZFG VV007 M01/M02 A2953 RMK AO2 SLP003 P0013 T10061017', 'KABE 131304Z 36012KT 1/4SM +SN FZFG VV005 M01/M02 A2953 RMK AO2 P0003 T10061017', 'KABE 131251Z 01009KT 1/4SM +SN FZFG VV004 M01/M02 A2953 RMK AO2 SLP003 P0016 T10061017', 'KABE 131151Z 03014G22KT 3/4SM -SN BR VV005 M01/M02 A2948 RMK AO2 SLP986 P0015 60059 70060 T10061017 10028 21006 58021', 'KABE 131051Z 04011KT 1/2SM SN FZFG VV006 M01/M02 A2954 RMK AO2 SLP006 P0011 T10061017', 'KABE 130951Z 05013KT 1 1/2SM -SN BR BKN007 OVC010 00/M02 A2954 RMK AO2 SLP006 P0008 T00001017', 'KABE 130851Z 05014KT 1 1/4SM -SN BR BKN005 OVC009 00/M02 A2954 RMK AO2 SLP006 P0010 60025 T00001017 58034', 'KABE 130802Z 05013KT 1 1/4SM -SN BR BKN005 OVC011 00/M01 A2959 RMK AO2 P0002 T00001011', 'KABE 130751Z 05013KT 1SM -SN BR SCT005 OVC011 00/M01 A2960 RMK AO2 SLP026 P0010 T00001011', 'KABE 130720Z 04012KT 1 1/4SM -SN BR FEW004 OVC013 00/M01 A2963 RMK AO2 P0006 T00001011', 'KABE 130651Z 03011KT 3SM -SN BR BKN027 OVC041 01/M01 A2964 RMK AO2 RAE33SNB33 SLP038 P0005 T00061011', 'KABE 130551Z 05010KT 10SM -RA BKN022 OVC048 03/M01 A2964 RMK AO2 SLP041 P0001 60001 T00281006 10072 20028 56041', 'KABE 130451Z 07011KT 10SM -RA OVC070 04/M01 A2968 RMK AO2 RAB22 SLP053 P0000 T00391011 400831017', 'KABE 130351Z 05011KT 10SM OVC060 04/M02 A2972 RMK AO2 SLP067 T00441022', 'KABE 130251Z 05011KT 10SM OVC060 06/M02 A2977 RMK AO2 SLP082 T00561017 58010', 'KABE 130151Z 06008KT 10SM OVC060 06/M01 A2979 RMK AO2 SLP090 T00561006', 'KABE 130051Z 10004KT 10SM OVC065 07/M01 A2979 RMK AO2 SLP091 T00671006', 'KABE 122351Z 09004KT 10SM BKN075 07/M01 A2980 RMK AO2 SLP094 T00671006 10083 20044 58005', 'KABE 122251Z 05004KT 10SM FEW070 OVC110 06/M01 A2981 RMK AO2 SLP099 T00561006', 'KABE 122151Z 09003KT 10SM SCT100 08/M01 A2982 RMK AO2 SLP099 T00781006', 'KABE 122051Z 00000KT 10SM CLR 08/M01 A2982 RMK AO2 SLP098 T00831006 58013', 'KABE 121951Z 04004KT 10SM CLR 08/M01 A2983 RMK AO2 SLP103 T00831011', 'KABE 121851Z 24003KT 10SM CLR 07/M01 A2986 RMK AO2 SLP115 T00721011', 'KABE 121751Z 00000KT 10SM CLR 07/M01 A2985 RMK AO2 SLP112 T00721011 10072 21017 58033', 'KABE 121651Z 00000KT 10SM CLR 06/M02 A2990 RMK AO2 SLP127 T00611017', 'KABE 121551Z 08004KT 10SM CLR 05/M02 A2993 RMK AO2 SLP137 T00501017', 'KABE 121451Z 06004KT 10SM CLR 03/M02 A2995 RMK AO2 SLP144 T00331017 51009', 'KABE 121351Z 00000KT 10SM CLR 02/M02 A2995 RMK AO2 SLP146 T00171017', 'KABE 121251Z 00000KT 10SM CLR M01/M03 A2994 RMK AO2 SLP142 T10061028', 'KABE 121151Z 35003KT 10SM CLR M02/M04 A2992 RMK AO2 SLP136 T10171039 10028 21017 50004', 'KABE 121051Z 32003KT 10SM CLR M01/M04 A2993 RMK AO2 SLP139 T10111039']","['2024-02-15 09:51:00', '2024-02-15 08:51:00', '2024-02-15 07:51:00', '2024-02-15 06:51:00', '2024-02-15 05:51:00', '2024-02-15 04:51:00', '2024-02-15 03:51:00', '2024-02-15 02:51:00', '2024-02-15 01:51:00', '2024-02-15 00:51:00', '2024-02-14 23:51:00', '2024-02-14 22:51:00', '2024-02-14 21:51:00', '2024-02-14 20:51:00', '2024-02-14 19:51:00', '2024-02-14 18:51:00', '2024-02-14 17:51:00', '2024-02-14 16:51:00', '2024-02-14 15:51:00', '2024-02-14 14:51:00', '2024-02-14 13:51:00', '2024-02-14 12:51:00', '2024-02-14 11:51:00', '2024-02-14 10:51:00', '2024-02-14 09:51:00', '2024-02-14 08:51:00', '2024-02-14 07:51:00', '2024-02-14 06:51:00', '2024-02-14 05:51:00', '2024-02-14 04:51:00', '2024-02-14 03:51:00', '2024-02-14 02:51:00', '2024-02-14 01:51:00', '2024-02-14 00:51:00', '2024-02-13 23:51:00', '2024-02-13 22:51:00', '2024-02-13 21:51:00', '2024-02-13 20:51:00', '2024-02-13 19:51:00', '2024-02-13 18:51:00', '2024-02-13 17:51:00', '2024-02-13 17:06:00', '2024-02-13 16:51:00', '2024-02-13 15:51:00', '2024-02-13 14:51:00', '2024-02-13 13:51:00', '2024-02-13 13:04:00', '2024-02-13 12:51:00', '2024-02-13 11:51:00', '2024-02-13 10:51:00', '2024-02-13 09:51:00', '2024-02-13 08:51:00', '2024-02-13 08:02:00', '2024-02-13 07:51:00', '2024-02-13 07:20:00', '2024-02-13 06:51:00', '2024-02-13 05:51:00', '2024-02-13 04:51:00', '2024-02-13 03:51:00', '2024-02-13 02:51:00', '2024-02-13 01:51:00', '2024-02-13 00:51:00', '2024-02-12 23:51:00', '2024-02-12 22:51:00', '2024-02-12 21:51:00', '2024-02-12 20:51:00', '2024-02-12 19:51:00', '2024-02-12 18:51:00', '2024-02-12 17:51:00', '2024-02-12 16:51:00', '2024-02-12 15:51:00', '2024-02-12 14:51:00', '2024-02-12 13:51:00', '2024-02-12 12:51:00', '2024-02-12 11:51:00', '2024-02-12 10:51:00']"
United-states, Alliance Municipal Airport (AIA/KAIA) ,"['KAIA 150953Z AUTO 15007KT 10SM OVC007 M04/M05 A3008 RMK AO2 SLP219 T10391050', 'KAIA 150853Z AUTO 17005KT 10SM OVC007 M04/M05 A3009 RMK AO2 SLP223 T10441050 55002', 'KAIA 150753Z AUTO 16008KT 10SM OVC007 M04/M05 A3009 RMK AO2 SLP223 T10441050', 'KAIA 150653Z AUTO 10008KT 10SM OVC007 M04/M06 A3010 RMK AO2 SLP226 T10441056 400111050', 'KAIA 150600Z AUTO 08007KT 10SM OVC010 M04/M06 A3010 RMK AO2 T10441056', 'KAIA 150553Z AUTO 09007KT 10SM OVC009 M04/M06 A3010 RMK AO2 SLP226 T10441056 11028 21044 51004', 'KAIA 150453Z AUTO 07005KT 10SM OVC008 M04/M06 A3010 RMK AO2 SLP224 T10391056', 'KAIA 150417Z AUTO 05007KT 10SM OVC010 M04/M06 A3010 RMK AO2 T10391056', 'KAIA 150353Z AUTO 03006KT 10SM OVC009 M04/M06 A3010 RMK AO2 SLP225 T10391056', 'KAIA 150302Z AUTO 04008KT 10SM OVC009 M04/M06 A3009 RMK AO2 T10391056', 'KAIA 150253Z AUTO 04006KT 10SM OVC010 M04/M05 A3009 RMK AO2 SLP225 T10391050 51013', 'KAIA 150153Z AUTO 05008KT 10SM OVC008 M04/M05 A3007 RMK AO2 SLP223 T10391050', 'KAIA 150053Z AUTO 05010KT 10SM OVC009 M03/M04 A3006 RMK AO2 CIG 007V013 SLP215 T10331044', 'KAIA 142353Z AUTO 02012KT 10SM OVC007 M03/M04 A3004 RMK AO2 SLP206 T10281039 11006 21028 51029', 'KAIA 142253Z AUTO 02014G18KT 10SM OVC007 M02/M04 A3001 RMK AO2 SLP193 T10221039', 'KAIA 142153Z AUTO 35012G20KT 10SM OVC009 M02/M03 A2999 RMK AO2 CIG 007V011 SLP182 T10171033', 'KAIA 142053Z AUTO 35015KT 10SM OVC008 M01/M03 A2995 RMK AO2 SLP168 T10111033 53005', 'KAIA 141953Z AUTO 36018G24KT 10SM OVC008 M02/M03 A2994 RMK AO2 SLP161 T10171033', 'KAIA 141853Z AUTO 35015KT 10SM OVC007 M01/M03 A2993 RMK AO2 SLP158 T10111028', 'KAIA 141753Z AUTO 35016KT 10SM OVC007 M01/M02 A2993 RMK AO2 SLP158 T10111022 11006 21050 51022', 'KAIA 141706Z AUTO 34014G23KT 10SM OVC005 M01/M02 A2991 RMK AO2 T10111017', 'KAIA 141653Z AUTO 35016G22KT 10SM OVC003 M01/M02 A2991 RMK AO2 SLP158 T10111017', 'KAIA 141624Z AUTO 35012KT 1SM BR BKN002 M03/M03 A2990 RMK AO2 T10281028', 'KAIA 141553Z AUTO 34009KT 10SM CLR M02/M04 A2988 RMK AO2 SLP150 T10221039', 'KAIA 141453Z AUTO 24003KT 10SM CLR M04/M05 A2986 RMK AO2 SLP142 T10391050 53001', 'KAIA 141353Z AUTO 30004KT 10SM CLR M05/M06 A2984 RMK AO2 SLP134 T10501061', 'KAIA 141253Z AUTO 15007KT 10SM CLR M04/M06 A2983 RMK AO2 SLP129 T10441061', 'KAIA 141153Z AUTO 19005KT 10SM CLR M03/M06 A2985 RMK AO2 SLP125 T10281056 10011 21033 55011', 'KAIA 141053Z AUTO 14008KT 10SM BKN110 M02/M04 A2984 RMK AO2 SLP116 T10221044', 'KAIA 140953Z AUTO 14010KT 10SM FEW110 M02/M05 A2986 RMK AO2 SLP122 T10221050', 'KAIA 140853Z AUTO 12005KT 10SM BKN110 M02/M04 A2989 RMK AO2 SLP130 T10221039 58008', 'KAIA 140753Z AUTO 15003KT 10SM OVC100 01/M02 A2991 RMK AO2 SLP136 T00061022', 'KAIA 140653Z AUTO 17007KT 10SM OVC085 01/M02 A2992 RMK AO2 SLP141 T00111022 400891072', 'KAIA 140553Z AUTO 13005KT 10SM BKN100 M01/M02 A2992 RMK AO2 SLP143 T10061022 10044 21044 58001', 'KAIA 140453Z AUTO 11007KT 10SM SCT100 M04/M06 A2992 RMK AO2 SLP151 T10391056', 'KAIA 140353Z AUTO 00000KT 10SM CLR M03/M06 A2992 RMK AO2 SLP157 T10331061', 'KAIA 140253Z AUTO 17006KT 10SM CLR M03/M06 A2992 RMK AO2 SLP162 T10281061 50000', 'KAIA 140153Z AUTO 14005KT 10SM SCT100 01/M04 A2993 RMK AO2 SLP167 T00061044', 'KAIA 140053Z AUTO 18007KT 10SM SCT120 01/M04 A2993 RMK AO2 SLP162 T00061044', 'KAIA 132353Z AUTO 20009KT 10SM CLR 05/M04 A2992 RMK AO2 SLP152 T00501044 10089 20044 53003', 'KAIA 132253Z AUTO 22003KT 10SM CLR 07/M07 A2991 RMK AO2 SLP149 T00721067', 'KAIA 132153Z AUTO VRB05KT 10SM CLR 09/M08 A2991 RMK AO2 SLP145 T00891078', 'KAIA 132053Z AUTO 26005KT 10SM CLR 08/M06 A2991 RMK AO2 SLP143 T00831061 56022', 'KAIA 131953Z AUTO 25005KT 10SM CLR 07/M04 A2993 RMK AO2 SLP152 T00721044', 'KAIA 131853Z AUTO 28009KT 10SM CLR 06/M05 A2996 RMK AO2 SLP162 T00611050', 'KAIA 131753Z AUTO 27006KT 10SM CLR 06/M05 A2998 RMK AO2 SLP169 T00561050 10056 21067 50005', 'KAIA 131653Z AUTO 23007KT 10SM CLR 04/M05 A2998 RMK AO2 SLP173 T00391050', 'KAIA 131553Z AUTO 26010KT 10SM CLR 01/M05 A2998 RMK AO2 SLP174 T00061050', 'KAIA 131453Z AUTO 29009KT 10SM CLR M03/M06 A2996 RMK AO2 SLP174 T10281056 53010', 'KAIA 131353Z AUTO 27004KT 10SM CLR M06/M07 A2995 RMK AO2 SLP172 T10611072', 'KAIA 131253Z AUTO 29009KT 10SM CLR M04/M06 A2993 RMK AO2 SLP158 T10391061', 'KAIA 131153Z AUTO 28010KT 10SM CLR M06/M08 A2993 RMK AO2 SLP156 T10561078 11028 21072 53003', 'KAIA 131053Z AUTO 23006KT 10SM CLR M07/M09 A2993 RMK AO2 SLP155 T10721089', 'KAIA 130953Z AUTO 27005KT 10SM CLR M06/M08 A2992 RMK AO2 SLP152 T10561078', 'KAIA 130853Z AUTO 26009KT 10SM CLR M05/M07 A2992 RMK AO2 SLP151 T10501067 53008', 'KAIA 130753Z AUTO 25008KT 10SM CLR M04/M06 A2990 RMK AO2 SLP145 T10441056', 'KAIA 130653Z AUTO 27009KT 10SM CLR M04/M05 A2990 RMK AO2 SLP143 T10391050 400721122', 'KAIA 130553Z AUTO 25007KT 10SM BKN065 M03/M04 A2989 RMK AO2 SLP143 T10281044 10044 21056 55000', 'KAIA 130453Z AUTO 30003KT 10SM CLR M03/M04 A2989 RMK AO2 SLP144 T10281039', 'KAIA 130353Z AUTO 25004KT 10SM OVC075 M01/M03 A2989 RMK AO2 SLP149 T10111028', 'KAIA 130253Z AUTO 16003KT 10SM BKN070 M01/M03 A2989 RMK AO2 SLP155 T10061033 50002', 'KAIA 130153Z AUTO 21005KT 10SM BKN100 01/M03 A2990 RMK AO2 SLP158 T00061028', 'KAIA 130053Z AUTO 15004KT 10SM BKN095 02/M03 A2990 RMK AO2 SLP156 T00221033', 'KAIA 122353Z AUTO 12003KT 10SM CLR 05/M03 A2989 RMK AO2 SLP153 T00501028 10072 20028 55004', 'KAIA 122253Z AUTO VRB04KT 10SM BKN100 07/M03 A2988 RMK AO2 SLP150 T00671033', 'KAIA 122153Z AUTO 34003KT 10SM OVC100 07/M04 A2990 RMK AO2 SLP152 T00671039', 'KAIA 122053Z AUTO 00000KT 10SM BKN100 06/M04 A2990 RMK AO2 SLP154 T00611039 56021', 'KAIA 121953Z AUTO 29003KT 10SM CLR 06/M04 A2992 RMK AO2 SLP161 T00561044', 'KAIA 121853Z AUTO 26004KT 10SM FEW085 04/M04 A2994 RMK AO2 SLP170 T00441044', 'KAIA 121753Z AUTO 27006KT 10SM FEW080 03/M04 A2997 RMK AO2 SLP183 T00281044 10028 21117 58001', 'KAIA 121653Z AUTO 27008KT 10SM OVC085 02/M05 A2997 RMK AO2 SLP188 T00171050', 'KAIA 121553Z AUTO 24006KT 10SM CLR M02/M07 A2998 RMK AO2 SLP194 T10221067', 'KAIA 121453Z AUTO 25003KT 10SM BKN100 M06/M08 A2997 RMK AO2 SLP192 T10611078 55002', 'KAIA 121353Z AUTO 17003KT 10SM BKN085 M08/M10 A2997 RMK AO2 SLP195 T10831100', 'KAIA 121253Z AUTO 21003KT 10SM OVC100 M09/M11 A2998 RMK AO2 SLP194 T10891111', 'KAIA 121153Z AUTO 26004KT 10SM CLR M12/M13 A2998 RMK AO2 SLP191 T11171133 11100 21122 56005 $', 'KAIA 121053Z AUTO 25007KT 10SM CLR M12/M14 A2999 RMK AO2 SLP194 T11221139 $']","['2024-02-15 09:53:00', '2024-02-15 08:53:00', '2024-02-15 07:53:00', '2024-02-15 06:53:00', '2024-02-15 06:00:00', '2024-02-15 05:53:00', '2024-02-15 04:53:00', '2024-02-15 04:17:00', '2024-02-15 03:53:00', '2024-02-15 03:02:00', '2024-02-15 02:53:00', '2024-02-15 01:53:00', '2024-02-15 00:53:00', '2024-02-14 23:53:00', '2024-02-14 22:53:00', '2024-02-14 21:53:00', '2024-02-14 20:53:00', '2024-02-14 19:53:00', '2024-02-14 18:53:00', '2024-02-14 17:53:00', '2024-02-14 17:06:00', '2024-02-14 16:53:00', '2024-02-14 16:24:00', '2024-02-14 15:53:00', '2024-02-14 14:53:00', '2024-02-14 13:53:00', '2024-02-14 12:53:00', '2024-02-14 11:53:00', '2024-02-14 10:53:00', '2024-02-14 09:53:00', '2024-02-14 08:53:00', '2024-02-14 07:53:00', '2024-02-14 06:53:00', '2024-02-14 05:53:00', '2024-02-14 04:53:00', '2024-02-14 03:53:00', '2024-02-14 02:53:00', '2024-02-14 01:53:00', '2024-02-14 00:53:00', '2024-02-13 23:53:00', '2024-02-13 22:53:00', '2024-02-13 21:53:00', '2024-02-13 20:53:00', '2024-02-13 19:53:00', '2024-02-13 18:53:00', '2024-02-13 17:53:00', '2024-02-13 16:53:00', '2024-02-13 15:53:00', '2024-02-13 14:53:00', '2024-02-13 13:53:00', '2024-02-13 12:53:00', '2024-02-13 11:53:00', '2024-02-13 10:53:00', '2024-02-13 09:53:00', '2024-02-13 08:53:00', '2024-02-13 07:53:00', '2024-02-13 06:53:00', '2024-02-13 05:53:00', '2024-02-13 04:53:00', '2024-02-13 03:53:00', '2024-02-13 02:53:00', '2024-02-13 01:53:00', '2024-02-13 00:53:00', '2024-02-12 23:53:00', '2024-02-12 22:53:00', '2024-02-12 21:53:00', '2024-02-12 20:53:00', '2024-02-12 19:53:00', '2024-02-12 18:53:00', '2024-02-12 17:53:00', '2024-02-12 16:53:00', '2024-02-12 15:53:00', '2024-02-12 14:53:00', '2024-02-12 13:53:00', '2024-02-12 12:53:00', '2024-02-12 11:53:00', '2024-02-12 10:53:00']"
United-states, Alpena County Regional Airport (APN/KAPN) ,"['KAPN 150954Z AUTO 21009KT 7SM -SN OVC037 01/M06 A2998 RMK AO2 SNB51 SLP161 P0000 T00061056', 'KAPN 150854Z AUTO 19003KT 10SM BKN047 OVC055 00/M06 A3001 RMK AO2 SLP170 T00001061 58019', 'KAPN 150754Z AUTO 15003KT 10SM OVC048 M01/M06 A3004 RMK AO2 SLP182 T10111056', 'KAPN 150654Z AUTO 14004KT 10SM BKN047 OVC055 M02/M06 A3005 RMK AO2 SLP186 T10171056', 'KAPN 150554Z AUTO 12004KT 10SM OVC050 M02/M06 A3006 RMK AO2 SLP190 T10171061 11017 21044 56016', 'KAPN 150454Z AUTO 15004KT 10SM BKN047 OVC065 M02/M06 A3008 RMK AO2 SLP195 T10221061 400061094', 'KAPN 150354Z AUTO 13003KT 10SM FEW050 OVC065 M02/M07 A3009 RMK AO2 SLP201 T10221067', 'KAPN 150254Z AUTO 16006KT 10SM FEW050 OVC065 M03/M07 A3011 RMK AO2 SLP208 T10281067 58016', 'KAPN 150154Z AUTO 14004KT 10SM SCT043 BKN050 M04/M07 A3014 RMK AO2 SLP217 T10391072', 'KAPN 150054Z AUTO 15007KT 10SM FEW045 OVC065 M02/M07 A3015 RMK AO2 SLP221 T10221072', 'KAPN 142354Z AUTO 16008KT 10SM BKN046 M03/M08 A3016 RMK AO2 SLP226 T10281078 10006 21033 55004', 'KAPN 142254Z AUTO 13008KT 10SM OVC075 M02/M08 A3015 RMK AO2 SLP221 T10221078', 'KAPN 142154Z AUTO 19004KT 10SM SCT045 OVC080 00/M09 A3016 RMK AO2 SLP226 T00001094', 'KAPN 142054Z AUTO VRB03KT 10SM SCT045 OVC080 00/M10 A3017 RMK AO2 SLP227 T00001100 58013', 'KAPN 141954Z AUTO 29005KT 10SM FEW047 OVC085 00/M10 A3018 RMK AO2 SLP231 T00001100', 'KAPN 141854Z AUTO VRB03KT 10SM OVC043 M01/M11 A3020 RMK AO2 SLP238 T10061106', 'KAPN 141754Z AUTO VRB04KT 10SM FEW044 M01/M11 A3021 RMK AO2 SLP240 T10111106 11006 21094 58006', 'KAPN 141654Z AUTO 10SM CLR M02/M11 A3023 RMK AO2 SLP249 T10221111', 'KAPN 141554Z AUTO 21003KT 10SM CLR M04/M12 A3023 RMK AO2 SLP249 T10391117', 'KAPN 141454Z AUTO 27004KT 10SM CLR M05/M11 A3023 RMK AO2 SLP247 T10501111 50008', 'KAPN 141354Z AUTO 26005KT 10SM CLR M07/M11 A3023 RMK AO2 SLP250 T10721111', 'KAPN 141254Z AUTO 24003KT 10SM CLR M09/M12 A3021 RMK AO2 SLP243 T10891117', 'KAPN 141154Z AUTO 27004KT 10SM CLR M08/M11 A3020 RMK AO2 SLP240 70001 T10831111 11050 21089 51016', 'KAPN 141109Z AUTO 27003KT 10SM SCT018 BKN033 M07/M11 A3019 RMK AO2 T10721111', 'KAPN 141054Z AUTO 28003KT 10SM BKN018 OVC033 M07/M11 A3019 RMK AO2 SLP234 T10671106', 'KAPN 140954Z AUTO 29003KT 10SM BKN019 OVC035 M07/M11 A3017 RMK AO2 SLP228 T10671106', 'KAPN 140911Z AUTO 00000KT 10SM BKN021 OVC038 M06/M11 A3016 RMK AO2 T10611106', 'KAPN 140854Z AUTO 30004KT 10SM SCT021 SCT031 OVC038 M06/M11 A3015 RMK AO2 SLP222 T10611106 51011', 'KAPN 140754Z AUTO 31005KT 10SM OVC038 M06/M11 A3015 RMK AO2 SLP221 T10561106', 'KAPN 140654Z AUTO 31004KT 10SM OVC036 M05/M12 A3013 RMK AO2 SLP215 T10501122', 'KAPN 140554Z AUTO 32005KT 10SM OVC041 M05/M11 A3012 RMK AO2 SLP211 T10501106 11033 21050 51013', 'KAPN 140454Z AUTO 29005KT 10SM OVC039 M04/M11 A3011 RMK AO2 SLP207 T10441106 410061044', 'KAPN 140354Z AUTO 31007KT 10SM OVC039 M04/M11 A3010 RMK AO2 SLP203 T10441111', 'KAPN 140254Z AUTO 33011KT 10SM OVC042 M04/M11 A3008 RMK AO2 SLP196 T10391111 51016', 'KAPN 140154Z AUTO 32007KT 10SM OVC045 M04/M09 A3007 RMK AO2 SLP193 T10391094', 'KAPN 140054Z AUTO 32006KT 10SM OVC049 M04/M11 A3006 RMK AO2 SLP188 T10391111', 'KAPN 132354Z AUTO 33008KT 10SM OVC055 M03/M11 A3003 RMK AO2 SLP180 60000 T10331111 11017 21033 53020', 'KAPN 132254Z AUTO 32006KT 10SM FEW043 OVC055 M03/M10 A3001 RMK AO2 SLP172 T10281100', 'KAPN 132154Z AUTO 34009KT 10SM OVC050 M03/M09 A2998 RMK AO2 SLP164 T10281094', 'KAPN 132054Z AUTO 34008KT 10SM FEW028 OVC055 M03/M07 A2997 RMK AO2 SNB37E48 SLP160 P0000 60000 T10281072 53014', 'KAPN 131954Z AUTO 33010KT 10SM FEW035 OVC049 M02/M08 A2995 RMK AO2 SLP152 T10221083', 'KAPN 131854Z AUTO 33010KT 10SM FEW034 BKN045 OVC050 M02/M08 A2994 RMK AO2 SLP147 T10221083', 'KAPN 131754Z AUTO 33012KT 9SM SCT024 BKN031 OVC055 M02/M07 A2993 RMK AO2 SNB43E52 SLP146 P0000 60001 T10221067 11017 21028 51021', 'KAPN 131654Z AUTO 34014KT 10SM OVC019 M02/M06 A2993 RMK AO2 SNB06E26 SLP145 P0000 T10221061', 'KAPN 131554Z AUTO 35012KT 10SM OVC018 M02/M06 A2990 RMK AO2 SLP134 T10221056', 'KAPN 131518Z AUTO 36011KT 10SM BKN020 OVC055 M02/M06 A2988 RMK AO2 T10221056', 'KAPN 131454Z AUTO 35011KT 10SM BKN012 BKN017 OVC055 M02/M04 A2987 RMK AO2 SNE37 SLP124 P0001 60001 T10221044 53016', 'KAPN 131421Z AUTO 35010KT 5SM -SN BR OVC017 M02/M04 A2985 RMK AO2 VIS 2 1/2 RY 19 P0001 T10221039', 'KAPN 131356Z AUTO 34008G14KT 3SM -SN BR BKN011 OVC019 M02/M03 A2984 RMK AO2 P0000 T10171033', 'KAPN 131325Z AUTO 32007KT 10SM SCT016 BKN028 OVC055 M02/M04 A2983 RMK AO2 VIS 2 1/2 RY 19 T10171039', 'KAPN 131254Z AUTO 31007KT 10SM OVC060 M02/M04 A2982 RMK AO2 SLP106 T10171039', 'KAPN 131154Z AUTO 31007KT 10SM FEW013 OVC060 M02/M04 A2980 RMK AO2 SNE19 SLP101 P0001 60003 70003 T10171039 11006 21017 51008', 'KAPN 131126Z AUTO 31009G16KT 10SM FEW009 BKN050 OVC065 M02/M03 A2980 RMK AO2 SNE19 P0001 T10171028', 'KAPN 131054Z AUTO 31007KT 2 1/2SM -SN BR SCT017 BKN038 OVC045 M02/M03 A2980 RMK AO2 VIS 1 3/4 RY 19 SNB12 SLP099 P0002 T10171028', 'KAPN 131027Z AUTO 30005KT 3/4SM -SN BR BKN012 BKN024 OVC036 M02/M03 A2980 RMK AO2 SNB12 P0001 T10171028', 'KAPN 130954Z AUTO 31005KT 10SM SCT028 BKN037 M02/M04 A2979 RMK AO2 SLP095 T10171044', 'KAPN 130919Z AUTO 31007KT 10SM FEW023 BKN033 M02/M04 A2978 RMK AO2 T10171044', 'KAPN 130854Z AUTO 32007G15KT 10SM OVC022 M01/M04 A2978 RMK AO2 SLP092 T10111044 53008', 'KAPN 130754Z AUTO 31008KT 10SM OVC022 M01/M04 A2977 RMK AO2 SLP089 T10061039', 'KAPN 130654Z AUTO 30007KT 10SM BKN024 M01/M03 A2975 RMK AO2 SLP083 T10111033', 'KAPN 130554Z AUTO 27003KT 10SM BKN032 M01/M03 A2975 RMK AO2 SLP083 60000 T10111028 10028 21011 53003', 'KAPN 130454Z AUTO 28004KT 10SM FEW014 SCT028 M01/M03 A2974 RMK AO2 SLP079 T10111028 400441039', 'KAPN 130354Z AUTO 32011G17KT 10SM OVC016 M01/M02 A2973 RMK AO2 SLP076 T10061022', 'KAPN 130254Z AUTO 30004KT 10SM FEW019 SCT043 00/M01 A2974 RMK AO2 SNE26 SLP081 P0000 60000 T00001011 56011', 'KAPN 130154Z AUTO 28005KT 4SM -SN BR FEW016 SCT022 OVC027 01/M01 A2976 RMK AO2 VIS 2 RY 19 SNB24 SLP086 P0000 T00111006', 'KAPN 130054Z AUTO 23003KT 10SM SCT055 OVC075 03/M04 A2975 RMK AO2 SLP084 T00281044', 'KAPN 122354Z AUTO 00000KT 10SM OVC046 02/M04 A2978 RMK AO2 SLP092 T00221039 10044 20022 53005', 'KAPN 122254Z AUTO 14003KT 10SM BKN049 OVC075 02/M03 A2978 RMK AO2 SLP091 T00221033', 'KAPN 122154Z AUTO 19003KT 10SM OVC049 04/M06 A2977 RMK AO2 SLP087 T00391056', 'KAPN 122054Z AUTO 26004KT 10SM SCT048 OVC060 04/M06 A2976 RMK AO2 SLP087 T00391061 56020', 'KAPN 121954Z AUTO 20006KT 10SM BKN055 OVC090 04/M07 A2977 RMK AO2 SLP089 T00391067', 'KAPN 121854Z AUTO 22004KT 10SM FEW065 OVC090 04/M06 A2980 RMK AO2 SLP099 T00391061', 'KAPN 121754Z AUTO 25006KT 10SM OVC090 03/M06 A2982 RMK AO2 SLP107 T00331061 10033 21039 58016', 'KAPN 121654Z AUTO 26006KT 10SM OVC095 02/M06 A2985 RMK AO2 SLP116 T00221061', 'KAPN 121554Z AUTO 22008KT 10SM SCT100 01/M05 A2986 RMK AO2 SLP119 T00111050', 'KAPN 121454Z AUTO 23007KT 10SM CLR M01/M05 A2987 RMK AO2 SLP124 T10111050 58003', 'KAPN 121354Z AUTO 21006KT 10SM FEW100 M03/M06 A2988 RMK AO2 SLP128 T10281056', 'KAPN 121254Z AUTO 20005KT 10SM CLR M04/M06 A2989 RMK AO2 SLP130 T10391061', 'KAPN 121154Z AUTO 20006KT 10SM OVC100 M03/M06 A2988 RMK AO2 SLP128 T10331061 11028 21039 58009', 'KAPN 121054Z AUTO 20006KT 10SM CLR M03/M06 A2989 RMK AO2 SLP133 T10281061']","['2024-02-15 09:54:00', '2024-02-15 08:54:00', '2024-02-15 07:54:00', '2024-02-15 06:54:00', '2024-02-15 05:54:00', '2024-02-15 04:54:00', '2024-02-15 03:54:00', '2024-02-15 02:54:00', '2024-02-15 01:54:00', '2024-02-15 00:54:00', '2024-02-14 23:54:00', '2024-02-14 22:54:00', '2024-02-14 21:54:00', '2024-02-14 20:54:00', '2024-02-14 19:54:00', '2024-02-14 18:54:00', '2024-02-14 17:54:00', '2024-02-14 16:54:00', '2024-02-14 15:54:00', '2024-02-14 14:54:00', '2024-02-14 13:54:00', '2024-02-14 12:54:00', '2024-02-14 11:54:00', '2024-02-14 11:09:00', '2024-02-14 10:54:00', '2024-02-14 09:54:00', '2024-02-14 09:11:00', '2024-02-14 08:54:00', '2024-02-14 07:54:00', '2024-02-14 06:54:00', '2024-02-14 05:54:00', '2024-02-14 04:54:00', '2024-02-14 03:54:00', '2024-02-14 02:54:00', '2024-02-14 01:54:00', '2024-02-14 00:54:00', '2024-02-13 23:54:00', '2024-02-13 22:54:00', '2024-02-13 21:54:00', '2024-02-13 20:54:00', '2024-02-13 19:54:00', '2024-02-13 18:54:00', '2024-02-13 17:54:00', '2024-02-13 16:54:00', '2024-02-13 15:54:00', '2024-02-13 15:18:00', '2024-02-13 14:54:00', '2024-02-13 14:21:00', '2024-02-13 13:56:00', '2024-02-13 13:25:00', '2024-02-13 12:54:00', '2024-02-13 11:54:00', '2024-02-13 11:26:00', '2024-02-13 10:54:00', '2024-02-13 10:27:00', '2024-02-13 09:54:00', '2024-02-13 09:19:00', '2024-02-13 08:54:00', '2024-02-13 07:54:00', '2024-02-13 06:54:00', '2024-02-13 05:54:00', '2024-02-13 04:54:00', '2024-02-13 03:54:00', '2024-02-13 02:54:00', '2024-02-13 01:54:00', '2024-02-13 00:54:00', '2024-02-12 23:54:00', '2024-02-12 22:54:00', '2024-02-12 21:54:00', '2024-02-12 20:54:00', '2024-02-12 19:54:00', '2024-02-12 18:54:00', '2024-02-12 17:54:00', '2024-02-12 16:54:00', '2024-02-12 15:54:00', '2024-02-12 14:54:00', '2024-02-12 13:54:00', '2024-02-12 12:54:00', '2024-02-12 11:54:00', '2024-02-12 10:54:00']"
United-states, Alton St. Louis Regional Airport (ALN/KALN) ,"['KALN 150955Z AUTO 20008KT 10SM TS SCT070 BKN110 09/03 A2993 RMK AO2 LTG DSNT SW T00880025', 'KALN 150915Z AUTO 19011G16KT 10SM OVC100 10/03 A2993 RMK AO2 T00970025', 'KALN 150855Z AUTO 20011G18KT 10SM SCT100 10/03 A2993 RMK AO2 T01000025', 'KALN 150815Z AUTO 19013G17KT 10SM CLR 10/02 A2995 RMK AO2 T00950023', 'KALN 150755Z AUTO 19010KT 10SM CLR 09/02 A2996 RMK AO2 T00920022', 'KALN 150715Z AUTO 00000KT 10SM CLR 09/02 A2998 RMK AO2 LTG DSNT W T00880019', 'KALN 150655Z AUTO 18008KT 10SM CLR 09/02 A2999 RMK AO2 T00870020', 'KALN 150615Z AUTO 19011KT 10SM CLR 09/02 A3001 RMK AO2 T00900021', 'KALN 150555Z AUTO 19009KT 10SM CLR 08/02 A3001 RMK AO2 T00810022 10108 20048 401461016', 'KALN 150515Z AUTO 17011KT 10SM CLR 09/03 A3001 RMK AO2 T00860026', 'KALN 150455Z AUTO 17010KT 10SM CLR 09/03 A3003 RMK AO2 T00850026', 'KALN 150415Z AUTO 17009KT 10SM CLR 09/03 A3003 RMK AO2 T00900027', 'KALN 150350Z 17010KT 10SM CLR 07/02 A3003', 'KALN 150250Z 11010KT 10SM CLR 08/02 A3005', 'KALN 150150Z 11007KT 10SM CLR 08/02 A3005', 'KALN 150050Z 09007KT 10SM CLR 09/02 A3006', 'KALN 142350Z 10007KT 10SM CLR 11/02 A3006', 'KALN 142250Z 10008KT 10SM CLR 14/02 A3008', 'KALN 142150Z 13010KT 10SM CLR 14/02 A3008', 'KALN 142050Z 11008KT 10SM CLR 14/01 A3010', 'KALN 141950Z 12009KT 10SM CLR 14/01 A3013', 'KALN 141850Z VRB05KT 10SM CLR 12/01 A3016', 'KALN 141750Z VRB05KT 10SM CLR 11/01 A3019', 'KALN 141650Z 08003KT 10SM CLR 08/01 A3021', 'KALN 141550Z 09005KT 10SM CLR 06/00 A3021', 'KALN 141450Z 07005KT 10SM CLR 03/M01 A3021', 'KALN 141350Z VRB03KT 10SM CLR 00/M01 A3019', 'KALN 141250Z VRB03KT 10SM CLR M02/M02 A3016', 'KALN 141215Z AUTO 00000KT 10SM CLR M01/M01 A3015 RMK AO2 T10121015', 'KALN 141155Z AUTO 00000KT 10SM CLR M01/M02 A3015 RMK AO2 T10071016 10049 21007', 'KALN 141115Z AUTO 00000KT 10SM CLR 00/M02 A3015 RMK AO2 T00001016', 'KALN 141055Z AUTO 00000KT 10SM CLR 01/M02 A3014 RMK AO2 T00051016', 'KALN 141015Z AUTO 00000KT 10SM CLR 01/M02 A3012 RMK AO2 T00051016', 'KALN 140955Z AUTO 00000KT 10SM CLR 00/M02 A3012 RMK AO2 T10031021', 'KALN 140915Z AUTO 00000KT 10SM CLR 01/M02 A3011 RMK AO2 T00081020', 'KALN 140855Z AUTO 00000KT 10SM CLR 00/M03 A3011 RMK AO2 T00041026', 'KALN 140655Z AUTO 00000KT 10SM CLR 04/M01 A3007 RMK AO2 T00361011', 'KALN 140615Z AUTO 00000KT 10SM CLR 03/M01 A3007 RMK AO2 T00281013', 'KALN 140555Z AUTO 00000KT 10SM CLR 04/M01 A3007 RMK AO2 T00431006 10087 20035 401391030', 'KALN 140515Z AUTO 19008KT 10SM CLR 05/00 A3005 RMK AO2 T00451005', 'KALN 140455Z AUTO 19008KT 10SM CLR 05/00 A3005 RMK AO2 T00471005', 'KALN 140415Z AUTO 18009KT 10SM CLR 06/00 A3004 RMK AO2 T00571005', 'KALN 140350Z 19010KT 10SM CLR 05/M03 A3004', 'KALN 140250Z 00000KT 10SM CLR 05/M03 A3004', 'KALN 140150Z 14006KT 10SM CLR 05/M03 A3004', 'KALN 140050Z 14006KT 10SM CLR 07/M03 A3004', 'KALN 132350Z 15006KT 10SM CLR 09/M02 A3003', 'KALN 132250Z 21006KT 10SM CLR 13/M02 A3002', 'KALN 132150Z 17004KT 10SM CLR 13/M04 A3002', 'KALN 132050Z VRB04KT 10SM SCT100 13/M04 A3002', 'KALN 131950Z 28007KT 10SM CLR 13/M06 A3004', 'KALN 131850Z 25010KT 10SM CLR 12/M05 A3007', 'KALN 131750Z 24007KT 10SM CLR 11/M03 A3010', 'KALN 131650Z 27007KT 10SM CLR 08/M03 A3011', 'KALN 131550Z VRB05KT 10SM CLR 06/M01 A3011', 'KALN 131450Z VRB04KT 10SM CLR 03/M02 A3008', 'KALN 131350Z VRB05KT 10SM CLR 00/M02 A3006', 'KALN 131250Z 27006KT 10SM CLR M02/M04 A3005', 'KALN 131215Z AUTO 00000KT 10SM CLR M01/M03 A3003 RMK AO2 T10151032', 'KALN 131155Z AUTO 00000KT 10SM CLR M02/M03 A3002 RMK AO2 T10171035 11005 21030', 'KALN 131115Z AUTO 00000KT 10SM CLR M02/M04 A3001 RMK AO2 T10181043', 'KALN 131055Z AUTO 00000KT 10SM CLR M01/M04 A3001 RMK AO2 T10131036', 'KALN 131015Z AUTO 00000KT 10SM CLR M02/M04 A3000 RMK AO2 T10171038', 'KALN 130955Z AUTO 00000KT 10SM CLR M02/M04 A3000 RMK AO2 T10201039', 'KALN 130915Z AUTO 00000KT 10SM CLR M02/M04 A2999 RMK AO2 T10231043', 'KALN 130855Z AUTO 00000KT 10SM CLR M02/M04 A2999 RMK AO2 T10221042', 'KALN 130815Z AUTO 00000KT 10SM CLR M01/M04 A2998 RMK AO2 T10151041', 'KALN 130755Z AUTO 00000KT 10SM CLR M01/M04 A2997 RMK AO2 T10101040', 'KALN 130715Z AUTO 00000KT 10SM CLR M01/M04 A2996 RMK AO2 T10141037', 'KALN 130655Z AUTO 00000KT 10SM CLR M02/M04 A2996 RMK AO2 T10161038', 'KALN 130615Z AUTO 00000KT 10SM CLR M01/M04 A2996 RMK AO2 T10101037', 'KALN 130555Z AUTO 00000KT 10SM CLR M01/M04 A2995 RMK AO2 T10071045 10060 21012 400851013', 'KALN 130515Z AUTO 00000KT 10SM CLR M01/M04 A2995 RMK AO2 T10121045', 'KALN 130455Z AUTO 00000KT 10SM CLR M01/M04 A2994 RMK AO2 T10081043', 'KALN 130415Z AUTO 00000KT 10SM CLR 01/M04 A2995 RMK AO2 T00061045', 'KALN 130350Z 29004KT 10SM CLR 00/M04 A2994', 'KALN 130250Z 30004KT 10SM CLR 00/M03 A2991', 'KALN 130150Z 34004KT 10SM CLR 03/M04 A2990', 'KALN 130050Z 33006KT 10SM CLR 04/M04 A2986', 'KALN 122350Z 35008KT 10SM CLR 06/M03 A2984', 'KALN 122250Z 34011KT 10SM CLR 07/M03 A2982', 'KALN 122150Z 34013KT 10SM CLR 08/M03 A2981', 'KALN 122050Z 35014G21KT 10SM CLR 08/M02 A2980', 'KALN 121950Z 36012KT 10SM SCT120 07/M02 A2985', 'KALN 121850Z 02007KT 10SM SCT120 06/M02 A2988', 'KALN 121750Z 04011KT 10SM CLR 06/M02 A2990', 'KALN 121650Z 03008KT 10SM SCT100 06/M02 A2993', 'KALN 121550Z 01010KT 10SM BKN095 04/M02 A2993', 'KALN 121450Z 02008KT 10SM BKN095 02/M02 A2994', 'KALN 121350Z 01007KT 10SM CLR 00/M02 A2995', 'KALN 121250Z VRB03KT 10SM CLR M01/M03 A2996', 'KALN 121215Z AUTO 00000KT 10SM CLR 00/M02 A2997 RMK AO2 T00001022', 'KALN 121155Z AUTO 00000KT 10SM CLR 00/M02 A2996 RMK AO2 T00001021 10031 21013 TSNO', 'KALN 121115Z AUTO 00000KT 10SM CLR 00/M01 A2996 RMK AO2 T10041014', 'KALN 121055Z AUTO 00000KT 10SM CLR 00/M02 A2996 RMK AO2 T10021024', 'KALN 121015Z AUTO 00000KT 10SM CLR 01/M02 A2993 RMK AO2 T00071020']","['2024-02-15 09:55:00', '2024-02-15 09:15:00', '2024-02-15 08:55:00', '2024-02-15 08:15:00', '2024-02-15 07:55:00', '2024-02-15 07:15:00', '2024-02-15 06:55:00', '2024-02-15 06:15:00', '2024-02-15 05:55:00', '2024-02-15 05:15:00', '2024-02-15 04:55:00', '2024-02-15 04:15:00', '2024-02-15 03:50:00', '2024-02-15 02:50:00', '2024-02-15 01:50:00', '2024-02-15 00:50:00', '2024-02-14 23:50:00', '2024-02-14 22:50:00', '2024-02-14 21:50:00', '2024-02-14 20:50:00', '2024-02-14 19:50:00', '2024-02-14 18:50:00', '2024-02-14 17:50:00', '2024-02-14 16:50:00', '2024-02-14 15:50:00', '2024-02-14 14:50:00', '2024-02-14 13:50:00', '2024-02-14 12:50:00', '2024-02-14 12:15:00', '2024-02-14 11:55:00', '2024-02-14 11:15:00', '2024-02-14 10:55:00', '2024-02-14 10:15:00', '2024-02-14 09:55:00', '2024-02-14 09:15:00', '2024-02-14 08:55:00', '2024-02-14 06:55:00', '2024-02-14 06:15:00', '2024-02-14 05:55:00', '2024-02-14 05:15:00', '2024-02-14 04:55:00', '2024-02-14 04:15:00', '2024-02-14 03:50:00', '2024-02-14 02:50:00', '2024-02-14 01:50:00', '2024-02-14 00:50:00', '2024-02-13 23:50:00', '2024-02-13 22:50:00', '2024-02-13 21:50:00', '2024-02-13 20:50:00', '2024-02-13 19:50:00', '2024-02-13 18:50:00', '2024-02-13 17:50:00', '2024-02-13 16:50:00', '2024-02-13 15:50:00', '2024-02-13 14:50:00', '2024-02-13 13:50:00', '2024-02-13 12:50:00', '2024-02-13 12:15:00', '2024-02-13 11:55:00', '2024-02-13 11:15:00', '2024-02-13 10:55:00', '2024-02-13 10:15:00', '2024-02-13 09:55:00', '2024-02-13 09:15:00', '2024-02-13 08:55:00', '2024-02-13 08:15:00', '2024-02-13 07:55:00', '2024-02-13 07:15:00', '2024-02-13 06:55:00', '2024-02-13 06:15:00', '2024-02-13 05:55:00', '2024-02-13 05:15:00', '2024-02-13 04:55:00', '2024-02-13 04:15:00', '2024-02-13 03:50:00', '2024-02-13 02:50:00', '2024-02-13 01:50:00', '2024-02-13 00:50:00', '2024-02-12 23:50:00', '2024-02-12 22:50:00', '2024-02-12 21:50:00', '2024-02-12 20:50:00', '2024-02-12 19:50:00', '2024-02-12 18:50:00', '2024-02-12 17:50:00', '2024-02-12 16:50:00', '2024-02-12 15:50:00', '2024-02-12 14:50:00', '2024-02-12 13:50:00', '2024-02-12 12:50:00', '2024-02-12 12:15:00', '2024-02-12 11:55:00', '2024-02-12 11:15:00', '2024-02-12 10:55:00', '2024-02-12 10:15:00']"
United-states, Altoona Blair County Airport (AOO/KAOO) ,"['KAOO 150953Z AUTO 00000KT 10SM CLR M07/M12 A3017 RMK AO2 SLP238 T10721117', 'KAOO 150853Z AUTO 00000KT 10SM CLR M06/M12 A3019 RMK AO2 SLP243 T10611117 51002', 'KAOO 150753Z AUTO 24003KT 10SM CLR M05/M11 A3019 RMK AO2 SLP242 T10501106', 'KAOO 150653Z AUTO 00000KT 10SM CLR M06/M11 A3019 RMK AO2 SLP243 T10561111', 'KAOO 150553Z AUTO 33004KT 10SM CLR M04/M11 A3019 RMK AO2 SLP241 T10391106 11006 21039 51006', 'KAOO 150453Z AUTO 31005KT 10SM CLR M03/M11 A3019 RMK AO2 SLP241 T10331106 400111033', 'KAOO 150353Z AUTO 33006KT 10SM CLR M03/M11 A3018 RMK AO2 SLP239 T10281106', 'KAOO 150253Z AUTO 33007KT 10SM CLR M02/M11 A3017 RMK AO2 SLP235 T10171106 53003', 'KAOO 150153Z AUTO 30008KT 10SM CLR M02/M10 A3016 RMK AO2 SLP233 T10171100', 'KAOO 150053Z AUTO 33004KT 10SM CLR M02/M10 A3016 RMK AO2 SLP232 T10171100', 'KAOO 142353Z AUTO 30008KT 10SM CLR M01/M10 A3016 RMK AO2 SLP231 T10061100 10011 21006 53017', 'KAOO 142253Z AUTO 30010KT 10SM CLR 00/M09 A3013 RMK AO2 SLP220 T00001094', 'KAOO 142153Z AUTO 31011KT 10SM FEW046 01/M09 A3013 RMK AO2 SLP217 T00111089', 'KAOO 142053Z AUTO 31012G20KT 10SM CLR 01/M09 A3011 RMK AO2 SLP211 T00111089 55002', 'KAOO 141953Z AUTO 32012KT 10SM CLR 01/M09 A3009 RMK AO2 SLP205 T00111089', 'KAOO 141853Z AUTO 32013G21KT 10SM CLR 01/M09 A3010 RMK AO2 SLP210 T00061094', 'KAOO 141753Z AUTO 30012KT 10SM SCT041 00/M09 A3011 RMK AO2 SLP212 T00001094 10000 21028 58009', 'KAOO 141653Z AUTO 32013G25KT 10SM OVC042 M01/M10 A3014 RMK AO2 PK WND 30027/1618 SLP222 T10061100', 'KAOO 141553Z AUTO 31014G21KT 10SM OVC043 M01/M11 A3014 RMK AO2 PK WND 29027/1515 SLP225 T10111111', 'KAOO 141453Z AUTO 31009KT 10SM BKN045 M02/M11 A3014 RMK AO2 SLP223 T10221111 51024', 'KAOO 141353Z AUTO 32009G22KT 10SM FEW042 SCT050 M03/M11 A3012 RMK AO2 SLP218 T10281106', 'KAOO 141253Z AUTO 34013G22KT 10SM FEW047 M03/M11 A3009 RMK AO2 SLP207 T10281111', 'KAOO 141153Z AUTO 32014G26KT 10SM OVC049 M02/M11 A3006 RMK AO2 PK WND 35032/1113 SLP196 70003 T10221106 10000 21022 53027', 'KAOO 141053Z AUTO 33015G24KT 10SM BKN043 OVC050 M02/M10 A3003 RMK AO2 PK WND 34030/1008 SLP183 T10171100', 'KAOO 140953Z AUTO 32013G25KT 10SM OVC048 M01/M11 A3001 RMK AO2 PK WND 34027/0943 SLP176 T10111106', 'KAOO 140853Z AUTO 32012G23KT 10SM BKN039 OVC048 M01/M08 A2998 RMK AO2 PK WND 31026/0839 SLP167 T10111083 51014', 'KAOO 140753Z AUTO 30010G22KT 10SM BKN033 OVC055 M01/M07 A2997 RMK AO2 SLP161 T10061067', 'KAOO 140653Z AUTO 31010G19KT 10SM SCT033 OVC060 M01/M07 A2995 RMK AO2 SLP157 T10061067', 'KAOO 140553Z AUTO 31011G19KT 280V340 10SM BKN060 M01/M07 A2994 RMK AO2 SLP152 60000 T10061067 10022 21006 51009', 'KAOO 140453Z AUTO 29008G19KT 10SM OVC065 00/M07 A2994 RMK AO2 SLP151 T00001067 400390000', 'KAOO 140353Z AUTO 32009KT 10SM OVC070 00/M07 A2992 RMK AO2 PK WND 31026/0337 SLP147 T00001067', 'KAOO 140253Z AUTO 31009KT 10SM FEW024 BKN037 OVC070 01/M04 A2991 RMK AO2 SNB26E32 SLP142 P0000 60000 T00061039 53011', 'KAOO 140214Z AUTO 30009KT 10SM BKN024 OVC031 01/M03 A2990 RMK AO2 T00111033', 'KAOO 140153Z AUTO 32008KT 10SM SCT025 BKN031 OVC035 01/M03 A2989 RMK AO2 SNB04E20 SLP136 P0000 T00111033', 'KAOO 140123Z AUTO 30011G21KT 9SM SCT027 BKN033 OVC075 01/M03 A2988 RMK AO2 SNB04E20 P0000 T00061033', 'KAOO 140053Z AUTO 30013G19KT 10SM BKN028 OVC034 01/M04 A2988 RMK AO2 SLP131 T00111039', 'KAOO 132353Z AUTO 30013G18KT 10SM SCT034 BKN043 OVC080 02/M04 A2986 RMK AO2 PK WND 30026/2254 SLP124 T00171039 10039 20017 53027', 'KAOO 132253Z AUTO 30018G31KT 10SM SCT047 BKN055 OVC070 02/M05 A2982 RMK AO2 PK WND 29031/2247 SLP112 T00221050', 'KAOO 132153Z AUTO 31014KT 10SM SCT045 BKN055 OVC070 03/M06 A2980 RMK AO2 PK WND 31031/2101 SLP105 T00281056', 'KAOO 132053Z AUTO 30018G28KT 10SM FEW048 OVC065 03/M06 A2977 RMK AO2 PK WND 31029/2002 SLP093 T00331056 53010', 'KAOO 131953Z AUTO 31012G24KT 10SM FEW043 OVC060 03/M05 A2975 RMK AO2 PK WND 31030/1913 SLP085 T00331050', 'KAOO 131853Z AUTO 31015G22KT 10SM FEW040 BKN055 03/M04 A2974 RMK AO2 SLP081 T00331044', 'KAOO 131753Z AUTO 30011G18KT 10SM FEW033 SCT041 02/M04 A2974 RMK AO2 SLP082 60003 T00221039 10022 20000 51027', 'KAOO 131710Z AUTO 32012G22KT 10SM FEW023 SCT029 02/M04 A2973 RMK AO2 T00171039', 'KAOO 131653Z AUTO 32012KT 10SM BKN023 BKN029 02/M03 A2973 RMK AO2 SLP078 T00171028', 'KAOO 131553Z AUTO 32013KT 10SM FEW013 BKN018 OVC031 01/M03 A2970 RMK AO2 PK WND 33026/1509 SLP069 T00111028', 'KAOO 131516Z AUTO 32015G26KT 10SM OVC016 01/M02 A2968 RMK AO2 PK WND 33026/1509 T00111022', 'KAOO 131453Z AUTO 32010KT 10SM OVC014 01/M02 A2966 RMK AO2 SLP053 60003 T00111017 51033', 'KAOO 131429Z AUTO 33011G18KT 9SM OVC014 01/M02 A2964 RMK AO2 T00111017', 'KAOO 131353Z AUTO 34008KT 10SM OVC014 01/M02 A2963 RMK AO2 SLP045 T00111017', 'KAOO 131328Z AUTO 35008KT 10SM SCT013 OVC019 01/M02 A2963 RMK AO2 T00061017', 'KAOO 131253Z AUTO 35009KT 10SM OVC007 01/M01 A2960 RMK AO2 CIG 006V011 SLP034 P0003 T00061011', 'KAOO 131222Z AUTO 36007KT 10SM BKN008 OVC015 00/M01 A2958 RMK AO2 CIG 005V010 P0003 T00001011', 'KAOO 131153Z AUTO 01009KT 9SM OVC006 00/M01 A2956 RMK AO2 SNE51 CIG 002V009 SLP018 P0010 60051 70080 T00001011 10033 20000 53023', 'KAOO 131109Z AUTO 02006KT 1 1/4SM -SN BR BKN006 OVC011 01/M01 A2952 RMK AO2 P0001 T00061006', 'KAOO 131053Z AUTO 02008KT 1SM -SN BR BKN004 OVC009 01/M01 A2951 RMK AO2 SLP000 P0003 T00061006', 'KAOO 131020Z AUTO 02014KT 3/4SM -SN BR BKN003 OVC008 01/M01 A2949 RMK AO2 P0002 T00061006', 'KAOO 130953Z AUTO 02014KT 3/4SM -SN BR SCT003 OVC007 01/M01 A2949 RMK AO2 SLP994 P0008 T00061011', 'KAOO 130925Z AUTO 01009KT 1/2SM SN FG OVC004 01/M01 A2949 RMK AO2 P0006 T00061006', 'KAOO 130853Z AUTO 03009KT 1/2SM SN FG OVC004 01/M01 A2950 RMK AO2 SLP997 P0010 60030 T00061006 56017', 'KAOO 130826Z AUTO 02009KT 1/2SM SN FG VV004 01/M01 A2951 RMK AO2 P0006 T00061006', 'KAOO 130753Z AUTO 02008KT 3/4SM -SN BR OVC003 01/M01 A2950 RMK AO2 RAE02SNB02 SLP998 P0006 T00061006', 'KAOO 130724Z AUTO 03008KT 1 1/4SM -SN BR OVC003 01/M01 A2951 RMK AO2 RAE02SNB02 CIG 002V008 P0002 T00111006', 'KAOO 130653Z AUTO 04008KT 8SM -RA OVC008 03/02 A2952 RMK AO2 SLP003 P0014 T00330017', 'KAOO 130609Z AUTO 07008KT 3SM +RA BR SCT007 OVC032 03/02 A2954 RMK AO2 P0007 T00330017', 'KAOO 130553Z AUTO 07008KT 4SM RA BR OVC007 03/02 A2955 RMK AO2 SLP014 P0010 60029 T00330017 10072 20033 58022', 'KAOO 130515Z AUTO 05006KT 4SM -RA BR BKN008 OVC037 04/02 A2958 RMK AO2 P0003 T00390022', 'KAOO 130453Z AUTO 07006KT 3SM RA BR SCT009 SCT028 OVC039 04/02 A2959 RMK AO2 SLP030 P0014 T00390022 400891011', 'KAOO 130353Z AUTO 04006KT 3SM -RA BR BKN010 OVC016 04/03 A2962 RMK AO2 CIG 006V013 SLP037 P0002 T00440028', 'KAOO 130307Z AUTO 07008KT 4SM -RA BR BKN008 OVC022 05/03 A2964 RMK AO2 P0001 T00500028', 'KAOO 130253Z AUTO 08007KT 4SM -RA BR FEW008 BKN022 OVC042 05/03 A2965 RMK AO2 SLP050 P0003 60003 T00500028 58021', 'KAOO 130153Z AUTO 11004KT 6SM -RA FEW033 OVC045 06/02 A2969 RMK AO2 RAB18 SLP063 P0000 T00560022', 'KAOO 130053Z AUTO 12003KT 10SM OVC035 07/01 A2971 RMK AO2 SLP070 T00670011', 'KAOO 122353Z AUTO 10004KT 10SM OVC038 07/M01 A2972 RMK AO2 SLP073 T00721006 10089 20067 58014', 'KAOO 122253Z AUTO 08004KT 10SM OVC045 08/00 A2974 RMK AO2 SLP080 T00780000', 'KAOO 122153Z AUTO 09003KT 10SM BKN031 OVC050 08/00 A2976 RMK AO2 SLP086 T00830000', 'KAOO 122127Z AUTO 00000KT 10SM BKN029 OVC050 09/M01 A2976 RMK AO2 T00891006', 'KAOO 122053Z AUTO 00000KT 10SM OVC050 08/M01 A2976 RMK AO2 SLP088 T00831006 58008', 'KAOO 121953Z AUTO 00000KT 10SM OVC055 08/M01 A2978 RMK AO2 SLP093 T00831006', 'KAOO 121853Z AUTO VRB03KT 10SM BKN100 08/M01 A2981 RMK AO2 SLP104 T00831006', 'KAOO 121753Z AUTO 08004KT 10SM CLR 07/M01 A2979 RMK AO2 SLP096 T00721006 10072 21006 58037', 'KAOO 121653Z AUTO 07005KT 10SM CLR 06/M01 A2983 RMK AO2 SLP113 T00611006', 'KAOO 121553Z AUTO 07006KT 10SM CLR 05/M01 A2986 RMK AO2 SLP123 T00501006', 'KAOO 121453Z AUTO 07003KT 10SM BKN120 04/00 A2990 RMK AO2 SLP135 T00390000 50003', 'KAOO 121353Z AUTO 00000KT 6SM BR FEW120 02/M01 A2991 RMK AO2 SLP139 T00171006', 'KAOO 121253Z AUTO 00000KT 5SM BR SCT120 00/M02 A2990 RMK AO2 SLP137 T00001017', 'KAOO 121153Z AUTO 26003KT 7SM CLR 00/M02 A2989 RMK AO2 SLP133 T00001022 10028 21011 51005', 'KAOO 121053Z AUTO 00000KT 8SM CLR M01/M02 A2988 RMK AO2 SLP130 T10061022']","['2024-02-15 09:53:00', '2024-02-15 08:53:00', '2024-02-15 07:53:00', '2024-02-15 06:53:00', '2024-02-15 05:53:00', '2024-02-15 04:53:00', '2024-02-15 03:53:00', '2024-02-15 02:53:00', '2024-02-15 01:53:00', '2024-02-15 00:53:00', '2024-02-14 23:53:00', '2024-02-14 22:53:00', '2024-02-14 21:53:00', '2024-02-14 20:53:00', '2024-02-14 19:53:00', '2024-02-14 18:53:00', '2024-02-14 17:53:00', '2024-02-14 16:53:00', '2024-02-14 15:53:00', '2024-02-14 14:53:00', '2024-02-14 13:53:00', '2024-02-14 12:53:00', '2024-02-14 11:53:00', '2024-02-14 10:53:00', '2024-02-14 09:53:00', '2024-02-14 08:53:00', '2024-02-14 07:53:00', '2024-02-14 06:53:00', '2024-02-14 05:53:00', '2024-02-14 04:53:00', '2024-02-14 03:53:00', '2024-02-14 02:53:00', '2024-02-14 02:14:00', '2024-02-14 01:53:00', '2024-02-14 01:23:00', '2024-02-14 00:53:00', '2024-02-13 23:53:00', '2024-02-13 22:53:00', '2024-02-13 21:53:00', '2024-02-13 20:53:00', '2024-02-13 19:53:00', '2024-02-13 18:53:00', '2024-02-13 17:53:00', '2024-02-13 17:10:00', '2024-02-13 16:53:00', '2024-02-13 15:53:00', '2024-02-13 15:16:00', '2024-02-13 14:53:00', '2024-02-13 14:29:00', '2024-02-13 13:53:00', '2024-02-13 13:28:00', '2024-02-13 12:53:00', '2024-02-13 12:22:00', '2024-02-13 11:53:00', '2024-02-13 11:09:00', '2024-02-13 10:53:00', '2024-02-13 10:20:00', '2024-02-13 09:53:00', '2024-02-13 09:25:00', '2024-02-13 08:53:00', '2024-02-13 08:26:00', '2024-02-13 07:53:00', '2024-02-13 07:24:00', '2024-02-13 06:53:00', '2024-02-13 06:09:00', '2024-02-13 05:53:00', '2024-02-13 05:15:00', '2024-02-13 04:53:00', '2024-02-13 03:53:00', '2024-02-13 03:07:00', '2024-02-13 02:53:00', '2024-02-13 01:53:00', '2024-02-13 00:53:00', '2024-02-12 23:53:00', '2024-02-12 22:53:00', '2024-02-12 21:53:00', '2024-02-12 21:27:00', '2024-02-12 20:53:00', '2024-02-12 19:53:00', '2024-02-12 18:53:00', '2024-02-12 17:53:00', '2024-02-12 16:53:00', '2024-02-12 15:53:00', '2024-02-12 14:53:00', '2024-02-12 13:53:00', '2024-02-12 12:53:00', '2024-02-12 11:53:00', '2024-02-12 10:53:00']"
United-states, Amarillo Rick Husband  International Airport (AMA/KAMA) ,"['KAMA 150953Z AUTO 00000KT 10SM CLR 01/M06 A3008 RMK AO2 SLP167 T00111061', 'KAMA 150853Z AUTO 36006KT 10SM CLR 00/M06 A3009 RMK AO2 SLP171 T00001061 52016', 'KAMA 150753Z AUTO 33007KT 10SM CLR 03/M07 A3007 RMK AO2 SLP162 T00331067', 'KAMA 150653Z AUTO 26004KT 10SM CLR 03/M07 A3005 RMK AO2 SLP155 T00331072', 'KAMA 150553Z AUTO 23007KT 10SM CLR 03/M07 A3003 RMK AO2 SLP155 T00331067 10172 20028 402061006 51014', 'KAMA 150453Z 23007KT 10SM CLR 04/M07 A3003 RMK AO2 SLP156 T00441067', 'KAMA 150353Z 25006KT 10SM CLR 07/M09 A3001 RMK AO2 SLP149 T00671089', 'KAMA 150253Z 28009KT 10SM CLR 12/M08 A2999 RMK AO2 SLP141 T01171078 51024', 'KAMA 150153Z 27008KT 10SM CLR 10/M08 A2997 RMK AO2 SLP145 T01001083', 'KAMA 150053Z 27008KT 10SM CLR 13/M09 A2995 RMK AO2 SLP131 T01281094', 'KAMA 142353Z 27013KT 10SM CLR 17/M09 A2991 RMK AO2 PK WND 27032/2316 SLP110 T01721094 10206 20156 53010', 'KAMA 142253Z 29022G28KT 10SM CLR 19/M09 A2990 RMK AO2 PK WND 27038/2219 SLP102 T01891094', 'KAMA 142153Z 26025G40KT 10SM CLR 19/M11 A2988 RMK AO2 PK WND 26040/2149 SLP100 T01941111', 'KAMA 142053Z 26022G35KT 10SM CLR 20/M10 A2988 RMK AO2 PK WND 26035/2046 SLP095 T02001100 56024', 'KAMA 141953Z 27020G30KT 10SM CLR 19/M09 A2989 RMK AO2 PK WND 26031/1901 SLP100 T01941094', 'KAMA 141853Z 27022G31KT 10SM CLR 19/M09 A2992 RMK AO2 PK WND 28031/1847 SLP112 T01891094', 'KAMA 141753Z 25015KT 10SM CLR 16/M03 A2995 RMK AO2 SLP124 T01561028 10156 21006 58006', 'KAMA 141653Z 26012KT 10SM CLR 13/M03 A2996 RMK AO2 SLP135 T01331028', 'KAMA 141553Z 23015KT 10SM CLR 10/M03 A2998 RMK AO2 SLP143 T01001033', 'KAMA 141453Z 24010KT 10SM CLR 06/M04 A2997 RMK AO2 SLP143 T00561044 53005', 'KAMA 141353Z 22011KT 10SM CLR M01/M04 A2996 RMK AO2 SLP148 T10061039', 'KAMA 141253Z 22010KT 10SM CLR 00/M04 A2996 RMK AO2 SLP141 T00001044', 'KAMA 141153Z AUTO 23011KT 10SM CLR 03/M04 A2996 RMK AO2 SLP131 T00281044 10056 20000 58006', 'KAMA 141053Z AUTO 23014KT 10SM CLR 04/M06 A2997 RMK AO2 SLP130 T00441056', 'KAMA 140953Z AUTO 21010KT 10SM CLR 01/M03 A2998 RMK AO2 SLP138 T00111028', 'KAMA 140853Z AUTO 19010KT 10SM CLR 02/M02 A2998 RMK AO2 SLP138 T00221022 56009', 'KAMA 140753Z AUTO 19010KT 10SM CLR 03/M02 A2999 RMK AO2 SLP141 T00331017', 'KAMA 140653Z AUTO 20005KT 10SM CLR 02/M02 A3000 RMK AO2 SLP148 T00221017', 'KAMA 140553Z AUTO 10SM CLR 05/M01 A3001 RMK AO2 SLP150 T00501011 10144 20022 401611039 51006', 'KAMA 140453Z 24007KT 10SM CLR 02/M01 A3000 RMK AO2 SLP155 T00221011', 'KAMA 140353Z 20008KT 10SM CLR 03/M01 A3001 RMK AO2 SLP159 T00331006', 'KAMA 140253Z 29004KT 10SM CLR 07/M02 A2999 RMK AO2 SLP153 T00671017 51008', 'KAMA 140153Z 00000KT 10SM CLR 06/M03 A2999 RMK AO2 SLP160 T00611028', 'KAMA 140053Z 04004KT 10SM CLR 09/M02 A2997 RMK AO2 SLP152 T00891022', 'KAMA 132353Z 00000KT 10SM CLR 14/M02 A2996 RMK AO2 SLP138 T01441017 10161 20100 53001', 'KAMA 132253Z 00000KT 10SM CLR 16/M02 A2995 RMK AO2 SLP134 T01561017', 'KAMA 132153Z 30005KT 10SM CLR 15/M02 A2995 RMK AO2 SLP133 T01501017', 'KAMA 132053Z 29006KT 10SM CLR 14/M02 A2996 RMK AO2 SLP135 T01391017 56027', 'KAMA 131953Z 24009KT 10SM CLR 13/M02 A2998 RMK AO2 SLP145 T01331017', 'KAMA 131853Z 22012G23KT 10SM CLR 12/M02 A3001 RMK AO2 SLP156 T01221022', 'KAMA 131753Z 21011KT 10SM CLR 10/M01 A3005 RMK AO2 SLP171 T01001006 10100 21039 50004', 'KAMA 131653Z 24008KT 10SM CLR 08/M01 A3005 RMK AO2 SLP173 T00831011', 'KAMA 131553Z 24011KT 10SM CLR 05/M02 A3005 RMK AO2 SLP179 T00501022', 'KAMA 131453Z 23009KT 10SM CLR 01/M03 A3003 RMK AO2 SLP176 T00111028 53007', 'KAMA 131353Z 21008KT 10SM CLR M03/M05 A3002 RMK AO2 SLP176 T10281050', 'KAMA 131253Z 22010KT 10SM CLR M03/M06 A3001 RMK AO2 SLP169 T10331056', 'KAMA 131153Z 22010KT 10SM CLR M03/M05 A3001 RMK AO2 SLP166 T10281050 10000 21028 56005', 'KAMA 131053Z AUTO 22006KT 10SM CLR M02/M04 A3001 RMK AO2 SLP162 T10221044', 'KAMA 130953Z AUTO 22007KT 10SM CLR M02/M04 A3002 RMK AO2 SLP167 T10221044', 'KAMA 130853Z AUTO 22007KT 10SM CLR M01/M05 A3003 RMK AO2 SLP168 T10111050 58005', 'KAMA 130753Z AUTO 23007KT 10SM CLR M02/M06 A3003 RMK AO2 SLP173 T10171056', 'KAMA 130653Z AUTO 23010KT 10SM CLR 00/M05 A3004 RMK AO2 SLP176 T00001050', 'KAMA 130553Z AUTO 23007KT 10SM CLR M01/M03 A3004 RMK AO2 SLP180 T10061028 10083 21006 401001061 50003', 'KAMA 130453Z 23009KT 10SM CLR 00/M02 A3005 RMK AO2 SLP185 T00001022', 'KAMA 130353Z 23006KT 10SM CLR 01/M04 A3004 RMK AO2 SLP183 T00061039', 'KAMA 130253Z 20004KT 10SM CLR 02/M05 A3003 RMK AO2 SLP184 T00171050 51006', 'KAMA 130153Z 26004KT 10SM CLR 03/M05 A3003 RMK AO2 SLP183 T00331050', 'KAMA 130053Z 27003KT 10SM CLR 05/M04 A3003 RMK AO2 SLP179 T00501044', 'KAMA 122353Z 28006KT 10SM CLR 08/M04 A3001 RMK AO2 SLP169 T00831039 10100 20033 55004', 'KAMA 122253Z 29008KT 10SM CLR 09/M04 A3001 RMK AO2 SLP166 T00941039', 'KAMA 122153Z 29007KT 10SM CLR 09/M03 A3001 RMK AO2 SLP166 T00941033', 'KAMA 122053Z 30009KT 10SM CLR 09/M04 A3003 RMK AO2 SLP172 T00891044 58018', 'KAMA 121953Z 31007KT 10SM CLR 07/M04 A3004 RMK AO2 SLP182 T00671039', 'KAMA 121853Z 33007KT 10SM CLR 05/M04 A3007 RMK AO2 SLP192 T00501044', 'KAMA 121753Z 32009KT 10SM CLR 03/M05 A3009 RMK AO2 SLP199 T00331050 10033 21061 51006', 'KAMA 121653Z 31008KT 10SM CLR 01/M06 A3009 RMK AO2 SLP203 T00111056', 'KAMA 121553Z 30010KT 10SM CLR M01/M06 A3008 RMK AO2 SLP201 T10111061', 'KAMA 121453Z 29012KT 10SM CLR M04/M07 A3007 RMK AO2 SLP204 T10391067 53006', 'KAMA 121353Z 29009KT 10SM CLR M06/M07 A3005 RMK AO2 SLP197 T10611072', 'KAMA 121253Z 30011KT 10SM CLR M05/M07 A3005 RMK AO2 SLP194 T10501067', 'KAMA 121153Z AUTO 31010KT 10SM CLR M05/M07 A3005 RMK AO2 SLP195 70025 T10501067 11028 21050 56004', 'KAMA 121053Z AUTO 32011KT 10SM CLR M05/M07 A3005 RMK AO2 SLP196 T10501072']","['2024-02-15 09:53:00', '2024-02-15 08:53:00', '2024-02-15 07:53:00', '2024-02-15 06:53:00', '2024-02-15 05:53:00', '2024-02-15 04:53:00', '2024-02-15 03:53:00', '2024-02-15 02:53:00', '2024-02-15 01:53:00', '2024-02-15 00:53:00', '2024-02-14 23:53:00', '2024-02-14 22:53:00', '2024-02-14 21:53:00', '2024-02-14 20:53:00', '2024-02-14 19:53:00', '2024-02-14 18:53:00', '2024-02-14 17:53:00', '2024-02-14 16:53:00', '2024-02-14 15:53:00', '2024-02-14 14:53:00', '2024-02-14 13:53:00', '2024-02-14 12:53:00', '2024-02-14 11:53:00', '2024-02-14 10:53:00', '2024-02-14 09:53:00', '2024-02-14 08:53:00', '2024-02-14 07:53:00', '2024-02-14 06:53:00', '2024-02-14 05:53:00', '2024-02-14 04:53:00', '2024-02-14 03:53:00', '2024-02-14 02:53:00', '2024-02-14 01:53:00', '2024-02-14 00:53:00', '2024-02-13 23:53:00', '2024-02-13 22:53:00', '2024-02-13 21:53:00', '2024-02-13 20:53:00', '2024-02-13 19:53:00', '2024-02-13 18:53:00', '2024-02-13 17:53:00', '2024-02-13 16:53:00', '2024-02-13 15:53:00', '2024-02-13 14:53:00', '2024-02-13 13:53:00', '2024-02-13 12:53:00', '2024-02-13 11:53:00', '2024-02-13 10:53:00', '2024-02-13 09:53:00', '2024-02-13 08:53:00', '2024-02-13 07:53:00', '2024-02-13 06:53:00', '2024-02-13 05:53:00', '2024-02-13 04:53:00', '2024-02-13 03:53:00', '2024-02-13 02:53:00', '2024-02-13 01:53:00', '2024-02-13 00:53:00', '2024-02-12 23:53:00', '2024-02-12 22:53:00', '2024-02-12 21:53:00', '2024-02-12 20:53:00', '2024-02-12 19:53:00', '2024-02-12 18:53:00', '2024-02-12 17:53:00', '2024-02-12 16:53:00', '2024-02-12 15:53:00', '2024-02-12 14:53:00', '2024-02-12 13:53:00', '2024-02-12 12:53:00', '2024-02-12 11:53:00', '2024-02-12 10:53:00']"
United-states, Ambler Airport (ABL/PAFM) ,"['PAFM 150956Z AUTO 28005KT 10SM SCT110 M10/M11 A2988 RMK AO2 SNE22 SLP127 P0000 T11001111 FZRANO', 'PAFM 150906Z AUTO 27006KT 9SM -SN SCT019 BKN044 OVC070 M09/M11 A2989 RMK AO2 P0000 FZRANO', 'PAFM 150856Z AUTO 27006KT 10SM -SN BKN017 BKN042 OVC070 M09/M11 A2989 RMK AO2 SNE29B55 SLP131 P0000 60000 T10941111 56013 FZRANO', 'PAFM 150756Z AUTO 29005KT 5SM -SN BR OVC021 M09/M11 A2990 RMK AO2 SLP135 P0000 T10941106 400061094 FZRANO', 'PAFM 150723Z AUTO 29006KT 2 1/2SM -SN BR BKN018 BKN026 OVC033 M09/M11 A2991 RMK AO2 P0000 FZRANO', 'PAFM 150656Z AUTO 29007KT 4SM -SN BR OVC035 M09/M11 A2992 RMK AO2 SLP141 P0000 T10891106 FZRANO', 'PAFM 150556Z AUTO 29007KT 5SM -SN BR FEW019 OVC039 M09/M11 A2993 RMK AO2 SLP145 P0000 60000 T10891106 11072 21089 58012 FZRANO', 'PAFM 150528Z AUTO 28006KT 1 1/2SM -SN BR OVC019 M09/M10 A2994 RMK AO2 P0000 FZRANO', 'PAFM 150456Z AUTO 28005KT 5SM -SN BR BKN032 OVC046 M09/M10 A2995 RMK AO2 SLP148 P0000 T10891100 FZRANO', 'PAFM 150356Z AUTO 29005KT 8SM -SN SCT034 SCT045 OVC060 M08/M10 A2996 RMK AO2 SLP152 P0000 T10831100 FZRANO', 'PAFM 150256Z AUTO 29005KT 8SM -SN FEW009 SCT021 OVC050 M08/M10 A2997 RMK AO2 SNB08 SLP155 P0000 60000 T10831100 50001 FZRANO', 'PAFM 150215Z AUTO 29005KT 9SM -SN SCT005 OVC021 M08/M10 A2997 RMK AO2 SNB08 P0000 FZRANO', 'PAFM 150156Z AUTO 30006KT 10SM BKN005 OVC021 M08/M10 A2997 RMK AO2 SLP158 T10831100 FZRANO', 'PAFM 150106Z AUTO 30007KT 10SM BKN005 OVC010 M08/M10 A2997 RMK AO2 FZRANO', 'PAFM 150056Z AUTO 30007KT 10SM OVC007 M08/M10 A2997 RMK AO2 CIG 005V009 SLP155 T10781100 FZRANO', 'PAFM 142356Z AUTO 29004KT 10SM OVC009 M07/M09 A2997 RMK AO2 SLP155 60000 T10721089 11028 21072 51010 FZRANO', 'PAFM 142256Z AUTO 28005KT 10SM OVC009 M06/M08 A2996 RMK AO2 SNE11 SLP153 P0000 T10611078 FZRANO', 'PAFM 142156Z AUTO 21004KT 9SM -SN OVC009 M06/M08 A2996 RMK AO2 SNE17B42 SLP152 P0000 T10611078 FZRANO', 'PAFM 142056Z AUTO 21007KT 9SM -SN OVC009 M06/M08 A2993 RMK AO2 SLP144 P0000 60000 T10611078 51044 FZRANO', 'PAFM 141956Z AUTO 21008KT 9SM -SN OVC011 M06/M07 A2990 RMK AO2 SNE17B47 SLP134 P0000 T10561072 FZRANO', 'PAFM 141915Z AUTO 21007KT 9SM -SN FEW013 BKN017 OVC040 M05/M07 A2987 RMK AO2 P0000 FZRANO', 'PAFM 141856Z AUTO 23011KT 9SM -SN SCT011 OVC042 M05/M06 A2985 RMK AO2 SLP116 P0000 T10501061 FZRANO', 'PAFM 141816Z AUTO 22012G17KT 8SM -SN SCT009 BKN036 OVC050 M04/M05 A2981 RMK AO2 P0000 FZRANO', 'PAFM 141756Z AUTO 23009KT 3SM -SN BR BKN009 BKN015 OVC023 M03/M04 A2980 RMK AO2 WSHFT 1651 CIG 007V012 SLP099 P0000 60000 T10281039 10006 21028 53037 FZRANO', 'PAFM 141714Z AUTO 23012G21KT 1SM -SN BR BKN009 OVC015 M01/M02 A2976 RMK AO2 WSHFT 1651 CIG 006V011 P0000 FZRANO', 'PAFM 141656Z AUTO 23012G18KT 2 1/2SM -SN BR SCT011 OVC018 01/M01 A2974 RMK AO2 RAB13E50SNB50 SLP079 P0000 T00061011 FZRANO', 'PAFM 141556Z AUTO 14010G17KT 10SM BKN022 OVC026 01/M01 A2971 RMK AO2 RAB33E45 SLP069 P0000 T00061011 FZRANO', 'PAFM 141523Z AUTO 14011G17KT 10SM SCT024 OVC030 01/M01 A2970 RMK AO2 FZRANO', 'PAFM 141456Z AUTO 15009G17KT 10SM BKN028 OVC033 01/M01 A2970 RMK AO2 SLP063 T00061011 53011 FZRANO', 'PAFM 141411Z AUTO 15011G18KT 10SM FEW025 OVC033 00/M02 A2968 RMK AO2 FZRANO', 'PAFM 141356Z AUTO 15013G18KT 10SM BKN025 OVC033 00/M02 A2968 RMK AO2 SLP057 T00001017 FZRANO', 'PAFM 141313Z AUTO 14014G23KT 10SM FEW014 BKN025 OVC033 00/M02 A2967 RMK AO2 FZRANO', 'PAFM 141256Z AUTO 14012G20KT 10SM SCT014 OVC025 00/M02 A2966 RMK AO2 PK WND 14026/1208 SLP052 T00001017 FZRANO', 'PAFM 141156Z AUTO 13017G28KT 10SM FEW017 OVC029 M01/M02 A2964 RMK AO2 PK WND 15028/1150 SNE26 SLP044 P0000 60000 T10061022 11006 21017 53016 FZRANO', 'PAFM 141115Z AUTO 14016G26KT 9SM -SN BKN019 OVC034 M01/M03 A2963 RMK AO2 PK WND 12026/1107 P0000 FZRANO', 'PAFM 141056Z AUTO 14018G29KT 6SM -SN BR SCT019 OVC036 M01/M03 A2962 RMK AO2 PK WND 12030/1030 SLP037 P0000 T10111028 FZRANO', 'PAFM 140956Z AUTO 13017G29KT 4SM -SN BR BKN038 OVC050 M02/M03 A2961 RMK AO2 PK WND 14031/0939 SLP032 P0000 T10171028 FZRANO', 'PAFM 140905Z AUTO 14021G33KT 4SM -SN BR OVC055 M01/M03 A2959 RMK AO2 PK WND 14028/0904 P0000 FZRANO', 'PAFM 140856Z AUTO 13020G33KT 2 1/2SM -SN BR FEW008 OVC055 M01/M03 A2959 RMK AO2 PK WND 13034/0841 VIS 1 1/2V4 SLP028 P0000 60000 T10111028 50001 FZRANO', 'PAFM 140824Z AUTO 13021G28KT 3SM -SN BR FEW008 OVC048 M02/M03 A2959 RMK AO2 PK WND 12030/0812 P0000 FZRANO', 'PAFM 140756Z AUTO 13018G29KT 4SM -SN BR FEW018 BKN027 OVC044 M01/M03 A2960 RMK AO2 PK WND 12030/0725 SLP029 P0000 T10111033 400001039 FZRANO', 'PAFM 140656Z AUTO 13022G28KT 6SM -SN BR BKN035 OVC041 M01/M03 A2959 RMK AO2 PK WND 12034/0631 SLP026 P0000 T10111033 FZRANO', 'PAFM 140556Z AUTO 13017G27KT 6SM -SN BR OVC046 M01/M03 A2959 RMK AO2 PK WND 12031/0545 SLP027 P0000 60000 T10061028 11006 21011 56005 FZRANO', 'PAFM 140456Z AUTO 12017G23KT 5SM -SN BR SCT047 OVC060 M01/M03 A2959 RMK AO2 PK WND 12028/0445 SLP028 P0000 T10111028 FZRANO', 'PAFM 140356Z AUTO 12017G28KT 6SM -SN BR FEW011 OVC065 M01/M03 A2960 RMK AO2 PK WND 12032/0346 SLP029 P0000 T10111028 FZRANO', 'PAFM 140256Z AUTO 11014G22KT 6SM -SN BR FEW026 BKN060 OVC080 M01/M03 A2960 RMK AO2 SNE10B28 SLP031 P0000 60000 T10061028 58011 FZRANO', 'PAFM 140156Z AUTO 11016G25KT 9SM -SN FEW009 SCT031 OVC065 M01/M02 A2962 RMK AO2 SLP036 P0000 T10111022 FZRANO', 'PAFM 140128Z AUTO 11016G25KT 2SM -SN BR FEW009 BKN033 OVC043 M01/M02 A2962 RMK AO2 VIS 1 1/4V4 P0000 FZRANO', 'PAFM 140056Z AUTO 12018G26KT 7SM -SN FEW037 OVC050 M01/M03 A2964 RMK AO2 PK WND 12026/0052 SLP043 P0000 T10111028 FZRANO', 'PAFM 140005Z AUTO 12015G24KT 5SM -SN FEW022 BKN060 OVC075 M01/M04 A2964 RMK AO2 P0000 FZRANO', 'PAFM 132356Z AUTO 12015G26KT 2SM -SN BR SCT022 BKN048 OVC070 M01/M03 A2964 RMK AO2 PK WND 12028/2344 SNB35 SLP043 P0000 60000 T10111033 10000 21017 58012 FZRANO', 'PAFM 132256Z AUTO 10012G20KT 10SM OVC060 M01/M03 A2965 RMK AO2 SNB24E43 SLP047 P0000 T10061033 FZRANO', 'PAFM 132156Z AUTO 10012G17KT 10SM OVC070 00/M04 A2966 RMK AO2 SLP050 T00001039 FZRANO', 'PAFM 132056Z AUTO 07010G20KT 10SM OVC047 M01/M04 A2967 RMK AO2 PK WND 10028/2036 SNE47 SLP055 P0000 60000 T10111039 56004 FZRANO', 'PAFM 131956Z AUTO 10013G18KT 9SM -SN OVC060 M01/M04 A2968 RMK AO2 SNB56 SLP057 P0000 T10111039 FZRANO', 'PAFM 131856Z AUTO 10010G19KT 10SM OVC055 M01/M04 A2967 RMK AO2 SNB17E50 SLP055 P0000 T10111039 FZRANO', 'PAFM 131756Z AUTO 11009G17KT 10SM OVC036 M02/M04 A2968 RMK AO2 SNB14E30 SLP059 P0000 60000 T10171039 11011 21033 53002 FZRANO', 'PAFM 131656Z AUTO 09011G16KT 070V130 10SM OVC043 M02/M03 A2967 RMK AO2 SNE27 SLP055 P0000 T10171033 FZRANO', 'PAFM 131613Z AUTO 09010G15KT 9SM -SN FEW027 SCT032 OVC042 M02/M03 A2967 RMK AO2 P0000 FZRANO', 'PAFM 131556Z AUTO 10014G22KT 3SM -SN BR FEW007 SCT022 OVC027 M02/M03 A2967 RMK AO2 PK WND 11027/1521 SLP055 P0000 T10221033 FZRANO', 'PAFM 131526Z AUTO 11015G27KT 1SM -SN BR OVC007 M02/M03 A2967 RMK AO2 PK WND 11027/1521 CIG 005V012 P0000 FZRANO', 'PAFM 131456Z AUTO 10011G20KT 1 1/2SM -SN BR OVC007 M03/M03 A2968 RMK AO2 PK WND 12027/1426 CIG 005V011 SLP057 P0000 60000 T10281033 56006 FZRANO', 'PAFM 131424Z AUTO 12019G25KT 1SM -SN BR BKN007 OVC015 M03/M04 A2968 RMK AO2 CIG 004V010 P0000 FZRANO', 'PAFM 131356Z AUTO 10015G22KT 1SM -SN BR OVC005 M03/M04 A2968 RMK AO2 SLP060 P0000 T10331039 FZRANO', 'PAFM 131256Z AUTO 11011G15KT 1 1/2SM -SN BR OVC011 M03/M04 A2970 RMK AO2 SLP063 P0000 T10281039 FZRANO', 'PAFM 131218Z AUTO 10008KT 1 1/2SM -SN BR OVC011 M03/M04 A2971 RMK AO2 P0000 FZRANO', 'PAFM 131156Z AUTO 10012G17KT 1 1/2SM -SN BR OVC009 M03/M04 A2971 RMK AO2 CIG 004V013 SLP068 P0000 60000 T10331039 11033 21039 57002 FZRANO', 'PAFM 131125Z AUTO 11014G21KT 1SM -SN BR OVC006 M03/M04 A2971 RMK AO2 CIG 004V008 P0000 FZRANO', 'PAFM 131056Z AUTO 11009G17KT 1 1/4SM -SN BR OVC006 M03/M04 A2971 RMK AO2 CIG 005V009 SLP070 P0000 T10331039 FZRANO', 'PAFM 131026Z AUTO 11005KT 2 1/2SM -SN BR BKN012 OVC021 M03/M04 A2971 RMK AO2 VIS 2V4 P0000 FZRANO', 'PAFM 130956Z AUTO 00000KT 2 1/2SM -SN BR OVC012 M04/M04 A2972 RMK AO2 VIS 1 3/4V3 SLP071 P0000 T10391044 FZRANO', 'PAFM 130907Z AUTO 07008KT 1 1/4SM -SN BR BKN010 OVC015 M04/M05 A2972 RMK AO2 CIG 006V013 P0000 FZRANO', 'PAFM 130856Z AUTO 06007KT 1SM -SN BR OVC008 M04/M05 A2972 RMK AO2 CIG 004V011 SLP072 P0000 60000 T10391050 56011 FZRANO', 'PAFM 130756Z AUTO 05005KT 3/4SM -SN BR OVC008 M04/M06 A2973 RMK AO2 SLP075 P0000 T10391056 410331061 FZRANO', 'PAFM 130727Z AUTO 06004KT 1 3/4SM -SN SCT011 OVC021 M03/M07 A2974 RMK AO2 VIS 3/4V5 P0000 FZRANO', 'PAFM 130656Z AUTO 10008KT 10SM -SN FEW021 SCT027 OVC036 M04/M08 A2974 RMK AO2 SNB54 SLP079 P0000 T10391078 FZRANO', 'PAFM 130556Z AUTO VRB03KT 10SM BKN048 BKN060 OVC080 M04/M08 A2976 RMK AO2 SLP083 T10391078 11039 21061 56012 FZRANO', 'PAFM 130456Z AUTO 02003KT 10SM BKN070 OVC080 M05/M08 A2977 RMK AO2 SLP088 T10501078 FZRANO', 'PAFM 130256Z AUTO 03005KT 10SM FEW070 OVC100 M06/M08 A2979 RMK AO2 SLP097 T10561078 58021 FZRANO', 'PAFM 130156Z AUTO 00000KT 10SM BKN075 BKN090 OVC110 M06/M08 A2982 RMK AO2 SLP107 T10561083 FZRANO', 'PAFM 130056Z AUTO 12003KT 10SM OVC110 M05/M08 A2984 RMK AO2 SLP113 T10501083 FZRANO', 'PAFM 122356Z AUTO 10009KT 10SM CLR M05/M08 A2985 RMK AO2 SLP118 T10501083 11044 21061 51001 FZRANO', 'PAFM 122256Z AUTO 10004KT 10SM CLR M06/M08 A2985 RMK AO2 SLP117 T10611083 FZRANO', 'PAFM 122156Z AUTO 11006KT 10SM FEW049 SCT055 M05/M08 A2986 RMK AO2 SLP118 T10501078 FZRANO', 'PAFM 122056Z AUTO 13007KT 10SM OVC044 M04/M07 A2985 RMK AO2 SLP116 T10441072 51013 FZRANO', 'PAFM 121956Z AUTO 15006KT 10SM OVC040 M04/M07 A2985 RMK AO2 SLP114 T10441067 FZRANO', 'PAFM 121756Z AUTO 14007KT 10SM OVC036 M04/M07 A2981 RMK AO2 SLP103 60000 T10441067 11044 21050 51013 FZRANO', 'PAFM 121656Z AUTO 14005KT 10SM OVC036 M05/M07 A2980 RMK AO2 SLP100 T10501067 FZRANO', 'PAFM 121556Z AUTO 14004KT 10SM OVC036 M05/M07 A2979 RMK AO2 SLP096 T10501067 FZRANO', 'PAFM 121456Z AUTO 13004KT 10SM OVC036 M04/M07 A2977 RMK AO2 SLP090 60000 T10441067 53019 FZRANO', 'PAFM 121356Z AUTO 15004KT 10SM OVC036 M04/M06 A2975 RMK AO2 SLP082 T10441061 FZRANO', 'PAFM 121256Z AUTO 14005KT 9SM OVC040 M04/M06 A2973 RMK AO2 SNB26E52 SLP075 P0000 T10441061 FZRANO', 'PAFM 121156Z AUTO 14006KT 10SM OVC041 M04/M06 A2972 RMK AO2 SNE34 SLP070 P0000 60001 70002 T10441061 11039 21044 53021 FZRANO', 'PAFM 121056Z AUTO 14008KT 9SM -SN OVC044 M04/M06 A2970 RMK AO2 SNB29 SLP063 P0000 T10391056 FZRANO']","['2024-02-15 09:56:00', '2024-02-15 09:06:00', '2024-02-15 08:56:00', '2024-02-15 07:56:00', '2024-02-15 07:23:00', '2024-02-15 06:56:00', '2024-02-15 05:56:00', '2024-02-15 05:28:00', '2024-02-15 04:56:00', '2024-02-15 03:56:00', '2024-02-15 02:56:00', '2024-02-15 02:15:00', '2024-02-15 01:56:00', '2024-02-15 01:06:00', '2024-02-15 00:56:00', '2024-02-14 23:56:00', '2024-02-14 22:56:00', '2024-02-14 21:56:00', '2024-02-14 20:56:00', '2024-02-14 19:56:00', '2024-02-14 19:15:00', '2024-02-14 18:56:00', '2024-02-14 18:16:00', '2024-02-14 17:56:00', '2024-02-14 17:14:00', '2024-02-14 16:56:00', '2024-02-14 15:56:00', '2024-02-14 15:23:00', '2024-02-14 14:56:00', '2024-02-14 14:11:00', '2024-02-14 13:56:00', '2024-02-14 13:13:00', '2024-02-14 12:56:00', '2024-02-14 11:56:00', '2024-02-14 11:15:00', '2024-02-14 10:56:00', '2024-02-14 09:56:00', '2024-02-14 09:05:00', '2024-02-14 08:56:00', '2024-02-14 08:24:00', '2024-02-14 07:56:00', '2024-02-14 06:56:00', '2024-02-14 05:56:00', '2024-02-14 04:56:00', '2024-02-14 03:56:00', '2024-02-14 02:56:00', '2024-02-14 01:56:00', '2024-02-14 01:28:00', '2024-02-14 00:56:00', '2024-02-14 00:05:00', '2024-02-13 23:56:00', '2024-02-13 22:56:00', '2024-02-13 21:56:00', '2024-02-13 20:56:00', '2024-02-13 19:56:00', '2024-02-13 18:56:00', '2024-02-13 17:56:00', '2024-02-13 16:56:00', '2024-02-13 16:13:00', '2024-02-13 15:56:00', '2024-02-13 15:26:00', '2024-02-13 14:56:00', '2024-02-13 14:24:00', '2024-02-13 13:56:00', '2024-02-13 12:56:00', '2024-02-13 12:18:00', '2024-02-13 11:56:00', '2024-02-13 11:25:00', '2024-02-13 10:56:00', '2024-02-13 10:26:00', '2024-02-13 09:56:00', '2024-02-13 09:07:00', '2024-02-13 08:56:00', '2024-02-13 07:56:00', '2024-02-13 07:27:00', '2024-02-13 06:56:00', '2024-02-13 05:56:00', '2024-02-13 04:56:00', '2024-02-13 02:56:00', '2024-02-13 01:56:00', '2024-02-13 00:56:00', '2024-02-12 23:56:00', '2024-02-12 22:56:00', '2024-02-12 21:56:00', '2024-02-12 20:56:00', '2024-02-12 19:56:00', '2024-02-12 17:56:00', '2024-02-12 16:56:00', '2024-02-12 15:56:00', '2024-02-12 14:56:00', '2024-02-12 13:56:00', '2024-02-12 12:56:00', '2024-02-12 11:56:00', '2024-02-12 10:56:00']"
United-states, Ames Municipal Airport (AMW/KAMW) ,"['KAMW 150953Z AUTO 34021G29KT 10SM OVC011 M01/M04 A3003 RMK AO2 PK WND 34032/0937 SLP173 T10111039', 'KAMW 150853Z AUTO 34020G33KT 10SM OVC014 00/M03 A3001 RMK AO2 PK WND 34035/0816 SLP166 60000 T00001033 53041', 'KAMW 150804Z AUTO 34024G32KT 10SM BKN011 OVC023 01/M02 A2997 RMK AO2 PK WND 33032/0804 PRESRR T00111017', 'KAMW 150753Z AUTO 34020G28KT 10SM SCT012 OVC023 01/M02 A2995 RMK AO2 PK WND 35029/0658 SLP146 T00111017', 'KAMW 150721Z AUTO 34016G24KT 10SM SCT009 OVC018 01/M01 A2994 RMK AO2 PK WND 35029/0658 T00111011', 'KAMW 150653Z AUTO 34021G30KT 10SM OVC008 01/M01 A2993 RMK AO2 PK WND 34033/0634 RAE0554 SLP139 P0000 T00111011', 'KAMW 150617Z AUTO 34021G28KT 10SM BKN007 BKN010 OVC048 03/02 A2991 RMK AO2 PK WND 32028/0609 RAE0554 PRESRR P0000 T00330017', 'KAMW 150553Z AUTO 36011KT 10SM -RA BKN035 OVC050 05/03 A2989 RMK AO2 RAE14B41 SLP122 P0000 60000 T00500028 10106 20050 401331056 53015', 'KAMW 150453Z AUTO 33010KT 10SM -RA FEW027 OVC037 08/01 A2988 RMK AO2 RAB49 SLP120 P0000 T00780011', 'KAMW 150353Z AUTO 15013KT 10SM BKN100 08/01 A2983 RMK AO2 RAB08E21 SLP104 P0000 T00780011', 'KAMW 150253Z AUTO 14014KT 10SM FEW085 08/01 A2984 RMK AO2 SLP109 T00780011 58023', 'KAMW 150153Z AUTO 14010KT 10SM SCT070 OVC090 09/00 A2988 RMK AO2 SLP123 T00890000', 'KAMW 150053Z AUTO 13010KT 10SM BKN080 OVC095 09/M01 A2991 RMK AO2 SLP134 T00891006', 'KAMW 142353Z AUTO 13010KT 10SM BKN110 10/M01 A2991 RMK AO2 SLP134 T01001006 10133 20100 56020', 'KAMW 142253Z AUTO 13012KT 10SM FEW100 12/M01 A2992 RMK AO2 SLP135 T01171006', 'KAMW 142153Z AUTO 13016KT 10SM CLR 12/M01 A2994 RMK AO2 SLP143 T01221006', 'KAMW 142053Z AUTO 14016G21KT 10SM CLR 12/00 A2997 RMK AO2 SLP152 T01220000 56038', 'KAMW 141953Z AUTO 14016G23KT 10SM CLR 13/00 A3000 RMK AO2 SLP162 T01280000', 'KAMW 141853Z AUTO 16014KT 10SM CLR 11/M01 A3004 RMK AO2 SLP177 T01111006', 'KAMW 141753Z AUTO 16011KT 10SM CLR 11/M01 A3009 RMK AO2 SLP191 T01111006 10111 21044 58018', 'KAMW 141653Z AUTO 17010KT 10SM SCT055 08/M01 A3013 RMK AO2 SLP207 T00781011', 'KAMW 141553Z AUTO 17008KT 10SM OVC055 04/M01 A3014 RMK AO2 SLP212 T00391011', 'KAMW 141453Z AUTO 12004KT 10SM BKN060 00/M03 A3014 RMK AO2 SLP213 T00001028 50006', 'KAMW 141353Z AUTO 00000KT 8SM BKN055 M02/M04 A3015 RMK AO2 SLP216 T10221039', 'KAMW 141253Z AUTO 00000KT 10SM BKN055 M04/M06 A3012 RMK AO2 SLP208 T10441061', 'KAMW 141153Z AUTO 00000KT 10SM CLR M04/M07 A3012 RMK AO2 SLP207 T10441067 10000 21056 53005', 'KAMW 141053Z AUTO 00000KT 10SM CLR M04/M06 A3010 RMK AO2 SLP199 T10391061', 'KAMW 140953Z AUTO 00000KT 10SM CLR M04/M07 A3010 RMK AO2 SLP199 T10391067', 'KAMW 140853Z AUTO 00000KT 10SM CLR M02/M05 A3011 RMK AO2 SLP199 T10221050 51008', 'KAMW 140753Z AUTO 00000KT 10SM BKN055 M03/M06 A3010 RMK AO2 SLP197 T10281056', 'KAMW 140653Z AUTO 00000KT 10SM CLR M02/M06 A3010 RMK AO2 SLP197 T10221056', 'KAMW 140553Z AUTO 00000KT 10SM CLR M01/M05 A3008 RMK AO2 SLP192 T10111050 10056 21017 400891022 53005', 'KAMW 140453Z AUTO 00000KT 10SM FEW050 BKN110 01/M03 A3007 RMK AO2 SLP188 T00111033', 'KAMW 140353Z AUTO 00000KT 10SM BKN065 BKN095 02/M04 A3007 RMK AO2 SLP188 T00221039', 'KAMW 140253Z AUTO 00000KT 10SM OVC070 03/M04 A3007 RMK AO2 SLP187 T00281039 53010', 'KAMW 140153Z AUTO 00000KT 10SM FEW055 SCT070 BKN110 01/M04 A3005 RMK AO2 SLP184 T00111039', 'KAMW 140053Z AUTO 12004KT 10SM BKN100 03/M04 A3004 RMK AO2 SLP180 T00331039', 'KAMW 132353Z AUTO 00000KT 10SM OVC100 04/M04 A3003 RMK AO2 SLP175 T00441044 10089 20044 53013', 'KAMW 132253Z AUTO 00000KT 10SM CLR 08/M04 A3001 RMK AO2 SLP165 T00781044', 'KAMW 132153Z AUTO 00000KT 10SM CLR 09/M04 A3000 RMK AO2 SLP162 T00891044', 'KAMW 132053Z AUTO 00000KT 10SM OVC060 08/M04 A2999 RMK AO2 SLP161 T00831039 56017', 'KAMW 131953Z AUTO 00000KT 10SM CLR 08/M03 A3000 RMK AO2 SLP164 T00831033', 'KAMW 131853Z AUTO 00000KT 10SM BKN070 07/M04 A3002 RMK AO2 SLP170 T00671039', 'KAMW 131753Z AUTO 17004KT 10SM CLR 06/M03 A3005 RMK AO2 SLP180 T00611033 10061 21017 50001', 'KAMW 131653Z AUTO VRB03KT 10SM BKN070 05/M04 A3006 RMK AO2 SLP184 T00501039', 'KAMW 131553Z AUTO 10SM CLR 03/M04 A3005 RMK AO2 SLP180 T00331039', 'KAMW 131453Z AUTO 10SM BKN075 01/M04 A3004 RMK AO2 SLP179 T00061039 53011', 'KAMW 131353Z AUTO 10SM BKN085 OVC110 M01/M04 A3002 RMK AO2 SLP175 T10111039', 'KAMW 131253Z AUTO 00000KT 10SM SCT070 OVC090 M01/M04 A3001 RMK AO2 SLP170 T10111039', 'KAMW 131153Z AUTO 35004KT 10SM SCT070 OVC085 M01/M04 A3001 RMK AO2 SLP167 T10061039 10000 21022 53007', 'KAMW 131053Z AUTO 36004KT 10SM OVC075 M01/M04 A3000 RMK AO2 SLP162 T10111039', 'KAMW 130953Z AUTO 36003KT 10SM OVC080 M01/M04 A2999 RMK AO2 SLP158 T10061039', 'KAMW 130853Z AUTO 34003KT 10SM OVC085 M01/M04 A2999 RMK AO2 SLP158 T10061044 51017', 'KAMW 130753Z AUTO 00000KT 10SM SCT100 OVC110 M01/M05 A2997 RMK AO2 SLP152 T10061050', 'KAMW 130653Z AUTO 34003KT 10SM SCT110 M01/M06 A2996 RMK AO2 SLP148 T10111056', 'KAMW 130553Z AUTO 00000KT 10SM CLR M01/M06 A2994 RMK AO2 SLP141 T10061056 10061 21017 401061067 53008', 'KAMW 130453Z AUTO 00000KT 10SM CLR M02/M06 A2992 RMK AO2 SLP139 T10171061', 'KAMW 130353Z AUTO 34006KT 10SM CLR 01/M06 A2992 RMK AO2 SLP137 T00061056', 'KAMW 130253Z AUTO 30008KT 10SM CLR 02/M05 A2991 RMK AO2 SLP135 T00221050 51004', 'KAMW 130153Z AUTO 27006KT 10SM CLR M01/M06 A2991 RMK AO2 SLP136 T10111061', 'KAMW 130053Z AUTO 28004KT 10SM CLR 01/M06 A2990 RMK AO2 SLP135 T00061061', 'KAMW 122353Z AUTO 32004KT 10SM CLR 06/M06 A2990 RMK AO2 SLP131 T00561061 10106 20056 53004', 'KAMW 122253Z AUTO 33006KT 10SM CLR 08/M06 A2989 RMK AO2 SLP127 T00831056', 'KAMW 122153Z AUTO 33009KT 10SM CLR 10/M06 A2989 RMK AO2 SLP126 T01001061', 'KAMW 122053Z AUTO 34010KT 10SM CLR 11/M05 A2989 RMK AO2 SLP125 T01061050 56014', 'KAMW 121953Z AUTO 36010KT 10SM CLR 10/M03 A2989 RMK AO2 SLP126 T01001033', 'KAMW 121853Z AUTO 33010KT 10SM CLR 08/M02 A2991 RMK AO2 SLP133 T00831022', 'KAMW 121753Z AUTO 35011KT 10SM CLR 07/M02 A2993 RMK AO2 SLP141 T00671022 10067 21067 58003', 'KAMW 121653Z AUTO 34009KT 10SM CLR 05/M02 A2994 RMK AO2 SLP144 T00501017', 'KAMW 121553Z AUTO 35010KT 10SM CLR 02/M02 A2994 RMK AO2 SLP146 T00221022', 'KAMW 121453Z AUTO 33009KT 10SM CLR 00/M03 A2994 RMK AO2 SLP145 T00001033 55000', 'KAMW 121353Z AUTO 29004KT 9SM CLR M04/M06 A2994 RMK AO2 SLP147 T10441061', 'KAMW 121253Z AUTO 00000KT 9SM CLR M06/M08 A2994 RMK AO2 SLP148 T10611083', 'KAMW 121153Z AUTO 23005KT 9SM CLR M06/M08 A2994 RMK AO2 SLP146 T10561078 11028 21067 56006', 'KAMW 121053Z AUTO 16003KT 10SM CLR M04/M07 A2994 RMK AO2 SLP147 T10441072']","['2024-02-15 09:53:00', '2024-02-15 08:53:00', '2024-02-15 08:04:00', '2024-02-15 07:53:00', '2024-02-15 07:21:00', '2024-02-15 06:53:00', '2024-02-15 06:17:00', '2024-02-15 05:53:00', '2024-02-15 04:53:00', '2024-02-15 03:53:00', '2024-02-15 02:53:00', '2024-02-15 01:53:00', '2024-02-15 00:53:00', '2024-02-14 23:53:00', '2024-02-14 22:53:00', '2024-02-14 21:53:00', '2024-02-14 20:53:00', '2024-02-14 19:53:00', '2024-02-14 18:53:00', '2024-02-14 17:53:00', '2024-02-14 16:53:00', '2024-02-14 15:53:00', '2024-02-14 14:53:00', '2024-02-14 13:53:00', '2024-02-14 12:53:00', '2024-02-14 11:53:00', '2024-02-14 10:53:00', '2024-02-14 09:53:00', '2024-02-14 08:53:00', '2024-02-14 07:53:00', '2024-02-14 06:53:00', '2024-02-14 05:53:00', '2024-02-14 04:53:00', '2024-02-14 03:53:00', '2024-02-14 02:53:00', '2024-02-14 01:53:00', '2024-02-14 00:53:00', '2024-02-13 23:53:00', '2024-02-13 22:53:00', '2024-02-13 21:53:00', '2024-02-13 20:53:00', '2024-02-13 19:53:00', '2024-02-13 18:53:00', '2024-02-13 17:53:00', '2024-02-13 16:53:00', '2024-02-13 15:53:00', '2024-02-13 14:53:00', '2024-02-13 13:53:00', '2024-02-13 12:53:00', '2024-02-13 11:53:00', '2024-02-13 10:53:00', '2024-02-13 09:53:00', '2024-02-13 08:53:00', '2024-02-13 07:53:00', '2024-02-13 06:53:00', '2024-02-13 05:53:00', '2024-02-13 04:53:00', '2024-02-13 03:53:00', '2024-02-13 02:53:00', '2024-02-13 01:53:00', '2024-02-13 00:53:00', '2024-02-12 23:53:00', '2024-02-12 22:53:00', '2024-02-12 21:53:00', '2024-02-12 20:53:00', '2024-02-12 19:53:00', '2024-02-12 18:53:00', '2024-02-12 17:53:00', '2024-02-12 16:53:00', '2024-02-12 15:53:00', '2024-02-12 14:53:00', '2024-02-12 13:53:00', '2024-02-12 12:53:00', '2024-02-12 11:53:00', '2024-02-12 10:53:00']"
United-states, Anaktuvuk Pass Airport (AKP/PAKP) ,"['PAKP 150956Z AUTO 00000KT 10SM CLR M05/M09 A2979 RMK AO2 SLP131 T10501089 FZRANO', 'PAKP 150856Z AUTO 00000KT 10SM CLR M03/M07 A2979 RMK AO2 SLP132 T10331072 56001 FZRANO', 'PAKP 150756Z AUTO 22007KT 10SM CLR M03/M07 A2979 RMK AO2 SLP132 T10281067 400171028 FZRANO', 'PAKP 150656Z AUTO 22008KT 10SM CLR M02/M06 A2979 RMK AO2 SLP131 T10221061 FZRANO', 'PAKP 150556Z AUTO 21009KT 10SM SCT120 M02/M06 A2980 RMK AO2 SLP132 T10171056 10017 21028 51009 FZRANO', 'PAKP 150456Z AUTO 21009KT 10SM CLR M01/M05 A2979 RMK AO2 SLP130 T10111050 FZRANO', 'PAKP 150356Z AUTO 22008KT 10SM FEW055 M02/M06 A2978 RMK AO2 SLP127 T10221061 FZRANO', 'PAKP 150256Z AUTO 20011KT 10SM BKN065 M02/M06 A2977 RMK AO2 SLP123 T10171056 53011 FZRANO', 'PAKP 150156Z AUTO 19014G20KT 10SM BKN055 M01/M04 A2975 RMK AO2 SLP116 T10061044 FZRANO', 'PAKP 150056Z AUTO 21014G18KT 10SM BKN041 OVC055 01/M04 A2974 RMK AO2 SLP112 T00111044 FZRANO', 'PAKP 142356Z AUTO 21012G23KT 10SM BKN043 OVC055 02/M04 A2973 RMK AO2 PK WND 25032/2306 SLP107 P0002 60009 T00171039 10017 20000 52012 FZRANO', 'PAKP 142256Z AUTO 23018G26KT 7SM BKN047 OVC060 01/M03 A2971 RMK AO2 PK WND 23027/2235 RAB08E36 SLP101 P0002 T00111033 FZRANO', 'PAKP 142156Z AUTO 20012G21KT 10SM BKN045 OVC055 01/M03 A2971 RMK AO2 RAB29E56SNE29 SLP102 P0003 T00111033 FZRANO', 'PAKP 142056Z AUTO 17019G24KT 4SM -SN FEW035 BKN043 OVC049 01/M04 A2969 RMK AO2 PK WND 18028/2000 SLP094 P0002 60002 T00111039 53017 FZRANO', 'PAKP 141956Z AUTO 17018G28KT 5SM -SN BKN041 OVC050 01/M04 A2968 RMK AO2 PK WND 20032/1858 RAE08SNB08 SLP089 P0000 T00111039 FZRANO', 'PAKP 141856Z AUTO 16018G25KT 9SM -RA FEW032 OVC045 01/M04 A2965 RMK AO2 PK WND 16032/1827 RAB56SNE56 SLP081 P0000 T00111044 FZRANO', 'PAKP 141823Z AUTO 19015G29KT 3SM -SN SCT031 OVC044 01/M04 A2965 RMK AO2 PK WND 16030/1806 P0000 FZRANO', 'PAKP 141756Z AUTO 18018G29KT 3SM -SN FEW025 SCT041 OVC050 00/M04 A2964 RMK AO2 PK WND 17033/1717 SLP079 P0000 60000 T00001039 10000 21006 58001 FZRANO', 'PAKP 141706Z AUTO 18025G32KT 1 1/2SM -SN FEW020 BKN032 OVC050 M01/M03 A2963 RMK AO2 PK WND 17032/1706 VIS 1V2 1/2 P0000 FZRANO', 'PAKP 141656Z AUTO 18025G33KT 1SM -SN BKN025 BKN031 OVC045 M01/M03 A2963 RMK AO2 PK WND 17033/1654 PRESFR SLP076 P0000 T10061033 FZRANO', 'PAKP 141556Z AUTO 18020G30KT 1 1/2SM -SN SCT020 BKN028 OVC041 M01/M03 A2966 RMK AO2 PK WND 18032/1543 SLP084 P0000 T10061033 FZRANO', 'PAKP 141509Z AUTO 18023G30KT 1 3/4SM -SN FEW025 BKN041 OVC048 00/M04 A2964 RMK AO2 PK WND 17030/1508 VIS 1V5 P0000 FZRANO', 'PAKP 141456Z AUTO 18020KT 4SM -SN FEW033 BKN042 OVC070 M01/M04 A2964 RMK AO2 PK WND 17029/1402 SLP081 P0000 60000 T10061044 50001 FZRANO', 'PAKP 141419Z AUTO 19015G27KT 3SM -SN FEW024 BKN037 OVC050 M01/M04 A2965 RMK AO2 PK WND 17029/1402 P0000 FZRANO', 'PAKP 141356Z AUTO 19021G28KT 1 1/2SM -SN FEW017 BKN024 OVC039 M01/M04 A2965 RMK AO2 PK WND 18030/1338 VIS 1V3 SLP082 P0000 T10061039 FZRANO', 'PAKP 141256Z AUTO 19019G27KT 1 3/4SM -SN BKN025 BKN032 OVC039 00/M03 A2964 RMK AO2 PK WND 18030/1219 SLP079 P0000 T00001033 FZRANO', 'PAKP 141227Z AUTO 18017G30KT 2 1/2SM -SN FEW022 BKN034 OVC044 00/M04 A2964 RMK AO2 PK WND 18030/1219 VIS 1 3/4V3 P0000 FZRANO', 'PAKP 141156Z AUTO 19022G27KT 6SM -SN SCT035 BKN043 OVC049 00/M04 A2962 RMK AO2 PK WND 17033/1109 SLP074 P0000 60000 T00001044 10006 21017 51006 FZRANO', 'PAKP 141129Z AUTO 18023G31KT 1 1/2SM -SN SCT034 SCT043 OVC050 M01/M04 A2963 RMK AO2 PK WND 17033/1109 P0000 FZRANO', 'PAKP 141056Z AUTO 18023G31KT 2SM -SN BKN047 OVC055 00/M05 A2962 RMK AO2 PK WND 18032/1044 VIS 1 1/2V3 SLP073 P0000 T00001050 FZRANO', 'PAKP 140956Z AUTO 19024G31KT 5SM -SN BKN041 OVC049 00/M05 A2962 RMK AO2 PK WND 17034/0925 RAE01SNB01 SLP073 P0000 T00001050 FZRANO', 'PAKP 140856Z AUTO 18022G33KT 10SM -RA BKN065 OVC080 01/M06 A2960 RMK AO2 PK WND 16036/0830 UPE14B30E31RAB31 SLP066 P0000 60000 T00061056 56012 FZRANO', 'PAKP 140756Z AUTO 18019G28KT 10SM UP BKN041 00/M07 A2962 RMK AO2 PK WND 19030/0738 UPB12E27B48SNE12B27E48 SLP072 P0000 T00001067 400001167 FZRANO', 'PAKP 140656Z AUTO 20020G26KT 8SM -SN FEW042 BKN049 OVC055 00/M06 A2962 RMK AO2 PK WND 19029/0629 SLP072 P0000 T00001056 FZRANO', 'PAKP 140556Z AUTO 23012G24KT 5SM -SN FEW022 OVC040 M02/M05 A2964 RMK AO2 PK WND 21033/0514 SLP082 P0000 60000 T10171050 11011 21033 58006 FZRANO', 'PAKP 140507Z AUTO 22018G21KT 2 1/2SM -SN FEW024 BKN034 OVC042 M02/M05 A2964 RMK AO2 VIS 2V4 P0000 FZRANO', 'PAKP 140456Z AUTO 22017G26KT 3SM -SN FEW027 OVC036 M02/M05 A2965 RMK AO2 PK WND 20030/0412 SLP087 P0000 T10221050 FZRANO', 'PAKP 140422Z AUTO 20019G28KT 2SM -SN BKN032 OVC040 M02/M06 A2966 RMK AO2 PK WND 20030/0412 VIS 1 1/2V3 P0000 FZRANO', 'PAKP 140356Z AUTO 19021G29KT 4SM -SN SCT034 BKN045 OVC055 M01/M06 A2965 RMK AO2 PK WND 17029/0354 SNB25 SLP086 P0000 T10111061 FZRANO', 'PAKP 140256Z AUTO 19018G24KT 10SM CLR M02/M07 A2966 RMK AO2 SLP091 60000 T10171072 58009 FZRANO', 'PAKP 140156Z AUTO 20013G20KT 10SM BKN048 M02/M07 A2968 RMK AO2 SNE0057 SLP102 T10221072 FZRANO', 'PAKP 140056Z AUTO 21015G20KT 9SM -SN BKN045 M02/M07 A2968 RMK AO2 SNB16 SLP103 P0000 T10221067 FZRANO', 'PAKP 132356Z AUTO 23015G22KT 10SM SCT039 BKN050 M03/M07 A2969 RMK AO2 SLP107 60000 T10281067 11022 21033 58019 FZRANO', 'PAKP 132256Z AUTO 23008G15KT 10SM OVC047 M02/M07 A2972 RMK AO2 SLP119 T10221072 FZRANO', 'PAKP 132204Z AUTO 21007KT 10SM SCT029 OVC034 M02/M07 A2974 RMK AO2 FZRANO', 'PAKP 132156Z AUTO 22008KT 10SM BKN028 OVC035 M02/M07 A2974 RMK AO2 SLP128 T10221067 FZRANO', 'PAKP 132056Z AUTO 21012KT 10SM FEW033 OVC048 M02/M06 A2975 RMK AO2 SNB36E47 SLP131 P0000 60000 T10221061 53007 FZRANO', 'PAKP 131956Z AUTO 22010G17KT 10SM BKN039 OVC046 M03/M07 A2972 RMK AO2 SLP122 T10281067 FZRANO', 'PAKP 131856Z AUTO 24008G17KT 10SM OVC036 M03/M07 A2972 RMK AO2 SNE12 SLP124 P0000 T10281072 FZRANO', 'PAKP 131756Z AUTO 21009KT 9SM -SN BKN034 OVC043 M03/M07 A2973 RMK AO2 SLP127 P0000 60000 T10331072 11033 21106 51004 FZRANO', 'PAKP 131656Z AUTO 19014G18KT 9SM -SN SCT030 BKN038 OVC044 M04/M07 A2972 RMK AO2 SLP125 P0000 T10391072 FZRANO', 'PAKP 131556Z AUTO 19012KT 9SM -SN BKN030 OVC037 M04/M08 A2972 RMK AO2 SLP125 P0000 T10441078 FZRANO', 'PAKP 131513Z AUTO 25007KT 9SM -SN BKN028 OVC035 M06/M08 A2972 RMK AO2 P0000 FZRANO', 'PAKP 131456Z AUTO 25010KT 9SM -SN BKN030 OVC038 M07/M08 A2971 RMK AO2 SLP124 P0000 60000 T10671083 58011 FZRANO', 'PAKP 131356Z AUTO VRB03KT 4SM -SN BR SCT029 BKN035 OVC042 M09/M11 A2974 RMK AO2 SLP134 P0000 T10941111 FZRANO', 'PAKP 131256Z AUTO 00000KT 9SM -SN BKN034 OVC040 M11/M12 A2975 RMK AO2 SNB1158 SLP137 P0000 T11061122 FZRANO', 'PAKP 131156Z AUTO VRB03KT 10SM OVC034 M12/M14 A2975 RMK AO2 SNB30E47 SLP137 P0000 60000 T11221139 11122 21183 58004 FZRANO', 'PAKP 131056Z AUTO 21003KT 9SM OVC038 M13/M16 A2976 RMK AO2 SLP139 T11331156 FZRANO', 'PAKP 130956Z AUTO 27003KT 10SM OVC046 M14/M16 A2977 RMK AO2 SLP143 T11391156 FZRANO', 'PAKP 130856Z AUTO 00000KT 10SM OVC070 M15/M17 A2976 RMK AO2 SLP142 T11501167 56009 FZRANO', 'PAKP 130756Z AUTO 00000KT 10SM BKN048 M17/M19 A2977 RMK AO2 SLP146 T11671189 410781183 FZRANO', 'PAKP 130656Z AUTO 00000KT 10SM CLR M18/M20 A2978 RMK AO2 SLP150 T11781200 FZRANO', 'PAKP 130556Z AUTO 00000KT 10SM CLR M18/M19 A2979 RMK AO2 SLP154 T11781194 11117 21178 58006 FZRANO', 'PAKP 130456Z AUTO 17003KT 10SM CLR M17/M19 A2980 RMK AO2 SLP158 T11671189 FZRANO', 'PAKP 130356Z AUTO 00000KT 10SM CLR M17/M18 A2980 RMK AO2 SLP158 T11671183 FZRANO', 'PAKP 130256Z AUTO 00000KT 10SM CLR M16/M18 A2981 RMK AO2 SLP159 T11561183 55001 FZRANO', 'PAKP 130156Z AUTO 16003KT 10SM CLR M14/M17 A2981 RMK AO2 SLP156 T11441167 FZRANO', 'PAKP 130056Z AUTO 00000KT 10SM CLR M13/M15 A2981 RMK AO2 SLP155 T11281150 FZRANO', 'PAKP 122356Z AUTO 17005KT 10SM CLR M11/M14 A2981 RMK AO2 SLP155 60000 T11111139 11078 21111 53015 FZRANO', 'PAKP 122256Z AUTO 24009KT 10SM SCT037 M08/M11 A2979 RMK AO2 SNE13 SLP146 P0000 T10781111 FZRANO', 'PAKP 122156Z AUTO 19011KT 9SM -SN OVC039 M08/M11 A2978 RMK AO2 SNE03B43 SLP140 P0000 T10831111 FZRANO', 'PAKP 122056Z AUTO 20013KT 10SM -SN OVC039 M08/M11 A2977 RMK AO2 SNB53 SLP136 P0000 60000 T10831111 51023 FZRANO', 'PAKP 121956Z AUTO 21007KT 10SM OVC043 M08/M11 A2974 RMK AO2 SNE05 SLP128 P0000 T10831111 FZRANO', 'PAKP 121856Z AUTO 18009KT 9SM -SN BKN043 OVC050 M08/M11 A2972 RMK AO2 SNB41 SLP121 P0000 T10831106 FZRANO', 'PAKP 121756Z AUTO 22009KT 10SM OVC043 M08/M11 A2969 RMK AO2 SNB27E48 SLP113 P0000 60000 T10831111 11078 21094 51018 FZRANO', 'PAKP 121656Z AUTO 21008KT 10SM BKN045 OVC055 M09/M12 A2967 RMK AO2 SNB31E44 SLP106 P0000 T10891117 FZRANO', 'PAKP 121556Z AUTO 22008KT 10SM OVC047 M09/M11 A2966 RMK AO2 SNE37 SLP101 P0000 T10891111 FZRANO', 'PAKP 121456Z AUTO 23010KT 10SM -SN FEW036 BKN049 M09/M11 A2964 RMK AO2 SLP094 P0000 60000 T10891111 51016 FZRANO', 'PAKP 121356Z AUTO 21009KT 9SM -SN OVC055 M08/M11 A2962 RMK AO2 SNB04E14B34 SLP089 P0000 T10831106 FZRANO', 'PAKP 121256Z AUTO 20013KT 10SM OVC048 M08/M11 A2961 RMK AO2 SNE00B17E26 SLP083 P0000 T10781106 FZRANO', 'PAKP 121156Z AUTO 20011KT 9SM -SN FEW031 BKN044 OVC050 M09/M11 A2959 RMK AO2 SLP077 P0000 60000 T10891106 11083 21094 52020 FZRANO', 'PAKP 121056Z AUTO 21010KT 9SM -SN FEW024 BKN030 OVC037 M09/M11 A2957 RMK AO2 SLP070 P0000 T10891106 FZRANO']","['2024-02-15 09:56:00', '2024-02-15 08:56:00', '2024-02-15 07:56:00', '2024-02-15 06:56:00', '2024-02-15 05:56:00', '2024-02-15 04:56:00', '2024-02-15 03:56:00', '2024-02-15 02:56:00', '2024-02-15 01:56:00', '2024-02-15 00:56:00', '2024-02-14 23:56:00', '2024-02-14 22:56:00', '2024-02-14 21:56:00', '2024-02-14 20:56:00', '2024-02-14 19:56:00', '2024-02-14 18:56:00', '2024-02-14 18:23:00', '2024-02-14 17:56:00', '2024-02-14 17:06:00', '2024-02-14 16:56:00', '2024-02-14 15:56:00', '2024-02-14 15:09:00', '2024-02-14 14:56:00', '2024-02-14 14:19:00', '2024-02-14 13:56:00', '2024-02-14 12:56:00', '2024-02-14 12:27:00', '2024-02-14 11:56:00', '2024-02-14 11:29:00', '2024-02-14 10:56:00', '2024-02-14 09:56:00', '2024-02-14 08:56:00', '2024-02-14 07:56:00', '2024-02-14 06:56:00', '2024-02-14 05:56:00', '2024-02-14 05:07:00', '2024-02-14 04:56:00', '2024-02-14 04:22:00', '2024-02-14 03:56:00', '2024-02-14 02:56:00', '2024-02-14 01:56:00', '2024-02-14 00:56:00', '2024-02-13 23:56:00', '2024-02-13 22:56:00', '2024-02-13 22:04:00', '2024-02-13 21:56:00', '2024-02-13 20:56:00', '2024-02-13 19:56:00', '2024-02-13 18:56:00', '2024-02-13 17:56:00', '2024-02-13 16:56:00', '2024-02-13 15:56:00', '2024-02-13 15:13:00', '2024-02-13 14:56:00', '2024-02-13 13:56:00', '2024-02-13 12:56:00', '2024-02-13 11:56:00', '2024-02-13 10:56:00', '2024-02-13 09:56:00', '2024-02-13 08:56:00', '2024-02-13 07:56:00', '2024-02-13 06:56:00', '2024-02-13 05:56:00', '2024-02-13 04:56:00', '2024-02-13 03:56:00', '2024-02-13 02:56:00', '2024-02-13 01:56:00', '2024-02-13 00:56:00', '2024-02-12 23:56:00', '2024-02-12 22:56:00', '2024-02-12 21:56:00', '2024-02-12 20:56:00', '2024-02-12 19:56:00', '2024-02-12 18:56:00', '2024-02-12 17:56:00', '2024-02-12 16:56:00', '2024-02-12 15:56:00', '2024-02-12 14:56:00', '2024-02-12 13:56:00', '2024-02-12 12:56:00', '2024-02-12 11:56:00', '2024-02-12 10:56:00']"
United-states, Anchorage Ted Stevens International Airport (ANC/PANC) ,"['PANC 150953Z 00000KT 10SM CLR M03/M09 A2995 RMK AO2 SLP145 T10281089', 'PANC 150853Z 00000KT 10SM FEW130 FEW200 M02/M07 A2995 RMK AO2 SLP144 T10171067 400671039 56007', 'PANC 150753Z 00000KT 10SM FEW120 FEW200 M02/M08 A2996 RMK AO2 SLP146 T10221083', 'PANC 150653Z 11003KT 10SM FEW120 M03/M09 A2996 RMK AO2 SLP147 T10331089', 'PANC 150553Z 08003KT 10SM FEW120 01/M08 A2997 RMK AO2 SLP151 4/030 T00061083 10039 21017 50003', 'PANC 150453Z VRB03KT 10SM FEW120 01/M08 A2998 RMK AO2 SLP154 T00111078', 'PANC 150353Z VRB03KT 10SM FEW120 00/M07 A2997 RMK AO2 SLP151 T00001072', 'PANC 150253Z 34003KT 10SM FEW120 02/M07 A2996 RMK AO2 SLP148 T00171072 52001', 'PANC 150153Z VRB04KT 10SM SCT120 02/M07 A2996 RMK AO2 SLP147 T00221067', 'PANC 150053Z 00000KT 10SM FEW120 02/M06 A2996 RMK AO2 SLP149 T00221061', 'PANC 142353Z 00000KT 10SM FEW120 03/M07 A2996 RMK AO2 SLP147 4/030 T00281067 10033 21022 56017', 'PANC 142253Z VRB04KT 10SM CLR 02/M08 A2997 RMK AO2 SLP151 T00221078', 'PANC 142153Z 08004KT 10SM CLR 01/M07 A2999 RMK AO2 SLP159 T00061072', 'PANC 142053Z 08005KT 10SM FEW150 00/M07 A3001 RMK AO2 SLP165 T00001067 58007', 'PANC 141953Z VRB04KT 10SM CLR M01/M06 A3003 RMK AO2 SLP170 T10111061 $', 'PANC 141853Z VRB03KT 10SM CLR M02/M07 A3003 RMK AO2 SLP171 T10171072', 'PANC 141753Z 04003KT 10SM FEW120 01/M07 A3003 RMK AO2 SLP171 4/030 T00061067 10067 21017 51004', 'PANC 141653Z 13017G27KT 10SM FEW200 06/M08 A3003 RMK AO2 PK WND 15032/1628 SLP170 T00561083', 'PANC 141553Z 14018G29KT 10SM CLR 06/M08 A3002 RMK AO2 PK WND 14035/1512 SLP169 T00611083', 'PANC 141453Z 15021G35KT 10SM BKN200 06/M07 A3002 RMK AO2 PK WND 15036/1441 SLP167 T00561072 58001', 'PANC 141353Z 15020G35KT 10SM BKN200 06/M06 A3002 RMK AO2 PK WND 14037/1257 SLP169 T00561061', 'PANC 141253Z 14023G37KT 10SM BKN200 06/M06 A3003 RMK AO2 PK WND 15039/1229 SLP172 T00561056', 'PANC 141153Z 15020G35KT 10SM BKN200 06/M05 A3002 RMK AO2 PK WND 14039/1109 SLP169 4/031 T00561050 10061 20011 53005', 'PANC 141053Z 14019G31KT 10SM CLR 06/M05 A3001 RMK AO2 PK WND 16039/1042 SLP165 T00611050', 'PANC 140953Z 14013G23KT 10SM CLR 06/M04 A3000 RMK AO2 PK WND 14035/0909 SLP159 T00611044', 'PANC 140853Z 13015G27KT 10SM BKN200 06/M04 A3001 RMK AO2 PK WND 14028/0840 SLP164 4/031 T00561039 400610011 51012', 'PANC 140753Z 10SM BKN140 OVC200 05/M04 A3000 RMK AO2 SLP160 T00501039', 'PANC 140653Z 33005KT 10SM BKN140 OVC200 03/M04 A2999 RMK AO2 SLP158 T00281039', 'PANC 140553Z 11009G16KT 10SM BKN120 OVC160 04/M03 A2997 RMK AO2 SLP151 4/031 T00391033 10056 20017 50003', 'PANC 140453Z 00000KT 10SM BKN140 BKN200 02/M03 A2998 RMK AO2 SLP156 T00221028', 'PANC 140353Z 15008G19KT 110V200 10SM BKN140 BKN200 04/M03 A2997 RMK AO2 PK WND 13032/0324 SLP149 T00441033', 'PANC 140253Z 14015G28KT 10SM BKN140 OVC200 04/M02 A2996 RMK AO2 PK WND 13037/0222 SLP148 T00441022 58007', 'PANC 140153Z 15020G32KT 10SM FEW040 BKN150 OVC200 04/M02 A2998 RMK AO2 PK WND 13037/0139 SLP153 VIRGA SW-NW T00441022', 'PANC 140053Z 15017G30KT 10SM BKN150 OVC200 04/M02 A2998 RMK AO2 PK WND 14035/0002 SLP155 VIRGA SW-W ACSL NW-N T00441017', 'PANC 132353Z 15020G40KT 10SM BKN150 OVC200 04/M02 A2998 RMK AO2 PK WND 16040/2351 SLP154 4/031 T00441017 10056 20033 56010', 'PANC 132253Z 17011G27KT 10SM BKN140 BKN200 04/M02 A2999 RMK AO2 PK WND 13029/2157 SLP157 T00441022', 'PANC 132153Z 13017G33KT 10SM FEW070 BKN250 04/M02 A2999 RMK AO2 PK WND 16034/2126 SLP156 T00441022', 'PANC 132053Z 15016G24KT 10SM FEW070 BKN250 04/M02 A3001 RMK AO2 PK WND 16030/2036 SLP165 T00441022 53001', 'PANC 131953Z 15015G27KT 10SM FEW070 BKN250 04/M02 A3000 RMK AO2 PK WND 14028/1937 SLP160 T00391017', 'PANC 131853Z 16014G28KT 10SM SCT070 BKN250 04/M02 A3002 RMK AO2 PK WND 16028/1845 SLP166 T00391022', 'PANC 131753Z 14014G23KT 10SM BKN075 04/M02 A3001 RMK AO2 PK WND 17033/1713 SLP164 4/031 T00391022 10056 20039 53018 VISNO N $', 'PANC 131653Z 16016G32KT 10SM SCT070 BKN250 04/M02 A2998 RMK AO2 PK WND 17039/1637 SLP154 T00441022', 'PANC 131553Z 17018G33KT 10SM FEW200 04/M02 A2996 RMK AO2 PK WND 18033/1553 SLP146 T00391017', 'PANC 131453Z VRB06G16KT 10SM SCT200 04/M02 A2995 RMK AO2 PK WND 16027/1434 SLP145 T00441022 55005 VISNO N', 'PANC 131353Z 14014G23KT 10SM CLR 05/M02 A2995 RMK AO2 PK WND 15033/1318 SLP143 T00501022 VISNO N', 'PANC 131253Z 14019G31KT 10SM CLR 06/M02 A2996 RMK AO2 PK WND 14031/1245 SLP146 T00561022 VISNO N', 'PANC 131153Z 15015G29KT 10SM CLR 04/M02 A2997 RMK AO2 PK WND 15032/1138 SLP151 T00441017 10044 20039 55000 VISNO N', 'PANC 131053Z 14015G27KT 10SM BKN110 04/M01 A2997 RMK AO2 PK WND 13031/0956 SLP150 T00391011 VISNO N', 'PANC 130953Z 15020G33KT 10SM BKN100 04/M01 A2997 RMK AO2 PK WND 15045/0910 SLP150 T00441011 VISNO N', 'PANC 130853Z 15024G44KT 10SM CLR 04/M01 A2997 RMK AO2 PK WND 15044/0848 SLP151 4/031 T00441006 400441039 53013 VISNO N', 'PANC 130753Z 15019G37KT 10SM FEW040 BKN120 04/M01 A2995 RMK AO2 PK WND 16037/0722 SLP144 T00391006 VISNO N', 'PANC 130653Z 15019G31KT 10SM FEW040 OVC080 04/M01 A2994 RMK AO2 PK WND 15036/0604 SLP142 T00441011 VISNO N', 'PANC 130553Z 15015G27KT 120V180 10SM FEW040 OVC080 04/M01 A2993 RMK AO2 PK WND 16039/0458 SLP138 4/031 T00391006 10044 21011 53018 VISNO N', 'PANC 130453Z 15022G33KT 10SM FEW040 OVC080 04/M01 A2990 RMK AO2 PK WND 16035/0436 WSHFT 0401 SLP127 T00391011 VISNO N', 'PANC 130421Z 14009G24KT 110V180 10SM FEW040 OVC080 04/M02 A2990 RMK AO2 WSHFT 0401 T00391017 VISNO N', 'PANC 130353Z 33007KT 10SM SCT060 OVC120 M01/M02 A2990 RMK AO2 PK WND 16026/0316 SLP126 T10061022 VISNO N', 'PANC 130253Z 34011G16KT 10SM FEW040 SCT060 OVC120 01/M02 A2988 RMK AO2 PK WND 17041/0208 SLP120 T00061022 53001 VISNO N', 'PANC 130153Z 14015G26KT 10SM BKN080 OVC100 04/M02 A2986 RMK AO2 PK WND 20026/0120 SLP113 VIRGA ALQDS T00391017 VISNO N', 'PANC 130053Z 17009KT 10SM BKN070 OVC090 04/M02 A2986 RMK AO2 SLP113 VIRGA ALQDS T00391017 VISNO N', 'PANC 122353Z 34009KT 10SM SCT080 OVC095 M01/M04 A2988 RMK AO2 SLP120 4/031 T10111039 10017 21028 58002 VISNO N', 'PANC 122253Z 01008KT 10SM OVC075 M01/M04 A2988 RMK AO2 SLP121 T10111039 VISNO N', 'PANC 122153Z 31010KT 10SM OVC100 M02/M04 A2989 RMK AO2 SLP125 T10171044 VISNO N', 'PANC 122053Z 34005KT 10SM OVC110 M01/M05 A2988 RMK AO2 SLP121 T10111050 51009 VISNO N', 'PANC 121953Z VRB06KT 10SM OVC110 01/M03 A2988 RMK AO2 SLP120 T00111028 VISNO N', 'PANC 121853Z 35007KT 10SM BKN045 OVC060 M02/M06 A2986 RMK AO2 SLP114 T10221056 VISNO N $', 'PANC 121753Z 00000KT 10SM OVC110 M02/M06 A2986 RMK AO2 SLP112 4/031 T10171056 11017 21039 50004', 'PANC 121653Z 09003KT 10SM BKN055 OVC110 M02/M04 A2986 RMK AO2 SLP113 T10221044', 'PANC 121553Z 07004KT 10SM BKN055 OVC110 M02/M04 A2986 RMK AO2 SLP115 T10221044', 'PANC 121453Z 09003KT 10SM BKN055 M03/M05 A2984 RMK AO2 SLP108 T10281050 51010', 'PANC 121353Z 11003KT 10SM BKN055 M03/M05 A2984 RMK AO2 SLP108 T10281050', 'PANC 121253Z VRB03KT 10SM SCT050 OVC065 M02/M04 A2983 RMK AO2 SLP105 T10221044', 'PANC 121153Z 00000KT 10SM OVC060 M03/M05 A2981 RMK AO2 SLP098 4/032 T10281050 11011 21033 53026', 'PANC 121053Z 33003KT 10SM OVC055 M03/M06 A2979 RMK AO2 SLP088 T10281056']","['2024-02-15 09:53:00', '2024-02-15 08:53:00', '2024-02-15 07:53:00', '2024-02-15 06:53:00', '2024-02-15 05:53:00', '2024-02-15 04:53:00', '2024-02-15 03:53:00', '2024-02-15 02:53:00', '2024-02-15 01:53:00', '2024-02-15 00:53:00', '2024-02-14 23:53:00', '2024-02-14 22:53:00', '2024-02-14 21:53:00', '2024-02-14 20:53:00', '2024-02-14 19:53:00', '2024-02-14 18:53:00', '2024-02-14 17:53:00', '2024-02-14 16:53:00', '2024-02-14 15:53:00', '2024-02-14 14:53:00', '2024-02-14 13:53:00', '2024-02-14 12:53:00', '2024-02-14 11:53:00', '2024-02-14 10:53:00', '2024-02-14 09:53:00', '2024-02-14 08:53:00', '2024-02-14 07:53:00', '2024-02-14 06:53:00', '2024-02-14 05:53:00', '2024-02-14 04:53:00', '2024-02-14 03:53:00', '2024-02-14 02:53:00', '2024-02-14 01:53:00', '2024-02-14 00:53:00', '2024-02-13 23:53:00', '2024-02-13 22:53:00', '2024-02-13 21:53:00', '2024-02-13 20:53:00', '2024-02-13 19:53:00', '2024-02-13 18:53:00', '2024-02-13 17:53:00', '2024-02-13 16:53:00', '2024-02-13 15:53:00', '2024-02-13 14:53:00', '2024-02-13 13:53:00', '2024-02-13 12:53:00', '2024-02-13 11:53:00', '2024-02-13 10:53:00', '2024-02-13 09:53:00', '2024-02-13 08:53:00', '2024-02-13 07:53:00', '2024-02-13 06:53:00', '2024-02-13 05:53:00', '2024-02-13 04:53:00', '2024-02-13 04:21:00', '2024-02-13 03:53:00', '2024-02-13 02:53:00', '2024-02-13 01:53:00', '2024-02-13 00:53:00', '2024-02-12 23:53:00', '2024-02-12 22:53:00', '2024-02-12 21:53:00', '2024-02-12 20:53:00', '2024-02-12 19:53:00', '2024-02-12 18:53:00', '2024-02-12 17:53:00', '2024-02-12 16:53:00', '2024-02-12 15:53:00', '2024-02-12 14:53:00', '2024-02-12 13:53:00', '2024-02-12 12:53:00', '2024-02-12 11:53:00', '2024-02-12 10:53:00']"
United-states, Anchorage Merrill Field Airport (MRI/PAMR) ,"['PAMR 150953Z 14003KT 10SM FEW120 BKN250 M04/M09 A2995 RMK AO2 SLP143 T10441089', 'PAMR 150853Z 00000KT 10SM FEW120 BKN250 M03/M08 A2995 RMK AO2 SLP144 T10331078 401001072 56007', 'PAMR 150753Z 32004KT 10SM FEW120 BKN250 M04/M09 A2996 RMK AO2 SLP146 T10391089', 'PAMR 150653Z 00000KT 10SM CLR M06/M09 A2997 RMK AO2 SLP150 T10611094', 'PAMR 150553Z 00000KT 10SM CLR M06/M09 A2997 RMK AO2 SLP152 T10561089 10050 21061 50003', 'PAMR 150453Z VRB03KT 10SM CLR M04/M08 A2998 RMK AO2 SLP154 T10441083', 'PAMR 150353Z 00000KT 10SM CLR M03/M08 A2997 RMK AO2 SLP150 T10331078', 'PAMR 150253Z 31003KT 10SM CLR 01/M07 A2996 RMK AO2 SLP148 T00061067 55002', 'PAMR 150153Z 00000KT 10SM CLR 01/M06 A2996 RMK AO2 SLP148 T00111061', 'PAMR 150053Z 31006KT 10SM CLR 04/M08 A2996 RMK AO2 SLP145 T00441078', 'PAMR 142353Z 33003KT 10SM CLR 04/M08 A2997 RMK AO2 SLP150 T00441083 10050 21061 56016', 'PAMR 142253Z 31003KT 10SM CLR 04/M07 A2998 RMK AO2 SLP153 T00391072', 'PAMR 142153Z VRB03KT 10SM CLR 02/M08 A3000 RMK AO2 SLP161 T00221078', 'PAMR 142053Z 00000KT 10SM CLR 01/M08 A3002 RMK AO2 SLP166 T00111083 58005', 'PAMR 141953Z VRB04KT 9SM CLR 00/M07 A3003 RMK AO2 SLP172 T00001072', 'PAMR 141853Z 33003KT 10SM CLR M02/M08 A3003 RMK AO2 SLP171 T10221083', 'PAMR 141753Z 33003KT 10SM CLR M02/M09 A3003 RMK AO2 SLP172 T10171089 10100 21028 50002', 'PAMR 141653Z 06003KT 10SM CLR 00/M08 A3004 RMK AO2 SLP173 T00001083', 'PAMR 141553Z 00000KT 10SM FEW120 BKN250 01/M07 A3004 RMK AO2 SLP175 T00111067', 'PAMR 141453Z 02005KT 10SM FEW120 BKN250 04/M07 A3002 RMK AO2 SLP169 T00441072 53001', 'PAMR 141353Z 16011G23KT 10SM FEW120 OVC250 09/M11 A3001 RMK AO2 PK WND 16036/1301 SLP166 T00891106', 'PAMR 141253Z 17014G26KT 10SM FEW120 OVC250 09/M10 A3003 RMK AO2 PK WND 16026/1249 SLP169 T00941100', 'PAMR 141153Z 19010G17KT 10SM FEW120 OVC250 09/M09 A3002 RMK AO2 PK WND 17027/1104 SLP167 T00941094 10100 20006 53004', 'PAMR 141053Z 17008G17KT 10SM FEW120 OVC250 09/M09 A3001 RMK AO2 SLP164 T00941089', 'PAMR 140953Z 17009G20KT 10SM FEW120 OVC250 09/M08 A3001 RMK AO2 SLP164 T00941083', 'PAMR 140853Z 19004KT 10SM FEW120 OVC250 08/M07 A3001 RMK AO2 SLP164 T00831072 400831006 53010', 'PAMR 140753Z VRB05KT 10SM FEW120 OVC250 02/M05 A3000 RMK AO2 SLP161 T00171050', 'PAMR 140653Z 29009KT 10SM CLR 01/M04 A2997 RMK AO2 SLP152 T00111044', 'PAMR 140553Z 31005KT 10SM CLR 02/M04 A2998 RMK AO2 SLP154 T00171039 10044 20000 51004', 'PAMR 140453Z 08007KT 10SM CLR 02/M04 A2998 RMK AO2 SLP154 T00171039', 'PAMR 140353Z 17004KT 10SM CLR 01/M04 A2997 RMK AO2 SLP151 T00061039', 'PAMR 140253Z 35006KT 10SM CLR 03/M03 A2997 RMK AO2 SLP150 T00281033 58006', 'PAMR 140153Z 29003KT 10SM CLR 03/M03 A2998 RMK AO2 SLP153 T00331033', 'PAMR 140053Z 00000KT 10SM CLR 03/M03 A2998 RMK AO2 SLP156 T00331033', 'PAMR 132353Z 31009KT 10SM CLR 03/M03 A2999 RMK AO2 SLP156 T00331033 10050 20017 55008', 'PAMR 132253Z 32004KT 10SM CLR 04/M03 A2998 RMK AO2 SLP154 T00391033', 'PAMR 132153Z 33005KT 10SM CLR 04/M03 A3000 RMK AO2 SLP160 T00391033', 'PAMR 132053Z 28009KT 10SM CLR 03/M03 A3001 RMK AO2 SLP164 T00331033 53003', 'PAMR 131953Z 30006KT 10SM CLR 03/M03 A2999 RMK AO2 SLP159 T00331033', 'PAMR 131853Z VRB04KT 10SM FEW080 02/M03 A3001 RMK AO2 SLP164 T00221033', 'PAMR 131753Z 33007KT 10SM FEW085 03/M03 A3000 RMK AO2 SLP161 T00281033 10083 20000 51017', 'PAMR 131653Z 00000KT 10SM CLR 02/M03 A2999 RMK AO2 SLP157 T00171033', 'PAMR 131553Z 30013G21KT 10SM FEW075 BKN250 02/M04 A2997 RMK AO2 PK WND 12027/1503 SLP152 T00171039', 'PAMR 131453Z 15007G23KT 10SM FEW075 BKN250 08/M06 A2995 RMK AO2 SLP144 T00781056 56010', 'PAMR 131353Z 00000KT 10SM FEW075 SCT240 04/M04 A2995 RMK AO2 SLP144 T00391044', 'PAMR 131253Z 35005KT 10SM FEW075 SCT240 02/M04 A2997 RMK AO2 SLP151 T00171039', 'PAMR 131153Z 00000KT 10SM FEW075 SCT110 BKN240 01/M03 A2998 RMK AO2 SLP154 T00111033 10017 21006 58001', 'PAMR 131053Z 28004KT 10SM FEW075 SCT110 OVC240 M01/M04 A2998 RMK AO2 SLP154 T10061039', 'PAMR 130953Z 36004KT 10SM FEW075 BKN110 OVC230 01/M03 A2999 RMK AO2 SLP157 T00061033', 'PAMR 130853Z 36004KT 10SM FEW075 OVC230 01/M03 A2998 RMK AO2 SLP155 T00061033 400221072 53013', 'PAMR 130753Z 31007KT 10SM FEW040 OVC230 01/M03 A2996 RMK AO2 SLP148 T00111033', 'PAMR 130653Z 00000KT 10SM CLR 00/M03 A2996 RMK AO2 SLP147 T00001033', 'PAMR 130553Z VRB04KT 10SM CLR 01/M03 A2994 RMK AO2 SLP142 T00111033 10022 21006 53022', 'PAMR 130453Z 03003KT 10SM CLR 00/M03 A2992 RMK AO2 SLP133 T00001033', 'PAMR 130353Z 31010KT 10SM CLR 01/M03 A2990 RMK AO2 PK WND 30026/0306 PRESRR SLP125 T00061033', 'PAMR 130253Z VRB06G16KT 10SM CLR 01/M03 A2988 RMK AO2 SLP120 T00061033 53004', 'PAMR 130153Z 28007KT 10SM FEW080 OVC110 01/M04 A2985 RMK AO2 SLP111 T00061039', 'PAMR 130053Z 28009KT 10SM OVC080 M01/M04 A2987 RMK AO2 SLP116 T10061039', 'PAMR 122353Z 31007KT 10SM OVC095 M01/M04 A2987 RMK AO2 SLP116 T10061039 10006 21039 58004', 'PAMR 122253Z 10SM OVC085 01/M04 A2987 RMK AO2 SLP117 T00061044', 'PAMR 122153Z 31007KT 10SM OVC100 M01/M04 A2989 RMK AO2 SLP122 T10061044', 'PAMR 122053Z 33009KT 10SM OVC110 M01/M06 A2988 RMK AO2 SLP120 T10061056 52006', 'PAMR 122000Z 30007KT 10SM OVC110 M01/M06 A2988 RMK AO2 T10111061', 'PAMR 121853Z 33005KT 10SM OVC040 M02/M05 A2986 RMK AO2 SLP115 T10171050', 'PAMR 121753Z 00000KT 10SM OVC100 M03/M06 A2986 RMK AO2 SLP113 T10331061 11033 21061 51003', 'PAMR 121653Z 00000KT 10SM BKN100 OVC120 M04/M07 A2986 RMK AO2 SLP113 T10441067', 'PAMR 121553Z 00000KT 10SM OVC110 M04/M06 A2987 RMK AO2 SLP116 T10391061', 'PAMR 121453Z 10003KT 10SM SCT060 M05/M07 A2985 RMK AO2 SLP110 T10501072 51010', 'PAMR 121353Z 00000KT 10SM BKN060 M06/M07 A2985 RMK AO2 SLP110 T10611072', 'PAMR 121253Z 00000KT 10SM OVC065 M06/M07 A2984 RMK AO2 SLP107 T10561072', 'PAMR 121153Z 00000KT 10SM OVC060 M06/M07 A2982 RMK AO2 SLP099 T10561072 11017 21072 53027', 'PAMR 121053Z 00000KT 10SM FEW050 BKN060 BKN100 M06/M07 A2979 RMK AO2 SLP090 T10561072']","['2024-02-15 09:53:00', '2024-02-15 08:53:00', '2024-02-15 07:53:00', '2024-02-15 06:53:00', '2024-02-15 05:53:00', '2024-02-15 04:53:00', '2024-02-15 03:53:00', '2024-02-15 02:53:00', '2024-02-15 01:53:00', '2024-02-15 00:53:00', '2024-02-14 23:53:00', '2024-02-14 22:53:00', '2024-02-14 21:53:00', '2024-02-14 20:53:00', '2024-02-14 19:53:00', '2024-02-14 18:53:00', '2024-02-14 17:53:00', '2024-02-14 16:53:00', '2024-02-14 15:53:00', '2024-02-14 14:53:00', '2024-02-14 13:53:00', '2024-02-14 12:53:00', '2024-02-14 11:53:00', '2024-02-14 10:53:00', '2024-02-14 09:53:00', '2024-02-14 08:53:00', '2024-02-14 07:53:00', '2024-02-14 06:53:00', '2024-02-14 05:53:00', '2024-02-14 04:53:00', '2024-02-14 03:53:00', '2024-02-14 02:53:00', '2024-02-14 01:53:00', '2024-02-14 00:53:00', '2024-02-13 23:53:00', '2024-02-13 22:53:00', '2024-02-13 21:53:00', '2024-02-13 20:53:00', '2024-02-13 19:53:00', '2024-02-13 18:53:00', '2024-02-13 17:53:00', '2024-02-13 16:53:00', '2024-02-13 15:53:00', '2024-02-13 14:53:00', '2024-02-13 13:53:00', '2024-02-13 12:53:00', '2024-02-13 11:53:00', '2024-02-13 10:53:00', '2024-02-13 09:53:00', '2024-02-13 08:53:00', '2024-02-13 07:53:00', '2024-02-13 06:53:00', '2024-02-13 05:53:00', '2024-02-13 04:53:00', '2024-02-13 03:53:00', '2024-02-13 02:53:00', '2024-02-13 01:53:00', '2024-02-13 00:53:00', '2024-02-12 23:53:00', '2024-02-12 22:53:00', '2024-02-12 21:53:00', '2024-02-12 20:53:00', '2024-02-12 20:00:00', '2024-02-12 18:53:00', '2024-02-12 17:53:00', '2024-02-12 16:53:00', '2024-02-12 15:53:00', '2024-02-12 14:53:00', '2024-02-12 13:53:00', '2024-02-12 12:53:00', '2024-02-12 11:53:00', '2024-02-12 10:53:00']"
United-states, Anchorage Elmendorf Air Force Base (EDF/PAED) ,"['PAED 150955Z 10003KT 10SM BKN200 M05/M10 A2994 RMK AO2A SLP137 T10501096', 'PAED 150855Z AUTO 03005KT 10SM CLR M06/M10 A2994 RMK AO2 SLP137 T10611103 400951064 57006 $', 'PAED 150755Z 29003KT 10SM SCT200 M04/M10 A2994 RMK AO2A CCSL NE-SE SLP137 T10381096 $', 'PAED 150655Z 03003KT 10SM SCT200 M04/M10 A2995 RMK AO2A CCSL NE-SE SLP141 T10411097 $', 'PAED 150555Z 02003KT 10SM BKN200 M04/M09 A2996 RMK AO2A SLP144 4/026 T10391089 10045 21040 50003 $', 'PAED 150455Z 00000KT 10SM SCT200 M02/M08 A2997 RMK AO2A SLP147 T10221083 $', 'PAED 150355Z 00000KT 10SM BKN200 M02/M08 A2996 RMK AO2A SLP143 T10191084 $', 'PAED 150255Z 14004KT 10SM FEW120 SCT200 01/M08 A2995 RMK AO2A CCSL NE SLP140 T00111082 56003 $', 'PAED 150155Z 17006KT 10SM FEW120 BKN200 02/M08 A2995 RMK AO2A CCSL NE-SE SLP139 T00241078 $', 'PAED 150055Z 00000KT 10SM SCT120 04/M09 A2995 RMK AO2A ACSL NE-SE SLP139 T00431088 $', 'PAED 142355Z 10004KT 10SM FEW120 04/M09 A2995 RMK AO2A SLP139 4/026 T00381092 10046 21042 57014', 'PAED 142302Z AUTO 27048G164KT 10SM SQ CLR 03/M08 A2996 RMK AO2 SLP143 $', 'PAED 142255Z AUTO 00000KT 10SM CLR 03/M07 A2997 RMK AO2 SLP146 T00271072 $', 'PAED 142155Z AUTO 07003KT 10SM CLR 02/M09 A2998 RMK AO2 SLP150 T00201087 $', 'PAED 142055Z AUTO 00000KT 10SM CLR 01/M09 A3000 RMK AO2 SLP156 T00061086 58006 $', 'PAED 141955Z AUTO 00000KT 10SM CLR M03/M09 A3002 RMK AO2 SLP164 T10311092 $', 'PAED 141855Z 00000KT 10SM FEW120 M02/M09 A3002 RMK AO2A SLP164 T10241091 $', 'PAED 141755Z 00000KT 10SM FEW060 M01/M10 A3002 RMK AO2A SLP164 CONTRAILS 4/026 T10071098 10095 21021 50003 $', 'PAED 141655Z AUTO 01013KT 10SM CLR 02/M10 A3001 RMK AO2 SLP160 T00231096 $', 'PAED 141555Z 33008KT 10SM FEW250 02/M08 A3002 RMK AO2A SLP163 T00151078 $', 'PAED 141455Z 31008KT 10SM SCT250 04/M08 A3001 RMK AO2A SLP160 T00371080 53002 $', 'PAED 141355Z 33009KT 10SM BKN250 05/M09 A3000 RMK AO2A PK WND 19026/1258 SLP156 T00541092 $', 'PAED 141255Z 18019G26KT 10SM BKN250 09/M10 A3000 RMK AO2A PK WND 18026/47 SLP156 T00901105 $', 'PAED 141155Z 20017KT 10SM BKN250 09/M10 A3000 RMK AO2A SLP156 4/026 T00901100 10093 20007 53000 $', 'PAED 141055Z 19009KT 10SM BKN250 09/M09 A3000 RMK AO2A SLP156 T00851094 $', 'PAED 140955Z 17007KT 10SM BKN250 08/M09 A2999 RMK AO2A PK WND 20034/39 SLP153 T00791086 $', 'PAED 140855Z 16013G16KT 10SM BKN250 09/M09 A3000 RMK AO2A PK WND 23033/28 SLP156 T00881087 400880005 53011 $', 'PAED 140755Z 33011KT 10SM BKN250 04/M05 A2998 RMK AO2A SLP150 T00401052 $', 'PAED 140655Z 19003KT 10SM BKN250 04/M05 A2996 RMK AO2A SLP143 T00351052 $', 'PAED 140555Z VRB03KT 10SM BKN250 02/M04 A2997 RMK AO2A SLP147 T00221045 10049 20020 52006 $', 'PAED 140455Z 35010KT 10SM BKN250 05/M04 A2996 RMK AO2A SLP155 T00451045 $', 'PAED 140355Z 01004KT 10SM SCT160 BKN200 03/M04 A2995 RMK AO2A ACSL W SLPNO T00311037 $', 'PAED 140255Z 34011KT 10SM SCT160 BKN200 03/M04 A2995 RMK AO2A ACSL W-NW SLP139 T00341036 57008 $', 'PAED 140155Z 31006KT 10SM FEW160 BKN190 BKN280 04/M04 A2996 RMK AO2A ACSL W SLP143 T00381039 $', 'PAED 140055Z 33009KT 10SM FEW160 BKN190 BKN270 03/M04 A2996 RMK AO2A SLP143 T00341036 $', 'PAED 132355Z 08003KT 10SM FEW060 BKN160 BKN190 04/M04 A2998 RMK AO2A SLP150 4/027 T00391036 10082 20011 55004 $', 'PAED 132255Z 33006KT 10SM FEW060 BKN130 BKN180 08/M07 A2997 RMK AO2A SLP146 T00791066 $', 'PAED 132155Z 33009KT 10SM FEW060 BKN090 BKN190 04/M04 A2999 RMK AO2A SLP153 T00441041 $', 'PAED 132055Z 32012KT 10SM BKN080 BKN150 04/M04 A2999 RMK AO2A SLP153 T00381039 58001 $', 'PAED 131955Z 36010KT 10SM FEW060 BKN120 04/M04 A2999 RMK AO2A SLP153 T00441043 $', 'PAED 131855Z 28010KT 10SM FEW060 BKN090 BKN200 03/M04 A3000 RMK AO2A SLP157 T00251036 $', 'PAED 131755Z 03007KT 10SM FEW060 BKN090 BKN200 01/M03 A3000 RMK AO2A SLP157 4/027 T00131034 10077 20006 $', 'PAED 131655Z 30003KT 10SM FEW060 BKN090 BKN160 03/M03 A2997 RMK AO2A PK WND 31031/08 SLP147 T00311033 $', 'PAED 131555Z 29007KT 10SM BKN200 03/M04 A2996 RMK AO2A SLP143 T00341043 $', 'PAED 131455Z 11005G19KT 10SM BKN200 06/M05 A2994 RMK AO2A SLP136 T00591051 55007 $', 'PAED 131355Z 13009KT 10SM BKN200 08/M05 A2993 RMK AO2A SLP133 T00761051 $', 'PAED 131323Z 15018G23KT 10SM FEW080 BKN200 05/M05 A2995 RMK AO2A WSHFT 14 SLP140 $', 'PAED 131255Z 14012KT 10SM BKN200 03/M04 A2995 RMK AO2A SLP140 T00341036 $', 'PAED 131155Z 04005KT 10SM BKN200 03/M03 A2996 RMK AO2A PK WND 13025/05 SLP143 4/028 T00271032 10040 20004 58003 $', 'PAED 131055Z 14014G21KT 10SM FEW100 BKN200 03/M04 A2996 RMK AO2A PK WND 14026/32 SLP143 T00321036 $', 'PAED 130955Z 06008KT 10SM SCT070 BKN200 02/M03 A2997 RMK AO2A SLP147 T00181027 $', 'PAED 130855Z 36008KT 10SM BKN075 02/M03 A2997 RMK AO2A SLP147 T00191026 400331057 53012 $', 'PAED 130755Z 01011KT 10SM FEW070 SCT250 01/M03 A2994 RMK AO2A SLP137 T00071027 $', 'PAED 130655Z 02012KT 10SM FEW070 BKN250 02/M03 A2993 RMK AO2A SLP133 T00191026 $', 'PAED 130555Z 03009KT 10SM FEW070 BKN250 01/M03 A2993 RMK AO2A SLP133 4/028 T00101028 10027 20005 52027 $', 'PAED 130455Z 32009KT 10SM FEW070 BKN210 01/M03 A2991 RMK AO2A PRESRR SLP127 T00061026 $', 'PAED 130423Z 01013KT 10SM FEW070 BKN210 02/M03 A2987 RMK AO2A WSHFT 13 SLP113 $', 'PAED 130355Z 33015KT 10SM FEW070 BKN170 02/M03 A2987 RMK AO2A PK WND 33026/31 SLP113 T00171028 $', 'PAED 130255Z 34009G20KT 10SM FEW070 BKN100 OVC170 01/M03 A2985 RMK AO2A SLP107 T00121029 50001 $', 'PAED 130155Z 35010KT 10SM SCT075 OVC100 02/M03 A2984 RMK AO2A PK WND 02026/27 SLP103 T00181033 $', 'PAED 130055Z 33011KT 10SM SCT065 OVC075 02/M04 A2985 RMK AO2A SLP106 T00151040 $', 'PAED 122355Z 33010KT 10SM FEW065 OVC090 02/M04 A2985 RMK AO2A SLP106 4/028 T00211038 10033 21022 58002 $', 'PAED 122255Z 33013G19KT 10SM SCT040 BKN080 OVC100 01/M04 A2985 RMK AO2A SLP107 T00111036 $', 'PAED 122155Z 33012KT 10SM FEW060 OVC090 M00/M04 A2987 RMK AO2A SLP113 T10031044 $', 'PAED 122055Z 34013KT 10SM FEW055 BKN100 M00/M05 A2986 RMK AO2A SLP110 T10041050 50006 $', 'PAED 121955Z 31013KT 10SM VCSH FEW055 SCT080 OVC090 M01/M05 A2985 RMK AO2A SLP107 T10111053 $', 'PAED 121855Z 35008KT 10SM VCSH SCT031 OVC080 M02/M04 A2985 RMK AO2A SLP107 T10171044 $', 'PAED 121755Z 35007KT 10SM FEW050 OVC085 M02/M05 A2984 RMK AO2A SLP103 4/028 T10201050 11020 21053 50002 $', 'PAED 121655Z 02004KT 10SM BKN085 OVC120 M02/M04 A2984 RMK AO2A SLP103 T10231045 $', 'PAED 121555Z 00000KT 10SM BKN085 M04/M06 A2985 RMK AO2A SLP107 T10381060 $', 'PAED 121455Z 08005KT 10SM BKN070 M05/M08 A2983 RMK AO2A SLP100 T10501076 50011 $', 'PAED 121355Z 00000KT 10SM BKN055 M04/M06 A2984 RMK AO2A SLP103 T10421061 $', 'PAED 121255Z 00000KT 10SM BKN060 M05/M07 A2983 RMK AO2A SLP100 T10501067 $', 'PAED 121155Z 00000KT 10SM BKN055 M04/M06 A2980 RMK AO2A SLP090 4/028 T10451062 11017 21057 52027 $', 'PAED 121055Z 00000KT 10SM SCT050 BKN075 M05/M07 A2977 RMK AO2A SLP080 T10461066 $']","['2024-02-15 09:55:00', '2024-02-15 08:55:00', '2024-02-15 07:55:00', '2024-02-15 06:55:00', '2024-02-15 05:55:00', '2024-02-15 04:55:00', '2024-02-15 03:55:00', '2024-02-15 02:55:00', '2024-02-15 01:55:00', '2024-02-15 00:55:00', '2024-02-14 23:55:00', '2024-02-14 23:02:00', '2024-02-14 22:55:00', '2024-02-14 21:55:00', '2024-02-14 20:55:00', '2024-02-14 19:55:00', '2024-02-14 18:55:00', '2024-02-14 17:55:00', '2024-02-14 16:55:00', '2024-02-14 15:55:00', '2024-02-14 14:55:00', '2024-02-14 13:55:00', '2024-02-14 12:55:00', '2024-02-14 11:55:00', '2024-02-14 10:55:00', '2024-02-14 09:55:00', '2024-02-14 08:55:00', '2024-02-14 07:55:00', '2024-02-14 06:55:00', '2024-02-14 05:55:00', '2024-02-14 04:55:00', '2024-02-14 03:55:00', '2024-02-14 02:55:00', '2024-02-14 01:55:00', '2024-02-14 00:55:00', '2024-02-13 23:55:00', '2024-02-13 22:55:00', '2024-02-13 21:55:00', '2024-02-13 20:55:00', '2024-02-13 19:55:00', '2024-02-13 18:55:00', '2024-02-13 17:55:00', '2024-02-13 16:55:00', '2024-02-13 15:55:00', '2024-02-13 14:55:00', '2024-02-13 13:55:00', '2024-02-13 13:23:00', '2024-02-13 12:55:00', '2024-02-13 11:55:00', '2024-02-13 10:55:00', '2024-02-13 09:55:00', '2024-02-13 08:55:00', '2024-02-13 07:55:00', '2024-02-13 06:55:00', '2024-02-13 05:55:00', '2024-02-13 04:55:00', '2024-02-13 04:23:00', '2024-02-13 03:55:00', '2024-02-13 02:55:00', '2024-02-13 01:55:00', '2024-02-13 00:55:00', '2024-02-12 23:55:00', '2024-02-12 22:55:00', '2024-02-12 21:55:00', '2024-02-12 20:55:00', '2024-02-12 19:55:00', '2024-02-12 18:55:00', '2024-02-12 17:55:00', '2024-02-12 16:55:00', '2024-02-12 15:55:00', '2024-02-12 14:55:00', '2024-02-12 13:55:00', '2024-02-12 12:55:00', '2024-02-12 11:55:00', '2024-02-12 10:55:00']"
United-states, Anderson Municipal Airport (AID/KAID) ,"['KAID 150935Z AUTO 16010G15KT 10SM CLR 03/M06 A2999 RMK AO2 T00251060', 'KAID 150835Z AUTO 15008KT 10SM CLR 03/M07 A3003 RMK AO2 T00251067', 'KAID 150735Z AUTO 16009KT 10SM CLR 02/M07 A3007 RMK AO2 T00211075', 'KAID 150635Z AUTO 14009KT 10SM CLR 02/M07 A3010 RMK AO2 T00161075', 'KAID 150535Z AUTO 14006KT 10SM CLR 01/M07 A3013 RMK AO2 T00101073', 'KAID 150435Z AUTO 13006KT 10SM CLR 00/M07 A3014 RMK AO2 T00001072', 'KAID 150335Z AUTO 12006KT 10SM CLR 00/M07 A3016 RMK AO2 T00001072', 'KAID 150235Z AUTO 11006KT 10SM CLR 01/M07 A3017 RMK AO2 T00131075', 'KAID 150135Z AUTO 10004KT 10SM CLR 03/M08 A3019 RMK AO2 T00281081', 'KAID 150035Z AUTO 00000KT 10SM CLR 05/M09 A3020 RMK AO2 T00461092', 'KAID 142335Z AUTO 08003KT 10SM CLR 06/M10 A3019 RMK AO2 T00591100', 'KAID 142255Z AUTO 00000KT 10SM CLR 08/M10 A3020 RMK AO2 T00751105', 'KAID 142235Z AUTO 00000KT 10SM CLR 08/M11 A3020 RMK AO2 T00751106', 'KAID 142059Z 08003KT 10SM CLR 08/M10 A3020', 'KAID 141959Z 36004KT 10SM CLR 07/M10 A3020', 'KAID 141859Z 11004KT 10SM CLR 06/M10 A3022', 'KAID 141759Z 08003KT 10SM CLR 06/M09 A3024', 'KAID 141659Z 08005KT 10SM CLR 04/M09 A3025', 'KAID 141559Z 09005KT 10SM CLR 03/M08 A3025', 'KAID 141459Z 07005KT 10SM CLR 02/M07', 'KAID 141359Z 05006KT 10SM SCT050 00/M06 A3025', 'KAID 141315Z AUTO 00000KT 10SM OVC046 00/M06 A3023 RMK AO2 T00001060', 'KAID 141235Z AUTO 05003KT 10SM SCT048 BKN070 00/M06 A3022 RMK AO2 T10031060', 'KAID 141135Z AUTO 00000KT 10SM SCT042 OVC065 00/M06 A3019 RMK AO2 T00001056', 'KAID 141035Z AUTO 05003KT 10SM OVC070 00/M06 A3019 RMK AO2 T00001056', 'KAID 140935Z AUTO 03003KT 10SM BKN070 OVC080 00/M05 A3016 RMK AO2 T00011052', 'KAID 140835Z AUTO 00000KT 10SM OVC055 01/M05 A3015 RMK AO2 T00051055', 'KAID 140735Z AUTO 00000KT 10SM OVC055 01/M06 A3015 RMK AO2 T00051058', 'KAID 140635Z AUTO 03004KT 10SM BKN055 OVC080 01/M06 A3013 RMK AO2 T00051061', 'KAID 140535Z AUTO 04005KT 10SM OVC055 01/M06 A3014 RMK AO2 T00101065', 'KAID 140435Z AUTO 03004KT 10SM OVC055 01/M07 A3012 RMK AO2 T00111068', 'KAID 140335Z AUTO 01006KT 10SM OVC055 01/M06 A3012 RMK AO2 T00141059', 'KAID 140235Z AUTO 32008KT 10SM BKN060 BKN065 OVC080 03/M04 A3010 RMK AO2 T00321038', 'KAID 140135Z AUTO 30009KT 10SM BKN060 OVC080 03/M04 A3008 RMK AO2 T00321037', 'KAID 132335Z AUTO 30009KT 10SM BKN050 BKN075 BKN090 05/M04 A3003 RMK AO2 T00511044', 'KAID 132235Z AUTO 30009KT 10SM BKN048 OVC055 06/M04 A3001 RMK AO2 T00621040', 'KAID 132059Z 30013G19KT 10SM SCT055 08/M05 A3000', 'KAID 131959Z 29016G21KT 10SM CLR 07/M05 A3001', 'KAID 131859Z 27014G18KT 10SM SCT036 SCT043 07/M04 A3001', 'KAID 131759Z 29012KT 10SM CLR 06/M03 A3002', 'KAID 131659Z 26006KT 10SM CLR 05/M02 A3002', 'KAID 131559Z 29008KT 10SM CLR 03/M02 A2999', 'KAID 131459Z 29008KT 10SM CLR 02/M03 A2997', 'KAID 131359Z 00000KT 10SM CLR M01/M05 A2995', 'KAID 131315Z AUTO 00000KT 10SM CLR M02/M05 A2992 RMK AO2 T10181053', 'KAID 131235Z AUTO 00000KT 10SM CLR M02/M05 A2990 RMK AO2 T10171055', 'KAID 131135Z AUTO 28003KT 10SM CLR M01/M06 A2989 RMK AO2 T10131056', 'KAID 131035Z AUTO 27003KT 10SM CLR M01/M06 A2987 RMK AO2 T10131060', 'KAID 130935Z AUTO 29003KT 10SM CLR M02/M06 A2985 RMK AO2 T10181059', 'KAID 130735Z AUTO 31005KT 10SM CLR M02/M06 A2982 RMK AO2 T10251058', 'KAID 130635Z AUTO 32003KT 10SM CLR M02/M06 A2981 RMK AO2 T10191060', 'KAID 130535Z AUTO 33004KT 10SM CLR 00/M06 A2980 RMK AO2 T00011060', 'KAID 130435Z AUTO 35006KT 10SM CLR 01/M05 A2978 RMK AO2 T00091054', 'KAID 130335Z AUTO 35004KT 10SM CLR 01/M04 A2978 RMK AO2 T00141043', 'KAID 130235Z AUTO 01004KT 10SM CLR 02/M04 A2978 RMK AO2 T00211041', 'KAID 130035Z AUTO 03006KT 10SM CLR 04/M04 A2974 RMK AO2 T00371040', 'KAID 122335Z AUTO 03006KT 10SM CLR 05/M03 A2975 RMK AO2 T00451033', 'KAID 122235Z AUTO 02011G15KT 10SM CLR 05/M03 A2974 RMK AO2 T00521035', 'KAID 122059Z 01009KT 10SM CLR 07/M03 A2980', 'KAID 121959Z 36005KT 10SM CLR 07/M03 A2981', 'KAID 121859Z 00000KT 10SM CLR 06/M04 A2985', 'KAID 121759Z 00000KT 10SM CLR 04/M03 A2988', 'KAID 121659Z 01003KT 10SM CLR 03/M04 A2991', 'KAID 121559Z 00000KT 10SM CLR 02/M04 A2995', 'KAID 121359Z 02004KT 10SM CLR M02/M04 A2991', 'KAID 121315Z AUTO 05003KT 10SM CLR M02/M04 A2992 RMK AO2 T10221045', 'KAID 121235Z AUTO 03004KT 10SM CLR M02/M04 A2994 RMK AO2 T10171042', 'KAID 121135Z AUTO 02006KT 10SM SCT120 00/M04 A2995 RMK AO2 T10051036', 'KAID 121035Z AUTO 02005KT 10SM CLR 00/M03 A2994 RMK AO2 T10011035']","['2024-02-15 09:27:00', '2024-02-15 08:27:00', '2024-02-15 07:27:00', '2024-02-15 06:27:00', '2024-02-15 05:27:00', '2024-02-15 04:27:00', '2024-02-15 03:27:00', '2024-02-15 02:27:00', '2024-02-15 01:27:00', '2024-02-15 00:27:00', '2024-02-14 23:27:00', '2024-02-14 22:47:00', '2024-02-14 22:27:00', '2024-02-14 20:59:00', '2024-02-14 19:59:00', '2024-02-14 18:59:00', '2024-02-14 17:59:00', '2024-02-14 16:59:00', '2024-02-14 15:59:00', '2024-02-14 14:59:00', '2024-02-14 13:59:00', '2024-02-14 13:09:00', '2024-02-14 12:27:00', '2024-02-14 11:27:00', '2024-02-14 10:29:00', '2024-02-14 09:27:00', '2024-02-14 08:29:00', '2024-02-14 07:31:00', '2024-02-14 06:29:00', '2024-02-14 05:29:00', '2024-02-14 04:29:00', '2024-02-14 03:29:00', '2024-02-14 02:29:00', '2024-02-14 01:29:00', '2024-02-13 23:29:00', '2024-02-13 22:29:00', '2024-02-13 20:59:00', '2024-02-13 19:59:00', '2024-02-13 18:59:00', '2024-02-13 17:59:00', '2024-02-13 16:59:00', '2024-02-13 15:59:00', '2024-02-13 14:59:00', '2024-02-13 13:59:00', '2024-02-13 13:07:00', '2024-02-13 12:27:00', '2024-02-13 11:27:00', '2024-02-13 10:27:00', '2024-02-13 09:27:00', '2024-02-13 07:27:00', '2024-02-13 06:27:00', '2024-02-13 05:27:00', '2024-02-13 04:31:00', '2024-02-13 03:27:00', '2024-02-13 02:29:00', '2024-02-13 00:29:00', '2024-02-12 23:27:00', '2024-02-12 22:29:00', '2024-02-12 20:59:00', '2024-02-12 19:59:00', '2024-02-12 18:59:00', '2024-02-12 17:59:00', '2024-02-12 16:59:00', '2024-02-12 15:59:00', '2024-02-12 13:59:00', '2024-02-12 13:07:00', '2024-02-12 12:29:00', '2024-02-12 11:29:00', '2024-02-12 10:29:00']"
United-states, Anderson Regional Airport (AND/KAND) ,"['KAND 150956Z AUTO 00000KT 10SM CLR 02/M01 A3020 RMK AO2 SLP224 T00221006', 'KAND 150856Z AUTO 00000KT 10SM CLR 04/M01 A3021 RMK AO2 SLP227 T00391006 53003', 'KAND 150756Z AUTO 00000KT 10SM CLR 05/00 A3020 RMK AO2 SLP225 T00500000', 'KAND 150656Z AUTO 00000KT 10SM CLR 05/00 A3019 RMK AO2 SLP222 T00500000', 'KAND 150556Z AUTO 00000KT 10SM CLR 06/01 A3020 RMK AO2 SLP224 T00610006 10128 20050 58006', 'KAND 150456Z AUTO 21003KT 10SM CLR 08/00 A3022 RMK AO2 SLP231 T00780000 401781006', 'KAND 150356Z AUTO 19003KT 10SM CLR 08/01 A3022 RMK AO2 SLP234 T00780006', 'KAND 150256Z AUTO 00000KT 10SM CLR 10/M01 A3022 RMK AO2 SLP231 T01001006 53015', 'KAND 150156Z AUTO 20003KT 10SM CLR 12/M01 A3019 RMK AO2 SLP222 T01171006', 'KAND 150056Z AUTO 23003KT 10SM CLR 12/M01 A3019 RMK AO2 SLP225 T01171006', 'KAND 142356Z AUTO 20006KT 10SM CLR 13/00 A3017 RMK AO2 SLP217 T01280000 10178 20128 53002', 'KAND 142256Z AUTO 19006KT 10SM CLR 16/00 A3015 RMK AO2 SLP209 T01560000', 'KAND 142156Z AUTO 22007KT 10SM CLR 17/M01 A3016 RMK AO2 SLP211 T01721006', 'KAND 142056Z AUTO 20007KT 10SM CLR 17/M01 A3017 RMK AO2 SLP214 T01721011 56020', 'KAND 141956Z AUTO 21008KT 10SM CLR 17/M01 A3018 RMK AO2 SLP218 T01721006', 'KAND 141856Z AUTO 28005KT 10SM CLR 16/M01 A3020 RMK AO2 SLP224 T01611011', 'KAND 141756Z AUTO 00000KT 10SM CLR 15/00 A3022 RMK AO2 SLP233 T01500000 10150 21006 58013', 'KAND 141656Z AUTO VRB04KT 10SM CLR 13/M01 A3025 RMK AO2 SLP243 T01331006', 'KAND 141556Z AUTO 26006KT 10SM CLR 12/M01 A3027 RMK AO2 SLP248 T01171011', 'KAND 141456Z AUTO 24004KT 10SM CLR 09/02 A3026 RMK AO2 SLP247 T00940017 51017', 'KAND 141356Z AUTO 00000KT 10SM CLR 06/01 A3025 RMK AO2 SLP244 T00610006', 'KAND 141256Z AUTO 00000KT 10SM CLR 01/M01 A3023 RMK AO2 SLP239 T00061011', 'KAND 141156Z AUTO 00000KT 10SM CLR 00/M02 A3021 RMK AO2 SLP232 T00001022 10050 21006 51024', 'KAND 141056Z AUTO 00000KT 10SM CLR 00/M02 A3020 RMK AO2 SLP226 T00001022', 'KAND 140956Z AUTO 00000KT 10SM CLR 00/M02 A3017 RMK AO2 SLP218 T00001022', 'KAND 140856Z AUTO 08003KT 10SM CLR 01/M02 A3014 RMK AO2 SLP205 T00111017 50009', 'KAND 140756Z AUTO 00000KT 10SM CLR 02/M02 A3014 RMK AO2 SLP206 T00171022', 'KAND 140656Z AUTO 00000KT 10SM CLR 03/M02 A3013 RMK AO2 SLP202 T00281017', 'KAND 140556Z AUTO 00000KT 10SM CLR 06/M03 A3011 RMK AO2 SLP195 T00561033 10117 20033 51009', 'KAND 140456Z AUTO 00000KT 10SM CLR 04/M02 A3011 RMK AO2 SLP193 T00441022 401670033', 'KAND 140356Z AUTO 33005KT 10SM CLR 07/M03 A3010 RMK AO2 SLP191 T00721033', 'KAND 140256Z AUTO 31007KT 10SM CLR 08/M03 A3008 RMK AO2 SLP185 T00781028 51026', 'KAND 140156Z AUTO 29006KT 10SM CLR 09/M03 A3006 RMK AO2 SLP178 T00891028', 'KAND 140056Z AUTO 27005KT 10SM CLR 10/M03 A3004 RMK AO2 SLP171 T01001033', 'KAND 132356Z AUTO 26003KT 10SM CLR 12/M07 A3000 RMK AO2 SLP158 T01171072 10167 20117 53024', 'KAND 132256Z AUTO 28005KT 10SM CLR 14/M07 A2998 RMK AO2 SLP149 T01391067', 'KAND 132156Z AUTO 28009KT 10SM CLR 16/M07 A2995 RMK AO2 SLP139 T01611072', 'KAND 132056Z AUTO 27012KT 10SM CLR 17/M06 A2993 RMK AO2 SLP131 T01671056 53002', 'KAND 131956Z AUTO 28011KT 10SM CLR 17/M02 A2991 RMK AO2 SLP126 T01671022', 'KAND 131856Z AUTO 10SM CLR 16/M03 A2991 RMK AO2 SLP125 T01561033', 'KAND 131756Z AUTO 26011KT 10SM CLR 14/M01 A2992 RMK AO2 SLP129 T01441011 10144 20067 51011', 'KAND 131656Z AUTO 25010KT 10SM CLR 13/01 A2992 RMK AO2 SLP129 T01280006', 'KAND 131556Z AUTO 28012G20KT 10SM CLR 11/00 A2991 RMK AO2 SLP125 T01110000', 'KAND 131456Z AUTO 26010KT 10SM CLR 10/01 A2989 RMK AO2 SLP118 T01000011 52046', 'KAND 131356Z AUTO 27007KT 10SM CLR 09/02 A2984 RMK AO2 SLP101 T00890017', 'KAND 131256Z AUTO 23005KT 10SM CLR 07/02 A2980 RMK AO2 SLP088 T00720017', 'KAND 131156Z AUTO 27013KT 10SM CLR 07/02 A2975 RMK AO2 SLP071 70129 T00720017 10100 20067 53044', 'KAND 131056Z AUTO 27012KT 10SM CLR 08/02 A2970 RMK AO2 SLP054 T00780022', 'KAND 130956Z AUTO 26014G24KT 10SM CLR 08/03 A2965 RMK AO2 PK WND 27031/0908 SLP039 T00780033', 'KAND 130856Z AUTO 25020G30KT 10SM SCT043 09/04 A2961 RMK AO2 PK WND 24033/0827 SLP025 T00890039 53019', 'KAND 130756Z AUTO 25020G32KT 10SM CLR 09/04 A2958 RMK AO2 PK WND 26035/0733 SLP013 T00940044', 'KAND 130656Z AUTO 25017G24KT 10SM BKN050 10/06 A2957 RMK AO2 PK WND 26029/0628 SLP011 T01000061', 'KAND 130556Z AUTO 25017G29KT 10SM CLR 10/06 A2956 RMK AO2 PK WND 25029/0550 SLP006 60007 T01000061 10144 20100 53007', 'KAND 130456Z AUTO 25013G23KT 10SM FEW023 11/08 A2955 RMK AO2 PK WND 24028/0402 WSHFT 0343 SLP002 T01110078 401610111', 'KAND 130410Z AUTO 26017G28KT 10SM FEW009 SCT025 SCT047 13/09 A2954 RMK AO2 PK WND 24028/0402 WSHFT 0343 T01280094', 'KAND 130356Z AUTO 26014G28KT 10SM FEW009 BKN021 OVC050 13/11 A2954 RMK AO2 PK WND 22034/0344 WSHFT 0337 RAE55 SLP999 P0003 T01330106', 'KAND 130256Z AUTO 20012G21KT 10SM -RA OVC005 14/13 A2954 RMK AO2 RAB07 SLP996 P0000 60004 T01390128 56017', 'KAND 130217Z AUTO 19012KT 7SM -RA OVC004 13/12 A2956 RMK AO2 RAB07 P0000 T01330122', 'KAND 130156Z AUTO 18009KT 10SM OVC005 13/12 A2956 RMK AO2 RAE50 SLP005 P0001 T01330122', 'KAND 130117Z AUTO 17008KT 10SM -RA OVC008 13/12 A2958 RMK AO2 CIG 006V011 P0001 T01330122', 'KAND 130056Z AUTO 17005KT 7SM RA OVC010 13/12 A2959 RMK AO2 CIG 008V014 SLP014 P0003 T01330122', 'KAND 130004Z AUTO 00000KT 6SM -RA BR BKN009 OVC014 14/12 A2962 RMK AO2 CIG 007V011 P0000 T01390122', 'KAND 122356Z AUTO 12005KT 6SM -RA BR OVC011 13/12 A2962 RMK AO2 RAB27 CIG 008V013 SLP027 P0002 60040 T01330117 10139 20133 58019', 'KAND 122309Z AUTO 16008KT 10SM OVC010 14/12 A2964 RMK AO2 CIG 006V012 T01390122', 'KAND 122256Z AUTO 17008KT 10SM OVC008 14/12 A2965 RMK AO2 RAE31 CIG 005V011 SLP035 P0000 T01390122', 'KAND 122226Z AUTO 16006KT 10SM -RA BKN008 OVC012 14/12 A2964 RMK AO2 P0000 T01390122', 'KAND 122156Z AUTO 13006KT 6SM -RA BR OVC010 14/12 A2967 RMK AO2 RAB17 PRESFR SLP041 P0005 T01390122', 'KAND 122056Z AUTO 13008G16KT 10SM OVC008 14/12 A2968 RMK AO2 RAE44 CIG 005V011 SLP046 P0004 60033 T01390122 56042', 'KAND 122022Z AUTO 10010KT 9SM -RA BKN010 BKN023 OVC075 14/12 A2967 RMK AO2 PRESFR P0004 T01390122', 'KAND 121956Z AUTO 10006KT 4SM RA BR SCT008 BKN012 OVC065 14/12 A2973 RMK AO2 PRESFR SLP061 P0015 T01390122', 'KAND 121856Z AUTO 14010KT 5SM +RA BR BKN070 OVC090 14/12 A2975 RMK AO2 WSHFT 1756 PRESFR SLP070 P0014 T01390122', 'KAND 121816Z AUTO 15010KT 7SM RA FEW009 SCT050 OVC090 14/13 A2977 RMK AO2 WSHFT 1756 PRESFR P0007 T01390128', 'KAND 121756Z AUTO 18011KT 5SM +RA BR SCT009 BKN047 OVC080 14/13 A2981 RMK AO2 SLP089 P0017 60082 T01390128 10150 20139 55015', 'KAND 121656Z AUTO 14009KT 6SM RA BR FEW006 BKN080 OVC095 14/13 A2980 RMK AO2 SLP087 P0010 T01390128', 'KAND 121556Z AUTO 13010G19KT 10SM -RA FEW006 SCT045 OVC100 14/13 A2981 RMK AO2 SLP091 P0013 T01440133', 'KAND 121456Z AUTO 12003KT 5SM RA BR SCT060 BKN075 OVC085 14/13 A2985 RMK AO2 SLP104 P0009 60042 T01440133 58001', 'KAND 121356Z AUTO 14006KT 10SM -RA OVC090 14/13 A2986 RMK AO2 SLP105 P0018 T01440133', 'KAND 121256Z AUTO 19009KT 8SM RA BKN080 OVC090 14/14 A2987 RMK AO2 SLP109 P0015 T01440139', 'KAND 121156Z AUTO 19004KT 7SM RA BKN070 OVC090 15/14 A2986 RMK AO2 SLP104 P0016 60064 70101 T01500139 10161 20144 58001', 'KAND 121056Z AUTO 16006KT 8SM RA OVC080 15/14 A2987 RMK AO2 SLP109 P0012 T01500139']","['2024-02-15 09:56:00', '2024-02-15 08:56:00', '2024-02-15 07:56:00', '2024-02-15 06:56:00', '2024-02-15 05:56:00', '2024-02-15 04:56:00', '2024-02-15 03:56:00', '2024-02-15 02:56:00', '2024-02-15 01:56:00', '2024-02-15 00:56:00', '2024-02-14 23:56:00', '2024-02-14 22:56:00', '2024-02-14 21:56:00', '2024-02-14 20:56:00', '2024-02-14 19:56:00', '2024-02-14 18:56:00', '2024-02-14 17:56:00', '2024-02-14 16:56:00', '2024-02-14 15:56:00', '2024-02-14 14:56:00', '2024-02-14 13:56:00', '2024-02-14 12:56:00', '2024-02-14 11:56:00', '2024-02-14 10:56:00', '2024-02-14 09:56:00', '2024-02-14 08:56:00', '2024-02-14 07:56:00', '2024-02-14 06:56:00', '2024-02-14 05:56:00', '2024-02-14 04:56:00', '2024-02-14 03:56:00', '2024-02-14 02:56:00', '2024-02-14 01:56:00', '2024-02-14 00:56:00', '2024-02-13 23:56:00', '2024-02-13 22:56:00', '2024-02-13 21:56:00', '2024-02-13 20:56:00', '2024-02-13 19:56:00', '2024-02-13 18:56:00', '2024-02-13 17:56:00', '2024-02-13 16:56:00', '2024-02-13 15:56:00', '2024-02-13 14:56:00', '2024-02-13 13:56:00', '2024-02-13 12:56:00', '2024-02-13 11:56:00', '2024-02-13 10:56:00', '2024-02-13 09:56:00', '2024-02-13 08:56:00', '2024-02-13 07:56:00', '2024-02-13 06:56:00', '2024-02-13 05:56:00', '2024-02-13 04:56:00', '2024-02-13 04:10:00', '2024-02-13 03:56:00', '2024-02-13 02:56:00', '2024-02-13 02:17:00', '2024-02-13 01:56:00', '2024-02-13 01:17:00', '2024-02-13 00:56:00', '2024-02-13 00:04:00', '2024-02-12 23:56:00', '2024-02-12 23:09:00', '2024-02-12 22:56:00', '2024-02-12 22:26:00', '2024-02-12 21:56:00', '2024-02-12 20:56:00', '2024-02-12 20:22:00', '2024-02-12 19:56:00', '2024-02-12 18:56:00', '2024-02-12 18:16:00', '2024-02-12 17:56:00', '2024-02-12 16:56:00', '2024-02-12 15:56:00', '2024-02-12 14:56:00', '2024-02-12 13:56:00', '2024-02-12 12:56:00', '2024-02-12 11:56:00', '2024-02-12 10:56:00']"
United-states, Angola Tri-State Steuben County Airport (ANQ/KANQ) ,"['KANQ 150955Z AUTO 13010KT 10SM FEW046 FEW060 OVC110 M00/M06 A2994 RMK AO2', 'KANQ 150915Z AUTO 13008KT 10SM FEW046 SCT060 BKN070 M00/M06 A2997 RMK AO2', 'KANQ 150855Z AUTO 13008KT 10SM FEW035 SCT041 OVC120 M00/M06 A2999 RMK AO2', 'KANQ 150815Z AUTO 13008KT 10SM BKN035 BKN045 M00/M06 A3003 RMK AO2', 'KANQ 150755Z AUTO 13007KT 10SM SCT036 BKN045 BKN120 M00/M06 A3004 RMK AO2', 'KANQ 150715Z AUTO 13006KT 10SM FEW110 00/M06 A3006 RMK AO2', 'KANQ 150655Z AUTO 12007G13KT 10SM FEW120 00/M06 A3007 RMK AO2', 'KANQ 150615Z AUTO 14008KT 10SM BKN110 00/M06 A3010 RMK AO2', 'KANQ 150555Z AUTO 15007KT 10SM BKN110 00/M07 A3010 RMK AO2', 'KANQ 150515Z AUTO 14007KT 10SM SCT100 00/M06 A3012 RMK AO2', 'KANQ 150455Z AUTO 14005KT 10SM OVC100 00/M07 A3012 RMK AO2', 'KANQ 150415Z AUTO 15005KT 10SM BKN100 BKN120 00/M06 A3015 RMK AO2', 'KANQ 150355Z AUTO 16005KT 10SM BKN100 M00/M06 A3015 RMK AO2', 'KANQ 150315Z AUTO 15005KT 10SM BKN110 M00/M07 A3016 RMK AO2', 'KANQ 150255Z AUTO 15005KT 10SM BKN110 M00/M06 A3017 RMK AO2', 'KANQ 150215Z AUTO 12004KT 10SM CLR M02/M06 A3017 RMK AO2', 'KANQ 150155Z AUTO 12003KT 10SM CLR M02/M06 A3017 RMK AO2', 'KANQ 150115Z AUTO 00000KT 10SM CLR M01/M06 A3018 RMK AO2', 'KANQ 150055Z AUTO 00000KT 10SM CLR M02/M06 A3019 RMK AO2', 'KANQ 150015Z AUTO 00000KT 10SM CLR 01/M07 A3020 RMK AO2', 'KANQ 142355Z AUTO 00000KT 10SM CLR 02/M07 A3020 RMK AO2', 'KANQ 142315Z AUTO 18004KT 10SM CLR 02/M07 A3019 RMK AO2', 'KANQ 142255Z AUTO 20003KT 10SM CLR 03/M08 A3018 RMK AO2', 'KANQ 142215Z AUTO 14005KT 10SM CLR 05/M08 A3018 RMK AO2', 'KANQ 142155Z AUTO 22003KT 10SM CLR 05/M08 A3019 RMK AO2', 'KANQ 142115Z AUTO VRB03KT 10SM CLR 05/M08 A3019 RMK AO2', 'KANQ 142055Z AUTO VRB04KT 10SM CLR 05/M08 A3018 RMK AO2', 'KANQ 142015Z AUTO VRB04KT 10SM CLR 05/M08 A3020 RMK AO2', 'KANQ 141955Z AUTO VRB05KT 10SM CLR 04/M08 A3021 RMK AO2', 'KANQ 141915Z AUTO 31005KT 10SM CLR 04/M09 A3020 RMK AO2', 'KANQ 141855Z AUTO VRB04KT 10SM CLR 03/M08 A3021 RMK AO2', 'KANQ 141815Z AUTO VRB04KT 10SM CLR 03/M08 A3022 RMK AO2', 'KANQ 141755Z AUTO 35008G15KT 10SM CLR 03/M08 A3023 RMK AO2', 'KANQ 141715Z AUTO VRB05KT 10SM CLR 03/M08 A3024 RMK AO2', 'KANQ 141655Z AUTO VRB03KT 10SM CLR 02/M08 A3025 RMK AO2', 'KANQ 141615Z AUTO 26004KT 10SM CLR 02/M08 A3025 RMK AO2', 'KANQ 141555Z AUTO 25004KT 10SM CLR 01/M08 A3025 RMK AO2', 'KANQ 141515Z AUTO 00000KT 10SM CLR 00/M06 A3025 RMK AO2', 'KANQ 141455Z AUTO 00000KT 10SM CLR M00/M04 A3025 RMK AO2', 'KANQ 141415Z AUTO 00000KT 10SM CLR M02/M03 A3024 RMK AO2', 'KANQ 141355Z AUTO 00000KT 10SM CLR M03/M04 A3024 RMK AO2', 'KANQ 141315Z AUTO 00000KT 10SM CLR M06/M06 A3022 RMK AO2', 'KANQ 141255Z AUTO 00000KT 10SM CLR M06/M06 A3022 RMK AO2', 'KANQ 141215Z AUTO 00000KT 10SM CLR M06/M06 A3020 RMK AO2', 'KANQ 141155Z AUTO 00000KT 10SM CLR M06/M06 A3019 RMK AO2', 'KANQ 141115Z AUTO 00000KT 10SM FEW042 M06/M06 A3018 RMK AO2', 'KANQ 141055Z AUTO 00000KT 10SM FEW042 M05/M06 A3018 RMK AO2', 'KANQ 141015Z AUTO 00000KT 10SM CLR M05/M06 A3017 RMK AO2', 'KANQ 140955Z AUTO 00000KT 10SM FEW044 M04/M06 A3016 RMK AO2', 'KANQ 140915Z AUTO 00000KT 10SM OVC044 M03/M05 A3015 RMK AO2', 'KANQ 140855Z AUTO 00000KT 10SM OVC043 M03/M05 A3015 RMK AO2', 'KANQ 140815Z AUTO 00000KT 10SM OVC042 M02/M05 A3014 RMK AO2', 'KANQ 140755Z AUTO 00000KT 10SM OVC041 M02/M06 A3014 RMK AO2', 'KANQ 140715Z AUTO 00000KT 10SM BKN040 OVC110 M02/M06 A3012 RMK AO2', 'KANQ 140655Z AUTO 33003KT 10SM OVC039 M02/M07 A3012 RMK AO2', 'KANQ 140615Z AUTO 32004KT 10SM OVC041 M01/M06 A3011 RMK AO2', 'KANQ 140555Z AUTO 31003KT 10SM OVC042 M01/M05 A3011 RMK AO2', 'KANQ 140515Z AUTO 00000KT 10SM OVC044 M01/M05 A3011 RMK AO2', 'KANQ 140455Z AUTO 29004KT 10SM OVC045 M01/M05 A3011 RMK AO2', 'KANQ 140415Z AUTO 32004KT 10SM OVC047 M01/M05 A3010 RMK AO2', 'KANQ 140355Z AUTO 32005KT 10SM OVC047 M01/M05 A3010 RMK AO2', 'KANQ 140315Z AUTO 30005KT 10SM OVC048 M01/M04 A3009 RMK AO2', 'KANQ 140255Z AUTO 31004KT 10SM OVC048 M01/M04 A3009 RMK AO2', 'KANQ 140215Z AUTO 31004KT 10SM OVC048 M01/M04 A3008 RMK AO2', 'KANQ 140155Z AUTO 31005KT 10SM OVC049 M00/M04 A3007 RMK AO2', 'KANQ 140115Z AUTO 32005G10KT 10SM OVC049 M00/M04 A3006 RMK AO2', 'KANQ 140055Z AUTO 32006KT 10SM OVC050 M00/M04 A3006 RMK AO2', 'KANQ 140015Z AUTO 31008KT 10SM SCT026 OVC049 00/M04 A3005 RMK AO2', 'KANQ 132355Z AUTO 30007KT 10SM 01/M03 A3004 RMK AO2', 'KANQ 132315Z AUTO 32007KT 10SM BKN033 OVC050 01/M03 A3001 RMK AO2', 'KANQ 132255Z AUTO 32008KT 10SM BKN031 OVC050 01/M03 A3001 RMK AO2', 'KANQ 132215Z AUTO 30011G17KT 10SM FEW042 OVC050 02/M05 A2999 RMK AO2', 'KANQ 132155Z AUTO 29007G18KT 10SM FEW043 OVC050 02/M05 A2998 RMK AO2', 'KANQ 132115Z AUTO 29009KT 10SM OVC046 02/M05 A2998 RMK AO2', 'KANQ 132055Z AUTO 31007G14KT 10SM FEW038 BKN050 OVC055 03/M04 A2997 RMK AO2', 'KANQ 132015Z AUTO 31009G16KT 10SM FEW041 SCT049 OVC055 03/M05 A2997 RMK AO2', 'KANQ 131955Z AUTO 28009G16KT 10SM BKN044 OVC055 03/M05 A2996 RMK AO2', 'KANQ 131915Z AUTO 32008G15KT 10SM FEW036 BKN047 OVC050 03/M04 A2995 RMK AO2', 'KANQ 131855Z AUTO 32009KT 10SM BKN037 OVC047 03/M05 A2996 RMK AO2', 'KANQ 131815Z AUTO 30011KT 10SM BKN039 BKN046 OVC050 03/M04 A2996 RMK AO2', 'KANQ 131755Z AUTO 32007G14KT 10SM FEW037 OVC050 03/M05 A2996 RMK AO2', 'KANQ 131715Z AUTO 32010KT 10SM FEW030 OVC049 03/M04 A2996 RMK AO2', 'KANQ 131655Z AUTO 31011KT 10SM SCT029 BKN034 OVC050 03/M04 A2996 RMK AO2', 'KANQ 131615Z AUTO 32009KT 10SM SCT023 BKN032 BKN048 02/M03 A2994 RMK AO2', 'KANQ 131555Z AUTO 34006G13KT 10SM BKN049 03/M02 A2994 RMK AO2', 'KANQ 131515Z AUTO 34004KT 9SM SCT028 SCT042 SCT050 01/M01 A2992 RMK AO2', 'KANQ 131455Z AUTO VRB04G10KT 7SM BKN050 00/M01 A2991 RMK AO2', 'KANQ 131415Z AUTO VRB04KT 6SM BR BKN015 M01/M02 A2990 RMK AO2', 'KANQ 131355Z AUTO 28003KT 7SM OVC011 M02/M03 A2988 RMK AO2', 'KANQ 131315Z AUTO 29004KT 8SM SCT010 M03/M04 A2987 RMK AO2', 'KANQ 131255Z AUTO 30003KT 8SM SCT010 M05/M05 A2986 RMK AO2', 'KANQ 131215Z AUTO 00000KT 9SM M05/M06 A2984 RMK AO2', 'KANQ 131155Z AUTO 00000KT 10SM CLR M05/M05 A2983 RMK AO2', 'KANQ 131115Z AUTO 00000KT 10SM CLR M05/M07 A2983 RMK AO2', 'KANQ 131055Z AUTO 30003KT 10SM CLR M04/M05 A2982 RMK AO2', 'KANQ 131015Z AUTO 00000KT 10SM CLR M03/M05 A2981 RMK AO2', 'KANQ 130955Z AUTO 00000KT 10SM CLR M03/M05 A2981 RMK AO2', 'KANQ 130915Z AUTO 00000KT 10SM CLR M03/M05 A2979 RMK AO2', 'KANQ 130855Z AUTO 00000KT 10SM CLR M05/M05 A2979 RMK AO2', 'KANQ 130815Z AUTO 00000KT 10SM M05/M05 A2979 RMK AO2', 'KANQ 130755Z AUTO 00000KT 10SM M05/M05 A2979 RMK AO2', 'KANQ 130715Z AUTO 00000KT 10SM SCT029 SCT041 BKN047 M04/M04 A2978 RMK AO2', 'KANQ 130655Z AUTO 00000KT 10SM FEW029 FEW040 OVC046 M04/M05 A2977 RMK AO2', 'KANQ 130615Z AUTO 00000KT 10SM SCT045 M04/M04 A2977 RMK AO2', 'KANQ 130555Z AUTO 00000KT 10SM FEW046 M04/M04 A2977 RMK AO2', 'KANQ 130515Z AUTO 00000KT 10SM CLR M04/M05 A2977 RMK AO2', 'KANQ 130455Z AUTO 31003KT 10SM CLR M03/M04 A2977 RMK AO2', 'KANQ 130415Z AUTO 00000KT 10SM CLR M03/M04 A2978 RMK AO2', 'KANQ 130355Z AUTO 00000KT 10SM FEW043 M03/M05 A2978 RMK AO2', 'KANQ 130315Z AUTO 00000KT 10SM CLR M02/M05 A2979 RMK AO2', 'KANQ 130255Z AUTO 32003KT 9SM FEW046 M02/M04 A2978 RMK AO2', 'KANQ 130215Z AUTO 00000KT 10SM FEW045 M01/M04 A2978 RMK AO2', 'KANQ 130155Z AUTO 00000KT 10SM FEW045 M01/M06 A2978 RMK AO2', 'KANQ 130115Z AUTO 35004KT 10SM CLR 00/M05 A2974 RMK AO2', 'KANQ 130055Z AUTO 34004KT 10SM CLR M00/M04 A2975 RMK AO2', 'KANQ 130015Z AUTO 00000KT 10SM CLR 02/M06 A2976 RMK AO2', 'KANQ 122355Z AUTO 35004KT 10SM CLR 02/M06 A2976 RMK AO2', 'KANQ 122315Z AUTO 36005KT 10SM CLR 03/M07 A2978 RMK AO2', 'KANQ 122255Z AUTO VRB06KT 10SM CLR 04/M07 A2978 RMK AO2', 'KANQ 122215Z AUTO 34008KT 10SM CLR 05/M06 A2980 RMK AO2', 'KANQ 122155Z AUTO 32005KT 10SM CLR 06/M07 A2981 RMK AO2', 'KANQ 122115Z AUTO 00000KT 10SM CLR 06/M07 A2983 RMK AO2', 'KANQ 122055Z AUTO 00000KT 10SM CLR 06/M07 A2983 RMK AO2', 'KANQ 122015Z AUTO 00000KT 10SM CLR 05/M07 A2983 RMK AO2', 'KANQ 121955Z AUTO 00000KT 10SM CLR 05/M06 A2983 RMK AO2', 'KANQ 121915Z AUTO VRB03KT 10SM CLR 05/M06 A2985 RMK AO2', 'KANQ 121855Z AUTO VRB03KT 10SM CLR 04/M06 A2984 RMK AO2', 'KANQ 121815Z AUTO VRB04G10KT 10SM CLR 04/M05 A2986 RMK AO2', 'KANQ 121755Z AUTO 29005G11KT 10SM CLR 03/M05 A2987 RMK AO2', 'KANQ 121715Z AUTO 36005KT 10SM CLR 03/M06 A2990 RMK AO2', 'KANQ 121655Z AUTO VRB04KT 10SM CLR 02/M05 A2992 RMK AO2', 'KANQ 121615Z AUTO 08004KT 10SM CLR 01/M05 A2994 RMK AO2', 'KANQ 121555Z AUTO 00000KT 10SM CLR 01/M05 A2994 RMK AO2', 'KANQ 121515Z AUTO 11007KT 070V130 10SM CLR 00/M04 A2992 RMK AO2', 'KANQ 121455Z AUTO 09007KT 10SM CLR M00/M04 A2991 RMK AO2', 'KANQ 121415Z AUTO 00000KT 10SM CLR M02/M04 A2992 RMK AO2', 'KANQ 121355Z AUTO 00000KT 10SM CLR M03/M03 A2993 RMK AO2', 'KANQ 121315Z AUTO 00000KT 10SM CLR M06/M06 A2994 RMK AO2', 'KANQ 121255Z AUTO 00000KT 9SM CLR M06/M06 A2994 RMK AO2', 'KANQ 121215Z AUTO 00000KT 10SM CLR M05/M05 A2994 RMK AO2', 'KANQ 121155Z AUTO 00000KT 10SM CLR M05/M05 A2994 RMK AO2', 'KANQ 121115Z AUTO 00000KT 10SM CLR M05/M05 A2995 RMK AO2', 'KANQ 121055Z AUTO 00000KT 10SM CLR M05/M05 A2995 RMK AO2']","['2024-02-15 09:55:00', '2024-02-15 09:15:00', '2024-02-15 08:55:00', '2024-02-15 08:15:00', '2024-02-15 07:55:00', '2024-02-15 07:15:00', '2024-02-15 06:55:00', '2024-02-15 06:15:00', '2024-02-15 05:55:00', '2024-02-15 05:15:00', '2024-02-15 04:55:00', '2024-02-15 04:15:00', '2024-02-15 03:55:00', '2024-02-15 03:15:00', '2024-02-15 02:55:00', '2024-02-15 02:15:00', '2024-02-15 01:55:00', '2024-02-15 01:15:00', '2024-02-15 00:55:00', '2024-02-15 00:15:00', '2024-02-14 23:55:00', '2024-02-14 23:15:00', '2024-02-14 22:55:00', '2024-02-14 22:15:00', '2024-02-14 21:55:00', '2024-02-14 21:15:00', '2024-02-14 20:55:00', '2024-02-14 20:15:00', '2024-02-14 19:55:00', '2024-02-14 19:15:00', '2024-02-14 18:55:00', '2024-02-14 18:15:00', '2024-02-14 17:55:00', '2024-02-14 17:15:00', '2024-02-14 16:55:00', '2024-02-14 16:15:00', '2024-02-14 15:55:00', '2024-02-14 15:15:00', '2024-02-14 14:55:00', '2024-02-14 14:15:00', '2024-02-14 13:55:00', '2024-02-14 13:15:00', '2024-02-14 12:55:00', '2024-02-14 12:15:00', '2024-02-14 11:55:00', '2024-02-14 11:15:00', '2024-02-14 10:55:00', '2024-02-14 10:15:00', '2024-02-14 09:55:00', '2024-02-14 09:15:00', '2024-02-14 08:55:00', '2024-02-14 08:15:00', '2024-02-14 07:55:00', '2024-02-14 07:15:00', '2024-02-14 06:55:00', '2024-02-14 06:15:00', '2024-02-14 05:55:00', '2024-02-14 05:15:00', '2024-02-14 04:55:00', '2024-02-14 04:15:00', '2024-02-14 03:55:00', '2024-02-14 03:15:00', '2024-02-14 02:55:00', '2024-02-14 02:15:00', '2024-02-14 01:55:00', '2024-02-14 01:15:00', '2024-02-14 00:55:00', '2024-02-14 00:15:00', '2024-02-13 23:55:00', '2024-02-13 23:15:00', '2024-02-13 22:55:00', '2024-02-13 22:15:00', '2024-02-13 21:55:00', '2024-02-13 21:15:00', '2024-02-13 20:55:00', '2024-02-13 20:15:00', '2024-02-13 19:55:00', '2024-02-13 19:15:00', '2024-02-13 18:55:00', '2024-02-13 18:15:00', '2024-02-13 17:55:00', '2024-02-13 17:15:00', '2024-02-13 16:55:00', '2024-02-13 16:15:00', '2024-02-13 15:55:00', '2024-02-13 15:15:00', '2024-02-13 14:55:00', '2024-02-13 14:15:00', '2024-02-13 13:55:00', '2024-02-13 13:15:00', '2024-02-13 12:55:00', '2024-02-13 12:15:00', '2024-02-13 11:55:00', '2024-02-13 11:15:00', '2024-02-13 10:55:00', '2024-02-13 10:15:00', '2024-02-13 09:55:00', '2024-02-13 09:15:00', '2024-02-13 08:55:00', '2024-02-13 08:15:00', '2024-02-13 07:55:00', '2024-02-13 07:15:00', '2024-02-13 06:55:00', '2024-02-13 06:15:00', '2024-02-13 05:55:00', '2024-02-13 05:15:00', '2024-02-13 04:55:00', '2024-02-13 04:15:00', '2024-02-13 03:55:00', '2024-02-13 03:15:00', '2024-02-13 02:55:00', '2024-02-13 02:15:00', '2024-02-13 01:55:00', '2024-02-13 01:15:00', '2024-02-13 00:55:00', '2024-02-13 00:15:00', '2024-02-12 23:55:00', '2024-02-12 23:15:00', '2024-02-12 22:55:00', '2024-02-12 22:15:00', '2024-02-12 21:55:00', '2024-02-12 21:15:00', '2024-02-12 20:55:00', '2024-02-12 20:15:00', '2024-02-12 19:55:00', '2024-02-12 19:15:00', '2024-02-12 18:55:00', '2024-02-12 18:15:00', '2024-02-12 17:55:00', '2024-02-12 17:15:00', '2024-02-12 16:55:00', '2024-02-12 16:15:00', '2024-02-12 15:55:00', '2024-02-12 15:15:00', '2024-02-12 14:55:00', '2024-02-12 14:15:00', '2024-02-12 13:55:00', '2024-02-12 13:15:00', '2024-02-12 12:55:00', '2024-02-12 12:15:00', '2024-02-12 11:55:00', '2024-02-12 11:15:00', '2024-02-12 10:55:00']"
United-states, Aniak Airport (ANI/PANI) ,"['PANI 150956Z AUTO 00000KT 10SM FEW025 SCT060 OVC075 M07/M09 A2976 RMK AO2 SNE49 SLP072 P0000 T10721089 FZRANO $', 'PANI 150911Z AUTO 00000KT 9SM -SN BKN030 OVC040 M07/M09 A2977 RMK AO2 P0000 FZRANO $', 'PANI 150856Z AUTO 00000KT 8SM -SN BKN029 OVC040 M08/M09 A2977 RMK AO2 SNE18B39 SLP075 P0000 60000 T10781094 410391083 56010 FZRANO $', 'PANI 150813Z AUTO VRB03KT 9SM -SN SCT029 BKN050 OVC065 M08/M09 A2977 RMK AO2 P0000 FZRANO $', 'PANI 150756Z AUTO 00000KT 4SM -SN BR BKN029 OVC039 M08/M09 A2978 RMK AO2 SLP077 P0000 T10781094 FZRANO $', 'PANI 150730Z AUTO 00000KT 2 1/2SM -SN BR BKN021 BKN027 OVC038 M08/M09 A2979 RMK AO2 VIS 2V4 P0000 FZRANO $', 'PANI 150700Z AUTO 36003KT 1 3/4SM -SN BR SCT021 BKN028 OVC036 M08/M09 A2979 RMK AO2 P0000 FZRANO $', 'PANI 150607Z AUTO VRB04KT 3SM -SN BR FEW021 OVC034 M08/M09 A2981 RMK AO2 P0000 FZRANO $', 'PANI 150556Z AUTO VRB03KT 2SM -SN BR SCT021 BKN029 OVC036 M08/M09 A2980 RMK AO2 VIS 1 1/2V3 SLP086 P0000 60002 T10781094 11072 21083 58006 FZRANO $', 'PANI 150456Z AUTO 00000KT 9SM -SN BKN021 OVC036 M08/M09 A2982 RMK AO2 SLP090 P0000 T10781094 FZRANO $', 'PANI 150408Z AUTO VRB06KT 2SM -SN BR BKN028 BKN035 OVC044 M08/M10 A2982 RMK AO2 P0000 FZRANO $', 'PANI 150356Z AUTO VRB04KT 4SM -SN BR SCT036 OVC044 M08/M10 A2983 RMK AO2 SLP094 P0000 T10781100 FZRANO $', 'PANI 150256Z AUTO 34009KT 1 1/2SM -SN BR OVC028 M08/M10 A2982 RMK AO2 SLP091 P0001 60002 T10781100 58019 FZRANO $', 'PANI 150149Z AUTO VRB05KT 3/4SM -SN BR OVC017 M08/M09 A2985 RMK AO2 P0000 FZRANO RVRNO $', 'PANI 150056Z AUTO VRB06KT 1 1/4SM -SN BR SCT016 OVC023 M08/M09 A2986 RMK AO2 SLP105 P0001 T10781094 FZRANO $', 'PANI 150018Z AUTO VRB06KT 1SM -SN BR BKN020 OVC025 M07/M09 A2987 RMK AO2 P0000 FZRANO RVRNO $', 'PANI 142356Z AUTO VRB06KT 1SM -SN BR OVC020 M07/M09 A2988 RMK AO2 SLP110 P0001 60005 T10721089 11072 21078 58022 FZRANO RVRNO $', 'PANI 142324Z AUTO VRB06KT 1SM -SN BR OVC018 M07/M09 A2989 RMK AO2 P0001 FZRANO RVRNO $', 'PANI 142156Z AUTO 35005KT 1/2SM SN FZFG OVC016 M08/M09 A2993 RMK AO2 SLP127 P0001 T10781094 FZRANO RVRNO $', 'PANI 142056Z AUTO 36005KT 1SM -SN BR BKN020 BKN024 OVC029 M08/M09 A2994 RMK AO2 SLP132 P0001 60002 T10781094 58003 FZRANO RVRNO $', 'PANI 141956Z AUTO 34005KT 1 1/4SM -SN BR OVC019 M08/M09 A2995 RMK AO2 SLP134 P0001 T10781094 FZRANO $', 'PANI 141909Z AUTO VRB04KT 3/4SM -SN BR BKN015 OVC022 M07/M09 A2996 RMK AO2 P0001 FZRANO RVRNO $', 'PANI 141856Z AUTO VRB04KT 1 1/4SM -SN BR OVC021 M07/M09 A2995 RMK AO2 SLP136 P0000 T10721089 FZRANO $', 'PANI 141822Z AUTO 32004KT 1 1/4SM -SN BR OVC025 M07/M09 A2995 RMK AO2 P0000 FZRANO $', 'PANI 141756Z AUTO 32004KT 4SM -SN BR FEW025 OVC032 M07/M09 A2995 RMK AO2 SNB01 SLP135 P0000 60000 T10721089 11067 21078 53006 FZRANO $', 'PANI 141719Z AUTO 32003KT 7SM -SN OVC029 M07/M09 A2995 RMK AO2 SNB01 P0000 FZRANO $', 'PANI 141656Z AUTO 36003KT 10SM BKN026 OVC031 M07/M10 A2994 RMK AO2 SLP133 T10721100 FZRANO $', 'PANI 141607Z AUTO VRB03KT 10SM OVC029 M08/M10 A2993 RMK AO2 FZRANO $', 'PANI 141556Z AUTO VRB04KT 10SM OVC031 M08/M10 A2993 RMK AO2 SLP127 T10781100 FZRANO $', 'PANI 141456Z AUTO 33003KT 10SM OVC033 M08/M10 A2993 RMK AO2 SLP128 T10781100 53007 FZRANO $', 'PANI 141356Z AUTO 30003KT 10SM SCT012 OVC037 M08/M10 A2992 RMK AO2 SLP124 T10781100 FZRANO $', 'PANI 141328Z AUTO 28004KT 10SM BKN014 OVC040 M07/M10 A2992 RMK AO2 FZRANO $', 'PANI 141256Z AUTO 29008KT 10SM FEW014 OVC042 M07/M10 A2991 RMK AO2 SLP122 T10721100 FZRANO $', 'PANI 141156Z AUTO 27006KT 10SM OVC014 M07/M09 A2990 RMK AO2 SLP118 60000 70005 T10671089 10022 21067 51053 FZRANO $', 'PANI 141056Z AUTO 25012KT 10SM BKN012 OVC043 M06/M08 A2986 RMK AO2 SNE04 SLP103 P0000 T10611083 FZRANO $', 'PANI 140956Z AUTO 24015G19KT 9SM -SN OVC012 M06/M08 A2981 RMK AO2 PK WND 25026/0942 SNB0858 SLP087 P0000 T10561078 FZRANO $', 'PANI 140906Z AUTO 25019G26KT 9SM -SN BKN012 OVC032 M04/M06 A2974 RMK AO2 PK WND 26026/0906 SNB0858 P0000 FZRANO $', 'PANI 140856Z AUTO 24014G27KT 10SM SCT012 BKN026 OVC032 M04/M06 A2974 RMK AO2 PK WND 25027/0850 SNE02B25E43 PRESRR SLP065 P0000 60000 T10391061 400441039 53065 FZRANO $', 'PANI 140756Z AUTO 24016G22KT 9SM -SN FEW012 OVC021 M01/M03 A2966 RMK AO2 WSHFT 0658 SNB40 SLP038 P0000 T10111033 FZRANO $', 'PANI 140716Z AUTO 24012G24KT 8SM SCT010 BKN019 BKN049 00/M02 A2962 RMK AO2 WSHFT 0658 PRESRR FZRANO $', 'PANI 140656Z AUTO 17012G21KT 10SM FEW050 SCT085 02/M01 A2958 RMK AO2 SLP011 T00221011 FZRANO $', 'PANI 140556Z AUTO 19009KT 10SM SCT060 BKN075 OVC090 02/M01 A2955 RMK AO2 SLP999 60001 T00221006 10033 20022 53031 FZRANO $', 'PANI 140456Z AUTO 16017G21KT 10SM OVC070 03/00 A2951 RMK AO2 SLP984 T00280000 $', 'PANI 140316Z AUTO 15017G23KT 10SM -RA FEW013 SCT030 OVC060 02/01 A2946 RMK AO2 P0000 FZRANO $', 'PANI 140256Z AUTO 16017G27KT 10SM -RA FEW018 BKN023 OVC035 02/01 A2946 RMK AO2 PK WND 16027/0247 SLP968 P0000 60001 T00220006 53014 FZRANO $', 'PANI 140156Z AUTO 16018G22KT 10SM -RA OVC028 02/01 A2943 RMK AO2 SLP960 P0001 T00220006 FZRANO $', 'PANI 140056Z AUTO 18012G18KT 10SM -RA OVC024 03/01 A2943 RMK AO2 SLP957 P0000 T00330006 $', 'PANI 132356Z AUTO 17013G21KT 10SM -RA OVC024 03/00 A2941 RMK AO2 SLP953 P0000 60000 T00330000 10039 20028 58002 $', 'PANI 132256Z AUTO 14014G21KT 10SM -RA OVC026 04/00 A2943 RMK AO2 RAB26 SLP957 P0000 T00390000 $', 'PANI 132156Z AUTO 15015G29KT 10SM BKN028 OVC035 04/M01 A2943 RMK AO2 PK WND 12029/2148 SLP957 T00391006 $', 'PANI 132111Z AUTO 14012KT 10SM OVC030 03/M01 A2942 RMK AO2 $', 'PANI 132056Z AUTO 14013KT 10SM OVC028 03/M01 A2942 RMK AO2 RAE23 SLP955 P0000 60000 T00331006 55001 $', 'PANI 131921Z AUTO 15015G20KT 10SM -RA OVC028 03/00 A2942 RMK AO2 P0000 $', 'PANI 131856Z AUTO 14017G22KT 10SM -RA OVC030 03/00 A2942 RMK AO2 SLP956 P0000 T00330000 $', 'PANI 131756Z AUTO 15013KT 10SM -RA OVC028 03/01 A2943 RMK AO2 PK WND 15026/1737 SLP957 P0000 60004 T00330006 10044 20028 55000 $', 'PANI 131656Z AUTO 15014G20KT 10SM -RA OVC028 03/01 A2942 RMK AO2 SLP954 P0000 T00330006 $', 'PANI 131556Z AUTO 16010KT 10SM -RA OVC026 03/01 A2942 RMK AO2 SLP956 P0001 T00280011 $', 'PANI 131456Z AUTO 17014KT 10SM -RA OVC022 03/01 A2943 RMK AO2 SLP958 P0002 60003 T00330011 51007 $', 'PANI 131356Z AUTO 16020G31KT 10SM -RA OVC024 04/01 A2942 RMK AO2 PK WND 15032/1327 SLP957 P0001 T00390011 $', 'PANI 131256Z AUTO 15023G31KT 10SM -RA BKN028 OVC033 04/01 A2941 RMK AO2 PK WND 16031/1248 SLP952 P0000 T00440006 $', 'PANI 131216Z AUTO 15018G23KT 10SM -RA OVC030 04/01 A2940 RMK AO2 P0000 $', 'PANI 131056Z AUTO 16018G21KT 10SM -RA OVC026 04/01 A2942 RMK AO2 SLP955 P0002 T00390011 $', 'PANI 130956Z AUTO 16013KT 10SM -RA OVC028 03/01 A2942 RMK AO2 SLP955 P0001 T00330006 $', 'PANI 130919Z AUTO 15013KT 10SM -RA OVC028 03/01 A2942 RMK AO2 P0000 $', 'PANI 130856Z AUTO 15009KT 10SM -RA OVC030 03/01 A2942 RMK AO2 SLP957 P0000 60000 T00280006 400441111 58003 $', 'PANI 130756Z AUTO 15010KT 10SM -RA OVC030 02/01 A2944 RMK AO2 UPB0659E34RAB03E13B34 SLP961 P0000 T00220006 FZRANO $', 'PANI 130656Z AUTO 14009KT 10SM FEW030 OVC036 02/00 A2943 RMK AO2 UPB34E41RAB41E53 SLP960 P0000 T00220000 FZRANO $', 'PANI 130356Z AUTO 16021G28KT 10SM BKN035 OVC110 04/M01 A2940 RMK AO2 PK WND 15028/0356 WSHFT 0339 SLP950 T00391011 $', 'PANI 130256Z AUTO 11008KT 10SM OVC031 02/M01 A2939 RMK AO2 SLP947 60000 T00221011 56019 FZRANO $', 'PANI 130156Z AUTO 12007KT 9SM FEW023 OVC029 01/M02 A2940 RMK AO2 UPB52E54SNE52 SLP948 P0000 T00061022 FZRANO $', 'PANI 130056Z AUTO 12018G25KT 7SM -SN SCT023 BKN028 OVC046 00/M03 A2940 RMK AO2 UPB01E21B48E53SNB03E17B53 SLP949 P0000 T00001033 FZRANO $', 'PANI 122356Z AUTO 11015G21KT 10SM FEW041 OVC050 00/M04 A2945 RMK AO2 UPB40E44SNE40 SLP965 P0000 60000 T00001039 10000 21078 58044 FZRANO $', 'PANI 122256Z AUTO VRB04KT 7SM -SN SCT028 BKN041 OVC047 M02/M05 A2950 RMK AO2 SLP983 P0000 T10221050 FZRANO $', 'PANI 122156Z AUTO VRB04KT 9SM -SN BKN043 OVC050 M03/M06 A2955 RMK AO2 SLP001 P0000 T10281056 FZRANO $', 'PANI 121956Z AUTO 11005KT 10SM SCT034 OVC095 M04/M06 A2960 RMK AO2 SLP018 T10391056 FZRANO $', 'PANI 121856Z AUTO VRB06KT 10SM BKN110 M07/M08 A2962 RMK AO2 SLP024 T10671078 FZRANO $', 'PANI 121756Z AUTO 11004KT 10SM CLR M07/M08 A2965 RMK AO2 SLP032 T10721083 11072 21111 58015 FZRANO $', 'PANI 121714Z AUTO 11007KT 10SM BKN029 M08/M09 A2967 RMK AO2 FZRANO $', 'PANI 121656Z AUTO 10004KT 10SM FEW029 M10/M11 A2967 RMK AO2 SLP041 T11001111 FZRANO $', 'PANI 121556Z AUTO 13003KT 10SM CLR M11/M13 A2968 RMK AO2 SLP042 T11111128 FZRANO $', 'PANI 121456Z AUTO 13004KT 10SM CLR M09/M10 A2969 RMK AO2 SLP047 T10891100 58005 FZRANO $', 'PANI 121256Z AUTO 09003KT 10SM CLR M08/M09 A2970 RMK AO2 SLP050 T10781094 FZRANO $', 'PANI 121156Z AUTO 13003KT 10SM CLR M08/M10 A2970 RMK AO2 SLP052 T10831100 11050 21083 53005 FZRANO $', 'PANI 121056Z AUTO 14005KT 10SM FEW080 BKN100 BKN110 M07/M08 A2970 RMK AO2 SLP049 T10671083 FZRANO $']","['2024-02-15 09:56:00', '2024-02-15 09:11:00', '2024-02-15 08:56:00', '2024-02-15 08:13:00', '2024-02-15 07:56:00', '2024-02-15 07:30:00', '2024-02-15 07:00:00', '2024-02-15 06:07:00', '2024-02-15 05:56:00', '2024-02-15 04:56:00', '2024-02-15 04:08:00', '2024-02-15 03:56:00', '2024-02-15 02:56:00', '2024-02-15 01:49:00', '2024-02-15 00:56:00', '2024-02-15 00:18:00', '2024-02-14 23:56:00', '2024-02-14 23:24:00', '2024-02-14 21:56:00', '2024-02-14 20:56:00', '2024-02-14 19:56:00', '2024-02-14 19:09:00', '2024-02-14 18:56:00', '2024-02-14 18:22:00', '2024-02-14 17:56:00', '2024-02-14 17:19:00', '2024-02-14 16:56:00', '2024-02-14 16:07:00', '2024-02-14 15:56:00', '2024-02-14 14:56:00', '2024-02-14 13:56:00', '2024-02-14 13:28:00', '2024-02-14 12:56:00', '2024-02-14 11:56:00', '2024-02-14 10:56:00', '2024-02-14 09:56:00', '2024-02-14 09:06:00', '2024-02-14 08:56:00', '2024-02-14 07:56:00', '2024-02-14 07:16:00', '2024-02-14 06:56:00', '2024-02-14 05:56:00', '2024-02-14 04:56:00', '2024-02-14 03:16:00', '2024-02-14 02:56:00', '2024-02-14 01:56:00', '2024-02-14 00:56:00', '2024-02-13 23:56:00', '2024-02-13 22:56:00', '2024-02-13 21:56:00', '2024-02-13 21:11:00', '2024-02-13 20:56:00', '2024-02-13 19:21:00', '2024-02-13 18:56:00', '2024-02-13 17:56:00', '2024-02-13 16:56:00', '2024-02-13 15:56:00', '2024-02-13 14:56:00', '2024-02-13 13:56:00', '2024-02-13 12:56:00', '2024-02-13 12:16:00', '2024-02-13 10:56:00', '2024-02-13 09:56:00', '2024-02-13 09:19:00', '2024-02-13 08:56:00', '2024-02-13 07:56:00', '2024-02-13 06:56:00', '2024-02-13 03:56:00', '2024-02-13 02:56:00', '2024-02-13 01:56:00', '2024-02-13 00:56:00', '2024-02-12 23:56:00', '2024-02-12 22:56:00', '2024-02-12 21:56:00', '2024-02-12 19:56:00', '2024-02-12 18:56:00', '2024-02-12 17:56:00', '2024-02-12 17:14:00', '2024-02-12 16:56:00', '2024-02-12 15:56:00', '2024-02-12 14:56:00', '2024-02-12 12:56:00', '2024-02-12 11:56:00', '2024-02-12 10:56:00']"
United-states, Ankeny Regional Airport (QQK/KIKV) ,"['KIKV 150955Z AUTO 34016G23KT 10SM BKN013 OVC020 M01/M02 A3005 RMK AO2', 'KIKV 150915Z AUTO 34021G30KT 10SM OVC012 M00/M02 A3001 RMK AO2', 'KIKV 150855Z AUTO 33017G31KT 10SM OVC011 00/M01 A3001 RMK AO2', 'KIKV 150815Z AUTO 33019G25KT 10SM FEW015 OVC022 01/M00 A2998 RMK AO2', 'KIKV 150755Z AUTO 33014G20KT 10SM FEW011 BKN020 OVC030 01/00 A2996 RMK AO2', 'KIKV 150715Z AUTO 34017G30KT 10SM OVC008 01/00 A2994 RMK AO2', 'KIKV 150655Z AUTO 32022G29KT 10SM BKN008 BKN012 OVC034 02/01 A2993 RMK AO2', 'KIKV 150615Z AUTO 36011G19KT 9SM BKN032 OVC044 06/03 A2990 RMK AO2', 'KIKV 150555Z AUTO 32009G16KT 290V350 9SM BKN031 OVC037 07/05 A2988 RMK AO2', 'KIKV 150515Z AUTO 30009G15KT 10SM BKN039 BKN046 OVC060 07/05 A2989 RMK AO2', 'KIKV 150455Z AUTO 15005G10KT 10SM SCT060 OVC070 06/05 A2984 RMK AO2 P0010', 'KIKV 150415Z AUTO 20011G17KT 170V240 2SM -RA SCT027 BKN055 OVC100 07/04 A2986 RMK AO2', 'KIKV 150355Z AUTO 14009KT 6SM -RA FEW025 FEW042 OVC050 07/05 A2987 RMK AO2 P0011', 'KIKV 150315Z AUTO 16007G18KT 140V200 2SM -RA SCT024 BKN060 OVC110 07/04 A2989 RMK AO2', 'KIKV 150255Z AUTO 16008G15KT 9SM SCT060 BKN085 OVC110 09/02 A2988 RMK AO2', 'KIKV 150215Z AUTO 14007G12KT 10SM SCT065 BKN090 OVC110 09/00 A2988 RMK AO2', 'KIKV 150155Z AUTO 14008KT 10SM SCT070 OVC090 09/00 A2989 RMK AO2', 'KIKV 150115Z AUTO 13006KT 10SM BKN080 OVC110 09/M00 A2992 RMK AO2', 'KIKV 150055Z AUTO 14006KT 10SM BKN080 09/M00 A2992 RMK AO2', 'KIKV 150015Z AUTO 14008KT 10SM BKN095 BKN120 10/M00 A2992 RMK AO2', 'KIKV 142355Z AUTO 13009KT 10SM BKN120 10/M01 A2992 RMK AO2', 'KIKV 142315Z AUTO 10SM BKN110 12/M01 A2992 RMK AO2', 'KIKV 142255Z AUTO 14010G19KT 9SM BKN100 12/M01 A2992 RMK AO2', 'KIKV 142215Z AUTO 14015KT 10SM CLR 13/M01 A2993 RMK AO2', 'KIKV 142155Z AUTO 15014G20KT 10SM CLR 13/M01 A2994 RMK AO2', 'KIKV 142115Z AUTO 16013G20KT 9SM CLR 14/M00 A2996 RMK AO2', 'KIKV 142055Z AUTO 17012G18KT 9SM CLR 14/M00 A2997 RMK AO2', 'KIKV 142015Z AUTO 15012G17KT 10SM CLR 13/M00 A3000 RMK AO2', 'KIKV 141955Z AUTO 15011G17KT 9SM CLR 13/M00 A3001 RMK AO2', 'KIKV 141915Z AUTO 14013G21KT 10SM CLR 13/M00 A3004 RMK AO2', 'KIKV 141855Z AUTO 15013G19KT 10SM CLR 12/M00 A3005 RMK AO2', 'KIKV 141815Z AUTO 14012KT 10SM CLR 11/M00 A3008 RMK AO2', 'KIKV 141755Z AUTO 14011G16KT 9SM CLR 11/M00 A3009 RMK AO2', 'KIKV 141715Z AUTO 15007KT 9SM CLR 08/M01 A3013 RMK AO2', 'KIKV 141655Z AUTO 14007KT 9SM BKN060 07/M01 A3014 RMK AO2', 'KIKV 141615Z AUTO 17008KT 9SM OVC055 05/M01 A3016 RMK AO2', 'KIKV 141555Z AUTO 17005KT 10SM OVC055 04/M01 A3016 RMK AO2', 'KIKV 141515Z AUTO 17006KT 8SM BKN055 03/M01 A3016 RMK AO2', 'KIKV 141455Z AUTO 16004KT 8SM CLR 01/M01 A3016 RMK AO2', 'KIKV 141415Z AUTO 00000KT 8SM BKN060 M01/M02 A3015 RMK AO2', 'KIKV 141355Z AUTO 00000KT 9SM BKN055 M02/M03 A3016 RMK AO2', 'KIKV 141315Z AUTO 00000KT 9SM BKN055 M04/M05 A3015 RMK AO2', 'KIKV 141255Z AUTO 00000KT 8SM CLR M05/M05 A3014 RMK AO2', 'KIKV 141215Z AUTO 00000KT 9SM CLR M05/M06 A3014 RMK AO2', 'KIKV 141155Z AUTO 00000KT 8SM CLR M04/M05 A3014 RMK AO2', 'KIKV 141115Z AUTO 00000KT 8SM CLR M05/M05 A3013 RMK AO2', 'KIKV 141055Z AUTO 00000KT 9SM CLR M04/M04 A3012 RMK AO2', 'KIKV 141015Z AUTO 00000KT 9SM CLR M03/M04 A3012 RMK AO2', 'KIKV 140955Z AUTO 00000KT 8SM SCT050 M04/M05 A3012 RMK AO2', 'KIKV 140915Z AUTO 00000KT 9SM BKN055 M04/M05 A3012 RMK AO2', 'KIKV 140855Z AUTO 00000KT 9SM CLR M04/M05 A3013 RMK AO2', 'KIKV 140655Z AUTO 00000KT 9SM CLR M03/M04 A3011 RMK AO2', 'KIKV 140615Z AUTO 00000KT 10SM CLR M01/M04 A3010 RMK AO2', 'KIKV 140555Z AUTO 17004KT 9SM CLR 01/M04 A3009 RMK AO2', 'KIKV 140515Z AUTO 00000KT 9SM CLR M01/M05 A3009 RMK AO2', 'KIKV 140455Z AUTO 00000KT 10SM CLR M01/M04 A3009 RMK AO2', 'KIKV 140415Z AUTO 00000KT 10SM CLR 03/M04 A3009 RMK AO2', 'KIKV 140355Z AUTO 00000KT 9SM CLR 03/M04 A3008 RMK AO2', 'KIKV 140315Z AUTO 00000KT 10SM FEW080 FEW120 02/M04 A3008 RMK AO2', 'KIKV 140255Z AUTO 00000KT 10SM FEW048 BKN060 BKN075 02/M03 A3008 RMK AO2', 'KIKV 140215Z AUTO 00000KT 10SM SCT047 BKN060 OVC095 05/M03 A3007 RMK AO2', 'KIKV 140155Z AUTO 00000KT 10SM SCT047 BKN070 OVC075 05/M03 A3006 RMK AO2', 'KIKV 140115Z AUTO 00000KT 10SM SCT041 BKN050 OVC075 06/M03 A3006 RMK AO2', 'KIKV 140055Z AUTO 00000KT 10SM FEW042 SCT050 OVC075 06/M03 A3006 RMK AO2', 'KIKV 140015Z AUTO 05005KT 10SM FEW075 OVC085 06/M03 A3005 RMK AO2', 'KIKV 132355Z AUTO 03005KT 10SM OVC085 07/M03 A3004 RMK AO2', 'KIKV 132315Z AUTO 00000KT 10SM FEW085 FEW110 08/M03 A3003 RMK AO2', 'KIKV 132255Z AUTO 03003KT 9SM CLR 08/M04 A3002 RMK AO2', 'KIKV 132215Z AUTO 00000KT 9SM CLR 09/M04 A3001 RMK AO2', 'KIKV 132155Z AUTO 00000KT 10SM CLR 09/M03 A3000 RMK AO2', 'KIKV 132115Z AUTO 31004KT 9SM CLR 09/M03 A3000 RMK AO2', 'KIKV 132055Z AUTO VRB03KT 9SM CLR 08/M03 A3000 RMK AO2', 'KIKV 132015Z AUTO 31005KT 9SM CLR 08/M03 A3001 RMK AO2', 'KIKV 131955Z AUTO VRB03KT 10SM CLR 08/M03 A3001 RMK AO2', 'KIKV 131915Z AUTO VRB05G10KT 9SM BKN075 08/M03 A3002 RMK AO2', 'KIKV 131855Z AUTO VRB03KT 10SM CLR 07/M03 A3003 RMK AO2', 'KIKV 131815Z AUTO 07004KT 10SM OVC070 07/M04 A3004 RMK AO2', 'KIKV 131755Z AUTO VRB06KT 10SM OVC070 06/M03 A3005 RMK AO2', 'KIKV 131635Z AUTO VRB03KT 10SM BKN075 04/M03 A3007 RMK AO2', 'KIKV 131615Z AUTO VRB04KT 10SM OVC075 03/M03 A3006 RMK AO2', 'KIKV 131555Z AUTO 11004KT 10SM OVC075 02/M03 A3006 RMK AO2', 'KIKV 131515Z AUTO 00000KT 10SM OVC075 01/M03 A3005 RMK AO2', 'KIKV 131455Z AUTO 00000KT 9SM OVC075 01/M02 A3005 RMK AO2', 'KIKV 131415Z AUTO 00000KT 10SM OVC075 M00/M02 A3004 RMK AO2', 'KIKV 131355Z AUTO 00000KT 10SM BKN070 OVC080 M01/M02 A3004 RMK AO2', 'KIKV 131315Z AUTO 02005KT 10SM FEW036 SCT060 OVC075 M01/M02 A3003 RMK AO2', 'KIKV 131255Z AUTO 02004KT 9SM SCT035 BKN041 OVC065 M01/M03 A3002 RMK AO2', 'KIKV 131215Z AUTO 00000KT 10SM SCT039 BKN048 OVC060 M00/M02 A3002 RMK AO2', 'KIKV 131155Z AUTO 02004KT 10SM BKN041 BKN050 OVC060 M00/M02 A3002 RMK AO2', 'KIKV 131115Z AUTO 02004KT 10SM SCT065 BKN075 OVC090 M01/M03 A3001 RMK AO2', 'KIKV 131055Z AUTO 02004KT 9SM OVC065 M01/M03 A3001 RMK AO2', 'KIKV 131015Z AUTO 00000KT 9SM OVC070 M01/M03 A3000 RMK AO2', 'KIKV 130955Z AUTO 00000KT 10SM FEW060 OVC075 M01/M03 A3000 RMK AO2', 'KIKV 130915Z AUTO 00000KT 9SM OVC070 M01/M04 A3000 RMK AO2', 'KIKV 130855Z AUTO 00000KT 10SM OVC070 M01/M04 A3000 RMK AO2', 'KIKV 130815Z AUTO 00000KT 10SM FEW065 BKN080 OVC095 M03/M04 A2999 RMK AO2', 'KIKV 130755Z AUTO 00000KT 9SM OVC075 M02/M04 A2998 RMK AO2', 'KIKV 130715Z AUTO 00000KT 9SM OVC080 M04/M06 A2997 RMK AO2', 'KIKV 130655Z AUTO 00000KT 9SM BKN080 M04/M07 A2997 RMK AO2', 'KIKV 130615Z AUTO 00000KT 9SM CLR M04/M06 A2996 RMK AO2', 'KIKV 130555Z AUTO 00000KT 10SM CLR M03/M07 A2995 RMK AO2', 'KIKV 130515Z AUTO 00000KT 10SM CLR M03/M06 A2994 RMK AO2', 'KIKV 130455Z AUTO 00000KT 10SM CLR M03/M06 A2994 RMK AO2', 'KIKV 130415Z AUTO 00000KT 10SM CLR M03/M06 A2993 RMK AO2', 'KIKV 130355Z AUTO 00000KT 10SM CLR M02/M06 A2993 RMK AO2', 'KIKV 130315Z AUTO 27004KT 10SM CLR M02/M06 A2992 RMK AO2', 'KIKV 130255Z AUTO 00000KT 10SM CLR M02/M07 A2992 RMK AO2', 'KIKV 130215Z AUTO 00000KT 10SM CLR M01/M06 A2992 RMK AO2', 'KIKV 130155Z AUTO 00000KT 10SM CLR M01/M06 A2992 RMK AO2', 'KIKV 130115Z AUTO 00000KT 10SM CLR 00/M06 A2992 RMK AO2', 'KIKV 130035Z AUTO 00000KT 10SM CLR 04/M07 A2992 RMK AO2', 'KIKV 130015Z AUTO 00000KT 10SM CLR 04/M07 A2992 RMK AO2', 'KIKV 122355Z AUTO 35003KT 10SM CLR 06/M07 A2991 RMK AO2', 'KIKV 122315Z AUTO 35006KT 10SM CLR 08/M07 A2990 RMK AO2', 'KIKV 122235Z AUTO 35009KT 10SM CLR 09/M06 A2990 RMK AO2', 'KIKV 122215Z AUTO 35007KT 330V030 10SM CLR 09/M06 A2990 RMK AO2', 'KIKV 122155Z AUTO 35007G14KT 10SM CLR 09/M06 A2990 RMK AO2', 'KIKV 122115Z AUTO 33009KT 10SM CLR 09/M05 A2990 RMK AO2', 'KIKV 122055Z AUTO 32010KT 10SM CLR 09/M04 A2990 RMK AO2', 'KIKV 122015Z AUTO 35008G13KT 9SM CLR 09/M03 A2990 RMK AO2', 'KIKV 121955Z AUTO VRB05G13KT 10SM CLR 09/M03 A2991 RMK AO2', 'KIKV 121915Z AUTO 35009G15KT 10SM CLR 08/M03 A2992 RMK AO2', 'KIKV 121855Z AUTO 35010KT 7SM CLR 08/M03 A2992 RMK AO2', 'KIKV 121815Z AUTO 35010KT 10SM CLR 07/M03 A2993 RMK AO2', 'KIKV 121755Z AUTO 33009G14KT 10SM CLR 07/M02 A2994 RMK AO2', 'KIKV 121715Z AUTO 35007G14KT 10SM CLR 05/M01 A2995 RMK AO2', 'KIKV 121655Z AUTO 34008G14KT 10SM CLR 04/M01 A2996 RMK AO2', 'KIKV 121615Z AUTO 32008KT 9SM CLR 02/M02 A2996 RMK AO2', 'KIKV 121555Z AUTO 32009KT 10SM CLR 01/M02 A2996 RMK AO2', 'KIKV 121515Z AUTO 31008KT 9SM CLR M00/M03 A2995 RMK AO2', 'KIKV 121455Z AUTO 30008KT 9SM CLR M01/M03 A2995 RMK AO2', 'KIKV 121415Z AUTO 00000KT 8SM CLR M05/M05 A2995 RMK AO2', 'KIKV 121355Z AUTO 00000KT 8SM CLR M07/M07 A2996 RMK AO2', 'KIKV 121315Z AUTO 00000KT 7SM CLR M08/M08 A2995 RMK AO2', 'KIKV 121255Z AUTO 00000KT 8SM CLR M06/M06 A2995 RMK AO2', 'KIKV 121215Z AUTO 00000KT 9SM CLR M05/M06 A2995 RMK AO2', 'KIKV 121155Z AUTO 17003KT 9SM CLR M06/M06 A2996 RMK AO2', 'KIKV 121115Z AUTO 00000KT 8SM CLR M07/M07 A2996 RMK AO2', 'KIKV 121055Z AUTO 00000KT 9SM CLR M06/M06 A2997 RMK AO2']","['2024-02-15 09:55:00', '2024-02-15 09:15:00', '2024-02-15 08:55:00', '2024-02-15 08:15:00', '2024-02-15 07:55:00', '2024-02-15 07:15:00', '2024-02-15 06:55:00', '2024-02-15 06:15:00', '2024-02-15 05:55:00', '2024-02-15 05:15:00', '2024-02-15 04:55:00', '2024-02-15 04:15:00', '2024-02-15 03:55:00', '2024-02-15 03:15:00', '2024-02-15 02:55:00', '2024-02-15 02:15:00', '2024-02-15 01:55:00', '2024-02-15 01:15:00', '2024-02-15 00:55:00', '2024-02-15 00:15:00', '2024-02-14 23:55:00', '2024-02-14 23:15:00', '2024-02-14 22:55:00', '2024-02-14 22:15:00', '2024-02-14 21:55:00', '2024-02-14 21:15:00', '2024-02-14 20:55:00', '2024-02-14 20:15:00', '2024-02-14 19:55:00', '2024-02-14 19:15:00', '2024-02-14 18:55:00', '2024-02-14 18:15:00', '2024-02-14 17:55:00', '2024-02-14 17:15:00', '2024-02-14 16:55:00', '2024-02-14 16:15:00', '2024-02-14 15:55:00', '2024-02-14 15:15:00', '2024-02-14 14:55:00', '2024-02-14 14:15:00', '2024-02-14 13:55:00', '2024-02-14 13:15:00', '2024-02-14 12:55:00', '2024-02-14 12:15:00', '2024-02-14 11:55:00', '2024-02-14 11:15:00', '2024-02-14 10:55:00', '2024-02-14 10:15:00', '2024-02-14 09:55:00', '2024-02-14 09:15:00', '2024-02-14 08:55:00', '2024-02-14 06:55:00', '2024-02-14 06:15:00', '2024-02-14 05:55:00', '2024-02-14 05:15:00', '2024-02-14 04:55:00', '2024-02-14 04:15:00', '2024-02-14 03:55:00', '2024-02-14 03:15:00', '2024-02-14 02:55:00', '2024-02-14 02:15:00', '2024-02-14 01:55:00', '2024-02-14 01:15:00', '2024-02-14 00:55:00', '2024-02-14 00:15:00', '2024-02-13 23:55:00', '2024-02-13 23:15:00', '2024-02-13 22:55:00', '2024-02-13 22:15:00', '2024-02-13 21:55:00', '2024-02-13 21:15:00', '2024-02-13 20:55:00', '2024-02-13 20:15:00', '2024-02-13 19:55:00', '2024-02-13 19:15:00', '2024-02-13 18:55:00', '2024-02-13 18:15:00', '2024-02-13 17:55:00', '2024-02-13 16:35:00', '2024-02-13 16:15:00', '2024-02-13 15:55:00', '2024-02-13 15:15:00', '2024-02-13 14:55:00', '2024-02-13 14:15:00', '2024-02-13 13:55:00', '2024-02-13 13:15:00', '2024-02-13 12:55:00', '2024-02-13 12:15:00', '2024-02-13 11:55:00', '2024-02-13 11:15:00', '2024-02-13 10:55:00', '2024-02-13 10:15:00', '2024-02-13 09:55:00', '2024-02-13 09:15:00', '2024-02-13 08:55:00', '2024-02-13 08:15:00', '2024-02-13 07:55:00', '2024-02-13 07:15:00', '2024-02-13 06:55:00', '2024-02-13 06:15:00', '2024-02-13 05:55:00', '2024-02-13 05:15:00', '2024-02-13 04:55:00', '2024-02-13 04:15:00', '2024-02-13 03:55:00', '2024-02-13 03:15:00', '2024-02-13 02:55:00', '2024-02-13 02:15:00', '2024-02-13 01:55:00', '2024-02-13 01:15:00', '2024-02-13 00:35:00', '2024-02-13 00:15:00', '2024-02-12 23:55:00', '2024-02-12 23:15:00', '2024-02-12 22:35:00', '2024-02-12 22:15:00', '2024-02-12 21:55:00', '2024-02-12 21:15:00', '2024-02-12 20:55:00', '2024-02-12 20:15:00', '2024-02-12 19:55:00', '2024-02-12 19:15:00', '2024-02-12 18:55:00', '2024-02-12 18:15:00', '2024-02-12 17:55:00', '2024-02-12 17:15:00', '2024-02-12 16:55:00', '2024-02-12 16:15:00', '2024-02-12 15:55:00', '2024-02-12 15:15:00', '2024-02-12 14:55:00', '2024-02-12 14:15:00', '2024-02-12 13:55:00', '2024-02-12 13:15:00', '2024-02-12 12:55:00', '2024-02-12 12:15:00', '2024-02-12 11:55:00', '2024-02-12 11:15:00', '2024-02-12 10:55:00']"
United-states, Ann Arbor Municipal Airport (ARB/KARB) ,"['KARB 150953Z AUTO 12005KT 10SM CLR M02/M06 A3002 RMK AO2 SLP173 T10171056', 'KARB 150853Z AUTO 12004KT 10SM FEW110 M01/M06 A3007 RMK AO2 SLP189 T10111061 58028', 'KARB 150753Z AUTO 15005KT 10SM OVC100 M01/M06 A3010 RMK AO2 SLP201 T10111061', 'KARB 150653Z AUTO 00000KT 10SM OVC100 M02/M06 A3013 RMK AO2 SLP210 T10171061', 'KARB 150553Z AUTO 18004KT 10SM CLR M02/M07 A3015 RMK AO2 SLP219 T10221067 11017 21044 56013', 'KARB 150453Z AUTO 18003KT 10SM CLR M03/M07 A3016 RMK AO2 SLP223 T10281072 400391044', 'KARB 150353Z AUTO 18004KT 10SM CLR M02/M07 A3017 RMK AO2 SLP228 T10221067', 'KARB 150253Z AUTO 00000KT 10SM CLR M02/M07 A3019 RMK AO2 SLP233 T10221067 58007', 'KARB 150153Z AUTO 00000KT 10SM CLR M03/M08 A3021 RMK AO2 SLP240 T10331078', 'KARB 150053Z AUTO 00000KT 10SM CLR M03/M08 A3021 RMK AO2 SLP242 T10281078', 'KARB 142353Z 00000KT 10SM CLR M01/M07 A3021 RMK AO2 SLP241 T10111072 10039 21011 53002', 'KARB 142253Z 24004KT 10SM CLR 02/M09 A3021 RMK AO2 SLP238 T00171089', 'KARB 142153Z VRB03KT 10SM CLR 03/M09 A3020 RMK AO2 SLP236 T00281094', 'KARB 142053Z 10SM CLR 03/M10 A3020 RMK AO2 SLP237 T00281100 56014', 'KARB 141953Z 00000KT 10SM CLR 03/M09 A3021 RMK AO2 SLP238 T00331089', 'KARB 141853Z 32008G21KT 10SM FEW049 03/M09 A3022 RMK AO2 SLP243 T00331094', 'KARB 141753Z 31004KT 10SM BKN047 02/M09 A3025 RMK AO2 SLP251 T00221094 10028 21033 58000', 'KARB 141653Z 28007KT 10SM BKN046 02/M10 A3026 RMK AO2 SLP255 T00171100', 'KARB 141553Z 35007KT 10SM BKN044 00/M11 A3025 RMK AO2 SLP253 T00001106', 'KARB 141453Z VRB04KT 10SM BKN047 00/M10 A3025 RMK AO2 SLP252 T00001100 51017', 'KARB 141405Z 00000KT 10SM CLR M01/M09 A3024 RMK AO2 T10111094', 'KARB 141353Z 00000KT 10SM FEW048 M02/M09 A3023 RMK AO2 SLP247 T10171089', 'KARB 141253Z 00000KT 10SM OVC048 M02/M11 A3022 RMK AO2 SLP242 T10221106', 'KARB 141153Z AUTO 36004KT 10SM OVC048 M02/M11 A3020 RMK AO2 SLP235 T10221111 11006 21022 51018', 'KARB 141053Z AUTO 35004KT 10SM OVC048 M02/M10 A3018 RMK AO2 SLP231 T10171100', 'KARB 140953Z AUTO 36005KT 10SM OVC049 M02/M09 A3016 RMK AO2 SLP223 T10171094', 'KARB 140853Z AUTO 03006KT 10SM OVC050 M02/M08 A3014 RMK AO2 SLP216 T10171083 51010', 'KARB 140753Z AUTO 03006KT 10SM SCT020 OVC048 M02/M07 A3013 RMK AO2 SLP213 T10171072', 'KARB 140653Z AUTO 33007KT 10SM OVC049 M01/M06 A3011 RMK AO2 SLP205 T10111061', 'KARB 140553Z AUTO 35007KT 10SM FEW030 OVC055 M01/M07 A3010 RMK AO2 SLP202 T10061067 10011 21011 53012', 'KARB 140453Z AUTO 32005KT 10SM OVC055 M01/M07 A3009 RMK AO2 SLP197 T10061072 400171067', 'KARB 140353Z AUTO 31004KT 10SM OVC055 M01/M08 A3008 RMK AO2 SLP194 T10061078', 'KARB 140253Z AUTO 30005KT 10SM OVC055 00/M08 A3006 RMK AO2 SLP190 T00001078 51020', 'KARB 140153Z AUTO 31007KT 10SM OVC055 01/M08 A3005 RMK AO2 SLP185 T00061078', 'KARB 140053Z 34006KT 10SM FEW048 OVC060 01/M08 A3003 RMK AO2 SLP177 T00061078', 'KARB 132353Z 31004KT 10SM OVC060 01/M07 A3000 RMK AO2 SLP170 60000 T00111072 10017 20006 53016', 'KARB 132253Z 31006KT 10SM OVC055 01/M07 A2998 RMK AO2 SLP162 T00111072', 'KARB 132153Z 32007KT 280V350 10SM OVC065 02/M06 A2997 RMK AO2 SLP156 T00171056', 'KARB 132053Z 31007KT 10SM OVC055 01/M05 A2995 RMK AO2 SLP154 60000 T00111050 53007', 'KARB 131953Z 31008KT 9SM BKN036 OVC044 01/M03 A2994 RMK AO2 SNB04E31 SLP149 P0000 T00111033', 'KARB 131910Z 29005KT 7SM -SN BKN019 BKN028 OVC049 01/M03 A2993 RMK AO2 SNB04 P0000 T00111033', 'KARB 131853Z VRB03KT 10SM FEW019 BKN048 OVC055 01/M03 A2993 RMK AO2 SNB1759E36 SLP145 P0000 T00111033', 'KARB 131753Z 31005KT 9SM SCT020 BKN025 OVC055 01/M04 A2993 RMK AO2 SNE15 SLP147 P0000 60000 T00111039 10017 21044 51008', 'KARB 131701Z 33004KT 4SM -SN BKN015 OVC037 01/M03 A2994 RMK AO2 P0000 T00111028', 'KARB 131653Z 35005KT 4SM -SN SCT015 BKN030 OVC037 01/M03 A2994 RMK AO2 SLP147 P0000 T00111028', 'KARB 131553Z 36007KT 5SM -SN OVC039 01/M03 A2991 RMK AO2 SNB39 SLP137 P0000 T00061033', 'KARB 131453Z 31005KT 9SM BKN044 OVC070 01/M03 A2988 RMK AO2 SLP128 T00111033 51023', 'KARB 131353Z 32003KT 7SM CLR M01/M04 A2986 RMK AO2 SLP121 T10061039', 'KARB 131253Z AUTO 31005KT 8SM FEW032 M02/M06 A2984 RMK AO2 SLP114 T10221056', 'KARB 131153Z AUTO 00000KT 9SM CLR M04/M07 A2981 RMK AO2 SLP103 I6000 T10391067 11017 21067 51013', 'KARB 131053Z AUTO 32006KT 10SM CLR M02/M06 A2980 RMK AO2 SLP099 T10221061', 'KARB 130953Z AUTO 32007KT 10SM CLR M02/M06 A2978 RMK AO2 SLP092 I1000 T10171056', 'KARB 130853Z AUTO 00000KT 8SM CLR M06/M07 A2977 RMK AO2 SLP090 I1000 I3000 T10561067 51006', 'KARB 130753Z AUTO 00000KT 8SM CLR M06/M07 A2977 RMK AO2 SLP089 I1000 T10611067', 'KARB 130653Z AUTO 00000KT 9SM CLR M05/M06 A2976 RMK AO2 SLP084 I1000 T10501061', 'KARB 130553Z AUTO 00000KT 9SM CLR M06/M07 A2975 RMK AO2 SLP084 T10561067 10028 21056 58004', 'KARB 130453Z AUTO 00000KT 10SM CLR M04/M06 A2976 RMK AO2 SLP086 T10441056 400561067', 'KARB 130353Z AUTO 26003KT 10SM CLR M02/M06 A2978 RMK AO2 SLP092 T10221061', 'KARB 130253Z AUTO 00000KT 10SM CLR M03/M06 A2977 RMK AO2 SLP088 T10331061 55005', 'KARB 130153Z AUTO 00000KT 10SM CLR M03/M07 A2976 RMK AO2 SLP088 T10281067', 'KARB 130053Z AUTO 00000KT 10SM CLR M01/M07 A2976 RMK AO2 SLP087 T10061067', 'KARB 122353Z 36004KT 10SM CLR 02/M07 A2978 RMK AO2 SLP092 T00221072 10056 20022 58019', 'KARB 122253Z 32004KT 10SM CLR 04/M07 A2979 RMK AO2 SLP096 T00391072', 'KARB 122153Z 25004KT 10SM CLR 05/M07 A2983 RMK AO2 SLP107 T00501067', 'KARB 122053Z 18007KT 10SM CLR 05/M06 A2984 RMK AO2 SLP110 T00501061 56010', 'KARB 121953Z 00000KT 10SM CLR 05/M06 A2984 RMK AO2 SLP112 T00501061', 'KARB 121853Z VRB03KT 10SM CLR 04/M07 A2984 RMK AO2 SLP112 T00441067', 'KARB 121753Z 00000KT 10SM CLR 03/M06 A2987 RMK AO2 SLP124 T00281061 10033 21067 58019', 'KARB 121653Z 00000KT 10SM CLR 02/M07 A2993 RMK AO2 SLP144 T00171067', 'KARB 121553Z 09007KT 050V130 10SM CLR 01/M06 A2991 RMK AO2 SLP138 T00111061', 'KARB 121453Z 06006KT 10SM CLR 01/M06 A2993 RMK AO2 SLP144 T00061061 58003', 'KARB 121353Z AUTO 00000KT 10SM CLR M02/M05 A2995 RMK AO2 SLP151 T10171050', 'KARB 121253Z AUTO 00000KT 10SM CLR M06/M07 A2995 RMK AO2 SLP151 T10611072', 'KARB 121153Z AUTO 34003KT 10SM CLR M03/M06 A2994 RMK AO2 SLP146 I6000 T10281061 11006 21061 58005', 'KARB 121125Z AUTO 34004KT 10SM SCT021 M02/M06 A2995 RMK AO2 T10221061', 'KARB 121053Z AUTO 34003KT 10SM OVC023 M01/M06 A2997 RMK AO2 SLP156 T10111061']","['2024-02-15 09:53:00', '2024-02-15 08:53:00', '2024-02-15 07:53:00', '2024-02-15 06:53:00', '2024-02-15 05:53:00', '2024-02-15 04:53:00', '2024-02-15 03:53:00', '2024-02-15 02:53:00', '2024-02-15 01:53:00', '2024-02-15 00:53:00', '2024-02-14 23:53:00', '2024-02-14 22:53:00', '2024-02-14 21:53:00', '2024-02-14 20:53:00', '2024-02-14 19:53:00', '2024-02-14 18:53:00', '2024-02-14 17:53:00', '2024-02-14 16:53:00', '2024-02-14 15:53:00', '2024-02-14 14:53:00', '2024-02-14 14:05:00', '2024-02-14 13:53:00', '2024-02-14 12:53:00', '2024-02-14 11:53:00', '2024-02-14 10:53:00', '2024-02-14 09:53:00', '2024-02-14 08:53:00', '2024-02-14 07:53:00', '2024-02-14 06:53:00', '2024-02-14 05:53:00', '2024-02-14 04:53:00', '2024-02-14 03:53:00', '2024-02-14 02:53:00', '2024-02-14 01:53:00', '2024-02-14 00:53:00', '2024-02-13 23:53:00', '2024-02-13 22:53:00', '2024-02-13 21:53:00', '2024-02-13 20:53:00', '2024-02-13 19:53:00', '2024-02-13 19:10:00', '2024-02-13 18:53:00', '2024-02-13 17:53:00', '2024-02-13 17:01:00', '2024-02-13 16:53:00', '2024-02-13 15:53:00', '2024-02-13 14:53:00', '2024-02-13 13:53:00', '2024-02-13 12:53:00', '2024-02-13 11:53:00', '2024-02-13 10:53:00', '2024-02-13 09:53:00', '2024-02-13 08:53:00', '2024-02-13 07:53:00', '2024-02-13 06:53:00', '2024-02-13 05:53:00', '2024-02-13 04:53:00', '2024-02-13 03:53:00', '2024-02-13 02:53:00', '2024-02-13 01:53:00', '2024-02-13 00:53:00', '2024-02-12 23:53:00', '2024-02-12 22:53:00', '2024-02-12 21:53:00', '2024-02-12 20:53:00', '2024-02-12 19:53:00', '2024-02-12 18:53:00', '2024-02-12 17:53:00', '2024-02-12 16:53:00', '2024-02-12 15:53:00', '2024-02-12 14:53:00', '2024-02-12 13:53:00', '2024-02-12 12:53:00', '2024-02-12 11:53:00', '2024-02-12 11:25:00', '2024-02-12 10:53:00']"
United-states, Anniston Regional (ANB/KANB) ,"['KANB 131953Z AUTO 33007KT 280V360 10SM CLR 13/M02 A3008 RMK AO2 SLP191 T01281022', 'KANB 131853Z AUTO 32007G18KT 280V360 10SM CLR 11/M03 A3009 RMK AO2 SLP194 T01111028', 'KANB 131753Z AUTO 30009KT 10SM CLR 10/00 A3011 RMK AO2 SLP201 T01000000 10106 20044 58001', 'KANB 131653Z AUTO 29008KT 10SM CLR 09/01 A3013 RMK AO2 SLP208 T00890011', 'KANB 131553Z AUTO VRB03KT 10SM FEW024 07/01 A3012 RMK AO2 SLP206 T00720011', 'KANB 131453Z AUTO 31007KT 10SM OVC021 06/01 A3012 RMK AO2 SLP204 T00560006 51031', 'KANB 131353Z AUTO VRB06KT 10SM OVC021 05/01 A3009 RMK AO2 SLP195 T00500011', 'KANB 131253Z AUTO 30004KT 10SM OVC021 04/01 A3006 RMK AO2 SLP183 T00440006', 'KANB 131153Z AUTO VRB03KT 10SM OVC023 04/01 A3002 RMK AO2 SLP171 60000 70068 T00440006 10072 20044 53032', 'KANB 131053Z AUTO VRB06KT 10SM OVC021 05/01 A2998 RMK AO2 SLP155 T00500011', 'KANB 130953Z AUTO 29010G16KT 250V330 10SM OVC019 06/02 A2996 RMK AO2 SLP147 T00560017', 'KANB 130853Z AUTO 29007KT 10SM OVC018 05/02 A2993 RMK AO2 PK WND 26026/0755 RAE07 SLP137 P0000 60000 T00500022 51031', 'KANB 130753Z AUTO 27015G24KT 10SM -RA SCT019 OVC025 06/03 A2990 RMK AO2 SLP128 P0000 T00560028', 'KANB 130653Z AUTO 27011G20KT 10SM -RA OVC022 06/03 A2987 RMK AO2 RAB36 SLP117 P0000 T00610033', 'KANB 130553Z AUTO 28015G26KT 10SM BKN023 OVC029 07/03 A2983 RMK AO2 PK WND 27026/0500 SLP104 60001 T00720028 10122 20072 401720072 51029', 'KANB 130453Z AUTO 26019G30KT 10SM OVC022 08/03 A2980 RMK AO2 PK WND 24031/0406 SLP094 T00780033', 'KANB 130353Z AUTO 25016G24KT 10SM BKN026 OVC035 09/05 A2978 RMK AO2 PK WND 26032/0302 SLP087 T00890050', 'KANB 130253Z AUTO 25015G33KT 10SM BKN029 OVC036 10/05 A2975 RMK AO2 PK WND 25033/0248 SLP074 60001 T01000050 51027', 'KANB 130153Z AUTO 25009G21KT 10SM FEW030 11/07 A2972 RMK AO2 SLP065 T01060072', 'KANB 130053Z AUTO 26012KT 10SM BKN046 11/08 A2971 RMK AO2 PK WND 27030/0006 RAE13 SLP060 P0001 T01110083', 'KANB 130020Z AUTO 26013G28KT 10SM FEW011 SCT016 OVC040 12/09 A2969 RMK AO2 PK WND 27030/0006 RAE13 P0001 T01170089', 'KANB 122353Z AUTO 25017G26KT 6SM -RA BR BKN017 OVC022 12/11 A2967 RMK AO2 PK WND 26038/2257 WSHFT 2252 SLP045 P0003 60023 T01220106 10172 20122 53027', 'KANB 122312Z AUTO 25017G31KT 8SM -RA BKN016 BKN021 OVC029 13/12 A2963 RMK AO2 PK WND 26038/2257 WSHFT 2252 P0003 T01330117', 'KANB 122253Z AUTO 24014G22KT 1 1/2SM +RA BR FEW017 BKN035 OVC070 16/14 A2960 RMK AO2 VIS 1V2 RAB43 PRESRR SLP020 P0010 T01610139', 'KANB 122201Z AUTO 10SM SCT020 BKN038 BKN050 17/14 A2957 RMK AO2 T01720139', 'KANB 122153Z AUTO 14009KT 10SM SCT017 BKN022 OVC050 17/14 A2957 RMK AO2 SLP011 T01720139', 'KANB 122053Z AUTO 12010G18KT 10SM BKN016 BKN023 OVC050 17/13 A2959 RMK AO2 RAB02E15 SLP016 P0000 60010 T01670133 58022', 'KANB 121953Z AUTO 13012G19KT 080V150 10SM BKN017 BKN030 OVC055 17/13 A2961 RMK AO2 RAE16 SLP025 P0001 T01670133', 'KANB 121853Z AUTO 6SM -RA BR BKN016 16/13 A2964 RMK AO2 RAB20 PRESFR SLP035 P0009 T01560133', 'KANB 121753Z AUTO 08006G23KT 10SM BKN016 OVC045 16/13 A2967 RMK AO2 RAE36 SLP045 P0013 60044 T01560133 10156 20150 58017', 'KANB 121720Z AUTO 13008G15KT 100V160 5SM -RA BR OVC039 16/13 A2973 RMK AO2 P0013 T01560133', 'KANB 121653Z AUTO 00000KT 3SM +RA BR OVC034 16/14 A2975 RMK AO2 SLP070 P0014 T01560139', 'KANB 121553Z AUTO 09004KT 4SM RA BR BKN035 OVC049 15/14 A2974 RMK AO2 SLP071 P0013 T01500139', 'KANB 121453Z AUTO 11007G16KT 10SM -RA BKN038 BKN055 OVC100 16/14 A2972 RMK AO2 RAB41 SLP061 P0001 60004 T01560139 56017', 'KANB 121406Z AUTO 08006KT 10SM BKN011 BKN032 BKN110 16/14 A2972 RMK AO2 T01560139', 'KANB 121353Z AUTO 08008KT 050V120 10SM FEW012 SCT032 BKN055 16/14 A2972 RMK AO2 RAB1257E25 SLP063 P0000 T01560139', 'KANB 121253Z AUTO VRB04KT 10SM BKN042 BKN050 OVC060 16/14 A2975 RMK AO2 RAE37 SLP072 P0003 T01560139', 'KANB 121153Z AUTO 05005KT 10SM RA FEW055 FEW070 OVC100 15/14 A2977 RMK AO2 LTG DSNT SE SLP079 P0014 60040 70131 T01500144 10161 20150 56008', 'KANB 121113Z AUTO 10007KT 6SM +RA BR SCT027 BKN037 OVC085 15/14 A2979 RMK AO2 LTG DSNT SE P0006 T01500144', 'KANB 121053Z AUTO VRB04KT 4SM VCTS +RA BR FEW008 BKN029 OVC038 15/14 A2980 RMK AO2 LTG DSNT SE-SW RAB00 TSB23E38 SLP088 P0011 T01500144', 'KANB 121029Z AUTO 13007KT 6SM TSRA BR FEW006 BKN042 OVC070 15/14 A2977 RMK AO2 LTG DSNT SW-N RAB00 TSB23 P0002 T01500144']","['2024-02-13 19:53:00', '2024-02-13 18:53:00', '2024-02-13 17:53:00', '2024-02-13 16:53:00', '2024-02-13 15:53:00', '2024-02-13 14:53:00', '2024-02-13 13:53:00', '2024-02-13 12:53:00', '2024-02-13 11:53:00', '2024-02-13 10:53:00', '2024-02-13 09:53:00', '2024-02-13 08:53:00', '2024-02-13 07:53:00', '2024-02-13 06:53:00', '2024-02-13 05:53:00', '2024-02-13 04:53:00', '2024-02-13 03:53:00', '2024-02-13 02:53:00', '2024-02-13 01:53:00', '2024-02-13 00:53:00', '2024-02-13 00:20:00', '2024-02-12 23:53:00', '2024-02-12 23:12:00', '2024-02-12 22:53:00', '2024-02-12 22:01:00', '2024-02-12 21:53:00', '2024-02-12 20:53:00', '2024-02-12 19:53:00', '2024-02-12 18:53:00', '2024-02-12 17:53:00', '2024-02-12 17:20:00', '2024-02-12 16:53:00', '2024-02-12 15:53:00', '2024-02-12 14:53:00', '2024-02-12 14:06:00', '2024-02-12 13:53:00', '2024-02-12 12:53:00', '2024-02-12 11:53:00', '2024-02-12 11:13:00', '2024-02-12 10:53:00', '2024-02-12 10:29:00']"
United-states, Anvik Airport (ANV/PANV) ,"['PANV 150956Z AUTO 00000KT 1 1/2SM -SN BR OVC014 M08/M09 A2971 RMK AO2 SLP172 P0007 T10781089 FZRANO TSNO', 'PANV 150905Z AUTO 33004KT 1SM -SN BR BKN010 OVC015 M08/M09 A2971 RMK AO2 P0000 FZRANO TSNO', 'PANV 150856Z AUTO 30003KT 3/4SM -SN BR OVC010 M08/M09 A2971 RMK AO2 SLP176 P0003 60008 T10831094 58011 FZRANO TSNO', 'PANV 150756Z AUTO 30004KT 1SM -SN BR OVC010 M08/M09 A2973 RMK AO2 SLP185 P0002 T10831094 400111100 FZRANO TSNO', 'PANV 150656Z AUTO 28004KT 1 1/4SM -SN BR OVC010 M08/M09 A2975 RMK AO2 SLP190 P0003 T10831094 FZRANO TSNO', 'PANV 150533Z AUTO 00000KT 1SM -SN BR OVC010 M08/M09 A2976 RMK AO2 CIG 009V013 P0003 FZRANO TSNO', 'PANV 150515Z AUTO 00000KT 1 1/4SM -SN BR OVC010 M08/M09 A2976 RMK AO2 CIG 007V013 P0002 FZRANO TSNO', 'PANV 150416Z AUTO VRB03KT 3/4SM -SN BR OVC008 M08/M09 A2977 RMK AO2 P0002 FZRANO TSNO', 'PANV 150356Z AUTO 31003KT 1SM -SN BR OVC010 M08/M09 A2977 RMK AO2 CIG 008V012 SLP201 P0001 T10831094 FZRANO TSNO', 'PANV 150256Z AUTO 00000KT 1 1/4SM -SN BR BKN018 OVC023 M08/M10 A2980 RMK AO2 SLP213 P0002 60003 T10831100 56007 FZRANO TSNO', 'PANV 150228Z AUTO 30003KT 1SM -SN BR OVC016 M08/M10 A2981 RMK AO2 P0001 FZRANO TSNO', 'PANV 150156Z AUTO 28003KT 1 1/4SM -SN BR OVC020 M08/M10 A2981 RMK AO2 SLP214 P0001 T10831100 FZRANO TSNO', 'PANV 150124Z AUTO 30004KT 1SM -SN BR OVC018 M08/M10 A2982 RMK AO2 P0001 FZRANO TSNO', 'PANV 150050Z AUTO 29005KT 2SM -SN BR BKN028 OVC034 M08/M10 A2983 RMK AO2 VIS 1 1/4V3 P0000 FZRANO TSNO', 'PANV 150025Z AUTO 29007KT 1 1/2SM -SN BR FEW021 BKN030 OVC039 M08/M10 A2984 RMK AO2 P0000 FZRANO TSNO', 'PANV 142353Z AUTO 29006KT 3SM -SN BR SCT029 OVC046 M08/M11 A2984 RMK AO2 P0000 FZRANO TSNO', 'PANV 142318Z AUTO 29005KT 2 1/2SM -SN BR OVC029 M08/M10 A2986 RMK AO2 P0000 FZRANO TSNO', 'PANV 142256Z AUTO 29007KT 1 3/4SM -SN BR BKN028 OVC032 M08/M10 A2987 RMK AO2 SLP226 P0000 T10831100 FZRANO TSNO', 'PANV 142211Z AUTO 31004KT 2 1/2SM -SN BR FEW008 OVC031 M08/M10 A2988 RMK AO2 P0000 FZRANO TSNO', 'PANV 142156Z AUTO 28004KT 2SM -SN BR OVC031 M08/M10 A2988 RMK AO2 SLP228 P0000 T10831100 FZRANO TSNO', 'PANV 142117Z AUTO 28005KT 4SM -SN BR OVC037 M09/M11 A2989 RMK AO2 P0000 FZRANO TSNO', 'PANV 142056Z AUTO 26004KT 2 1/2SM -SN BR OVC035 M09/M11 A2989 RMK AO2 SNB33 SLP231 P0000 60000 T10891106 50000 FZRANO TSNO', 'PANV 141956Z AUTO 26004KT 10SM OVC070 M09/M11 A2989 RMK AO2 SLP234 T10941111 FZRANO TSNO', 'PANV 141856Z AUTO 22003KT 10SM BKN085 OVC100 M10/M11 A2990 RMK AO2 SLP234 T11001111 FZRANO TSNO', 'PANV 141756Z AUTO 00000KT 10SM OVC110 M10/M11 A2989 RMK AO2 SLP230 T11001111 11067 21100 53019 FZRANO TSNO', 'PANV 141656Z AUTO 20003KT 10SM FEW120 M10/M11 A2986 RMK AO2 SLP222 T11001111 FZRANO TSNO', 'PANV 141456Z AUTO VRB04KT 10SM CLR M10/M11 A2983 RMK AO2 SLP209 T11001111 51015 FZRANO TSNO', 'PANV 141356Z AUTO 24006KT 10SM SCT009 M09/M11 A2981 RMK AO2 SLP200 T10891106 FZRANO TSNO', 'PANV 141215Z AUTO 22006KT 10SM SCT013 M07/M09 A2977 RMK AO2 FZRANO TSNO', 'PANV 141056Z AUTO 23013G18KT 9SM BKN007 BKN015 M03/M04 A2968 RMK AO2 SNB18E54 CIG 003V010 SLP140 P0000 T10331044 FZRANO TSNO', 'PANV 140939Z AUTO 19014G23KT 10SM BKN012 M01/M01 A2959 RMK AO2 PK WND 20026/0910 FZRANO TSNO', 'PANV 140916Z AUTO 18012G26KT 10SM SCT012 00/M01 A2957 RMK AO2 PK WND 20026/0910 FZRANO TSNO', 'PANV 140837Z AUTO 19012G21KT 10SM FEW013 BKN026 BKN085 01/00 A2955 RMK AO2 RAB02E13SNB13E26 P0001 FZRANO TSNO', 'PANV 140826Z AUTO 19016G21KT 9SM SCT013 BKN047 BKN065 01/00 A2953 RMK AO2 RAB02E13SNB13E26 P0001 FZRANO TSNO', 'PANV 140656Z AUTO 15008KT 10SM SCT006 BKN070 OVC100 01/01 A2947 RMK AO2 RAE12 SLP056 P0001 T00060006 FZRANO TSNO', 'PANV 140600Z AUTO 16008KT 10SM -RA BKN009 BKN015 OVC021 01/01 A2945 RMK AO2 CIG 006V013 P0000 FZRANO TSNO', 'PANV 140456Z AUTO 16012KT 10SM -RA BKN010 OVC016 01/01 A2941 RMK AO2 CIG 007V012 SLP034 P0002 T00110006 FZRANO TSNO', 'PANV 140415Z AUTO 14008KT 10SM -RA OVC008 01/01 A2939 RMK AO2 CIG 007V011 P0001 FZRANO TSNO', 'PANV 140356Z AUTO 13009G15KT 10SM -RA OVC010 01/01 A2939 RMK AO2 RAE12B45UPB36E45SNB12E36 CIG 005V014 SLP023 P0003 T00110006 FZRANO TSNO', 'PANV 140256Z AUTO 13007KT 10SM -RA OVC012 01/01 A2937 RMK AO2 RAE13B37UPB28E37SNB13E28 SLP016 P0005 60015 T00110006 53004 FZRANO TSNO', 'PANV 140156Z AUTO 13009KT 10SM -RA OVC012 01/01 A2936 RMK AO2 SLP013 P0005 T00110006 FZRANO TSNO', 'PANV 140056Z AUTO 13009KT 10SM -RA OVC012 02/01 A2936 RMK AO2 SLP018 P0005 T00170011 FZRANO TSNO', 'PANV 132356Z AUTO 13008KT 10SM RA OVC014 02/01 A2936 RMK AO2 SLP018 P0004 60019 T00170006 10022 20017 58004 FZRANO TSNO', 'PANV 132256Z AUTO 13009G15KT 10SM -RA OVC018 02/01 A2936 RMK AO2 SLP021 P0003 T00170006 FZRANO TSNO', 'PANV 132156Z AUTO 14012G23KT 10SM -RA OVC020 02/01 A2937 RMK AO2 SLP023 P0004 T00170006 FZRANO TSNO', 'PANV 132056Z AUTO 14010G16KT 10SM -RA OVC016 02/01 A2937 RMK AO2 SLP025 P0004 60008 T00170006 51006 FZRANO TSNO', 'PANV 131956Z AUTO 14012G17KT 10SM -RA OVC022 02/01 A2936 RMK AO2 SLP023 P0002 T00220006 FZRANO TSNO', 'PANV 131856Z AUTO 15010G19KT 10SM -RA OVC022 02/01 A2936 RMK AO2 SLP024 P0002 T00220006 FZRANO TSNO', 'PANV 131807Z AUTO 15012G18KT 10SM -RA BKN026 OVC032 02/01 A2936 RMK AO2 P0000 FZRANO TSNO', 'PANV 131756Z AUTO 15013KT 10SM -RA OVC030 02/01 A2935 RMK AO2 SLP019 P0001 60002 T00220006 10033 21022 56000 FZRANO TSNO', 'PANV 131729Z AUTO 15009KT 10SM -RA OVC030 02/01 A2935 RMK AO2 P0001 FZRANO TSNO', 'PANV 131656Z AUTO 15012KT 10SM -RA OVC026 03/01 A2935 RMK AO2 SLP019 P0001 T00280006 TSNO', 'PANV 131556Z AUTO 14011KT 10SM -RA BKN026 OVC032 03/01 A2935 RMK AO2 SLP019 P0000 T00280006 TSNO', 'PANV 131356Z AUTO 13013G21KT 10SM -RA BKN041 OVC048 03/01 A2934 RMK AO2 RAB50 SLP015 P0000 T00330006 TSNO', 'PANV 131256Z AUTO 06005KT 10SM BKN055 OVC070 M02/M02 A2934 RMK AO2 SLP022 T10171022 FZRANO TSNO', 'PANV 131156Z AUTO 05008KT 10SM FEW037 BKN049 OVC060 M02/M03 A2935 RMK AO2 SLP028 60003 70003 T10221028 11022 21050 56014 FZRANO TSNO', 'PANV 131111Z AUTO 05007KT 10SM SCT026 BKN035 OVC070 M02/M03 A2936 RMK AO2 FZRANO TSNO', 'PANV 131056Z AUTO 05007KT 10SM BKN026 OVC037 M02/M03 A2936 RMK AO2 SNE03 SLP034 P0000 T10221028 FZRANO TSNO', 'PANV 131024Z AUTO 05008KT 10SM SCT004 BKN026 OVC031 M02/M03 A2937 RMK AO2 SNE03 P0000 FZRANO TSNO', 'PANV 130956Z AUTO 04007KT 9SM -SN BKN004 OVC020 M03/M03 A2937 RMK AO2 SLP040 P0001 T10281033 FZRANO TSNO', 'PANV 130906Z AUTO 05009KT 3SM -SN BR OVC004 M04/M04 A2939 RMK AO2 P0000 FZRANO TSNO', 'PANV 130856Z AUTO 05009KT 1 1/4SM -SN BR OVC004 M04/M04 A2939 RMK AO2 VIS 1V2 SLP048 P0001 60002 T10391044 58001 FZRANO TSNO', 'PANV 130803Z AUTO 06008KT 1SM -SN BR OVC004 M04/M05 A2941 RMK AO2 CIG 004V007 P0000 FZRANO TSNO', 'PANV 130756Z AUTO 05008KT 3/4SM -SN BR OVC006 M04/M05 A2941 RMK AO2 CIG 004V009 SLP056 P0001 T10441050 410441100 FZRANO TSNO', 'PANV 130725Z AUTO 05009KT 1SM -SN BR BKN006 BKN013 OVC018 M05/M06 A2941 RMK AO2 P0000 FZRANO TSNO', 'PANV 130656Z AUTO 05009KT 2 1/2SM -SN BR SCT020 SCT025 OVC033 M05/M06 A2941 RMK AO2 SNB00 SLP060 P0000 T10501061 FZRANO TSNO', 'PANV 130556Z AUTO 06012KT 10SM BKN040 OVC050 M05/M06 A2939 RMK AO2 SLP053 60000 T10501061 11050 21072 53001 FZRANO TSNO', 'PANV 130510Z AUTO 05014KT 10SM FEW004 BKN060 OVC080 M06/M06 A2939 RMK AO2 FZRANO TSNO', 'PANV 130456Z AUTO 04014KT 10SM SCT038 OVC080 M06/M06 A2939 RMK AO2 UPE0358 SLP051 P0000 T10561061 FZRANO TSNO', 'PANV 130356Z AUTO 04014KT 10SM UP OVC005 M06/M06 A2938 RMK AO2 UPB39SNE25 SLP049 P0000 T10561061 FZRANO TSNO', 'PANV 130256Z AUTO 05016G21KT 5SM -SN BR OVC005 M07/M07 A2939 RMK AO2 UPB13E18SNE13B18 SLP051 P0000 60000 T10671072 58024 FZRANO TSNO', 'PANV 130229Z AUTO 04013G20KT 7SM -SN BKN007 OVC021 M07/M08 A2940 RMK AO2 UPB13E18SNE13B18 P0000 FZRANO TSNO', 'PANV 130156Z AUTO 03014KT 1SM -SN BR SCT007 OVC025 M07/M08 A2941 RMK AO2 SLP060 P0000 T10671078 FZRANO TSNO', 'PANV 130056Z AUTO 04015G20KT 1/4SM +SN FZFG OVC005 M07/M08 A2946 RMK AO2 SLP075 P0000 T10671078 FZRANO TSNO', 'PANV 122356Z AUTO 03012KT 3/4SM -SN BR OVC010 M07/M08 A2950 RMK AO2 SNB2257 SLP093 P0000 60000 T10721083 11072 21100 58029 FZRANO TSNO', 'PANV 122323Z AUTO 04012KT 3/4SM -SN BR SCT012 BKN018 OVC024 M07/M09 A2953 RMK AO2 SNB2257 P0000 FZRANO TSNO', 'PANV 122256Z AUTO 04012KT 9SM FEW033 BKN065 OVC085 M08/M09 A2955 RMK AO2 SLP109 T10781094 FZRANO TSNO', 'PANV 122156Z AUTO 03011KT 10SM BKN100 OVC110 M08/M09 A2958 RMK AO2 SLP121 T10831094 FZRANO TSNO', 'PANV 122056Z AUTO 03012KT 10SM SCT120 M09/M10 A2959 RMK AO2 SLP124 T10891100 58011 FZRANO TSNO', 'PANV 121956Z AUTO 04008KT 10SM CLR M09/M11 A2961 RMK AO2 SLP136 T10941106 FZRANO TSNO', 'PANV 121856Z AUTO 04010KT 10SM CLR M10/M11 A2961 RMK AO2 SLP137 T11001111 FZRANO TSNO', 'PANV 121756Z AUTO 05009KT 10SM CLR M10/M11 A2962 RMK AO2 SLP139 T11001111 11067 21100 55004 FZRANO TSNO', 'PANV 121656Z AUTO 06009KT 10SM CLR M10/M11 A2962 RMK AO2 SLP136 T11001111 FZRANO TSNO', 'PANV 121556Z AUTO 05010KT 10SM BKN034 M09/M10 A2962 RMK AO2 SLP134 T10891100 FZRANO TSNO', 'PANV 121456Z AUTO 06009KT 10SM OVC100 M08/M09 A2963 RMK AO2 SLP136 T10781094 58001 FZRANO TSNO', 'PANV 121356Z AUTO 06008KT 10SM SCT070 BKN110 M08/M09 A2964 RMK AO2 SLP138 T10781094 FZRANO TSNO', 'PANV 121256Z AUTO 06007KT 10SM SCT050 M07/M09 A2963 RMK AO2 SLP135 T10721089 FZRANO TSNO', 'PANV 121156Z AUTO 07006KT 10SM FEW049 M07/M09 A2964 RMK AO2 SLP136 T10721089 11044 21072 51010 FZRANO TSNO', 'PANV 121056Z AUTO 08005KT 10SM OVC043 M06/M08 A2964 RMK AO2 SLP134 T10611083 FZRANO TSNO']","['2024-02-15 09:56:00', '2024-02-15 09:05:00', '2024-02-15 08:56:00', '2024-02-15 07:56:00', '2024-02-15 06:56:00', '2024-02-15 05:33:00', '2024-02-15 05:15:00', '2024-02-15 04:16:00', '2024-02-15 03:56:00', '2024-02-15 02:56:00', '2024-02-15 02:28:00', '2024-02-15 01:56:00', '2024-02-15 01:24:00', '2024-02-15 00:50:00', '2024-02-15 00:25:00', '2024-02-14 23:53:00', '2024-02-14 23:18:00', '2024-02-14 22:56:00', '2024-02-14 22:11:00', '2024-02-14 21:56:00', '2024-02-14 21:17:00', '2024-02-14 20:56:00', '2024-02-14 19:56:00', '2024-02-14 18:56:00', '2024-02-14 17:56:00', '2024-02-14 16:56:00', '2024-02-14 14:56:00', '2024-02-14 13:56:00', '2024-02-14 12:15:00', '2024-02-14 10:56:00', '2024-02-14 09:39:00', '2024-02-14 09:16:00', '2024-02-14 08:37:00', '2024-02-14 08:26:00', '2024-02-14 06:56:00', '2024-02-14 06:00:00', '2024-02-14 04:56:00', '2024-02-14 04:15:00', '2024-02-14 03:56:00', '2024-02-14 02:56:00', '2024-02-14 01:56:00', '2024-02-14 00:56:00', '2024-02-13 23:56:00', '2024-02-13 22:56:00', '2024-02-13 21:56:00', '2024-02-13 20:56:00', '2024-02-13 19:56:00', '2024-02-13 18:56:00', '2024-02-13 18:07:00', '2024-02-13 17:56:00', '2024-02-13 17:29:00', '2024-02-13 16:56:00', '2024-02-13 15:56:00', '2024-02-13 13:56:00', '2024-02-13 12:56:00', '2024-02-13 11:56:00', '2024-02-13 11:11:00', '2024-02-13 10:56:00', '2024-02-13 10:24:00', '2024-02-13 09:56:00', '2024-02-13 09:06:00', '2024-02-13 08:56:00', '2024-02-13 08:03:00', '2024-02-13 07:56:00', '2024-02-13 07:25:00', '2024-02-13 06:56:00', '2024-02-13 05:56:00', '2024-02-13 05:10:00', '2024-02-13 04:56:00', '2024-02-13 03:56:00', '2024-02-13 02:56:00', '2024-02-13 02:29:00', '2024-02-13 01:56:00', '2024-02-13 00:56:00', '2024-02-12 23:56:00', '2024-02-12 23:23:00', '2024-02-12 22:56:00', '2024-02-12 21:56:00', '2024-02-12 20:56:00', '2024-02-12 19:56:00', '2024-02-12 18:56:00', '2024-02-12 17:56:00', '2024-02-12 16:56:00', '2024-02-12 15:56:00', '2024-02-12 14:56:00', '2024-02-12 13:56:00', '2024-02-12 12:56:00', '2024-02-12 11:56:00', '2024-02-12 10:56:00']"
United-states, Apalachicola Regional Airport (AAF/KAAF) ,"['KAAF 150953Z AUTO 02003KT 10SM CLR 09/08 A3019 RMK AO2 SLP224 T00940078', 'KAAF 150853Z AUTO 04003KT 10SM CLR 09/08 A3019 RMK AO2 SLP222 T00940078 58005', 'KAAF 150753Z AUTO 07003KT 10SM CLR 10/07 A3019 RMK AO2 SLP222 T01000072', 'KAAF 150653Z AUTO 02003KT 10SM CLR 10/07 A3020 RMK AO2 SLP228 T01000067', 'KAAF 150553Z AUTO 00000KT 10SM CLR 09/06 A3020 RMK AO2 SLP227 T00940061 10117 20061 58010', 'KAAF 150453Z AUTO 00000KT 10SM CLR 07/04 A3021 RMK AO2 SLP231 T00720044 401670039', 'KAAF 150353Z AUTO 34003KT 10SM CLR 07/04 A3023 RMK AO2 SLP236 T00670039', 'KAAF 150253Z AUTO 00000KT 10SM CLR 08/05 A3023 RMK AO2 SLP237 T00830050 52009', 'KAAF 150153Z AUTO 00000KT 10SM CLR 08/05 A3022 RMK AO2 SLP232 T00780050', 'KAAF 150053Z AUTO 00000KT 10SM CLR 09/06 A3022 RMK AO2 SLP233 T00890056', 'KAAF 142353Z AUTO 22003KT 10SM CLR 12/05 A3020 RMK AO2 SLP228 T01170050 10167 20117 53010', 'KAAF 142253Z AUTO 20004KT 10SM CLR 14/04 A3019 RMK AO2 SLP221 T01440044', 'KAAF 142153Z AUTO 18004KT 10SM CLR 14/04 A3015 RMK AO2 SLP208 T01440044', 'KAAF 142053Z AUTO 18007KT 10SM CLR 16/04 A3017 RMK AO2 SLP217 T01560039 56022', 'KAAF 141953Z AUTO 17006KT 10SM CLR 16/04 A3019 RMK AO2 SLP222 T01610044', 'KAAF 141853Z AUTO 20008KT 10SM CLR 16/04 A3020 RMK AO2 SLP228 T01560039', 'KAAF 141753Z AUTO 17010KT 10SM CLR 16/03 A3024 RMK AO2 SLP239 T01610033 10161 20044 58013', 'KAAF 141653Z AUTO 10005KT 10SM CLR 16/02 A3026 RMK AO2 SLP245 T01610017', 'KAAF 141553Z AUTO 07008KT 10SM CLR 14/01 A3027 RMK AO2 SLP249 T01440011', 'KAAF 141453Z AUTO 06006KT 10SM CLR 11/02 A3028 RMK AO2 SLP252 T01110017 51018', 'KAAF 141353Z AUTO 04007KT 10SM CLR 10/03 A3027 RMK AO2 SLP249 T01000028', 'KAAF 141253Z AUTO 04006KT 10SM CLR 07/02 A3025 RMK AO2 SLP242 T00670017', 'KAAF 141153Z AUTO 06004KT 10SM CLR 07/01 A3022 RMK AO2 SLP233 T00670011 10094 20039 53015', 'KAAF 141053Z AUTO 02006KT 10SM CLR 06/01 A3020 RMK AO2 SLP228 T00610011 $', 'KAAF 140953Z AUTO 02005KT 10SM CLR 06/02 A3018 RMK AO2 SLP221 T00560022 $', 'KAAF 140853Z AUTO 36003KT 10SM CLR 04/02 A3018 RMK AO2 SLP219 T00440022 53007 $', 'KAAF 140753Z AUTO 00000KT 10SM CLR 06/03 A3017 RMK AO2 SLP215 T00560028 $', 'KAAF 140653Z AUTO 03004KT 10SM CLR 09/03 A3016 RMK AO2 SLP212 T00890028 $', 'KAAF 140553Z AUTO 01006KT 10SM CLR 09/03 A3016 RMK AO2 SLP212 T00890033 10128 20067 50004 $', 'KAAF 140453Z AUTO 35005KT 10SM CLR 10/04 A3017 RMK AO2 SLP214 T01000044 401720067 $', 'KAAF 140353Z AUTO 00000KT 10SM CLR 07/06 A3016 RMK AO2 SLP214 T00720056 $', 'KAAF 140253Z AUTO 00000KT 10SM CLR 09/07 A3015 RMK AO2 SLP208 T00890067 53017 $', 'KAAF 140153Z AUTO 35003KT 10SM CLR 10/07 A3012 RMK AO2 SLP201 T01000067 $', 'KAAF 140053Z AUTO 32004KT 10SM CLR 12/07 A3011 RMK AO2 SLP197 T01170072 $', 'KAAF 132353Z AUTO 29006KT 10SM CLR 13/07 A3010 RMK AO2 SLP191 T01280072 10172 20128 53012 $', 'KAAF 132253Z AUTO 00000KT 10SM CLR 16/04 A3008 RMK AO2 SLP184 T01560044 $', 'KAAF 132153Z AUTO 36005KT 10SM CLR 17/04 A3006 RMK AO2 SLP178 T01670039 $', 'KAAF 132053Z AUTO 36006KT 10SM CLR 16/04 A3006 RMK AO2 SLP179 T01610039 $', 'KAAF 131953Z AUTO 34006KT 10SM CLR 16/04 A3006 RMK AO2 SLP178 T01610044 $', 'KAAF 131853Z AUTO VRB05KT 10SM 16/05 A3007 RMK AO2 SLP181 T01560050 $', 'KAAF 131753Z AUTO 35008KT 310V040 10SM CLR 16/05 A3008 RMK AO2 SLP187 T01560050 10156 20094 58001', 'KAAF 131653Z AUTO 35009G18KT 10SM CLR 13/05 A3010 RMK AO2 SLP192 T01280050', 'KAAF 131553Z AUTO 32012G22KT 10SM CLR 13/05 A3011 RMK AO2 SLP195 T01280050', 'KAAF 131453Z AUTO 34012G22KT 10SM CLR 12/05 A3009 RMK AO2 SLP188 T01220050 51021', 'KAAF 131353Z AUTO 32009G17KT 10SM CLR 10/05 A3007 RMK AO2 SLP184 T01000050', 'KAAF 131253Z AUTO 32010G19KT 10SM CLR 09/04 A3004 RMK AO2 SLP173 T00940044', 'KAAF 131153Z AUTO 33010KT 10SM CLR 09/04 A3002 RMK AO2 SLP166 70024 T00940044 10156 20094 53027', 'KAAF 131053Z AUTO 33009G18KT 10SM CLR 09/04 A2998 RMK AO2 SLP152 T00940044', 'KAAF 130953Z AUTO 33011G21KT 10SM CLR 09/04 A2997 RMK AO2 SLP147 T00940044', 'KAAF 130853Z AUTO 33014G25KT 10SM CLR 10/05 A2994 RMK AO2 SLP139 T01000050 51026', 'KAAF 130753Z AUTO 32016G24KT 10SM FEW024 11/06 A2993 RMK AO2 SLP134 T01110056', 'KAAF 130653Z AUTO 31013G21KT 10SM FEW025 14/10 A2989 RMK AO2 SLP121 T01390100', 'KAAF 130553Z AUTO 30012KT 10SM CLR 16/11 A2987 RMK AO2 PK WND 29026/0533 SLP114 T01560111 10189 20156 53014', 'KAAF 130453Z AUTO 28010KT 10SM FEW028 16/11 A2985 RMK AO2 SLP109 T01610111 402170161', 'KAAF 130353Z AUTO 29010KT 10SM SCT031 17/12 A2983 RMK AO2 SLP102 T01670122', 'KAAF 130253Z AUTO 28013G20KT 10SM CLR 17/12 A2983 RMK AO2 SLP100 T01720117 53022', 'KAAF 130153Z AUTO 27015G23KT 10SM CLR 17/12 A2980 RMK AO2 PK WND 26028/0123 SLP092 T01720117', 'KAAF 130053Z AUTO 27012KT 10SM CLR 18/12 A2978 RMK AO2 SLP086 T01780122', 'KAAF 122353Z AUTO 27011KT 10SM CLR 18/16 A2976 RMK AO2 SLP078 60004 T01830156 10211 20183 53013', 'KAAF 122253Z AUTO 27012G20KT 10SM SCT014 BKN080 19/17 A2975 RMK AO2 PK WND 28026/2221 SLP074 T01940167', 'KAAF 122153Z AUTO 29012KT 10SM FEW006 BKN012 BKN100 21/18 A2971 RMK AO2 RAE2056 SLP060 P0001 T02060183', 'KAAF 122106Z AUTO 26010KT 6SM BR BKN008 OVC013 21/19 A2972 RMK AO2 RAE2056 P0000 T02060194', 'KAAF 122053Z AUTO 26013KT 6SM -RA BR OVC010 21/19 A2972 RMK AO2 RAB10 CIG 007V013 SLP065 P0000 60003 T02060194 58003', 'KAAF 121953Z AUTO 24008KT 8SM OVC014 21/19 A2973 RMK AO2 SLP067 P0001 T02060189', 'KAAF 121853Z AUTO 24007KT 10SM BKN019 OVC070 21/19 A2973 RMK AO2 RAB18E27 SLP069 P0002 T02060194', 'KAAF 121821Z AUTO 22009KT 6SM -RA BR SCT009 BKN020 OVC065 20/19 A2975 RMK AO2 LTG DSNT E AND SE RAB18 P0001 T02000194', 'KAAF 121753Z AUTO 22009KT 7SM VCTS BKN009 BKN043 OVC050 20/19 A2976 RMK AO2 PK WND 26033/1700 WSHFT 1653 LTG DSNT S RAB02E53 SLP077 P0020 60020 T02000194 10217 20194 56011', 'KAAF 121720Z AUTO 24015KT 3SM RA BR FEW007 BKN036 OVC060 19/19 A2979 RMK AO2 PK WND 26033/1700 WSHFT 1653 LTG DSNT NE RAB02 P0018 T01940189', 'KAAF 121653Z AUTO 20016G25KT 7SM FEW012 OVC070 22/20 A2975 RMK AO2 PK WND 19026/1623 LTG DSNT N SLP073 T02170200', 'KAAF 121611Z AUTO 19012G20KT 7SM SCT009 OVC080 21/20 A2977 RMK AO2 LTG DSNT W AND NW PRESFR T02110200', 'KAAF 121553Z AUTO 20010KT 6SM BR OVC010 21/19 A2979 RMK AO2 LTG DSNT W AND NW SLP087 T02060194', 'KAAF 121453Z AUTO 15005KT 7SM OVC012 19/18 A2981 RMK AO2 SLP093 T01940183 53016', 'KAAF 121411Z AUTO 18005KT 7SM OVC014 19/18 A2979 RMK AO2 T01940183', 'KAAF 121353Z AUTO 19006KT 7SM OVC015 19/18 A2979 RMK AO2 PRESRR SLP086 T01940183', 'KAAF 121311Z AUTO 17012KT 7SM BKN016 OVC085 19/18 A2975 RMK AO2 T01940183', 'KAAF 121253Z AUTO 17010KT 8SM OVC085 19/18 A2974 RMK AO2 SLP071 T01940183', 'KAAF 121153Z AUTO 18009KT 9SM OVC085 19/18 A2976 RMK AO2 SLP077 60010 70015 T01940183 10211 20194 55018', 'KAAF 121053Z AUTO 17014G20KT 10SM OVC085 20/18 A2975 RMK AO2 SLP074 T02000183']","['2024-02-15 09:53:00', '2024-02-15 08:53:00', '2024-02-15 07:53:00', '2024-02-15 06:53:00', '2024-02-15 05:53:00', '2024-02-15 04:53:00', '2024-02-15 03:53:00', '2024-02-15 02:53:00', '2024-02-15 01:53:00', '2024-02-15 00:53:00', '2024-02-14 23:53:00', '2024-02-14 22:53:00', '2024-02-14 21:53:00', '2024-02-14 20:53:00', '2024-02-14 19:53:00', '2024-02-14 18:53:00', '2024-02-14 17:53:00', '2024-02-14 16:53:00', '2024-02-14 15:53:00', '2024-02-14 14:53:00', '2024-02-14 13:53:00', '2024-02-14 12:53:00', '2024-02-14 11:53:00', '2024-02-14 10:53:00', '2024-02-14 09:53:00', '2024-02-14 08:53:00', '2024-02-14 07:53:00', '2024-02-14 06:53:00', '2024-02-14 05:53:00', '2024-02-14 04:53:00', '2024-02-14 03:53:00', '2024-02-14 02:53:00', '2024-02-14 01:53:00', '2024-02-14 00:53:00', '2024-02-13 23:53:00', '2024-02-13 22:53:00', '2024-02-13 21:53:00', '2024-02-13 20:53:00', '2024-02-13 19:53:00', '2024-02-13 18:53:00', '2024-02-13 17:53:00', '2024-02-13 16:53:00', '2024-02-13 15:53:00', '2024-02-13 14:53:00', '2024-02-13 13:53:00', '2024-02-13 12:53:00', '2024-02-13 11:53:00', '2024-02-13 10:53:00', '2024-02-13 09:53:00', '2024-02-13 08:53:00', '2024-02-13 07:53:00', '2024-02-13 06:53:00', '2024-02-13 05:53:00', '2024-02-13 04:53:00', '2024-02-13 03:53:00', '2024-02-13 02:53:00', '2024-02-13 01:53:00', '2024-02-13 00:53:00', '2024-02-12 23:53:00', '2024-02-12 22:53:00', '2024-02-12 21:53:00', '2024-02-12 21:06:00', '2024-02-12 20:53:00', '2024-02-12 19:53:00', '2024-02-12 18:53:00', '2024-02-12 18:21:00', '2024-02-12 17:53:00', '2024-02-12 17:20:00', '2024-02-12 16:53:00', '2024-02-12 16:11:00', '2024-02-12 15:53:00', '2024-02-12 14:53:00', '2024-02-12 14:11:00', '2024-02-12 13:53:00', '2024-02-12 13:11:00', '2024-02-12 12:53:00', '2024-02-12 11:53:00', '2024-02-12 10:53:00']"
United-states, Appleton International Airport (ATW/KATW) ,"['KATW 150955Z AUTO 00000KT 1 1/4SM -SN OVC003 01/00 A2985 RMK AO2 P0004', 'KATW 150910Z AUTO 23003KT 1SM -SN OVC005 01/00 A2987 RMK AO2 P0001', 'KATW 150855Z AUTO 21004KT 1 1/2SM -SN BKN009 OVC016 01/00 A2988 RMK AO2', 'KATW 150815Z AUTO 22005KT 10SM -RA SCT021 BKN030 OVC034 02/00 A2990 RMK AO2', 'KATW 150755Z AUTO 21008KT 10SM DZ SCT021 OVC030 03/00 A2991 RMK AO2', 'KATW 150715Z AUTO 21008KT 10SM BKN024 BKN120 03/00 A2992 RMK AO2', 'KATW 150655Z AUTO 20012G15KT 10SM SCT045 SCT050 BKN120 03/M02 A2994 RMK AO2', 'KATW 150615Z AUTO 16006KT 10SM OVC070 05/M02 A2995 RMK AO2', 'KATW 150555Z AUTO 18008KT 10SM SCT050 OVC060 05/M02 A2996 RMK AO2', 'KATW 150515Z AUTO 19008KT 10SM SCT045 SCT050 OVC070 05/M02 A2999 RMK AO2', 'KATW 150455Z AUTO 18010G14KT 10SM SCT029 BKN037 OVC055 05/M02 A3000 RMK AO2', 'KATW 150415Z COR 22016G23KT 10SM -SN BKN021 OVC027 05/M01 A3000', 'KATW 150345Z 19009KT 10SM BKN050 OVC060 05/M03 A3000', 'KATW 150245Z 16005KT 10SM OVC075 04/M02 A3000', 'KATW 150145Z 15007KT 10SM OVC060 04/M02 A3002', 'KATW 150045Z 16005KT 10SM OVC060 04/M02 A3005', 'KATW 142345Z 19006KT 10SM BKN060 05/M02 A3007', 'KATW 142245Z 21008KT 10SM BKN060 06/M02 A3008', 'KATW 142145Z 22010KT 10SM BKN060 07/M03 A3007', 'KATW 142045Z 21011KT 10SM BKN044 BKN070 07/M03 A3009', 'KATW 141945Z 21010KT 10SM BKN070 06/M03 A3010', 'KATW 141845Z 23010G15KT 10SM BKN045 OVC070 04/M03 A3012', 'KATW 141745Z 22010KT 10SM BKN045 OVC070 03/M03 A3015', 'KATW 141645Z 22010KT 10SM BKN045 OVC070 02/M04 A3017', 'KATW 141545Z 20006KT 10SM BKN045 OVC070 01/M04 A3016', 'KATW 141445Z 20006KT 10SM SCT040 OVC070 M01/M04 A3017', 'KATW 141345Z VRB05KT 10SM SCT040 OVC070 M02/M04 A3017', 'KATW 141245Z VRB04KT 10SM SCT040 BKN070 M03/M04 A3015', 'KATW 141145Z VRB04KT 10SM SCT040 SCT070 M03/M05 A3015', 'KATW 141115Z AUTO 00000KT 10SM CLR M03/M04 A3016 RMK AO2', 'KATW 141055Z AUTO 00000KT 10SM SCT048 M02/M04 A3016 RMK AO2', 'KATW 141015Z AUTO 00000KT 10SM OVC050 M02/M04 A3015 RMK AO2', 'KATW 140955Z AUTO 17003KT 10SM OVC050 M02/M04 A3015 RMK AO2', 'KATW 140915Z AUTO 00000KT 10SM OVC050 M02/M03 A3015 RMK AO2', 'KATW 140855Z AUTO 00000KT 10SM OVC050 M02/M03 A3015 RMK AO2', 'KATW 140655Z AUTO 11003KT 10SM OVC050 M02/M03 A3012 RMK AO2', 'KATW 140615Z AUTO 00000KT 10SM CLR M02/M05 A3013 RMK AO2', 'KATW 140555Z AUTO 00000KT 10SM CLR M02/M04 A3013 RMK AO2', 'KATW 140515Z AUTO 00000KT 10SM CLR M02/M04 A3012 RMK AO2', 'KATW 140455Z AUTO 07003KT 10SM CLR M02/M04 A3012 RMK AO2', 'KATW 140345Z 00000KT 10SM BKN120 M02/M08 A3011', 'KATW 140245Z 00000KT 10SM BKN120 M01/M09 A3011', 'KATW 140145Z 35005KT 10SM BKN045 M01/M09 A3010', 'KATW 140045Z 35006KT 10SM BKN045 M01/M09 A3008', 'KATW 132345Z 35006KT 10SM BKN045 00/M09 A3007', 'KATW 132245Z 35006KT 10SM BKN045 00/M09 A3005', 'KATW 132145Z 34007KT 10SM BKN045 01/M09 A3004', 'KATW 132045Z 36008KT 10SM BKN045 01/M09 A3003', 'KATW 131945Z 33007KT 7SM BKN045 01/M09 A3002', 'KATW 131845Z 35009KT 7SM OVC050 01/M09 A3002', 'KATW 131745Z 34008KT 7SM OVC050 02/M08 A3003', 'KATW 131645Z 35006KT 7SM OVC030 M01/M06 A3002', 'KATW 131545Z 02009KT 7SM -SN OVC015 M01/M04 A3000', 'KATW 131515Z 02008KT 6SM -SN OVC022 00/M04 A2998', 'KATW 131445Z 35006KT 10SM BKN024 OVC030 00/M05 A2997', 'KATW 131345Z 32007KT 10SM BKN026 OVC031 00/M06 A2995', 'KATW 131245Z 32008KT 10SM BKN050 00/M06 A2994', 'KATW 131145Z 30008KT 10SM BKN050 M01/M06 A2993', 'KATW 131115Z AUTO 31007KT 10SM OVC050 00/M05 A2992 RMK AO2', 'KATW 131055Z AUTO 30007KT 10SM OVC050 00/M05 A2992 RMK AO2', 'KATW 131015Z AUTO 30007KT 10SM OVC048 00/M05 A2991 RMK AO2', 'KATW 130955Z AUTO 31008KT 10SM OVC046 00/M06 A2991 RMK AO2', 'KATW 130915Z AUTO 29006KT 10SM OVC044 00/M05 A2989 RMK AO2', 'KATW 130855Z AUTO 28007KT 10SM OVC044 00/M05 A2989 RMK AO2', 'KATW 130815Z AUTO 29005KT 10SM OVC044 00/M04 A2989 RMK AO2', 'KATW 130755Z AUTO 29007KT 10SM OVC044 00/M03 A2988 RMK AO2', 'KATW 130715Z AUTO 28006KT 10SM OVC042 M01/M03 A2987 RMK AO2', 'KATW 130655Z AUTO 28007KT 10SM OVC038 M01/M04 A2986 RMK AO2', 'KATW 130615Z AUTO 27006KT 10SM OVC036 M01/M04 A2986 RMK AO2', 'KATW 130555Z AUTO 27007KT 10SM SCT036 BKN065 M02/M05 A2985 RMK AO2', 'KATW 130515Z AUTO 28004KT 10SM BKN034 BKN065 M01/M05 A2984 RMK AO2', 'KATW 130455Z AUTO 30005KT 10SM SCT034 SCT065 M01/M05 A2984 RMK AO2', 'KATW 130345Z 36006KT 10SM CLR M01/M05 A2983', 'KATW 130245Z 36010KT 10SM CLR 01/M05 A2983', 'KATW 130145Z 01012KT 10SM CLR 03/M05 A2982', 'KATW 130045Z VRB05KT 10SM CLR 04/M06 A2981', 'KATW 122345Z 30005KT 10SM SCT120 04/M06 A2981', 'KATW 122245Z 29007KT 10SM CLR 07/M06 A2979', 'KATW 122145Z 32013KT 10SM SCT060 08/M06 A2977', 'KATW 122045Z 30013G19KT 10SM CLR 08/05 A2976', 'KATW 121945Z 28013G19KT 10SM CLR 08/M03 A2976', 'KATW 121845Z 28013G19KT 10SM CLR 07/M02 A2978', 'KATW 121745Z 25009KT 10SM CLR 06/M02 A2981', 'KATW 121645Z 25009G16KT 10SM CLR 03/M03 A2983', 'KATW 121545Z 24012KT 10SM SCT120 02/M03 A2983', 'KATW 121445Z 24012KT 10SM SCT120 02/M03 A2984', 'KATW 121345Z 22009KT 10SM SCT060 M01/M04 A2986', 'KATW 121245Z 21007KT 10SM SCT120 M02/M06 A2986', 'KATW 121145Z 21008KT 10SM BKN050 M01/M05 A2987', 'KATW 121130Z 22008KT 10SM BKN050 M01/M05 A2988', 'KATW 121055Z AUTO 21005KT 10SM BKN050 OVC065 M02/M05 A2988 RMK AO2']","['2024-02-15 09:55:00', '2024-02-15 09:10:00', '2024-02-15 08:55:00', '2024-02-15 08:15:00', '2024-02-15 07:55:00', '2024-02-15 07:15:00', '2024-02-15 06:55:00', '2024-02-15 06:15:00', '2024-02-15 05:55:00', '2024-02-15 05:15:00', '2024-02-15 04:55:00', '2024-02-15 04:15:00', '2024-02-15 03:45:00', '2024-02-15 02:45:00', '2024-02-15 01:45:00', '2024-02-15 00:45:00', '2024-02-14 23:45:00', '2024-02-14 22:45:00', '2024-02-14 21:45:00', '2024-02-14 20:45:00', '2024-02-14 19:45:00', '2024-02-14 18:45:00', '2024-02-14 17:45:00', '2024-02-14 16:45:00', '2024-02-14 15:45:00', '2024-02-14 14:45:00', '2024-02-14 13:45:00', '2024-02-14 12:45:00', '2024-02-14 11:45:00', '2024-02-14 11:15:00', '2024-02-14 10:55:00', '2024-02-14 10:15:00', '2024-02-14 09:55:00', '2024-02-14 09:15:00', '2024-02-14 08:55:00', '2024-02-14 06:55:00', '2024-02-14 06:15:00', '2024-02-14 05:55:00', '2024-02-14 05:15:00', '2024-02-14 04:55:00', '2024-02-14 03:45:00', '2024-02-14 02:45:00', '2024-02-14 01:45:00', '2024-02-14 00:45:00', '2024-02-13 23:45:00', '2024-02-13 22:45:00', '2024-02-13 21:45:00', '2024-02-13 20:45:00', '2024-02-13 19:45:00', '2024-02-13 18:45:00', '2024-02-13 17:45:00', '2024-02-13 16:45:00', '2024-02-13 15:45:00', '2024-02-13 15:15:00', '2024-02-13 14:45:00', '2024-02-13 13:45:00', '2024-02-13 12:45:00', '2024-02-13 11:45:00', '2024-02-13 11:15:00', '2024-02-13 10:55:00', '2024-02-13 10:15:00', '2024-02-13 09:55:00', '2024-02-13 09:15:00', '2024-02-13 08:55:00', '2024-02-13 08:15:00', '2024-02-13 07:55:00', '2024-02-13 07:15:00', '2024-02-13 06:55:00', '2024-02-13 06:15:00', '2024-02-13 05:55:00', '2024-02-13 05:15:00', '2024-02-13 04:55:00', '2024-02-13 03:45:00', '2024-02-13 02:45:00', '2024-02-13 01:45:00', '2024-02-13 00:45:00', '2024-02-12 23:45:00', '2024-02-12 22:45:00', '2024-02-12 21:45:00', '2024-02-12 20:45:00', '2024-02-12 19:45:00', '2024-02-12 18:45:00', '2024-02-12 17:45:00', '2024-02-12 16:45:00', '2024-02-12 15:45:00', '2024-02-12 14:45:00', '2024-02-12 13:45:00', '2024-02-12 12:45:00', '2024-02-12 11:45:00', '2024-02-12 11:30:00', '2024-02-12 10:55:00']"
United-states, Arcata Eureka Airport (ACV/KACV) ,"['KACV 150953Z AUTO 15008KT 6SM -RA BR SCT020 BKN028 OVC043 09/08 A3003 RMK AO2 RAB12 SLP174 P0007 T00940083', 'KACV 150853Z AUTO 15010KT 10SM SCT033 BKN049 OVC085 09/08 A3001 RMK AO2 RAE18 SLP169 P0002 60017 T00890078 51014', 'KACV 150820Z AUTO 16011G18KT 10SM FEW019 BKN035 OVC045 09/08 A3000 RMK AO2 RAE18 P0002 T00940078', 'KACV 150753Z AUTO 12004KT 2 1/2SM RA BR SCT020 BKN025 OVC043 09/08 A3000 RMK AO2 RAB15 SLP164 P0007 T00890083 401170083', 'KACV 150711Z AUTO 16008KT 10SM SCT027 BKN034 OVC110 09/08 A3000 RMK AO2 T00940078', 'KACV 150653Z AUTO 15008KT 10SM FEW022 BKN031 OVC050 09/08 A2999 RMK AO2 RAE24 SLP162 P0008 T00890078', 'KACV 150553Z AUTO 17010KT 7SM -RA BKN017 BKN023 OVC036 09/08 A2997 RMK AO2 SLP155 P0004 60030 T00890078 10100 20089 53025', 'KACV 150453Z AUTO 17014G25KT 10SM -RA SCT013 BKN017 OVC028 09/08 A2993 RMK AO2 SLP141 P0006 T00890078', 'KACV 150409Z AUTO 27004KT 8SM -RA BKN024 OVC034 09/08 A2991 RMK AO2 P0003 T00890078', 'KACV 150353Z AUTO 15013KT 3SM RA BR FEW023 BKN034 OVC045 09/08 A2990 RMK AO2 SLP132 P0007 T00890078', 'KACV 150253Z AUTO 15010KT 7SM -RA SCT029 SCT036 OVC043 09/08 A2990 RMK AO2 RAB01 SLP130 P0003 60013 T00940078 51005', 'KACV 150153Z AUTO 15008KT 10SM SCT024 BKN036 OVC060 09/08 A2990 RMK AO2 RAB0059E37 SLP129 P0002 T00940083', 'KACV 150107Z AUTO 14008KT 10SM -RA FEW020 BKN027 OVC065 09/08 A2989 RMK AO2 RAB0059 P0000 T00890083', 'KACV 150053Z AUTO 15007KT 10SM SCT029 BKN046 OVC065 09/08 A2989 RMK AO2 RAE52 SLP128 P0008 T00890078', 'KACV 150021Z AUTO 17014G25KT 5SM -RA BR SCT015 BKN021 OVC036 09/08 A2989 RMK AO2 P0007 T00940078', 'KACV 142353Z AUTO 14010KT 10SM -RA FEW035 BKN046 OVC070 10/08 A2988 RMK AO2 SLP125 P0001 60059 T01000078 10111 20083 50006', 'KACV 142253Z AUTO 17012G21KT 10SM -RA OVC050 10/08 A2989 RMK AO2 SLP127 P0005 T01000078', 'KACV 142211Z AUTO 18012G20KT 6SM -RA BR FEW018 BKN040 OVC049 09/08 A2988 RMK AO2 P0005 T00940078', 'KACV 142153Z AUTO 1 1/2SM R32/2800VP6000FT +RA BR FEW011 SCT019 OVC034 09/08 A2988 RMK AO2 PK WND 24029/2119 SLP126 P0027 T00940083', 'KACV 142120Z AUTO 22017G29KT 1 1/2SM R32/3500VP6000FT +RA BR SCT016 BKN022 OVC032 10/09 A2989 RMK AO2 PK WND 24029/2119 PRESRR P0011 T01000094', 'KACV 142053Z AUTO 16007KT 4SM -RA BR FEW015 BKN020 OVC027 11/09 A2986 RMK AO2 RAB29 SLP119 P0002 60026 T01060089 58003', 'KACV 141953Z AUTO 15010KT 10SM FEW019 BKN032 OVC048 10/09 A2988 RMK AO2 RAE44 SLP126 P0003 T01000089', 'KACV 141909Z AUTO 15010KT 9SM -RA SCT005 SCT028 OVC044 10/09 A2989 RMK AO2 P0001 T01000094', 'KACV 141853Z AUTO 16009KT 3SM RA BR BKN005 BKN030 OVC041 10/09 A2988 RMK AO2 SLP125 P0021 T01000094', 'KACV 141821Z AUTO 19009KT 3SM -RA BR FEW004 BKN029 OVC041 10/09 A2988 RMK AO2 P0015 T01000094', 'KACV 141752Z AUTO 23007KT 1 3/4SM R32/6000VP6000FT RA BR FEW010 SCT017 OVC033 11/10 A2987 RMK AO2 PRESRR SLP122 P0007 60022 T01110100 10117 20100 53008', 'KACV 141653Z AUTO 12007KT 4SM RA BR FEW034 OVC049 11/09 A2986 RMK AO2 SLP116 P0010 T01110094', 'KACV 141553Z AUTO 14009KT 10SM -RA BKN040 BKN050 OVC075 11/09 A2984 RMK AO2 RAE26B44 SLP111 P0001 T01110089', 'KACV 141453Z AUTO 15008KT 10SM -RA OVC038 11/09 A2985 RMK AO2 RAB25 SLP114 P0002 60004 T01060089 56014', 'KACV 141353Z AUTO 13010KT 10SM BKN048 OVC060 11/09 A2985 RMK AO2 RAE01 SLP114 P0000 T01110089', 'KACV 141253Z AUTO 11009KT 10SM -RA OVC042 11/09 A2987 RMK AO2 SLP120 P0002 T01060089', 'KACV 141153Z AUTO 10005KT 8SM -RA OVC044 10/09 A2989 RMK AO2 SLP127 P0006 60020 70020 T01000089 10106 20094 58015', 'KACV 141053Z AUTO 09004KT 9SM -RA OVC033 09/09 A2991 RMK AO2 SLP135 P0006 T00940089', 'KACV 140953Z AUTO 00000KT 7SM -RA OVC041 09/09 A2993 RMK AO2 SLP140 P0003 T00940089', 'KACV 140853Z AUTO 08004KT 10SM -RA BKN048 BKN055 OVC070 09/09 A2994 RMK AO2 SLP142 P0003 60005 T00940089 58011', 'KACV 140753Z AUTO 09003KT 7SM -RA OVC040 10/09 A2995 RMK AO2 RAB18 SLP148 P0002 T01000089 401280061', 'KACV 140653Z AUTO 00000KT 10SM OVC045 11/08 A2996 RMK AO2 RAB0555E13 SLP150 P0000 T01060083', 'KACV 140553Z AUTO 10003KT 10SM OVC048 10/08 A2997 RMK AO2 SLP153 T01000083 10117 20089 56007', 'KACV 140453Z AUTO 12003KT 10SM OVC050 10/08 A2997 RMK AO2 SLP156 T01000083', 'KACV 140353Z AUTO 08003KT 10SM FEW042 OVC055 09/08 A2997 RMK AO2 SLP156 T00940083', 'KACV 140253Z AUTO 00000KT 10SM FEW022 BKN039 09/08 A2999 RMK AO2 SLP161 T00940083 55002', 'KACV 140153Z AUTO 08003KT 10SM SCT022 BKN060 11/09 A2998 RMK AO2 SLP159 T01060089', 'KACV 140116Z AUTO 19004KT 10SM SCT010 OVC026 11/09 A2999 RMK AO2 T01110089', 'KACV 140053Z AUTO 22004KT 10SM BKN010 BKN049 11/09 A2999 RMK AO2 SLP163 T01110089', 'KACV 132353Z AUTO 24004KT 10SM CLR 12/09 A2999 RMK AO2 SLP163 T01170089 10128 20106 56008', 'KACV 132253Z AUTO 26006KT 10SM FEW016 12/08 A2999 RMK AO2 SLP163 T01170083', 'KACV 132153Z AUTO 23005KT 10SM FEW012 12/08 A3001 RMK AO2 SLP168 T01170083', 'KACV 132053Z AUTO 24007KT 10SM BKN050 12/07 A3002 RMK AO2 SLP171 T01170072 58007', 'KACV 131953Z AUTO 25006KT 10SM BKN050 12/08 A3003 RMK AO2 SLP173 T01170078', 'KACV 131853Z AUTO 23005KT 10SM BKN050 12/07 A3004 RMK AO2 SLP178 T01170067', 'KACV 131753Z AUTO 14004KT 10SM BKN050 11/08 A3004 RMK AO2 SLP177 T01060078 10106 20061 53006', 'KACV 131653Z AUTO 13003KT 10SM FEW043 SCT050 09/08 A3003 RMK AO2 SLP175 T00940078', 'KACV 131553Z AUTO 10004KT 9SM BKN042 OVC049 07/07 A3002 RMK AO2 SLP173 T00720067', 'KACV 131453Z AUTO 11003KT 10SM CLR 07/06 A3002 RMK AO2 SLP172 T00670061 58001', 'KACV 131353Z AUTO 09004KT 10SM FEW010 07/06 A3002 RMK AO2 SLP173 T00720061', 'KACV 131328Z AUTO 08003KT 10SM BKN010 BKN055 07/07 A3003 RMK AO2 T00720067', 'KACV 131253Z AUTO 00000KT 10SM BKN007 OVC050 07/07 A3003 RMK AO2 SLP175 T00720067', 'KACV 131153Z AUTO 00000KT 10SM SCT044 07/07 A3003 RMK AO2 SLP174 7//// T00720067 10100 20067 56010', 'KACV 131053Z AUTO VRB03KT 10SM CLR 07/06 A3004 RMK AO2 SLP178 T00720061', 'KACV 130953Z AUTO 10003KT 10SM BKN055 08/07 A3004 RMK AO2 SLP180 T00830072', 'KACV 130853Z AUTO 10003KT 10SM CLR 08/07 A3006 RMK AO2 SLP185 T00830072 58012', 'KACV 130753Z AUTO 09004KT 10SM OVC049 09/08 A3007 RMK AO2 SLP187 T00940078 401330078', 'KACV 130653Z AUTO 00000KT 10SM SCT024 OVC048 09/08 A3008 RMK AO2 SLP192 T00940083', 'KACV 130553Z AUTO 00000KT 10SM OVC025 10/08 A3009 RMK AO2 SLP195 T01000083 10111 20100 58001', 'KACV 130453Z AUTO 00000KT 10SM OVC023 10/08 A3010 RMK AO2 SLP198 T01000083', 'KACV 130353Z AUTO 00000KT 10SM OVC022 10/08 A3010 RMK AO2 SLP199 T01000083', 'KACV 130253Z AUTO 00000KT 10SM OVC022 11/07 A3009 RMK AO2 SLP197 T01060072 56001', 'KACV 130213Z AUTO 00000KT 10SM OVC028 10/07 A3009 RMK AO2 T01000072', 'KACV 130153Z AUTO VRB03KT 10SM FEW018 OVC030 11/07 A3009 RMK AO2 SLP197 T01060072', 'KACV 130111Z AUTO 32006KT 10SM SCT020 OVC035 11/08 A3010 RMK AO2 T01060078', 'KACV 130053Z AUTO VRB04KT 10SM OVC022 11/07 A3009 RMK AO2 SLP197 T01060072', 'KACV 122353Z AUTO 29007KT 10SM BKN026 OVC031 11/08 A3010 RMK AO2 SLP199 6//// T01060078 10133 20106 55007', 'KACV 122253Z AUTO 31008KT 10SM CLR 12/08 A3009 RMK AO2 SLP196 T01170083', 'KACV 122153Z AUTO 30006KT 10SM CLR 11/08 A3010 RMK AO2 SLP198 T01110078', 'KACV 122053Z AUTO 29006KT 10SM CLR 12/08 A3012 RMK AO2 SLP206 6//// T01170078 58021', 'KACV 121953Z AUTO 27007KT 10SM CLR 12/08 A3016 RMK AO2 SLP217 T01220078 PWINO $', 'KACV 121922Z AUTO 30004KT 10SM FEW020 12/08 A3017 RMK AO2 T01170078 PWINO PNO $', 'KACV 121853Z AUTO 25005KT 10SM OVC018 12/08 A3018 RMK AO2 SLP225 T01220078 PWINO $', 'KACV 121807Z AUTO 00000KT 10SM SCT021 11/07 A3018 RMK AO2 T01110072 PWINO $', 'KACV 121756Z AUTO 12004KT 10SM FEW017 BKN022 12/08 A3018 RMK AO2 T01170078 PWINO $', 'KACV 121721Z AUTO 00000KT 10SM OVC021 09/07 A3019 RMK AO2 T00940067 $', 'KACV 121653Z AUTO 10004KT 10SM OVC020 08/07 A3019 RMK AO2 SLP229 T00830067', 'KACV 121553Z AUTO 00000KT 10SM OVC018 08/07 A3018 RMK AO2 SLP226 T00780067', 'KACV 121453Z AUTO 00000KT 10SM OVC015 09/07 A3017 RMK AO2 SLP224 T00890072 58003', 'KACV 121353Z AUTO 00000KT 10SM OVC017 08/07 A3017 RMK AO2 SLP224 T00830072', 'KACV 121253Z AUTO 09004KT 10SM OVC017 09/08 A3019 RMK AO2 SLP228 T00890078', 'KACV 121153Z AUTO 00000KT 10SM OVC017 08/08 A3018 RMK AO2 SLP228 T00830078 10089 20078 56010', 'KACV 121053Z AUTO 08004KT 10SM OVC017 08/08 A3019 RMK AO2 SLP231 T00830078']","['2024-02-15 09:53:00', '2024-02-15 08:53:00', '2024-02-15 08:20:00', '2024-02-15 07:53:00', '2024-02-15 07:11:00', '2024-02-15 06:53:00', '2024-02-15 05:53:00', '2024-02-15 04:53:00', '2024-02-15 04:09:00', '2024-02-15 03:53:00', '2024-02-15 02:53:00', '2024-02-15 01:53:00', '2024-02-15 01:07:00', '2024-02-15 00:53:00', '2024-02-15 00:21:00', '2024-02-14 23:53:00', '2024-02-14 22:53:00', '2024-02-14 22:11:00', '2024-02-14 21:53:00', '2024-02-14 21:20:00', '2024-02-14 20:53:00', '2024-02-14 19:53:00', '2024-02-14 19:09:00', '2024-02-14 18:53:00', '2024-02-14 18:21:00', '2024-02-14 17:52:00', '2024-02-14 16:53:00', '2024-02-14 15:53:00', '2024-02-14 14:53:00', '2024-02-14 13:53:00', '2024-02-14 12:53:00', '2024-02-14 11:53:00', '2024-02-14 10:53:00', '2024-02-14 09:53:00', '2024-02-14 08:53:00', '2024-02-14 07:53:00', '2024-02-14 06:53:00', '2024-02-14 05:53:00', '2024-02-14 04:53:00', '2024-02-14 03:53:00', '2024-02-14 02:53:00', '2024-02-14 01:53:00', '2024-02-14 01:16:00', '2024-02-14 00:53:00', '2024-02-13 23:53:00', '2024-02-13 22:53:00', '2024-02-13 21:53:00', '2024-02-13 20:53:00', '2024-02-13 19:53:00', '2024-02-13 18:53:00', '2024-02-13 17:53:00', '2024-02-13 16:53:00', '2024-02-13 15:53:00', '2024-02-13 14:53:00', '2024-02-13 13:53:00', '2024-02-13 13:28:00', '2024-02-13 12:53:00', '2024-02-13 11:53:00', '2024-02-13 10:53:00', '2024-02-13 09:53:00', '2024-02-13 08:53:00', '2024-02-13 07:53:00', '2024-02-13 06:53:00', '2024-02-13 05:53:00', '2024-02-13 04:53:00', '2024-02-13 03:53:00', '2024-02-13 02:53:00', '2024-02-13 02:13:00', '2024-02-13 01:53:00', '2024-02-13 01:11:00', '2024-02-13 00:53:00', '2024-02-12 23:53:00', '2024-02-12 22:53:00', '2024-02-12 21:53:00', '2024-02-12 20:53:00', '2024-02-12 19:53:00', '2024-02-12 19:22:00', '2024-02-12 18:53:00', '2024-02-12 18:07:00', '2024-02-12 17:56:00', '2024-02-12 17:21:00', '2024-02-12 16:53:00', '2024-02-12 15:53:00', '2024-02-12 14:53:00', '2024-02-12 13:53:00', '2024-02-12 12:53:00', '2024-02-12 11:53:00', '2024-02-12 10:53:00']"
United-states, Ardmore Municipal Airport (ADM/KADM) ,"['KADM 150955Z AUTO 00000KT 10SM CLR 05/05 A3005 RMK AO2', 'KADM 150915Z AUTO 00000KT 10SM CLR 07/06 A3003 RMK AO2', 'KADM 150855Z AUTO 00000KT 10SM CLR 07/06 A3004 RMK AO2', 'KADM 150815Z AUTO 00000KT 10SM CLR 09/06 A3003 RMK AO2', 'KADM 150755Z AUTO 00000KT 10SM CLR 09/06 A3003 RMK AO2', 'KADM 150715Z AUTO 00000KT 10SM CLR 10/06 A3004 RMK AO2', 'KADM 150655Z AUTO 00000KT 10SM CLR 09/06 A3004 RMK AO2', 'KADM 150615Z AUTO 00000KT 10SM CLR 10/06 A3004 RMK AO2', 'KADM 150555Z AUTO 00000KT 10SM CLR 10/05 A3004 RMK AO2', 'KADM 150515Z AUTO 00000KT 10SM CLR 10/05 A3004 RMK AO2', 'KADM 150455Z AUTO 00000KT 10SM CLR 11/06 A3005 RMK AO2', 'KADM 150350Z 16006KT 10SM CLR 12/06 A3005', 'KADM 150250Z 14005KT 10SM CLR 12/05 A3004', 'KADM 150150Z 16009KT 10SM BKN049 14/05 A3002', 'KADM 150050Z 00000KT 10SM CLR 15/04 A3001', 'KADM 142350Z 19013G20KT 10SM CLR 18/04 A3000', 'KADM 142250Z 20015KT 10SM CLR 19/04 A2998', 'KADM 142150Z 17018G25KT 10SM CLR 20/03 A2998', 'KADM 142050Z 18019KT 10SM CLR 21/04 A3000', 'KADM 141950Z 19018KT 10SM CLR 20/05 A3003', 'KADM 141850Z 19016KT 10SM CLR 19/06 A3007', 'KADM 141750Z 19012KT 10SM CLR 18/05 A3010', 'KADM 141650Z 18004G10KT 10SM CLR 15/05 A3013', 'KADM 141550Z 16005KT 10SM CLR 13/05 A3015', 'KADM 141450Z 00000KT 10SM CLR 08/04 A3017', 'KADM 141350Z 00000KT 10SM CLR 03/02 A3015', 'KADM 141235Z AUTO 00000KT 10SM CLR 01/M00 A3013 RMK AO2', 'KADM 141215Z AUTO 00000KT 10SM CLR 03/02 A3012 RMK AO2', 'KADM 141155Z AUTO 00000KT 10SM CLR 01/M00 A3012 RMK AO2', 'KADM 141115Z AUTO 00000KT 10SM CLR 01/00 A3012 RMK AO2', 'KADM 141055Z AUTO 00000KT 10SM CLR 02/01 A3012 RMK AO2', 'KADM 141015Z AUTO 00000KT 10SM CLR 04/02 A3012 RMK AO2', 'KADM 140955Z AUTO 00000KT 10SM CLR 04/02 A3012 RMK AO2', 'KADM 140915Z AUTO 00000KT 10SM CLR 03/01 A3012 RMK AO2', 'KADM 140855Z AUTO 00000KT 10SM CLR 02/01 A3012 RMK AO2', 'KADM 140820Z AUTO 00000KT 10SM CLR 03/01 A3012 RMK AO2', 'KADM 140655Z AUTO 00000KT 10SM CLR 04/02 A3012 RMK AO2', 'KADM 140615Z AUTO 00000KT 10SM CLR 03/01 A3012 RMK AO2', 'KADM 140555Z AUTO 00000KT 10SM CLR 03/01 A3012 RMK AO2', 'KADM 140515Z AUTO 00000KT 10SM CLR 05/01 A3011 RMK AO2', 'KADM 140455Z AUTO 00000KT 10SM CLR 05/01 A3011 RMK AO2', 'KADM 140350Z 00000KT 10SM CLR 06/01 A3010', 'KADM 140250Z 00000KT 10SM CLR 08/01 A3010', 'KADM 140150Z 00000KT 10SM CLR 08/01 A3010', 'KADM 140050Z 00000KT 10SM CLR 10/02 A3008', 'KADM 132350Z 00000KT 10SM CLR 14/01 A3008', 'KADM 132250Z 18006KT 10SM CLR 17/M01 A3007', 'KADM 132150Z 18005KT 10SM CLR 17/00 A3007', 'KADM 132050Z 20006G12KT 10SM CLR 16/00 A3009', 'KADM 131950Z 19009KT 10SM CLR 16/M01 A3011', 'KADM 131850Z 19011KT 10SM CLR 15/M03 A3014', 'KADM 131750Z 21009KT 10SM CLR 14/M02 A3018', 'KADM 131650Z 18004KT 10SM CLR 10/01 A3019', 'KADM 131550Z VRB04KT 10SM CLR 06/02 A3020', 'KADM 131450Z 00000KT 10SM CLR 01/M01 A3019', 'KADM 131415Z AUTO 00000KT 10SM CLR M02/M02 A3019 RMK AO2', 'KADM 131355Z AUTO 00000KT 10SM CLR M03/M03 A3018 RMK AO2', 'KADM 131315Z AUTO 00000KT 10SM CLR M04/M05 A3017 RMK AO2', 'KADM 131255Z AUTO 00000KT 10SM CLR M04/M04 A3017 RMK AO2', 'KADM 131215Z AUTO 00000KT 10SM CLR M03/M04 A3017 RMK AO2', 'KADM 131155Z AUTO 00000KT 10SM CLR M03/M04 A3016 RMK AO2', 'KADM 131115Z AUTO 00000KT 10SM CLR M04/M05 A3015 RMK AO2', 'KADM 131055Z AUTO 00000KT 10SM CLR M03/M03 A3015 RMK AO2', 'KADM 131015Z AUTO 00000KT 10SM CLR M02/M03 A3015 RMK AO2', 'KADM 130955Z AUTO 00000KT 10SM CLR M02/M02 A3014 RMK AO2', 'KADM 130915Z AUTO 00000KT 10SM CLR M03/M03 A3014 RMK AO2', 'KADM 130855Z AUTO 00000KT 9SM CLR M02/M02 A3014 RMK AO2', 'KADM 130815Z AUTO 00000KT 10SM FEW016 M02/M02 A3013 RMK AO2', 'KADM 130755Z AUTO 00000KT 1SM BR SCT016 M01/M02 A3013 RMK AO2', 'KADM 130715Z AUTO 00000KT 10SM CLR M01/M02 A3013 RMK AO2', 'KADM 130655Z AUTO 00000KT 10SM CLR M02/M02 A3013 RMK AO2', 'KADM 130615Z AUTO 00000KT 10SM CLR M02/M03 A3013 RMK AO2', 'KADM 130555Z AUTO 00000KT 10SM CLR M01/M01 A3013 RMK AO2', 'KADM 130515Z AUTO 00000KT 10SM CLR M01/M02 A3012 RMK AO2', 'KADM 130455Z AUTO 00000KT 10SM CLR 00/M01 A3011 RMK AO2', 'KADM 130350Z 00000KT 10SM CLR 00/M01 A3011', 'KADM 130250Z 00000KT 10SM CLR 00/M02 A3010', 'KADM 130150Z 00000KT 10SM CLR 04/00 A3008', 'KADM 130050Z 00000KT 10SM CLR 06/M01 A3007', 'KADM 122350Z 32008KT 10SM CLR 09/M01 A3005', 'KADM 122250Z 32008KT 10SM CLR 11/M01 A3004', 'KADM 122150Z 31011KT 10SM CLR 11/M01 A3003', 'KADM 122050Z 36012KT 10SM CLR 11/00 A3002', 'KADM 121950Z 32012G19KT 10SM FEW040 11/00 A3003', 'KADM 121850Z 31010G18KT 10SM CLR 10/01 A3006', 'KADM 121750Z 34012G20KT 10SM FEW031 09/01 A3007', 'KADM 121650Z 34010G16KT 10SM FEW021 07/02 A3007', 'KADM 121550Z 33011KT 10SM SCT016 05/03 A3007', 'KADM 121450Z 31007KT 10SM OVC015 03/02 A3006', 'KADM 121350Z 33010KT 10SM OVC013 03/01 A3003', 'KADM 121250Z 33012KT 10SM BKN014 BKN027 OVC033 02/01 A3001', 'KADM 121215Z AUTO 33012KT 10SM OVC012 02/01 A3000 RMK AO2', 'KADM 121155Z AUTO 33011G20KT 10SM OVC012 02/01 A2999 RMK AO2', 'KADM 121115Z AUTO 34014KT 10SM UP OVC011 02/01 A2997 RMK AO2', 'KADM 121055Z AUTO 33012KT 10SM UP OVC011 02/01 A2996 RMK AO2']","['2024-02-15 09:55:00', '2024-02-15 09:15:00', '2024-02-15 08:55:00', '2024-02-15 08:15:00', '2024-02-15 07:55:00', '2024-02-15 07:15:00', '2024-02-15 06:55:00', '2024-02-15 06:15:00', '2024-02-15 05:55:00', '2024-02-15 05:15:00', '2024-02-15 04:55:00', '2024-02-15 03:50:00', '2024-02-15 02:50:00', '2024-02-15 01:50:00', '2024-02-15 00:50:00', '2024-02-14 23:50:00', '2024-02-14 22:50:00', '2024-02-14 21:50:00', '2024-02-14 20:50:00', '2024-02-14 19:50:00', '2024-02-14 18:50:00', '2024-02-14 17:50:00', '2024-02-14 16:50:00', '2024-02-14 15:50:00', '2024-02-14 14:50:00', '2024-02-14 13:50:00', '2024-02-14 12:35:00', '2024-02-14 12:15:00', '2024-02-14 11:55:00', '2024-02-14 11:15:00', '2024-02-14 10:55:00', '2024-02-14 10:15:00', '2024-02-14 09:55:00', '2024-02-14 09:15:00', '2024-02-14 08:55:00', '2024-02-14 08:20:00', '2024-02-14 06:55:00', '2024-02-14 06:15:00', '2024-02-14 05:55:00', '2024-02-14 05:15:00', '2024-02-14 04:55:00', '2024-02-14 03:50:00', '2024-02-14 02:50:00', '2024-02-14 01:50:00', '2024-02-14 00:50:00', '2024-02-13 23:50:00', '2024-02-13 22:50:00', '2024-02-13 21:50:00', '2024-02-13 20:50:00', '2024-02-13 19:50:00', '2024-02-13 18:50:00', '2024-02-13 17:50:00', '2024-02-13 16:50:00', '2024-02-13 15:50:00', '2024-02-13 14:50:00', '2024-02-13 14:15:00', '2024-02-13 13:55:00', '2024-02-13 13:15:00', '2024-02-13 12:55:00', '2024-02-13 12:15:00', '2024-02-13 11:55:00', '2024-02-13 11:15:00', '2024-02-13 10:55:00', '2024-02-13 10:15:00', '2024-02-13 09:55:00', '2024-02-13 09:15:00', '2024-02-13 08:55:00', '2024-02-13 08:15:00', '2024-02-13 07:55:00', '2024-02-13 07:15:00', '2024-02-13 06:55:00', '2024-02-13 06:15:00', '2024-02-13 05:55:00', '2024-02-13 05:15:00', '2024-02-13 04:55:00', '2024-02-13 03:50:00', '2024-02-13 02:50:00', '2024-02-13 01:50:00', '2024-02-13 00:50:00', '2024-02-12 23:50:00', '2024-02-12 22:50:00', '2024-02-12 21:50:00', '2024-02-12 20:50:00', '2024-02-12 19:50:00', '2024-02-12 18:50:00', '2024-02-12 17:50:00', '2024-02-12 16:50:00', '2024-02-12 15:50:00', '2024-02-12 14:50:00', '2024-02-12 13:50:00', '2024-02-12 12:50:00', '2024-02-12 12:15:00', '2024-02-12 11:55:00', '2024-02-12 11:15:00', '2024-02-12 10:55:00']"
United-states, Arlington Municipal Airport (QQG/KGKY) ,"['KGKY 150953Z AUTO 17004KT 10SM CLR 13/10 A3008 RMK AO2 SLP182 T01280100', 'KGKY 150853Z AUTO 19006KT 10SM CLR 14/10 A3007 RMK AO2 SLP178 T01440100 55002', 'KGKY 150753Z AUTO 18006KT 10SM CLR 14/10 A3007 RMK AO2 SLP176 T01440100', 'KGKY 150653Z AUTO 17006KT 10SM CLR 13/08 A3005 RMK AO2 SLP169 T01280083', 'KGKY 150553Z AUTO 17008KT 10SM CLR 13/07 A3008 RMK AO2 SLP181 T01280072 10183 20128 402000067 50000', 'KGKY 150453Z AUTO 16006KT 10SM CLR 13/06 A3008 RMK AO2 SLP182 T01330061', 'KGKY 150353Z AUTO 18008KT 10SM CLR 14/05 A3009 RMK AO2 SLP186 T01440050', 'KGKY 150253Z AUTO 17009KT 10SM CLR 15/06 A3008 RMK AO2 SLP181 T01500056 53008', 'KGKY 150153Z 15010KT 10SM CLR 16/06 A3006 RMK AO2 SLP176 T01560061', 'KGKY 150053Z 16007KT 10SM SCT050 17/06 A3007 RMK AO2 SLP179 T01670056', 'KGKY 142353Z 16011KT 10SM SCT055 18/06 A3005 RMK AO2 SLP173 T01830056 10200 20172 56004 $', 'KGKY 142253Z 17011G20KT 10SM CLR 19/04 A3006 RMK AO2 SLP176 T01940044 $', 'KGKY 142153Z 15008G18KT 10SM CLR 19/05 A3003 RMK AO2 SLP165 T01940050 $', 'KGKY 142053Z 16014G21KT 10SM CLR 19/06 A3006 RMK AO2 SLP176 T01940056 56026 $', 'KGKY 141953Z 18012G20KT 10SM CLR 19/06 A3009 RMK AO2 SLP184 T01890056 $', 'KGKY 141853Z 17012G19KT 10SM CLR 19/07 A3011 RMK AO2 SLP192 T01890072 $', 'KGKY 141753Z 16017G22KT 10SM CLR 17/06 A3014 RMK AO2 PK WND 17027/1717 SLP203 T01720061 10172 20067 58013 $', 'KGKY 141653Z 17012G22KT 10SM CLR 16/06 A3016 RMK AO2 SLP211 T01560056 $', 'KGKY 141553Z 17010G16KT 10SM CLR 13/06 A3018 RMK AO2 SLP218 T01280061 $', 'KGKY 141453Z 17006KT 10SM CLR 10/06 A3018 RMK AO2 SLP218 T01000056 51014 $', 'KGKY 141353Z 16005KT 10SM CLR 08/04 A3017 RMK AO2 SLP214 T00780044 $', 'KGKY 141253Z 17004KT 10SM CLR 07/04 A3016 RMK AO2 SLP210 T00720039 $', 'KGKY 141153Z AUTO 17004KT 10SM CLR 07/03 A3014 RMK AO2 SLP203 T00720033 10100 20072 53001 $', 'KGKY 141053Z AUTO 18004KT 10SM CLR 08/03 A3014 RMK AO2 SLP202 T00780033 $', 'KGKY 140953Z AUTO 16005KT 10SM CLR 08/03 A3013 RMK AO2 SLP200 T00830033 $', 'KGKY 140853Z AUTO 15006KT 10SM CLR 09/03 A3014 RMK AO2 SLP202 T00890033 55001 $', 'KGKY 140753Z AUTO 16006KT 10SM CLR 09/03 A3014 RMK AO2 SLP202 T00890033 $', 'KGKY 140653Z AUTO 16004KT 10SM CLR 09/03 A3013 RMK AO2 SLP201 T00940033 $', 'KGKY 140553Z AUTO 15007KT 10SM CLR 10/03 A3014 RMK AO2 SLP203 T01000033 10161 20083 401781011 52007 $', 'KGKY 140453Z AUTO 15006KT 10SM CLR 11/04 A3013 RMK AO2 SLP200 T01060039 $', 'KGKY 140353Z AUTO 15006KT 10SM CLR 10/04 A3013 RMK AO2 SLP200 T01000039 $', 'KGKY 140253Z AUTO 13005KT 10SM CLR 11/04 A3012 RMK AO2 SLP198 T01060039 51008 $', 'KGKY 140153Z 11004KT 10SM CLR 12/04 A3011 RMK AO2 SLP196 T01220044', 'KGKY 140053Z 12006KT 10SM CLR 13/04 A3010 RMK AO2 SLP194 T01330044', 'KGKY 132353Z 14007KT 10SM CLR 16/03 A3010 RMK AO2 SLP190 T01610033 10178 20139 55004', 'KGKY 132253Z 14008KT 10SM CLR 17/03 A3009 RMK AO2 SLP190 T01720033', 'KGKY 132153Z 18007KT 10SM CLR 17/03 A3009 RMK AO2 SLP189 T01720028 $', 'KGKY 132053Z 16009G18KT 10SM CLR 17/03 A3011 RMK AO2 SLP193 T01720033 56031 $', 'KGKY 131953Z 16008KT 10SM CLR 16/03 A3013 RMK AO2 SLP202 T01610028 $', 'KGKY 131853Z 16007G16KT 120V190 10SM CLR 16/02 A3017 RMK AO2 SLP215 T01560017 $', 'KGKY 131753Z 14009KT 10SM CLR 14/01 A3020 RMK AO2 SLP227 I6000 T01440011 10144 21011 58003 $', 'KGKY 131653Z 17009KT 10SM CLR 12/00 A3022 RMK AO2 SLP231 T01220000 $', 'KGKY 131553Z 17006KT 10SM CLR 11/01 A3022 RMK AO2 SLP233 T01060006 $', 'KGKY 131453Z 00000KT 10SM CLR 06/02 A3021 RMK AO2 SLP231 I3000 T00610022 53013 $', 'KGKY 131353Z 00000KT 10SM CLR 01/M01 A3020 RMK AO2 SLP227 I1000 T00061006 $', 'KGKY 131253Z 00000KT 10SM CLR M01/M02 A3019 RMK AO2 SLP223 I1000 T10061022 $', 'KGKY 131153Z AUTO 00000KT 10SM CLR 00/M02 A3018 RMK AO2 SLP218 T00001017 10033 21006 53010 $', 'KGKY 131053Z AUTO 00000KT 10SM CLR 00/M02 A3016 RMK AO2 SLP211 T00001017 $', 'KGKY 130953Z AUTO 00000KT 10SM CLR 00/M02 A3015 RMK AO2 SLP210 T00001017 $', 'KGKY 130853Z AUTO 00000KT 10SM CLR 01/M01 A3015 RMK AO2 SLP207 T00111011 50002 $', 'KGKY 130753Z AUTO 13003KT 10SM CLR 01/M01 A3015 RMK AO2 SLP209 T00111011 $', 'KGKY 130653Z AUTO 00000KT 10SM CLR 01/M01 A3014 RMK AO2 SLP208 T00111011 $', 'KGKY 130553Z AUTO 00000KT 10SM CLR 03/00 A3014 RMK AO2 SLP206 T00330000 10117 20022 401390022 $', 'KGKY 130453Z AUTO 00000KT 10SM CLR 03/00 A3013 RMK AO2 SLP203 T00330000 $', 'KGKY 130353Z AUTO 29004KT 10SM CLR 04/01 A3012 RMK AO2 SLP200 T00390006 $', 'KGKY 130253Z AUTO 31004KT 10SM CLR 06/00 A3011 RMK AO2 SLP197 T00610000 53018', 'KGKY 130153Z 30005KT 10SM CLR 08/00 A3009 RMK AO2 SLP191 T00780000', 'KGKY 130053Z 31007KT 10SM CLR 10/M01 A3008 RMK AO2 SLP184 T01001006', 'KGKY 122353Z 30009KT 10SM CLR 12/M01 A3006 RMK AO2 SLP178 T01171011 10139 20100 53004', 'KGKY 122253Z 31011G20KT 10SM CLR 13/M01 A3005 RMK AO2 SLP174 T01331006', 'KGKY 122153Z 32013G23KT 10SM CLR 13/00 A3004 RMK AO2 SLP171 T01330000', 'KGKY 122053Z 31015G22KT 10SM CLR 13/01 A3005 RMK AO2 SLP174 T01330006 56012', 'KGKY 121953Z 30012G22KT 10SM CLR 12/01 A3005 RMK AO2 SLP175 T01220006', 'KGKY 121853Z 29014G23KT 10SM CLR 11/01 A3007 RMK AO2 SLP181 T01110011', 'KGKY 121753Z 31016G23KT 10SM CLR 10/01 A3008 RMK AO2 SLP186 T01000011 10106 20044 50007', 'KGKY 121653Z 30014KT 10SM CLR 09/01 A3010 RMK AO2 SLP191 T00890011', 'KGKY 121553Z 30019G25KT 10SM FEW025 07/01 A3009 RMK AO2 PK WND 29026/1527 SLP189 T00720011', 'KGKY 121518Z 29012G22KT 10SM SCT025 07/01 A3007 RMK AO2 T00670011', 'KGKY 121453Z 29016G23KT 10SM BKN024 OVC065 06/01 A3006 RMK AO2 PK WND 29026/1415 SLP180 T00610011 51020', 'KGKY 121353Z 29015G21KT 10SM OVC018 06/01 A3005 RMK AO2 SLP175 T00560011', 'KGKY 121253Z 29012G23KT 10SM OVC019 05/01 A3003 RMK AO2 SLP167 T00500011', 'KGKY 121153Z AUTO 29016G26KT 10SM OVC017 04/01 A3000 RMK AO2 PK WND 30026/1145 SLP159 60000 70001 T00440011 10050 20039 53009', 'KGKY 121053Z AUTO 29013G23KT 10SM OVC018 04/01 A2998 RMK AO2 PK WND 28030/1038 SLP151 T00440006']","['2024-02-15 09:53:00', '2024-02-15 08:53:00', '2024-02-15 07:53:00', '2024-02-15 06:53:00', '2024-02-15 05:53:00', '2024-02-15 04:53:00', '2024-02-15 03:53:00', '2024-02-15 02:53:00', '2024-02-15 01:53:00', '2024-02-15 00:53:00', '2024-02-14 23:53:00', '2024-02-14 22:53:00', '2024-02-14 21:53:00', '2024-02-14 20:53:00', '2024-02-14 19:53:00', '2024-02-14 18:53:00', '2024-02-14 17:53:00', '2024-02-14 16:53:00', '2024-02-14 15:53:00', '2024-02-14 14:53:00', '2024-02-14 13:53:00', '2024-02-14 12:53:00', '2024-02-14 11:53:00', '2024-02-14 10:53:00', '2024-02-14 09:53:00', '2024-02-14 08:53:00', '2024-02-14 07:53:00', '2024-02-14 06:53:00', '2024-02-14 05:53:00', '2024-02-14 04:53:00', '2024-02-14 03:53:00', '2024-02-14 02:53:00', '2024-02-14 01:53:00', '2024-02-14 00:53:00', '2024-02-13 23:53:00', '2024-02-13 22:53:00', '2024-02-13 21:53:00', '2024-02-13 20:53:00', '2024-02-13 19:53:00', '2024-02-13 18:53:00', '2024-02-13 17:53:00', '2024-02-13 16:53:00', '2024-02-13 15:53:00', '2024-02-13 14:53:00', '2024-02-13 13:53:00', '2024-02-13 12:53:00', '2024-02-13 11:53:00', '2024-02-13 10:53:00', '2024-02-13 09:53:00', '2024-02-13 08:53:00', '2024-02-13 07:53:00', '2024-02-13 06:53:00', '2024-02-13 05:53:00', '2024-02-13 04:53:00', '2024-02-13 03:53:00', '2024-02-13 02:53:00', '2024-02-13 01:53:00', '2024-02-13 00:53:00', '2024-02-12 23:53:00', '2024-02-12 22:53:00', '2024-02-12 21:53:00', '2024-02-12 20:53:00', '2024-02-12 19:53:00', '2024-02-12 18:53:00', '2024-02-12 17:53:00', '2024-02-12 16:53:00', '2024-02-12 15:53:00', '2024-02-12 15:18:00', '2024-02-12 14:53:00', '2024-02-12 13:53:00', '2024-02-12 12:53:00', '2024-02-12 11:53:00', '2024-02-12 10:53:00']"
United-states, Arlington Municipal Airport (QQW/KAWO) ,"['KAWO 150956Z AUTO 11003KT 7SM -RA OVC017 02/01 A2984 RMK AO2 SLP111 T00220006 FZRANO', 'KAWO 150912Z AUTO 12007KT 10SM -RA BKN021 BKN025 OVC037 03/00 A2984 RMK AO2 P0000', 'KAWO 150856Z AUTO 14014G20KT 10SM -RA FEW021 BKN038 OVC048 04/M01 A2983 RMK AO2 RAB53 SLP107 P0000 60000 T00441011 55004', 'KAWO 150756Z AUTO 00000KT 10SM OVC060 04/M02 A2982 RMK AO2 SLP105 T00441017 400941006', 'KAWO 150656Z AUTO 02003KT 10SM BKN060 06/M03 A2983 RMK AO2 SLP107 T00561028', 'KAWO 150556Z AUTO 06004KT 10SM BKN060 05/M03 A2985 RMK AO2 SLP112 T00501028 10089 20033 51007', 'KAWO 150456Z AUTO 00000KT 10SM OVC075 04/M02 A2984 RMK AO2 SLP111 T00391017', 'KAWO 150356Z AUTO 00000KT 10SM BKN080 05/M02 A2983 RMK AO2 SLP107 T00501022', 'KAWO 150256Z AUTO 00000KT 10SM FEW100 05/M03 A2982 RMK AO2 SLP104 T00501028 58001', 'KAWO 150156Z AUTO 07003KT 10SM BKN120 07/M05 A2983 RMK AO2 SLP106 T00721050', 'KAWO 150056Z AUTO 13006KT 10SM BKN100 08/M04 A2983 RMK AO2 SLP108 T00781044', 'KAWO 142356Z AUTO 13003KT 10SM CLR 09/M04 A2983 RMK AO2 SLP106 T00891039 10094 20050 56020', 'KAWO 142256Z AUTO 00000KT 10SM CLR 09/M04 A2984 RMK AO2 SLP110 T00941039', 'KAWO 142156Z AUTO 02003KT 10SM FEW090 09/M03 A2986 RMK AO2 SLP117 T00891033', 'KAWO 142056Z AUTO 01005KT 10SM OVC075 08/M02 A2989 RMK AO2 SLP126 T00781022 58023', 'KAWO 141956Z AUTO 36004KT 10SM FEW050 OVC070 06/M01 A2991 RMK AO2 SLP134 T00611006', 'KAWO 141856Z AUTO 34005KT 10SM OVC060 06/00 A2994 RMK AO2 SLP144 T00560000', 'KAWO 141756Z AUTO 02003KT 10SM OVC055 06/00 A2996 RMK AO2 SLP148 60000 T00560000 10056 20000 58007', 'KAWO 141656Z AUTO 07006KT 10SM OVC039 05/01 A2997 RMK AO2 RAE02B23E48 SLP154 P0000 T00500006', 'KAWO 141556Z AUTO 00000KT 10SM -RA OVC060 02/01 A2998 RMK AO2 RAB51 SLP156 P0000 T00220011 FZRANO', 'KAWO 141456Z AUTO 00000KT 10SM OVC060 02/01 A2998 RMK AO2 SLP155 T00170011 56002 FZRANO', 'KAWO 141356Z AUTO 00000KT 10SM OVC065 01/01 A2997 RMK AO2 SLP155 T00110006 FZRANO', 'KAWO 141256Z AUTO 00000KT 10SM OVC065 01/00 A2998 RMK AO2 SLP157 T00060000 FZRANO', 'KAWO 141156Z AUTO 00000KT 10SM OVC060 00/M01 A2998 RMK AO2 SLP158 T00001006 10022 21006 56014 FZRANO', 'KAWO 141056Z AUTO 00000KT 10SM OVC060 00/M01 A2999 RMK AO2 SLP161 T00001006 FZRANO', 'KAWO 140956Z AUTO 36004KT 10SM SCT070 00/M01 A3001 RMK AO2 SLP167 T00001006 FZRANO', 'KAWO 140856Z AUTO 00000KT 10SM BKN070 01/00 A3002 RMK AO2 SLP172 T00110000 58006 FZRANO', 'KAWO 140756Z AUTO 00000KT 10SM FEW041 OVC060 02/01 A3003 RMK AO2 SLP175 T00170011 401000006 FZRANO', 'KAWO 140656Z AUTO 00000KT 10SM BKN046 01/01 A3004 RMK AO2 SLP177 T00110006 FZRANO', 'KAWO 140556Z AUTO 00000KT 10SM FEW060 02/01 A3004 RMK AO2 SLP177 T00220011 10089 20011 56002 FZRANO', 'KAWO 140456Z AUTO 00000KT 10SM CLR 02/02 A3004 RMK AO2 SLP177 T00220017 FZRANO', 'KAWO 140356Z AUTO 00000KT 10SM FEW060 SCT070 04/02 A3004 RMK AO2 SLP178 T00440017', 'KAWO 140256Z AUTO 00000KT 10SM BKN060 06/02 A3005 RMK AO2 SLP180 T00610017 55001', 'KAWO 140156Z AUTO 26004KT 10SM OVC055 07/02 A3004 RMK AO2 SLP179 T00670022', 'KAWO 140056Z AUTO 29006KT 10SM CLR 08/02 A3005 RMK AO2 SLP179 T00780017', 'KAWO 132356Z AUTO 29007KT 10SM CLR 09/02 A3005 RMK AO2 SLP180 T00890022 10100 20050 56018', 'KAWO 132256Z AUTO 27009KT 10SM CLR 09/04 A3006 RMK AO2 SLP185 T00940039', 'KAWO 132156Z AUTO 30008KT 10SM CLR 09/03 A3008 RMK AO2 SLP190 T00940033', 'KAWO 132056Z AUTO 29006KT 10SM FEW002 08/03 A3010 RMK AO2 SLP198 T00830033 58012', 'KAWO 132028Z AUTO 28007KT 10SM SCT019 09/04 A3011 RMK AO2', 'KAWO 131956Z AUTO 26004KT 10SM FEW002 SCT021 BKN029 09/04 A3012 RMK AO2 SLP204 T00940044', 'KAWO 131856Z AUTO 10SM CLR 07/04 A3014 RMK AO2 SLP210 T00720039', 'KAWO 131756Z AUTO 02004KT 10SM CLR 05/04 A3013 RMK AO2 SLP209 T00500044 10050 20017 58002', 'KAWO 131656Z AUTO 36005KT 10SM OVC034 04/04 A3014 RMK AO2 SLP212 T00440039', 'KAWO 131556Z AUTO 01004KT 10SM OVC034 03/03 A3014 RMK AO2 SLP213 T00330033', 'KAWO 131520Z AUTO 36004KT 10SM 03/02 A3014 RMK AO2', 'KAWO 131456Z AUTO 00000KT 1/2SM FG 03/03 A3014 RMK AO2 SLP210 T00280028 56005', 'KAWO 131429Z AUTO 35003KT 3/4SM BR 02/02 A3014 RMK AO2 FZRANO', 'KAWO 131358Z AUTO 36004KT 1/2SM FG 03/03 A3014 RMK AO2', 'KAWO 131317Z AUTO 02003KT 1SM BR 03/03 A3015 RMK AO2', 'KAWO 131256Z AUTO 01004KT 8SM BKN003 OVC028 04/03 A3015 RMK AO2 SLP215 T00390033', 'KAWO 131214Z AUTO 02005KT 10SM SCT002 OVC028 04/03 A3015 RMK AO2', 'KAWO 131156Z AUTO 02004KT 10SM OVC002 04/04 A3015 RMK AO2 SLP215 70004 T00440039 10056 20044 56007', 'KAWO 131128Z AUTO 36005KT 2SM BR OVC002 05/04 A3016 RMK AO2 VIS 1/2V5', 'KAWO 131056Z AUTO 00000KT 1/4SM FG OVC002 05/04 A3016 RMK AO2 SLP216 T00500044', 'KAWO 131026Z AUTO 00000KT 1/4SM FG 05/04 A3016 RMK AO2', 'KAWO 130956Z AUTO 00000KT 1/4SM FG OVC002 05/04 A3017 RMK AO2 SLP220 T00500044', 'KAWO 130918Z AUTO 00000KT 1/4SM FG OVC002 04/04 A3017 RMK AO2', 'KAWO 130856Z AUTO 00000KT 1/2SM FG OVC002 05/04 A3017 RMK AO2 SLP222 T00500044 58001', 'KAWO 130822Z AUTO 06003KT 7SM OVC004 05/05 A3018 RMK AO2', 'KAWO 130756Z AUTO 00000KT 10SM OVC006 05/04 A3018 RMK AO2 SLP225 T00500044 401000028', 'KAWO 130656Z AUTO 00000KT 10SM OVC008 05/04 A3018 RMK AO2 SLP223 T00500044', 'KAWO 130626Z AUTO 00000KT 10SM BKN008 OVC039 05/05 A3018 RMK AO2', 'KAWO 130556Z AUTO 00000KT 10SM OVC033 06/05 A3018 RMK AO2 SLP223 T00560050 10083 20028 50002', 'KAWO 130456Z AUTO 00000KT 10SM BKN033 05/04 A3018 RMK AO2 SLP224 T00500044', 'KAWO 130427Z AUTO 04003KT 10SM SCT013 BKN023 06/05 A3018 RMK AO2', 'KAWO 130356Z AUTO 32005KT 10SM OVC013 06/05 A3018 RMK AO2 SLP224 T00560050', 'KAWO 130318Z AUTO 00000KT 3SM BR BKN020 04/04 A3018 RMK AO2', 'KAWO 130256Z AUTO 00000KT 10SM FEW017 05/04 A3017 RMK AO2 SLP221 T00500044 53004', 'KAWO 130156Z AUTO 29004KT 10SM CLR 06/06 A3016 RMK AO2 SLP219 T00610056', 'KAWO 130056Z AUTO 32003KT 10SM CLR 08/06 A3016 RMK AO2 SLP219 T00780056', 'KAWO 122356Z AUTO 31008KT 10SM SCT011 BKN031 BKN043 08/06 A3016 RMK AO2 SLP217 60001 T00830061 10100 20072 53001', 'KAWO 122320Z AUTO 32009KT 10SM OVC029 09/07 A3016 RMK AO2', 'KAWO 122256Z AUTO 31007KT 10SM FEW014 OVC031 08/06 A3015 RMK AO2 SLP216 T00830061', 'KAWO 122204Z AUTO 32006KT 10SM FEW011 OVC035 09/07 A3016 RMK AO2', 'KAWO 122156Z AUTO 33007KT 10SM SCT011 BKN025 OVC035 09/07 A3016 RMK AO2 SLP217 T00940072', 'KAWO 122056Z AUTO 32006KT 10SM FEW012 SCT025 OVC031 09/07 A3016 RMK AO2 SLP218 60001 T00890067 51006', 'KAWO 121956Z AUTO 32003KT 10SM FEW009 BKN020 OVC031 09/07 A3016 RMK AO2 RAE01 SLP217 P0000 T00890072', 'KAWO 121856Z AUTO 29004KT 10SM -RA SCT009 BKN018 OVC025 08/07 A3015 RMK AO2 SLP215 P0001 T00830067', 'KAWO 121813Z AUTO 33003KT 10SM -RA SCT006 SCT012 OVC018 08/07 A3015 RMK AO2 P0001', 'KAWO 121756Z AUTO 34003KT 10SM -RA BKN006 BKN012 OVC016 07/07 A3014 RMK AO2 CIG 004V009 SLP212 P0000 60003 T00720067 10072 20067 53020', 'KAWO 121656Z AUTO 34004KT 10SM -RA OVC016 07/07 A3012 RMK AO2 RAB27 SLP205 P0000 T00720067', 'KAWO 121556Z AUTO 00000KT 10SM OVC018 07/06 A3010 RMK AO2 RAE51 SLP197 P0000 T00720061', 'KAWO 121522Z AUTO 00000KT 10SM -RA SCT009 OVC018 07/06 A3009 RMK AO2 P0000', 'KAWO 121456Z AUTO 00000KT 10SM -RA OVC020 07/06 A3008 RMK AO2 SLP191 P0001 60003 T00670056 53008', 'KAWO 121356Z AUTO 10005KT 10SM -RA OVC022 07/06 A3007 RMK AO2 SLP187 P0002 T00720061', 'KAWO 121256Z AUTO 12006KT 10SM -RA OVC016 07/06 A3007 RMK AO2 SLP186 P0000 T00720061', 'KAWO 121156Z AUTO 14004KT 10SM -RA OVC013 07/06 A3006 RMK AO2 SLP184 P0002 60002 7//// T00720061 10094 20072 50001', 'KAWO 121056Z AUTO 14006KT 10SM -RA OVC019 08/06 A3006 RMK AO2 SLP183 P0000 T00780061']","['2024-02-15 09:56:00', '2024-02-15 09:12:00', '2024-02-15 08:56:00', '2024-02-15 07:56:00', '2024-02-15 06:56:00', '2024-02-15 05:56:00', '2024-02-15 04:56:00', '2024-02-15 03:56:00', '2024-02-15 02:56:00', '2024-02-15 01:56:00', '2024-02-15 00:56:00', '2024-02-14 23:56:00', '2024-02-14 22:56:00', '2024-02-14 21:56:00', '2024-02-14 20:56:00', '2024-02-14 19:56:00', '2024-02-14 18:56:00', '2024-02-14 17:56:00', '2024-02-14 16:56:00', '2024-02-14 15:56:00', '2024-02-14 14:56:00', '2024-02-14 13:56:00', '2024-02-14 12:56:00', '2024-02-14 11:56:00', '2024-02-14 10:56:00', '2024-02-14 09:56:00', '2024-02-14 08:56:00', '2024-02-14 07:56:00', '2024-02-14 06:56:00', '2024-02-14 05:56:00', '2024-02-14 04:56:00', '2024-02-14 03:56:00', '2024-02-14 02:56:00', '2024-02-14 01:56:00', '2024-02-14 00:56:00', '2024-02-13 23:56:00', '2024-02-13 22:56:00', '2024-02-13 21:56:00', '2024-02-13 20:56:00', '2024-02-13 20:28:00', '2024-02-13 19:56:00', '2024-02-13 18:56:00', '2024-02-13 17:56:00', '2024-02-13 16:56:00', '2024-02-13 15:56:00', '2024-02-13 15:20:00', '2024-02-13 14:56:00', '2024-02-13 14:29:00', '2024-02-13 13:58:00', '2024-02-13 13:17:00', '2024-02-13 12:56:00', '2024-02-13 12:14:00', '2024-02-13 11:56:00', '2024-02-13 11:28:00', '2024-02-13 10:56:00', '2024-02-13 10:26:00', '2024-02-13 09:56:00', '2024-02-13 09:18:00', '2024-02-13 08:56:00', '2024-02-13 08:22:00', '2024-02-13 07:56:00', '2024-02-13 06:56:00', '2024-02-13 06:26:00', '2024-02-13 05:56:00', '2024-02-13 04:56:00', '2024-02-13 04:27:00', '2024-02-13 03:56:00', '2024-02-13 03:18:00', '2024-02-13 02:56:00', '2024-02-13 01:56:00', '2024-02-13 00:56:00', '2024-02-12 23:56:00', '2024-02-12 23:20:00', '2024-02-12 22:56:00', '2024-02-12 22:04:00', '2024-02-12 21:56:00', '2024-02-12 20:56:00', '2024-02-12 19:56:00', '2024-02-12 18:56:00', '2024-02-12 18:13:00', '2024-02-12 17:56:00', '2024-02-12 16:56:00', '2024-02-12 15:56:00', '2024-02-12 15:22:00', '2024-02-12 14:56:00', '2024-02-12 13:56:00', '2024-02-12 12:56:00', '2024-02-12 11:56:00', '2024-02-12 10:56:00']"
