country,airport,METARs,UTC/Time
Cuba, Camaguey Ignacio Agramonte International Airport (CMW/MUCM) ,"['MUCM 081750Z 02016KT 9000 SCT020 25/12 Q1020', 'MUCM 081650Z 02013KT 9000 SCT020 24/12 Q1020', 'MUCM 081550Z 01017KT 9000 SCT020 23/12 Q1021', 'MUCM 081450Z 03014KT 9000 SCT020 23/13 Q1021', 'MUCM 081350Z 01012KT 9000 FEW020 21/15 Q1020', 'MUCM 081250Z VRB02KT 9000 BKN020 18/14 Q1019', 'MUCM 081150Z 36004KT 9000 FEW016 BKN070 17/13 Q1019', 'MUCM 081050Z 36007KT 9000 BKN070 17/14 Q1018', 'MUCM 080950Z VRB03KT 9000 NSC 15/13 Q1017', 'MUCM 080850Z 35005KT 9000 NSC 17/14 Q1017', 'MUCM 080750Z 34004KT 9000 NSC 16/14 Q1017', 'MUCM 080650Z 35006KT 9000 NSC 17/15 Q1018', 'MUCM 080550Z VRB02KT 9000 NSC 16/14 Q1018', 'MUCM 080450Z VRB03KT 9000 NSC 17/15 Q1018', 'MUCM 080350Z 34006KT 9000 FEW025 18/16 Q1018', 'MUCM 080250Z 34002KT 9000 FEW020 17/16 Q1018', 'MUCM 080150Z 03003KT 9000 FEW020 17/16 Q1018', 'MUCM 080050Z 35005KT 9000 FEW020 19/17 Q1017', 'MUCM 072350Z 03007KT 9000 FEW020 19/16 Q1016', 'MUCM 072250Z 36008KT 9000 FEW020 21/16 Q1016', 'MUCM 072150Z 36012KT 9000 SCT025 22/15 Q1015', 'MUCM 072050Z 35013KT 9000 SCT028 23/15 Q1015', 'MUCM 071950Z 34015KT 9000 SCT030 24/14 Q1015', 'MUCM 071850Z 34013KT 9000 BKN028 25/15 Q1015', 'MUCM 071750Z 32010KT 9000 SCT028 24/15 Q1015', 'MUCM 071650Z 33008KT 290V360 9000 SCT024 23/15 Q1016', 'MUCM 071550Z 30012KT 9000 SCT020 22/15 Q1017', 'MUCM 071450Z 29010KT 9000 FEW020 22/15 Q1017', 'MUCM 071350Z 26006KT 9000 FEW018 18/16 Q1016', 'MUCM 071250Z 25006KT 9000 FEW016 15/13 Q1015', 'MUCM 071150Z 24006KT 9000 FEW020 13/11 Q1014', 'MUCM 071050Z 24007KT 9000 SKC 14/12 Q1013', 'MUCM 070950Z 25008KT 9000 SKC 14/13 Q1013', 'MUCM 070850Z 24005KT 9000 SKC 13/12 Q1012', 'MUCM 070750Z 23006KT 9000 SKC 14/12 Q1012', 'MUCM 070650Z 24007KT 9000 SKC 14/12 Q1012', 'MUCM 070550Z 25007KT 9000 SKC 15/12 Q1012', 'MUCM 070450Z 24006KT 9000 SKC 15/12 Q1012', 'MUCM 070350Z 26008KT 9000 SKC 17/12 Q1012', 'MUCM 070250Z 27005KT 240V300 9000 SKC 17/13 Q1012', 'MUCM 070150Z 29007KT 9000 NSC 17/12 Q1011', 'MUCM 070050Z 28004KT 9000 NSC 18/13 Q1010', 'MUCM 062350Z 24004KT 200V270 9000 SCT020 19/13 Q1009', 'MUCM 062250Z 29007KT 9000 SCT020 22/13 Q1008', 'MUCM 062150Z 29009KT 9000 SCT020 24/13 Q1007', 'MUCM 062050Z 25014KT 9000 SCT020 25/11 Q1007', 'MUCM 061950Z 26013KT 9000 SCT020 24/12 Q1006', 'MUCM 061850Z 26016KT 9000 SCT020 24/13 Q1007', 'MUCM 061750Z 25017KT 9000 SCT020 24/13 Q1007', 'MUCM 061650Z 26016KT 230V290 9000 SCT020 23/13 Q1008', 'MUCM 061550Z 26017KT 9000 FEW020 22/13 Q1008', 'MUCM 061450Z 26014KT 9000 FEW025 21/14 Q1008', 'MUCM 061350Z 26013KT 9000 FEW030 19/16 Q1007', 'MUCM 061250Z 25014KT 8000 BKN020 18/17 Q1006', 'MUCM 061150Z 21009KT 8000 BKN020 18/17 Q1005', 'MUCM 061050Z 23009KT 8000 BKN020 18/17 Q1004', 'MUCM 061002Z 20010KT 7000 -RA BKN020 18/16 Q1004', 'MUCM 060950Z 20005KT 160V220 3000 SHRA OVC020 17/16 Q1004', 'MUCM 060850Z 18006KT 150V220 8000 -RA BKN020 17/15 Q1004', 'MUCM 060750Z 17004KT 9000 SCT020 17/14 Q1004', 'MUCM 060650Z 24006KT 9000 SCT020 18/14 Q1004', 'MUCM 060550Z 28009KT 9000 BKN020 20/16 Q1004', 'MUCM 060450Z 22008KT 9000 FEW020 20/17 Q1004', 'MUCM 060350Z 21007KT 9000 FEW020 20/16 Q1004', 'MUCM 060250Z 21008KT 9000 SKC 21/16 Q1004', 'MUCM 060150Z 23013KT 9000 SKC 22/16 Q1004', 'MUCM 060050Z 23013KT 9000 FEW020 22/18 Q1003', 'MUCM 052350Z 23013KT 9000 FEW020 24/21 Q1002', 'MUCM 052250Z 20007KT 9000 FEW018 BKN070 23/20 Q1002', 'MUCM 052150Z 19008KT 9000 FEW020 BKN060 24/19 Q1002', 'MUCM 052050Z 20008KT 9000 FEW020 BKN060 23/22 Q1002', 'MUCM 051950Z 22010KT 8000 SCT018TCU BKN030 23/22 Q1002', 'MUCM 051921Z 23019G43KT 190V260 0800 +SHRA BKN018TCU 23/17 Q1002']","['2024-02-08 17:50:00', '2024-02-08 16:50:00', '2024-02-08 15:50:00', '2024-02-08 14:50:00', '2024-02-08 13:50:00', '2024-02-08 12:50:00', '2024-02-08 11:50:00', '2024-02-08 10:50:00', '2024-02-08 09:50:00', '2024-02-08 08:50:00', '2024-02-08 07:50:00', '2024-02-08 06:50:00', '2024-02-08 05:50:00', '2024-02-08 04:50:00', '2024-02-08 03:50:00', '2024-02-08 02:50:00', '2024-02-08 01:50:00', '2024-02-08 00:50:00', '2024-02-07 23:50:00', '2024-02-07 22:50:00', '2024-02-07 21:50:00', '2024-02-07 20:50:00', '2024-02-07 19:50:00', '2024-02-07 18:50:00', '2024-02-07 17:50:00', '2024-02-07 16:50:00', '2024-02-07 15:50:00', '2024-02-07 14:50:00', '2024-02-07 13:50:00', '2024-02-07 12:50:00', '2024-02-07 11:50:00', '2024-02-07 10:50:00', '2024-02-07 09:50:00', '2024-02-07 08:50:00', '2024-02-07 07:50:00', '2024-02-07 06:50:00', '2024-02-07 05:50:00', '2024-02-07 04:50:00', '2024-02-07 03:50:00', '2024-02-07 02:50:00', '2024-02-07 01:50:00', '2024-02-07 00:50:00', '2024-02-06 23:50:00', '2024-02-06 22:50:00', '2024-02-06 21:50:00', '2024-02-06 20:50:00', '2024-02-06 19:50:00', '2024-02-06 18:50:00', '2024-02-06 17:50:00', '2024-02-06 16:50:00', '2024-02-06 15:50:00', '2024-02-06 14:50:00', '2024-02-06 13:50:00', '2024-02-06 12:50:00', '2024-02-06 11:50:00', '2024-02-06 10:50:00', '2024-02-06 10:02:00', '2024-02-06 09:50:00', '2024-02-06 08:50:00', '2024-02-06 07:50:00', '2024-02-06 06:50:00', '2024-02-06 05:50:00', '2024-02-06 04:50:00', '2024-02-06 03:50:00', '2024-02-06 02:50:00', '2024-02-06 01:50:00', '2024-02-06 00:50:00', '2024-02-05 23:50:00', '2024-02-05 22:50:00', '2024-02-05 21:50:00', '2024-02-05 20:50:00', '2024-02-05 19:50:00', '2024-02-05 19:21:00']"
Cuba, Cayo Coco Jardines del Rey Airport (CCC/MUCC) ,"['MUCC 081750Z 09014KT 9000 FEW020 23/16 Q1020', 'MUCC 081650Z 09014KT 9000 FEW020 25/13 Q1021', 'MUCC 081550Z 06015KT 9000 FEW020 24/11 Q1021', 'MUCC 081450Z 07016KT 9000 SCT020 24/14 Q1021', 'MUCC 081350Z 05014KT 020V080 9000 SCT020 22/15 Q1021', 'MUCC 081250Z 08010KT 050V110 9000 BKN020 20/15 Q1020', 'MUCC 081150Z 06013KT 9000 SCT020 21/12 Q1019', 'MUCC 081050Z 05012KT 9000 FEW020 21/12 Q1018', 'MUCC 080950Z 06012KT 020V080 9000 SCT020 21/11 Q1018', 'MUCC 080850Z 06013KT 9000 SCT020 22/12 Q1017', 'MUCC 080750Z 06012KT 9000 SCT020 22/12 Q1017', 'MUCC 080650Z 06011KT 9000 SCT020 21/14 Q1018', 'MUCC 080550Z 05013KT 9000 SCT020 21/12 Q1018', 'MUCC 080450Z 05011KT 9000 SCT020 21/14 Q1018', 'MUCC 080350Z 05012KT 9000 SCT020 21/14 Q1018', 'MUCC 080250Z 05012KT 9000 SCT020 22/14 Q1018', 'MUCC 080150Z 04010KT 9000 SCT020 22/15 Q1018', 'MUCC 080050Z 04011KT 9000 SCT020 22/15 Q1017', 'MUCC 072350Z 02010KT 9000 SCT020 22/16 Q1016', 'MUCC 072250Z 02011KT 9000 SCT020 22/16 Q1016', 'MUCC 072150Z 02011KT 350V050 9000 FEW020 23/16 Q1015', 'MUCC 072050Z 01013KT 9000 FEW020 23/16 Q1015', 'MUCC 071950Z 03014KT 9000 SCT020 24/16 Q1015', 'MUCC 071850Z 02014KT 350V050 9000 SCT020 24/15 Q1015', 'MUCC 071750Z 03013KT 360V060 9000 SCT020 24/16 Q1015', 'MUCC 071650Z 02013KT 9000 SCT020 24/16 Q1016', 'MUCC 071550Z 02016KT 9000 SCT020 24/16 Q1016', 'MUCC 071450Z 02013KT 9000 SCT020 23/15 Q1016', 'MUCC 071350Z 02014KT 9000 SCT020 22/15 Q1015', 'MUCC 071250Z 36010KT 320V030 9000 BKN018 22/16 Q1014', 'MUCC 071150Z 33004KT 300V360 7000 VCSH BKN018 20/14 Q1013', 'MUCC 071050Z 35008KT 9000 SCT020 20/14 Q1012', 'MUCC 070950Z 35011KT 9000 FEW020 21/14 Q1011', 'MUCC 070850Z 35013KT 9000 FEW020 21/14 Q1011', 'MUCC 070750Z 33012KT 9000 FEW020 21/14 Q1010', 'MUCC 070650Z 32009KT 9000 FEW020 21/14 Q1010', 'MUCC 070550Z 33010KT 9000 FEW020 20/14 Q1011', 'MUCC 070450Z 33009KT 9000 FEW020 20/13 Q1011', 'MUCC 070350Z 33012KT 9000 FEW020 21/14 Q1011', 'MUCC 070250Z 32013KT 9000 FEW020 21/12 Q1010', 'MUCC 070150Z 30013KT 9000 FEW020 20/16 Q1009', 'MUCC 070050Z 30011KT 9000 FEW020 20/14 Q1009', 'MUCC 062350Z 30013KT 9000 FEW020 20/13 Q1007', 'MUCC 062250Z 31014G25KT 9000 FEW020 21/13 Q1007', 'MUCC 062050Z 31018G28KT 280V340 9000 SCT020 23/14 Q1006', 'MUCC 061950Z 32021KT 290V350 9000 SCT020 23/15 Q1006', 'MUCC 061850Z 32019G29KT 9000 SCT020 24/14 Q1006', 'MUCC 061750Z 29016KT 270V330 9000 BKN020 24/16 Q1006', 'MUCC 061650Z 31017KT 9000 SCT020 24/15 Q1006', 'MUCC 061550Z 30018KT 9000 SCT020 22/15 Q1007', 'MUCC 061450Z 29016KT 260V320 9000 SCT020 21/15 Q1006', 'MUCC 061350Z 28015KT 9000 BKN020 20/15 Q1006', 'MUCC 061250Z 29016KT 9000 FEW020 19/15 Q1005', 'MUCC 061150Z 29013KT 9000 SCT018 19/16 Q1004', 'MUCC 061050Z 26010KT 9000 SCT020 19/15 Q1003', 'MUCC 060950Z 27011KT 9000 SCT020 19/15 Q1002', 'MUCC 060850Z 26011KT 9000 SCT020 20/14 Q1002', 'MUCC 060750Z 26010KT 9000 SCT020 20/15 Q1002', 'MUCC 060650Z 28009KT 9000 SCT020 19/15 Q1002', 'MUCC 060550Z 29012KT 9000 SCT020 20/15 Q1003', 'MUCC 060450Z 29011KT 9000 FEW020 20/16 Q1003', 'MUCC 060350Z 28007KT 9000 FEW020 20/17 Q1003', 'MUCC 060250Z 31014KT 9000 SCT020 21/17 Q1003', 'MUCC 060150Z 28018KT 9000 SCT020 24/15 Q1002', 'MUCC 060050Z 26013KT 9000 SCT020 24/18 Q1001', 'MUCC 052350Z 25012G22KT 9000 SCT020 25/18 Q1000', 'MUCC 052250Z 26012KT 9000 SCT020 26/15 Q999', 'MUCC 052150Z 26013KT 9000 SCT025 28/17 Q999', 'MUCC 052050Z 23010KT 200V260 9000 SCT025 28/22 Q999', 'MUCC 051950Z 22006KT 170V250 9000 FEW020 BKN030 26/21 Q999']","['2024-02-08 17:50:00', '2024-02-08 16:50:00', '2024-02-08 15:50:00', '2024-02-08 14:50:00', '2024-02-08 13:50:00', '2024-02-08 12:50:00', '2024-02-08 11:50:00', '2024-02-08 10:50:00', '2024-02-08 09:50:00', '2024-02-08 08:50:00', '2024-02-08 07:50:00', '2024-02-08 06:50:00', '2024-02-08 05:50:00', '2024-02-08 04:50:00', '2024-02-08 03:50:00', '2024-02-08 02:50:00', '2024-02-08 01:50:00', '2024-02-08 00:50:00', '2024-02-07 23:50:00', '2024-02-07 22:50:00', '2024-02-07 21:50:00', '2024-02-07 20:50:00', '2024-02-07 19:50:00', '2024-02-07 18:50:00', '2024-02-07 17:50:00', '2024-02-07 16:50:00', '2024-02-07 15:50:00', '2024-02-07 14:50:00', '2024-02-07 13:50:00', '2024-02-07 12:50:00', '2024-02-07 11:50:00', '2024-02-07 10:50:00', '2024-02-07 09:50:00', '2024-02-07 08:50:00', '2024-02-07 07:50:00', '2024-02-07 06:50:00', '2024-02-07 05:50:00', '2024-02-07 04:50:00', '2024-02-07 03:50:00', '2024-02-07 02:50:00', '2024-02-07 01:50:00', '2024-02-07 00:50:00', '2024-02-06 23:50:00', '2024-02-06 22:50:00', '2024-02-06 20:50:00', '2024-02-06 19:50:00', '2024-02-06 18:50:00', '2024-02-06 17:50:00', '2024-02-06 16:50:00', '2024-02-06 15:50:00', '2024-02-06 14:50:00', '2024-02-06 13:50:00', '2024-02-06 12:50:00', '2024-02-06 11:50:00', '2024-02-06 10:50:00', '2024-02-06 09:50:00', '2024-02-06 08:50:00', '2024-02-06 07:50:00', '2024-02-06 06:50:00', '2024-02-06 05:50:00', '2024-02-06 04:50:00', '2024-02-06 03:50:00', '2024-02-06 02:50:00', '2024-02-06 01:50:00', '2024-02-06 00:50:00', '2024-02-05 23:50:00', '2024-02-05 22:50:00', '2024-02-05 21:50:00', '2024-02-05 20:50:00', '2024-02-05 19:50:00']"
Cuba, Cayo Largo del Sur Vilo Acuna Airport (CYO/MUCL) ,"['MUCL 081750Z 07010KT 030V110 9000 FEW020 24/15 Q1020', 'MUCL 081650Z 08011KT 030V120 9000 FEW020 25/14 Q1021', 'MUCL 081550Z 08010G21KT 040V120 9000 FEW020 24/14 Q1021', 'MUCL 081450Z 08009KT 030V120 9000 FEW020 24/14 Q1021', 'MUCL 081350Z 07008KT 030V110 9000 FEW020 22/15 Q1021', 'MUCL 081250Z 06008KT 030V120 9000 FEW020 21/16 Q1020', 'MUCL 081150Z 07006KT 020V110 9000 FEW020 20/16 Q1019', 'MUCL 081050Z AUTO 05005KT 020V080 19/17 Q1019', 'MUCL 080950Z AUTO 05005KT 010V080 19/17 Q1018', 'MUCL 080850Z AUTO 04005KT 360V080 19/17 Q1018', 'MUCL 080750Z AUTO 04007KT 360V090 20/17 Q1018', 'MUCL 080650Z AUTO VRB08KT 20/16 Q1018', 'MUCL 080550Z AUTO VRB08KT 20/16 Q1019', 'MUCL 080450Z AUTO VRB08KT 20/16 Q1019', 'MUCL 080350Z AUTO VRB09KT 20/16 Q1019', 'MUCL 080250Z AUTO VRB10KT 20/16 Q1019', 'MUCL 080150Z AUTO VRB11KT 21/15 Q1019', 'MUCL 080050Z AUTO VRB09KT 21/15 Q1018', 'MUCL 072350Z 02008KT 330V060 9000 SKC 22/16 Q1017', 'MUCL 072250Z 33004KT 300V360 9000 SKC 22/16 Q1017', 'MUCL 072150Z 31007KT 290V350 9000 SKC 23/15 Q1016', 'MUCL 072050Z 31007KT 280V350 CAVOK 24/15 Q1016', 'MUCL 071950Z 31008KT 270V350 CAVOK 24/13 Q1017', 'MUCL 071850Z 34006KT CAVOK 22/13 Q1017', 'MUCL 071750Z 36006KT 330V050 9000 FEW020 23/13 Q1018', 'MUCL 071650Z 02007KT 310V080 9000 FEW020 22/13 Q1018', 'MUCL 071550Z 01009KT 320V060 9000 FEW020 22/13 Q1019', 'MUCL 071450Z 35009KT 9000 FEW020 21/13 Q1018', 'MUCL 071350Z 35009KT 9000 FEW020 20/13 Q1018', 'MUCL 071250Z 35010KT 9000 FEW020 19/13 Q1017', 'MUCL 071150Z 35010KT 9000 FEW020 19/13 Q1016', 'MUCL 071050Z AUTO 34012KT 19/13 Q1016', 'MUCL 070950Z AUTO 35012KT 19/12 Q1015', 'MUCL 070850Z AUTO 34012KT 19/12 Q1014', 'MUCL 070750Z AUTO 34014KT 20/12 Q1014', 'MUCL 070650Z AUTO 34014G24KT 20/12 Q1014', 'MUCL 070550Z AUTO 34016KT 20/12 Q1014', 'MUCL 070450Z AUTO 33015KT 20/12 Q1014', 'MUCL 070350Z AUTO 33018KT 300V360 20/12 Q1014', 'MUCL 070250Z AUTO 33014KT 300V360 20/13 Q1013', 'MUCL 070150Z AUTO 33015G25KT 300V360 21/14 Q1013', 'MUCL 070050Z AUTO 33016G26KT 21/13 Q1012', 'MUCL 062350Z 32015KT 9000 FEW020 21/14 Q1011', 'MUCL 062250Z 31015G27KT 290V350 9000 FEW020 22/14 Q1010', 'MUCL 062150Z 31015KT 290V350 9000 FEW020 23/13 Q1010', 'MUCL 062050Z 31016KT 9999 FEW020 23/12 Q1010', 'MUCL 061950Z 31015G28KT 280V360 9000 FEW020 24/13 Q1010', 'MUCL 061850Z 32014G24KT 290V350 9000 FEW020 24/15 Q1010', 'MUCL 061750Z 33013G23KT 9000 FEW020 23/15 Q1010', 'MUCL 061650Z 33014KT 300V360 9000 FEW020 23/15 Q1010', 'MUCL 061550Z 32015KT 290V350 9000 FEW020 23/14 Q1010', 'MUCL 061450Z 32015KT 280V350 9000 FEW020 23/14 Q1010', 'MUCL 061350Z 32014KT 280V350 9000 FEW020 22/14 Q1009', 'MUCL 061250Z 32015KT 280V340 9000 FEW020 21/12 Q1008', 'MUCL 061150Z 31016KT 9000 BKN018 20/13 Q1007', 'MUCL 061050Z AUTO 31013KT 280V340 20/XX Q1006', 'MUCL 060950Z AUTO 31016G28KT 20/14 Q1005', 'MUCL 060850Z AUTO 30018G28KT 20/13 Q1004', 'MUCL 060750Z AUTO 29019KT 20/15 Q1004', 'MUCL 060650Z AUTO 30018G28KT 20/15 Q1003', 'MUCL 060550Z AUTO 28023KT 21/16 Q1003', 'MUCL 060450Z AUTO 27017KT 21/17 Q1004', 'MUCL 060350Z AUTO 27019KT 22/15 Q1004', 'MUCL 060250Z AUTO 29022G33KT 22/14 Q1004', 'MUCL 060150Z AUTO 30013KT 22/16 Q1004', 'MUCL 060050Z AUTO 30013KT 22/16 Q1003', 'MUCL 052350Z 28021KT 9000 SCT020 24/14 Q1002', 'MUCL 052250Z 28024KT 9000 SCT020 25/14 Q1002', 'MUCL 052150Z 26023G33KT 9000 SCT020 26/16 Q1002', 'MUCL 052050Z 27021KT 9000 FEW020 27/14 Q1001', 'MUCL 051950Z 28023KT 9000 FEW020 27/16 Q1002']","['2024-02-08 17:50:00', '2024-02-08 16:50:00', '2024-02-08 15:50:00', '2024-02-08 14:50:00', '2024-02-08 13:50:00', '2024-02-08 12:50:00', '2024-02-08 11:50:00', '2024-02-08 10:50:00', '2024-02-08 09:50:00', '2024-02-08 08:50:00', '2024-02-08 07:50:00', '2024-02-08 06:50:00', '2024-02-08 05:50:00', '2024-02-08 04:50:00', '2024-02-08 03:50:00', '2024-02-08 02:50:00', '2024-02-08 01:50:00', '2024-02-08 00:50:00', '2024-02-07 23:50:00', '2024-02-07 22:50:00', '2024-02-07 21:50:00', '2024-02-07 20:50:00', '2024-02-07 19:50:00', '2024-02-07 18:50:00', '2024-02-07 17:50:00', '2024-02-07 16:50:00', '2024-02-07 15:50:00', '2024-02-07 14:50:00', '2024-02-07 13:50:00', '2024-02-07 12:50:00', '2024-02-07 11:50:00', '2024-02-07 10:50:00', '2024-02-07 09:50:00', '2024-02-07 08:50:00', '2024-02-07 07:50:00', '2024-02-07 06:50:00', '2024-02-07 05:50:00', '2024-02-07 04:50:00', '2024-02-07 03:50:00', '2024-02-07 02:50:00', '2024-02-07 01:50:00', '2024-02-07 00:50:00', '2024-02-06 23:50:00', '2024-02-06 22:50:00', '2024-02-06 21:50:00', '2024-02-06 20:50:00', '2024-02-06 19:50:00', '2024-02-06 18:50:00', '2024-02-06 17:50:00', '2024-02-06 16:50:00', '2024-02-06 15:50:00', '2024-02-06 14:50:00', '2024-02-06 13:50:00', '2024-02-06 12:50:00', '2024-02-06 11:50:00', '2024-02-06 10:50:00', '2024-02-06 09:50:00', '2024-02-06 08:50:00', '2024-02-06 07:50:00', '2024-02-06 06:50:00', '2024-02-06 05:50:00', '2024-02-06 04:50:00', '2024-02-06 03:50:00', '2024-02-06 02:50:00', '2024-02-06 01:50:00', '2024-02-06 00:50:00', '2024-02-05 23:50:00', '2024-02-05 22:50:00', '2024-02-05 21:50:00', '2024-02-05 20:50:00', '2024-02-05 19:50:00']"
Cuba, Cienfuegos Jaime Gonzalez Airport (CFG/MUCF) ,"['MUCF 081750Z 06010KT 020V110 9999 SCT025 26/17 Q1020', 'MUCF 081650Z 07012KT 020V110 9999 SCT025 24/16 Q1021', 'MUCF 081551Z 08010KT 040V130 9999 BKN025 23/16 Q1022', 'MUCF 081451Z 07009KT 030V100 9999 FEW025 22/16 Q1021', 'MUCF 081350Z 07007KT 020V090 9999 FEW025 19/15 Q1021', 'MUCF 081251Z 05006KT 9999 FEW025 16/14 Q1021', 'MUCF 081159Z AUTO 04006KT 14/14 Q1020', 'MUCF 081059Z AUTO 06005KT 14/14 Q1019', 'MUCF 080959Z AUTO 04004KT 14/13 Q1019', 'MUCF 080859Z AUTO 01004KT 14/14 Q1019', 'MUCF 080759Z AUTO 01004KT 14/14 Q1018', 'MUCF 080659Z AUTO VRB02KT 15/15 Q1019', 'MUCF 080559Z AUTO 03005KT 16/16 Q1019', 'MUCF 080459Z AUTO 04003KT 17/16 Q1020', 'MUCF 080359Z AUTO 02004KT 18/18 Q1020', 'MUCF 080259Z AUTO 07003KT 17/17 Q1020', 'MUCF 080159Z AUTO 03004KT 18/17 Q1019', 'MUCF 080059Z AUTO 02003KT 350V050 18/17 Q1019', 'MUCF 072359Z AUTO 06005KT 020V090 18/17 Q1018', 'MUCF 072259Z AUTO 05010KT 020V090 20/16 Q1018', 'MUCF 072159Z AUTO 03010KT 010V070 24/14 Q1017', 'MUCF 072052Z 02011KT 350V050 9999 SCT025 26/14 Q1016', 'MUCF 071950Z 02012KT 350V070 9999 SCT025 26/14 Q1016', 'MUCF 071850Z 02010KT 360V070 9999 BKN025 24/14 Q1017', 'MUCF 071752Z 02009KT 320V070 9999 BKN025 25/15 Q1017', 'MUCF 071650Z 01008KT 9999 BKN025 24/15 Q1018', 'MUCF 071550Z 02011KT 340V070 9999 BKN025 23/15 Q1018', 'MUCF 071450Z 01010KT 9999 FEW025 21/14 Q1018', 'MUCF 071350Z 03004KT 9999 FEW025 16/13 Q1018', 'MUCF 071253Z 08003KT 9999 FEW025 12/12 Q1017', 'MUCF 071159Z AUTO 05003KT 11/11 Q1017', 'MUCF 071059Z AUTO 04002KT 11/10 Q1016', 'MUCF 070959Z AUTO 04003KT 12/11 Q1015', 'MUCF 070859Z AUTO 35003KT 320V020 13/11 Q1014', 'MUCF 070759Z AUTO 36002KT 12/11 Q1014', 'MUCF 070659Z AUTO VRB02KT 13/12 Q1014', 'MUCF 070559Z AUTO 01004KT 13/12 Q1014', 'MUCF 070459Z AUTO 03004KT 14/13 Q1014', 'MUCF 070359Z AUTO 36004KT 15/13 Q1014', 'MUCF 070259Z AUTO 01005KT 15/13 Q1014', 'MUCF 070159Z AUTO 36005KT 330V030 17/13 Q1013', 'MUCF 070059Z AUTO 35007KT 310V020 19/14 Q1012', 'MUCF 062359Z AUTO 35009KT 20/13 Q1011', 'MUCF 062259Z AUTO 34010KT 22/13 Q1010', 'MUCF 062159Z AUTO 34009KT 310V020 23/11 Q1009', 'MUCF 062050Z 33012KT 280V360 9999 SCT025 25/11 Q1009', 'MUCF 061950Z 35010KT 320V030 9999 BKN025 25/14 Q1009', 'MUCF 061850Z 33011KT 280V360 9999 BKN025 24/13 Q1009', 'MUCF 061750Z 34010KT 310V020 9999 BKN025 24/14 Q1009', 'MUCF 061650Z 34012KT 310V030 9999 SCT025 23/14 Q1009', 'MUCF 061550Z 33012KT 290V360 9999 SCT025 22/14 Q1010', 'MUCF 061450Z 32008KT 270V350 9999 FEW025 21/15 Q1009', 'MUCF 061350Z 32007KT 280V360 9999 FEW025 19/15 Q1008', 'MUCF 061250Z 32005KT 270V360 9999 FEW025 17/14 Q1008', 'MUCF 052050Z 24018KT 9999 BKN025 26/18 Q1001', 'MUCF 051950Z 24015KT 9999 SCT025 27/17 Q1001']","['2024-02-08 17:50:00', '2024-02-08 16:50:00', '2024-02-08 15:51:00', '2024-02-08 14:51:00', '2024-02-08 13:50:00', '2024-02-08 12:51:00', '2024-02-08 11:59:00', '2024-02-08 10:59:00', '2024-02-08 09:59:00', '2024-02-08 08:59:00', '2024-02-08 07:59:00', '2024-02-08 06:59:00', '2024-02-08 05:59:00', '2024-02-08 04:59:00', '2024-02-08 03:59:00', '2024-02-08 02:59:00', '2024-02-08 01:59:00', '2024-02-08 00:59:00', '2024-02-07 23:59:00', '2024-02-07 22:59:00', '2024-02-07 21:59:00', '2024-02-07 20:52:00', '2024-02-07 19:50:00', '2024-02-07 18:50:00', '2024-02-07 17:52:00', '2024-02-07 16:50:00', '2024-02-07 15:50:00', '2024-02-07 14:50:00', '2024-02-07 13:50:00', '2024-02-07 12:53:00', '2024-02-07 11:59:00', '2024-02-07 10:59:00', '2024-02-07 09:59:00', '2024-02-07 08:59:00', '2024-02-07 07:59:00', '2024-02-07 06:59:00', '2024-02-07 05:59:00', '2024-02-07 04:59:00', '2024-02-07 03:59:00', '2024-02-07 02:59:00', '2024-02-07 01:59:00', '2024-02-07 00:59:00', '2024-02-06 23:59:00', '2024-02-06 22:59:00', '2024-02-06 21:59:00', '2024-02-06 20:50:00', '2024-02-06 19:50:00', '2024-02-06 18:50:00', '2024-02-06 17:50:00', '2024-02-06 16:50:00', '2024-02-06 15:50:00', '2024-02-06 14:50:00', '2024-02-06 13:50:00', '2024-02-06 12:50:00', '2024-02-05 20:50:00', '2024-02-05 19:50:00']"
Cuba, Guantanamo Bay Airport (NBW/MUGM) ,"['MUGM 081751Z 01011G19KT 10SM SCT055 28/14 A3003 RMK AO2 SLP169 T02830144 10289 20194 58015 $ \x03', 'MUGM 081651Z 36012G20KT 10SM SCT045 28/13 A3005 RMK AO2 SLP175 T02830128 $ \x03', 'MUGM 081551Z 33010G20KT 10SM SCT045 27/16 A3007 RMK AO2 SLP181 T02720156 $ \x03', 'MUGM 081451Z 33013KT 10SM SCT045 26/16 A3007 RMK AO2 SLP184 T02610161 51019 $ \x03', 'MUGM 081351Z 32012KT 10SM FEW030 24/16 A3006 RMK AO2 SLP181 T02390156 $ \x03', 'MUGM 081251Z 31013G18KT 10SM FEW030 21/15 A3004 RMK AO2 SLP173 T02110150 $ \x03', 'MUGM 081151Z AUTO 31012G19KT 10SM FEW030 19/16 A3002 RMK AO2 SLP166 T01940156 10206 20194 53010 TSNO $ \x03', 'MUGM 081051Z 31013KT 10SM FEW090 19/16 A3000 RMK AO2 SLP159 T01940156 $ \x03', 'MUGM 080951Z 32009KT 10SM FEW090 19/17 A2999 RMK AO2 SLP154 T01940167 $ \x03', 'MUGM 080851Z 31011KT 10SM CLR 21/17 A2999 RMK AO2 SLP155 T02060167 55004 $ \x03', 'MUGM 080751Z 32010KT 10SM SCT090 20/17 A2998 RMK AO2 SLP154 T02000172 $ \x03', 'MUGM 080651Z 32010KT 10SM SCT090 21/18 A2999 RMK AO2 SLP154 T02060178 $ \x03', 'MUGM 080551Z 31015G21KT 10SM FEW090 20/17 A3000 RMK AO2 SLP159 T02000172 10233 20200 58003 $ \x03', 'MUGM 080451Z 31014KT 10SM FEW090 21/17 A3001 RMK AO2 SLP162 T02060167 402890178 $ \x03', 'MUGM 080351Z 31010KT 10SM FEW070 21/17 A3001 RMK AO2 SLP163 T02110167 $ \x03', 'MUGM 080251Z 31012KT 10SM FEW070 22/16 A3001 RMK AO2 SLP163 T02170161 51020 $ \x03', 'MUGM 080151Z 31012KT 10SM FEW070 22/17 A2999 RMK AO2 SLP156 T02170167 $ \x03', 'MUGM 080051Z 32010KT 10SM FEW070 22/17 A2997 RMK AO2 SLP149 T02220172 $ \x03', 'MUGM 072351Z 33011KT 10SM FEW070 23/17 A2995 RMK AO2 SLP142 T02330167 10289 20233 51026 $ \x03', 'MUGM 072251Z 35008KT 10SM FEW070 25/16 A2993 RMK AO2 SLP134 T02500161 $ \x03', 'MUGM 072151Z 34015KT 10SM FEW070 27/15 A2990 RMK AO2 SLP125 T02720150 $ \x03', 'MUGM 072051Z 33015G20KT 10SM FEW070 28/11 A2987 RMK AO2 SLP116 T02830111 56016 $ \x03', 'MUGM 071951Z 32013G21KT 10SM FEW065 27/12 A2988 RMK AO2 SLP119 T02720122 $ \x03', 'MUGM 071851Z 33013G20KT 10SM FEW050 27/13 A2989 RMK AO2 PK WND 32027/1831 SLP123 T02720133 $ \x03', 'MUGM 071751Z 31013G23KT 10SM FEW050 27/13 A2992 RMK AO2 SLP132 T02670133 10272 20178 58020 $ \x03', 'MUGM 071651Z 31011G22KT 10SM FEW050 26/13 A2995 RMK AO2 SLP142 T02560133 $ \x03', 'MUGM 071551Z 31017G24KT 10SM FEW050 24/14 A2997 RMK AO2 PK WND 32027/1519 SLP150 T02440139 $ \x03', 'MUGM 071451Z 32015G21KT 10SM FEW050 24/14 A2998 RMK AO2 SLP152 T02390144 51020 $ \x03', 'MUGM 071351Z 32014KT 10SM FEW050 22/14 A2997 RMK AO2 SLP150 T02170144 $ \x03', 'MUGM 071251Z 33017KT 10SM FEW050 19/14 A2995 RMK AO2 SLP143 T01940139 $ \x03', ""MUGM 071151Z 31013KT 10SM FEW050 18/13 A2992 RMK AO2 SLPs\x0f\\\x14jÔH?\x15¦L\x13'LL¦&HL?200 20178 53021 $ \x03"", 'MUGM 071051Z 31012KT 10SM FEW050 18/13 A2989 RMK AO2 SLP122 T01830133 $ \x03', 'MUGM 070951Z 32014KT 10SM FEW050 19/13 A2987 RMK AO2 SLP115 T01890133 $ \x03', 'MUGM 070851Z 32011KT 10SM FEW050 19/14 A2986 RMK AO2 SLP111 T01890144 53003 $ \x03', 'MUGM 070751Z 32010KT 10SM FEW050 19/14 A2985 RMK AO2 SLP109 T01940144 $ \x03', 'MUGM 070651Z 30013G23KT 10SM SCT050 19/14 A2985 RMK AO2 SLP109 T01940144 $ \x03', 'MUGM 070551Z 31013KT 10SM SCT050 19/14 A2985 RMK AO2 SLP108 T01940144 10250 20194 50003 $ \x03', 'MUGM 070451Z 31008KT 10SM SCT050 20/14 A2986 RMK AO2 SLP110 T02000139 402940200 $ \x03', 'MUGM 070351Z 32009KT 10SM SCT050 21/14 A2985 RMK AO2 SLP108 T02110144 $ \x03', 'MUGM 070251Z 32007KT 10SM SCT050 21/15 A2984 RMK AO2 SLP104 T02110150 51024 $ \x03', 'MUGM 070151Z 31007KT 10SM SCT045 22/15 A2982 RMK AO2 SLP097 T02170150 $ \x03', 'MUGM 070051Z 31007KT 10SM FEW040 FEW070 23/14 A2979 RMK AO2 SLP088 VCSH E T02330144 $ \x03', 'MUGM 062351Z 27010KT 10SM FEW040 FEW070 25/16 A2977 RMK AO2 SLP080 VCSH E T02500156 10294 20250 53014 $ \x03', 'MUGM 062251Z 24016G28KT 10SM FEW040 SCT070 26/17 A2974 RMK AO2 PK WND 22029/2155 SLP072 VCSH E T02610167 $ \x03', 'MUGM 062151Z 22023G31KT 10SM FEW070 27/17 A2974 RMK AO2 PK WND 22032/2128 SLP070 T02720172 $ \x03', 'MUGM 062051Z 22023G30KT 10SM FEW040 SCT070 28/18 A2973 RMK AO2 PK WND 23033/2014 SLP066 VCSH NE T02830178 55002 $ \x03', 'MUGM 061951Z 23027G32KT 10SM FEW040 SCT060 28/18 A2972 RMK AO2 PK WND 22036/1915 SLP063 T02830183 $ \x03', 'MUGM 061851Z 22022G29KT 10SM FEW040 SCT060 29/18 A2971 RMK AO2 PK WND 21037/1801 SLP061 T02890183 $ \x03', 'MUGM 061751Z 22026G33KT 10SM FEW040 SCT060 29/18 A2973 RMK AO2 PK WND 22035/1736 SLP069 T02890178 10294 20239 58012 $ \x03', 'MUGM 061651Z 26019G30KT 10SM FEW040 SCT060 29/18 A2975 RMK AO2 PK WND 23030/1649 SLP075 T02890183 $ \x03', 'MUGM 061551Z 31011KT 10SM FEW040 SCT060 27/18 A2976 RMK AO2 PK WND 32026/1526 WSHFT 1438 SLP076 T02720178 $ \x03', 'MUGM 061458Z 31011KT 10SM FEW025 SCT045 SCT060 25/18 A2977 RMK AO2 WSHFT 1438 T02500178 $ \x03', 'MUGM 061351Z 24015G27KT 10SM FEW025 BKN060 27/17 A2974 RMK AO2 PK WND 22038/1317 SLP073 T02720167 $ \x03', 'MUGM 061251Z 25011KT 10SM FEW025 FEW045 BKN060 26/18 A2973 RMK AO2 SLP066 T02560178 $ \x03', 'MUGM 061158Z 25013G19KT 10SM FEW025 FEW065 SCT250 24/18 A2971 RMK AO2 T02440178 $ \x03', 'MUGM 061051Z AUTO 26010KT 10SM FEW049 FEW060 24/16 A2969 RMK AO2 SLP054 T02440161 TSNO $ \x03', 'MUGM 060951Z AUTO 26009KT 10SM FEW055 FEW090 24/17 A2968 RMK AO2 SLP050 T02390172 TSNO $ \x03', 'MUGM 060851Z AUTO 31006KT 10SM FEW050 SCT090 22/18 A2968 RMK AO2 SLP050 T02220183 55002 TSNO $ \x03', 'MUGM 060751Z AUTO 32004KT 10SM CLR 21/19 A2967 RMK AO2 SLP046 T02110189 TSNO $ \x03', 'MUGM 060651Z AUTO 31007KT 10SM FEW110 22/17 A2967 RMK AO2 SLP047 T02220167 TSNO $ \x03', 'MUGM 060551Z AUTO 26004KT 10SM FEW065 BKN100 BKN110 23/18 A2969 RMK AO2 RAE45 SLP051 P0000 60026 T02280183 10267 20228 50001 TSNO $ \x03', 'MUGM 060451Z AUTO 29008KT 10SM -RA SCT038 BKN046 OVC070 23/21 A2972 RMK AO2 RAB50 SLP063 P0000 T02330206 403060217 TSNO $ \x03', 'MUGM 060351Z AUTO 26008KT 10SM FEW060 SCT075 BKN095 24/20 A2969 RMK AO2 SLP056 T02440200 TSNO $ \x03', 'MUGM 060251Z AUTO 24010KT 6SM BR FEW011 SCT031 OVC110 24/23 A2968 RMK AO2 RAB19E50 SLP052 P0015 60026 T02440228 51011 TSNO $ \x03', 'MUGM 060229Z AUTO 24012G25KT 1 3/4SM +RA BR FEW017 BKN023 OVC044 24/22 A2969 RMK AO2 RAB19 P0013 T02390217 TSNO $ \x03', 'MUGM 060158Z 29003KT 10SM BKN023 BKN028 25/22 A2966 RMK AO2 T02500217 $ \x03', 'MUGM 060116Z 19016G24KT 10SM FEW015 BKN035 BKN090 24/22 A2966 RMK AO2 PK WND 19045/0056 WSHFT 0047 RAE15 P0011 T02440222 $ \x03', 'MUGM 060059Z 19029G45KT 1 3/4SM +RA BR FEW015 BKN035 BKN090 24/23 A2965 RMK AO2 PK WND 19045/0056 P0008 T02440228 $ \x03', 'MUGM 052351Z 17014G36KT 4SM -RA BR FEW020 BKN040 BKN055 24/22 A2964 RMK AO2 PK WND 18042/2314 RAB12 SLP036 P0006 60006 T02440222 10306 20244 53005 $ \x03', 'MUGM 052251Z 18022G31KT 7SM FEW020 BKN040 BKN250 28/24 A2962 RMK AO2 PK WND 17032/2207 SLP029 T02780239 $ \x03', 'MUGM 052151Z 18026G32KT 7SM SCT020 SCT050 BKN250 28/24 A2962 RMK AO2 PK WND 17032/2145 SLP030 T02830239 $ \x03', 'MUGM 052051Z 18022G32KT 7SM SCT020 SCT045 BKN250 28/24 A2962 RMK AO2 PK WND 17032/2046 SLP031 T02830239 56017 $ \x03', 'MUGM 051951Z 18020G30KT 8SM FEW020 FEW065 BKN250 29/24 A2963 RMK AO2 PK WND 19031/1937 SLP033 VCSH N AND NE T02890244 $ \x03']","['2024-02-08 17:51:00', '2024-02-08 16:51:00', '2024-02-08 15:51:00', '2024-02-08 14:51:00', '2024-02-08 13:51:00', '2024-02-08 12:51:00', '2024-02-08 11:51:00', '2024-02-08 10:51:00', '2024-02-08 09:51:00', '2024-02-08 08:51:00', '2024-02-08 07:51:00', '2024-02-08 06:51:00', '2024-02-08 05:51:00', '2024-02-08 04:51:00', '2024-02-08 03:51:00', '2024-02-08 02:51:00', '2024-02-08 01:51:00', '2024-02-08 00:51:00', '2024-02-07 23:51:00', '2024-02-07 22:51:00', '2024-02-07 21:51:00', '2024-02-07 20:51:00', '2024-02-07 19:51:00', '2024-02-07 18:51:00', '2024-02-07 17:51:00', '2024-02-07 16:51:00', '2024-02-07 15:51:00', '2024-02-07 14:51:00', '2024-02-07 13:51:00', '2024-02-07 12:51:00', '2024-02-07 11:51:00', '2024-02-07 10:51:00', '2024-02-07 09:51:00', '2024-02-07 08:51:00', '2024-02-07 07:51:00', '2024-02-07 06:51:00', '2024-02-07 05:51:00', '2024-02-07 04:51:00', '2024-02-07 03:51:00', '2024-02-07 02:51:00', '2024-02-07 01:51:00', '2024-02-07 00:51:00', '2024-02-06 23:51:00', '2024-02-06 22:51:00', '2024-02-06 21:51:00', '2024-02-06 20:51:00', '2024-02-06 19:51:00', '2024-02-06 18:51:00', '2024-02-06 17:51:00', '2024-02-06 16:51:00', '2024-02-06 15:51:00', '2024-02-06 14:58:00', '2024-02-06 13:51:00', '2024-02-06 12:51:00', '2024-02-06 11:58:00', '2024-02-06 10:51:00', '2024-02-06 09:51:00', '2024-02-06 08:51:00', '2024-02-06 07:51:00', '2024-02-06 06:51:00', '2024-02-06 05:51:00', '2024-02-06 04:51:00', '2024-02-06 03:51:00', '2024-02-06 02:51:00', '2024-02-06 02:29:00', '2024-02-06 01:58:00', '2024-02-06 01:16:00', '2024-02-06 00:59:00', '2024-02-05 23:51:00', '2024-02-05 22:51:00', '2024-02-05 21:51:00', '2024-02-05 20:51:00', '2024-02-05 19:51:00']"
Cuba, Havana Jose Marti International Airport (HAV/MUHA) ,"['MUHA 081750Z 08012KT 050V110 9000 SCT030 25/14 Q1020', 'MUHA 081650Z 09010KT 060V120 9000 BKN025 25/15 Q1021', 'MUHA 081550Z 09007KT 060V140 9000 BKN030 23/16 Q1022', 'MUHA 081450Z 11006KT 070V150 9000 SCT025 21/18 Q1021', 'MUHA 081350Z VRB03KT 8000 BKN025 18/17 Q1021', 'MUHA 081325Z 11004KT 5000 2000SW SHRA BKN018 17/16 Q1021', 'MUHA 081250Z VRB01KT 8000 BKN025 13/13 Q1021', 'MUHA 081150Z VRB01KT 9000 SCT030 11/10 Q1020', 'MUHA 081050Z 05003KT 9000 FEW030 11/10 Q1019', 'MUHA 080950Z VRB01KT 9000 FEW030 09/09 Q1019', 'MUHA 080850Z VRB02KT 8000 R06/0800V2100D R24/P2000U FEW030 09/09 Q1019', 'MUHA 080750Z VRB01KT 9000 R06/0750V2100D R24/P2000U FEW030 10/09 Q1019', 'MUHA 080650Z 02001KT 9000 FEW030 11/11 Q1019', 'MUHA 080550Z VRB01KT 9000 FEW030 11/11 Q1020', 'MUHA 080450Z VRB01KT 9000 SCT030 11/11 Q1020', 'MUHA 080350Z VRB01KT 9000 SCT030 12/11 Q1021', 'MUHA 080250Z 21003KT 9000 SCT030 13/13 Q1020', 'MUHA 080150Z VRB02KT 9000 SCT030 14/12 Q1020', 'MUHA 080050Z 06003KT 9000 SCT030 16/14 Q1019', 'MUHA 072350Z 04006KT 9000 SCT030 18/14 Q1019', 'MUHA 072250Z 02009KT 350V050 9000 SCT030 20/14 Q1018', 'MUHA 072150Z 01009KT 9000 BKN040 22/13 Q1018', 'MUHA 072050Z 03010KT 360V060 9000 BKN040 22/12 Q1018', 'MUHA 071950Z 01012KT 340V040 9000 BKN030 22/12 Q1018', 'MUHA 071850Z 02011KT 340V050 9000 BKN030 22/13 Q1019', 'MUHA 071750Z 01013KT 9000 BKN039 21/13 Q1019', 'MUHA 071650Z 36013KT 340V040 9000 BKN030 21/13 Q1020', 'MUHA 071550Z 04010KT 010V070 9000 SCT039 21/13 Q1019', 'MUHA 071450Z 04009KT 9000 SCT040 20/11 Q1019', 'MUHA 071350Z 03005KT 360V060 9000 SCT025 19/11 Q1019', 'MUHA 071250Z 03005KT 9000 SCT025 17/11 Q1018', 'MUHA 071150Z 02007KT 9000 SCT025 16/10 Q1017', 'MUHA 071050Z 36008KT 9000 SCT025 18/10 Q1016', 'MUHA 070950Z 36006KT 9000 SCT025 17/10 Q1016', 'MUHA 070850Z 35005KT 9000 SCT025 17/10 Q1016', 'MUHA 070750Z 35007KT 9000 SCT025 18/10 Q1015', 'MUHA 070650Z 36010KT 9000 SCT025 18/10 Q1015', 'MUHA 070550Z 35010KT 9000 SCT025 19/10 Q1015', 'MUHA 070450Z 35013KT 9000 SCT025 19/10 Q1015', 'MUHA 070350Z 35016KT 9000 SCT025 19/10 Q1015', 'MUHA 070250Z 35015KT 9000 SCT025 19/11 Q1014', 'MUHA 070150Z 35014KT 9000 SCT025 19/10 Q1014', 'MUHA 070050Z 34014KT 9000 SCT025 19/11 Q1013', 'MUHA 062350Z 34013KT 9000 SCT025 19/12 Q1012', 'MUHA 062250Z 34017KT 9000 SCT025 20/13 Q1012', 'MUHA 062150Z 34016KT 9000 SCT025 21/12 Q1011', 'MUHA 062050Z 34017KT 9000 BKN025 21/14 Q1011', 'MUHA 061950Z 34017KT 9000 BKN025 20/14 Q1011', 'MUHA 061850Z 33011KT 9000 BKN025 19/16 Q1011', 'MUHA 061750Z 32014KT 290V350 9000 BKN025 21/13 Q1011', 'MUHA 061650Z 34017KT 9000 BKN030 21/12 Q1011', 'MUHA 061550Z 34015KT 9000 BKN030 21/14 Q1011', 'MUHA 061450Z 34013KT 9000 BKN030 20/14 Q1010', 'MUHA 061350Z 01012KT 8000 VCSH BKN025 19/15 Q1010', 'MUHA 061250Z 34009KT 9000 BKN025 19/13 Q1008', 'MUHA 061225Z 36010KT 8000 VCSH BKN025 19/13 Q1008', 'MUHA 061150Z 31008KT 8000 VCSH BKN025 19/13 Q1007', 'MUHA 061050Z 33007KT 190V360 8000 BKN030 18/13 Q1006', 'MUHA 061015Z 35008KT 8000 BKN025 BKN060 17/14 Q1006', 'MUHA 060950Z 33009KT 8000 BKN025 BKN060 18/13 Q1005', 'MUHA 060850Z 32009KT 290V350 5000 RA BKN025 BKN060 17/14 Q1005', 'MUHA 060750Z 25004KT 7000 -RA BKN030 BKN060 14/14 Q1004', 'MUHA 060650Z 26005KT 8000 BKN025 OVC060 15/14 Q1004', 'MUHA 060550Z 25003KT 8000 SCT030 BKN100 15/14 Q1004', 'MUHA 060450Z 19004KT 140V280 8000 SCT030 OVC060 16/15 Q1003', 'MUHA 060404Z VRB03KT 4000 RA BKN025 OVC060 16/15 Q1004', 'MUHA 060350Z VRB02KT 6000 -RA BKN030 OVC060 16/15 Q1004', 'MUHA 060303Z 32004KT 290V360 4000 RA SCT025 OVC060 16/15 Q1004', 'MUHA 060250Z VRB02KT 7000 -RA SCT020 OVC060 16/15 Q1004', 'MUHA 060223Z 30008KT 240V330 8000 SCT020 OVC060 16/15 Q1004', 'MUHA 060150Z 21005KT 8000 SCT030 OVC060 16/15 Q1004', 'MUHA 060050Z 21005KT 7000 -RA OVC030 17/16 Q1003', 'MUHA 052350Z VRB03KT 8000 BKN025 17/15 Q1003', 'MUHA 052250Z 32005KT 290V360 3000 SHRA FEW018CB BKN033 17/15 Q1002', 'MUHA 052222Z 30005KT 270V340 3000 SHRA FEW020CB BKN030 18/16 Q1001 RMK CB AT I/IV QUAD AD', 'MUHA 052150Z 27006KT 240V310 7000 -RA BKN020 18/16 Q1001', 'MUHA 052107Z 27009KT 8000 SCT018 OVC060 17/16 Q1002', 'MUHA 052050Z 29020G30KT 2000 R06/0900V2100U R24/1000V2100U +RA SCT018 OVC040 17/16 Q1002', 'MUHA 052027Z 30018G35KT 5000 RA BKN018 21/16 Q1001', 'MUHA 051950Z 30021G33KT 9000 FEW020CB BKN030 22/16 Q1001', 'MUHA 051916Z 29018G29KT 260V330 9999 FEW020CB BKN025 23/16 Q1000 RMK CB AT I/IV QUAD AD']","['2024-02-08 17:50:00', '2024-02-08 16:50:00', '2024-02-08 15:50:00', '2024-02-08 14:50:00', '2024-02-08 13:50:00', '2024-02-08 13:25:00', '2024-02-08 12:50:00', '2024-02-08 11:50:00', '2024-02-08 10:50:00', '2024-02-08 09:50:00', '2024-02-08 08:50:00', '2024-02-08 07:50:00', '2024-02-08 06:50:00', '2024-02-08 05:50:00', '2024-02-08 04:50:00', '2024-02-08 03:50:00', '2024-02-08 02:50:00', '2024-02-08 01:50:00', '2024-02-08 00:50:00', '2024-02-07 23:50:00', '2024-02-07 22:50:00', '2024-02-07 21:50:00', '2024-02-07 20:50:00', '2024-02-07 19:50:00', '2024-02-07 18:50:00', '2024-02-07 17:50:00', '2024-02-07 16:50:00', '2024-02-07 15:50:00', '2024-02-07 14:50:00', '2024-02-07 13:50:00', '2024-02-07 12:50:00', '2024-02-07 11:50:00', '2024-02-07 10:50:00', '2024-02-07 09:50:00', '2024-02-07 08:50:00', '2024-02-07 07:50:00', '2024-02-07 06:50:00', '2024-02-07 05:50:00', '2024-02-07 04:50:00', '2024-02-07 03:50:00', '2024-02-07 02:50:00', '2024-02-07 01:50:00', '2024-02-07 00:50:00', '2024-02-06 23:50:00', '2024-02-06 22:50:00', '2024-02-06 21:50:00', '2024-02-06 20:50:00', '2024-02-06 19:50:00', '2024-02-06 18:50:00', '2024-02-06 17:50:00', '2024-02-06 16:50:00', '2024-02-06 15:50:00', '2024-02-06 14:50:00', '2024-02-06 13:50:00', '2024-02-06 12:50:00', '2024-02-06 12:25:00', '2024-02-06 11:50:00', '2024-02-06 10:50:00', '2024-02-06 10:15:00', '2024-02-06 09:50:00', '2024-02-06 08:50:00', '2024-02-06 07:50:00', '2024-02-06 06:50:00', '2024-02-06 05:50:00', '2024-02-06 04:50:00', '2024-02-06 04:04:00', '2024-02-06 03:50:00', '2024-02-06 03:03:00', '2024-02-06 02:50:00', '2024-02-06 02:23:00', '2024-02-06 01:50:00', '2024-02-06 00:50:00', '2024-02-05 23:50:00', '2024-02-05 22:50:00', '2024-02-05 22:22:00', '2024-02-05 21:50:00', '2024-02-05 21:07:00', '2024-02-05 20:50:00', '2024-02-05 20:27:00', '2024-02-05 19:50:00', '2024-02-05 19:16:00']"
Cuba, Holguin Frank Pais Airport (HOG/MUHG) ,"['MUHG 081750Z 04013KT 360V060 9000 FEW030 SCT039 25/13 Q1019', 'MUHG 081650Z 01011KT 330V050 9000 FEW027 BKN033 24/14 Q1020', 'MUHG 081550Z 05009KT 360V080 9000 FEW024 SCT030 25/12 Q1020', 'MUHG 081450Z 07006KT 020V100 9000 FEW018 BKN027 22/13 Q1020', 'MUHG 081350Z 06004KT 030V100 9000 FEW024 SCT030 BKN060 20/13 Q1020', 'MUHG 081250Z 35003KT 9000 BKN027 18/15 Q1019', 'MUHG 081150Z VRB01KT 9000 SCT024 14/12 Q1018', 'MUHG 081050Z 05002KT 8000 FEW020 15/13 Q1017', 'MUHG 080950Z 01003KT 8000 FEW020 15/13 Q1017', 'MUHG 080850Z VRB01KT 8000 FEW020 15/14 Q1017', 'MUHG 080750Z 35005KT 8000 FEW020 16/14 Q1017', 'MUHG 080650Z 01004KT 8000 FEW020 17/15 Q1017', 'MUHG 080550Z 33003KT 8000 FEW020 16/15 Q1017', 'MUHG 080450Z 33002KT 8000 FEW020 17/16 Q1018', 'MUHG 080350Z 02003KT 8000 FEW020 18/16 Q1017', 'MUHG 080250Z 36004KT 330V040 7000 -RA SCT024 18/17 Q1017', 'MUHG 080150Z 34004KT 8000 FEW020 18/17 Q1017', 'MUHG 080050Z 35004KT 8000 FEW020 19/17 Q1016', 'MUHG 072350Z 35008KT 8000 FEW024 19/17 Q1015', 'MUHG 072250Z 35006KT 8000 FEW033TCU SCT039 21/17 Q1015', 'MUHG 072150Z 36011KT 9000 FEW036TCU SCT045 23/16 Q1014', 'MUHG 072050Z 36011KT 330V040 9999 FEW039 SCT042 23/16 Q1014', 'MUHG 071950Z 34011KT 280V360 9999 FEW042 SCT048 26/15 Q1013', 'MUHG 071850Z 34011KT 290V360 9999 FEW039 SCT045 25/14 Q1013', 'MUHG 071822Z 34010G20KT 280V360 9999 SCT039 SCT045 26/13 Q1014', 'MUHG 071750Z 32010KT 260V360 9999 SCT036 SCT042 26/13 Q1014', 'MUHG 071650Z 33012KT 280V360 9999 SCT030 25/13 Q1015', 'MUHG 071550Z 31012KT 270V350 9999 SCT027 24/14 Q1016', 'MUHG 071450Z 30008KT 260V340 9000 FEW024 22/15 Q1016', 'MUHG 071350Z 27007KT 9000 FEW020 18/14 Q1015', 'MUHG 071250Z 25004KT 220V280 9000 FEW020 13/13 Q1015', 'MUHG 071150Z 25004KT 220V280 9000 FEW020 12/12 Q1014', 'MUHG 071050Z 25003KT 9000 FEW020 13/12 Q1013', 'MUHG 070950Z 25005KT 9000 NSC 14/12 Q1012', 'MUHG 070850Z VRB03KT 9000 NSC 16/12 Q1012', 'MUHG 070750Z 32004KT 270V350 9000 NSC 17/13 Q1011', 'MUHG 070650Z 29004KT 260V330 9000 NSC 16/12 Q1011', 'MUHG 070550Z 30004KT 270V330 9000 NSC 17/12 Q1011', 'MUHG 070450Z VRB03KT 9000 FEW020 17/13 Q1012', 'MUHG 070350Z VRB03KT 9000 FEW020 17/14 Q1012', 'MUHG 070250Z 28003KT 9000 FEW025 17/14 Q1011', 'MUHG 070150Z VRB01KT 9000 FEW020 18/14 Q1010', 'MUHG 070050Z 28004KT 250V320 9000 FEW030 19/13 Q1009', 'MUHG 062350Z 25006KT 9000 FEW030 21/13 Q1008', 'MUHG 062250Z 24009KT 9000 FEW033 23/13 Q1007', 'MUHG 062150Z 25010KT 220V290 9000 SCT039 25/13 Q1007', 'MUHG 062050Z 26012G22KT 230V300 9000 SCT042 26/12 Q1006', 'MUHG 061950Z 25012G26KT 210V290 9000 SCT045 26/12 Q1006', 'MUHG 061850Z 27014KT 240V300 9000 BKN042 25/12 Q1006', 'MUHG 061750Z 26013KT 230V300 9000 BKN042 25/13 Q1007', 'MUHG 061650Z 27012KT 240V320 9000 BKN036 24/16 Q1007', 'MUHG 061550Z 27013KT 240V300 9000 FEW027 BKN033 23/16 Q1008', 'MUHG 061450Z 24011KT 210V270 9000 FEW018 BKN024 22/18 Q1008', 'MUHG 061350Z 22007KT 200V260 9000 FEW018 BKN080 19/18 Q1008', 'MUHG 061250Z 23007KT 200V260 5000 -RA SCT022 BKN070 18/17 Q1007', 'MUHG 061150Z 27004KT 240V310 8000 VCSH SCT020 BKN070 18/17 Q1006', 'MUHG 061050Z 26005KT 210V300 7000 VCSH SCT020 BKN060 18/17 Q1005', 'MUHG 060950Z 25002KT 8000 VCFG FEW020 18/17 Q1004', 'MUHG 060850Z 26004KT 7000 VCFG FEW020 19/18 Q1004', 'MUHG 060750Z 25006KT 7000 VCFG FEW020 19/18 Q1004', 'MUHG 060650Z 24008KT 7000 VCFG FEW020 20/19 Q1004', 'MUHG 060550Z 15005KT 7000 VCFG FEW020 19/19 Q1005', 'MUHG 060450Z 18005KT 150V220 7000 VCFG FEW020 BKN060 20/19 Q1005', 'MUHG 060431Z 16005KT 130V210 5000 VCFG FEW020 BKN070 20/20 Q1005', 'MUHG 060350Z 22004KT 190V260 8000 SCT020 BKN060 20/20 Q1005', 'MUHG 060250Z 24004KT 7000 -RA SCT020 BKN060 21/20 Q1005', 'MUHG 060150Z 24006KT 210V270 7000 -RA SCT018 BKN060 21/20 Q1005', 'MUHG 060050Z 24010KT 5000 -RA FEW018TCU SCT030 OVC060 21/20 Q1004', 'MUHG 060009Z 27011KT 230V300 5000 -RA FEW018TCU SCT030 BKN060 22/18 Q1003 RMK TCU AT IV QUAD', 'MUHG 052350Z 27010G21KT 230V320 7000 VCSH FEW018TCU SCT030 BKN070 25/20 Q1003', 'MUHG 052250Z 22004KT 180V260 8000 SCT018TCU BKN060 24/20 Q1003', 'MUHG 052150Z 23007KT 200V260 8000 VCSH SCT020 BKN070 26/22 Q1002', 'MUHG 052050Z 29004KT 250V340 7000 VCSH FEW018TCU SCT030 BKN060 24/22 Q1002', 'MUHG 051950Z 20008KT 8000 -RA FEW018TCU SCT025 BKN060 27/22 Q1002']","['2024-02-08 17:50:00', '2024-02-08 16:50:00', '2024-02-08 15:50:00', '2024-02-08 14:50:00', '2024-02-08 13:50:00', '2024-02-08 12:50:00', '2024-02-08 11:50:00', '2024-02-08 10:50:00', '2024-02-08 09:50:00', '2024-02-08 08:50:00', '2024-02-08 07:50:00', '2024-02-08 06:50:00', '2024-02-08 05:50:00', '2024-02-08 04:50:00', '2024-02-08 03:50:00', '2024-02-08 02:50:00', '2024-02-08 01:50:00', '2024-02-08 00:50:00', '2024-02-07 23:50:00', '2024-02-07 22:50:00', '2024-02-07 21:50:00', '2024-02-07 20:50:00', '2024-02-07 19:50:00', '2024-02-07 18:50:00', '2024-02-07 18:22:00', '2024-02-07 17:50:00', '2024-02-07 16:50:00', '2024-02-07 15:50:00', '2024-02-07 14:50:00', '2024-02-07 13:50:00', '2024-02-07 12:50:00', '2024-02-07 11:50:00', '2024-02-07 10:50:00', '2024-02-07 09:50:00', '2024-02-07 08:50:00', '2024-02-07 07:50:00', '2024-02-07 06:50:00', '2024-02-07 05:50:00', '2024-02-07 04:50:00', '2024-02-07 03:50:00', '2024-02-07 02:50:00', '2024-02-07 01:50:00', '2024-02-07 00:50:00', '2024-02-06 23:50:00', '2024-02-06 22:50:00', '2024-02-06 21:50:00', '2024-02-06 20:50:00', '2024-02-06 19:50:00', '2024-02-06 18:50:00', '2024-02-06 17:50:00', '2024-02-06 16:50:00', '2024-02-06 15:50:00', '2024-02-06 14:50:00', '2024-02-06 13:50:00', '2024-02-06 12:50:00', '2024-02-06 11:50:00', '2024-02-06 10:50:00', '2024-02-06 09:50:00', '2024-02-06 08:50:00', '2024-02-06 07:50:00', '2024-02-06 06:50:00', '2024-02-06 05:50:00', '2024-02-06 04:50:00', '2024-02-06 04:31:00', '2024-02-06 03:50:00', '2024-02-06 02:50:00', '2024-02-06 01:50:00', '2024-02-06 00:50:00', '2024-02-06 00:09:00', '2024-02-05 23:50:00', '2024-02-05 22:50:00', '2024-02-05 21:50:00', '2024-02-05 20:50:00', '2024-02-05 19:50:00']"
Cuba, Manzanillo Sierra Maestra Airport (MZO/MUMZ) ,"['MUMZ 081754Z 05012KT 9000 SCT025 26/13 Q1019', 'MUMZ 081650Z 05013KT 020V090 9000 SCT020 26/13 Q1019', 'MUMZ 081550Z 03013KT 9000 SCT020 26/12 Q1020', 'MUMZ 081450Z 06014KT 9000 FEW020 24/14 Q1020', 'MUMZ 081350Z 06009KT 9000 FEW020 21/17 Q1020', 'MUMZ 081250Z 05006KT 9000 FEW020 18/18 Q1019', 'MUMZ 072050Z 29007KT 250V320 9000 SCT020 26/16 Q1013', 'MUMZ 071950Z 31008KT 260V030 9000 SCT020 27/15 Q1013', 'MUMZ 071850Z 33008KT 290V010 9000 SCT020 26/14 Q1014', 'MUMZ 071750Z 34007KT 290V040 9000 SCT020 25/15 Q1015', 'MUMZ 071651Z 33011KT 290V360 9000 SCT020 24/16 Q1016', 'MUMZ 071550Z 33011KT 310V010 9000 FEW020 23/16 Q1017', 'MUMZ 071450Z 33012KT 300V360 9000 FEW020 23/16 Q1016', 'MUMZ 071350Z 32012KT 9000 FEW020 21/17 Q1016', 'MUMZ 071252Z 32007KT 9000 FEW020 20/18 Q1015', 'MUMZ 062053Z 27016KT 9000 BKN020 24/16 Q1008', 'MUMZ 061956Z 28015KT 250V310 9000 BKN020 25/16 Q1008', 'MUMZ 061855Z 29016KT 9000 SCT020 25/17 Q1008', 'MUMZ 061800Z 29017KT 260V320 9000 SCT020 25/16 Q1008', 'MUMZ 061655Z 27014KT 9000 SCT020 25/16 Q1007', 'MUMZ 061553Z 26015KT 9000 SCT018 SCT040 24/16 Q1007', 'MUMZ 061453Z 23012KT 8000 SCT021 BKN040 22/18 Q1008', 'MUMZ 061354Z 22008KT 8000 SCT018 BKN040 19/18 Q1008', 'MUMZ 061255Z 25008KT 6000 -RA FEW018 BKN040 18/17 Q1008', 'MUMZ 052055Z 25015KT 9000 BKN020 29/23 Q1002', 'MUMZ 051950Z 24012KT 9000 BKN020 30/24 Q1002']","['2024-02-08 17:54:00', '2024-02-08 16:50:00', '2024-02-08 15:50:00', '2024-02-08 14:50:00', '2024-02-08 13:50:00', '2024-02-08 12:50:00', '2024-02-07 20:50:00', '2024-02-07 19:50:00', '2024-02-07 18:50:00', '2024-02-07 17:50:00', '2024-02-07 16:51:00', '2024-02-07 15:50:00', '2024-02-07 14:50:00', '2024-02-07 13:50:00', '2024-02-07 12:52:00', '2024-02-06 20:53:00', '2024-02-06 19:56:00', '2024-02-06 18:55:00', '2024-02-06 18:00:00', '2024-02-06 16:55:00', '2024-02-06 15:53:00', '2024-02-06 14:53:00', '2024-02-06 13:54:00', '2024-02-06 12:55:00', '2024-02-05 20:55:00', '2024-02-05 19:50:00']"
Cuba, Santa Clara Abel Santamaria Airport (SNU/MUSC) ,"['MUSC 081750Z 08015KT 9000 BKN020 23/15 Q1021', 'MUSC 081650Z 07015KT 9000 BKN020 23/16 Q1021', 'MUSC 081550Z 06013KT 9000 BKN020 21/16 Q1022', 'MUSC 081450Z 09011KT 9000 SCT020 21/17 Q1022', 'MUSC 081350Z 10005KT 060V150 9000 SCT025 18/15 Q1021', 'MUSC 081250Z VRB02KT 9000 SCT025 12/12 Q1021', 'MUSC 081150Z 33001KT 9000 FEW030 11/11 Q1020', 'MUSC 081050Z 31002KT 9000 SKC 11/11 Q1019', 'MUSC 080950Z 25002KT 8000 NSC 12/11 Q1019', 'MUSC 080850Z 06003KT 8000 NSC 14/14 Q1018', 'MUSC 080750Z VRB02KT 9000 NSC 13/12 Q1019', 'MUSC 080650Z 34001KT 9000 FEW035 14/14 Q1019', 'MUSC 080550Z 26002KT 9000 FEW040 14/14 Q1019', 'MUSC 080450Z 26002KT 9000 FEW030 15/14 Q1020', 'MUSC 080350Z VRB01KT 9000 FEW020 SCT060 17/16 Q1020', 'MUSC 080250Z VRB02KT 8000 FEW020 BKN050 18/17 Q1019', 'MUSC 080150Z 04003KT 7000 -SHRA FEW018 BKN040 18/17 Q1019', 'MUSC 080119Z 36007KT 340V050 4000 SHRA SCT018 BKN035 18/17 Q1019', 'MUSC 080050Z 35003KT 9000 FEW020 BKN040 18/17 Q1018', 'MUSC 072350Z VRB03KT 9000 SCT020 BKN040 18/17 Q1018', 'MUSC 072250Z 28005KT 9000 SCT020 BKN040 18/17 Q1018', 'MUSC 072150Z VRB02KT 6000 -RA SCT020 BKN040 18/16 Q1017', 'MUSC 072050Z 05013KT 9000 BKN020 21/15 Q1017', 'MUSC 071950Z 02008KT 360V070 9000 BKN020 23/15 Q1016', 'MUSC 071850Z 01011KT 350V050 9000 BKN020 23/14 Q1017', 'MUSC 071750Z 01011KT 330V050 9000 BKN020 23/15 Q1017', 'MUSC 071650Z 03008KT 340V070 9000 BKN025 22/15 Q1018', 'MUSC 071550Z 02009KT 340V060 9000 BKN025 22/14 Q1018', 'MUSC 071450Z 36007KT 9000 BKN025 20/15 Q1018', 'MUSC 071350Z 28006KT 250V310 9000 SCT025 17/14 Q1017', 'MUSC 071250Z 26005KT 9000 SCT025 12/11 Q1017', 'MUSC 071150Z 27006KT 9000 FEW025 11/10 Q1016', 'MUSC 071050Z 25004KT 9000 FEW030 11/10 Q1015', 'MUSC 070950Z 27006KT 9000 FEW030 12/11 Q1014', 'MUSC 070850Z 27006KT 9000 NSC 12/11 Q1014', 'MUSC 070750Z 28007KT 8000 NSC 13/11 Q1013', 'MUSC 070650Z 30004KT 8000 NSC 13/11 Q1013', 'MUSC 070550Z 30005KT 9000 NSC 13/12 Q1013', 'MUSC 070450Z 30005KT 9000 NSC 14/12 Q1014', 'MUSC 070350Z 30005KT 9000 FEW035 15/12 Q1014', 'MUSC 070250Z 26006KT 9000 FEW030 15/13 Q1013', 'MUSC 070150Z 27008KT 9000 FEW030 16/13 Q1012', 'MUSC 070050Z 27007KT 9000 FEW025 16/13 Q1012', 'MUSC 062350Z 29008KT 9000 FEW025 18/13 Q1010', 'MUSC 062250Z 31014KT 290V350 9000 SCT025 20/13 Q1009', 'MUSC 062150Z 30015KT 9000 SCT025 22/11 Q1009', 'MUSC 062050Z 31016KT 9000 SCT025 22/11 Q1008', 'MUSC 061950Z 32014G26KT 280V350 9000 SCT025 23/12 Q1008', 'MUSC 061850Z 33014KT 300V360 9000 BKN025 23/13 Q1008', 'MUSC 061750Z 32014KT 290V360 9000 BKN020 22/13 Q1008', 'MUSC 061650Z 31015KT 9000 BKN020 22/13 Q1009', 'MUSC 061550Z 32016KT 280V350 9000 BKN020 21/13 Q1009', 'MUSC 061450Z 29011KT 9000 FEW030 20/15 Q1008', 'MUSC 061350Z 26012KT 9000 NSC 17/15 Q1008', 'MUSC 061250Z 26010KT 9000 FEW025 15/14 Q1007', 'MUSC 061150Z 28011KT 9000 FEW020 SCT970 15/14 Q1006', 'MUSC 061050Z 27012KT 8000 FEW030 15/14 Q1005', 'MUSC 060950Z 26009KT 9000 FEW030 15/14 Q1003', 'MUSC 060850Z 27008KT 9000 SCT030 15/14 Q1003', 'MUSC 060750Z 23006KT 200V260 9000 BKN030 16/14 Q1002', 'MUSC 060650Z 24007KT 9000 BKN030 16/14 Q1003', 'MUSC 060550Z 25005KT 9000 BKN030 16/14 Q1003', 'MUSC 060450Z 25006KT 9000 SKC 16/14 Q1004', 'MUSC 060350Z 26005KT 9000 FEW020 15/15 Q1004', 'MUSC 060250Z 26006KT 9000 FEW020 16/15 Q1004', 'MUSC 060150Z 29007KT 9000 FEW018 17/15 Q1004', 'MUSC 060050Z 31010KT 9000 SCT018 19/16 Q1003', 'MUSC 052350Z 26013KT 9000 FEW020 22/13 Q1002', 'MUSC 052250Z 25019KT 9000 FEW020 23/13 Q1000', 'MUSC 052150Z 26018KT 9000 SCT020 25/17 Q1000', 'MUSC 052050Z 24018KT 9000 SCT020 26/16 Q1000', 'MUSC 051950Z 26022KT 9000 SCT020 27/15 Q1000']","['2024-02-08 17:50:00', '2024-02-08 16:50:00', '2024-02-08 15:50:00', '2024-02-08 14:50:00', '2024-02-08 13:50:00', '2024-02-08 12:50:00', '2024-02-08 11:50:00', '2024-02-08 10:50:00', '2024-02-08 09:50:00', '2024-02-08 08:50:00', '2024-02-08 07:50:00', '2024-02-08 06:50:00', '2024-02-08 05:50:00', '2024-02-08 04:50:00', '2024-02-08 03:50:00', '2024-02-08 02:50:00', '2024-02-08 01:50:00', '2024-02-08 01:19:00', '2024-02-08 00:50:00', '2024-02-07 23:50:00', '2024-02-07 22:50:00', '2024-02-07 21:50:00', '2024-02-07 20:50:00', '2024-02-07 19:50:00', '2024-02-07 18:50:00', '2024-02-07 17:50:00', '2024-02-07 16:50:00', '2024-02-07 15:50:00', '2024-02-07 14:50:00', '2024-02-07 13:50:00', '2024-02-07 12:50:00', '2024-02-07 11:50:00', '2024-02-07 10:50:00', '2024-02-07 09:50:00', '2024-02-07 08:50:00', '2024-02-07 07:50:00', '2024-02-07 06:50:00', '2024-02-07 05:50:00', '2024-02-07 04:50:00', '2024-02-07 03:50:00', '2024-02-07 02:50:00', '2024-02-07 01:50:00', '2024-02-07 00:50:00', '2024-02-06 23:50:00', '2024-02-06 22:50:00', '2024-02-06 21:50:00', '2024-02-06 20:50:00', '2024-02-06 19:50:00', '2024-02-06 18:50:00', '2024-02-06 17:50:00', '2024-02-06 16:50:00', '2024-02-06 15:50:00', '2024-02-06 14:50:00', '2024-02-06 13:50:00', '2024-02-06 12:50:00', '2024-02-06 11:50:00', '2024-02-06 10:50:00', '2024-02-06 09:50:00', '2024-02-06 08:50:00', '2024-02-06 07:50:00', '2024-02-06 06:50:00', '2024-02-06 05:50:00', '2024-02-06 04:50:00', '2024-02-06 03:50:00', '2024-02-06 02:50:00', '2024-02-06 01:50:00', '2024-02-06 00:50:00', '2024-02-05 23:50:00', '2024-02-05 22:50:00', '2024-02-05 21:50:00', '2024-02-05 20:50:00', '2024-02-05 19:50:00']"
Cuba, Santiago de Cuba Antonio Maceo Airport (SCU/MUCU) ,"['MUCU 081750Z 35011KT 9000 FEW020 27/12 Q1017', 'MUCU 081650Z 01012KT 330V050 9000 FEW020 27/13 Q1017', 'MUCU 081553Z 36010KT 320V050 9000 FEW020 26/14 Q1018 RMK MOD WS APCH RWY 10', 'MUCU 081450Z 01011KT 330V060 9000 FEW020 24/14 Q1018', 'MUCU 081350Z 35012KT 9000 FEW020 22/14 Q1018', 'MUCU 081250Z 36005KT 310V070 9000 FEW020 21/14 Q1017', 'MUCU 081150Z 36006KT 9000 FEW020 19/15 Q1016', 'MUCU 081050Z 36007KT 330V030 9000 FEW020 19/15 Q1016', 'MUCU 080950Z 36008KT 330V040 9000 FEW020 19/15 Q1015', 'MUCU 080850Z 36010KT 330V060 9000 FEW020 20/16 Q1015', 'MUCU 080750Z 35010KT 9000 FEW020 20/16 Q1015', 'MUCU 080650Z 35010KT 9000 FEW020 20/17 Q1015', 'MUCU 080550Z 01006KT 330V040 9000 FEW020 19/17 Q1016', 'MUCU 080450Z 35008KT 9000 FEW020 20/17 Q1016', 'MUCU 080350Z 35009KT 9000 FEW020 20/17 Q1016', 'MUCU 080250Z 35012KT 9000 FEW020 20/17 Q1016', 'MUCU 080150Z 35012KT 9000 SCT020 21/16 Q1015', 'MUCU 080050Z 34011G21KT 9000 SCT018 22/16 Q1014', 'MUCU 072350Z 35008KT 9000 SCT018 23/15 Q1014', 'MUCU 072250Z 35010KT 9000 SCT018 25/15 Q1013', 'MUCU 072150Z 34010KT 300V360 9000 SCT020 27/12 Q1012', 'MUCU 072050Z 35011G21KT 9000 SCT020 27/11 Q1012', 'MUCU 071950Z 33010KT 290V360 9000 SCT020 27/11 Q1012', 'MUCU 071850Z 34012KT 300V360 9000 SCT020 27/12 Q1012', 'MUCU 071750Z 34013G23KT 9000 SCT020 26/13 Q1013', 'MUCU 071650Z 33011KT 300V360 9000 SCT020 25/13 Q1014', 'MUCU 071550Z 35012G23KT 9000 FEW020 24/14 Q1015', 'MUCU 071450Z 34011KT 300V360 9000 FEW020 23/14 Q1015', 'MUCU 071350Z 34008KT 300V360 9000 FEW020 22/13 Q1015', 'MUCU 071250Z 35009KT 9000 FEW020 20/13 Q1014', 'MUCU 071150Z 34009KT 9000 FEW020 19/12 Q1013', 'MUCU 071050Z 34008KT 300V360 9000 FEW020 19/12 Q1012', 'MUCU 070950Z 36009KT 340V040 9000 FEW025 19/12 Q1011', 'MUCU 070850Z 36008KT 320V040 9000 FEW020 19/12 Q1011', 'MUCU 070750Z 35007KT 9000 FEW020 19/14 Q1011', 'MUCU 070650Z 36007KT 340V040 9000 FEW020 19/14 Q1011', 'MUCU 070550Z 36009KT 330V040 9000 FEW020 20/14 Q1011', 'MUCU 070450Z 35005KT 9000 FEW020 20/13 Q1011', 'MUCU 070350Z 33008KT 9000 FEW020 21/12 Q1010', 'MUCU 070250Z 32008KT 290V350 9000 FEW020 22/12 Q1010', 'MUCU 070150Z 35006KT 9000 FEW020 22/13 Q1009', 'MUCU 070050Z 35007KT 9000 FEW020 23/14 Q1009', 'MUCU 062350Z 35004KT 290V360 9000 SCT020 24/14 Q1008', 'MUCU 062250Z 31005KT 170V340 9000 SCT020 25/14 Q1007', 'MUCU 062150Z 25014KT 9000 SCT020 27/16 Q1006', 'MUCU 062050Z 26015KT 230V290 9000 SCT020 28/16 Q1006', 'MUCU 061950Z 30008G26KT 230V340 9000 SCT020 27/16 Q1006', 'MUCU 061850Z 29010G20KT 220V360 9000 SCT020 28/18 Q1005', 'MUCU 061750Z 30008KT 250V350 9000 SCT020 27/17 Q1006', 'MUCU 061650Z 26020KT 9000 SCT020 28/18 Q1006', 'MUCU 061550Z 06004KT 360V130 9000 SCT020 25/18 Q1007', 'MUCU 061450Z 01007KT 340V050 9000 FEW020 25/18 Q1008', 'MUCU 061406Z 34007KT 290V360 9000 FEW020 23/17 Q1007 RMK MOD TURB APCH RWY 10', 'MUCU 061350Z 31012G24KT 260V360 9000 SCT020CB 23/18 Q1007', 'MUCU 061250Z 27019KT 9000 FEW020 26/18 Q1006', 'MUCU 061150Z 26018KT 9000 FEW020 25/18 Q1005', 'MUCU 061050Z 27008KT 220V310 9000 FEW020 25/16 Q1005', 'MUCU 060950Z 29010KT 9000 FEW020 24/16 Q1004', 'MUCU 060850Z 28012KT 8000 SCT020 24/16 Q1004', 'MUCU 060750Z 30007G17KT 260V340 9000 SCT020 22/18 Q1004', 'MUCU 060650Z 36004KT 8000 SCT020 22/18 Q1004', 'MUCU 060550Z 04005KT 360V060 8000 BKN020 22/18 Q1005', 'MUCU 060450Z 31007KT 250V360 8000 BKN020 23/17 Q1005', 'MUCU 060350Z 28011KT 8000 BKN020 25/21 Q1005', 'MUCU 060250Z 27007KT 240V310 8000 BKN020 26/20 Q1004', 'MUCU 060150Z 28012KT 7000 SCT020 26/17 Q1004', 'MUCU 060115Z 27023G34KT 7000 -RA BKN020 25/21 Q1004', 'MUCU 060050Z 25013KT 8000 BKN020 27/25 Q1003', 'MUCU 052350Z 25011KT 8000 BKN020 27/25 Q1003', 'MUCU 052250Z 23008KT 190V260 9000 SCT020 SCT030 27/25 Q1002', 'MUCU 052150Z 22012KT 190V250 9000 SCT018 BKN020 25/23 Q1002', 'MUCU 052122Z 20011KT 180V240 8000 4000W -RA SCT018 SCT020 27/23 Q1002', 'MUCU 052050Z 18009KT 150V220 9000 SCT018 SCT020 28/23 Q1002', 'MUCU 051950Z 17009KT 130V210 9000 SCT018 SCT020 28/24 Q1003']","['2024-02-08 17:50:00', '2024-02-08 16:50:00', '2024-02-08 15:53:00', '2024-02-08 14:50:00', '2024-02-08 13:50:00', '2024-02-08 12:50:00', '2024-02-08 11:50:00', '2024-02-08 10:50:00', '2024-02-08 09:50:00', '2024-02-08 08:50:00', '2024-02-08 07:50:00', '2024-02-08 06:50:00', '2024-02-08 05:50:00', '2024-02-08 04:50:00', '2024-02-08 03:50:00', '2024-02-08 02:50:00', '2024-02-08 01:50:00', '2024-02-08 00:50:00', '2024-02-07 23:50:00', '2024-02-07 22:50:00', '2024-02-07 21:50:00', '2024-02-07 20:50:00', '2024-02-07 19:50:00', '2024-02-07 18:50:00', '2024-02-07 17:50:00', '2024-02-07 16:50:00', '2024-02-07 15:50:00', '2024-02-07 14:50:00', '2024-02-07 13:50:00', '2024-02-07 12:50:00', '2024-02-07 11:50:00', '2024-02-07 10:50:00', '2024-02-07 09:50:00', '2024-02-07 08:50:00', '2024-02-07 07:50:00', '2024-02-07 06:50:00', '2024-02-07 05:50:00', '2024-02-07 04:50:00', '2024-02-07 03:50:00', '2024-02-07 02:50:00', '2024-02-07 01:50:00', '2024-02-07 00:50:00', '2024-02-06 23:50:00', '2024-02-06 22:50:00', '2024-02-06 21:50:00', '2024-02-06 20:50:00', '2024-02-06 19:50:00', '2024-02-06 18:50:00', '2024-02-06 17:50:00', '2024-02-06 16:50:00', '2024-02-06 15:50:00', '2024-02-06 14:50:00', '2024-02-06 14:06:00', '2024-02-06 13:50:00', '2024-02-06 12:50:00', '2024-02-06 11:50:00', '2024-02-06 10:50:00', '2024-02-06 09:50:00', '2024-02-06 08:50:00', '2024-02-06 07:50:00', '2024-02-06 06:50:00', '2024-02-06 05:50:00', '2024-02-06 04:50:00', '2024-02-06 03:50:00', '2024-02-06 02:50:00', '2024-02-06 01:50:00', '2024-02-06 01:15:00', '2024-02-06 00:50:00', '2024-02-05 23:50:00', '2024-02-05 22:50:00', '2024-02-05 21:50:00', '2024-02-05 21:22:00', '2024-02-05 20:50:00', '2024-02-05 19:50:00']"
Cuba, Varadero Juan Gualberto Gomez Airport (VRA/MUVR) ,"['MUVR 081750Z 06013KT 9999 SCT025 24/15 Q1021', 'MUVR 081650Z 08012KT 9999 SCT025 23/15 Q1022', 'MUVR 081550Z 08010KT 050V120 9999 SCT025 23/16 Q1022', 'MUVR 081450Z 08009KT 050V110 9999 FEW025 22/17 Q1022', 'MUVR 081350Z 09005KT 070V130 9999 FEW025 20/18 Q1021', 'MUVR 081250Z 08003KT 9999 SCT025 17/17 Q1021', 'MUVR 081150Z 07003KT 9999 BKN030 17/17 Q1020', 'MUVR 081050Z 10002KT 9999 BKN030 17/17 Q1020', 'MUVR 080950Z 05003KT 9000 BKN020 18/17 Q1019', 'MUVR 080850Z 08008KT 5000 SHRA SCT020 18/17 Q1019', 'MUVR 080750Z 13006KT 080V190 9999 SCT030 17/16 Q1019', 'MUVR 080650Z VRB03KT 9999 NSC 17/15 Q1019', 'MUVR 080550Z 05004KT 9999 SKC 17/14 Q1020', 'MUVR 080450Z 04004KT 9999 SKC 18/15 Q1020', 'MUVR 080350Z VRB03KT 9999 FEW030 17/14 Q1020', 'MUVR 080250Z 05004KT 030V090 9999 NSC 17/14 Q1020', 'MUVR 080150Z 05005KT 9999 FEW020 17/14 Q1020', 'MUVR 080050Z 03007KT 9999 FEW020 19/15 Q1019', 'MUVR 072350Z 02006KT 9999 FEW020 19/16 Q1018', 'MUVR 072250Z 01007KT 9999 SCT020 20/15 Q1018', 'MUVR 072150Z 36009KT 9999 SCT020 21/15 Q1018', 'MUVR 072050Z 35011KT 9999 SCT020 21/16 Q1018', 'MUVR 071950Z 36013KT 330V030 9999 SCT020 22/15 Q1018', 'MUVR 071850Z 36013KT 9999 BKN020 22/15 Q1018', 'MUVR 071750Z 35011KT 9999 BKN020 21/16 Q1019', 'MUVR 071650Z 35012KT 9999 BKN020 21/15 Q1019', 'MUVR 071550Z 36011KT 9999 SCT020 21/14 Q1019', 'MUVR 071450Z 35011KT 9999 FEW020 21/12 Q1019', 'MUVR 071350Z 36011KT 9999 FEW020 19/12 Q1018', 'MUVR 071250Z 36009KT 9000 SCT025 19/12 Q1017', 'MUVR 071150Z 01009KT 9000 SCT025 18/11 Q1017', 'MUVR 071050Z 34007KT 9000 SCT030 18/09 Q1016', 'MUVR 070950Z 36009KT 9000 SCT030 18/12 Q1015', 'MUVR 070850Z 35013KT 9000 FEW030 19/11 Q1015', 'MUVR 070750Z 35010KT 9000 FEW030 19/12 Q1014', 'MUVR 070650Z 35012KT 9000 FEW030 19/12 Q1014', 'MUVR 070550Z 34009KT 9000 SCT030 19/12 Q1014', 'MUVR 070450Z 34012KT 9000 SCT030 19/10 Q1014', 'MUVR 070350Z 33015KT 9000 SCT030 19/10 Q1014', 'MUVR 070250Z 33014KT 9000 FEW030 19/11 Q1014', 'MUVR 070150Z 32014KT 9000 FEW030 19/11 Q1013', 'MUVR 070050Z 33016KT 9000 FEW030 19/11 Q1012', 'MUVR 062350Z 32015G25KT 9000 FEW025 20/12 Q1011', 'MUVR 062250Z 33018KT 9000 SCT025 20/13 Q1011', 'MUVR 062150Z 32018KT 9000 BKN025 22/13 Q1010', 'MUVR 062050Z 32020KT 9000 FEW018TCU SCT020 21/13 Q1010', 'MUVR 061950Z 32018G28KT 9000 BKN020 22/14 Q1009', 'MUVR 061850Z 31019KT 9000 BKN025 22/12 Q1009', 'MUVR 061750Z 31018KT 9000 BKN025 22/13 Q1010', 'MUVR 061650Z 33018G28KT 9000 BKN020 21/14 Q1010', 'MUVR 061550Z 34013KT 9000 FEW018TCU BKN020 19/15 Q1010', 'MUVR 061450Z 33015KT 9000 BKN020 20/14 Q1010', 'MUVR 061350Z 34012KT 8000 VCSH FEW018TCU BKN020 19/15 Q1008', 'MUVR 061250Z 30007KT 230V340 9000 FEW019TCU SCT020 18/13 Q1007', 'MUVR 061150Z 31010KT 9000 FEW018TCU SCT020 18/14 Q1006', 'MUVR 061050Z 29010KT 9000 SCT020 16/14 Q1005', 'MUVR 060950Z 26009KT 9000 FEW025 15/14 Q1004', 'MUVR 060850Z 26007KT 9000 SCT025 15/14 Q1004', 'MUVR 060750Z 25007KT 9000 FEW025 14/13 Q1003', 'MUVR 060650Z 25006KT 9000 FEW025 15/14 Q1003', 'MUVR 060550Z 22005KT 9000 SCT020 15/14 Q1003', 'MUVR 060450Z 25006KT 9000 FEW020 16/15 Q1004', 'MUVR 060350Z 25010KT 9000 SCT020 16/15 Q1004', 'MUVR 060250Z 23006KT 9000 SCT020 16/14 Q1004', 'MUVR 060150Z 22005KT 9000 SCT020 15/14 Q1003', 'MUVR 060050Z 21005KT 9000 BKN020 15/14 Q1003', 'MUVR 052350Z 29009KT 9000 FEW018CB BKN020 17/16 Q1003', 'MUVR 052250Z 30005KT 280V360 9000 FEW018CB SCT020 17/16 Q1002', 'MUVR 052150Z 29021KT 6000 -SHRA SCT016CB BKN018 18/16 Q1002', 'MUVR 052050Z 29014KT 9000 FEW018CB BKN020 22/17 Q1000', 'MUVR 051950Z 24015KT 200V260 9000 SCT020 28/13 Q999']","['2024-02-08 17:50:00', '2024-02-08 16:50:00', '2024-02-08 15:50:00', '2024-02-08 14:50:00', '2024-02-08 13:50:00', '2024-02-08 12:50:00', '2024-02-08 11:50:00', '2024-02-08 10:50:00', '2024-02-08 09:50:00', '2024-02-08 08:50:00', '2024-02-08 07:50:00', '2024-02-08 06:50:00', '2024-02-08 05:50:00', '2024-02-08 04:50:00', '2024-02-08 03:50:00', '2024-02-08 02:50:00', '2024-02-08 01:50:00', '2024-02-08 00:50:00', '2024-02-07 23:50:00', '2024-02-07 22:50:00', '2024-02-07 21:50:00', '2024-02-07 20:50:00', '2024-02-07 19:50:00', '2024-02-07 18:50:00', '2024-02-07 17:50:00', '2024-02-07 16:50:00', '2024-02-07 15:50:00', '2024-02-07 14:50:00', '2024-02-07 13:50:00', '2024-02-07 12:50:00', '2024-02-07 11:50:00', '2024-02-07 10:50:00', '2024-02-07 09:50:00', '2024-02-07 08:50:00', '2024-02-07 07:50:00', '2024-02-07 06:50:00', '2024-02-07 05:50:00', '2024-02-07 04:50:00', '2024-02-07 03:50:00', '2024-02-07 02:50:00', '2024-02-07 01:50:00', '2024-02-07 00:50:00', '2024-02-06 23:50:00', '2024-02-06 22:50:00', '2024-02-06 21:50:00', '2024-02-06 20:50:00', '2024-02-06 19:50:00', '2024-02-06 18:50:00', '2024-02-06 17:50:00', '2024-02-06 16:50:00', '2024-02-06 15:50:00', '2024-02-06 14:50:00', '2024-02-06 13:50:00', '2024-02-06 12:50:00', '2024-02-06 11:50:00', '2024-02-06 10:50:00', '2024-02-06 09:50:00', '2024-02-06 08:50:00', '2024-02-06 07:50:00', '2024-02-06 06:50:00', '2024-02-06 05:50:00', '2024-02-06 04:50:00', '2024-02-06 03:50:00', '2024-02-06 02:50:00', '2024-02-06 01:50:00', '2024-02-06 00:50:00', '2024-02-05 23:50:00', '2024-02-05 22:50:00', '2024-02-05 21:50:00', '2024-02-05 20:50:00', '2024-02-05 19:50:00']"
Curacao, Willemstad Curacao Hato International Airport (CUR/TNCC) ,"['TNCC 081800Z 35010KT 9999 FEW020 27/22 Q1014 NOSIG', 'TNCC 081700Z 35010KT 9999 SCT020 28/23 Q1014 NOSIG', 'TNCC 081600Z 35006KT 320V020 9999 FEW020 BKN033 27/24 Q1015 NOSIG', 'TNCC 081500Z 34006KT 9999 FEW018 BKN035 27/24 Q1015 NOSIG', 'TNCC 081400Z 36003KT 330V040 9999 BKN035 26/24 Q1015 NOSIG', 'TNCC 081300Z 36003KT 330V030 9999 FEW016 BKN028 26/24 Q1015 NOSIG', 'TNCC 081200Z 36004KT 9999 FEW016 BKN030 25/23 Q1014 NOSIG', 'TNCC 081100Z 01004KT 320V030 9999 FEW016 BKN030 24/24 Q1013', 'TNCC 081000Z 34005KT 9999 SCT016 24/24 Q1012 NOSIG', 'TNCC 080900Z AUTO 32006KT 8000 FEW016 BKN030 24/24 Q1013 NOSIG \x03', 'TNCC 080800Z AUTO 29003KT 8000 FEW016 BKN030 24/24 Q1012 NOSIG \x03', 'TNCC 080700Z 30006KT 5000 RA FEW016 BKN030 24/24 Q1013 RERA NOSIG', 'TNCC 080625Z 28004KT 250V310 5000 RA FEW016 BKN045 25/24 Q1013 NOSIG', 'TNCC 080500Z VRB02KT 9999 FEW018 SCT030 25/24 Q1014 NOSIG', 'TNCC 080400Z 35008KT 9999 -RA FEW018 SCT042 26/25 Q1014 NOSIG', 'TNCC 080300Z 35009KT 9999 FEW018 SCT045 25/24 Q1015 NOSIG', 'TNCC 080200Z 36005KT 9999 -RA FEW018 SCT045 26/24 Q1015 NOSIG', 'TNCC 080100Z 34008KT 9999 -RA FEW018 BKN045 27/24 Q1014 NOSIG', 'TNCC 080000Z 36006KT 9999 BKN045 27/23 Q1013 NOSIG', 'TNCC 072300Z 01005KT 9999 BKN045 27/24 Q1012 NOSIG', 'TNCC 072200Z 01006KT 9999 SCT045 28/23 Q1011 NOSIG', 'TNCC 072100Z 01006KT 9999 FEW019 SCT040 28/24 Q1011 NOSIG', 'TNCC 072000Z 03007KT 9999 FEW020 29/24 Q1011 NOSIG', 'TNCC 071900Z 03006KT 9999 FEW021 29/24 Q1012 NOSIG', 'TNCC 071800Z 02004KT 340V040 9999 FEW020 SCT030 28/24 Q1013 NOSIG', 'TNCC 071700Z 02005KT 350V050 9999 FEW020 SCT030 28/24 Q1013 NOSIG', 'TNCC 071600Z 03005KT 9999 SCT020 28/25 Q1014 NOSIG', 'TNCC 071500Z 01006KT 9999 FEW020 28/23 Q1014 NOSIG', 'TNCC 071400Z 01007KT 9999 SCT019 28/24 Q1014 NOSIG', 'TNCC 071300Z 35008KT 9999 SCT019 28/24 Q1013 NOSIG', 'TNCC 071200Z 32004KT 290V350 9999 FEW018 SCT030 27/25 Q1013 NOSIG', 'TNCC 071100Z 33004KT 9999 FEW018 26/24 Q1012 NOSIG', 'TNCC 071000Z 28003KT 9999 FEW018 26/24 Q1011 NOSIG', 'TNCC 070900Z VRB01KT 9999 FEW018 25/23 Q1011 NOSIG', 'TNCC 070800Z AUTO VRB02KT 9999 FEW018 25/23 Q1010 \x03', 'TNCC 070700Z 29003KT 9999 FEW018 26/23 Q1011 NOSIG', 'TNCC 070600Z 28004KT 9999 FEW018 26/23 Q1011 NOSIG', 'TNCC 070500Z AUTO 29004KT //// NCD 27/25 Q1012 NOSIG \x03', 'TNCC 070400Z AUTO VRB02KT 9999 NCD 28/25 Q1012 NOSIG \x03', 'TNCC 070300Z VRB01KT 9999 FEW017 BKN030 28/26 Q1011 NOSIG', 'TNCC 070200Z VRB02KT 9999 FEW017 28/26 Q1011 NOSIG', 'TNCC 070100Z 34004KT 9999 FEW017 BKN030 28/26 Q1011 NOSIG', 'TNCC 070000Z 35006KT 9999 FEW017 BKN030 28/26 Q1010 NOSIG', 'TNCC 062300Z 35008KT 9999 FEW017 BKN030 28/26 Q1009 NOSIG', 'TNCC 062200Z 36009KT 9999 FEW018 28/26 Q1008 NOSIG', 'TNCC 062100Z 36010KT 9999 FEW018 29/26 Q1008', 'TNCC 062001Z 28008KT 260V330 9999 SCT018 32/22 Q1009 NOSIG', 'TNCC 062000Z AUTO 28009KT //// NCD 31/24 Q1009 NOSIG \x03', 'TNCC 061900Z 29010KT 240V310 9999 FEW018 31/23 Q1009 NOSIG', 'TNCC 061800Z 29010KT 9999 FEW018 32/24 Q1010 NOSIG', 'TNCC 061700Z 27008KT 240V320 9999 FEW018 32/25 Q1010 NOSIG', 'TNCC 061600Z 26008KT 240V300 9999 SCT018 30/25 Q1011 NOSIG', 'TNCC 061500Z 26007KT 220V290 9999 SCT018 SCT030 29/25 Q1012 NOSIG', 'TNCC 061400Z 27009KT 240V300 9999 SCT018 29/25 Q1012 NOSIG', 'TNCC 061300Z 27007KT 8000 SCT018 28/26 Q1011 NOSIG', 'TNCC 061200Z VRB02KT 9999 SCT018 27/26 Q1010 NOSIG', 'TNCC 061100Z 17003KT 9999 FEW017 27/26 Q1009 NOSIG', 'TNCC 061000Z VRB01KT 9999 FEW018 27/26 Q1008 NOSIG', 'TNCC 061000Z VRB01KT 9999 FEW018 27/26 Q1008 NOSIG', 'TNCC 060815Z AUTO VRB01KT 9999 NCD 27/26 Q1007 \x03', 'TNCC 060700Z VRB01KT 9999 FEW018 27/26 Q1008 NOSIG', 'TNCC 060615Z AUTO VRB01KT 9999 NCD 27/26 Q1008 \x03', 'TNCC 060600Z 00000KT 9999 SCT017 27/26 Q1008 NOSIG', 'TNCC 060500Z VRB02KT 9999 SCT018 28/26 Q1008 NOSIG', 'TNCC 060400Z VRB01KT 9999 FEW017 27/26 Q1009 NOSIG', 'TNCC 060315Z AUTO VRB01KT 9999 NCD 28/26 Q1009 \x03', 'TNCC 060300Z 00000KT CAVOK 28/26 Q1009 NOSIG', 'TNCC 060200Z 33003KT 9999 FEW018 28/26 Q1009 NOSIG', 'TNCC 060100Z AUTO VRB02KT //// NCD 28/26 Q1009 \x03', 'TNCC 060000Z VRB01KT 9999 FEW018 28/26 Q1008 NOSIG', 'TNCC 052300Z VRB02KT 9999 FEW018 28/26 Q1007 NOSIG', 'TNCC 052200Z 03003KT CAVOK 29/26 Q1006 NOSIG', 'TNCC 052100Z 08005KT 050V110 9999 SCT020 29/27 Q1005 NOSIG', 'TNCC 052000Z 09009KT CAVOK 30/27 Q1005 NOSIG']","['2024-02-08 18:00:00', '2024-02-08 17:00:00', '2024-02-08 16:00:00', '2024-02-08 15:00:00', '2024-02-08 14:00:00', '2024-02-08 13:00:00', '2024-02-08 12:00:00', '2024-02-08 11:00:00', '2024-02-08 10:00:00', '2024-02-08 09:00:00', '2024-02-08 08:00:00', '2024-02-08 07:00:00', '2024-02-08 06:25:00', '2024-02-08 05:00:00', '2024-02-08 04:00:00', '2024-02-08 03:00:00', '2024-02-08 02:00:00', '2024-02-08 01:00:00', '2024-02-08 00:00:00', '2024-02-07 23:00:00', '2024-02-07 22:00:00', '2024-02-07 21:00:00', '2024-02-07 20:00:00', '2024-02-07 19:00:00', '2024-02-07 18:00:00', '2024-02-07 17:00:00', '2024-02-07 16:00:00', '2024-02-07 15:00:00', '2024-02-07 14:00:00', '2024-02-07 13:00:00', '2024-02-07 12:00:00', '2024-02-07 11:00:00', '2024-02-07 10:00:00', '2024-02-07 09:00:00', '2024-02-07 08:00:00', '2024-02-07 07:00:00', '2024-02-07 06:00:00', '2024-02-07 05:00:00', '2024-02-07 04:00:00', '2024-02-07 03:00:00', '2024-02-07 02:00:00', '2024-02-07 01:00:00', '2024-02-07 00:00:00', '2024-02-06 23:00:00', '2024-02-06 22:00:00', '2024-02-06 21:00:00', '2024-02-06 20:01:00', '2024-02-06 20:00:00', '2024-02-06 19:00:00', '2024-02-06 18:00:00', '2024-02-06 17:00:00', '2024-02-06 16:00:00', '2024-02-06 15:00:00', '2024-02-06 14:00:00', '2024-02-06 13:00:00', '2024-02-06 12:00:00', '2024-02-06 11:00:00', '2024-02-06 10:00:00', '2024-02-06 09:21:00', '2024-02-06 08:15:00', '2024-02-06 07:00:00', '2024-02-06 06:15:00', '2024-02-06 06:00:00', '2024-02-06 05:00:00', '2024-02-06 04:00:00', '2024-02-06 03:15:00', '2024-02-06 03:00:00', '2024-02-06 02:00:00', '2024-02-06 01:00:00', '2024-02-06 00:00:00', '2024-02-05 23:00:00', '2024-02-05 22:00:00', '2024-02-05 21:00:00', '2024-02-05 20:00:00']"
Cyprus, RAF Akrotiri (AKT/LCRA) ,"['LCRA 081850Z 31003KT 9999 FEW031 BKN240 14/11 Q1018 NOSIG', 'LCRA 081820Z 31002KT CAVOK 14/10 Q1018 NOSIG', 'LCRA 081750Z 26002KT 9999 FEW036 SCT220 14/10 Q1018 NOSIG', 'LCRA 081720Z 26003KT 9999 FEW036 SCT230 15/10 Q1018 NOSIG', 'LCRA 081650Z 21002KT 9999 FEW036 SCT230 15/10 Q1018 NOSIG', 'LCRA 081620Z 24003KT 9999 FEW036 BKN280 15/10 Q1018 NOSIG', 'LCRA 081550Z 25002KT 9999 FEW036 BKN280 16/11 Q1018 NOSIG', 'LCRA 081520Z 26003KT 9999 FEW036 BKN280 17/11 Q1018 NOSIG', 'LCRA 081450Z 25003KT 9999 FEW035 BKN280 17/11 Q1018 NOSIG', 'LCRA 081420Z 21003KT 9999 FEW035 BKN280 17/11 Q1018 NOSIG', 'LCRA 081350Z 21005KT 9999 FEW035 BKN300 17/11 Q1019 NOSIG', 'LCRA 081320Z 21005KT 9999 FEW035 BKN300 18/11 Q1019 NOSIG', 'LCRA 081250Z 20005KT 9999 FEW035 BKN300 18/11 Q1019 NOSIG', 'LCRA 081220Z 21005KT 9999 FEW035 BKN300 19/11 Q1019 NOSIG', 'LCRA 081150Z 20006KT 9999 FEW035 BKN300 19/11 Q1019 NOSIG', 'LCRA 081120Z 20007KT 9999 FEW034 BKN300 19/11 Q1020 NOSIG', 'LCRA 081050Z 18007KT 9999 FEW034 BKN300 19/11 Q1020 NOSIG', 'LCRA 081020Z 18006KT 9999 FEW034 BKN300 19/11 Q1021 NOSIG', 'LCRA 080950Z 16006KT 9999 FEW032 BKN300 19/11 Q1021 NOSIG', 'LCRA 080920Z 17006KT 9999 FEW030 BKN300 19/11 Q1021 NOSIG', 'LCRA 080850Z 18004KT 9999 FEW028 SCT045 BKN300 19/11 Q1022 NOSIG', 'LCRA 080820Z 11004KT 9999 FEW028 SCT045 19/12 Q1022 NOSIG', 'LCRA 080750Z 06003KT 9999 FEW028 SCT045 18/11 Q1022 NOSIG', 'LCRA 080720Z 05003KT 9999 FEW032 SCT045 18/11 Q1022 NOSIG', 'LCRA 080650Z 04002KT 9999 FEW025 BKN450 17/11 Q1022 NOSIG', 'LCRA 080620Z 34001KT 9999 FEW025 BKN045 16/10 Q1022 NOSIG', 'LCRA 080550Z 03001KT 9999 FEW025 BKN045 15/09 Q1022 NOSIG', 'LCRA 080520Z 09002KT 9999 FEW020 BKN045 14/09 Q1022 NOSIG', 'LCRA 080450Z 02002KT 9999 FEW020 BKN045 14/09 Q1022 NOSIG', 'LCRA 080420Z 01002KT 9999 BKN045 13/09 Q1022 NOSIG', 'LCRA 080350Z 03002KT 9999 BKN044 13/09 Q1022 NOSIG', 'LCRA 080320Z 02002KT 9999 BKN044 13/09 Q1021 NOSIG', 'LCRA 080250Z 33001KT 9999 BKN045 13/09 Q1021 NOSIG', 'LCRA 080220Z 01001KT 9999 BKN044 13/09 Q1021 NOSIG', 'LCRA 080150Z 04003KT 9999 BKN043 13/09 Q1021 NOSIG', 'LCRA 080120Z 34003KT 9999 BKN042 13/09 Q1022 NOSIG', 'LCRA 080050Z 33003KT 9999 BKN042 13/10 Q1022 NOSIG', 'LCRA 080020Z AUTO 36001KT 9999 OVC038/// 13/10 Q1022', 'LCRA 072350Z 35003KT 9999 BKN038 13/10 Q1022 NOSIG', 'LCRA 072320Z 02002KT 9999 SCT042 13/10 Q1022 NOSIG', 'LCRA 072250Z 36001KT 9999 FEW020 BKN039 14/10 Q1022 NOSIG', 'LCRA 072220Z 36002KT 9999 FEW027 BKN033 14/11 Q1022 NOSIG', 'LCRA 072150Z 36002KT 9999 FEW025 BKN044 14/11 Q1022 NOSIG', 'LCRA 072120Z 04001KT 9999 BKN040 14/11 Q1022 NOSIG', 'LCRA 072050Z 25001KT 9999 FEW030 BKN045 14/11 Q1023 NOSIG', 'LCRA 072020Z 29002KT 9999 FEW030 BKN046 14/11 Q1023 NOSIG', 'LCRA 071950Z 33003KT 9999 BKN045 14/11 Q1023 NOSIG', 'LCRA 071920Z 06001KT 9999 BKN045 15/11 Q1023 NOSIG', 'LCRA 071850Z 04002KT 9999 BKN040 15/12 Q1023 NOSIG', 'LCRA 071820Z 27001KT 9999 BKN045 16/12 Q1023 NOSIG', 'LCRA 071750Z 24003KT 9999 FEW024 BKN044 16/11 Q1023 NOSIG', 'LCRA 071720Z 24002KT 9999 FEW024 BKN041 16/11 Q1023 NOSIG', 'LCRA 071650Z 23003KT 9999 BKN043 16/11 Q1023 NOSIG', 'LCRA 071620Z 23003KT 9999 BKN042 16/11 Q1023 NOSIG', 'LCRA 071550Z 25003KT 9999 FEW030 BKN039 17/11 Q1023 NOSIG', 'LCRA 071520Z 25003KT 9999 FEW030 BKN040 17/11 Q1022 NOSIG', 'LCRA 071450Z 26004KT 9999 FEW030 BKN040 17/11 Q1022 NOSIG', 'LCRA 071420Z 25006KT 9999 FEW030 BKN040 17/11 Q1022 NOSIG', 'LCRA 071350Z 26007KT 9999 FEW030 BKN038 17/11 Q1022 NOSIG', 'LCRA 071320Z 26006KT 9999 FEW030 BKN038 17/11 Q1022', 'LCRA 071250Z 28006KT 9999 FEW030 BKN038 17/11 Q1023 NOSIG', 'LCRA 071220Z 27008KT 9999 FEW030 BKN038 17/11 Q1023 NOSIG', 'LCRA 071150Z 28007KT 9999 FEW030 BKN036 18/11 Q1023 NOSIG', 'LCRA 071120Z 27007KT 9999 FEW030 BKN036 17/11 Q1023 NOSIG', 'LCRA 071050Z 27007KT 9999 FEW028 BKN034 17/11 Q1023 NOSIG', 'LCRA 071020Z 27006KT 9999 FEW028 BKN034 18/10 Q1023 NOSIG', 'LCRA 070950Z 25006KT 9999 FEW028 BKN034 18/11 Q1024 NOSIG', 'LCRA 070920Z 28006KT 9999 BKN032 18/11 Q1024 NOSIG', 'LCRA 070850Z 27006KT 9999 BKN032 18/11 Q1024 NOSIG', 'LCRA 070820Z 25005KT 9999 BKN030 18/11 Q1024 NOSIG', 'LCRA 070750Z 29002KT 9999 BKN030 17/11 Q1025 NOSIG', 'LCRA 070720Z 31002KT 9999 BKN030 16/11 Q1025 NOSIG', 'LCRA 070650Z 32003KT 9999 FEW016 BKN028 15/10 Q1024 NOSIG', 'LCRA 070620Z 31002KT 9999 FEW016 BKN028 14/10 Q1025 NOSIG', 'LCRA 070550Z 31002KT 9999 FEW016 BKN028 14/09 Q1024 NOSIG', 'LCRA 070520Z 32001KT 9999 FEW012 BKN028 13/09 Q1024 NOSIG', 'LCRA 070450Z 30004KT 9999 FEW012 BKN027 14/10 Q1024 NOSIG', 'LCRA 070420Z 30003KT 9999 SCT025 13/10 Q1024 TEMPO SCT024', 'LCRA 070350Z 28007KT 9999 SCT024 15/11 Q1023 TEMPO SCT025', 'LCRA 070250Z 28006KT 9999 FEW018 15/12 Q1023', 'LCRA 070150Z 27006KT 9999 FEW018 15/12 Q1023 NOSIG', 'LCRA 070120Z 27007KT CAVOK 15/12 Q1023 NOSIG', 'LCRA 070050Z 27006KT CAVOK 15/12 Q1023 NOSIG', 'LCRA 070020Z 27007KT CAVOK 15/12 Q1023 NOSIG', 'LCRA 062350Z 27007KT CAVOK 15/12 Q1023 NOSIG', 'LCRA 062320Z 27008KT CAVOK 15/12 Q1024 NOSIG', 'LCRA 062250Z 27009KT 9999 FEW016 15/12 Q1024 NOSIG', 'LCRA 062220Z 28009KT 9999 FEW016 15/12 Q1024 NOSIG', 'LCRA 062150Z 27010KT 9999 FEW016 15/12 Q1024 NOSIG', 'LCRA 062120Z 27011KT 9999 FEW015 15/12 Q1024 NOSIG', 'LCRA 062050Z 25010KT 9999 FEW020 15/12 Q1024 NOSIG', 'LCRA 062020Z 27010KT 9999 FEW020 16/12 Q1023 NOSIG', 'LCRA 061950Z 27013KT 9999 FEW025 16/12 Q1023 NOSIG', 'LCRA 061920Z 26015KT CAVOK 16/12 Q1023 NOSIG', 'LCRA 061850Z 26012KT 9999 FEW020 16/12 Q1023 NOSIG', 'LCRA 061820Z 26011KT CAVOK 16/12 Q1023 NOSIG', 'LCRA 061750Z 26014KT CAVOK 16/13 Q1023 NOSIG', 'LCRA 061720Z 26014KT CAVOK 16/13 Q1023 NOSIG', 'LCRA 061650Z 27013KT CAVOK 16/13 Q1023 NOSIG', 'LCRA 061620Z 26015KT 9999 SKC 16/13 Q1023 NOSIG', 'LCRA 061550Z 26013KT 9999 SKC 17/13 Q1022 NOSIG', 'LCRA 061520Z 26014KT 9999 FEW045 17/13 Q1022 NOSIG', 'LCRA 061450Z 26015KT 9999 FEW045 17/13 Q1022 NOSIG', 'LCRA 061420Z 26017KT 9999 FEW030 18/14 Q1022 NOSIG', 'LCRA 061350Z 25018KT 9999 FEW030 18/14 Q1022 NOSIG', 'LCRA 061320Z 26016KT 9999 FEW0301 18/13 Q1022 NOSIG', 'LCRA 061250Z 25017KT 9999 FEW030 18/13 Q1022 NOSIG', 'LCRA 061220Z 26017G28KT 9999 FEW030 18/14 Q1022 NOSIG', 'LCRA 061150Z 25019KT 9999 FEW030 19/14 Q1022 NOSIG', 'LCRA 061120Z 26018KT 9999 FEW030 18/13 Q1022 NOSIG', 'LCRA 061050Z 25017KT 9999 FEW030 19/14 Q1022 NOSIG', 'LCRA 061020Z 25017KT 9999 FEW030 19/13 Q1022 NOSIG', 'LCRA 060950Z 25017KT 9999 FEW030 18/14 Q1023 NOSIG', 'LCRA 060920Z 26016KT 9999 FEW030 18/13 Q1023 NOSIG', 'LCRA 060850Z 26015KT CAVOK 18/14 Q1023 NOSIG', 'LCRA 060820Z 26015KT 9999 SKC 18/14 Q1023 NOSIG', 'LCRA 060750Z 26014KT 9999 SKC 18/13 Q1023 NOSIG', 'LCRA 060720Z 26011KT 9999 SKC 18/12 Q1023 NOSIG', 'LCRA 060650Z 27010KT 9999 SKC 17/12 Q1023 NOSIG', 'LCRA 060620Z 27009KT CAVOK 16/12 Q1022 NOSIG', 'LCRA 060550Z 27009KT CAVOK 15/11 Q1022 NOSIG', 'LCRA 060520Z 27009KT CAVOK 14/09 Q1022 NOSIG', 'LCRA 060450Z 29007KT CAVOK 13/05 Q1022 NOSIG', 'LCRA 060420Z 27006KT 9999 SKC 13/10 Q1022 NOSIG', 'LCRA 060350Z 30006KT 9999 SKC 12/09 Q1022 NOSIG', 'LCRA 060320Z 27007KT 9999 SKC 15/12 Q1022 NOSOG', 'LCRA 060250Z 26008KT 9999 SKC 15/11 Q1021', 'LCRA 060220Z 25009KT 9999 SKC 14/10 Q1021 NOSIG', 'LCRA 060150Z 27009KT 9999 SKC 15/10 Q1021 NOSIG', 'LCRA 060120Z 26011KT 9999 SKC 15/11 Q1021 NOSIG', 'LCRA 060050Z 27009KT CAVOK 15/10 Q1021 NOSIG', 'LCRA 060020Z 27012KT CAVOK 15/10 Q1021 NOSIG', 'LCRA 052350Z 28008KT CAVOK 15/11 Q1021 NOSIG', 'LCRA 052320Z 28008KT CAVOK 15/10 Q1021 NOSIG', 'LCRA 052250Z 28008KT CAVOK 14/09 Q1021 NOSIG', 'LCRA 052220Z 29007KT 9999 SKC 13/08 Q1021 NOSIG', 'LCRA 052150Z 27007KT 9999 SKC 14/09 Q1021 NOSIG', 'LCRA 052120Z 28006KT 9999 SKC 14/08 Q1021 NOSIG', 'LCRA 052050Z 28008KT 9999 SKC 14/08 Q1021 NOSIG', 'LCRA 052020Z 29007KT 9999 SKC 14/08 Q1021 NOSIG', 'LCRA 051950Z 28007KT 9999 SKC 14/08 Q1021 NOSIG', 'LCRA 051920Z 29009KT 9999 SKC 14/08 Q1021 NOSIG']","['2024-02-08 18:50:00', '2024-02-08 18:20:00', '2024-02-08 17:50:00', '2024-02-08 17:20:00', '2024-02-08 16:50:00', '2024-02-08 16:20:00', '2024-02-08 15:50:00', '2024-02-08 15:20:00', '2024-02-08 14:50:00', '2024-02-08 14:20:00', '2024-02-08 13:50:00', '2024-02-08 13:20:00', '2024-02-08 12:50:00', '2024-02-08 12:20:00', '2024-02-08 11:50:00', '2024-02-08 11:20:00', '2024-02-08 10:50:00', '2024-02-08 10:20:00', '2024-02-08 09:50:00', '2024-02-08 09:20:00', '2024-02-08 08:50:00', '2024-02-08 08:20:00', '2024-02-08 07:50:00', '2024-02-08 07:20:00', '2024-02-08 06:50:00', '2024-02-08 06:20:00', '2024-02-08 05:50:00', '2024-02-08 05:20:00', '2024-02-08 04:50:00', '2024-02-08 04:20:00', '2024-02-08 03:50:00', '2024-02-08 03:20:00', '2024-02-08 02:50:00', '2024-02-08 02:20:00', '2024-02-08 01:50:00', '2024-02-08 01:20:00', '2024-02-08 00:50:00', '2024-02-08 00:20:00', '2024-02-07 23:50:00', '2024-02-07 23:20:00', '2024-02-07 22:50:00', '2024-02-07 22:20:00', '2024-02-07 21:50:00', '2024-02-07 21:20:00', '2024-02-07 20:50:00', '2024-02-07 20:20:00', '2024-02-07 19:50:00', '2024-02-07 19:20:00', '2024-02-07 18:50:00', '2024-02-07 18:20:00', '2024-02-07 17:50:00', '2024-02-07 17:20:00', '2024-02-07 16:50:00', '2024-02-07 16:20:00', '2024-02-07 15:50:00', '2024-02-07 15:20:00', '2024-02-07 14:50:00', '2024-02-07 14:20:00', '2024-02-07 13:50:00', '2024-02-07 13:20:00', '2024-02-07 12:50:00', '2024-02-07 12:20:00', '2024-02-07 11:50:00', '2024-02-07 11:20:00', '2024-02-07 10:50:00', '2024-02-07 10:20:00', '2024-02-07 09:50:00', '2024-02-07 09:20:00', '2024-02-07 08:50:00', '2024-02-07 08:20:00', '2024-02-07 07:50:00', '2024-02-07 07:20:00', '2024-02-07 06:50:00', '2024-02-07 06:20:00', '2024-02-07 05:50:00', '2024-02-07 05:20:00', '2024-02-07 04:50:00', '2024-02-07 04:20:00', '2024-02-07 03:50:00', '2024-02-07 02:50:00', '2024-02-07 01:50:00', '2024-02-07 01:20:00', '2024-02-07 00:50:00', '2024-02-07 00:20:00', '2024-02-06 23:50:00', '2024-02-06 23:20:00', '2024-02-06 22:50:00', '2024-02-06 22:20:00', '2024-02-06 21:50:00', '2024-02-06 21:20:00', '2024-02-06 20:50:00', '2024-02-06 20:20:00', '2024-02-06 19:50:00', '2024-02-06 19:20:00', '2024-02-06 18:50:00', '2024-02-06 18:20:00', '2024-02-06 17:50:00', '2024-02-06 17:20:00', '2024-02-06 16:50:00', '2024-02-06 16:20:00', '2024-02-06 15:50:00', '2024-02-06 15:20:00', '2024-02-06 14:50:00', '2024-02-06 14:20:00', '2024-02-06 13:50:00', '2024-02-06 13:20:00', '2024-02-06 12:50:00', '2024-02-06 12:20:00', '2024-02-06 11:50:00', '2024-02-06 11:20:00', '2024-02-06 10:50:00', '2024-02-06 10:20:00', '2024-02-06 09:50:00', '2024-02-06 09:20:00', '2024-02-06 08:50:00', '2024-02-06 08:20:00', '2024-02-06 07:50:00', '2024-02-06 07:20:00', '2024-02-06 06:50:00', '2024-02-06 06:20:00', '2024-02-06 05:50:00', '2024-02-06 05:20:00', '2024-02-06 04:50:00', '2024-02-06 04:20:00', '2024-02-06 03:50:00', '2024-02-06 03:20:00', '2024-02-06 02:50:00', '2024-02-06 02:20:00', '2024-02-06 01:50:00', '2024-02-06 01:20:00', '2024-02-06 00:50:00', '2024-02-06 00:20:00', '2024-02-05 23:50:00', '2024-02-05 23:20:00', '2024-02-05 22:50:00', '2024-02-05 22:20:00', '2024-02-05 21:50:00', '2024-02-05 21:20:00', '2024-02-05 20:50:00', '2024-02-05 20:20:00', '2024-02-05 19:50:00', '2024-02-05 19:20:00']"
Cyprus, Larnaca International Airport (LCA/LCLK) ,"['LCLK 081900Z 31005KT 9999 SCT025 13/11 Q1018 NOSIG', 'LCLK 081830Z 31005KT 9999 FEW060 13/11 Q1018 NOSIG', 'LCLK 081800Z 31004KT 270V330 CAVOK 14/11 Q1018 NOSIG', 'LCLK 081730Z 00000KT CAVOK 15/12 Q1018 NOSIG', 'LCLK 081700Z VRB01KT CAVOK 15/12 Q1019 NOSIG', 'LCLK 081630Z VRB01KT CAVOK 16/12 Q1019 NOSIG', 'LCLK 081530Z 21003KT 9999 FEW035 17/12 Q1018 NOSIG', 'LCLK 081500Z 20003KT 9999 FEW035 18/12 Q1018 NOSIG', 'LCLK 081430Z 17003KT 140V200 9999 FEW025 18/12 Q1018 NOSIG', 'LCLK 081400Z 17005KT 9999 FEW025 18/12 Q1019 NOSIG', 'LCLK 081330Z 16005KT 9999 FEW022 19/12 Q1019 NOSIG', 'LCLK 081230Z 14006KT 9999 FEW022 20/12 Q1019 NOSIG', 'LCLK 081200Z 15007KT 9999 FEW022 20/12 Q1019 NOSIG', 'LCLK 081130Z 14008KT 9999 FEW022 20/12 Q1020 NOSIG', 'LCLK 081100Z 15007KT 120V190 9999 FEW025 20/12 Q1020 NOSIG', 'LCLK 081030Z 13006KT 100V160 9999 FEW025 20/13 Q1020 NOSIG', 'LCLK 080930Z 10004KT 070V130 9999 FEW025 20/13 Q1021 NOSIG', 'LCLK 080830Z 09004KT 060V120 9999 FEW025 19/12 Q1022 NOSIG', 'LCLK 080800Z 08004KT 050V130 9999 FEW025 SCT035 18/13 Q1022 NOSIG', 'LCLK 080730Z VRB02KT 9999 FEW022 SCT035 17/13 Q1022 NOSIG', 'LCLK 080630Z 31002KT 9999 FEW025 15/13 Q1022 NOSIG', 'LCLK 080600Z VRB03KT 9999 FEW025 BKN044 14/13 Q1022 NOSIG', 'LCLK 080530Z VRB03KT 9999 FEW025 BKN044 13/12 Q1022 NOSIG', 'LCLK 080500Z 34003KT 9999 FEW025 BKN040 12/11 Q1022 NOSIG', 'LCLK 080430Z 33003KT 9999 FEW025 BKN045 12/11 Q1022 NOSIG', 'LCLK 080400Z 33003KT 9999 FEW025 BKN046 12/11 Q1022 NOSIG', 'LCLK 080330Z 33003KT 9999 FEW027 BKN047 12/11 Q1022 NOSIG', 'LCLK 080300Z 32003KT 9999 FEW027 BKN042 12/11 Q1022 NOSIG', 'LCLK 080230Z VRB02KT 9999 FEW027 BKN042 12/11 Q1022 NOSIG', 'LCLK 080130Z 33004KT 9999 BKN044 11/10 Q1022 NOSIG', 'LCLK 080100Z 32004KT 9999 BKN045 11/09 Q1022 NOSIG', 'LCLK 080030Z 32005KT 9999 SCT040 11/09 Q1022 NOSIG', 'LCLK 080000Z 32004KT 9999 BKN040 11/09 Q1022 NOSIG', 'LCLK 072330Z 33003KT 9999 BKN040 12/09 Q1023 NOSIG', 'LCLK 072300Z 32003KT 9999 BKN040 12/10 Q1023 NOSIG', 'LCLK 072230Z 33004KT 9999 BKN040 13/11 Q1023 NOSIG', 'LCLK 072200Z 31004KT 9999 BKN040 13/11 Q1023 NOSIG', 'LCLK 072130Z VRB02KT 9999 BKN040 13/10 Q1023 NOSIG', 'LCLK 072100Z 32002KT 9999 BKN040 13/10 Q1023 NOSIG', 'LCLK 072000Z VRB02KT 9999 BKN040 14/11 Q1023 NOSIG', 'LCLK 071930Z 00000KT 9999 BKN040 15/11 Q1023 NOSIG', 'LCLK 071900Z VRB02KT 9999 BKN040 15/11 Q1023 NOSIG', 'LCLK 071830Z 25004KT 9999 FEW030 BKN040 16/11 Q1023 NOSIG', 'LCLK 071800Z 25005KT 9999 FEW030 BKN040 16/11 Q1023 NOSIG', 'LCLK 071730Z 26005KT 9999 FEW025 BKN040 16/11 Q1023 NOSIG', 'LCLK 071700Z 25005KT 9999 FEW025 BKN040 17/11 Q1023 NOSIG', 'LCLK 071630Z 25006KT 9999 FEW025 BKN040 17/11 Q1023 NOSIG', 'LCLK 071600Z 24008KT 9999 FEW025 BKN040 17/10 Q1023 NOSIG', 'LCLK 071530Z 23010KT 9999 FEW025 BKN040 17/11 Q1022 NOSIG', 'LCLK 071500Z 23014KT 9999 FEW025 SCT040 18/12 Q1022 NOSIG', 'LCLK 071430Z 22015KT 9999 FEW025 SCT040 18/11 Q1022 NOSIG', 'LCLK 071400Z 22017KT 9999 FEW025 19/12 Q1022 NOSIG', 'LCLK 071330Z 22017KT 9999 FEW025 19/12 Q1022 NOSIG', 'LCLK 071300Z 22016KT 9999 FEW025 SCT040 20/12 Q1022 NOSIG', 'LCLK 071230Z 21017KT 9999 FEW025 SCT040 20/13 Q1022 NOSIG', 'LCLK 071200Z 20014KT 9999 FEW025 BKN040 20/13 Q1022 NOSIG', 'LCLK 071130Z 21012KT 9999 FEW025 BKN040 19/13 Q1023 NOSIG', 'LCLK 071100Z 22013KT 9999 FEW025 BKN040 19/12 Q1023 NOSIG', 'LCLK 071030Z 22012KT 190V250 9999 FEW025 SCT040 19/12 Q1023 NOSIG', 'LCLK 071000Z 21012KT 9999 FEW025 SCT040 19/12 Q1024 NOSIG', 'LCLK 070930Z 22012KT 9999 FEW025 BKN040 19/12 Q1024 NOSIG', 'LCLK 070900Z 23009KT 190V260 9999 FEW025 SCT040 19/12 Q1024 NOSIG', 'LCLK 070830Z 21008KT 9999 FEW025 SCT060 19/12 Q1024 NOSIG', 'LCLK 070800Z 19006KT 160V240 9999 FEW025 SCT060 18/12 Q1025 NOSIG', 'LCLK 070730Z 14003KT 080V210 9999 FEW025 18/12 Q1025 NOSIG', 'LCLK 070700Z 22005KT 9999 FEW025 16/13 Q1025 NOSIG', 'LCLK 070630Z 25003KT 9999 FEW025 14/12 Q1025 NOSIG', 'LCLK 070600Z 31006KT 9999 FEW020 11/10 Q1024 NOSIG', 'LCLK 070530Z 32005KT 9999 FEW020 10/09 Q1024 NOSIG', 'LCLK 070500Z 31004KT 9999 FEW020 08/07 Q1024 NOSIG', 'LCLK 070430Z 32003KT 9999 FEW020 09/08 Q1024 NOSIG', 'LCLK 070330Z 29004KT 260V010 CAVOK 09/08 Q1023 NOSIG', 'LCLK 070200Z 31002KT CAVOK 10/09 Q1023 NOSIG', 'LCLK 070130Z 33005KT CAVOK 11/10 Q1023 NOSIG', 'LCLK 070100Z 31006KT CAVOK 12/11 Q1023 NOSIG', 'LCLK 070030Z 32006KT CAVOK 11/09 Q1023 NOSIG', 'LCLK 062330Z 32003KT CAVOK 11/10 Q1023 NOSIG', 'LCLK 062300Z 26005KT CAVOK 11/09 Q1023 NOSIG', 'LCLK 062230Z 30007KT CAVOK 11/10 Q1023 NOSIG', 'LCLK 062130Z 31006KT CAVOK 12/10 Q1023 NOSIG', 'LCLK 062100Z 32005KT CAVOK 12/10 Q1023 NOSIG', 'LCLK 062030Z 33006KT CAVOK 12/10 Q1023 NOSIG', 'LCLK 062000Z 34006KT CAVOK 13/11 Q1023 NOSIG', 'LCLK 061930Z 34003KT CAVOK 13/11 Q1023 NOSIG', 'LCLK 061900Z 01004KT CAVOK 13/12 Q1023 NOSIG', 'LCLK 061830Z 35004KT CAVOK 14/12 Q1023 NOSIG', 'LCLK 061800Z VRB02KT CAVOK 15/12 Q1023 NOSIG', 'LCLK 061700Z VRB01KT CAVOK 15/13 Q1022 NOSIG', 'LCLK 061630Z 34004KT CAVOK 17/15 Q1022 NOSIG', 'LCLK 061600Z VRB03KT CAVOK 17/15 Q1022 NOSIG', 'LCLK 061530Z 19003KT 160V230 CAVOK 18/15 Q1022 NOSIG', 'LCLK 061500Z 23007KT 9999 FEW030 18/16 Q1021 NOSIG', 'LCLK 061430Z 22011KT 9999 FEW025 19/15 Q1021 NOSIG', 'LCLK 061400Z 23013KT 9999 FEW025 20/15 Q1021 NOSIG', 'LCLK 061330Z 22014KT 9999 FEW025 20/15 Q1021 NOSIG', 'LCLK 061300Z 22012KT 9999 FEW025 21/16 Q1021 NOSIG', 'LCLK 061230Z 21013KT 9999 FEW025 22/15 Q1021 NOSIG', 'LCLK 061200Z 20012KT 9999 FEW025 22/16 Q1021 NOSIG', 'LCLK 061130Z 20012KT 9999 FEW025 22/16 Q1021 NOSIG', 'LCLK 061100Z 21010KT 9999 FEW025 22/15 Q1022 NOSIG', 'LCLK 061030Z 21010KT 9999 FEW025 22/15 Q1022 NOSIG', 'LCLK 061000Z 20008KT 9999 FEW025 23/10 Q1022 NOSIG', 'LCLK 060930Z 19007KT 160V230 9999 FEW025 22/11 Q1022 NOSIG', 'LCLK 060900Z 19006KT 170V230 9999 FEW018 21/08 Q1023 NOSIG', 'LCLK 060830Z 20006KT 9999 FEW018 21/08 Q1022 NOSIG', 'LCLK 060800Z 20006KT 170V230 9999 FEW018 20/09 Q1022 NOSIG', 'LCLK 060730Z 22007KT 9999 FEW018 19/07 Q1022 NOSIG', 'LCLK 060700Z 24003KT 200V290 9999 FEW018 18/07 Q1022 NOSIG', 'LCLK 060630Z VRB03KT 9999 FEW018 16/05 Q1022 NOSIG', 'LCLK 060600Z 24003KT 9999 FEW018 13/05 Q1022 NOSIG', 'LCLK 060530Z 26003KT 9999 FEW018 11/04 Q1022 NOSIG', 'LCLK 060500Z 24004KT 9999 FEW018 10/03 Q1022 NOSIG', 'LCLK 060430Z 24006KT 9999 FEW018 09/03 Q1021 NOSIG', 'LCLK 060400Z 22003KT 9999 FEW020 09/04 Q1021 NOSIG', 'LCLK 060330Z 20006KT CAVOK 10/05 Q1021 NOSIG', 'LCLK 060300Z 22005KT CAVOK 10/05 Q1021 NOSIG', 'LCLK 060230Z 22004KT 190V250 CAVOK 09/05 Q1021 NOSIG', 'LCLK 060130Z VRB03KT CAVOK 09/05 Q1021 NOSIG', 'LCLK 060100Z VRB01KT CAVOK 09/04 Q1021 NOSIG', 'LCLK 060000Z VRB03KT CAVOK 10/04 Q1021 NOSIG', 'LCLK 052330Z 31005KT 280V340 CAVOK 10/04 Q1022 NOSIG', 'LCLK 052300Z 33006KT CAVOK 09/04 Q1021 NOSIG', 'LCLK 052230Z 32004KT 280V340 CAVOK 10/04 Q1021 NOSIG', 'LCLK 052200Z 30006KT CAVOK 10/04 Q1021 NOSIG', 'LCLK 052130Z 32004KT CAVOK 10/04 Q1021 NOSIG', 'LCLK 052100Z 23004KT CAVOK 11/04 Q1021 NOSIG', 'LCLK 052030Z 26005KT 240V300 CAVOK 13/04 Q1021 NOSIG', 'LCLK 052000Z 26004KT CAVOK 11/05 Q1021 NOSIG', 'LCLK 051930Z 30006KT CAVOK 12/05 Q1021 NOSIG']","['2024-02-08 19:00:00', '2024-02-08 18:30:00', '2024-02-08 18:00:00', '2024-02-08 17:30:00', '2024-02-08 17:00:00', '2024-02-08 16:30:00', '2024-02-08 15:30:00', '2024-02-08 15:00:00', '2024-02-08 14:30:00', '2024-02-08 14:00:00', '2024-02-08 13:30:00', '2024-02-08 12:30:00', '2024-02-08 12:00:00', '2024-02-08 11:30:00', '2024-02-08 11:00:00', '2024-02-08 10:30:00', '2024-02-08 09:30:00', '2024-02-08 08:30:00', '2024-02-08 08:00:00', '2024-02-08 07:30:00', '2024-02-08 06:30:00', '2024-02-08 06:00:00', '2024-02-08 05:30:00', '2024-02-08 05:00:00', '2024-02-08 04:30:00', '2024-02-08 04:00:00', '2024-02-08 03:30:00', '2024-02-08 03:00:00', '2024-02-08 02:30:00', '2024-02-08 01:30:00', '2024-02-08 01:00:00', '2024-02-08 00:30:00', '2024-02-08 00:00:00', '2024-02-07 23:30:00', '2024-02-07 23:00:00', '2024-02-07 22:30:00', '2024-02-07 22:00:00', '2024-02-07 21:30:00', '2024-02-07 21:00:00', '2024-02-07 20:00:00', '2024-02-07 19:30:00', '2024-02-07 19:00:00', '2024-02-07 18:30:00', '2024-02-07 18:00:00', '2024-02-07 17:30:00', '2024-02-07 17:00:00', '2024-02-07 16:30:00', '2024-02-07 16:00:00', '2024-02-07 15:30:00', '2024-02-07 15:00:00', '2024-02-07 14:30:00', '2024-02-07 14:00:00', '2024-02-07 13:30:00', '2024-02-07 13:00:00', '2024-02-07 12:30:00', '2024-02-07 12:00:00', '2024-02-07 11:30:00', '2024-02-07 11:00:00', '2024-02-07 10:30:00', '2024-02-07 10:00:00', '2024-02-07 09:30:00', '2024-02-07 09:00:00', '2024-02-07 08:30:00', '2024-02-07 08:00:00', '2024-02-07 07:30:00', '2024-02-07 07:00:00', '2024-02-07 06:30:00', '2024-02-07 06:00:00', '2024-02-07 05:30:00', '2024-02-07 05:00:00', '2024-02-07 04:30:00', '2024-02-07 03:30:00', '2024-02-07 02:00:00', '2024-02-07 01:30:00', '2024-02-07 01:00:00', '2024-02-07 00:30:00', '2024-02-06 23:30:00', '2024-02-06 23:00:00', '2024-02-06 22:30:00', '2024-02-06 21:30:00', '2024-02-06 21:00:00', '2024-02-06 20:30:00', '2024-02-06 20:00:00', '2024-02-06 19:30:00', '2024-02-06 19:00:00', '2024-02-06 18:30:00', '2024-02-06 18:00:00', '2024-02-06 17:00:00', '2024-02-06 16:30:00', '2024-02-06 16:00:00', '2024-02-06 15:30:00', '2024-02-06 15:00:00', '2024-02-06 14:30:00', '2024-02-06 14:00:00', '2024-02-06 13:30:00', '2024-02-06 13:00:00', '2024-02-06 12:30:00', '2024-02-06 12:00:00', '2024-02-06 11:30:00', '2024-02-06 11:00:00', '2024-02-06 10:30:00', '2024-02-06 10:00:00', '2024-02-06 09:30:00', '2024-02-06 09:00:00', '2024-02-06 08:30:00', '2024-02-06 08:00:00', '2024-02-06 07:30:00', '2024-02-06 07:00:00', '2024-02-06 06:30:00', '2024-02-06 06:00:00', '2024-02-06 05:30:00', '2024-02-06 05:00:00', '2024-02-06 04:30:00', '2024-02-06 04:00:00', '2024-02-06 03:30:00', '2024-02-06 03:00:00', '2024-02-06 02:30:00', '2024-02-06 01:30:00', '2024-02-06 01:00:00', '2024-02-06 00:00:00', '2024-02-05 23:30:00', '2024-02-05 23:00:00', '2024-02-05 22:30:00', '2024-02-05 22:00:00', '2024-02-05 21:30:00', '2024-02-05 21:00:00', '2024-02-05 20:30:00', '2024-02-05 20:00:00', '2024-02-05 19:30:00']"
Cyprus, Paphos International Airport (PFO/LCPH) ,"['LCPH 081900Z 02004KT 9999 BKN040 14/11 Q1018 NOSIG', 'LCPH 081830Z 08004KT 9999 BKN040 15/12 Q1018 NOSIG', 'LCPH 081800Z 01003KT 9999 SCT040 14/12 Q1018 NOSIG', 'LCPH 081730Z 01004KT 9999 FEW025 14/11 Q1019 NOSIG', 'LCPH 081700Z 07003KT 9999 FEW025 14/11 Q1019 NOSIG', 'LCPH 081630Z 07003KT 9999 FEW025 15/11 Q1018 NOSIG', 'LCPH 081530Z 23001KT 9999 FEW025 16/11 Q1018 NOSIG', 'LCPH 081500Z 00000KT 9999 FEW025 17/11 Q1018 NOSIG', 'LCPH 081430Z VRB03KT 9999 FEW050 18/12 Q1019 NOSIG', 'LCPH 081400Z 21003KT 170V240 9999 FEW050 17/11 Q1019 NOSIG', 'LCPH 081330Z 18004KT 150V240 9999 FEW050 18/12 Q1019 NOSIG', 'LCPH 081230Z 17005KT 150V210 9999 FEW050 18/12 Q1019 NOSIG', 'LCPH 081200Z 18005KT 160V240 9999 FEW050 18/12 Q1019 NOSIG', 'LCPH 081130Z 18006KT 170V240 9999 FEW050 19/13 Q1020 NOSIG', 'LCPH 081100Z 18008KT 160V240 9999 FEW050 19/13 Q1020 NOSIG', 'LCPH 081030Z 17007KT 150V240 9999 FEW050 19/13 Q1020 NOSIG', 'LCPH 080930Z 17008KT 150V230 9999 FEW030 BKN050 18/12 Q1021 NOSIG', 'LCPH 080830Z 15008KT 9999 FEW030 BKN050 18/12 Q1022 NOSIG', 'LCPH 080800Z 15007KT 090V160 9999 FEW030 SCT045 18/12 Q1022 NOSIG', 'LCPH 080730Z 09006KT 9999 FEW030 SCT045 18/11 Q1022 NOSIG', 'LCPH 080630Z 07004KT 9999 FEW030 BKN045 16/10 Q1022 NOSIG', 'LCPH 080600Z 07005KT 9999 FEW030 BKN045 15/10 Q1022 NOSIG', 'LCPH 080530Z 08005KT 010V080 9999 FEW030 BKN045 15/10 Q1022 NOSIG', 'LCPH 080500Z 03004KT 010V080 9999 FEW035 BKN045 14/10 Q1022 NOSIG', 'LCPH 080430Z 04004KT 010V080 9999 FEW035 BKN045 14/10 Q1022 NOSIG', 'LCPH 080400Z 07006KT 010V080 9999 FEW025 BKN045 14/11 Q1022 NOSIG', 'LCPH 080330Z 08004KT 9999 SCT025 BKN045 14/11 Q1022 NOSIG', 'LCPH 080300Z AUTO 08004KT 9999 OVC041 14/11 Q1021 NOSIG', 'LCPH 080230Z AUTO 08004KT 9999 OVC040 14/11 Q1021 NOSIG', 'LCPH 080130Z AUTO 01005KT 010V080 9999 FEW033 OVC043 14/11 Q1022 NOSIG', 'LCPH 080100Z AUTO 01005KT 9999 OVC042 14/11 Q1022 NOSIG', 'LCPH 080030Z AUTO VRB03KT 9999 OVC043 14/11 Q1022 NOSIG', 'LCPH 080000Z 08003KT 9999 BKN042 15/11 Q1022 NOSIG', 'LCPH 072330Z 07003KT 9999 BKN043 15/11 Q1022 NOSIG', 'LCPH 072300Z 00000KT 9999 BKN043 14/12 Q1022 NOSIG', 'LCPH 072230Z 07004KT 9999 BKN043 15/12 Q1022 NOSIG', 'LCPH 072200Z 08004KT 9999 BKN045 15/12 Q1022 NOSIG', 'LCPH 072130Z 07003KT 9999 BKN045 15/12 Q1022 NOSIG', 'LCPH 072100Z VRB02KT 9999 BKN045 15/12 Q1022 NOSIG', 'LCPH 072000Z 01003KT 9999 BKN043 15/12 Q1023 NOSIG', 'LCPH 071930Z 01003KT 9999 BKN045 15/12 Q1023 NOSIG', 'LCPH 071900Z 08004KT 010V080 9999 BKN045 15/13 Q1023 NOSIG', 'LCPH 071830Z 01003KT 9999 FEW025 BKN045 16/13 Q1023 NOSIG', 'LCPH 071800Z 01002KT 9999 SCT025 BKN045 16/13 Q1023 NOSIG', 'LCPH 071730Z 01001KT 9999 -RA FEW020 BKN040 16/13 Q1023 NOSIG', 'LCPH 071700Z 32002KT 9999 SCT024 BKN042 16/13 Q1023 NOSIG', 'LCPH 071630Z 00000KT 9999 SCT024 BKN042 17/12 Q1023 NOSIG', 'LCPH 071600Z 00000KT 9999 FEW025 SCT035 BKN042 16/12 Q1023 NOSIG', 'LCPH 071530Z 00000KT 9999 FEW025 SCT035 BKN042 17/12 Q1023 NOSIG', 'LCPH 071500Z VRB02KT 9999 FEW025 SCT035 BKN042 17/12 Q1023 NOSIG', 'LCPH 071430Z 26003KT 230V320 9999 FEW025 SCT035 BKN044 17/12 Q1022 NOSIG', 'LCPH 071400Z 00000KT 9999 FEW025 SCT035 BKN043 17/12 Q1023 NOSIG', 'LCPH 071330Z VRB02KT 9999 FEW025 SCT031 BKN043 18/12 Q1023 NOSIG', 'LCPH 071300Z VRB03KT 9999 FEW025 SCT031 BKN040 18/11 Q1023 NOSIG', 'LCPH 071230Z 20004KT 170V240 9999 BKN028 BKN037 18/12 Q1023 NOSIG', 'LCPH 071200Z VRB03KT 9999 SCT028 BKN037 18/12 Q1023 NOSIG', 'LCPH 071130Z VRB03KT 9999 FEW027 BKN037 18/11 Q1023 NOSIG', 'LCPH 071100Z 24004KT 210V280 9999 FEW027 BKN034 18/11 Q1023 NOSIG', 'LCPH 071030Z 25004KT 9999 FEW027 BKN034 18/11 Q1024 NOSIG', 'LCPH 071000Z 24004KT 180V260 9999 FEW027 BKN034 18/11 Q1024 NOSIG', 'LCPH 070930Z 26004KT 250V320 9999 FEW025 BKN030 18/11 Q1024 NOSIG', 'LCPH 070900Z VRB02KT 9999 FEW025 BKN030 17/11 Q1024 NOSIG', 'LCPH 070830Z VRB02KT 9999 FEW025 BKN030 17/10 Q1025 NOSIG', 'LCPH 070800Z VRB03KT 9999 FEW020 BKN030 17/11 Q1025 NOSIG', 'LCPH 070730Z 09003KT 9999 FEW020 BKN030 16/11 Q1025 NOSIG', 'LCPH 070700Z 07003KT 360V100 9999 FEW020 BKN030 15/12 Q1025 NOSIG', 'LCPH 070630Z 08003KT 9999 FEW020 BKN028 15/11 Q1025 NOSIG', 'LCPH 070600Z 06004KT 010V080 9999 FEW020 BKN028 14/10 Q1025 NOSIG', 'LCPH 070530Z AUTO VRB03KT 9999 OVC028 14/10 Q1024 NOSIG', 'LCPH 070500Z AUTO VRB02KT 9999 OVC028 13/10 Q1024 NOSIG', 'LCPH 070430Z AUTO 02006KT 010V080 9999 OVC028 13/10 Q1024 NOSIG', 'LCPH 070330Z AUTO VRB03KT 9999 OVC026 14/11 Q1024 NOSIG', 'LCPH 070200Z AUTO VRB01KT 9999 BKN025 OVC030 13/10 Q1024 NOSIG', 'LCPH 070130Z AUTO VRB02KT 9999 OVC025 13/10 Q1024 NOSIG', 'LCPH 070100Z AUTO 02003KT 360V080 9999 SCT018 OVC025 13/10 Q1024 NOSIG', 'LCPH 070030Z AUTO 03006KT 010V080 9999 FEW018 OVC027 12/10 Q1024 NOSIG', 'LCPH 062330Z AUTO 01006KT 9999 SCT019 OVC027 12/10 Q1024 NOSIG', 'LCPH 062300Z AUTO 02005KT 9999 FEW018 OVC026 12/10 Q1024 NOSIG', 'LCPH 062230Z AUTO 01007KT 010V080 9999 OVC023 12/10 Q1024 NOSIG', 'LCPH 062130Z AUTO 02007KT 9999 SCT017 OVC024 12/11 Q1024 NOSIG', 'LCPH 062100Z AUTO 02006KT 9999 BKN016 OVC023 12/11 Q1024 NOSIG', 'LCPH 062030Z AUTO 01006KT 010V080 9999 BKN017 OVC022 12/11 Q1024 NOSIG', 'LCPH 062000Z AUTO 02007KT 9999 OVC016 12/11 Q1024 NOSIG', 'LCPH 061930Z AUTO 02003KT 010V080 9999 OVC019 14/12 Q1024 NOSIG', 'LCPH 061900Z AUTO 01005KT 350V080 9999 OVC018 14/12 Q1024 NOSIG', 'LCPH 061830Z AUTO 02004KT 9999 OVC017 15/12 Q1024 NOSIG', 'LCPH 061800Z AUTO 02004KT 9999 BKN017 16/13 Q1024 NOSIG', 'LCPH 061700Z 35004KT 9999 BKN014 15/13 Q1024 NOSIG', 'LCPH 061630Z 32008KT 9999 BKN014 16/13 Q1024 NOSIG', 'LCPH 061600Z 31010KT 9999 BKN014 SCT018 16/14 Q1023 NOSIG', 'LCPH 061530Z 31009KT 9999 BKN014 17/14 Q1023 NOSIG', 'LCPH 061500Z 31010KT 9999 FEW012 17/14 Q1023 NOSIG', 'LCPH 061430Z 31011KT 9999 FEW012 SCT018 17/14 Q1023 NOSIG', 'LCPH 061400Z 31011KT 260V320 9999 FEW012 SCT018 18/14 Q1023 NOSIG', 'LCPH 061330Z 31010KT 9999 FEW012 SCT018 18/15 Q1023 NOSIG', 'LCPH 061300Z 31011KT 250V320 9999 FEW012 SCT018 18/15 Q1023 NOSIG', 'LCPH 061230Z 31012KT 250V320 9999 FEW013 19/15 Q1023 NOSIG', 'LCPH 061200Z 31013KT 260V320 9999 FEW018 19/15 Q1023 NOSIG', 'LCPH 061130Z 31013KT 250V320 9999 SCT018 19/15 Q1023 NOSIG', 'LCPH 061100Z 31012KT 250V320 9999 SCT020 19/15 Q1023 NOSIG', 'LCPH 061030Z 31010KT 250V320 9999 FEW020 19/14 Q1023 NOSIG', 'LCPH 061000Z 31010KT 250V320 9999 FEW018 19/14 Q1024 NOSIG', 'LCPH 060930Z 31010KT 9999 FEW018 19/14 Q1024 NOSIG', 'LCPH 060900Z 31010KT 250V320 9999 FEW014 19/15 Q1024 NOSIG', 'LCPH 060830Z 28007KT 240V320 9999 FEW014 SCT020 18/15 Q1024 NOSIG', 'LCPH 060800Z 27005KT 250V320 9999 FEW014 SCT020 18/14 Q1024 NOSIG', 'LCPH 060730Z 02002KT 9999 FEW012 SCT019 18/14 Q1024 NOSIG', 'LCPH 060700Z 02005KT 010V080 9999 FEW012 SCT016 15/10 Q1024 NOSIG', 'LCPH 060630Z 01006KT 010V080 9999 FEW012 SCT016 14/10 Q1024 NOSIG', 'LCPH 060600Z 05006KT 010V080 9999 BKN012 SCT021 13/09 Q1023 NOSIG', 'LCPH 060530Z 01007KT 010V080 9999 FEW016 SCT021 11/09 Q1023 NOSIG', 'LCPH 060500Z 01007KT 010V080 9999 FEW016 SCT021 11/09 Q1023 NOSIG', 'LCPH 060430Z 01008KT 010V080 9999 FEW020 SCT021 11/08 Q1023 NOSIG', 'LCPH 060400Z 02007KT 010V080 9999 FEW020 SCT021 10/08 Q1022 NOSIG', 'LCPH 060330Z 01008KT 010V080 9999 FEW020 BKN021 10/08 Q1022 NOSIG', 'LCPH 060300Z AUTO 07007KT 010V080 9999 NCD 10/08 Q1022 NOSIG', 'LCPH 060230Z AUTO 08006KT 9999 NCD 10/09 Q1022 NOSIG', 'LCPH 060130Z AUTO 07005KT 9999 NCD 11/09 Q1022 NOSIG', 'LCPH 060100Z AUTO 02007KT 9999 NCD 11/10 Q1022 NOSIG', 'LCPH 060000Z 01006KT 9999 FEW020 BKN021 12/10 Q1022 NOSIG', 'LCPH 052330Z 02008KT 9999 FEW020 BKN021 12/10 Q1022 NOSIG', 'LCPH 052300Z 03004KT 360V080 9999 FEW020 BKN021 12/09 Q1022 NOSIG', 'LCPH 052230Z 08003KT 9999 FEW020 BKN025 11/09 Q1022 NOSIG', 'LCPH 052200Z 00000KT 9999 FEW020 BKN025 11/09 Q1022 NOSIG', 'LCPH 052130Z 02007KT 9999 FEW020 BKN025 11/09 Q1022 NOSIG', 'LCPH 052100Z 02007KT 9999 FEW020 BKN025 11/09 Q1022 NOSIG', 'LCPH 052030Z 02007KT 9999 FEW030 SCT035 BKN040 11/08 Q1022 NOSIG', 'LCPH 052000Z 01006KT 9999 FEW030 SCT035 BKN040 12/08 Q1022 NOSIG', 'LCPH 051930Z 01004KT 9999 FEW030 SCT035 BKN040 13/08 Q1022 NOSIG']","['2024-02-08 19:00:00', '2024-02-08 18:30:00', '2024-02-08 18:00:00', '2024-02-08 17:30:00', '2024-02-08 17:00:00', '2024-02-08 16:30:00', '2024-02-08 15:30:00', '2024-02-08 15:00:00', '2024-02-08 14:30:00', '2024-02-08 14:00:00', '2024-02-08 13:30:00', '2024-02-08 12:30:00', '2024-02-08 12:00:00', '2024-02-08 11:30:00', '2024-02-08 11:00:00', '2024-02-08 10:30:00', '2024-02-08 09:30:00', '2024-02-08 08:30:00', '2024-02-08 08:00:00', '2024-02-08 07:30:00', '2024-02-08 06:30:00', '2024-02-08 06:00:00', '2024-02-08 05:30:00', '2024-02-08 05:00:00', '2024-02-08 04:30:00', '2024-02-08 04:00:00', '2024-02-08 03:30:00', '2024-02-08 03:00:00', '2024-02-08 02:30:00', '2024-02-08 01:30:00', '2024-02-08 01:00:00', '2024-02-08 00:30:00', '2024-02-08 00:00:00', '2024-02-07 23:30:00', '2024-02-07 23:00:00', '2024-02-07 22:30:00', '2024-02-07 22:00:00', '2024-02-07 21:30:00', '2024-02-07 21:00:00', '2024-02-07 20:00:00', '2024-02-07 19:30:00', '2024-02-07 19:00:00', '2024-02-07 18:30:00', '2024-02-07 18:00:00', '2024-02-07 17:30:00', '2024-02-07 17:00:00', '2024-02-07 16:30:00', '2024-02-07 16:00:00', '2024-02-07 15:30:00', '2024-02-07 15:00:00', '2024-02-07 14:30:00', '2024-02-07 14:00:00', '2024-02-07 13:30:00', '2024-02-07 13:00:00', '2024-02-07 12:30:00', '2024-02-07 12:00:00', '2024-02-07 11:30:00', '2024-02-07 11:00:00', '2024-02-07 10:30:00', '2024-02-07 10:00:00', '2024-02-07 09:30:00', '2024-02-07 09:00:00', '2024-02-07 08:30:00', '2024-02-07 08:00:00', '2024-02-07 07:30:00', '2024-02-07 07:00:00', '2024-02-07 06:30:00', '2024-02-07 06:00:00', '2024-02-07 05:30:00', '2024-02-07 05:00:00', '2024-02-07 04:30:00', '2024-02-07 03:30:00', '2024-02-07 02:00:00', '2024-02-07 01:30:00', '2024-02-07 01:00:00', '2024-02-07 00:30:00', '2024-02-06 23:30:00', '2024-02-06 23:00:00', '2024-02-06 22:30:00', '2024-02-06 21:30:00', '2024-02-06 21:00:00', '2024-02-06 20:30:00', '2024-02-06 20:00:00', '2024-02-06 19:30:00', '2024-02-06 19:00:00', '2024-02-06 18:30:00', '2024-02-06 18:00:00', '2024-02-06 17:00:00', '2024-02-06 16:30:00', '2024-02-06 16:00:00', '2024-02-06 15:30:00', '2024-02-06 15:00:00', '2024-02-06 14:30:00', '2024-02-06 14:00:00', '2024-02-06 13:30:00', '2024-02-06 13:00:00', '2024-02-06 12:30:00', '2024-02-06 12:00:00', '2024-02-06 11:30:00', '2024-02-06 11:00:00', '2024-02-06 10:30:00', '2024-02-06 10:00:00', '2024-02-06 09:30:00', '2024-02-06 09:00:00', '2024-02-06 08:30:00', '2024-02-06 08:00:00', '2024-02-06 07:30:00', '2024-02-06 07:00:00', '2024-02-06 06:30:00', '2024-02-06 06:00:00', '2024-02-06 05:30:00', '2024-02-06 05:00:00', '2024-02-06 04:30:00', '2024-02-06 04:00:00', '2024-02-06 03:30:00', '2024-02-06 03:00:00', '2024-02-06 02:30:00', '2024-02-06 01:30:00', '2024-02-06 01:00:00', '2024-02-06 00:00:00', '2024-02-05 23:30:00', '2024-02-05 23:00:00', '2024-02-05 22:30:00', '2024-02-05 22:00:00', '2024-02-05 21:30:00', '2024-02-05 21:00:00', '2024-02-05 20:30:00', '2024-02-05 20:00:00', '2024-02-05 19:30:00']"
Czechia, Brno Turany Airport (BRQ/LKTB) ,"['LKTB 081900Z 00000KT 8000 -RA SCT036 07/06 Q0999 NOSIG', 'LKTB 081830Z VRB02KT 7000 -RA BKN019 07/06 Q0999 NOSIG', 'LKTB 081800Z 07005KT 6000 -RA SCT044 07/06 Q0999 NOSIG', 'LKTB 081730Z 08004KT 7000 FEW048 07/06 Q0999 NOSIG', 'LKTB 081700Z VRB02KT 7000 BKN042 06/05 Q1000 NOSIG', 'LKTB 081630Z 30001KT 7000 NSC 06/05 Q1000 NOSIG', 'LKTB 081600Z VRB01KT 9000 FEW036 06/05 Q1000 NOSIG', 'LKTB 081530Z VRB01KT 9999 -RA SCT042 06/05 Q1001 NOSIG', 'LKTB 081500Z VRB02KT 6000 OVC031 06/05 Q1001 NOSIG', 'LKTB 081430Z VRB02KT 9999 1800 -RA BKN039 OVC049 06/05 Q1001 NOSIG', 'LKTB 081400Z VRB02KT 8000 -RA OVC037 06/05 Q1001 NOSIG', 'LKTB 081330Z 03002KT 6000 -RA FEW021 OVC035 06/04 Q1001 NOSIG', 'LKTB 081300Z 05003KT 020V080 9999 -RA BKN044 06/04 Q1002 NOSIG', 'LKTB 081230Z VRB02KT 9999 -RA FEW006 SCT032 OVC037 06/04 Q1002 NOSIG', 'LKTB 081200Z VRB01KT 9999 -RA SCT007 OVC035 05/03 Q1003 NOSIG', 'LKTB 081130Z VRB02KT 9999 BKN007 OVC036 05/03 Q1003 NOSIG', 'LKTB 081100Z VRB02KT 9999 BKN007 OVC033 05/02 Q1003 NOSIG', 'LKTB 081030Z 15003KT 120V180 9999 BKN007 OVC031 04/02 Q1004 NOSIG', 'LKTB 081000Z VRB02KT 9999 BKN007 04/02 Q1004 NOSIG', 'LKTB 080930Z 09004KT 060V140 9999 BKN006 BKN041 04/02 Q1004 NOSIG', 'LKTB 080900Z 08003KT 9999 -RA SCT006 OVC034 02/01 Q1004 NOSIG', 'LKTB 080830Z 09006KT 9999 FEW006 02/01 Q1004 NOSIG', 'LKTB 080800Z 09008KT 9999 BKN040 02/00 Q1004 NOSIG', 'LKTB 080730Z 08007KT 9999 -RA BKN037 02/00 Q1004 NOSIG', 'LKTB 080700Z 07007KT 9999 -RA FEW031 OVC038 01/00 Q1004 NOSIG', 'LKTB 080630Z 07008KT 9999 -RA SCT018 01/M00 Q1004 NOSIG', 'LKTB 080600Z 08008KT 9999 -RA FEW016 BKN018 01/M00 Q1004 NOSIG', 'LKTB 080530Z 08008KT 9999 -RASN FEW013 BKN018 OVC028 01/M00 Q1004 NOSIG', 'LKTB 080500Z 08009KT 9999 -RASN FEW009 SCT014 OVC018 01/M00 Q1004 NOSIG', 'LKTB 080430Z 07009KT 9999 -RASN SCT012 BKN017 OVC024 01/M00 Q1004 NOSIG', 'LKTB 080400Z 07009KT 9999 -RASN SCT012 OVC015 01/M00 Q1004 NOSIG', 'LKTB 080330Z 07011KT 9999 -RA BKN011 OVC025 02/00 Q1004 NOSIG', 'LKTB 080300Z 07010KT 9999 -RA OVC010 02/00 Q1004 NOSIG', 'LKTB 080230Z 07008KT 9999 -RA SCT010 BKN015 OVC023 03/01 Q1004 NOSIG', 'LKTB 080130Z 06008KT 9999 -RA OVC025 03/01 Q1004 NOSIG', 'LKTB 080100Z 06005KT 9999 -RA OVC025 04/01 Q1005 NOSIG', 'LKTB 080030Z 05004KT 9999 -RA BKN026 04/01 Q1004 NOSIG', 'LKTB 080000Z 34005KT 9999 -RA BKN026 04/00 Q1005 NOSIG', 'LKTB 072330Z 33005KT 9999 -RA BKN026 04/00 Q1005 NOSIG', 'LKTB 072300Z 33006KT 9999 -RA BKN028 04/00 Q1005 NOSIG', 'LKTB 072230Z 34007KT 9999 BKN028 04/00 Q1005 NOSIG', 'LKTB 072200Z 33006KT 9999 BKN028 04/M00 Q1005 NOSIG', 'LKTB 072130Z 33005KT 9999 BKN028 05/00 Q1004 NOSIG', 'LKTB 072100Z 34007KT 9999 FEW030 05/00 Q1004 NOSIG', 'LKTB 072030Z 35009KT 9999 BKN031 05/01 Q1004 NOSIG', 'LKTB 072000Z 36011KT 9999 -RA BKN038 07/02 Q1003 NOSIG', 'LKTB 071930Z 25009KT 9999 BKN034 10/03 Q1003 NOSIG', 'LKTB 071900Z 24010KT 9999 BKN038 10/03 Q1003 NOSIG', 'LKTB 071830Z 25011KT 9999 FEW046 10/03 Q1003 NOSIG', 'LKTB 071800Z 24013KT CAVOK 10/03 Q1003 NOSIG', 'LKTB 071730Z 24014KT CAVOK 10/03 Q1003 NOSIG', 'LKTB 071700Z 25015KT 9999 FEW044 11/03 Q1003 NOSIG', 'LKTB 071630Z 25016KT 9999 FEW046 11/03 Q1003 NOSIG', 'LKTB 071600Z 25016KT 9999 FEW046 11/03 Q1003 NOSIG', 'LKTB 071530Z 25017KT 9999 FEW044 11/03 Q1003 NOSIG', 'LKTB 071500Z 24018KT 9999 FEW044 11/03 Q1004 NOSIG', 'LKTB 071430Z 25017G27KT 9999 BKN042 11/03 Q1004 NOSIG', 'LKTB 071400Z 25019KT 9999 SCT042 11/02 Q1004 NOSIG', 'LKTB 071330Z 25017KT 9999 BKN042 11/02 Q1004 NOSIG', 'LKTB 071300Z 25016KT 9999 SCT042 11/02 Q1004 NOSIG', 'LKTB 071230Z 24018KT 9999 FEW042 11/02 Q1004 NOSIG', 'LKTB 071200Z 25017KT 9999 SCT043 11/02 Q1005 NOSIG', 'LKTB 071130Z 25015KT 9999 VCSH FEW024 SCT043 10/02 Q1005 NOSIG', 'LKTB 071100Z 25014KT 9999 FEW037 10/02 Q1005 NOSIG', 'LKTB 071030Z 25015KT 9999 FEW037 10/02 Q1005 NOSIG', 'LKTB 071000Z 25018KT 9999 FEW037 10/02 Q1006 NOSIG', 'LKTB 070930Z 25017KT 9999 SCT035 11/02 Q1006 NOSIG', 'LKTB 070900Z 24013KT 9999 FEW036 10/02 Q1006 NOSIG', 'LKTB 070830Z 23011KT 9999 FEW041 08/02 Q1006 NOSIG', 'LKTB 070800Z 23011KT 9999 FEW041 07/02 Q1006 NOSIG', 'LKTB 070730Z 23010KT 9999 FEW041 06/01 Q1006 NOSIG', 'LKTB 070700Z 21009KT 9999 FEW041 06/01 Q1006 NOSIG', 'LKTB 070630Z 21008KT 9999 FEW041 05/01 Q1007 NOSIG', 'LKTB 070600Z 21009KT 9999 FEW041 05/01 Q1007 NOSIG', 'LKTB 070530Z 21011KT 9999 FEW041 05/01 Q1007 NOSIG', 'LKTB 070500Z 21010KT 9999 SCT041 05/01 Q1007 NOSIG', 'LKTB 070430Z 21010KT 9999 SCT042 05/01 Q1007 NOSIG', 'LKTB 070400Z 20012KT 9999 FEW041 06/01 Q1008 NOSIG', 'LKTB 070330Z 21010KT 9999 OVC041 06/01 Q1008 NOSIG', 'LKTB 070300Z 21011KT 9999 OVC043 06/01 Q1008 NOSIG', 'LKTB 070230Z 23012KT 9999 OVC043 07/01 Q1009 NOSIG', 'LKTB 070200Z 23014KT 9999 BKN044 06/01 Q1009 NOSIG', 'LKTB 070130Z 22013KT 9999 BKN048 06/01 Q1009 NOSIG', 'LKTB 070100Z 22014KT 9999 SCT045 06/01 Q1009 NOSIG', 'LKTB 070030Z 23013KT 9999 SCT046 07/01 Q1009 NOSIG', 'LKTB 070000Z 22012KT 9999 FEW048 06/01 Q1010 NOSIG', 'LKTB 062330Z 22010KT 9999 SCT048 06/01 Q1010 NOSIG', 'LKTB 062300Z 22011KT 9999 OVC048 07/02 Q1010 NOSIG', 'LKTB 062230Z 23012KT 9999 OVC049 07/02 Q1010 NOSIG', 'LKTB 062200Z 22012KT 9999 OVC047 07/02 Q1011 NOSIG', 'LKTB 062130Z 21012KT 9999 BKN048 07/02 Q1011 NOSIG', 'LKTB 062100Z 22009KT 9999 BKN046 07/02 Q1011 NOSIG', 'LKTB 062030Z 21008KT 9999 BKN045 06/02 Q1012 NOSIG', 'LKTB 062000Z 20008KT 9999 BKN044 06/02 Q1012 NOSIG', 'LKTB 061930Z 20007KT 9999 BKN045 06/02 Q1012 NOSIG', 'LKTB 061900Z 20008KT 9999 BKN043 07/01 Q1012 NOSIG', 'LKTB 061830Z 19010KT 9999 BKN043 07/01 Q1012 NOSIG', 'LKTB 061800Z 20007KT 9999 BKN042 07/01 Q1012 NOSIG', 'LKTB 061730Z 23009KT 9999 SCT044 07/02 Q1012 NOSIG', 'LKTB 061700Z 24007KT 9999 SCT045 07/01 Q1013 NOSIG', 'LKTB 061630Z 22006KT 9999 FEW046 06/01 Q1012 NOSIG', 'LKTB 061600Z 25007KT CAVOK 07/01 Q1013 NOSIG', 'LKTB 061530Z 28009KT CAVOK 09/01 Q1013 NOSIG', 'LKTB 061500Z 27013KT 9999 FEW040 09/00 Q1013 NOSIG', 'LKTB 061430Z 29010KT 9999 BKN037 09/01 Q1013 NOSIG', 'LKTB 061400Z 29017KT 9999 BKN037 09/01 Q1013 NOSIG', 'LKTB 061330Z 30021KT 9999 BKN037 10/00 Q1013 NOSIG', 'LKTB 061300Z 29020KT 9999 SCT039 10/00 Q1013 WS R27 NOSIG', 'LKTB 061230Z 29018KT 9999 SCT037 10/01 Q1014 NOSIG', 'LKTB 061200Z 28019KT 9999 FEW039 10/01 Q1014 NOSIG', 'LKTB 061130Z 29017G27KT 9999 FEW035 10/01 Q1014 NOSIG', 'LKTB 061100Z 29010KT 9999 FEW035 10/02 Q1014 NOSIG', 'LKTB 061030Z 29011KT 9999 FEW036 09/01 Q1014 NOSIG', 'LKTB 061000Z 29007KT 9999 FEW035 09/01 Q1014 NOSIG', 'LKTB 060930Z 29008KT CAVOK 08/01 Q1014 NOSIG', 'LKTB 060900Z 29007KT CAVOK 08/01 Q1014 NOSIG', 'LKTB 060830Z 26005KT CAVOK 07/01 Q1014 NOSIG', 'LKTB 060800Z 16004KT 110V220 CAVOK 05/00 Q1014 NOSIG', 'LKTB 060730Z 26003KT CAVOK 03/M01 Q1013 NOSIG', 'LKTB 060700Z 21004KT CAVOK 01/M02 Q1013 NOSIG', 'LKTB 060630Z VRB01KT CAVOK 03/M01 Q1013 NOSIG', 'LKTB 060600Z 08003KT CAVOK 03/M01 Q1013 NOSIG', 'LKTB 060530Z 11003KT CAVOK 01/M02 Q1013 NOSIG', 'LKTB 060500Z 27002KT CAVOK 04/M01 Q1013 NOSIG', 'LKTB 060430Z 24003KT 220V280 CAVOK 04/M01 Q1013 NOSIG', 'LKTB 060400Z 21003KT 190V260 CAVOK 04/M01 Q1013 NOSIG', 'LKTB 060330Z 18003KT CAVOK 04/M01 Q1013 NOSIG', 'LKTB 060300Z 23004KT CAVOK 04/M01 Q1013 NOSIG', 'LKTB 060230Z VRB02KT CAVOK 05/M01 Q1014 NOSIG', 'LKTB 060200Z 00000KT CAVOK 04/M01 Q1014 NOSIG', 'LKTB 060130Z 19004KT CAVOK 05/M00 Q1014 NOSIG', 'LKTB 060100Z 19003KT CAVOK 05/M00 Q1014 NOSIG', 'LKTB 060030Z 24004KT CAVOK 06/00 Q1014 NOSIG', 'LKTB 060000Z 21005KT CAVOK 05/00 Q1015 NOSIG', 'LKTB 052330Z 21006KT CAVOK 05/00 Q1015 NOSIG', 'LKTB 052300Z 23006KT CAVOK 05/00 Q1015 NOSIG', 'LKTB 052230Z 23008KT CAVOK 05/00 Q1015 NOSIG', 'LKTB 052200Z 23010KT CAVOK 06/01 Q1015 NOSIG', 'LKTB 052130Z 23009KT CAVOK 06/01 Q1015 NOSIG', 'LKTB 052100Z 22008KT CAVOK 06/01 Q1015 NOSIG', 'LKTB 052030Z 22007KT CAVOK 07/01 Q1015 NOSIG', 'LKTB 052000Z 21009KT CAVOK 06/02 Q1015 NOSIG', 'LKTB 051930Z 21006KT CAVOK 06/01 Q1015 NOSIG']","['2024-02-08 19:00:00', '2024-02-08 18:30:00', '2024-02-08 18:00:00', '2024-02-08 17:30:00', '2024-02-08 17:00:00', '2024-02-08 16:30:00', '2024-02-08 16:00:00', '2024-02-08 15:30:00', '2024-02-08 15:00:00', '2024-02-08 14:30:00', '2024-02-08 14:00:00', '2024-02-08 13:30:00', '2024-02-08 13:00:00', '2024-02-08 12:30:00', '2024-02-08 12:00:00', '2024-02-08 11:30:00', '2024-02-08 11:00:00', '2024-02-08 10:30:00', '2024-02-08 10:00:00', '2024-02-08 09:30:00', '2024-02-08 09:00:00', '2024-02-08 08:30:00', '2024-02-08 08:00:00', '2024-02-08 07:30:00', '2024-02-08 07:00:00', '2024-02-08 06:30:00', '2024-02-08 06:00:00', '2024-02-08 05:30:00', '2024-02-08 05:00:00', '2024-02-08 04:30:00', '2024-02-08 04:00:00', '2024-02-08 03:30:00', '2024-02-08 03:00:00', '2024-02-08 02:30:00', '2024-02-08 01:30:00', '2024-02-08 01:00:00', '2024-02-08 00:30:00', '2024-02-08 00:00:00', '2024-02-07 23:30:00', '2024-02-07 23:00:00', '2024-02-07 22:30:00', '2024-02-07 22:00:00', '2024-02-07 21:30:00', '2024-02-07 21:00:00', '2024-02-07 20:30:00', '2024-02-07 20:00:00', '2024-02-07 19:30:00', '2024-02-07 19:00:00', '2024-02-07 18:30:00', '2024-02-07 18:00:00', '2024-02-07 17:30:00', '2024-02-07 17:00:00', '2024-02-07 16:30:00', '2024-02-07 16:00:00', '2024-02-07 15:30:00', '2024-02-07 15:00:00', '2024-02-07 14:30:00', '2024-02-07 14:00:00', '2024-02-07 13:30:00', '2024-02-07 13:00:00', '2024-02-07 12:30:00', '2024-02-07 12:00:00', '2024-02-07 11:30:00', '2024-02-07 11:00:00', '2024-02-07 10:30:00', '2024-02-07 10:00:00', '2024-02-07 09:30:00', '2024-02-07 09:00:00', '2024-02-07 08:30:00', '2024-02-07 08:00:00', '2024-02-07 07:30:00', '2024-02-07 07:00:00', '2024-02-07 06:30:00', '2024-02-07 06:00:00', '2024-02-07 05:30:00', '2024-02-07 05:00:00', '2024-02-07 04:30:00', '2024-02-07 04:00:00', '2024-02-07 03:30:00', '2024-02-07 03:00:00', '2024-02-07 02:30:00', '2024-02-07 02:00:00', '2024-02-07 01:30:00', '2024-02-07 01:00:00', '2024-02-07 00:30:00', '2024-02-07 00:00:00', '2024-02-06 23:30:00', '2024-02-06 23:00:00', '2024-02-06 22:30:00', '2024-02-06 22:00:00', '2024-02-06 21:30:00', '2024-02-06 21:00:00', '2024-02-06 20:30:00', '2024-02-06 20:00:00', '2024-02-06 19:30:00', '2024-02-06 19:00:00', '2024-02-06 18:30:00', '2024-02-06 18:00:00', '2024-02-06 17:30:00', '2024-02-06 17:00:00', '2024-02-06 16:30:00', '2024-02-06 16:00:00', '2024-02-06 15:30:00', '2024-02-06 15:00:00', '2024-02-06 14:30:00', '2024-02-06 14:00:00', '2024-02-06 13:30:00', '2024-02-06 13:00:00', '2024-02-06 12:30:00', '2024-02-06 12:00:00', '2024-02-06 11:30:00', '2024-02-06 11:00:00', '2024-02-06 10:30:00', '2024-02-06 10:00:00', '2024-02-06 09:30:00', '2024-02-06 09:00:00', '2024-02-06 08:30:00', '2024-02-06 08:00:00', '2024-02-06 07:30:00', '2024-02-06 07:00:00', '2024-02-06 06:30:00', '2024-02-06 06:00:00', '2024-02-06 05:30:00', '2024-02-06 05:00:00', '2024-02-06 04:30:00', '2024-02-06 04:00:00', '2024-02-06 03:30:00', '2024-02-06 03:00:00', '2024-02-06 02:30:00', '2024-02-06 02:00:00', '2024-02-06 01:30:00', '2024-02-06 01:00:00', '2024-02-06 00:30:00', '2024-02-06 00:00:00', '2024-02-05 23:30:00', '2024-02-05 23:00:00', '2024-02-05 22:30:00', '2024-02-05 22:00:00', '2024-02-05 21:30:00', '2024-02-05 21:00:00', '2024-02-05 20:30:00', '2024-02-05 20:00:00', '2024-02-05 19:30:00']"
Czechia, Karlovy Vary Airport (KLV/LKKV) ,"['LKKV 081900Z 25003KT 210V280 5000 -RA BR SCT003 OVC010 05/05 Q0996', 'LKKV 081830Z 24003KT 200V270 6000 -RA SCT002 OVC012 04/04 Q0996', 'LKKV 081800Z VRB01KT 1800 -RA BR SCT009 OVC015 02/02 Q0996', 'LKKV 081730Z 00000KT 5000 -RA BR SCT003 OVC011 02/02 Q0996', 'LKKV 081700Z VRB03KT 3000 -RA BR SCT005 BKN012 OVC021 02/01 Q0996', 'LKKV 081630Z VRB02KT 1500 -RA BR SCT002 BKN007 OVC020 01/01 Q0997', 'LKKV 081600Z 03003KT 0500 R29/P2000N -RA FG BKN003 OVC008 01/01 Q0997', 'LKKV 081530Z 04002KT 0700 R29/1900D -RA FG BKN004 OVC006 02/01 Q0997', 'LKKV 081500Z 04002KT 0600 R29/2000U -RA FG BKN003 OVC006 02/01 Q0997', 'LKKV 081430Z 04003KT 330V080 0500 R29/1900D -RA FG BKN002 OVC005 02/02 Q0998', 'LKKV 081400Z 00000KT 1200 R29/1300 -RA BR BKN003 OVC011 03/03 Q0998', 'LKKV 081330Z 00000KT 3000 -RA BR SCT004 OVC012 03/03 Q0999', 'LKKV 081300Z 20003KT 6000 FEW003 BKN015 OVC024 03/02 Q0999', 'LKKV 081230Z 22003KT 5000 -RA BR FEW003 BKN013 OVC025 02/02 Q0999', 'LKKV 081200Z 20003KT 3000 -RA BR FEW002 BKN015 OVC030 02/01 Q1000', 'LKKV 081130Z 18002KT 8000 -RA FEW002 BKN013 OVC028 02/01 Q1000', 'LKKV 081100Z 18001KT 6000 -RA FEW004 SCT011 OVC040 02/01 Q1001', 'LKKV 081030Z VRB02KT 6000 2000N -RA VCFG BKN008 OVC025 01/01 Q1001', 'LKKV 081000Z VRB02KT 8000 -RA FEW010 BKN025 OVC040 01/00 Q1001', 'LKKV 080930Z 15003KT 6000 -RA FEW004 BKN020 OVC030 00/00 Q1001', 'LKKV 080900Z 18003KT 3500 -RA BR SCT002 BKN015 OVC025 00/M00 Q1001', 'LKKV 080830Z 12002KT 4000 -RA BR SCT002 BKN010 OVC015 00/00 Q1001', 'LKKV 080800Z 11002KT 3500 -RA BR FEW003 SCT009 OVC015 00/M00 Q1001', 'LKKV 080730Z 11002KT 3500 -RA BR BKN003 OVC012 00/M00 Q1001', 'LKKV 080700Z 13003KT 100V180 3000 -RA BR BKN002 OVC012 00/M00 Q1001', 'LKKV 080630Z 13002KT 3000 -FZRA BR BKN003 OVC015 M00/M00 Q1001', 'LKKV 080600Z VRB02KT 4500 -FZRA BR BKN005 OVC014 M00/M00 Q1001', 'LKKV 080500Z VRB02KT 4600 -FZRA BR BKN003 OVC014 M00/M01 Q1001', 'LKKV 080400Z 10004KT 4600 -FZRA BR BKN003 OVC014 M00/M01 Q1001', 'LKKV 080300Z 11003KT 080V140 4000 -SN BKN004 OVC014 M00/M01 Q1002', 'LKKV 080200Z 11005KT 4500 -SN BKN004 OVC014 M00/M01 Q1002', 'LKKV 080100Z 10006KT 4900 -SN BR SCT008 OVC014 M00/M01 Q1002', 'LKKV 080000Z 12005KT 5000 -SN BR BKN005 OVC019 M00/M01 Q1003', 'LKKV 072300Z 11005KT 3500 -SN BR SCT004 OVC030 M00/M00 Q1003', 'LKKV 072200Z 12004KT 4000 -SN BR BKN004 OVC014 00/M00 Q1003', 'LKKV 072100Z 07002KT 4000 -SN BR BKN003 OVC016 00/M00 Q1003', 'LKKV 072000Z VRB01KT 2900 -SN BKN002 OVC012 00/M00 Q1003', 'LKKV 071900Z VRB01KT 2900 -SN BR BKN001 OVC014 00/M00 Q1003', 'LKKV 071830Z 22002KT 2800 -SN BR BKN002 OVC016 00/M00 Q1004', 'LKKV 071800Z VRB01KT 4000 -SN BR SCT004 BKN011 OVC034 00/M00 Q1004', 'LKKV 071730Z 29004KT 4800 -SN BR BKN013 OVC031 00/00 Q1004', 'LKKV 071700Z 31003KT 280V340 4800 -SN BR SCT005 OVC012 00/M00 Q1003', 'LKKV 071630Z 34004KT 6000 -RASN BKN004 OVC009 02/01 Q1003', 'LKKV 071600Z VRB02KT 6000 -RA BKN005 OVC017 02/02 Q1002', 'LKKV 071530Z 31006KT 8000 -RA BKN007 OVC017 03/02 Q1002', 'LKKV 071500Z 31008KT 8000 -RA BKN008 OVC013 03/02 Q1002', 'LKKV 071430Z 30010KT 6000 -RA BKN004 OVC011 05/04 Q1002', 'LKKV 071400Z 25010G21KT 210V290 5000 2500NW -RA BR SCT004 BKN008 OVC012 06/05 Q1002', 'LKKV 071330Z 25012KT 220V280 5000 2500NW -RA BR SCT005 BKN008 OVC012 06/05 Q1002', 'LKKV 071300Z 25012G31KT 210V300 3500 -RA BR BKN008 OVC012 06/05 Q1002', 'LKKV 071230Z 25012G24KT 200V280 9000 -RA OVC012 06/05 Q1002', 'LKKV 071200Z 25012G22KT 220V290 9000 -RA OVC012 06/05 Q1002', 'LKKV 071130Z 25014G25KT 190V290 9000 -RA OVC012 06/05 Q1002', 'LKKV 071100Z 24012G25KT 200V300 9000 -RA OVC012 06/05 Q1002', 'LKKV 071030Z 25012G26KT 190V290 9000 -RA BKN012 OVC022 06/04 Q1002', 'LKKV 071000Z 24013G24KT 190V290 8000 -RA BKN012 OVC021 06/04 Q1002', 'LKKV 070930Z 24012G25KT 200V280 9999 -RA BKN014 OVC022 06/04 Q1002', 'LKKV 070900Z 25013G24KT 210V290 9999 -RA OVC015 06/04 Q1002', 'LKKV 070830Z 25014G24KT 190V280 9999 -RA BKN016 OVC024 06/04 Q1003', 'LKKV 070800Z 25011G24KT 200V300 9999 OVC018 07/03 Q1003', 'LKKV 070730Z 24014G28KT 200V270 9999 OVC017 07/03 Q1003', 'LKKV 070700Z 25013KT 210V280 9999 BKN017 OVC023 06/03 Q1003', 'LKKV 070630Z 24013G27KT 200V300 9999 OVC016 06/03 Q1003', 'LKKV 070600Z 25014G24KT 180V280 9999 OVC015 06/03 Q1003', 'LKKV 070500Z 25014G24KT 200V280 9999 OVC016 06/03 Q1004', 'LKKV 070400Z 24010G21KT 210V010 9999 -RA OVC017 06/03 Q1004', 'LKKV 070300Z 24012KT 180V280 9999 OVC017 06/02 Q1005', 'LKKV 070200Z 25013G23KT 210V290 9999 OVC018 06/02 Q1006', 'LKKV 070100Z 25010G20KT 200V290 9999 OVC017 06/02 Q1007', 'LKKV 070000Z 25011G22KT 210V280 9999 OVC016 06/03 Q1007', 'LKKV 062300Z 25010G20KT 200V290 9999 OVC016 06/03 Q1008', 'LKKV 062200Z 24012G22KT 200V280 9999 OVC016 06/02 Q1008', 'LKKV 062100Z 25011G23KT 180V290 9999 OVC017 06/03 Q1009', 'LKKV 062000Z 24013G26KT 200V280 9999 BKN017 06/03 Q1009', 'LKKV 061900Z 25012G22KT 200V280 9999 -RA FEW013 BKN016 BKN026 05/03 Q1010', 'LKKV 061830Z 25012G24KT 210V280 9999 -RA BKN018 OVC030 06/03 Q1010', 'LKKV 061800Z 25014G24KT 220V280 9999 BKN020 OVC027 06/02 Q1010', 'LKKV 061730Z 25011G21KT 180V290 9999 OVC019 06/02 Q1010', 'LKKV 061700Z 25012G23KT 200V300 9999 OVC018 06/02 Q1010', 'LKKV 061630Z 24010G21KT 190V270 9999 OVC017 06/03 Q1010', 'LKKV 061600Z 25011KT 180V290 9999 BKN015 OVC020 06/03 Q1010', 'LKKV 061530Z 24007G17KT 190V290 9999 OVC014 05/03 Q1011', 'LKKV 061500Z 25011KT 200V290 9999 OVC014 05/03 Q1011', 'LKKV 061430Z 25012G22KT 210V280 9999 OVC014 05/03 Q1011', 'LKKV 061400Z 25011G22KT 190V290 9999 OVC014 05/02 Q1011', 'LKKV 061330Z 24012G23KT 200V280 9999 OVC014 05/02 Q1011', 'LKKV 061300Z 24012G23KT 200V280 9999 BKN013 OVC016 05/02 Q1012', 'LKKV 061230Z 25011G22KT 200V280 9999 BKN013 OVC016 05/02 Q1012', 'LKKV 061200Z 25012KT 210V280 9999 BKN012 OVC016 05/02 Q1012', 'LKKV 061130Z 25011KT 210V300 9999 -RA BKN012 OVC018 05/02 Q1013', 'LKKV 061100Z 25011KT 200V280 9999 -RA BKN012 OVC020 04/02 Q1013', 'LKKV 061030Z 25010KT 210V290 9999 -RA FEW011 BKN013 OVC020 04/02 Q1013', 'LKKV 061000Z 25009KT 210V290 9999 -RA FEW012 BKN013 OVC020 04/02 Q1013', 'LKKV 060930Z 26012KT 200V290 9999 -RA BKN014 OVC018 04/02 Q1013', 'LKKV 060900Z 25009KT 220V290 9999 -RA OVC015 04/02 Q1013', 'LKKV 060830Z 25010KT 220V280 9999 OVC016 04/01 Q1013', 'LKKV 060800Z 25011G21KT 210V290 9999 OVC016 04/01 Q1013', 'LKKV 060730Z 26011G22KT 220V290 9999 OVC015 04/01 Q1013', 'LKKV 060700Z 26013G23KT 200V280 9999 OVC014 04/01 Q1013', 'LKKV 060630Z 26011G23KT 220V290 9999 OVC014 04/01 Q1013', 'LKKV 060600Z 26012G26KT 210V300 9999 OVC013 04/01 Q1013', 'LKKV 060500Z 26010G20KT 190V290 9999 OVC012 04/01 Q1013', 'LKKV 060400Z 25011KT 210V290 9999 OVC012 04/02 Q1013', 'LKKV 060300Z 25012G22KT 200V280 9999 BKN010 04/02 Q1014', 'LKKV 060200Z 24009G19KT 200V280 9999 BKN013 04/02 Q1014', 'LKKV 060100Z 25010G20KT 210V300 9999 BKN013 04/02 Q1014', 'LKKV 060000Z 25009KT 210V290 9999 FEW016 04/01 Q1014', 'LKKV 052300Z 25007KT 220V290 CAVOK 05/01 Q1015', 'LKKV 052200Z 26008KT 210V290 CAVOK 05/02 Q1015', 'LKKV 052100Z 24007KT 200V290 CAVOK 06/02 Q1015', 'LKKV 052000Z 24007KT 190V280 CAVOK 06/02 Q1015']","['2024-02-08 19:00:00', '2024-02-08 18:30:00', '2024-02-08 18:00:00', '2024-02-08 17:30:00', '2024-02-08 17:00:00', '2024-02-08 16:30:00', '2024-02-08 16:00:00', '2024-02-08 15:30:00', '2024-02-08 15:00:00', '2024-02-08 14:30:00', '2024-02-08 14:00:00', '2024-02-08 13:30:00', '2024-02-08 13:00:00', '2024-02-08 12:30:00', '2024-02-08 12:00:00', '2024-02-08 11:30:00', '2024-02-08 11:00:00', '2024-02-08 10:30:00', '2024-02-08 10:00:00', '2024-02-08 09:30:00', '2024-02-08 09:00:00', '2024-02-08 08:30:00', '2024-02-08 08:00:00', '2024-02-08 07:30:00', '2024-02-08 07:00:00', '2024-02-08 06:30:00', '2024-02-08 06:00:00', '2024-02-08 05:00:00', '2024-02-08 04:00:00', '2024-02-08 03:00:00', '2024-02-08 02:00:00', '2024-02-08 01:00:00', '2024-02-08 00:00:00', '2024-02-07 23:00:00', '2024-02-07 22:00:00', '2024-02-07 21:00:00', '2024-02-07 20:00:00', '2024-02-07 19:00:00', '2024-02-07 18:30:00', '2024-02-07 18:00:00', '2024-02-07 17:30:00', '2024-02-07 17:00:00', '2024-02-07 16:30:00', '2024-02-07 16:00:00', '2024-02-07 15:30:00', '2024-02-07 15:00:00', '2024-02-07 14:30:00', '2024-02-07 14:00:00', '2024-02-07 13:30:00', '2024-02-07 13:00:00', '2024-02-07 12:30:00', '2024-02-07 12:00:00', '2024-02-07 11:30:00', '2024-02-07 11:00:00', '2024-02-07 10:30:00', '2024-02-07 10:00:00', '2024-02-07 09:30:00', '2024-02-07 09:00:00', '2024-02-07 08:30:00', '2024-02-07 08:00:00', '2024-02-07 07:30:00', '2024-02-07 07:00:00', '2024-02-07 06:30:00', '2024-02-07 06:00:00', '2024-02-07 05:00:00', '2024-02-07 04:00:00', '2024-02-07 03:00:00', '2024-02-07 02:00:00', '2024-02-07 01:00:00', '2024-02-07 00:00:00', '2024-02-06 23:00:00', '2024-02-06 22:00:00', '2024-02-06 21:00:00', '2024-02-06 20:00:00', '2024-02-06 19:00:00', '2024-02-06 18:30:00', '2024-02-06 18:00:00', '2024-02-06 17:30:00', '2024-02-06 17:00:00', '2024-02-06 16:30:00', '2024-02-06 16:00:00', '2024-02-06 15:30:00', '2024-02-06 15:00:00', '2024-02-06 14:30:00', '2024-02-06 14:00:00', '2024-02-06 13:30:00', '2024-02-06 13:00:00', '2024-02-06 12:30:00', '2024-02-06 12:00:00', '2024-02-06 11:30:00', '2024-02-06 11:00:00', '2024-02-06 10:30:00', '2024-02-06 10:00:00', '2024-02-06 09:30:00', '2024-02-06 09:00:00', '2024-02-06 08:30:00', '2024-02-06 08:00:00', '2024-02-06 07:30:00', '2024-02-06 07:00:00', '2024-02-06 06:30:00', '2024-02-06 06:00:00', '2024-02-06 05:00:00', '2024-02-06 04:00:00', '2024-02-06 03:00:00', '2024-02-06 02:00:00', '2024-02-06 01:00:00', '2024-02-06 00:00:00', '2024-02-05 23:00:00', '2024-02-05 22:00:00', '2024-02-05 21:00:00', '2024-02-05 20:00:00']"
Czechia, Kunovice Airport (UHE/LKKU) ,"['LKKU 081800Z 20007KT 9999 -RA NSC 10/07 Q1000', 'LKKU 081700Z 20007KT 9999 FEW038 SCT046 09/08 Q1000', 'LKKU 081600Z 20008KT 9999 -RA FEW030 SCT038 BKN045 10/08 Q1001', 'LKKU 081500Z 21004KT 9999 SCT022 OVC035 10/08 Q1001', 'LKKU 081400Z 24002KT 9999 -RA FEW022 BKN038 09/07 Q1002', 'LKKU 081300Z 18004KT 150V210 9999 -RA FEW020 BKN034 09/07 Q1002', 'LKKU 081200Z 16003KT 120V210 9999 SCT030 BKN040 08/06 Q1003', 'LKKU 081100Z VRB02KT 9999 SCT034 06/05 Q1004', 'LKKU 081000Z VRB01KT 9000 BKN034 05/03 Q1004', 'LKKU 080900Z 00000KT 8000 FEW010 SCT033 03/02 Q1004', 'LKKU 080800Z 35003KT 8000 -RA SCT019 BKN040 03/02 Q1005', 'LKKU 080700Z 01005KT 8000 -RA FEW020 BKN036 02/02 Q1005', 'LKKU 080600Z 36004KT 8000 -RA FEW012 SCT046 02/01 Q1005', 'LKKU 071900Z 21005KT 180V240 9999 SCT043 09/04 Q1004', 'LKKU 071800Z 19006KT CAVOK 09/04 Q1004', 'LKKU 071700Z 24008KT 200V290 CAVOK 11/04 Q1004', 'LKKU 071600Z 23010KT 9999 FEW048 11/04 Q1004', 'LKKU 071500Z 22006KT 9999 SCT045 11/04 Q1004', 'LKKU 071400Z 23010KT 9999 BKN044 11/04 Q1005', 'LKKU 071300Z 22007KT 190V260 9999 -RA SCT038 11/03 Q1005', 'LKKU 071200Z 21009KT 9999 SCT038 11/03 Q1005', 'LKKU 071100Z 22012KT 190V260 9999 SCT030 10/03 Q1006', 'LKKU 071000Z 21012KT 9999 SCT030 10/03 Q1006', 'LKKU 070900Z 21011KT 9999 FEW024 08/03 Q1007', 'LKKU 070800Z 21013KT 9999 FEW024 07/02 Q1007', 'LKKU 070700Z 21014G24KT 9999 SCT044 07/02 Q1007', 'LKKU 070600Z 21011KT 9999 SCT044 06/02 Q1007', 'LKKU 061500Z 30008KT 270V350 9999 SCT049 09/01 Q1013', 'LKKU 061400Z 30010KT 270V340 9999 SCT045 10/01 Q1014', 'LKKU 061200Z 28011KT 250V320 9999 FEW035 10/03 Q1014', 'LKKU 061100Z 27011KT 230V300 9999 FEW034 10/02 Q1014', 'LKKU 061000Z 27006KT 230V310 9999 FEW034 10/02 Q1014', 'LKKU 060900Z 20005KT 9999 FEW027 08/02 Q1014', 'LKKU 060800Z VRB01KT CAVOK 05/02 Q1014', 'LKKU 060700Z 16004KT 120V200 CAVOK 01/M01 Q1013', 'LKKU 060600Z 04002KT CAVOK 01/00 Q1013']","['2024-02-08 18:00:00', '2024-02-08 17:00:00', '2024-02-08 16:00:00', '2024-02-08 15:00:00', '2024-02-08 14:00:00', '2024-02-08 13:00:00', '2024-02-08 12:00:00', '2024-02-08 11:00:00', '2024-02-08 10:00:00', '2024-02-08 09:00:00', '2024-02-08 08:00:00', '2024-02-08 07:00:00', '2024-02-08 06:00:00', '2024-02-07 19:00:00', '2024-02-07 18:00:00', '2024-02-07 17:00:00', '2024-02-07 16:00:00', '2024-02-07 15:00:00', '2024-02-07 14:00:00', '2024-02-07 13:00:00', '2024-02-07 12:00:00', '2024-02-07 11:00:00', '2024-02-07 10:00:00', '2024-02-07 09:00:00', '2024-02-07 08:00:00', '2024-02-07 07:00:00', '2024-02-07 06:00:00', '2024-02-06 15:00:00', '2024-02-06 14:00:00', '2024-02-06 12:00:00', '2024-02-06 11:00:00', '2024-02-06 10:00:00', '2024-02-06 09:00:00', '2024-02-06 08:00:00', '2024-02-06 07:00:00', '2024-02-06 06:00:00']"
Czechia, Ostrava Leos Janacek Airport (OSR/LKMT) ,"['LKMT 081900Z 23003KT 180V270 7000 -RA NSC 06/05 Q0998 TEMPO 3500 RA BR', 'LKMT 081830Z 22003KT 6000 FEW012 06/05 Q0999 TEMPO 3500 RA BR BKN010', 'LKMT 081800Z 23006KT 6000 SCT011 OVC017 06/05 Q0999 NOSIG', 'LKMT 081730Z 22006KT 4500 -DZ BR BKN010 OVC017 06/05 Q0999 NOSIG', 'LKMT 081700Z 21006KT 4500 DZ BR BKN011 OVC019 06/05 Q1000 NOSIG', 'LKMT 081630Z 22006KT 4500 -RA BR OVC012 06/05 Q1000 NOSIG', 'LKMT 081600Z 21006KT 4500 BR OVC014 06/05 Q1000 NOSIG', 'LKMT 081530Z 21006KT 6000 -RA OVC014 06/05 Q1001 TEMPO 4000 BR', 'LKMT 081500Z 20005KT 6000 -RA OVC013 05/05 Q1001 TEMPO BKN017', 'LKMT 081430Z 23006KT 4500 -RA BR SCT008 OVC010 05/04 Q1001 TEMPO 2500 BR BKN008', 'LKMT 081400Z 23008KT 4500 -RA BR BKN013 OVC037 05/04 Q1001 NOSIG', 'LKMT 081330Z 23004KT 4500 -RA BR BKN016 OVC027 04/03 Q1002 NOSIG', 'LKMT 081300Z 21004KT 4500 BR FEW007 OVC025 04/03 Q1002 NOSIG', 'LKMT 081230Z 22006KT 4500 BR SCT017 BKN026 03/02 Q1002 NOSIG', 'LKMT 081200Z 24004KT 6000 FEW004 OVC025 03/02 Q1003 NOSIG', 'LKMT 081130Z VRB02KT 8000 SCT005 OVC015 02/01 Q1003 BECMG 23007KT', 'LKMT 081100Z VRB01KT 6000 SCT005 OVC016 02/01 Q1003 BECMG 23007KT', 'LKMT 081030Z 00000KT 7000 SCT005 OVC007 02/00 Q1004 NOSIG', 'LKMT 081000Z 00000KT 8000 SCT006 OVC017 02/00 Q1004 NOSIG', 'LKMT 080930Z VRB01KT 7000 FEW005 OVC017 02/00 Q1004 NOSIG', 'LKMT 080900Z VRB01KT 8000 FEW004 OVC019 01/00 Q1004 NOSIG', 'LKMT 080830Z VRB01KT 8000 SCT005 OVC018 01/01 Q1004 NOSIG', 'LKMT 080800Z 35002KT 7000 SCT004 OVC023 01/00 Q1004 NOSIG', 'LKMT 080730Z 33002KT 5000 BR FEW009 OVC024 00/00 Q1004 NOSIG', 'LKMT 080700Z 34002KT 2500 -SN BR SCT008 OVC030 00/00 Q1004 TEMPO 4500 BR', 'LKMT 080630Z VRB02KT 2500 -SN BR FEW006 OVC073 00/00 Q1004 TEMPO 4500 BR', 'LKMT 080600Z VRB02KT 2500 BR SCT001 BKN030 OVC036 00/00 Q1004 NOSIG', 'LKMT 080530Z 02003KT 4000 BR FEW002 OVC038 00/M00 Q1005 TEMPO 2500 BR', 'LKMT 080500Z 05003KT 4500 -SN FEW002 OVC039 00/M00 Q1005 NOSIG', 'LKMT 080430Z 01001KT 6000 -SN SCT006 OVC029 00/M00 Q1005 NOSIG', 'LKMT 080400Z 32001KT 3000 -SN BR SCT006 OVC029 00/M00 Q1005 TEMPO 6000', 'LKMT 080330Z 33002KT 4000 -SN BR FEW021 BKN032 00/M00 Q1005 NOSIG', 'LKMT 080300Z 00000KT 3500 -SN BR SCT002 BKN033 00/M00 Q1005 NOSIG', 'LKMT 080230Z 34002KT 3500 -SN BR SCT002 BKN007 OVC013 00/M00 Q1005 NOSIG', 'LKMT 080130Z 33002KT 6000 -SN SCT014 OVC047 00/M00 Q1005 TEMPO 4000 -SN BR', 'LKMT 080100Z 00000KT 9999 -SN BKN034 OVC045 01/M01 Q1005 NOSIG', 'LKMT 080030Z 14003KT 9999 OVC033 01/M01 Q1005 NOSIG', 'LKMT 080000Z 14004KT 9999 BKN034 01/M00 Q1006 NOSIG', 'LKMT 072330Z 13004KT 6000 -SN FEW014 OVC033 01/M00 Q1006 NOSIG', 'LKMT 072300Z 13004KT 6000 -SN FEW009 BKN012 OVC030 01/M00 Q1006 TEMPO 4500 -SN BR', 'LKMT 072230Z 14005KT 7000 -SN BKN016 OVC035 00/M00 Q1005 NOSIG', 'LKMT 072200Z 13005KT 6000 -SN BKN016 OVC034 00/M00 Q1006 NOSIG', 'LKMT 072130Z 11003KT 070V140 4500 -SN BR FEW006 BKN008 OVC025 00/M00 Q1006 NOSIG', 'LKMT 072100Z 06005KT 040V100 6000 -SN BKN010 OVC028 01/00 Q1005 NOSIG', 'LKMT 072030Z 12004KT 4500 -SN BR BKN007 OVC023 00/M00 Q1005 NOSIG', 'LKMT 072000Z 12004KT 4500 -SN BR BKN006 OVC023 00/M00 Q1005 TEMPO 6000 -SN', 'LKMT 071930Z 08004KT 040V100 4000 -SN BR SCT007 BKN009 OVC020 01/M00 Q1005 TEMPO 2500 SN BR', 'LKMT 071900Z 04008KT 8000 -RA BKN010 OVC019 02/01 Q1005 TEMPO 4000 -RA BR', 'LKMT 071830Z 04011KT 9000 -RA BKN007 OVC018 03/02 Q1004 NOSIG', 'LKMT 071800Z 04010KT 9999 -RA BKN007 OVC014 03/02 Q1004 NOSIG', 'LKMT 071730Z 03013KT 9999 -RA BKN006 OVC033 04/02 Q1003 NOSIG', 'LKMT 071700Z 02011KT 9999 OVC035 05/03 Q1003 NOSIG', 'LKMT 071630Z 02007KT 9999 BKN037 06/03 Q1002 NOSIG', 'LKMT 071600Z 23011KT 9999 BKN037 10/04 Q1002 BECMG 01008KT', 'LKMT 071530Z 22015KT 9999 BKN037 10/04 Q1002 BECMG 01008KT', 'LKMT 071500Z 22017KT 9999 BKN041 10/04 Q1002 BECMG 01008KT', 'LKMT 071430Z 22020KT 9999 SCT047 10/04 Q1002 BECMG 01008KT', 'LKMT 071400Z 22021KT 9999 SCT022 10/04 Q1002 NOSIG', 'LKMT 071330Z 22020KT 9999 SCT046 10/04 Q1002 NOSIG', 'LKMT 071300Z 22022G32KT 9999 SCT037 10/04 Q1002 NOSIG', 'LKMT 071230Z 22024G34KT 9999 FEW030 10/04 Q1002 NOSIG', 'LKMT 071200Z 22025KT 9999 SCT042 10/04 Q1002 TEMPO 21024G34KT', 'LKMT 071130Z 21024KT 9999 BKN043 10/03 Q1002 TEMPO 21024G34KT', 'LKMT 071100Z 21023KT 9999 SCT040 09/03 Q1003 TEMPO 21024G34KT', 'LKMT 071030Z 21024KT 9999 FEW037 BKN043 09/02 Q1003 TEMPO 21024G34KT', 'LKMT 071000Z 21021KT 9999 BKN041 09/02 Q1003 TEMPO 21020G30KT', 'LKMT 070930Z 21024KT 9999 SCT041 08/02 Q1003 TEMPO 21025G35KT', 'LKMT 070900Z 21027KT 9999 SCT040 08/02 Q1003 TEMPO 21025G35KT', 'LKMT 070830Z 22024G37KT 9999 FEW035 08/02 Q1003 NOSIG', 'LKMT 070800Z 22022KT 9999 FEW035 08/02 Q1004 TEMPO 22025G35KT', 'LKMT 070730Z 21022KT 9999 FEW045 08/01 Q1004 TEMPO 21022G32KT', 'LKMT 070700Z 21023KT 9999 SCT042 08/02 Q1004 NOSIG', 'LKMT 070630Z 22023KT 9999 BKN044 08/02 Q1004 NOSIG', 'LKMT 070600Z 22019KT 9999 OVC042 08/02 Q1004 NOSIG', 'LKMT 070530Z 22021KT 9999 OVC042 08/02 Q1004 NOSIG', 'LKMT 070500Z 22023KT 9999 OVC041 08/02 Q1004 NOSIG', 'LKMT 070430Z 23024KT 9999 BKN041 08/02 Q1004 NOSIG', 'LKMT 070400Z 23023KT 9999 FEW043 08/02 Q1004 NOSIG', 'LKMT 070330Z 22022G32KT 9999 FEW047 07/02 Q1005 NOSIG', 'LKMT 070300Z 23024KT 9999 FEW043 08/02 Q1005 NOSIG', 'LKMT 070230Z 22019KT 9999 BKN043 08/02 Q1006 NOSIG', 'LKMT 070200Z 22019KT 9999 OVC041 08/02 Q1006 NOSIG', 'LKMT 070130Z 22017KT 9999 OVC042 08/02 Q1007 NOSIG', 'LKMT 070100Z 22017KT 9999 OVC042 08/02 Q1007 NOSIG', 'LKMT 070030Z 22018KT 9999 BKN045 08/02 Q1007 NOSIG', 'LKMT 070000Z 22018KT 9999 BKN047 08/02 Q1007 NOSIG', 'LKMT 062330Z 22019KT 9999 SCT049 08/02 Q1007 NOSIG', 'LKMT 062300Z 21020KT 9999 BKN049 08/02 Q1007 NOSIG', 'LKMT 062230Z 21018KT 9999 BKN049 08/02 Q1008 NOSIG', 'LKMT 062200Z 22017KT 9999 OVC043 08/02 Q1008 NOSIG', 'LKMT 062130Z 22016KT 9999 OVC041 09/02 Q1009 NOSIG', 'LKMT 062100Z 22018KT 9999 OVC043 08/02 Q1009 NOSIG', 'LKMT 062030Z 21019KT 9999 BKN044 08/02 Q1009 NOSIG', 'LKMT 062000Z 22019G29KT 9999 SCT049 08/02 Q1009 NOSIG', 'LKMT 061930Z 22017KT 9999 OVC041 08/02 Q1009 NOSIG', 'LKMT 061900Z 22014KT 9999 OVC041 08/02 Q1010 NOSIG', 'LKMT 061830Z 22013KT 9999 OVC036 08/02 Q1010 NOSIG', 'LKMT 061800Z 22019KT 9999 OVC038 08/02 Q1010 NOSIG', 'LKMT 061730Z 22017KT 9999 BKN039 08/02 Q1010 NOSIG', 'LKMT 061700Z 22015KT 9999 OVC037 08/02 Q1010 NOSIG', 'LKMT 061630Z 21013KT 9999 BKN036 08/02 Q1011 NOSIG', 'LKMT 061600Z 22015KT 9999 OVC038 08/02 Q1011 NOSIG', 'LKMT 061530Z 22015KT 9999 OVC036 08/02 Q1011 NOSIG', 'LKMT 061500Z 23019KT 9999 OVC036 08/02 Q1011 NOSIG', 'LKMT 061430Z 22016KT 9999 BKN035 08/02 Q1011 NOSIG', 'LKMT 061400Z 23016KT 9999 BKN038 08/02 Q1011 NOSIG', 'LKMT 061330Z 24018G28KT 9999 BKN041 09/01 Q1012 NOSIG', 'LKMT 061300Z 25013KT 9999 OVC037 08/01 Q1012 NOSIG', 'LKMT 061230Z 25018KT 9999 BKN038 09/01 Q1012 NOSIG', 'LKMT 061200Z 25016KT 9999 BKN038 09/02 Q1012 NOSIG', 'LKMT 061130Z 23013KT 9999 BKN036 09/02 Q1012 NOSIG', 'LKMT 061100Z 23013KT 9999 BKN035 10/03 Q1012 NOSIG', 'LKMT 061030Z 23014KT 9999 BKN034 09/03 Q1012 NOSIG', 'LKMT 061000Z 22016KT 9999 BKN034 09/02 Q1013 NOSIG', 'LKMT 060930Z 23015KT 9999 BKN033 08/02 Q1012 NOSIG', 'LKMT 060900Z 22015KT 9999 BKN032 08/02 Q1012 NOSIG', 'LKMT 060830Z 22015KT 9999 FEW033 08/02 Q1012 NOSIG', 'LKMT 060800Z 21012KT 9999 FEW032 07/02 Q1012 NOSIG', 'LKMT 060730Z 22016KT 9999 FEW032 07/01 Q1012 NOSIG', 'LKMT 060700Z 22011KT 9999 BKN035 07/01 Q1012 NOSIG', 'LKMT 060630Z 22010KT CAVOK 06/01 Q1012 NOSIG', 'LKMT 060600Z 23013KT CAVOK 04/00 Q1011 NOSIG', 'LKMT 060530Z 23009KT CAVOK 03/M00 Q1012 NOSIG', 'LKMT 060500Z 26006KT CAVOK 04/00 Q1011 NOSIG', 'LKMT 060430Z 24008KT CAVOK 06/01 Q1011 NOSIG', 'LKMT 060400Z 22010KT CAVOK 06/01 Q1011 NOSIG', 'LKMT 060330Z 21013KT CAVOK 06/01 Q1011 NOSIG', 'LKMT 060300Z 22013KT CAVOK 06/01 Q1011 NOSIG', 'LKMT 060230Z 23011KT CAVOK 06/01 Q1012 NOSIG', 'LKMT 060200Z 23014KT CAVOK 07/01 Q1012 NOSIG', 'LKMT 060130Z 22015KT CAVOK 07/02 Q1012 NOSIG', 'LKMT 060100Z 23012KT CAVOK 07/02 Q1012 NOSIG', 'LKMT 060030Z 23010KT CAVOK 07/02 Q1012 NOSIG', 'LKMT 060000Z 22010KT CAVOK 07/02 Q1013 NOSIG', 'LKMT 052330Z 21011KT CAVOK 08/02 Q1013 NOSIG', 'LKMT 052300Z 21014KT CAVOK 08/02 Q1013 NOSIG', 'LKMT 052230Z 22015KT CAVOK 08/02 Q1013 NOSIG', 'LKMT 052200Z 22016KT CAVOK 08/02 Q1013 NOSIG', 'LKMT 052130Z 22016KT CAVOK 08/03 Q1012 NOSIG', 'LKMT 052100Z 23017KT CAVOK 09/02 Q1012 NOSIG', 'LKMT 052030Z 23015KT CAVOK 09/03 Q1012 NOSIG', 'LKMT 052000Z 23016KT CAVOK 09/03 Q1013 NOSIG', 'LKMT 051930Z 23017KT CAVOK 10/03 Q1013 NOSIG']","['2024-02-08 19:00:00', '2024-02-08 18:30:00', '2024-02-08 18:00:00', '2024-02-08 17:30:00', '2024-02-08 17:00:00', '2024-02-08 16:30:00', '2024-02-08 16:00:00', '2024-02-08 15:30:00', '2024-02-08 15:00:00', '2024-02-08 14:30:00', '2024-02-08 14:00:00', '2024-02-08 13:30:00', '2024-02-08 13:00:00', '2024-02-08 12:30:00', '2024-02-08 12:00:00', '2024-02-08 11:30:00', '2024-02-08 11:00:00', '2024-02-08 10:30:00', '2024-02-08 10:00:00', '2024-02-08 09:30:00', '2024-02-08 09:00:00', '2024-02-08 08:30:00', '2024-02-08 08:00:00', '2024-02-08 07:30:00', '2024-02-08 07:00:00', '2024-02-08 06:30:00', '2024-02-08 06:00:00', '2024-02-08 05:30:00', '2024-02-08 05:00:00', '2024-02-08 04:30:00', '2024-02-08 04:00:00', '2024-02-08 03:30:00', '2024-02-08 03:00:00', '2024-02-08 02:30:00', '2024-02-08 01:30:00', '2024-02-08 01:00:00', '2024-02-08 00:30:00', '2024-02-08 00:00:00', '2024-02-07 23:30:00', '2024-02-07 23:00:00', '2024-02-07 22:30:00', '2024-02-07 22:00:00', '2024-02-07 21:30:00', '2024-02-07 21:00:00', '2024-02-07 20:30:00', '2024-02-07 20:00:00', '2024-02-07 19:30:00', '2024-02-07 19:00:00', '2024-02-07 18:30:00', '2024-02-07 18:00:00', '2024-02-07 17:30:00', '2024-02-07 17:00:00', '2024-02-07 16:30:00', '2024-02-07 16:00:00', '2024-02-07 15:30:00', '2024-02-07 15:00:00', '2024-02-07 14:30:00', '2024-02-07 14:00:00', '2024-02-07 13:30:00', '2024-02-07 13:00:00', '2024-02-07 12:30:00', '2024-02-07 12:00:00', '2024-02-07 11:30:00', '2024-02-07 11:00:00', '2024-02-07 10:30:00', '2024-02-07 10:00:00', '2024-02-07 09:30:00', '2024-02-07 09:00:00', '2024-02-07 08:30:00', '2024-02-07 08:00:00', '2024-02-07 07:30:00', '2024-02-07 07:00:00', '2024-02-07 06:30:00', '2024-02-07 06:00:00', '2024-02-07 05:30:00', '2024-02-07 05:00:00', '2024-02-07 04:30:00', '2024-02-07 04:00:00', '2024-02-07 03:30:00', '2024-02-07 03:00:00', '2024-02-07 02:30:00', '2024-02-07 02:00:00', '2024-02-07 01:30:00', '2024-02-07 01:00:00', '2024-02-07 00:30:00', '2024-02-07 00:00:00', '2024-02-06 23:30:00', '2024-02-06 23:00:00', '2024-02-06 22:30:00', '2024-02-06 22:00:00', '2024-02-06 21:30:00', '2024-02-06 21:00:00', '2024-02-06 20:30:00', '2024-02-06 20:00:00', '2024-02-06 19:30:00', '2024-02-06 19:00:00', '2024-02-06 18:30:00', '2024-02-06 18:00:00', '2024-02-06 17:30:00', '2024-02-06 17:00:00', '2024-02-06 16:30:00', '2024-02-06 16:00:00', '2024-02-06 15:30:00', '2024-02-06 15:00:00', '2024-02-06 14:30:00', '2024-02-06 14:00:00', '2024-02-06 13:30:00', '2024-02-06 13:00:00', '2024-02-06 12:30:00', '2024-02-06 12:00:00', '2024-02-06 11:30:00', '2024-02-06 11:00:00', '2024-02-06 10:30:00', '2024-02-06 10:00:00', '2024-02-06 09:30:00', '2024-02-06 09:00:00', '2024-02-06 08:30:00', '2024-02-06 08:00:00', '2024-02-06 07:30:00', '2024-02-06 07:00:00', '2024-02-06 06:30:00', '2024-02-06 06:00:00', '2024-02-06 05:30:00', '2024-02-06 05:00:00', '2024-02-06 04:30:00', '2024-02-06 04:00:00', '2024-02-06 03:30:00', '2024-02-06 03:00:00', '2024-02-06 02:30:00', '2024-02-06 02:00:00', '2024-02-06 01:30:00', '2024-02-06 01:00:00', '2024-02-06 00:30:00', '2024-02-06 00:00:00', '2024-02-05 23:30:00', '2024-02-05 23:00:00', '2024-02-05 22:30:00', '2024-02-05 22:00:00', '2024-02-05 21:30:00', '2024-02-05 21:00:00', '2024-02-05 20:30:00', '2024-02-05 20:00:00', '2024-02-05 19:30:00']"
Czechia, Pardubice Airport (PED/LKPD) ,"['LKPD 081800Z VRB02KT 2500 -RA BR BKN003 OVC012 06/05 Q0998 NOSIG', 'LKPD 081700Z 05004KT 4000 -RA BR FEW003 OVC014 05/05 Q0998 NOSIG', 'LKPD 081533Z 04002KT 2000 -RA BR SCT003 OVC019 05/05 Q1000 RMK YLO', 'LKPD 081528Z 04002KT 3300 -RA BR SCT004 OVC020 05/05 Q1000 RMK YLO', 'LKPD 081400Z 10003KT 8000 -RA SCT005 OVC030 05/04 Q1001 NOSIG', 'LKPD 081347Z 10003KT 8000 -RA SCT005 OVC031 05/04 Q1001 RMK BLU', 'LKPD 081300Z VRB01KT 7000 -RA BKN005 OVC036 04/03 Q1001 NOSIG', 'LKPD 081200Z VRB01KT 7000 -RA OVC005 04/03 Q1002 NOSIG', 'LKPD 081100Z 33003KT 300V360 6000 -RA OVC004 03/03 Q1002 NOSIG', 'LKPD 081050Z VRB02KT 6000 -RA OVC004 03/03 Q1003 RMK YLO', 'LKPD 081000Z VRB02KT 4000 -RA BR OVC004 03/02 Q1003 NOSIG', 'LKPD 080900Z 07002KT 2000 -DZ BR OVC003 02/01 Q1003 NOSIG', 'LKPD 080800Z 10004KT 3000 -DZ BR OVC002 01/01 Q1003 NOSIG', 'LKPD 080700Z 08003KT 2300 -RA BR BKN002 OVC034 01/00 Q1004 NOSIG', 'LKPD 080600Z 06003KT 030V090 2500 -RASN FEW005 OVC020 00/M00 Q1004 NOSIG', 'LKPD 080553Z 06004KT 3000 -RASN FEW005 OVC020 00/00 Q1004 RMK YLO', 'LKPD 080500Z 08002KT 4000 -SN FEW010 BKN030 00/M00 Q1004 NOSIG', 'LKPD 080400Z 11004KT 9999 -RA OVC031 01/M00 Q1004', 'LKPD 080300Z 12003KT 5000 OVC016 00/M00 Q1004', 'LKPD 080200Z VRB01KT 5000 -RASN BKN015 00/M00 Q1005', 'LKPD 080051Z 19002KT 7000 -SN SCT015 OVC025 00/M00 Q1005 RMK BLU', 'LKPD 080000Z 23004KT 9999 -SNRA OVC035 00/M00 Q1005', 'LKPD 072300Z 24004KT 9999 -RASN FEW011 OVC032 01/00 Q1005', 'LKPD 072200Z 28004KT 9999 -RASN SCT004 OVC025 01/00 Q1006', 'LKPD 072100Z 27005KT 9999 -RASN SCT004 OVC035 01/01 Q1006 NOSIG', 'LKPD 072000Z 26007KT 9999 -RASN SCT017 OVC039 02/01 Q1006 NOSIG', 'LKPD 071900Z 30004KT 9999 -RASN SCT018 OVC032 02/00 Q1005 NOSIG', 'LKPD 071813Z 30008KT 280V340 8000 -RASN BKN007 OVC018 02/00 Q1005 RMK GRN', 'LKPD 071700Z 29005KT 260V330 7000 -RA OVC009 03/02 Q1005 NOSIG', 'LKPD 071500Z 31008KT 280V360 5000 -DZ BKN008 OVC014 05/03 Q1003 NOSIG', 'LKPD 071434Z 30008KT 6000 -DZ OVC013 05/03 Q1003 RMK GRN', 'LKPD 071406Z 30009KT 280V340 9999 OVC015 06/03 Q1003 RMK WHT', 'LKPD 071300Z 26024G38KT 9999 OVC036 11/04 Q1002 NOSIG', 'LKPD 071200Z 25023G33KT 9999 OVC040 11/04 Q1002 NOSIG', 'LKPD 071130Z 25023G33KT 9999 OVC040 11/04 Q1002 RMK BLU', 'LKPD 071100Z 25024G35KT 9999 -RA BKN045 OVC080 11/04 Q1002 NOSIG', 'LKPD 071030Z 25023G35KT 9999 BKN039 OVC080 11/04 Q1002 RMK BLU', 'LKPD 071000Z 25022G32KT 9999 SCT039 OVC100 10/04 Q1002 NOSIG', 'LKPD 070947Z 25023KT 9999 SCT039 OVC100 10/04 Q1002 RMK BLU', 'LKPD 070900Z 25023KT 9999 -RA FEW041 OVC060 09/04 Q1003 NOSIG', 'LKPD 070800Z 25023G34KT 9999 -RA BKN035 OVC100 09/03 Q1003 NOSIG', 'LKPD 070756Z 25023G34KT 9999 -RA BKN035 OVC100 09/03 Q1003 NOSIG RMK BLU', 'LKPD 070712Z 25022G33KT 9999 SCT036 BKN060 09/03 Q1003 RMK BLU', 'LKPD 070641Z 24021G31KT 9999 OVC036 09/03 Q1003 RMK BLU', 'LKPD 070600Z 24020KT 9999 BKN036 OVC110 09/03 Q1003 NOSIG', 'LKPD 070500Z 25018KT 9999 SCT036 OVC100 08/03 Q1004 NOSIG', 'LKPD 070400Z 23014KT 9999 OVC037 08/03 Q1005 NOSIG', 'LKPD 070300Z 24016KT 9999 OVC037 09/02 Q1006', 'LKPD 070200Z 24014KT 9999 OVC036 09/03 Q1006', 'LKPD 070100Z 24015KT 9999 OVC036 09/03 Q1007', 'LKPD 070000Z 23015KT 9999 OVC040 09/03 Q1007', 'LKPD 062300Z 25019KT 9999 BKN045 09/02 Q1008', 'LKPD 062200Z 25016KT CAVOK 09/03 Q1008', 'LKPD 062100Z 24015KT CAVOK 09/03 Q1008', 'LKPD 062000Z 25017KT 9999 OVC042 09/03 Q1010 NOSIG', 'LKPD 061900Z 23014KT 9999 OVC040 09/03 Q1010 NOSIG', 'LKPD 061801Z 25013KT 9999 OVC040 09/03 Q1010 NOSIG', 'LKPD 061700Z 24013KT 9999 OVC036 09/03 Q1011 NOSIG', 'LKPD 061600Z 24011KT 9999 OVC036 08/03 Q1011 NOSIG', 'LKPD 061500Z 25016KT 9999 OVC039 09/03 Q1012 NOSIG', 'LKPD 061400Z 25016KT 9999 OVC040 08/03 Q1012 NOSIG', 'LKPD 061300Z 23016KT 9999 OVC043 08/02 Q1012 NOSIG', 'LKPD 061200Z 24016KT 9999 OVC033 08/02 Q1013 NOSIG', 'LKPD 061106Z 24013KT 9999 -RA OVC038 08/02 Q1014 RMK BLU', 'LKPD 061000Z 25014KT 9999 OVC035 07/02 Q1014 NOSIG', 'LKPD 060900Z 25015KT 9999 OVC037 07/02 Q1014 NOSIG', 'LKPD 060800Z 25011KT 9999 OVC036 07/02 Q1013 NOSIG', 'LKPD 060700Z 26011KT 9999 OVC035 07/03 Q1013 NOSIG', 'LKPD 060600Z 26015KT 9999 OVC033 07/02 Q1013 NOSIG', 'LKPD 060500Z 27012KT 9999 BKN033 07/03 Q1013 NOSIG', 'LKPD 060400Z 26012KT CAVOK 05/01 Q1013 NOSIG', 'LKPD 060300Z 27004KT CAVOK 02/M00 Q1013', 'LKPD 060200Z VRB01KT CAVOK 04/00 Q1013', 'LKPD 060100Z 23003KT CAVOK 04/01 Q1013', 'LKPD 060000Z 26004KT CAVOK 06/01 Q1013', 'LKPD 052300Z 24009KT CAVOK 07/02 Q1014', 'LKPD 052200Z 26007KT CAVOK 07/02 Q1014', 'LKPD 052100Z 26011KT CAVOK 05/02 Q1014', 'LKPD 052000Z 25010KT CAVOK 08/03 Q1014 NOSIG']","['2024-02-08 18:00:00', '2024-02-08 17:00:00', '2024-02-08 15:33:00', '2024-02-08 15:28:00', '2024-02-08 14:00:00', '2024-02-08 13:47:00', '2024-02-08 13:00:00', '2024-02-08 12:00:00', '2024-02-08 11:00:00', '2024-02-08 10:50:00', '2024-02-08 10:00:00', '2024-02-08 09:00:00', '2024-02-08 08:00:00', '2024-02-08 07:00:00', '2024-02-08 06:00:00', '2024-02-08 05:53:00', '2024-02-08 05:00:00', '2024-02-08 04:00:00', '2024-02-08 03:00:00', '2024-02-08 02:00:00', '2024-02-08 00:51:00', '2024-02-08 00:00:00', '2024-02-07 23:00:00', '2024-02-07 22:00:00', '2024-02-07 21:00:00', '2024-02-07 20:00:00', '2024-02-07 19:00:00', '2024-02-07 18:13:00', '2024-02-07 17:00:00', '2024-02-07 15:00:00', '2024-02-07 14:34:00', '2024-02-07 14:06:00', '2024-02-07 13:00:00', '2024-02-07 12:00:00', '2024-02-07 11:30:00', '2024-02-07 11:00:00', '2024-02-07 10:30:00', '2024-02-07 10:00:00', '2024-02-07 09:47:00', '2024-02-07 09:00:00', '2024-02-07 08:00:00', '2024-02-07 07:56:00', '2024-02-07 07:12:00', '2024-02-07 06:41:00', '2024-02-07 06:00:00', '2024-02-07 05:00:00', '2024-02-07 04:00:00', '2024-02-07 03:00:00', '2024-02-07 02:00:00', '2024-02-07 01:00:00', '2024-02-07 00:00:00', '2024-02-06 23:00:00', '2024-02-06 22:00:00', '2024-02-06 21:00:00', '2024-02-06 20:00:00', '2024-02-06 19:00:00', '2024-02-06 18:01:00', '2024-02-06 17:00:00', '2024-02-06 16:00:00', '2024-02-06 15:00:00', '2024-02-06 14:00:00', '2024-02-06 13:00:00', '2024-02-06 12:00:00', '2024-02-06 11:06:00', '2024-02-06 10:00:00', '2024-02-06 09:00:00', '2024-02-06 08:00:00', '2024-02-06 07:00:00', '2024-02-06 06:00:00', '2024-02-06 05:00:00', '2024-02-06 04:00:00', '2024-02-06 03:00:00', '2024-02-06 02:00:00', '2024-02-06 01:00:00', '2024-02-06 00:00:00', '2024-02-05 23:00:00', '2024-02-05 22:00:00', '2024-02-05 21:00:00', '2024-02-05 20:00:00']"
Czechia, Plzen Line Airport (QZN/LKLN) ,"['LKLN 081800Z AUTO 23011KT 9999 // SCT027 BKN035 OVC160 09/08 Q0998', 'LKLN 081700Z AUTO VRB01KT 3500 // OVC028 05/05 Q0998', 'LKLN 081600Z AUTO 19002KT 5000 // FEW016 OVC025 05/05 Q0998', 'LKLN 081500Z AUTO 00000KT 4500 // FEW002 OVC014 05/05 Q0999', 'LKLN 081400Z AUTO 00000KT 4600 // FEW002 BKN005 OVC011 04/04 Q1000', 'LKLN 081300Z AUTO 04003KT 330V090 4200 // FEW003 OVC007 04/03 Q1001', 'LKLN 081200Z AUTO 03003KT 320V070 9999 // BKN002 OVC007 03/02 Q1001', 'LKLN 081100Z AUTO 03004KT 350V070 4300 // OVC002 03/02 Q1002', 'LKLN 081000Z AUTO VRB03KT 5000 // OVC002 03/03 Q1002', 'LKLN 080900Z AUTO VRB02KT 6000 // OVC002 02/01 Q1002', 'LKLN 080800Z AUTO VRB02KT 6000 // OVC002 02/01 Q1002', 'LKLN 080700Z AUTO VRB01KT 2600 // OVC002 02/01 Q1002', 'LKLN 080600Z AUTO VRB02KT 2700 // OVC002 01/01 Q1002', 'LKLN 080500Z AUTO VRB02KT 7000 // OVC003 02/01 Q1002', 'LKLN 080400Z AUTO VRB02KT 6000 // OVC002 01/01 Q1003', 'LKLN 080300Z AUTO VRB02KT 5000 // OVC002 01/01 Q1003', 'LKLN 080200Z AUTO VRB02KT 6000 // BKN003 OVC017 01/01 Q1003', 'LKLN 080100Z AUTO VRB02KT 8000 // BKN003 OVC016 01/01 Q1004', 'LKLN 080000Z AUTO 01003KT 320V050 8000 // SCT003 OVC016 02/01 Q1004', 'LKLN 072300Z AUTO 02003KT 290V080 9000 // BKN004 OVC017 02/01 Q1004', 'LKLN 072200Z AUTO 01003KT 330V050 7000 // FEW003 OVC017 02/02 Q1004', 'LKLN 072100Z AUTO VRB02KT 9000 // FEW005 OVC019 02/02 Q1005', 'LKLN 072000Z AUTO 04004KT 340V080 9999 // BKN005 OVC018 02/01 Q1005', 'LKLN 071900Z AUTO 02004KT 290V100 9999 // BKN005 BKN012 OVC017 03/02 Q1005', 'LKLN 071800Z AUTO 25006KT 210V290 9999 // OVC022 08/06 Q1004', 'LKLN 071700Z AUTO 24011KT 210V270 9999 // OVC023 08/06 Q1003', 'LKLN 071600Z AUTO 23013KT 200V260 9999 // OVC028 08/05 Q1003', 'LKLN 071500Z AUTO 23013KT 9999 // OVC025 09/05 Q1004', 'LKLN 071400Z AUTO 24014KT 210V290 9999 // OVC026 09/05 Q1004', 'LKLN 071300Z AUTO 24016KT 9999 // BKN024 OVC032 09/04 Q1004', 'LKLN 071200Z AUTO 24016G26KT 210V280 9999 // BKN025 OVC033 09/04 Q1004', 'LKLN 071100Z AUTO 24018KT 210V270 9999 // BKN028 09/03 Q1005', 'LKLN 071000Z AUTO 23017G28KT 9999 // OVC025 08/03 Q1005', 'LKLN 070900Z AUTO 24015G26KT 9999 // OVC028 08/03 Q1006', 'LKLN 070800Z AUTO 24016KT 9999 // SCT027 BKN120 BKN180 07/03 Q1006', 'LKLN 070700Z AUTO 23017G28KT 210V270 9999 // BKN026 OVC140 07/02 Q1006', 'LKLN 070600Z AUTO 24016G29KT 210V270 9999 // BKN026 BKN036 07/02 Q1006', 'LKLN 070500Z AUTO 23015G25KT 9999 // SCT028 BKN046 OVC120 07/02 Q1007', 'LKLN 070400Z AUTO 23012KT 9999 // BKN023 BKN061 OVC120 06/02 Q1008', 'LKLN 070300Z AUTO 22014KT 9999 // BKN026 BKN031 OVC047 06/02 Q1008', 'LKLN 070200Z AUTO 23012KT 9999 // OVC028 07/02 Q1009', 'LKLN 070100Z AUTO 23013KT 210V280 9999 // OVC029 08/02 Q1009', 'LKLN 070000Z AUTO 24010KT 210V290 9999 // OVC029 08/02 Q1010', 'LKLN 062300Z AUTO 23012KT 210V270 9999 // BKN031 08/02 Q1010', 'LKLN 062200Z AUTO 24012KT 190V290 9999 // BKN033 BKN038 08/02 Q1011', 'LKLN 062100Z AUTO 25012KT 210V280 9999 // SCT032 08/02 Q1011', 'LKLN 062000Z AUTO 24011G21KT 210V290 9999 // SCT033 BKN044 08/03 Q1012', 'LKLN 061900Z AUTO 24014G27KT 9999 // FEW039 OVC048 09/03 Q1012', 'LKLN 061800Z AUTO 24012KT 9999 // OVC034 08/03 Q1012', 'LKLN 061700Z AUTO 23013KT 9999 // BKN046 BKN210 08/03 Q1012', 'LKLN 061600Z AUTO 24013KT 210V280 9999 // BKN029 OVC041 08/03 Q1013', 'LKLN 061500Z AUTO 24011G22KT 210V280 9999 // OVC028 09/03 Q1013', 'LKLN 061400Z AUTO 26012KT 220V290 9999 // OVC026 08/03 Q1014', 'LKLN 061300Z AUTO 25013KT 220V280 9999 // OVC026 08/02 Q1014', 'LKLN 061200Z AUTO 24010KT 9999 // OVC026 08/02 Q1015', 'LKLN 061100Z AUTO 23012KT 210V280 9999 // BKN024 OVC032 07/03 Q1015', 'LKLN 061000Z AUTO 24014KT 9999 // SCT026 OVC031 07/02 Q1015', 'LKLN 060900Z AUTO 25015G27KT 220V290 9999 // OVC020 06/02 Q1015', 'LKLN 060800Z AUTO 25010G20KT 220V300 9999 // OVC019 06/02 Q1015', 'LKLN 060700Z AUTO 25009KT 220V300 9999 // OVC018 05/02 Q1015', 'LKLN 060600Z AUTO 26008G21KT 210V330 9999 // OVC019 06/02 Q1015', 'LKLN 060500Z AUTO 25009KT 220V290 9999 // OVC020 06/02 Q1015', 'LKLN 060400Z AUTO 26010KT 210V290 9999 // OVC019 06/02 Q1016', 'LKLN 060300Z AUTO 25010KT 230V290 9999 // FEW022 06/02 Q1016', 'LKLN 060200Z AUTO 25008KT 220V280 9999 // NCD 06/02 Q1016', 'LKLN 060100Z AUTO 24006KT 210V290 9999 // NCD 07/01 Q1016', 'LKLN 060000Z AUTO 24007KT 9999 // NCD 07/02 Q1016', 'LKLN 052300Z AUTO 25003KT 220V280 9999 // NCD 08/02 Q1016', 'LKLN 052200Z AUTO 23005KT 210V290 9999 // NCD 07/02 Q1016', 'LKLN 052100Z AUTO 25008KT 9999 // NCD 09/02 Q1017', 'LKLN 052000Z AUTO 24008KT 9999 // BKN190 09/03 Q1017']","['2024-02-08 18:00:00', '2024-02-08 17:00:00', '2024-02-08 16:00:00', '2024-02-08 15:00:00', '2024-02-08 14:00:00', '2024-02-08 13:00:00', '2024-02-08 12:00:00', '2024-02-08 11:00:00', '2024-02-08 10:00:00', '2024-02-08 09:00:00', '2024-02-08 08:00:00', '2024-02-08 07:00:00', '2024-02-08 06:00:00', '2024-02-08 05:00:00', '2024-02-08 04:00:00', '2024-02-08 03:00:00', '2024-02-08 02:00:00', '2024-02-08 01:00:00', '2024-02-08 00:00:00', '2024-02-07 23:00:00', '2024-02-07 22:00:00', '2024-02-07 21:00:00', '2024-02-07 20:00:00', '2024-02-07 19:00:00', '2024-02-07 18:00:00', '2024-02-07 17:00:00', '2024-02-07 16:00:00', '2024-02-07 15:00:00', '2024-02-07 14:00:00', '2024-02-07 13:00:00', '2024-02-07 12:00:00', '2024-02-07 11:00:00', '2024-02-07 10:00:00', '2024-02-07 09:00:00', '2024-02-07 08:00:00', '2024-02-07 07:00:00', '2024-02-07 06:00:00', '2024-02-07 05:00:00', '2024-02-07 04:00:00', '2024-02-07 03:00:00', '2024-02-07 02:00:00', '2024-02-07 01:00:00', '2024-02-07 00:00:00', '2024-02-06 23:00:00', '2024-02-06 22:00:00', '2024-02-06 21:00:00', '2024-02-06 20:00:00', '2024-02-06 19:00:00', '2024-02-06 18:00:00', '2024-02-06 17:00:00', '2024-02-06 16:00:00', '2024-02-06 15:00:00', '2024-02-06 14:00:00', '2024-02-06 13:00:00', '2024-02-06 12:00:00', '2024-02-06 11:00:00', '2024-02-06 10:00:00', '2024-02-06 09:00:00', '2024-02-06 08:00:00', '2024-02-06 07:00:00', '2024-02-06 06:00:00', '2024-02-06 05:00:00', '2024-02-06 04:00:00', '2024-02-06 03:00:00', '2024-02-06 02:00:00', '2024-02-06 01:00:00', '2024-02-06 00:00:00', '2024-02-05 23:00:00', '2024-02-05 22:00:00', '2024-02-05 21:00:00', '2024-02-05 20:00:00']"
Democratic-republic-of-the-congo, Goma International Airport (GOM/FZNA) ,"['FZNA 081200Z 36014KT 7000 TSRA SCT020 FEW022CB 25/17 Q1020 NOSIG', 'FZNA 080400Z 05008KT 5000 SCT014 FEW016CB 19/15 Q1023 NOSIG', 'FZNA 080300Z 05008KT 6000 SCT014 BKN100 19/14 Q1022 NOSIG', 'FZNA 072200Z 05008KT 6000 SCT016 20/18 Q1022 NOSIG', 'FZNA 072100Z 05008KT 6000 SCT016 20/18 Q1022 NOSIG', 'FZNA 072000Z 05008KT 6000 SCT016 21/16 Q1022 NOSIG', 'FZNA 071900Z 05008KT 6000 SCT016 22/16 Q1021 NOSIG', 'FZNA 071600Z 26006KT 7000 SCT020 FEW022CB 27/15 Q1020 NOSIG', 'FZNA 061200Z 19008KT 9000 SCT016 FEW018CB 24/14 Q1024 NOSIG']","['2024-02-08 12:00:00', '2024-02-08 04:00:00', '2024-02-08 03:00:00', '2024-02-07 22:00:00', '2024-02-07 21:00:00', '2024-02-07 20:00:00', '2024-02-07 19:00:00', '2024-02-07 16:00:00', '2024-02-06 12:00:00']"
Democratic-republic-of-the-congo, Kalemie Airport (FMI/FZRF) ,"['FZRF 080600Z 36008KT 9999 FEW014 25/21 Q1019 NOSIG', 'FZRF 080500Z 00000KT 9999 FEW012 22/20 Q1018 NOSIG']","['2024-02-08 06:00:00', '2024-02-08 05:00:00']"
Denmark, Aalborg Airport (AAL/EKYT) ,"['EKYT 081854Z AUTO 08005KT 4700 BR OVC002/// M01/M02 Q0999 TEMPO 6000 BKN008', 'EKYT 081828Z AUTO 07005KT 020V090 1100 R08L/P1500N R26R/P1500N BR BKN002/// OVC042/// M01/M02 Q0999 TEMPO 6000 BKN008', 'EKYT 081801Z AUTO 09006KT 6000 BKN003/// BKN041/// M01/M02 Q0999 TEMPO 6000 BKN008', 'EKYT 081720Z AUTO 08005KT 7000 BKN016/// OVC041/// M01/M01 Q0999 TEMPO 6000 BECMG BKN015', 'EKYT 081700Z AUTO 08006KT 9000 OVC007/// M00/M01 Q0998 TEMPO 6000 BECMG BKN015', 'EKYT 081622Z AUTO 08006KT 7000 FEW004/// OVC006/// M00/M01 Q0998 TEMPO 3000 BR SCT004 BKN015', 'EKYT 081550Z AUTO 07006KT 9999 FEW004/// SCT014/// BKN039/// M00/M01 Q0998 TEMPO BKN004', 'EKYT 081520Z AUTO 08005KT 9999 SCT014/// BKN040/// 00/M00 Q0998 BECMG BKN020', 'EKYT 081450Z AUTO 09002KT 9999 BKN008/// OVC043/// 01/00 Q0998 BECMG BKN015', 'EKYT 081420Z AUTO 00000KT 9999 BKN005/// OVC047/// 01/00 Q0998 BECMG BKN015', 'EKYT 081350Z AUTO 21003KT 9999 OVC004/// 00/00 Q0998 BECMG SCT007', 'EKYT 081320Z AUTO 23003KT 9999 OVC004/// 00/M00 Q0998 BECMG BKN005', 'EKYT 081250Z AUTO 25002KT 9999 OVC004/// 00/M00 Q0998 BECMG BKN005', 'EKYT 081220Z AUTO 20004KT 9999 OVC002/// 00/M00 Q0998 BECMG 9999 NSW SCT003', 'EKYT 081153Z AUTO 22006KT 2400 R08L/P1500U R26R/0800U BR VV003 M00/M01 Q0998 BECMG 9999 NSW SCT003', 'EKYT 081123Z AUTO 22006KT 0150 R08L/0275N R26R/0325N FG VV003 M01/M01 Q0998 TEMPO 0800 FZFG VV003', 'EKYT 081100Z AUTO 26004KT 0250 R08L/0275N R26R/0300N FG VV002 M01/M01 Q0998 TEMPO 0800 FZFG VV003', 'EKYT 081020Z AUTO 23007KT 0150 R08L/0300D R26R/0275N FG VV002 M01/M01 Q0998', 'EKYT 081001Z AUTO 22008KT 4100 BR BKN003/// BKN020/// M00/M01 Q0998', 'EKYT 080920Z AUTO 24006KT 9999 BKN004/// OVC030/// 00/M00 Q0998', 'EKYT 080850Z AUTO 22004KT 9999 BKN002/// OVC038/// 00/M00 Q0998', 'EKYT 080820Z AUTO 27004KT 9000 R08L/P1500N R26R/0900D BKN003/// BKN090/// M00/M01 Q0998', 'EKYT 080750Z AUTO 24009KT 9999 OVC080/// M00/M01 Q0998', 'EKYT 080720Z AUTO 27006KT 9999 BKN091/// M01/M02 Q0998', 'EKYT 080650Z AUTO 26006KT 9999 NCD M01/M02 Q0997', 'EKYT 080620Z AUTO 26007KT 9999 NCD M02/M03 Q0997', 'EKYT 080559Z 27005KT CAVOK M02/M03 Q0997', 'EKYT 080520Z AUTO 27006KT 9999 SCT021/// M01/M02 Q0997', 'EKYT 080450Z AUTO 27006KT 9999 FEW022/// M01/M02 Q0997', 'EKYT 080420Z AUTO 28007KT 9999 FEW020/// 00/M01 Q0997', 'EKYT 080350Z AUTO 31007KT 9999 FEW023/// 01/M02 Q0996', 'EKYT 080320Z AUTO 31009KT 9999 BKN017/// 01/M01 Q0996', 'EKYT 080250Z AUTO 30010KT 9999 -RA FEW015/// BKN028/// 01/M01 Q0996', 'EKYT 080220Z AUTO 29012KT 9999 FEW011/// BKN015/// BKN140/// 01/M01 Q0995', 'EKYT 080150Z AUTO 30011KT 260V320 9999 -RASN BKN009/// 01/00 Q0995', 'EKYT 080130Z AUTO 29013KT 4600 -SN BKN013/// BKN100/// 01/M00 Q0995', 'EKYT 080050Z AUTO 30017G27KT 9999 -RA OVC008/// 01/M00 Q0994', 'EKYT 080020Z AUTO 24018KT 9999 -SN OVC006/// 01/00 Q0993', 'EKYT 080000Z AUTO 21014KT 4800 -SN OVC008/// 01/00 Q0994', 'EKYT 072327Z AUTO 21011KT 9999 -SN OVC007/// 00/00 Q0994', 'EKYT 072250Z AUTO 21011KT 9999 -SN OVC007/// 00/00 Q0994', 'EKYT 072220Z AUTO 19007KT 9999 -SN OVC006/// 00/M00 Q0995', 'EKYT 072156Z AUTO 18004KT 140V220 2800 -SN OVC005/// 00/M00 Q0995', 'EKYT 072125Z AUTO 17008KT 1300 R08L/P1500N R26R/P1500N -SN OVC005/// 00/M00 Q0996', 'EKYT 072059Z AUTO 17008KT 1700 -SN OVC006/// 00/M00 Q0996', 'EKYT 072031Z AUTO 19009KT 1300 R08L/P1500N R26R/P1500N -SN OVC024/// 00/M00 Q0997', 'EKYT 071952Z AUTO 21012KT 3300 -SN OVC024/// 01/M01 Q0997', 'EKYT 071927Z AUTO 18007KT 3300 -RA FEW025/// OVC068/// 01/M02 Q0998', 'EKYT 071850Z AUTO 18006KT 9999 SCT051/// OVC092/// M00/M02 Q0998', 'EKYT 071820Z AUTO 18006KT 9999 FEW050/// BKN130/// M00/M02 Q0998 TEMPO 0800 SHSN BKN004 BKN012CB', 'EKYT 071750Z AUTO 19006KT 9999 BKN053/// BKN140/// M00/M02 Q0998 TEMPO FM1830 0800 SHSN BKN004 BKN012CB', 'EKYT 071720Z AUTO 21006KT 9999 FEW130/// M01/M03 Q0999 TEMPO FM1830 0800 SHSN BKN004 BKN012CB', 'EKYT 071650Z AUTO 20005KT 9999 NCD M01/M03 Q0999 NOSIG', 'EKYT 071620Z AUTO 20006KT 9999 NCD M01/M03 Q0999 NOSIG', 'EKYT 071553Z 21007KT CAVOK M00/M03 Q0999 NOSIG', 'EKYT 071520Z AUTO 25006KT 9999 NCD 01/M03 Q0999 NOSIG', 'EKYT 071450Z AUTO 28005KT 9999 NCD 01/M03 Q0999 NOSIG', 'EKYT 071425Z 28007KT CAVOK 01/M03 Q0999 NOSIG', 'EKYT 071350Z AUTO 29008KT 9999 NCD 01/M04 Q0999 NOSIG', 'EKYT 071320Z AUTO 30007KT 9999 NCD 01/M04 Q0999 NOSIG', 'EKYT 071250Z AUTO 32008KT 9999 NCD 01/M04 Q0999 NOSIG', 'EKYT 071220Z AUTO 30010KT 270V330 9999 SCT024/// 00/M04 Q0999 NOSIG', 'EKYT 071150Z AUTO 29009KT 270V330 9999 FEW022/// 00/M04 Q0999', 'EKYT 071130Z 29010KT 270V330 9999 SCT023 00/M03 Q0999', 'EKYT 071050Z AUTO 30006KT 9999 OVC023/// 00/M03 Q0999', 'EKYT 071020Z AUTO 31005KT 9999 -SN SCT011/// OVC023/// M01/M02 Q0998', 'EKYT 070959Z AUTO 32005KT 290V360 2600 -SN OVC012/// M01/M02 Q0998', 'EKYT 070929Z AUTO 33003KT 7000 -RA FEW009/// OVC032/// M01/M01 Q0998', 'EKYT 070850Z AUTO 32005KT 280V020 9999 -RA SCT008/// BKN043/// BKN078/// M01/M01 Q0997', 'EKYT 070831Z AUTO 30003KT 9999 -SN BKN009/// OVC080/// M01/M01 Q0997', 'EKYT 070800Z AUTO 30003KT 2000 -SN FEW005/// OVC015/// M01/M02 Q0997', 'EKYT 070726Z AUTO 30004KT 280V340 1300 R08L/P1500N R26R/P1500N -SN OVC021/// M01/M02 Q0996', 'EKYT 070702Z AUTO 33003KT 2900 -SN OVC032/// M01/M02 Q0996', 'EKYT 070620Z AUTO 31003KT 9999 -RA BKN025/// OVC050/// M01/M02 Q0995', 'EKYT 070550Z AUTO 34004KT 9999 SCT028/// BKN048/// M01/M02 Q0995', 'EKYT 070520Z AUTO 34004KT 9999 FEW029/// OVC046/// M01/M02 Q0994', 'EKYT 070450Z AUTO 01004KT 320V040 9999 FEW015/// BKN052/// BKN094/// M00/M02 Q0994', 'EKYT 070420Z AUTO 35006KT 320V020 9999 -RASN OVC019/// M00/M01 Q0993', 'EKYT 070350Z AUTO 35004KT 320V020 9999 BKN012/// OVC024/// 00/M01 Q0993', 'EKYT 070326Z AUTO 34004KT 310V010 9999 BKN014/// OVC053/// 00/M01 Q0992', 'EKYT 070250Z AUTO 34004KT 310V020 9999 OVC017/// 00/M01 Q0992', 'EKYT 070220Z AUTO 34003KT 9999 BKN018/// BKN042/// OVC048/// 00/M01 Q0991', 'EKYT 070150Z AUTO 35004KT 310V020 9999 FEW023/// OVC049/// 00/M01 Q0991', 'EKYT 070120Z AUTO 01004KT 320V050 9999 BKN047/// 00/M01 Q0990', 'EKYT 070050Z AUTO 03003KT 9999 FEW004/// BKN017/// BKN047/// 00/M00 Q0990', 'EKYT 070020Z AUTO 02005KT 310V050 9999 -RA OVC004/// 00/M00 Q0989', 'EKYT 062356Z AUTO 33005KT 290V020 9999 -RA OVC004/// 01/01 Q0989', 'EKYT 062326Z AUTO 26008KT 9000 -RASN BKN009/// 01/01 Q0988 RERA', 'EKYT 062250Z AUTO 25009KT 9999 OVC004/// 01/01 Q0988', 'EKYT 062220Z AUTO 24011KT 9999 -SN OVC004/// 01/00 Q0987', 'EKYT 062156Z AUTO 25010KT 7000 RA OVC008/// 01/01 Q0987', 'EKYT 062120Z AUTO 24008KT 9999 -RA BKN011/// BKN030/// 02/01 Q0987', 'EKYT 062050Z AUTO 24009KT 9999 -RA BKN010/// 02/01 Q0988', 'EKYT 062026Z AUTO 26005KT 9999 -RA OVC014/// 02/01 Q0988 RESHRA', 'EKYT 061820Z AUTO 27007KT 9999 SCT019/// 02/01 Q0988 TEMPO 4000 SHRASN BKN014TCU', 'EKYT 061750Z AUTO 29009KT 9999 SCT016/// BKN099/// 02/01 Q0988 TEMPO 4000 SHRASN BKN014TCU', 'EKYT 061720Z AUTO 29009KT 9999 BKN015/// 03/01 Q0988 TEMPO 4000 SHRA BKN014TCU', 'EKYT 061650Z AUTO 28011KT 9999 BKN015/// 03/02 Q0987 TEMPO 4000 SHRA BKN014TCU', 'EKYT 061620Z AUTO 27014KT 9999 FEW016/// BKN088/// 03/02 Q0987 TEMPO 4000 SHRA BKN014TCU', 'EKYT 061550Z AUTO 26016KT 9999 FEW051/// BKN100/// 04/02 Q0987 BECMG 26020KT BKN015', 'EKYT 061520Z AUTO 27015KT 9999 FEW099/// 04/02 Q0986 BECMG 26020KT BKN015', 'EKYT 061450Z AUTO 26016KT 9999 FEW037/// 04/02 Q0986 BECMG 26020KT BKN015', 'EKYT 061420Z AUTO 26019KT 9999 FEW021/// 05/03 Q0986 BECMG 26020KT BKN015', 'EKYT 061350Z AUTO 25017KT 9999 SCT058/// 05/04 Q0987 BECMG 26020KT BKN015 TEMPO 4000 -RADZ', 'EKYT 061320Z AUTO 24015KT 9999 BKN013/// OVC059/// 04/04 Q0987 BECMG 26020KT BKN015 TEMPO 4000 -RADZ', 'EKYT 061251Z AUTO 23011KT 6000 OVC004/// 03/03 Q0987 BECMG 26020KT BKN015 TEMPO 4000 -RADZ', 'EKYT 061220Z AUTO 19006KT 9999 OVC004/// 02/02 Q0988 TEMPO 1500 RADZ BR BKN003', 'EKYT 061201Z AUTO 16004KT 4600 -RA BR OVC004/// 02/01 Q0988', 'EKYT 061120Z AUTO 13007KT 9999 -RA OVC004/// 01/01 Q0989', 'EKYT 061102Z AUTO 13009KT 5000 -RASN OVC004/// 01/01 Q0989', 'EKYT 061030Z AUTO 12013KT 6000 -SN OVC005/// 01/00 Q0990', 'EKYT 060950Z AUTO 12012KT 4500 -RASN OVC005/// 01/00 Q0991', 'EKYT 060920Z AUTO 11014KT 9000 -RASN SCT005/// OVC022/// 01/00 Q0991', 'EKYT 060902Z AUTO 12012KT 6000 -RASN BKN004/// OVC015/// 00/00 Q0992', 'EKYT 060832Z AUTO 12013KT 4200 -SN BKN005/// OVC016/// 00/00 Q0992', 'EKYT 060759Z AUTO 12013KT 7000 -RA OVC005/// 01/00 Q0993', 'EKYT 060726Z AUTO 11010KT 7000 -RA BKN005/// OVC030/// 01/00 Q0993', 'EKYT 060650Z AUTO 11012KT 9999 BKN005/// OVC031/// 01/00 Q0994', 'EKYT 060620Z AUTO 11008KT 9999 -RASN SCT005/// OVC034/// 00/00 Q0994', 'EKYT 060558Z AUTO 11009KT 4700 -RASN SCT005/// BKN039/// 00/00 Q0995', 'EKYT 060528Z AUTO 11010KT 4900 -RASN BKN005/// OVC034/// 00/00 Q0995', 'EKYT 060450Z AUTO 10011KT 9999 -RASN SCT004/// OVC041/// 00/00 Q0996', 'EKYT 060428Z AUTO 10011KT 7000 -SN BKN004/// BKN016/// OVC045/// 00/00 Q0996', 'EKYT 060356Z AUTO 10010KT 2900 -SN SCT004/// BKN024/// OVC034/// 00/00 Q0996', 'EKYT 060326Z AUTO 10008KT 2900 -SN BKN004/// BKN029/// OVC041/// 00/00 Q0997', 'EKYT 060259Z AUTO 10008KT 6000 -SN BKN004/// OVC021/// 00/00 Q0997', 'EKYT 060231Z AUTO 10009KT 2400 -SN FEW004/// OVC017/// 00/M00 Q0997', 'EKYT 060157Z AUTO 09006KT 2400 -SN SCT004/// OVC021/// 00/M00 Q0998', 'EKYT 060129Z AUTO 10007KT 2600 -SN FEW004/// OVC028/// 00/M00 Q0998', 'EKYT 060101Z AUTO 11007KT 4200 -SN SCT005/// OVC026/// 00/M00 Q0998', 'EKYT 060030Z 11007KT 3000 -SN OVC036 00/M00 Q0999', 'EKYT 060000Z AUTO 12006KT 3100 -SN FEW005/// OVC023/// 00/M00 Q0999', 'EKYT 052320Z AUTO 13005KT 9999 -RASN FEW005/// OVC040/// 00/M00 Q0999', 'EKYT 052250Z AUTO 13006KT 7000 -RASN FEW006/// OVC041/// 00/M00 Q0999', 'EKYT 052220Z AUTO 13006KT 9999 -RA BKN006/// OVC040/// 00/M00 Q0999', 'EKYT 052150Z AUTO 14005KT 9999 -RA OVC033/// 00/M00 Q0999', 'EKYT 052120Z AUTO 13005KT 9999 -RA BKN029/// OVC054/// 00/M00 Q1000', 'EKYT 052050Z 14004KT 3700 -SN OVC036 00/M00 Q1000', 'EKYT 052023Z 13003KT 2100 -SN OVC033 00/M00 Q1000', 'EKYT 051950Z 16003KT 2100 -SN OVC033 00/M00 Q1000', 'EKYT 051920Z 16003KT 4000 -SN OVC033 00/M00 Q1001']","['2024-02-08 18:54:00', '2024-02-08 18:28:00', '2024-02-08 18:01:00', '2024-02-08 17:20:00', '2024-02-08 17:00:00', '2024-02-08 16:22:00', '2024-02-08 15:50:00', '2024-02-08 15:20:00', '2024-02-08 14:50:00', '2024-02-08 14:20:00', '2024-02-08 13:50:00', '2024-02-08 13:20:00', '2024-02-08 12:50:00', '2024-02-08 12:20:00', '2024-02-08 11:53:00', '2024-02-08 11:23:00', '2024-02-08 11:00:00', '2024-02-08 10:20:00', '2024-02-08 10:01:00', '2024-02-08 09:20:00', '2024-02-08 08:50:00', '2024-02-08 08:20:00', '2024-02-08 07:50:00', '2024-02-08 07:20:00', '2024-02-08 06:50:00', '2024-02-08 06:20:00', '2024-02-08 05:59:00', '2024-02-08 05:20:00', '2024-02-08 04:50:00', '2024-02-08 04:20:00', '2024-02-08 03:50:00', '2024-02-08 03:20:00', '2024-02-08 02:50:00', '2024-02-08 02:20:00', '2024-02-08 01:50:00', '2024-02-08 01:30:00', '2024-02-08 00:50:00', '2024-02-08 00:20:00', '2024-02-08 00:00:00', '2024-02-07 23:27:00', '2024-02-07 22:50:00', '2024-02-07 22:20:00', '2024-02-07 21:56:00', '2024-02-07 21:25:00', '2024-02-07 20:59:00', '2024-02-07 20:31:00', '2024-02-07 19:52:00', '2024-02-07 19:27:00', '2024-02-07 18:50:00', '2024-02-07 18:20:00', '2024-02-07 17:50:00', '2024-02-07 17:20:00', '2024-02-07 16:50:00', '2024-02-07 16:20:00', '2024-02-07 15:53:00', '2024-02-07 15:20:00', '2024-02-07 14:50:00', '2024-02-07 14:25:00', '2024-02-07 13:50:00', '2024-02-07 13:20:00', '2024-02-07 12:50:00', '2024-02-07 12:20:00', '2024-02-07 11:50:00', '2024-02-07 11:30:00', '2024-02-07 10:50:00', '2024-02-07 10:20:00', '2024-02-07 09:59:00', '2024-02-07 09:29:00', '2024-02-07 08:50:00', '2024-02-07 08:31:00', '2024-02-07 08:00:00', '2024-02-07 07:26:00', '2024-02-07 07:02:00', '2024-02-07 06:20:00', '2024-02-07 05:50:00', '2024-02-07 05:20:00', '2024-02-07 04:50:00', '2024-02-07 04:20:00', '2024-02-07 03:50:00', '2024-02-07 03:26:00', '2024-02-07 02:50:00', '2024-02-07 02:20:00', '2024-02-07 01:50:00', '2024-02-07 01:20:00', '2024-02-07 00:50:00', '2024-02-07 00:20:00', '2024-02-06 23:56:00', '2024-02-06 23:26:00', '2024-02-06 22:50:00', '2024-02-06 22:20:00', '2024-02-06 21:56:00', '2024-02-06 21:20:00', '2024-02-06 20:50:00', '2024-02-06 20:26:00', '2024-02-06 18:20:00', '2024-02-06 17:50:00', '2024-02-06 17:20:00', '2024-02-06 16:50:00', '2024-02-06 16:20:00', '2024-02-06 15:50:00', '2024-02-06 15:20:00', '2024-02-06 14:50:00', '2024-02-06 14:20:00', '2024-02-06 13:50:00', '2024-02-06 13:20:00', '2024-02-06 12:51:00', '2024-02-06 12:20:00', '2024-02-06 12:01:00', '2024-02-06 11:20:00', '2024-02-06 11:02:00', '2024-02-06 10:30:00', '2024-02-06 09:50:00', '2024-02-06 09:20:00', '2024-02-06 09:02:00', '2024-02-06 08:32:00', '2024-02-06 07:59:00', '2024-02-06 07:26:00', '2024-02-06 06:50:00', '2024-02-06 06:20:00', '2024-02-06 05:58:00', '2024-02-06 05:28:00', '2024-02-06 04:50:00', '2024-02-06 04:28:00', '2024-02-06 03:56:00', '2024-02-06 03:26:00', '2024-02-06 02:59:00', '2024-02-06 02:31:00', '2024-02-06 01:57:00', '2024-02-06 01:29:00', '2024-02-06 01:01:00', '2024-02-06 00:30:00', '2024-02-06 00:00:00', '2024-02-05 23:20:00', '2024-02-05 22:50:00', '2024-02-05 22:20:00', '2024-02-05 21:50:00', '2024-02-05 21:20:00', '2024-02-05 20:50:00', '2024-02-05 20:23:00', '2024-02-05 19:50:00', '2024-02-05 19:20:00']"
Denmark, Aarhus Airport (AAR/EKAH) ,"['EKAH 081850Z AUTO 06005KT 9999 OVC028/// 00/M01 Q0999', 'EKAH 081820Z AUTO 07004KT 9999 OVC027/// 00/M01 Q0999', 'EKAH 081750Z AUTO 05004KT 9999 FEW019/// OVC027/// 00/M01 Q0999', 'EKAH 081720Z AUTO 09002KT 9999 FEW017/// BKN026/// 00/M01 Q0998', 'EKAH 081650Z AUTO 09002KT 9999 FEW022/// 00/M02 Q0998', 'EKAH 081620Z AUTO 05002KT 9999 BKN022/// 01/M01 Q0998', 'EKAH 081550Z AUTO 06005KT 9999 BKN017/// 02/M01 Q0998', 'EKAH 081520Z AUTO 31001KT 9999 FEW028/// 02/M01 Q0998', 'EKAH 081450Z 26001KT 9999 BKN030 02/M01 Q0998', 'EKAH 081420Z 28002KT 9999 BKN030 03/M01 Q0998', 'EKAH 081350Z AUTO 31005KT 9999 FEW022/// BKN031/// 03/M01 Q0998', 'EKAH 081320Z AUTO 26004KT 220V300 9999 FEW026/// 03/M01 Q0998', 'EKAH 081250Z AUTO 26006KT 220V280 9999 SCT026/// 03/M01 Q0999', 'EKAH 081220Z AUTO 28007KT 9999 FEW017/// 03/M01 Q0999', 'EKAH 081150Z AUTO 28007KT 9999 BKN017/// 04/M01 Q0999', 'EKAH 081120Z AUTO 26007KT 230V290 9999 SCT016/// 03/M00 Q0999', 'EKAH 081050Z AUTO 26008KT 9999 FEW014/// 03/M01 Q0999', 'EKAH 081020Z AUTO 27008KT 220V300 9999 FEW024/// 03/M00 Q0999', 'EKAH 080950Z AUTO 26007KT 9999 FEW024/// 02/M00 Q0999', 'EKAH 080920Z AUTO 26007KT 220V290 9999 FEW024/// 02/M00 Q0999', 'EKAH 080850Z AUTO 25005KT 220V280 9999 FEW025/// 01/M01 Q0999', 'EKAH 080820Z AUTO 26005KT 9999 FEW013/// M00/M02 Q0998', 'EKAH 080750Z AUTO 25005KT 9999 FEW013/// M01/M02 Q0999', 'EKAH 080720Z AUTO 26006KT 9999 FEW013/// M01/M03 Q0998', 'EKAH 080650Z AUTO 26007KT 9999 FEW013/// M01/M03 Q0998', 'EKAH 080620Z AUTO 26006KT 9999 FEW013/// M01/M03 Q0998', 'EKAH 080550Z AUTO 26010KT 9999 FEW013/// M00/M02 Q0998', 'EKAH 080520Z AUTO 27011KT 9999 FEW013/// 00/M02 Q0998', 'EKAH 080450Z AUTO 27011KT 9999 FEW013/// 00/M02 Q0998', 'EKAH 080420Z AUTO 27012KT 9999 FEW013/// 00/M02 Q0997', 'EKAH 080350Z AUTO 26011KT 9999 FEW013/// 00/M01 Q0997', 'EKAH 080320Z AUTO 26012KT 9999 FEW013/// 01/M01 Q0997', 'EKAH 080250Z AUTO 26012KT 9999 SCT013/// 01/M01 Q0997', 'EKAH 080220Z AUTO 27016KT 9999 OVC015/// 01/M01 Q0997', 'EKAH 080150Z AUTO 27015KT 9999 OVC016/// 01/M01 Q0997', 'EKAH 080120Z AUTO 26011KT 9999 OVC016/// 01/M00 Q0996', 'EKAH 080050Z AUTO 23007KT 190V270 9999 OVC012/// 01/00 Q0996', 'EKAH 080020Z AUTO 24007KT 190V270 9999 -RA OVC011/// 01/M00 Q0996', 'EKAH 072350Z AUTO 22006KT 190V270 9999 OVC014/// 01/M00 Q0996', 'EKAH 072320Z AUTO 22006KT 180V270 9999 OVC017/// 01/00 Q0997', 'EKAH 072250Z AUTO 21008G18KT 160V260 9999 BKN008/// 01/00 Q0997', 'EKAH 072220Z AUTO 21008G20KT 170V250 9999 -SN BKN005/// 01/M00 Q0997', 'EKAH 072150Z AUTO 18005KT 120V250 1000 R10R/P1500N R28L/P1500N -RASN BKN031/// 02/M01 Q0997', 'EKAH 072120Z AUTO 16003KT 9999 -RA OVC064/// 01/M01 Q0998', 'EKAH 072050Z AUTO 20004KT 150V250 8000 -RA FEW029/// BKN047/// 02/M02 Q0999', 'EKAH 072020Z AUTO 19003KT 9999 FEW046/// BKN065/// 01/M02 Q0999', 'EKAH 071950Z AUTO 20002KT 9999 BKN046/// BKN150/// 00/M02 Q1000', 'EKAH 071920Z AUTO 20002KT 9999 FEW047/// BKN150/// M01/M03 Q1000', 'EKAH 071850Z AUTO 20003KT 9999 FEW047/// BKN150/// M02/M03 Q1000', 'EKAH 071820Z AUTO 18002KT 9999 FEW170/// M02/M04 Q1000', 'EKAH 071750Z AUTO 18001KT 9999 FEW170/// M02/M03 Q1000', 'EKAH 071720Z AUTO 16001KT 9999 FEW025/// M02/M04 Q1000', 'EKAH 071650Z AUTO 22003KT 9999 FEW025/// M02/M04 Q1000', 'EKAH 071620Z AUTO 23003KT 9999 FEW025/// M01/M04 Q1000', 'EKAH 071550Z AUTO 25003KT 9999 FEW025/// 01/M03 Q1000', 'EKAH 071520Z AUTO 29005KT 9999 FEW025/// 01/M04 Q1001', 'EKAH 071450Z AUTO 29007KT 9999 FEW025/// 01/M04 Q1000', 'EKAH 071420Z AUTO 30008KT 9999 FEW025/// 01/M04 Q1000', 'EKAH 071350Z AUTO 30010KT 9999 FEW025/// 01/M04 Q1000', 'EKAH 071320Z 30012KT CAVOK 01/M05 Q1000 S', 'EKAH 071250Z 29013KT CAVOK 01/M04 Q1000 S', 'EKAH 071220Z 31011KT 9999 SCT021 01/M03 Q0999', 'EKAH 071150Z 29012KT 9999 BKN017 FEW038 01/M02 Q0999', 'EKAH 071120Z 29011KT 9999 FEW008 BKN025 01/M01 Q0999', 'EKAH 071050Z 28010KT 9999 BKN007 OVC028 00/M01 Q0999', 'EKAH 071020Z 30007KT 4000 -SN FEW013 BKN029 00/M01 Q0999', 'EKAH 070950Z 33007KT 2000 -SN OVC013 M00/M01 Q0998', 'EKAH 070920Z AUTO 31008KT 9999 -RASN OVC022/// 00/M02 Q0998', 'EKAH 070850Z AUTO 29005KT 9999 -SN OVC010/// 01/M01 Q0997', 'EKAH 070820Z AUTO 30004KT 9999 -RASN OVC012/// 01/M01 Q0997', 'EKAH 070750Z AUTO 29005KT 9999 -RA BKN013/// 00/M01 Q0996', 'EKAH 070720Z AUTO 30006KT 9999 -RASN BKN017/// 00/M01 Q0996', 'EKAH 070650Z AUTO 30008KT 9999 SCT029/// BKN045/// 00/M01 Q0995', 'EKAH 070620Z AUTO 29007KT 9999 -RASN OVC032/// 01/M01 Q0995', 'EKAH 070550Z AUTO 29008KT 9999 -RASN SCT010/// 01/M01 Q0994', 'EKAH 070520Z AUTO 30006KT 9999 FEW010/// OVC047/// 01/M01 Q0993', 'EKAH 070450Z AUTO 31006KT 9999 FEW009/// BKN046/// 01/M00 Q0993', 'EKAH 070420Z AUTO 32009KT 9999 BKN008/// BKN048/// 02/00 Q0992', 'EKAH 070350Z AUTO 32010KT 9999 OVC011/// 02/01 Q0992', 'EKAH 070320Z AUTO 30009KT 9999 BKN019/// 02/01 Q0991', 'EKAH 070250Z AUTO 30011KT 9000 -RA OVC023/// 02/01 Q0991', 'EKAH 070220Z AUTO 28010KT 9999 BKN024/// 02/01 Q0990', 'EKAH 070150Z AUTO 28006KT 9999 OVC015/// 02/01 Q0990', 'EKAH 070120Z AUTO 28008KT 9999 OVC025/// 02/01 Q0990', 'EKAH 070050Z AUTO 26009KT 230V290 9999 -RA OVC015/// 02/01 Q0990', 'EKAH 070020Z AUTO 26010KT 9999 -RA OVC018/// 03/01 Q0990', 'EKAH 062350Z AUTO 26013KT 220V280 9999 -RA OVC017/// 03/01 Q0989', 'EKAH 062320Z AUTO 24009G19KT 200V270 9999 BKN029/// 03/01 Q0989', 'EKAH 062250Z AUTO 24007KT 200V270 9999 -RA BKN022/// 02/01 Q0989', 'EKAH 062220Z AUTO 25011G21KT 200V280 9999 -RA BKN044/// 03/01 Q0989', 'EKAH 062150Z AUTO 25009KT 220V290 9999 OVC034/// 03/01 Q0989', 'EKAH 062120Z AUTO 24006KT 210V270 9999 FEW015/// SCT033/// 02/01 Q0989', 'EKAH 062050Z AUTO 26011KT 220V290 9999 -RA BKN017/// 03/01 Q0990', 'EKAH 062020Z AUTO 24007KT 190V270 9999 FEW034/// SCT086/// 03/01 Q0990', 'EKAH 061950Z AUTO 26013G24KT 9999 FEW025/// 03/00 Q0990', 'EKAH 061920Z AUTO 26010G22KT 9999 SCT027/// 03/01 Q0990', 'EKAH 061850Z AUTO 28008KT 9999 SCT019/// 03/01 Q0989', 'EKAH 061820Z AUTO 26010KT 9999 SCT054/// 03/M00 Q0989', 'EKAH 061750Z AUTO 26011KT 9999 -RA BKN053/// 04/02 Q0989', 'EKAH 061720Z AUTO 26017G31KT 230V300 9999 -RASN BKN021/// 03/01 Q0989', 'EKAH 061650Z AUTO 25007KT 210V280 9999 OVC021/// 05/03 Q0989', 'EKAH 061620Z AUTO 26009KT 9999 BKN018/// 05/03 Q0989', 'EKAH 061550Z AUTO 25009KT 220V280 9999 OVC018/// 06/03 Q0989', 'EKAH 061520Z AUTO 25009KT 220V280 9999 BKN017/// OVC064/// 06/04 Q0989', 'EKAH 061450Z AUTO 26010KT 9999 SCT017/// BKN064/// 06/04 Q0988', 'EKAH 061420Z AUTO 28013KT 9999 BKN017/// 06/05 Q0989', 'EKAH 061350Z AUTO 28015KT 210V310 9999 -RA BKN007/// 07/05 Q0989', 'EKAH 061320Z AUTO 24008KT 200V270 9999 OVC011/// 08/07 Q0989', 'EKAH 061250Z AUTO 23007KT 200V270 9999 -RA OVC010/// 08/07 Q0989', 'EKAH 061220Z AUTO 24006KT 170V270 9999 -RA OVC010/// 07/06 Q0989', 'EKAH 061150Z 24006KT 190V270 5000 -RA OVC011 07/06 Q0990', 'EKAH 061120Z 23007KT 180V260 5000 -RA BR OVC011 06/06 Q0990', 'EKAH 061050Z 23005KT 190V260 5000 -RA BR OVC011 06/05 Q0991', 'EKAH 061020Z 19001KT 3000 -RA BR OVC011 03/02 Q0991', 'EKAH 060950Z 11001KT 0700 R10/1200N R28/P1500N -RA FG OVC004 03/02 Q0991', 'EKAH 060920Z 06001KT 0700 R10/1200N R28/P1500D -RA FG OVC002 02/02 Q0992', 'EKAH 060850Z 11001KT 4000 -RA OVC003 02/02 Q0992', 'EKAH 060820Z 10002KT 5000 -RA OVC003 02/02 Q0993', 'EKAH 060750Z 10003KT 5000 -RA OVC003 02/02 Q0993', 'EKAH 060720Z AUTO 09004KT 5000 -RA OVC003/// 02/01 Q0994', 'EKAH 060650Z AUTO 09005KT 4900 -RA OVC003/// 02/01 Q0994', 'EKAH 060620Z AUTO 08006KT 4500 -RA OVC003/// 02/01 Q0994', 'EKAH 060550Z AUTO 09004KT 5000 -RA OVC003/// 02/01 Q0994', 'EKAH 060520Z AUTO 08005KT 4500 -RA OVC003/// 02/01 Q0995', 'EKAH 060450Z AUTO 08005KT 4300 -RA OVC003/// 02/01 Q0995', 'EKAH 060420Z AUTO 08005KT 4600 -RA OVC003/// 02/01 Q0995', 'EKAH 060350Z AUTO 08005KT 6000 -RA OVC003/// 02/01 Q0996', 'EKAH 060320Z AUTO 08005KT 8000 -RA OVC003/// 02/01 Q0996', 'EKAH 060250Z AUTO 08006KT 9999 -RA OVC003/// 02/01 Q0996', 'EKAH 060220Z AUTO 07006KT 9999 -RA OVC004/// 01/01 Q0997', 'EKAH 060150Z AUTO 09005KT 9000 -RA OVC004/// 01/01 Q0997', 'EKAH 060120Z AUTO 10006KT 9999 -RA OVC004/// 01/01 Q0997', 'EKAH 060050Z AUTO 10006KT 9999 -RA OVC005/// 01/01 Q0998', 'EKAH 060020Z AUTO 09007KT 9999 -RA OVC005/// 01/00 Q0998', 'EKAH 052350Z AUTO 10006KT 6000 -RA OVC004/// 01/00 Q0999', 'EKAH 052320Z AUTO 10007KT 8000 -RA OVC005/// 01/00 Q0999', 'EKAH 052250Z AUTO 09007KT 4900 -RA OVC005/// 01/00 Q0999', 'EKAH 052220Z AUTO 10006KT 7000 -SN BKN004/// 01/00 Q0999', 'EKAH 052150Z AUTO 09005KT 2400 -SN BKN003/// BKN019/// 01/M00 Q1000', 'EKAH 052120Z AUTO 10005KT 1600 -SN BKN003/// BKN020/// 01/M00 Q1000', 'EKAH 052050Z AUTO 10004KT 1700 -SN BKN004/// BKN017/// 01/M00 Q1000', 'EKAH 052020Z AUTO 09004KT 1500 -SN BKN003/// BKN018/// 01/M00 Q1000', 'EKAH 051950Z AUTO 10004KT 1800 -SN SCT006/// BKN019/// 01/M00 Q1001', 'EKAH 051920Z AUTO 11003KT 2000 -SN OVC019/// 01/M00 Q1001']","['2024-02-08 18:50:00', '2024-02-08 18:20:00', '2024-02-08 17:50:00', '2024-02-08 17:20:00', '2024-02-08 16:50:00', '2024-02-08 16:20:00', '2024-02-08 15:50:00', '2024-02-08 15:20:00', '2024-02-08 14:50:00', '2024-02-08 14:20:00', '2024-02-08 13:50:00', '2024-02-08 13:20:00', '2024-02-08 12:50:00', '2024-02-08 12:20:00', '2024-02-08 11:50:00', '2024-02-08 11:20:00', '2024-02-08 10:50:00', '2024-02-08 10:20:00', '2024-02-08 09:50:00', '2024-02-08 09:20:00', '2024-02-08 08:50:00', '2024-02-08 08:20:00', '2024-02-08 07:50:00', '2024-02-08 07:20:00', '2024-02-08 06:50:00', '2024-02-08 06:20:00', '2024-02-08 05:50:00', '2024-02-08 05:20:00', '2024-02-08 04:50:00', '2024-02-08 04:20:00', '2024-02-08 03:50:00', '2024-02-08 03:20:00', '2024-02-08 02:50:00', '2024-02-08 02:20:00', '2024-02-08 01:50:00', '2024-02-08 01:20:00', '2024-02-08 00:50:00', '2024-02-08 00:20:00', '2024-02-07 23:50:00', '2024-02-07 23:20:00', '2024-02-07 22:50:00', '2024-02-07 22:20:00', '2024-02-07 21:50:00', '2024-02-07 21:20:00', '2024-02-07 20:50:00', '2024-02-07 20:20:00', '2024-02-07 19:50:00', '2024-02-07 19:20:00', '2024-02-07 18:50:00', '2024-02-07 18:20:00', '2024-02-07 17:50:00', '2024-02-07 17:20:00', '2024-02-07 16:50:00', '2024-02-07 16:20:00', '2024-02-07 15:50:00', '2024-02-07 15:20:00', '2024-02-07 14:50:00', '2024-02-07 14:20:00', '2024-02-07 13:50:00', '2024-02-07 13:20:00', '2024-02-07 12:50:00', '2024-02-07 12:20:00', '2024-02-07 11:50:00', '2024-02-07 11:20:00', '2024-02-07 10:50:00', '2024-02-07 10:20:00', '2024-02-07 09:50:00', '2024-02-07 09:20:00', '2024-02-07 08:50:00', '2024-02-07 08:20:00', '2024-02-07 07:50:00', '2024-02-07 07:20:00', '2024-02-07 06:50:00', '2024-02-07 06:20:00', '2024-02-07 05:50:00', '2024-02-07 05:20:00', '2024-02-07 04:50:00', '2024-02-07 04:20:00', '2024-02-07 03:50:00', '2024-02-07 03:20:00', '2024-02-07 02:50:00', '2024-02-07 02:20:00', '2024-02-07 01:50:00', '2024-02-07 01:20:00', '2024-02-07 00:50:00', '2024-02-07 00:20:00', '2024-02-06 23:50:00', '2024-02-06 23:20:00', '2024-02-06 22:50:00', '2024-02-06 22:20:00', '2024-02-06 21:50:00', '2024-02-06 21:20:00', '2024-02-06 20:50:00', '2024-02-06 20:20:00', '2024-02-06 19:50:00', '2024-02-06 19:20:00', '2024-02-06 18:50:00', '2024-02-06 18:20:00', '2024-02-06 17:50:00', '2024-02-06 17:20:00', '2024-02-06 16:50:00', '2024-02-06 16:20:00', '2024-02-06 15:50:00', '2024-02-06 15:20:00', '2024-02-06 14:50:00', '2024-02-06 14:20:00', '2024-02-06 13:50:00', '2024-02-06 13:20:00', '2024-02-06 12:50:00', '2024-02-06 12:20:00', '2024-02-06 11:50:00', '2024-02-06 11:20:00', '2024-02-06 10:50:00', '2024-02-06 10:20:00', '2024-02-06 09:50:00', '2024-02-06 09:20:00', '2024-02-06 08:50:00', '2024-02-06 08:20:00', '2024-02-06 07:50:00', '2024-02-06 07:20:00', '2024-02-06 06:50:00', '2024-02-06 06:20:00', '2024-02-06 05:50:00', '2024-02-06 05:20:00', '2024-02-06 04:50:00', '2024-02-06 04:20:00', '2024-02-06 03:50:00', '2024-02-06 03:20:00', '2024-02-06 02:50:00', '2024-02-06 02:20:00', '2024-02-06 01:50:00', '2024-02-06 01:20:00', '2024-02-06 00:50:00', '2024-02-06 00:20:00', '2024-02-05 23:50:00', '2024-02-05 23:20:00', '2024-02-05 22:50:00', '2024-02-05 22:20:00', '2024-02-05 21:50:00', '2024-02-05 21:20:00', '2024-02-05 20:50:00', '2024-02-05 20:20:00', '2024-02-05 19:50:00', '2024-02-05 19:20:00']"
Denmark, Billund Airport (BLL/EKBI) ,"['EKBI 081850Z AUTO 10002KT 9999 NCD M04/M04 Q0998', 'EKBI 081820Z AUTO 08003KT 9999 NCD M05/M05 Q0998', 'EKBI 081750Z 09002KT 5000 R09/P1500D R27/1200U MIFG NSC M03/M03 Q0998', 'EKBI 081720Z AUTO 08003KT 9999 NCD M03/M03 Q0998', 'EKBI 081650Z AUTO 10002KT 9999 NCD M03/M04 Q0998', 'EKBI 081620Z AUTO 10003KT 9999 NCD M02/M02 Q0998', 'EKBI 081550Z AUTO 19002KT 9999 NCD M01/M02 Q0998', 'EKBI 081520Z AUTO 21002KT 9999 NCD 01/M01 Q0998', 'EKBI 081450Z AUTO 22004KT 9999 NCD 02/M01 Q0998', 'EKBI 081420Z AUTO 22004KT 9999 NCD 02/M01 Q0999', 'EKBI 081350Z AUTO 23005KT 9999 NCD 02/M01 Q0999', 'EKBI 081320Z AUTO 20003KT 9999 NCD 03/M01 Q0999', 'EKBI 081250Z AUTO 20004KT 9999 FEW033/// 01/00 Q0999', 'EKBI 081220Z AUTO 25006KT 9999 FEW010/// SCT023/// 02/M00 Q0999', 'EKBI 081150Z AUTO 23006KT 200V260 9999 FEW027/// 02/M00 Q0999', 'EKBI 081120Z AUTO 23005KT 9999 NCD 02/M00 Q0999', 'EKBI 081050Z AUTO 24006KT 9999 NCD 01/M00 Q0999', 'EKBI 081020Z AUTO 23003KT 9999 NCD 01/M00 Q0999', 'EKBI 080950Z AUTO 22003KT 9999 FEW032/// 01/M00 Q0999', 'EKBI 080920Z AUTO 23003KT 9999 NCD M00/M01 Q0999', 'EKBI 080850Z AUTO 22004KT 200V260 9999 NCD M01/M01 Q0999', 'EKBI 080820Z AUTO 22004KT 200V260 9999 FEW010/// M01/M02 Q0999', 'EKBI 080750Z AUTO 21003KT 9999 FEW020/// SCT022/// M02/M02 Q1000', 'EKBI 080720Z AUTO 20003KT 9999 FEW011/// BKN027/// M02/M02 Q0999', 'EKBI 080650Z AUTO 23004KT 200V270 9999 SCT030/// SCT040/// M03/M03 Q1000', 'EKBI 080620Z AUTO 21005KT 9999 FEW044/// M02/M02 Q0999', 'EKBI 080550Z AUTO 23005KT 9999 -SN SCT006/// BKN026/// M01/M02 Q0999', 'EKBI 080520Z AUTO 26003KT 9999 -SN FEW022/// SCT086/// M03/M04 Q1000', 'EKBI 080450Z AUTO 23003KT 9999 FEW013/// M02/M02 Q0999', 'EKBI 080420Z AUTO 26002KT 9999 -SN FEW035/// M02/M03 Q0999', 'EKBI 080350Z AUTO 23005KT 9999 FEW043/// M02/M02 Q0999', 'EKBI 080320Z AUTO 22005KT 9999 FEW012/// FEW021/// M02/M02 Q0999', 'EKBI 080250Z AUTO 25004KT 210V300 9999 -SN FEW018/// BKN090/// M02/M03 Q0999', 'EKBI 080220Z AUTO 26006KT 9999 FEW024/// M02/M03 Q0999', 'EKBI 080150Z AUTO 28008KT 9999 -SN BKN021/// 00/M01 Q0999', 'EKBI 080120Z AUTO 23007KT 9999 NCD M01/M02 Q0999', 'EKBI 080050Z AUTO 24006KT 9999 FEW041/// M01/M02 Q0999', 'EKBI 080020Z AUTO 25008KT 9999 SCT026/// SCT034/// M00/M01 Q0998', 'EKBI 072350Z AUTO 24008KT 9999 FEW022/// 00/M01 Q0998', 'EKBI 072320Z AUTO 24011KT 9999 SCT022/// 00/M00 Q0998', 'EKBI 072250Z AUTO 22007KT 9999 -SN FEW006/// SCT022/// SCT045/// BKN100/// 00/M00 Q0998', 'EKBI 072220Z AUTO 23008KT 210V270 9999 FEW007/// BKN020/// BKN100/// 00/00 Q0998', 'EKBI 072150Z AUTO 23006KT 9999 -SN FEW009/// SCT033/// BKN068/// BKN120/// 00/00 Q0998', 'EKBI 072050Z 24010KT 0700 R09/P1500U R27/P1500N -SHSN OVC020CB 00/M00 Q0999', 'EKBI 072020Z AUTO 21004KT 170V260 9999 BKN035/// OVC059/// 01/M02 Q0999', 'EKBI 071950Z AUTO 17005KT 9999 FEW033/// OVC086/// 01/M02 Q0999', 'EKBI 071920Z AUTO 16005KT 9999 BKN051/// 00/M02 Q1000', 'EKBI 071850Z AUTO 19004KT 9999 BKN100/// 00/M02 Q1000', 'EKBI 071820Z AUTO 18006KT 9999 NCD M00/M02 Q1000', 'EKBI 071750Z AUTO 19004KT 9999 FEW039/// 00/M02 Q1001', 'EKBI 071720Z AUTO 20004KT 9999 NCD 00/M03 Q1001', 'EKBI 071650Z AUTO 23003KT 9999 FEW043/// 01/M03 Q1001', 'EKBI 071620Z AUTO 25006KT 9999 SCT038/// 01/M02 Q1001', 'EKBI 071550Z AUTO 27007KT 9999 NCD 01/M02 Q1001', 'EKBI 071520Z AUTO 29011KT 270V330 9999 FEW032/// 03/M03 Q1001', 'EKBI 071450Z AUTO 28012KT 9999 NCD 03/M02 Q1002', 'EKBI 071420Z AUTO 28012KT 9999 NCD 03/M01 Q1001', 'EKBI 071350Z AUTO 28013KT 9999 NCD 03/M02 Q1001', 'EKBI 071320Z 29016KT 9999 VCSH FEW030CB SCT033 03/M02 Q1001', 'EKBI 071250Z 29015KT 9999 VCSH FEW030CB SCT033 04/M03 Q1001', 'EKBI 071220Z AUTO 28015KT 9999 BKN027/// 04/M01 Q1000', 'EKBI 071150Z 29013KT 270V330 9999 FEW029CB SCT052 03/M01 Q1000', 'EKBI 071120Z 28013KT 9999 FEW029CB SCT052 03/M01 Q1000', 'EKBI 071050Z AUTO 29015G25KT 9999 FEW049/// FEW055/// 03/M03 Q1000', 'EKBI 071020Z AUTO 30013KT 270V330 9999 NCD 03/M03 Q1000', 'EKBI 070950Z AUTO 29013KT 9999 NCD 03/M02 Q0999', 'EKBI 070920Z AUTO 29013KT 9999 NCD 02/M02 Q0999', 'EKBI 070850Z AUTO 28008KT 9999 FEW025/// 01/M02 Q0999', 'EKBI 070820Z AUTO 27007KT 9999 FEW026/// 00/M03 Q0998', 'EKBI 070750Z AUTO 29007KT 9999 NCD 00/M04 Q0998', 'EKBI 070720Z AUTO 31010KT 9999 NCD 00/M03 Q0998', 'EKBI 070650Z AUTO 30015KT 9999 NCD 01/M03 Q0997', 'EKBI 070620Z AUTO 31018KT 9999 FEW025/// 01/M02 Q0996 REDZRA', 'EKBI 070550Z 30020G35KT 9999 -SHRASN FEW013TCU BKN015 01/M00 Q0996', 'EKBI 070520Z 29016KT 9999 -SHRASN FEW015TCU BKN021 02/M01 Q0995', 'EKBI 070450Z AUTO 28015KT 9999 BKN031/// 02/M02 Q0994 REDZRA', 'EKBI 070420Z AUTO 28012KT 9999 OVC026/// 02/M01 Q0994 REDZRA', 'EKBI 070350Z 29012KT 270V330 9999 -SHRA SCT018TCU BKN037 02/M01 Q0994', 'EKBI 070320Z 29013KT 9999 SCT018TCU BKN037 02/M00 Q0994', 'EKBI 070250Z 28016KT 9999 SCT015TCU BKN046 02/M00 Q0993', 'EKBI 070220Z 29015G25KT 9999 FEW015TCU BKN018 03/01 Q0993', 'EKBI 070150Z 28018KT 9999 FEW015TCU BKN022 03/01 Q0992', 'EKBI 070120Z 27016KT 9999 SCT015TCU BKN028 03/02 Q0992', 'EKBI 070050Z 26017KT 9999 FEW015TCU BKN025 03/01 Q0991', 'EKBI 070020Z 28021G31KT 5000 SHRASN SCT015TCU BKN030 02/01 Q0991', 'EKBI 062350Z AUTO 26017KT 9999 SCT027/// 04/01 Q0991', 'EKBI 062320Z AUTO 25016G28KT 9999 SCT022/// BKN046/// 04/01 Q0991', 'EKBI 062250Z AUTO 25014KT 9999 BKN027/// 04/01 Q0991', 'EKBI 062220Z AUTO 26016KT 9999 BKN029/// 04/01 Q0991', 'EKBI 062150Z AUTO 24013KT 9999 SCT029/// SCT039/// BKN089/// 04/02 Q0991', 'EKBI 062120Z AUTO 24014KT 9999 BKN030/// 04/01 Q0991', 'EKBI 062050Z AUTO 24012KT 9999 BKN038/// 04/01 Q0991', 'EKBI 062020Z AUTO 25013KT 9999 FEW025/// FEW032/// 04/01 Q0991', 'EKBI 061950Z AUTO 25012KT 9999 FEW017/// SCT026/// 04/02 Q0992', 'EKBI 061920Z AUTO 25013KT 9999 BKN020/// BKN053/// 04/02 Q0992 REDZRA', 'EKBI 061850Z AUTO 25013KT 9999 -RA FEW020/// BKN059/// 04/02 Q0992 REDZRA', 'EKBI 061820Z AUTO 25010KT 9999 FEW064/// SCT074/// 03/02 Q0992', 'EKBI 061750Z AUTO 26010KT 9999 SCT062/// 03/02 Q0991', 'EKBI 061720Z AUTO 27013KT 9999 -DZ BKN009/// BKN054/// 04/03 Q0991', 'EKBI 061650Z AUTO 26014KT 230V290 9999 FEW010/// OVC014/// 05/03 Q0991', 'EKBI 061620Z AUTO 26014KT 9999 -RA FEW010/// OVC013/// 04/04 Q0991', 'EKBI 061550Z AUTO 27016KT 9999 -RA OVC006/// 05/04 Q0991', 'EKBI 061520Z AUTO 26011KT 9999 -RA OVC005/// 05/05 Q0991 REDZRA', 'EKBI 061450Z AUTO 27015KT 8000 -RA OVC006/// 05/05 Q0991', 'EKBI 061420Z AUTO 27012KT 4900 DZRA OVC008/// 06/05 Q0991', 'EKBI 061350Z AUTO 26015KT 9999 -DZ OVC006/// 06/06 Q0991 REDZRA', 'EKBI 061320Z AUTO 26020KT 2500 -RA OVC005/// 07/06 Q0991', 'EKBI 061250Z AUTO 25019KT 3100 RA OVC004/// 07/07 Q0991', 'EKBI 061220Z AUTO 24018KT 2900 -RA BR OVC006/// 07/07 Q0991', 'EKBI 061150Z AUTO 24019KT 220V280 4600 RA OVC007/// 08/07 Q0991', 'EKBI 061120Z AUTO 24018G30KT 9999 RA OVC007/// 08/07 Q0992', 'EKBI 061050Z AUTO 24018KT 9999 RA OVC007/// 08/07 Q0992', 'EKBI 061020Z AUTO 24016G26KT 9999 RA OVC006/// 08/07 Q0993', 'EKBI 060950Z AUTO 24015KT 9999 RA OVC006/// 07/07 Q0993', 'EKBI 060920Z AUTO 24015KT 9999 RA OVC006/// 08/07 Q0993', 'EKBI 060850Z AUTO 24016KT 9999 RA OVC006/// 07/07 Q0994', 'EKBI 060820Z AUTO 24014KT 9999 RA OVC006/// 07/07 Q0994', 'EKBI 060750Z AUTO 24015G25KT 9999 RA OVC006/// 07/07 Q0994', 'EKBI 060720Z AUTO 24015G27KT 9999 RA OVC006/// 07/07 Q0994', 'EKBI 060650Z AUTO 24014KT 9999 RA OVC006/// 07/07 Q0995', 'EKBI 060620Z AUTO 24015KT 9999 RA OVC006/// 07/07 Q0995', 'EKBI 060550Z AUTO 25016KT 9999 RA OVC006/// 07/07 Q0995', 'EKBI 060520Z AUTO 24014G25KT 9999 RA OVC006/// 07/07 Q0995', 'EKBI 060450Z AUTO 25014KT 9999 RA OVC006/// 07/07 Q0996', 'EKBI 060420Z AUTO 25014KT 220V280 9000 RA OVC006/// 07/07 Q0996', 'EKBI 060350Z AUTO 24015G27KT 9000 RA OVC006/// 07/07 Q0996', 'EKBI 060320Z AUTO 24015KT 9999 RA OVC006/// 07/07 Q0997', 'EKBI 060250Z AUTO 24014KT 9999 RA OVC006/// 07/07 Q0997', 'EKBI 060220Z AUTO 25015KT 9999 RA OVC006/// 07/07 Q0997', 'EKBI 060150Z AUTO 25016KT 9999 RA OVC006/// 07/07 Q0998', 'EKBI 060120Z AUTO 25016KT 9999 RA OVC007/// 07/07 Q0998', 'EKBI 060050Z AUTO 25016KT 9999 RA OVC006/// 07/07 Q0998', 'EKBI 060020Z AUTO 24015KT 9000 RA OVC006/// 07/07 Q0998', 'EKBI 052350Z AUTO 25015KT 8000 RA OVC006/// 07/07 Q0999', 'EKBI 052320Z AUTO 25015KT 7000 RA OVC006/// 07/07 Q0999', 'EKBI 052250Z AUTO 25016G29KT 9999 RA OVC007/// 07/07 Q0999', 'EKBI 052220Z AUTO 25017G27KT 9999 RA OVC007/// 07/07 Q0999', 'EKBI 052150Z AUTO 25016G26KT 9999 RA OVC007/// 07/06 Q0999', 'EKBI 052120Z AUTO 25016G27KT 9999 RA OVC007/// 07/06 Q0999', 'EKBI 052050Z AUTO 25017KT 9000 RA OVC007/// 07/06 Q1000', 'EKBI 052020Z AUTO 25014G26KT 8000 RA OVC007/// 07/06 Q1000', 'EKBI 051950Z AUTO 24018KT 7000 RA OVC007/// 07/06 Q1000', 'EKBI 051920Z AUTO 25018KT 9000 RA OVC007/// 07/06 Q1000']","['2024-02-08 18:50:00', '2024-02-08 18:20:00', '2024-02-08 17:50:00', '2024-02-08 17:20:00', '2024-02-08 16:50:00', '2024-02-08 16:20:00', '2024-02-08 15:50:00', '2024-02-08 15:20:00', '2024-02-08 14:50:00', '2024-02-08 14:20:00', '2024-02-08 13:50:00', '2024-02-08 13:20:00', '2024-02-08 12:50:00', '2024-02-08 12:20:00', '2024-02-08 11:50:00', '2024-02-08 11:20:00', '2024-02-08 10:50:00', '2024-02-08 10:20:00', '2024-02-08 09:50:00', '2024-02-08 09:20:00', '2024-02-08 08:50:00', '2024-02-08 08:20:00', '2024-02-08 07:50:00', '2024-02-08 07:20:00', '2024-02-08 06:50:00', '2024-02-08 06:20:00', '2024-02-08 05:50:00', '2024-02-08 05:20:00', '2024-02-08 04:50:00', '2024-02-08 04:20:00', '2024-02-08 03:50:00', '2024-02-08 03:20:00', '2024-02-08 02:50:00', '2024-02-08 02:20:00', '2024-02-08 01:50:00', '2024-02-08 01:20:00', '2024-02-08 00:50:00', '2024-02-08 00:20:00', '2024-02-07 23:50:00', '2024-02-07 23:20:00', '2024-02-07 22:50:00', '2024-02-07 22:20:00', '2024-02-07 21:50:00', '2024-02-07 20:50:00', '2024-02-07 20:20:00', '2024-02-07 19:50:00', '2024-02-07 19:20:00', '2024-02-07 18:50:00', '2024-02-07 18:20:00', '2024-02-07 17:50:00', '2024-02-07 17:20:00', '2024-02-07 16:50:00', '2024-02-07 16:20:00', '2024-02-07 15:50:00', '2024-02-07 15:20:00', '2024-02-07 14:50:00', '2024-02-07 14:20:00', '2024-02-07 13:50:00', '2024-02-07 13:20:00', '2024-02-07 12:50:00', '2024-02-07 12:20:00', '2024-02-07 11:50:00', '2024-02-07 11:20:00', '2024-02-07 10:50:00', '2024-02-07 10:20:00', '2024-02-07 09:50:00', '2024-02-07 09:20:00', '2024-02-07 08:50:00', '2024-02-07 08:20:00', '2024-02-07 07:50:00', '2024-02-07 07:20:00', '2024-02-07 06:50:00', '2024-02-07 06:20:00', '2024-02-07 05:50:00', '2024-02-07 05:20:00', '2024-02-07 04:50:00', '2024-02-07 04:20:00', '2024-02-07 03:50:00', '2024-02-07 03:20:00', '2024-02-07 02:50:00', '2024-02-07 02:20:00', '2024-02-07 01:50:00', '2024-02-07 01:20:00', '2024-02-07 00:50:00', '2024-02-07 00:20:00', '2024-02-06 23:50:00', '2024-02-06 23:20:00', '2024-02-06 22:50:00', '2024-02-06 22:20:00', '2024-02-06 21:50:00', '2024-02-06 21:20:00', '2024-02-06 20:50:00', '2024-02-06 20:20:00', '2024-02-06 19:50:00', '2024-02-06 19:20:00', '2024-02-06 18:50:00', '2024-02-06 18:20:00', '2024-02-06 17:50:00', '2024-02-06 17:20:00', '2024-02-06 16:50:00', '2024-02-06 16:20:00', '2024-02-06 15:50:00', '2024-02-06 15:20:00', '2024-02-06 14:50:00', '2024-02-06 14:20:00', '2024-02-06 13:50:00', '2024-02-06 13:20:00', '2024-02-06 12:50:00', '2024-02-06 12:20:00', '2024-02-06 11:50:00', '2024-02-06 11:20:00', '2024-02-06 10:50:00', '2024-02-06 10:20:00', '2024-02-06 09:50:00', '2024-02-06 09:20:00', '2024-02-06 08:50:00', '2024-02-06 08:20:00', '2024-02-06 07:50:00', '2024-02-06 07:20:00', '2024-02-06 06:50:00', '2024-02-06 06:20:00', '2024-02-06 05:50:00', '2024-02-06 05:20:00', '2024-02-06 04:50:00', '2024-02-06 04:20:00', '2024-02-06 03:50:00', '2024-02-06 03:20:00', '2024-02-06 02:50:00', '2024-02-06 02:20:00', '2024-02-06 01:50:00', '2024-02-06 01:20:00', '2024-02-06 00:50:00', '2024-02-06 00:20:00', '2024-02-05 23:50:00', '2024-02-05 23:20:00', '2024-02-05 22:50:00', '2024-02-05 22:20:00', '2024-02-05 21:50:00', '2024-02-05 21:20:00', '2024-02-05 20:50:00', '2024-02-05 20:20:00', '2024-02-05 19:50:00', '2024-02-05 19:20:00']"
Denmark, Copenhagen Airport (CPH/EKCH) ,"['EKCH 081850Z AUTO 06002KT 9999 NCD M00/M02 Q0999 NOSIG', 'EKCH 081820Z AUTO 07003KT 9999 NCD 01/M01 Q0999 NOSIG', 'EKCH 081750Z AUTO 07002KT 9999 SCT026/// SCT040/// 00/M02 Q0999 NOSIG', 'EKCH 081720Z AUTO 08003KT 9999 FEW038/// 00/M02 Q0999 NOSIG', 'EKCH 081650Z AUTO 13001KT 9999 NCD 01/M02 Q0999 NOSIG', 'EKCH 081620Z AUTO 00000KT 9999 NCD 02/M02 Q0999 NOSIG', 'EKCH 081550Z AUTO 31003KT 9999 FEW027/// BKN048/// 02/M03 Q0999 NOSIG', 'EKCH 081520Z AUTO 28007KT 260V330 9999 FEW029/// SCT058/// 03/M02 Q0999 NOSIG', 'EKCH 081450Z AUTO 28005KT 250V330 9999 OVC026/// 04/M02 Q0999 NOSIG', 'EKCH 081420Z AUTO 29006KT 250V330 9999 BKN026/// BKN054/// 04/M03 Q0999 NOSIG', 'EKCH 081350Z AUTO 27007KT 9999 FEW029/// BKN037/// 04/M02 Q0999 NOSIG', 'EKCH 081320Z AUTO 27009KT 9999 SCT041/// 03/M02 Q0999 NOSIG', 'EKCH 081250Z AUTO 28011KT 9999 SCT025/// BKN039/// 03/M02 Q0999 NOSIG', 'EKCH 081220Z AUTO 30011KT 9999 FEW025/// 04/M01 Q0999 NOSIG', 'EKCH 081150Z AUTO 27012KT 9999 BKN021/// 04/M01 Q0999 NOSIG', 'EKCH 081120Z AUTO 27009KT 9999 BKN019/// 03/M01 Q0999 NOSIG', 'EKCH 081050Z AUTO 27011KT 9999 BKN021/// 03/M01 Q0999 NOSIG', 'EKCH 081020Z AUTO 28010KT 250V310 9999 FEW019/// 03/M01 Q0999 NOSIG', 'EKCH 080950Z AUTO 27011KT 9999 NCD 03/M01 Q0999 NOSIG', 'EKCH 080920Z AUTO 27012KT 9999 NCD 02/M01 Q0999 NOSIG', 'EKCH 080850Z AUTO 26011KT 9999 NCD 02/M01 Q0999 NOSIG', 'EKCH 080820Z AUTO 26013KT 9999 NCD 01/M01 Q0999 NOSIG', 'EKCH 080750Z AUTO 26011KT 9999 NCD 01/M01 Q0999 NOSIG', 'EKCH 080720Z AUTO 26011KT 9999 NCD 00/M02 Q0999 NOSIG', 'EKCH 080650Z AUTO 25013KT 9999 FEW024/// 00/M02 Q0998 NOSIG', 'EKCH 080620Z AUTO 25015KT 9999 BKN021/// 01/M01 Q0998 NOSIG', 'EKCH 080550Z AUTO 25014KT 9999 FEW020/// 01/M01 Q0998 NOSIG', 'EKCH 080520Z AUTO 26013KT 9999 BKN021/// 01/M01 Q0998 NOSIG', 'EKCH 080450Z AUTO 26013KT 9999 BKN024/// 02/M01 Q0998 TEMPO 27015G25KT', 'EKCH 080420Z AUTO 25016KT 9999 -RA BKN020/// 02/M01 Q0998 TEMPO 27015G25KT', 'EKCH 080350Z AUTO 24015KT 9999 BKN021/// 02/M01 Q0998 TEMPO 27015G25KT', 'EKCH 080320Z AUTO 24015KT 9999 BKN016/// 02/M00 Q0998 TEMPO 27015G25KT', 'EKCH 080250Z 24017KT 9999 BKN013 BKN028 02/M00 Q0998 BECMG BKN020 TEMPO 26015G25KT', 'EKCH 080220Z 24017KT 9999 BKN010 OVC014 02/M00 Q0998 BECMG BKN020', 'EKCH 080150Z 22016KT 9999 -DZ OVC009CB 01/00 Q0998 BECMG BKN020', 'EKCH 080120Z 21019KT 6000 -SHRASN OVC010CB 01/M00 Q0998 BECMG BKN020', 'EKCH 080050Z AUTO 20013KT 9999 OVC054/// 02/M01 Q0999 BECMG 1000 SHSN BKN006 SCT020CB', 'EKCH 080020Z AUTO 20011KT 9999 OVC085/// 01/M01 Q0999 BECMG 1000 SHSN BKN006 SCT020CB', 'EKCH 072350Z AUTO 21007KT 9999 OVC064/// 01/M01 Q1000 BECMG 1000 SHSN BKN006 SCT020CB', 'EKCH 072320Z AUTO 21006KT 9999 OVC100/// 00/M02 Q1000 NOSIG', 'EKCH 072250Z AUTO 21007KT 210V270 9999 BKN120/// M00/M02 Q1000 NOSIG', 'EKCH 072220Z AUTO 21004KT 9999 BKN130/// 00/M02 Q1001 NOSIG', 'EKCH 072150Z AUTO 20004KT 9999 FEW140/// SCT180/// M03/M04 Q1001 NOSIG', 'EKCH 072120Z AUTO 21005KT 9999 SCT150/// M02/M04 Q1001 NOSIG', 'EKCH 072050Z AUTO 22007KT 9999 FEW160/// M02/M05 Q1001 NOSIG', 'EKCH 072020Z AUTO 21004KT 9999 NCD M02/M05 Q1001 NOSIG', 'EKCH 071950Z AUTO 20002KT 9999 NCD M03/M05 Q1001 NOSIG', 'EKCH 071920Z AUTO 25004KT 9999 NCD M01/M05 Q1001 NOSIG', 'EKCH 071850Z AUTO 28005KT 9999 NCD M01/M05 Q1001 NOSIG', 'EKCH 071820Z AUTO 27006KT 9999 NCD M01/M05 Q1001 NOSIG', 'EKCH 071750Z AUTO 26006KT 9999 NCD M01/M05 Q1001 NOSIG', 'EKCH 071720Z AUTO 29007KT 9999 FEW024/// 00/M04 Q1001 NOSIG', 'EKCH 071650Z AUTO 27007KT 9999 FEW025/// SCT029/// 01/M04 Q1001 NOSIG', 'EKCH 071620Z AUTO 28009KT 9999 FEW029/// 01/M04 Q1001 NOSIG', 'EKCH 071550Z 29009KT 260V320 9999 BKN026 01/M05 Q1000 TEMPO 4000 -SHSN SCT020CB', 'EKCH 071520Z 29013KT 9999 BKN039 01/M04 Q1000 TEMPO 4000 -SHSN SCT020CB', 'EKCH 071450Z 29013KT 9999 BKN031 02/M04 Q1000 TEMPO 4000 -SHSN SCT020CB', 'EKCH 071420Z 30012KT 9999 FEW024 BKN037 02/M03 Q1000 TEMPO 4000 -SHSN SCT020CB', 'EKCH 071351Z 31013KT 9999 FEW040 02/M04 Q0999 TEMPO 4000 -SHSN SCT020CB', 'EKCH 071320Z 30010KT 9999 BKN015CB 01/M02 Q0999 TEMPO 4000 SHSN', 'EKCH 071250Z 28009KT 9999 BKN018CB 02/M01 Q0999 RESHSN TEMPO 4000 SHSN', 'EKCH 071229Z 28009KT 9999 -SHSN OVC019CB 01/M01 Q0999 TEMPO 4000 SHSN', 'EKCH 071150Z 30010KT 280V340 9999 -SHSN BKN022CB 02/M03 Q0998 TEMPO 4000 MOD SHSN', 'EKCH 071120Z AUTO 31009KT 9999 SCT025/// OVC061/// 02/M03 Q0998 TEMPO 4000 SCT020CB', 'EKCH 071050Z AUTO 32008KT 9999 BKN023/// OVC058/// 02/M03 Q0998 TEMPO FEW020CB', 'EKCH 071020Z AUTO 32011KT 9999 BKN023/// BKN053/// 02/M03 Q0997 TEMPO FEW020CB', 'EKCH 070950Z AUTO 33009KT 9999 FEW024/// BKN082/// 02/M04 Q0997 TEMPO FEW020CB', 'EKCH 070920Z AUTO 32010KT 290V350 9999 SCT023/// BKN082/// 02/M03 Q0996 TEMPO FEW020CB', 'EKCH 070850Z AUTO 32012KT 290V350 9999 FEW021/// BKN083/// 01/M03 Q0996 TEMPO FEW020CB', 'EKCH 070820Z AUTO 32010KT 290V350 9999 BKN029/// 01/M03 Q0995 TEMPO FEW020CB', 'EKCH 070750Z AUTO 32011KT 9999 BKN019/// 01/M02 Q0995 TEMPO FEW020CB', 'EKCH 070720Z 32014KT 9999 SCT015 BKN030 01/M02 Q0994 BECMG BKN020', 'EKCH 070650Z AUTO 31008KT 270V340 9999 SCT014/// BKN042/// 01/M01 Q0994 TEMPO FEW020CB', 'EKCH 070620Z AUTO 30008KT 9999 FEW013/// BKN048/// 02/M00 Q0993 TEMPO FEW020CB', 'EKCH 070550Z 32008KT 9999 BKN011 02/M00 Q0992 TEMPO SCT020CB', 'EKCH 070520Z AUTO 31012KT 9999 -RA BKN012/// 02/00 Q0992 TEMPO SCT020CB', 'EKCH 070450Z AUTO 30014KT 9999 FEW015/// 03/M00 Q0991 TEMPO SCT020CB', 'EKCH 070420Z AUTO 29014KT 9999 -RA BKN017/// 03/01 Q0991 TEMPO SCT020CB', 'EKCH 070350Z AUTO 28014KT 9999 BKN021/// 04/00 Q0990 TEMPO SCT020CB', 'EKCH 070320Z AUTO 28018KT 9999 BKN021/// 04/00 Q0990 TEMPO SCT020CB', 'EKCH 070250Z AUTO 28012KT 9999 BKN023/// 03/02 Q0990 RESHRA TEMPO SCT020CB', 'EKCH 070220Z AUTO 28016KT 6000 RA OVC015/// 03/01 Q0990 TEMPO SCT020CB', 'EKCH 070150Z AUTO 25011KT 9999 BKN032/// 03/01 Q0990 TEMPO SCT020CB', 'EKCH 070120Z AUTO 26014KT 9999 BKN037/// 03/01 Q0990 TEMPO SCT020CB', 'EKCH 070050Z AUTO 26016KT 9999 -RA BKN014/// 03/01 Q0990 TEMPO SCT020CB', 'EKCH 070020Z AUTO 25015KT 9999 -RA FEW021/// SCT035/// BKN051/// BKN087/// 04/01 Q0990 TEMPO SCT020CB', 'EKCH 062350Z AUTO 24013KT 9999 BKN038/// BKN100/// 04/01 Q0990 TEMPO SCT020CB', 'EKCH 062320Z AUTO 26014KT 9999 FEW045/// FEW061/// 04/01 Q0990 TEMPO SCT020CB', 'EKCH 062250Z AUTO 26013KT 9999 FEW038/// BKN051/// BKN200/// 04/01 Q0990 NOSIG', 'EKCH 062220Z AUTO 26014KT 9999 FEW069/// BKN200/// 04/01 Q0991 NOSIG', 'EKCH 062150Z AUTO 26015KT 9999 SCT023/// BKN063/// 04/01 Q0990 NOSIG', 'EKCH 062120Z AUTO 27014KT 9999 FEW210/// 04/00 Q0990 NOSIG', 'EKCH 062050Z AUTO 27014KT 9999 NCD 04/01 Q0990 NOSIG', 'EKCH 062020Z AUTO 28017KT 9999 FEW018/// 05/01 Q0990 NOSIG', 'EKCH 061950Z AUTO 27015KT 240V300 9999 SCT017/// BKN071/// 05/02 Q0990 NOSIG', 'EKCH 061920Z AUTO 28013KT 9999 BKN065/// 05/03 Q0989 NOSIG', 'EKCH 061850Z AUTO 27014KT 9999 FEW017/// FEW042/// BKN053/// 06/03 Q0989 NOSIG', 'EKCH 061820Z AUTO 27015KT 9999 FEW022/// SCT049/// BKN065/// 06/03 Q0989 NOSIG', 'EKCH 061750Z 27015KT CAVOK 06/05 Q0989 NOSIG', 'EKCH 061720Z 28016KT 4000 -DZ BR OVC010 06/05 Q0989 BECMG 6000 NSW BKN015', 'EKCH 061650Z 27017KT 4000 -DZ BR FEW006 OVC010 07/06 Q0989 BECMG 6000 NSW BKN015', 'EKCH 061620Z 25015KT 4000 -DZ BR FEW004 OVC010 07/07 Q0989 BECMG 6000 NSW BKN015', 'EKCH 061550Z 25017KT 4000 -RA OVC011 07/07 Q0989 BECMG 6000 BKN015', 'EKCH 061520Z 24018KT 8000 -RA OVC014 08/06 Q0989 TEMPO BKN009', 'EKCH 061450Z 23016KT 9999 -RA OVC013 07/06 Q0990 TEMPO BKN009', 'EKCH 061420Z 24017KT 9999 -RA OVC015 08/07 Q0990 TEMPO BKN009', 'EKCH 061320Z 24016KT 9000 -RA FEW009 OVC014 07/07 Q0991 TEMPO BKN009', 'EKCH 061250Z 24016KT 8000 -RA FEW009 OVC013 07/07 Q0991 TEMPO BKN009', 'EKCH 061220Z 24016KT 9000 -RA FEW009 OVC013 07/06 Q0992 TEMPO BKN009', 'EKCH 061150Z 24016KT 9000 -RA FEW009 OVC013 08/06 Q0992 TEMPO BKN009', 'EKCH 061120Z 24017KT 9000 -RA FEW009 OVC013 07/06 Q0993 TEMPO BKN009', 'EKCH 061050Z 24015KT 9000 -RA FEW009 OVC012 07/07 Q0993 TEMPO BKN009', 'EKCH 061020Z 24016KT 9000 -RA FEW009 OVC012 07/06 Q0993 TEMPO BKN009', 'EKCH 060950Z 24017KT 9000 -RA FEW009 OVC012 07/06 Q0994 TEMPO BKN009', 'EKCH 060920Z 24015KT 9000 -RA FEW009 OVC012 07/06 Q0994 TEMPO BKN009', 'EKCH 060850Z 24015KT 9000 -RA FEW009 OVC012 07/06 Q0994 TEMPO BKN009', 'EKCH 060820Z 24013KT 7000 -RA FEW009 OVC012 07/06 Q0994 TEMPO BKN009', 'EKCH 060750Z 24012KT 7000 -RA OVC012 07/06 Q0995 TEMPO BKN009', 'EKCH 060720Z 24013KT 7000 -RA OVC012 07/06 Q0995 TEMPO BKN009', 'EKCH 060650Z 24013KT 9000 -RA OVC012 07/06 Q0995 TEMPO BKN009', 'EKCH 060620Z 24013KT 8000 -RA OVC009 06/06 Q0995 BECMG BKN012', 'EKCH 060550Z 24012KT 8000 -RA OVC009 06/06 Q0995 BECMG BKN012', 'EKCH 060520Z 25008KT 8000 -RA OVC008 05/05 Q0996 BECMG BKN012', 'EKCH 060450Z 22003KT 6000 -RA OVC009 03/03 Q0996 BECMG BKN012', 'EKCH 060420Z 26001KT 6000 -RA OVC008 03/03 Q0996 BECMG BKN012', 'EKCH 060350Z 19003KT 5000 -RA OVC007 03/03 Q0997 BECMG BKN012', 'EKCH 060320Z 15006KT 5000 -RA OVC004 03/03 Q0997 TEMPO BKN012', 'EKCH 060250Z 15002KT 5000 -RA OVC004 02/02 Q0997 TEMPO BKN012', 'EKCH 060220Z 11004KT 070V150 6000 -RA OVC003 02/02 Q0998 TEMPO BKN012', 'EKCH 060150Z 12008KT 8000 -RA OVC004 02/02 Q0998 TEMPO BKN012', 'EKCH 060120Z 12008KT 8000 -RA OVC004 02/01 Q0999 TEMPO BKN012', 'EKCH 060050Z 12009KT 8000 -RA BKN005 BKN013 01/01 Q0999 TEMPO BKN012', 'EKCH 060020Z 11009KT 8000 -RA BKN005 BKN020 01/01 Q0999 TEMPO BKN012', 'EKCH 052350Z 10007KT 8000 -RA SCT005 BKN018 01/00 Q1000 BECMG 25010KT BKN008', 'EKCH 052320Z 10006KT 6000 RA BKN017 01/00 Q1000 BECMG 25010KT BKN008', 'EKCH 052250Z 10008KT 5000 RA BKN004 BKN023 01/00 Q1001 BECMG 25010KT BKN008', 'EKCH 052220Z 08005KT 020V120 4000 -SN OVC003 00/00 Q1001 BECMG 6000 RA BKN008', 'EKCH 052150Z 08006KT 4000 -SN OVC004 00/00 Q1001 TEMPO 5000 -SN BKN006', 'EKCH 052120Z 09006KT 7000 -SN OVC004 00/00 Q1001 TEMPO 4000 RASN BKN006', 'EKCH 052050Z 08005KT 7000 -SN OVC004 00/M00 Q1001 TEMPO 4000 RASN BKN006', 'EKCH 051951Z 11002KT 4000 BKN004 OVC012 00/00 Q1002 TEMPO 5000 MOD RASN BKN006', 'EKCH 051921Z 11002KT 4000 -SN OVC006 01/00 Q1002 TEMPO 2000 MOD SN']","['2024-02-08 18:50:00', '2024-02-08 18:20:00', '2024-02-08 17:50:00', '2024-02-08 17:20:00', '2024-02-08 16:50:00', '2024-02-08 16:20:00', '2024-02-08 15:50:00', '2024-02-08 15:20:00', '2024-02-08 14:50:00', '2024-02-08 14:20:00', '2024-02-08 13:50:00', '2024-02-08 13:20:00', '2024-02-08 12:50:00', '2024-02-08 12:20:00', '2024-02-08 11:50:00', '2024-02-08 11:20:00', '2024-02-08 10:50:00', '2024-02-08 10:20:00', '2024-02-08 09:50:00', '2024-02-08 09:20:00', '2024-02-08 08:50:00', '2024-02-08 08:20:00', '2024-02-08 07:50:00', '2024-02-08 07:20:00', '2024-02-08 06:50:00', '2024-02-08 06:20:00', '2024-02-08 05:50:00', '2024-02-08 05:20:00', '2024-02-08 04:50:00', '2024-02-08 04:20:00', '2024-02-08 03:50:00', '2024-02-08 03:20:00', '2024-02-08 02:50:00', '2024-02-08 02:20:00', '2024-02-08 01:50:00', '2024-02-08 01:20:00', '2024-02-08 00:50:00', '2024-02-08 00:20:00', '2024-02-07 23:50:00', '2024-02-07 23:20:00', '2024-02-07 22:50:00', '2024-02-07 22:20:00', '2024-02-07 21:50:00', '2024-02-07 21:20:00', '2024-02-07 20:50:00', '2024-02-07 20:20:00', '2024-02-07 19:50:00', '2024-02-07 19:20:00', '2024-02-07 18:50:00', '2024-02-07 18:20:00', '2024-02-07 17:50:00', '2024-02-07 17:20:00', '2024-02-07 16:50:00', '2024-02-07 16:20:00', '2024-02-07 15:50:00', '2024-02-07 15:20:00', '2024-02-07 14:50:00', '2024-02-07 14:20:00', '2024-02-07 13:51:00', '2024-02-07 13:20:00', '2024-02-07 12:50:00', '2024-02-07 12:29:00', '2024-02-07 11:50:00', '2024-02-07 11:20:00', '2024-02-07 10:50:00', '2024-02-07 10:20:00', '2024-02-07 09:50:00', '2024-02-07 09:20:00', '2024-02-07 08:50:00', '2024-02-07 08:20:00', '2024-02-07 07:50:00', '2024-02-07 07:20:00', '2024-02-07 06:50:00', '2024-02-07 06:20:00', '2024-02-07 05:50:00', '2024-02-07 05:20:00', '2024-02-07 04:50:00', '2024-02-07 04:20:00', '2024-02-07 03:50:00', '2024-02-07 03:20:00', '2024-02-07 02:50:00', '2024-02-07 02:20:00', '2024-02-07 01:50:00', '2024-02-07 01:20:00', '2024-02-07 00:50:00', '2024-02-07 00:20:00', '2024-02-06 23:50:00', '2024-02-06 23:20:00', '2024-02-06 22:50:00', '2024-02-06 22:20:00', '2024-02-06 21:50:00', '2024-02-06 21:20:00', '2024-02-06 20:50:00', '2024-02-06 20:20:00', '2024-02-06 19:50:00', '2024-02-06 19:20:00', '2024-02-06 18:50:00', '2024-02-06 18:20:00', '2024-02-06 17:50:00', '2024-02-06 17:20:00', '2024-02-06 16:50:00', '2024-02-06 16:20:00', '2024-02-06 15:50:00', '2024-02-06 15:20:00', '2024-02-06 14:50:00', '2024-02-06 14:20:00', '2024-02-06 13:20:00', '2024-02-06 12:50:00', '2024-02-06 12:20:00', '2024-02-06 11:50:00', '2024-02-06 11:20:00', '2024-02-06 10:50:00', '2024-02-06 10:20:00', '2024-02-06 09:50:00', '2024-02-06 09:20:00', '2024-02-06 08:50:00', '2024-02-06 08:20:00', '2024-02-06 07:50:00', '2024-02-06 07:20:00', '2024-02-06 06:50:00', '2024-02-06 06:20:00', '2024-02-06 05:50:00', '2024-02-06 05:20:00', '2024-02-06 04:50:00', '2024-02-06 04:20:00', '2024-02-06 03:50:00', '2024-02-06 03:20:00', '2024-02-06 02:50:00', '2024-02-06 02:20:00', '2024-02-06 01:50:00', '2024-02-06 01:20:00', '2024-02-06 00:50:00', '2024-02-06 00:20:00', '2024-02-05 23:50:00', '2024-02-05 23:20:00', '2024-02-05 22:50:00', '2024-02-05 22:20:00', '2024-02-05 21:50:00', '2024-02-05 21:20:00', '2024-02-05 20:50:00', '2024-02-05 19:51:00', '2024-02-05 19:21:00']"
Denmark, Esbjerg Airport (EBJ/EKEB) ,"['EKEB 081850Z AUTO 09004KT 9999 OVC150/// M00/M01 Q0998', 'EKEB 081820Z AUTO 10005KT 9999 OVC150/// 00/M01 Q0998', 'EKEB 081750Z AUTO 08004KT 9999 OVC150/// M00/M01 Q0998', 'EKEB 081720Z AUTO 06003KT 9999 OVC150/// M00/M01 Q0998', 'EKEB 081650Z AUTO 07001KT 9999 OVC150/// 00/M01 Q0998', 'EKEB 081620Z AUTO 00000KT 9999 BKN150/// 00/M02 Q0998', 'EKEB 081550Z AUTO 00000KT 9999 SCT160/// 00/M02 Q0998', 'EKEB 081520Z AUTO 21001KT 9999 BKN160/// 02/M01 Q0998', 'EKEB 081450Z AUTO 19001KT 9999 BKN160/// 03/M01 Q0998', 'EKEB 081420Z AUTO 00000KT 9999 FEW030/// SCT170/// 02/M01 Q0999', 'EKEB 081350Z AUTO VRB01KT 9999 NCD 02/M02 Q0999', 'EKEB 081320Z AUTO 27005KT 9999 NCD 04/M01 Q0999', 'EKEB 081250Z AUTO 25007KT 9999 FEW032/// 04/M01 Q0999', 'EKEB 081220Z AUTO 24006KT 9999 FEW031/// 03/M02 Q0999', 'EKEB 081150Z AUTO 25004KT 9999 FEW028/// FEW037/// 03/M01 Q0999', 'EKEB 081120Z AUTO 26004KT 9999 FEW022/// 03/M01 Q0999', 'EKEB 081050Z AUTO 24005KT 9999 NCD 03/M00 Q0999', 'EKEB 081020Z AUTO 23004KT 9999 NCD 03/M00 Q1000', 'EKEB 080950Z AUTO 24006KT 9999 NCD 02/M01 Q1000', 'EKEB 080920Z AUTO 25006KT 9999 FEW100/// 01/M01 Q1000', 'EKEB 080850Z AUTO 22003KT 9999 FEW024/// 01/M01 Q1000', 'EKEB 080820Z AUTO 23003KT 9999 FEW025/// M00/M01 Q1000', 'EKEB 080750Z AUTO 22005KT 9999 BKN030/// 00/M01 Q1000 REFZRA', 'EKEB 080720Z AUTO 24005KT 190V260 9999 -FZRA BKN029/// 00/M01 Q1000', 'EKEB 080650Z AUTO 00000KT 9999 FEW027/// M01/M01 Q1000', 'EKEB 080620Z AUTO 30003KT 9999 FEW027/// M02/M03 Q1000', 'EKEB 080550Z AUTO 22003KT 9999 FEW120/// M01/M02 Q1000', 'EKEB 080520Z AUTO 24004KT 9999 BKN032/// M00/M02 Q1000', 'EKEB 080450Z AUTO 23007KT 9999 SCT045/// 00/M01 Q1000', 'EKEB 080420Z AUTO 24007KT 9999 NCD M02/M03 Q1000', 'EKEB 080350Z AUTO 25006KT 9999 NCD M01/M02 Q1000', 'EKEB 080320Z AUTO 25007KT 9999 SCT041/// M00/M01 Q1000', 'EKEB 080250Z AUTO 26006KT 9999 NCD M01/M02 Q1000', 'EKEB 080220Z AUTO 27010KT 9999 -SN BKN022/// 01/M01 Q1000', 'EKEB 080150Z AUTO 29008KT 9999 -SN SCT021/// SCT042/// BKN051/// 01/M01 Q1000', 'EKEB 080120Z AUTO 25007KT 9999 FEW034/// 00/M02 Q1000', 'EKEB 080050Z AUTO 25008KT 9999 FEW020/// 01/M01 Q1000', 'EKEB 080020Z AUTO 25009KT 9999 SCT032/// 01/M01 Q0999', 'EKEB 072350Z AUTO 25009KT 9999 FEW027/// 01/M01 Q0999', 'EKEB 072320Z AUTO 25009KT 9999 FEW022/// FEW120/// 01/M00 Q0999', 'EKEB 072250Z AUTO 26011KT 9999 FEW018/// 01/M00 Q0999', 'EKEB 072220Z AUTO 23009KT 200V270 9999 -RA SCT023/// 01/00 Q0999', 'EKEB 072150Z AUTO 24012KT 210V270 9999 -RA BKN019/// BKN043/// BKN100/// 00/00 Q0999', 'EKEB 072120Z AUTO 23010KT 9999 FEW075/// BKN110/// 00/M00 Q0999 RESN', 'EKEB 072050Z AUTO 24006KT 2400 SN BKN007/// BKN034/// BKN092/// 00/M00 Q0999 RERASN', 'EKEB 072020Z AUTO 25016KT 0150 R08/P1500D R26/P1500D RASN VV007 00/M00 Q1000', 'EKEB 071950Z AUTO 21015KT 9999 BKN074/// 03/M01 Q0999', 'EKEB 071920Z AUTO 21011KT 9999 FEW047/// BKN098/// 03/M01 Q1000', 'EKEB 071850Z AUTO 21009KT 9999 OVC089/// 03/M01 Q1000', 'EKEB 071820Z AUTO 21008KT 9999 BKN099/// 02/M01 Q1001', 'EKEB 071750Z AUTO 21006KT 9999 FEW110/// 02/M02 Q1001', 'EKEB 071720Z AUTO 22007KT 9999 FEW036/// 01/M02 Q1001', 'EKEB 071650Z AUTO 22006KT 9999 NCD 01/M02 Q1002', 'EKEB 071620Z AUTO 21005KT 9999 FEW039/// 02/M02 Q1002', 'EKEB 071550Z AUTO 22003KT 9999 FEW039/// 02/M01 Q1002', 'EKEB 071520Z AUTO 26004KT 9999 FEW034/// 03/M01 Q1002', 'EKEB 071450Z AUTO 28006KT 9999 SCT036/// 03/M01 Q1002', 'EKEB 071420Z AUTO 28008KT 9999 NCD 03/M01 Q1002', 'EKEB 071350Z AUTO 31005KT 9999 NCD 03/00 Q1002', 'EKEB 071320Z AUTO 32009KT 9999 -UP BKN019/// 02/M00 Q1002', 'EKEB 071250Z AUTO 29011KT 260V320 9999 NCD 04/M00 Q1002', 'EKEB 071220Z AUTO 29008KT 9999 FEW034/// FEW056/// 03/00 Q1002', 'EKEB 071150Z AUTO 31018KT 4000 -RASN BKN010/// 01/M00 Q1002', 'EKEB 071120Z AUTO 30011KT 9999 FEW040/// 03/M01 Q1001', 'EKEB 071050Z AUTO 31017G27KT 270V340 9999 BKN021/// 02/M01 Q1002', 'EKEB 071020Z AUTO 29014KT 9999 FEW027/// FEW038/// 04/M01 Q1001', 'EKEB 070950Z AUTO 29012KT 9999 FEW023/// FEW037/// 04/M01 Q1001', 'EKEB 070920Z AUTO 29012KT 9999 FEW024/// SCT036/// 03/M01 Q1000', 'EKEB 070850Z AUTO 29013KT 9999 NCD 03/M01 Q1000', 'EKEB 070820Z AUTO 29011KT 9999 NCD 02/M01 Q1000', 'EKEB 070750Z AUTO 29012KT 9999 FEW014/// FEW047/// 02/M01 Q0999', 'EKEB 070720Z AUTO 29011G22KT 260V320 8000 -UP FEW018/// FEW064/// 02/M02 Q0999', 'EKEB 070650Z AUTO 30012KT 9999 NCD 02/M03 Q0998', 'EKEB 070620Z AUTO 30015KT 9999 NCD 02/M03 Q0998', 'EKEB 070550Z AUTO 30015KT 9999 NCD 02/M04 Q0997', 'EKEB 070520Z AUTO 30017KT 9999 NCD 02/M03 Q0997', 'EKEB 070450Z AUTO 29016G26KT 9999 FEW036/// 03/M03 Q0996', 'EKEB 070420Z AUTO 29018G28KT 9999 SCT038/// 03/M03 Q0996', 'EKEB 070350Z AUTO 29017G28KT 9999 BKN036/// 03/M02 Q0995', 'EKEB 070320Z AUTO 29017G29KT 9999 BKN035/// 03/M01 Q0995', 'EKEB 070250Z AUTO 29016KT 9999 OVC031/// 04/M01 Q0995', 'EKEB 070220Z AUTO 28020G32KT 9999 BKN028/// 04/M01 Q0994', 'EKEB 070150Z AUTO 29019G30KT 260V320 9999 -RA BKN017/// 04/01 Q0994', 'EKEB 070120Z AUTO 28019KT 9999 -UP BKN019/// 04/01 Q0993', 'EKEB 070050Z AUTO 27016KT 9999 FEW025/// FEW033/// FEW055/// 04/02 Q0993', 'EKEB 070020Z AUTO 26014KT 9999 SCT026/// 05/02 Q0993', 'EKEB 062350Z AUTO 26017KT 9999 FEW024/// 05/02 Q0992', 'EKEB 062320Z AUTO 25017KT 9999 BKN029/// 05/02 Q0992', 'EKEB 062250Z AUTO 25021KT 9999 FEW028/// 05/02 Q0992', 'EKEB 062220Z AUTO 25015G26KT 9999 FEW056/// 05/02 Q0992', 'EKEB 062150Z AUTO 24020G33KT 210V270 7000 BKN020/// BKN063/// 05/02 Q0992', 'EKEB 062120Z AUTO 24018KT 9999 SCT030/// 05/02 Q0992', 'EKEB 062050Z AUTO 24017KT 9999 BKN034/// 05/02 Q0992', 'EKEB 062020Z AUTO 25017KT 9999 FEW039/// 05/02 Q0993', 'EKEB 061950Z AUTO 25014KT 9999 FEW030/// SCT042/// 05/02 Q0993', 'EKEB 061920Z AUTO 25016KT 9999 FEW019/// FEW029/// 05/02 Q0993', 'EKEB 061850Z AUTO 27014KT 240V300 9999 BKN018/// 05/03 Q0993', 'EKEB 061820Z AUTO 24016KT 9999 FEW035/// BKN038/// 05/03 Q0992', 'EKEB 061750Z AUTO 24011KT 9999 FEW054/// 04/03 Q0992', 'EKEB 061720Z AUTO 26011KT 9999 FEW028/// BKN054/// 05/03 Q0992', 'EKEB 061650Z AUTO 27017G27KT 9999 -RA BKN011/// 06/04 Q0992', 'EKEB 061620Z AUTO 25019G29KT 9999 BKN010/// 06/05 Q0992', 'EKEB 061550Z AUTO 24020KT 9999 BKN008/// 06/05 Q0992', 'EKEB 061520Z AUTO 24015KT 6000 -RA BKN006/// 06/06 Q0992', 'EKEB 061450Z AUTO 25018KT 3700 BR BKN004/// BKN022/// 06/06 Q0992', 'EKEB 061420Z AUTO 26012KT 2200 DZ BR OVC004/// 06/06 Q0992', 'EKEB 061350Z AUTO 27013KT 2400 -RA BR OVC005/// 06/06 Q0992', 'EKEB 061320Z AUTO 26015G26KT 3500 R08/1000U R26/P1500U DZ BR BKN003/// 07/06 Q0992', 'EKEB 061300Z 24022KT 3800 RADZ OVC004 07/07 Q0992', 'EKEB 061220Z 24023KT 3800 RADZ OVC004 07/07 Q0992', 'EKEB 061150Z AUTO 23026KT 3700 R08/0800N R26/1000D DZ BR OVC005/// 07/07 Q0992', 'EKEB 061120Z AUTO 23026KT 5000 DZ OVC005/// 07/07 Q0993', 'EKEB 061050Z AUTO 23024KT 5000 DZ OVC005/// 07/07 Q0993', 'EKEB 061020Z AUTO 23022KT 7000 -RA OVC005/// 07/07 Q0993', 'EKEB 060950Z AUTO 23023G33KT 6000 DZ OVC005/// 07/07 Q0994', 'EKEB 060920Z AUTO 23022KT 6000 -RA OVC005/// 07/07 Q0994', 'EKEB 060850Z AUTO 23021KT 5000 DZ OVC004/// 07/07 Q0994', 'EKEB 060820Z AUTO 23019KT 6000 -RA OVC004/// 07/07 Q0995', 'EKEB 060750Z AUTO 23019KT 5000 DZ OVC004/// 07/07 Q0995', 'EKEB 060720Z AUTO 23019KT 6000 -RA OVC004/// 07/07 Q0995', 'EKEB 060650Z AUTO 23021KT 5000 -RA OVC005/// 07/07 Q0995', 'EKEB 060620Z AUTO 23019KT 5000 -RA OVC004/// 07/07 Q0996', 'EKEB 060550Z AUTO 23020KT 5000 -RA OVC005/// 07/07 Q0996', 'EKEB 060520Z AUTO 23022KT 5000 -RA OVC005/// 07/07 Q0996', 'EKEB 060450Z AUTO 23020KT 5000 -RA OVC005/// 07/06 Q0997', 'EKEB 060420Z AUTO 24021KT 5000 -RA BR OVC005/// 07/07 Q0997', 'EKEB 060350Z AUTO 24021KT 5000 -RA OVC004/// 07/06 Q0997', 'EKEB 060320Z AUTO 24020KT 5000 -RA OVC006/// 07/06 Q0997', 'EKEB 060250Z AUTO 23021G33KT 5000 -RA OVC006/// 07/06 Q0998', 'EKEB 060220Z AUTO 23020KT 5000 DZ OVC005/// 07/06 Q0998', 'EKEB 060150Z AUTO 23021KT 5000 -RA OVC005/// 07/06 Q0999', 'EKEB 060120Z AUTO 24019KT 5000 -RA OVC004/// 07/06 Q0999', 'EKEB 060050Z AUTO 23020KT 5000 -RA OVC004/// 07/06 Q0999', 'EKEB 060020Z AUTO 23020KT 4500 -RA BR OVC005/// 07/06 Q1000', 'EKEB 052350Z AUTO 23022KT 5000 -RA BKN006/// 07/07 Q1000', 'EKEB 052320Z AUTO 24020KT 5000 -RA OVC006/// 07/06 Q1000', 'EKEB 052250Z AUTO 24021KT 6000 -RA OVC006/// 07/06 Q1000', 'EKEB 052220Z AUTO 23021KT 5000 -RA OVC007/// 07/06 Q1000', 'EKEB 052150Z AUTO 24020KT 6000 -RA OVC007/// 07/06 Q1000', 'EKEB 052120Z AUTO 24021KT 6000 -RA BKN008/// 07/06 Q1001', 'EKEB 052050Z AUTO 24021KT 6000 -RA BKN009/// 07/06 Q1001', 'EKEB 052020Z AUTO 23022KT 5000 +DZ BKN008/// 07/06 Q1001', 'EKEB 051950Z AUTO 23022KT 6000 -RA BKN009/// 07/06 Q1001', 'EKEB 051920Z AUTO 24020KT 6000 -RA BKN010/// 07/06 Q1001']","['2024-02-08 18:50:00', '2024-02-08 18:20:00', '2024-02-08 17:50:00', '2024-02-08 17:20:00', '2024-02-08 16:50:00', '2024-02-08 16:20:00', '2024-02-08 15:50:00', '2024-02-08 15:20:00', '2024-02-08 14:50:00', '2024-02-08 14:20:00', '2024-02-08 13:50:00', '2024-02-08 13:20:00', '2024-02-08 12:50:00', '2024-02-08 12:20:00', '2024-02-08 11:50:00', '2024-02-08 11:20:00', '2024-02-08 10:50:00', '2024-02-08 10:20:00', '2024-02-08 09:50:00', '2024-02-08 09:20:00', '2024-02-08 08:50:00', '2024-02-08 08:20:00', '2024-02-08 07:50:00', '2024-02-08 07:20:00', '2024-02-08 06:50:00', '2024-02-08 06:20:00', '2024-02-08 05:50:00', '2024-02-08 05:20:00', '2024-02-08 04:50:00', '2024-02-08 04:20:00', '2024-02-08 03:50:00', '2024-02-08 03:20:00', '2024-02-08 02:50:00', '2024-02-08 02:20:00', '2024-02-08 01:50:00', '2024-02-08 01:20:00', '2024-02-08 00:50:00', '2024-02-08 00:20:00', '2024-02-07 23:50:00', '2024-02-07 23:20:00', '2024-02-07 22:50:00', '2024-02-07 22:20:00', '2024-02-07 21:50:00', '2024-02-07 21:20:00', '2024-02-07 20:50:00', '2024-02-07 20:20:00', '2024-02-07 19:50:00', '2024-02-07 19:20:00', '2024-02-07 18:50:00', '2024-02-07 18:20:00', '2024-02-07 17:50:00', '2024-02-07 17:20:00', '2024-02-07 16:50:00', '2024-02-07 16:20:00', '2024-02-07 15:50:00', '2024-02-07 15:20:00', '2024-02-07 14:50:00', '2024-02-07 14:20:00', '2024-02-07 13:50:00', '2024-02-07 13:20:00', '2024-02-07 12:50:00', '2024-02-07 12:20:00', '2024-02-07 11:50:00', '2024-02-07 11:20:00', '2024-02-07 10:50:00', '2024-02-07 10:20:00', '2024-02-07 09:50:00', '2024-02-07 09:20:00', '2024-02-07 08:50:00', '2024-02-07 08:20:00', '2024-02-07 07:50:00', '2024-02-07 07:20:00', '2024-02-07 06:50:00', '2024-02-07 06:20:00', '2024-02-07 05:50:00', '2024-02-07 05:20:00', '2024-02-07 04:50:00', '2024-02-07 04:20:00', '2024-02-07 03:50:00', '2024-02-07 03:20:00', '2024-02-07 02:50:00', '2024-02-07 02:20:00', '2024-02-07 01:50:00', '2024-02-07 01:20:00', '2024-02-07 00:50:00', '2024-02-07 00:20:00', '2024-02-06 23:50:00', '2024-02-06 23:20:00', '2024-02-06 22:50:00', '2024-02-06 22:20:00', '2024-02-06 21:50:00', '2024-02-06 21:20:00', '2024-02-06 20:50:00', '2024-02-06 20:20:00', '2024-02-06 19:50:00', '2024-02-06 19:20:00', '2024-02-06 18:50:00', '2024-02-06 18:20:00', '2024-02-06 17:50:00', '2024-02-06 17:20:00', '2024-02-06 16:50:00', '2024-02-06 16:20:00', '2024-02-06 15:50:00', '2024-02-06 15:20:00', '2024-02-06 14:50:00', '2024-02-06 14:20:00', '2024-02-06 13:50:00', '2024-02-06 13:20:00', '2024-02-06 13:00:00', '2024-02-06 12:20:00', '2024-02-06 11:50:00', '2024-02-06 11:20:00', '2024-02-06 10:50:00', '2024-02-06 10:20:00', '2024-02-06 09:50:00', '2024-02-06 09:20:00', '2024-02-06 08:50:00', '2024-02-06 08:20:00', '2024-02-06 07:50:00', '2024-02-06 07:20:00', '2024-02-06 06:50:00', '2024-02-06 06:20:00', '2024-02-06 05:50:00', '2024-02-06 05:20:00', '2024-02-06 04:50:00', '2024-02-06 04:20:00', '2024-02-06 03:50:00', '2024-02-06 03:20:00', '2024-02-06 02:50:00', '2024-02-06 02:20:00', '2024-02-06 01:50:00', '2024-02-06 01:20:00', '2024-02-06 00:50:00', '2024-02-06 00:20:00', '2024-02-05 23:50:00', '2024-02-05 23:20:00', '2024-02-05 22:50:00', '2024-02-05 22:20:00', '2024-02-05 21:50:00', '2024-02-05 21:20:00', '2024-02-05 20:50:00', '2024-02-05 20:20:00', '2024-02-05 19:50:00', '2024-02-05 19:20:00']"
Denmark, Karup Midtjyllands Airport (KRP/EKKA) ,"['EKKA 081855Z AUTO 11003KT 0100 R09R/0400N R27L/0450N FZFG VV001 M04/M04 Q0998 TEMPO 1800 BCFG', 'EKKA 081829Z AUTO 11002KT 0150 R09R/0650U R27L/0500N FZFG VV002 M03/M03 Q0998 TEMPO 1800 BCFG', 'EKKA 081750Z AUTO 07002KT 0050 R09R/0325N R27L/0300N FZFG VV002 M03/M03 Q0998 TEMPO 1800 BCFG', 'EKKA 081727Z AUTO 07001KT 0100 R09R/1100N R27L/0400N FZFG SCT003/// M02/M02 Q0998 TEMPO 2500 BCFG', 'EKKA 081653Z AUTO 00000KT 0150 R09R/0800N R27L/0500U FZFG NCD M02/M02 Q0998 TEMPO 2500 BCFG', 'EKKA 081620Z AUTO 00000KT 0200 R09R/0550D R27L/1200D FZFG FEW003/// M00/M01 Q0998 TEMPO 2500 BCFG', 'EKKA 081601Z AUTO 29001KT 0250 R09R/1300D R27L/0700D FG BKN130/// M01/M01 Q0998 TEMPO 2500 BCFG', 'EKKA 081520Z AUTO 22001KT 9999 BKN130/// 01/M01 Q0998 NOSIG', 'EKKA 081450Z AUTO 28002KT 9999 BKN130/// 00/M02 Q0998 NOSIG', 'EKKA 081420Z AUTO 26005KT 9999 BKN130/// 00/M02 Q0998 NOSIG', 'EKKA 081350Z AUTO 26005KT 9999 BKN130/// 01/M01 Q0998 TEMPO 3000 -SHSN SCT020CB', 'EKKA 081320Z AUTO 26005KT 9999 BKN130/// 02/M00 Q0998 TEMPO 2500 -SHSN BKN012 BKN020CB', 'EKKA 081250Z AUTO 25005KT 9999 FEW140/// 02/M00 Q0998 TEMPO 2500 -SHSN BKN012 BKN020CB', 'EKKA 081220Z AUTO 24005KT 9999 FEW130/// 02/M00 Q0998 TEMPO 2500 -SHSN BKN012 BKN020CB', 'EKKA 081154Z 23006KT 9999 SCT018 FEW025CB 03/00 Q0998 TEMPO 2500 -SHSN BKN012 BKN020CB', 'EKKA 081120Z 22006KT 9999 SCT018 FEW025CB 02/01 Q0998 TEMPO 2500 -SHSN BKN012 BKN020CB', 'EKKA 081050Z 22007KT 9999 SCT018 FEW020CB 01/M00 Q0998 TEMPO 1800 SHSN BKN010 BKN020CB', 'EKKA 081020Z 24008KT 9999 R09/1900U R27/P2000N FEW005 SCT018 FEW020CB 01/M00 Q0998 TEMPO 1800 SHRA BKN010 BKN020CB', 'EKKA 080920Z 21004KT 9999 SCT018 FEW025CB M00/M01 Q0998 TEMPO 1800 SHSN BKN010 BKN020CB', 'EKKA 080901Z 23006KT 9999 R09/1800U R27/P2000N -SHSN SCT012 FEW020CB M00/M01 Q0999 TEMPO 1800 SHSN BKN010 BKN020CB', 'EKKA 080820Z AUTO 21004KT 9999 BKN130/// M02/M02 Q0999 TEMPO 1800 SHSN BKN010 BKN020CB', 'EKKA 080750Z AUTO 20005KT 9999 BKN130/// M03/M03 Q0998 TEMPO 1800 SHSN BKN010 BKN020CB', 'EKKA 080720Z AUTO 21006KT 9999 FEW029/// BKN094/// BKN140/// M02/M02 Q0998 TEMPO 1200 SHSN BKN010 BKN020CB', 'EKKA 080650Z AUTO 20005KT 9999 FEW037/// BKN120/// M03/M03 Q0998 TEMPO 1200 SHSN BKN010 BKN020CB', 'EKKA 080620Z 20005KT 9999 BKN030 M02/M02 Q0998 TEMPO 1200 SHSN BKN010 BKN020CB', 'EKKA 080601Z 21006KT 9999 FEW014 BKN030 M01/M01 Q0998 TEMPO 3000 SHSN BKN010 BKN020CB', 'EKKA 080528Z 22005KT 3000 R09/1800D R27/P2000N SHSN SCT025CB BKN030 M01/M01 Q0999 TEMPO 1200 SHSN BKN010 BKN020CB', 'EKKA 080458Z 28005KT 1000 R09/1300D R27/P2000N SHSN BKN012CB M02/M02 Q0999', 'EKKA 080420Z AUTO 23003KT 9999 FEW100/// BKN130/// M02/M03 Q0998', 'EKKA 080350Z AUTO 26009KT 9000 -SN FEW045/// BKN120/// M01/M02 Q0998', 'EKKA 080320Z AUTO 23008KT 9999 BKN120/// M02/M03 Q0998', 'EKKA 080250Z AUTO 24006KT 9999 FEW037/// BKN140/// M01/M03 Q0998', 'EKKA 080220Z AUTO 25007KT 9999 FEW040/// BKN130/// M01/M02 Q0998', 'EKKA 080150Z AUTO 25008KT 9999 FEW048/// BKN130/// M01/M02 Q0998', 'EKKA 080120Z AUTO 26011KT 9999 BKN130/// M00/M02 Q0998', 'EKKA 080050Z AUTO 27009KT 9999 BKN140/// M01/M02 Q0997', 'EKKA 080020Z AUTO 28012KT 9999 -SN FEW018/// BKN110/// BKN140/// M00/M01 Q0997', 'EKKA 072350Z AUTO 27012KT 9999 FEW006/// BKN110/// 00/M01 Q0997', 'EKKA 072323Z AUTO 25012KT 1700 -RA SCT009/// BKN110/// 00/00 Q0997', 'EKKA 072256Z AUTO 23010KT 3000 -SN BKN006/// BKN120/// 00/00 Q0996', 'EKKA 072220Z 22007KT 9999 BKN010 BKN025 00/00 Q0996', 'EKKA 072155Z AUTO 21009KT 7000 -RA SCT008/// BKN049/// 00/00 Q0997', 'EKKA 072120Z AUTO 22009KT 9999 BKN005/// BKN017/// BKN140/// 00/00 Q0997 TEMPO 0800 SHSN BKN004 BKN012CB', 'EKKA 072050Z AUTO 21011KT 9999 -SN BKN006/// BKN140/// 00/00 Q0997 RESN TEMPO 0800 SHSN BKN004 BKN012CB', 'EKKA 072026Z AUTO 20008KT 1500 R09R/1800U R27L/P2000N +SN BKN009/// BKN150/// 00/00 Q0997 TEMPO 3000 SHSN BKN004 BKN012CB', 'EKKA 071955Z AUTO 21008KT 0550 R09R/1600U R27L/1900U SN BKN011/// BKN140/// 00/M01 Q0998 TEMPO 3000 SHSN BKN004 BKN012CB', 'EKKA 071931Z AUTO 21006KT 3600 -SN BKN041/// BKN130/// 01/M02 Q0998 TEMPO 0800 SHSN BKN004 BKN012CB', 'EKKA 071850Z AUTO 19007KT 9999 BKN059/// 01/M02 Q0999 TEMPO 0800 SHSN BKN004 BKN012CB', 'EKKA 071820Z AUTO 19006KT 9999 FEW061/// BKN110/// 01/M02 Q0999 TEMPO 0800 SHSN BKN004 BKN012CB', 'EKKA 071750Z AUTO 19006KT 9999 SCT047/// BKN120/// 01/M02 Q0999 TEMPO FM1830 0800 SHSN BKN004 BKN012CB', 'EKKA 071720Z AUTO 20005KT 9999 BKN034/// BKN130/// 00/M03 Q1000 TEMPO FM1830 0800 SHSN BKN004 BKN012CB', 'EKKA 071650Z AUTO 21005KT 9999 FEW045/// BKN140/// M00/M03 Q1000 NOSIG', 'EKKA 071620Z AUTO 22004KT 9999 FEW047/// BKN130/// 01/M03 Q1000 NOSIG', 'EKKA 071550Z AUTO 24005KT 9999 FEW047/// BKN130/// 02/M03 Q1000 NOSIG', 'EKKA 071520Z AUTO 26007KT 9999 FEW051/// BKN130/// 02/M02 Q1000 NOSIG', 'EKKA 071450Z AUTO 28010KT 9999 SCT032/// BKN130/// 02/M03 Q1000 NOSIG', 'EKKA 071420Z AUTO 29015KT 9999 FEW027/// SCT130/// 03/M03 Q1001 NOSIG', 'EKKA 071350Z AUTO 32012KT 9999 BKN031/// 03/M02 Q1000 NOSIG', 'EKKA 071320Z AUTO 30011KT 9999 BKN025/// 03/M01 Q1000 NOSIG', 'EKKA 071250Z AUTO 30011KT 9999 FEW041/// SCT130/// 03/00 Q1000 NOSIG', 'EKKA 071220Z 28012KT 4500 -SHRA SCT020CB 01/M01 Q1000 BECMG 9999 NSW', 'EKKA 071150Z AUTO 30011KT 9999 SCT130/// 02/M03 Q1000 TEMPO FM1200 -SHRASN 3000 SCT020CB', 'EKKA 071120Z AUTO 30008KT 9999 BKN130/// 02/M02 Q1000 NOSIG', 'EKKA 071050Z AUTO 32007KT 9999 SCT130/// 01/M01 Q1000 NOSIG', 'EKKA 071020Z AUTO 30008KT 9999 SCT130/// 01/M02 Q0999 NOSIG', 'EKKA 070950Z AUTO 29006KT 9999 SCT140/// 01/M02 Q0999 TEMPO FM1000 2500 -SHSNRA SCT020TCU', 'EKKA 070920Z AUTO 30006KT 9999 BKN130/// 00/M02 Q0999 TEMPO FM1000 2500 -SHSNRA SCT020TCU', 'EKKA 070850Z AUTO 29005KT 9999 BKN130/// M00/M02 Q0998 TEMPO FM1000 2500 -SHSNRA SCT020TCU', 'EKKA 070820Z AUTO 29006KT 9999 BKN130/// M01/M02 Q0998 TEMPO FM0900 2500 -SHSNRA SCT020TCU', 'EKKA 070750Z AUTO 29007KT 9999 BKN130/// M01/M03 Q0997 FM0800 TEMPO 2500 -SHSNRA BKN020TCU', 'EKKA 070720Z AUTO 30010KT 9999 BKN130/// M01/M03 Q0997 TEMPO 2500 -SHRASN BKN020TCU', 'EKKA 070650Z AUTO 30012KT 9999 FEW021/// BKN130/// M00/M02 Q0997 TEMPO 2500 -SHRASN BKN020TCU', 'EKKA 070620Z AUTO 31013KT 9999 -RA BKN007/// BKN110/// BKN140/// 00/M01 Q0996 TEMPO 2500 -SHRASN BKN020TCU', 'EKKA 070550Z 30016KT 2500 -SHRASN BKN006 BKN012TCU 00/M00 Q0995 TEMPO 1500 -SHRASN BKN020TCU', 'EKKA 070529Z AUTO 29016KT 9999 -RA BKN008/// BKN110/// 01/M00 Q0995', 'EKKA 070459Z AUTO 29008KT 7000 -RA BKN012/// BKN100/// 01/00 Q0994', 'EKKA 070420Z AUTO 28008KT 9999 -RASN SCT006/// BKN064/// 01/00 Q0993', 'EKKA 070401Z AUTO 27006KT 2600 RA SCT010/// BKN015/// BKN120/// 01/00 Q0993', 'EKKA 070320Z AUTO 28009KT 9999 FEW017/// SCT046/// SCT100/// BKN120/// 01/00 Q0993', 'EKKA 070250Z AUTO 29008KT 9999 BKN011/// BKN110/// 01/00 Q0992', 'EKKA 070229Z AUTO 29012KT 9999 -RA BKN010/// BKN110/// 02/01 Q0992', 'EKKA 070150Z AUTO 30011KT 9999 RA BKN010/// BKN110/// BKN140/// 02/01 Q0991', 'EKKA 070120Z AUTO 29012KT 9999 BKN014/// BKN100/// 02/01 Q0991', 'EKKA 070050Z AUTO 28013KT 9999 -RA FEW017/// FEW022/// SCT050/// BKN120/// 02/01 Q0990', 'EKKA 070029Z AUTO 27009KT 4200 -RA SCT018/// BKN059/// BKN110/// 03/01 Q0990', 'EKKA 062350Z AUTO 27015KT 9999 -RA FEW019/// BKN110/// 03/01 Q0990', 'EKKA 062320Z AUTO 25013KT 9999 FEW034/// BKN110/// 03/01 Q0989', 'EKKA 062250Z AUTO 28020KT 9999 -RA FEW021/// SCT040/// BKN080/// 03/01 Q0989', 'EKKA 062220Z AUTO 25012KT 9999 BKN034/// 03/01 Q0989', 'EKKA 062150Z AUTO 24015KT 9999 -RA SCT029/// BKN076/// 02/01 Q0989', 'EKKA 062120Z AUTO 26015KT 9999 FEW015/// BKN074/// 02/00 Q0989 RESHRA TEMPO 3000 SHRASN BKN014TCU', 'EKKA 062052Z 25010KT 220V290 3400 SHRASN BKN018TCU BKN084 02/01 Q0990 TEMPO 3000 SHRASN BKN014TCU', 'EKKA 062028Z 27017G32KT 240V310 2800 SHRASN BKN012TCU BKN022 02/01 Q0989 TEMPO 3000 SHRA BKN014TCU', 'EKKA 062002Z 26011KT 230V300 4500 -SHRA SCT016TCU BKN036 03/02 Q0990 TEMPO 3000 SHRA BKN014TCU', 'EKKA 061920Z AUTO 24010KT 9999 FEW025/// SCT047/// BKN110/// 03/01 Q0990 TEMPO 3000 SHRA BKN014TCU', 'EKKA 061850Z AUTO 25006KT 9999 SCT011/// BKN100/// 03/02 Q0990 TEMPO 3000 SHRA BKN014TCU', 'EKKA 061820Z 25010G25KT 200V310 4000 -SHRA SCT012TCU BKN022 03/02 Q0990 TEMPO 3000 SHRA BKN014TCU', 'EKKA 061750Z 24010KT 9999 FEW030 BKN150 02/01 Q0990 TEMPO 3000 SHRA BKN014TCU', 'EKKA 061720Z 25010KT 9999 FEW030 BKN150 03/01 Q0990 TEMPO 3000 SHRA BKN014TCU', 'EKKA 061650Z 26012KT 9999 BKN030 03/00 Q0990 TEMPO 3000 SHRA BKN014TCU', 'EKKA 061621Z 27015KT 9999 BKN030 04/01 Q0990 TEMPO 3000 SHRA BKN014TCU', 'EKKA 061558Z AUTO 25012KT 3300 -RA BKN014/// BKN100/// BKN150/// 05/03 Q0989 BECMG 9999 BKN020', 'EKKA 061520Z AUTO 26013KT 9999 BKN015/// 05/03 Q0989 NOSIG', 'EKKA 061450Z AUTO 25011KT 9999 BKN014/// BKN082/// 05/04 Q0989 NOSIG', 'EKKA 061420Z AUTO 24011KT 9999 BKN078/// 05/04 Q0989 NOSIG', 'EKKA 061350Z 25013KT 9999 FEW011 BKN070 05/04 Q0989 NOSIG', 'EKKA 061320Z 27015KT 7000 -RA BKN011 BKN025 06/04 Q0990 BECMG 9999 BKN025', 'EKKA 061250Z 27016KT 9999 SCT011 BKN025 06/05 Q0990 TEMPO BKN014', 'EKKA 061231Z 28019KT 9999 -RA FEW007 BKN012 06/05 Q0990 BECMG BKN020', 'EKKA 061202Z 25015KT 2500 -RA BKN006 07/07 Q0989 BECMG 9999 NSW BKN020', 'EKKA 061132Z AUTO 25014KT 7000 -RA BKN006/// BKN120/// 08/07 Q0990 RERA TEMPO 3000 RADZ', 'EKKA 061050Z AUTO 24013KT 5000 RA BKN006/// BKN130/// 07/07 Q0990 TEMPO 3000 RADZ', 'EKKA 061031Z AUTO 25013KT 7000 -RA BKN007/// 07/07 Q0991 RERA TEMPO 3000 RADZ', 'EKKA 060951Z AUTO 25015KT 7000 -RA BKN007/// 08/07 Q0991 RERA TEMPO 3000 RADZ', 'EKKA 060931Z AUTO 24014KT 7000 RA BKN006/// 07/07 Q0991 TEMPO 3000 RADZ', 'EKKA 060900Z AUTO 25013KT 7000 -RA BKN007/// BKN130/// 07/07 Q0991 RERA TEMPO 3000 RADZ', 'EKKA 060826Z AUTO 25014KT 6000 RA BKN007/// BKN140/// 07/07 Q0992 TEMPO 3000 RADZ', 'EKKA 060758Z AUTO 24014KT 5000 RA BKN007/// BKN140/// 07/07 Q0992 TEMPO 3000 RADZ', 'EKKA 060724Z AUTO 24012KT 7000 RA BKN006/// BKN150/// 07/07 Q0992 TEMPO 3000 RADZ', 'EKKA 060650Z AUTO 25012KT 4400 -RA BKN006/// BKN150/// 07/07 Q0993 TEMPO 3000 RADZ', 'EKKA 060620Z AUTO 25012KT 5000 -RA BKN006/// BKN150/// 07/07 Q0993 RERA TEMPO 3000 RADZ', 'EKKA 060550Z AUTO 25013KT 5000 -RA BKN006/// 07/07 Q0993 RERA TEMPO 3000 -RADZ', 'EKKA 060532Z AUTO 25012KT 6000 RA BKN006/// 07/07 Q0993', 'EKKA 060450Z AUTO 25013KT 5000 -RA BKN006/// BKN150/// 07/07 Q0994', 'EKKA 060420Z AUTO 25012KT 7000 -RA BKN006/// BKN150/// 07/07 Q0994 RERA', 'EKKA 060355Z AUTO 25013KT 7000 -RA BKN006/// BKN150/// 07/07 Q0994 RERA', 'EKKA 060331Z AUTO 25012KT 4000 RA BKN005/// BKN140/// 07/07 Q0995', 'EKKA 060257Z AUTO 25012KT 2900 -RA BKN006/// BKN150/// 07/07 Q0995', 'EKKA 060225Z AUTO 25012KT 2600 -RA BKN005/// BKN150/// 07/07 Q0995 RERA', 'EKKA 060151Z AUTO 25012KT 2500 RA BKN006/// BKN140/// 07/07 Q0996', 'EKKA 060130Z AUTO 25012KT 4900 -RA BKN006/// BKN150/// 07/07 Q0996 RERA', 'EKKA 060056Z AUTO 25011KT 4800 RA BKN006/// 07/07 Q0996', 'EKKA 060020Z AUTO 26011KT 5000 RA BKN005/// 07/07 Q0997', 'EKKA 052353Z AUTO VRB01KT 1300 R09R/P2000N R27L/P2000N RA OVC004/// 04/04 Q0997', 'EKKA 052320Z AUTO 08004KT 1700 RA OVC004/// 03/03 Q0997', 'EKKA 052255Z AUTO 08004KT 1300 R09R/P2000N R27L/P2000N RA BR OVC003/// 03/03 Q0998', 'EKKA 052228Z AUTO 07004KT 1400 R09R/P2000N R27L/P2000N -RA BR OVC003/// 02/02 Q0998', 'EKKA 052156Z AUTO 10004KT 1400 R09R/P2000N R27L/P2000N -RA BR OVC002/// 02/02 Q0998', 'EKKA 052126Z AUTO 10006KT 1900 -RA OVC003/// 02/02 Q0998', 'EKKA 052050Z AUTO 09006KT 2400 -RA BR OVC004/// 02/02 Q0998', 'EKKA 052020Z AUTO 10006KT 4000 -RA OVC003/// 02/02 Q0999', 'EKKA 052002Z AUTO 08007KT 3300 RA BKN004/// OVC010/// 02/02 Q0999', 'EKKA 051926Z AUTO 10008KT 4800 -RA OVC008/// 02/02 Q0999 RERA TEMPO 4000 RASN BKN004']","['2024-02-08 18:55:00', '2024-02-08 18:29:00', '2024-02-08 17:50:00', '2024-02-08 17:27:00', '2024-02-08 16:53:00', '2024-02-08 16:20:00', '2024-02-08 16:01:00', '2024-02-08 15:20:00', '2024-02-08 14:50:00', '2024-02-08 14:20:00', '2024-02-08 13:50:00', '2024-02-08 13:20:00', '2024-02-08 12:50:00', '2024-02-08 12:20:00', '2024-02-08 11:54:00', '2024-02-08 11:20:00', '2024-02-08 10:50:00', '2024-02-08 10:20:00', '2024-02-08 09:20:00', '2024-02-08 09:01:00', '2024-02-08 08:20:00', '2024-02-08 07:50:00', '2024-02-08 07:20:00', '2024-02-08 06:50:00', '2024-02-08 06:20:00', '2024-02-08 06:01:00', '2024-02-08 05:28:00', '2024-02-08 04:58:00', '2024-02-08 04:20:00', '2024-02-08 03:50:00', '2024-02-08 03:20:00', '2024-02-08 02:50:00', '2024-02-08 02:20:00', '2024-02-08 01:50:00', '2024-02-08 01:20:00', '2024-02-08 00:50:00', '2024-02-08 00:20:00', '2024-02-07 23:50:00', '2024-02-07 23:23:00', '2024-02-07 22:56:00', '2024-02-07 22:20:00', '2024-02-07 21:55:00', '2024-02-07 21:20:00', '2024-02-07 20:50:00', '2024-02-07 20:26:00', '2024-02-07 19:55:00', '2024-02-07 19:31:00', '2024-02-07 18:50:00', '2024-02-07 18:20:00', '2024-02-07 17:50:00', '2024-02-07 17:20:00', '2024-02-07 16:50:00', '2024-02-07 16:20:00', '2024-02-07 15:50:00', '2024-02-07 15:20:00', '2024-02-07 14:50:00', '2024-02-07 14:20:00', '2024-02-07 13:50:00', '2024-02-07 13:20:00', '2024-02-07 12:50:00', '2024-02-07 12:20:00', '2024-02-07 11:50:00', '2024-02-07 11:20:00', '2024-02-07 10:50:00', '2024-02-07 10:20:00', '2024-02-07 09:50:00', '2024-02-07 09:20:00', '2024-02-07 08:50:00', '2024-02-07 08:20:00', '2024-02-07 07:50:00', '2024-02-07 07:20:00', '2024-02-07 06:50:00', '2024-02-07 06:20:00', '2024-02-07 05:50:00', '2024-02-07 05:29:00', '2024-02-07 04:59:00', '2024-02-07 04:20:00', '2024-02-07 04:01:00', '2024-02-07 03:20:00', '2024-02-07 02:50:00', '2024-02-07 02:29:00', '2024-02-07 01:50:00', '2024-02-07 01:20:00', '2024-02-07 00:50:00', '2024-02-07 00:29:00', '2024-02-06 23:50:00', '2024-02-06 23:20:00', '2024-02-06 22:50:00', '2024-02-06 22:20:00', '2024-02-06 21:50:00', '2024-02-06 21:20:00', '2024-02-06 20:52:00', '2024-02-06 20:28:00', '2024-02-06 20:02:00', '2024-02-06 19:20:00', '2024-02-06 18:50:00', '2024-02-06 18:20:00', '2024-02-06 17:50:00', '2024-02-06 17:20:00', '2024-02-06 16:50:00', '2024-02-06 16:21:00', '2024-02-06 15:58:00', '2024-02-06 15:20:00', '2024-02-06 14:50:00', '2024-02-06 14:20:00', '2024-02-06 13:50:00', '2024-02-06 13:20:00', '2024-02-06 12:50:00', '2024-02-06 12:31:00', '2024-02-06 12:02:00', '2024-02-06 11:32:00', '2024-02-06 10:50:00', '2024-02-06 10:31:00', '2024-02-06 09:51:00', '2024-02-06 09:31:00', '2024-02-06 09:00:00', '2024-02-06 08:26:00', '2024-02-06 07:58:00', '2024-02-06 07:24:00', '2024-02-06 06:50:00', '2024-02-06 06:20:00', '2024-02-06 05:50:00', '2024-02-06 05:32:00', '2024-02-06 04:50:00', '2024-02-06 04:20:00', '2024-02-06 03:55:00', '2024-02-06 03:31:00', '2024-02-06 02:57:00', '2024-02-06 02:25:00', '2024-02-06 01:51:00', '2024-02-06 01:30:00', '2024-02-06 00:56:00', '2024-02-06 00:20:00', '2024-02-05 23:53:00', '2024-02-05 23:20:00', '2024-02-05 22:55:00', '2024-02-05 22:28:00', '2024-02-05 21:56:00', '2024-02-05 21:26:00', '2024-02-05 20:50:00', '2024-02-05 20:20:00', '2024-02-05 20:02:00', '2024-02-05 19:26:00']"
Denmark, Kolding Vamdrup Airport (QEK/EKVD) ,"['EKVD 081850Z AUTO 07003KT //// ///////// M01/M01 Q0998', 'EKVD 081820Z AUTO 11003KT //// ///////// M00/M01 Q0998', 'EKVD 081750Z AUTO 12002KT //// ///////// M01/M02 Q0998', 'EKVD 081720Z AUTO 12001KT //// ///////// M01/M01 Q0998', 'EKVD 081650Z AUTO 12002KT //// ///////// M00/M01 Q0998', 'EKVD 081620Z AUTO 14003KT //// ///////// 00/M01 Q0998', 'EKVD 081550Z 10003KT 9999 FEW020 BKN150 01/M00 Q0998', 'EKVD 081450Z 01004KT 9999 FEW020 BKN150 01/M01 Q0999', 'EKVD 081350Z 01006KT 350V050 9999 FEW020 SCT200 02/M01 Q0999', 'EKVD 081250Z 28007KT 9999 FEW020 04/M01 Q0999', 'EKVD 081150Z 27007KT 9999 FEW020 03/M00 Q0999', 'EKVD 081050Z 24007KT 9999 FEW020 02/M00 Q1000', 'EKVD 080950Z 24006KT 9999 FEW020 01/M01 Q1000', 'EKVD 080850Z 30005KT 220V360 9999 FEW020 M00/M01 Q1000', 'EKVD 080750Z 00000KT 9999 FEW020 M02/M02 Q1000', 'EKVD 080650Z AUTO 28005KT //// ///////// M01/M02 Q1000', 'EKVD 080620Z AUTO 28006KT //// ///////// M01/M02 Q1000', 'EKVD 080550Z AUTO 25007KT //// ///////// M01/M02 Q1000', 'EKVD 080520Z AUTO 25007KT //// ///////// M01/M02 Q1000', 'EKVD 080450Z AUTO 24007KT //// ///////// M01/M02 Q1000', 'EKVD 080420Z AUTO 25007KT //// ///////// M01/M03 Q1000', 'EKVD 080350Z AUTO 26007KT //// ///////// M00/M02 Q1000', 'EKVD 080320Z AUTO 26009KT //// ///////// M00/M02 Q1000', 'EKVD 080250Z AUTO 27007KT //// ///////// 00/M01 Q1000', 'EKVD 080220Z AUTO 25007KT //// ///////// M00/M01 Q1000', 'EKVD 080150Z AUTO 27007KT 240V300 //// ///////// 01/M01 Q1000', 'EKVD 080120Z AUTO 26012KT //// ///////// 01/M01 Q0999', 'EKVD 080050Z AUTO 28007KT //// ///////// 00/M01 Q0999', 'EKVD 080020Z AUTO 25008KT //// ///////// 01/M00 Q0999', 'EKVD 072350Z AUTO 24010KT //// ///////// 01/00 Q0999', 'EKVD 072320Z AUTO 24013KT //// ///////// 01/00 Q0999', 'EKVD 072250Z AUTO 26012KT //// ///////// 00/M00 Q0999', 'EKVD 072220Z AUTO 25011KT //// ///////// 00/M00 Q0999', 'EKVD 072150Z AUTO 28007KT //// ///////// 00/M00 Q0999', 'EKVD 072120Z AUTO 22015KT //// ///////// 01/M01 Q0999', 'EKVD 072050Z AUTO 20009KT //// ///////// 01/M01 Q0999', 'EKVD 072020Z AUTO 20009KT //// ///////// 01/M02 Q1000', 'EKVD 071950Z AUTO 20007KT //// ///////// 01/M02 Q1000', 'EKVD 071920Z AUTO 20007KT //// ///////// 00/M01 Q1001', 'EKVD 071850Z AUTO 20007KT //// ///////// 00/M01 Q1001', 'EKVD 071820Z AUTO 18005KT //// ///////// 00/M01 Q1001', 'EKVD 071750Z AUTO 19004KT //// ///////// 00/M01 Q1001', 'EKVD 071720Z AUTO 20004KT //// ///////// 00/M01 Q1002', 'EKVD 071650Z AUTO 21004KT //// ///////// 01/M01 Q1002', 'EKVD 071620Z AUTO 25006KT //// ///////// 01/M02 Q1002', 'EKVD 071550Z 27006KT 9999 FEW020 02/M03 Q1002', 'EKVD 071450Z 30012KT 9999 FEW020 03/M03 Q1002', 'EKVD 071350Z 31015KT 9999 FEW020 03/M03 Q1002', 'EKVD 071250Z 29014KT 9999 FEW020 04/M01 Q1001', 'EKVD 071150Z 29008KT 9999 FEW020 02/00 Q1001', 'EKVD 071050Z 31016KT 9999 FEW020 04/M03 Q1001', 'EKVD 070950Z 29013KT CAVOK 03/M01 Q1000', 'EKVD 070850Z 28009KT CAVOK 02/M02 Q0999', 'EKVD 070750Z 30011KT CAVOK 01/M04 Q0998', 'EKVD 070650Z 31016KT 9999 FEW010 02/M03 Q0997', 'EKVD 070620Z AUTO 31017KT //// ///////// 02/M02 Q0997', 'EKVD 070550Z AUTO 30016KT //// ///////// 02/M02 Q0996', 'EKVD 070520Z AUTO 30013KT //// ///////// 02/M02 Q0995', 'EKVD 070450Z AUTO 30014KT //// ///////// 03/M02 Q0995', 'EKVD 070420Z AUTO 29013KT //// ///////// 03/M01 Q0995', 'EKVD 070350Z AUTO 30016KT //// ///////// 03/M00 Q0994', 'EKVD 070320Z AUTO 30014KT //// ///////// 03/00 Q0994', 'EKVD 070250Z AUTO 29017KT //// ///////// 03/00 Q0994', 'EKVD 070220Z AUTO 30016KT //// ///////// 04/01 Q0993', 'EKVD 070150Z AUTO 29016KT //// ///////// 04/01 Q0993', 'EKVD 070120Z AUTO 30015KT //// ///////// 04/01 Q0992', 'EKVD 070050Z AUTO 28015KT //// ///////// 05/01 Q0992', 'EKVD 070020Z AUTO 27017KT //// ///////// 05/02 Q0992', 'EKVD 062350Z AUTO 27015KT //// ///////// 05/01 Q0992', 'EKVD 062320Z AUTO 26015KT //// ///////// 05/01 Q0992', 'EKVD 062250Z AUTO 26013KT //// ///////// 04/01 Q0992', 'EKVD 062220Z AUTO 26018KT //// ///////// 05/02 Q0992', 'EKVD 062150Z AUTO 26015KT //// ///////// 05/02 Q0992', 'EKVD 062120Z AUTO 26015KT //// ///////// 05/01 Q0992', 'EKVD 062050Z AUTO 26017KT //// ///////// 05/01 Q0992', 'EKVD 062020Z AUTO 27015KT //// ///////// 05/02 Q0992', 'EKVD 061950Z AUTO 28014KT //// ///////// 05/02 Q0992', 'EKVD 061920Z AUTO 27016G31KT 240V310 //// ///////// 05/03 Q0992', 'EKVD 061850Z AUTO 27013KT //// ///////// 05/03 Q0992', 'EKVD 061820Z AUTO 27013KT //// ///////// 05/03 Q0992', 'EKVD 061750Z AUTO 28013KT //// ///////// 05/03 Q0992', 'EKVD 061720Z AUTO 26019KT //// ///////// 06/04 Q0992', 'EKVD 061650Z AUTO 27019KT //// ///////// 06/05 Q0991', 'EKVD 061620Z AUTO 26019KT //// ///////// 06/05 Q0991', 'EKVD 061550Z 26017KT 7000 -RA BKN006 06/05 Q0991', 'EKVD 061450Z 28012KT 1500 -RA BKN004 06/06 Q0991', 'EKVD 061350Z 26019G29KT 2000 -RA BKN004 07/07 Q0991', 'EKVD 061250Z 26023G34KT 4000 -RA BKN006 08/07 Q0992', 'EKVD 061150Z 25024KT 6000 -RA BKN006 08/07 Q0993', 'EKVD 061050Z 25022KT 6000 -RA BKN006 08/07 Q0993', 'EKVD 060950Z 25022G33KT 7000 -RA BKN006 08/07 Q0994', 'EKVD 060920Z 25023KT 7000 -RA BKN006 08/07 Q0994', 'EKVD 060850Z 25021KT 7000 -RA SCT005 BKN006 08/07 Q0995', 'EKVD 060820Z 25020KT 7000 -RA FEW005 BKN006 BKN011 08/07 Q0995', 'EKVD 060750Z 25020KT 7000 -RA BKN006 08/07 Q0995', 'EKVD 060720Z 25019KT 7000 -RA BKN006 08/07 Q0995', 'EKVD 060650Z AUTO 26019KT //// ///////// 07/07 Q0995', 'EKVD 060620Z AUTO 26019KT //// ///////// 07/07 Q0996', 'EKVD 060550Z AUTO 26020KT //// ///////// 07/07 Q0996', 'EKVD 060520Z AUTO 26021KT //// ///////// 07/07 Q0996', 'EKVD 060450Z AUTO 26020KT //// ///////// 07/06 Q0997', 'EKVD 060420Z AUTO 26020KT //// ///////// 07/06 Q0997', 'EKVD 060350Z AUTO 26020KT //// ///////// 07/06 Q0997', 'EKVD 060320Z AUTO 26020KT //// ///////// 07/06 Q0998', 'EKVD 060250Z AUTO 26019G29KT //// ///////// 07/06 Q0998', 'EKVD 060220Z AUTO 26018KT //// ///////// 07/06 Q0998', 'EKVD 060150Z AUTO 26020KT //// ///////// 07/06 Q0999', 'EKVD 060120Z AUTO 26018KT //// ///////// 07/06 Q0999', 'EKVD 060050Z AUTO 26020G32KT //// ///////// 07/06 Q0999', 'EKVD 060020Z AUTO 26019KT //// ///////// 07/06 Q0999', 'EKVD 052350Z AUTO 26019G29KT //// ///////// 07/06 Q1000', 'EKVD 052320Z AUTO 26019KT //// ///////// 07/06 Q1000', 'EKVD 052250Z AUTO 26020KT //// ///////// 07/06 Q1000', 'EKVD 052220Z AUTO 26019KT //// ///////// 07/06 Q1000', 'EKVD 052150Z AUTO 26019KT //// ///////// 07/06 Q1000', 'EKVD 052120Z AUTO 26019KT //// ///////// 07/06 Q1001', 'EKVD 052050Z AUTO 26020KT //// ///////// 07/06 Q1001', 'EKVD 052020Z AUTO 26017KT //// ///////// 07/06 Q1001', 'EKVD 051950Z AUTO 26019KT //// ///////// 07/06 Q1001', 'EKVD 051920Z AUTO 26019KT //// ///////// 07/06 Q1001']","['2024-02-08 18:50:00', '2024-02-08 18:20:00', '2024-02-08 17:50:00', '2024-02-08 17:20:00', '2024-02-08 16:50:00', '2024-02-08 16:20:00', '2024-02-08 15:50:00', '2024-02-08 14:50:00', '2024-02-08 13:50:00', '2024-02-08 12:50:00', '2024-02-08 11:50:00', '2024-02-08 10:50:00', '2024-02-08 09:50:00', '2024-02-08 08:50:00', '2024-02-08 07:50:00', '2024-02-08 06:50:00', '2024-02-08 06:20:00', '2024-02-08 05:50:00', '2024-02-08 05:20:00', '2024-02-08 04:50:00', '2024-02-08 04:20:00', '2024-02-08 03:50:00', '2024-02-08 03:20:00', '2024-02-08 02:50:00', '2024-02-08 02:20:00', '2024-02-08 01:50:00', '2024-02-08 01:20:00', '2024-02-08 00:50:00', '2024-02-08 00:20:00', '2024-02-07 23:50:00', '2024-02-07 23:20:00', '2024-02-07 22:50:00', '2024-02-07 22:20:00', '2024-02-07 21:50:00', '2024-02-07 21:20:00', '2024-02-07 20:50:00', '2024-02-07 20:20:00', '2024-02-07 19:50:00', '2024-02-07 19:20:00', '2024-02-07 18:50:00', '2024-02-07 18:20:00', '2024-02-07 17:50:00', '2024-02-07 17:20:00', '2024-02-07 16:50:00', '2024-02-07 16:20:00', '2024-02-07 15:50:00', '2024-02-07 14:50:00', '2024-02-07 13:50:00', '2024-02-07 12:50:00', '2024-02-07 11:50:00', '2024-02-07 10:50:00', '2024-02-07 09:50:00', '2024-02-07 08:50:00', '2024-02-07 07:50:00', '2024-02-07 06:50:00', '2024-02-07 06:20:00', '2024-02-07 05:50:00', '2024-02-07 05:20:00', '2024-02-07 04:50:00', '2024-02-07 04:20:00', '2024-02-07 03:50:00', '2024-02-07 03:20:00', '2024-02-07 02:50:00', '2024-02-07 02:20:00', '2024-02-07 01:50:00', '2024-02-07 01:20:00', '2024-02-07 00:50:00', '2024-02-07 00:20:00', '2024-02-06 23:50:00', '2024-02-06 23:20:00', '2024-02-06 22:50:00', '2024-02-06 22:20:00', '2024-02-06 21:50:00', '2024-02-06 21:20:00', '2024-02-06 20:50:00', '2024-02-06 20:20:00', '2024-02-06 19:50:00', '2024-02-06 19:20:00', '2024-02-06 18:50:00', '2024-02-06 18:20:00', '2024-02-06 17:50:00', '2024-02-06 17:20:00', '2024-02-06 16:50:00', '2024-02-06 16:20:00', '2024-02-06 15:50:00', '2024-02-06 14:50:00', '2024-02-06 13:50:00', '2024-02-06 12:50:00', '2024-02-06 11:50:00', '2024-02-06 10:50:00', '2024-02-06 09:50:00', '2024-02-06 09:20:00', '2024-02-06 08:50:00', '2024-02-06 08:20:00', '2024-02-06 07:50:00', '2024-02-06 07:20:00', '2024-02-06 06:50:00', '2024-02-06 06:20:00', '2024-02-06 05:50:00', '2024-02-06 05:20:00', '2024-02-06 04:50:00', '2024-02-06 04:20:00', '2024-02-06 03:50:00', '2024-02-06 03:20:00', '2024-02-06 02:50:00', '2024-02-06 02:20:00', '2024-02-06 01:50:00', '2024-02-06 01:20:00', '2024-02-06 00:50:00', '2024-02-06 00:20:00', '2024-02-05 23:50:00', '2024-02-05 23:20:00', '2024-02-05 22:50:00', '2024-02-05 22:20:00', '2024-02-05 21:50:00', '2024-02-05 21:20:00', '2024-02-05 20:50:00', '2024-02-05 20:20:00', '2024-02-05 19:50:00', '2024-02-05 19:20:00']"
Denmark, Odense Hans Christian Andersen Airport (ODE/EKOD) ,"['EKOD 081720Z 17001KT 9999 FEW025 SCT080 M02/M02 Q0998', 'EKOD 081650Z 16001KT 9999 FEW025 SCT080 M01/M01 Q0998', 'EKOD 081620Z 00000KT 9999 FEW025 SCT080 M00/M01 Q0998', 'EKOD 081550Z 22001KT 9999 FEW025 SCT080 01/M01 Q0999', 'EKOD 081520Z 26003KT 9999 FEW025 SCT080 02/00 Q0999', 'EKOD 081450Z 27004KT 9999 FEW025 SCT080 02/00 Q0999', 'EKOD 081420Z 28004KT 240V300 9999 SCT023 03/01 Q0999', 'EKOD 081350Z 28006KT 9999 SCT023 03/01 Q0999', 'EKOD 081250Z 26009KT 230V290 9999 SCT023 04/01 Q0999', 'EKOD 081220Z 26007KT 9999 SCT023 04/02 Q1000', 'EKOD 081120Z 25009KT CAVOK 03/01 Q1000', 'EKOD 081050Z 24010KT CAVOK 03/02 Q1000', 'EKOD 081020Z 25009KT CAVOK 03/02 Q1000', 'EKOD 080950Z 26008KT CAVOK 02/01 Q1000', 'EKOD 080920Z 25008KT 9999 FEW040 02/01 Q1000', 'EKOD 080850Z 23007KT 200V260 9999 FEW040 01/00 Q1000', 'EKOD 080820Z 23006KT 9999 FEW040 00/M00 Q1000', 'EKOD 080750Z 23006KT 9999 FEW040 M00/M01 Q1000', 'EKOD 080720Z 25007KT 9999 FEW025 M01/M01 Q1000', 'EKOD 080650Z 22004KT 9999 FEW025 M01/M02 Q1000', 'EKOD 071550Z 29007KT 9999 FEW040TCU 02/M00 Q1002', 'EKOD 071450Z 29012KT 9999 FEW040 03/M01 Q1001', 'EKOD 071420Z 31012KT 9999 SCT044 03/M02 Q1001', 'EKOD 071350Z 30013KT CAVOK 03/M03 Q1001', 'EKOD 071320Z 30015KT 9999 FEW013 04/M03 Q1001', 'EKOD 071250Z 30014KT 9999 FEW020 03/M02 Q1001', 'EKOD 071220Z 31012KT 9999 FEW015 03/M01 Q1001', 'EKOD 071150Z 30015KT 9999 FEW015 03/M01 Q1000', 'EKOD 071120Z 31014KT 9999 FEW015 03/M01 Q1000', 'EKOD 071050Z 30015KT 270V330 9999 FEW015 03/M01 Q1000', 'EKOD 071020Z 29013KT 9999 FEW015 02/M01 Q1000', 'EKOD 070950Z 30014KT 9999 FEW020 02/M01 Q0999', 'EKOD 070920Z 30016KT 9999 FEW020 02/M01 Q0999', 'EKOD 070850Z 30017KT 9999 FEW020 02/M03 Q0999', 'EKOD 070820Z 30019KT 9999 FEW020 01/M01 Q0998', 'EKOD 070750Z 29017KT 9999 FEW017 BKN021 02/01 Q0997', 'EKOD 070650Z 28013KT 9999 FEW021 BKN049 02/01 Q0996', 'EKOD 070620Z 28012KT 9999 FEW022 BKN050 02/01 Q0996', 'EKOD 061850Z 27015KT CAVOK 05/04 Q0992', 'EKOD 061820Z 27016KT 9999 FEW016 BKN037 OVC060 05/04 Q0991', 'EKOD 061750Z 28019KT 9999 FEW016 BKN032 OVC055 05/04 Q0991', 'EKOD 061720Z 29016KT 5000 FEW005 BKN016 OVC022 05/04 Q0991', 'EKOD 061650Z 25018KT 9999 FEW010 BKN018 OVC022 06/05 Q0991', 'EKOD 061620Z 26012KT 9999 FEW013 BKN026 OVC040 06/05 Q0991', 'EKOD 061550Z 26014KT 9999 FEW020 BKN033 OVC038 06/05 Q0991', 'EKOD 061520Z 28018KT 4000 -RA FEW006 BKN010 OVC015 06/05 Q0991', 'EKOD 061450Z 25020KT 8000 -RA FEW007 BKN009 OVC014 07/07 Q0990', 'EKOD 061420Z 25022KT 5000 -RA FEW008 BKN010 OVC016 08/07 Q0991', 'EKOD 061350Z 25023G33KT 6000 -RA FEW009 BKN011 OVC016 08/07 Q0991', 'EKOD 061320Z 24023G33KT 9999 -RA FEW010 BKN013 OVC019 08/07 Q0991', 'EKOD 061250Z 24023G33KT 9999 -RA FEW009 BKN016 OVC019 08/07 Q0992', 'EKOD 061220Z 24023G33KT 9999 -RA FEW011 BKN017 OVC023 08/07 Q0992', 'EKOD 061150Z 24022KT 9000 -RA FEW010 BKN014 OVC017 08/07 Q0992', 'EKOD 061120Z 24023G36KT 9000 -RA FEW010 BKN014 OVC017 08/07 Q0993', 'EKOD 061050Z 24022G37KT 9999 -RA FEW009 BKN012 BKN015 08/07 Q0993', 'EKOD 061020Z 24020KT 9999 -RA FEW001 BKN013 BKN016 08/07 Q0994', 'EKOD 060950Z 23018KT 9999 -RA FEW009 BKN011 BKN015 08/07 Q0994', 'EKOD 060920Z 24018KT 9999 -RA FEW009 BKN011 BKN015 08/07 Q0994', 'EKOD 060850Z 24018KT 9999 -RA FEW009 BKN012 BKN016 07/07 Q0995', 'EKOD 060820Z 24017KT 9999 -RA FEW009 BKN011 BKN016 07/07 Q0995', 'EKOD 060750Z 24018KT 9999 -RA FEW009 BKN011 BKN015 07/07 Q0995', 'EKOD 060720Z 24018KT 9999 -RA FEW008 BKN011 BKN017 07/06 Q0995', 'EKOD 060650Z 24017KT 9999 -RA FEW008 BKN012 BKN017 07/06 Q0995']","['2024-02-08 17:20:00', '2024-02-08 16:50:00', '2024-02-08 16:20:00', '2024-02-08 15:50:00', '2024-02-08 15:20:00', '2024-02-08 14:50:00', '2024-02-08 14:20:00', '2024-02-08 13:50:00', '2024-02-08 12:50:00', '2024-02-08 12:20:00', '2024-02-08 11:20:00', '2024-02-08 10:50:00', '2024-02-08 10:20:00', '2024-02-08 09:50:00', '2024-02-08 09:20:00', '2024-02-08 08:50:00', '2024-02-08 08:20:00', '2024-02-08 07:50:00', '2024-02-08 07:20:00', '2024-02-08 06:50:00', '2024-02-07 15:50:00', '2024-02-07 14:50:00', '2024-02-07 14:20:00', '2024-02-07 13:50:00', '2024-02-07 13:20:00', '2024-02-07 12:50:00', '2024-02-07 12:20:00', '2024-02-07 11:50:00', '2024-02-07 11:20:00', '2024-02-07 10:50:00', '2024-02-07 10:20:00', '2024-02-07 09:50:00', '2024-02-07 09:20:00', '2024-02-07 08:50:00', '2024-02-07 08:20:00', '2024-02-07 07:50:00', '2024-02-07 06:50:00', '2024-02-07 06:20:00', '2024-02-06 18:50:00', '2024-02-06 18:20:00', '2024-02-06 17:50:00', '2024-02-06 17:20:00', '2024-02-06 16:50:00', '2024-02-06 16:20:00', '2024-02-06 15:50:00', '2024-02-06 15:20:00', '2024-02-06 14:50:00', '2024-02-06 14:20:00', '2024-02-06 13:50:00', '2024-02-06 13:20:00', '2024-02-06 12:50:00', '2024-02-06 12:20:00', '2024-02-06 11:50:00', '2024-02-06 11:20:00', '2024-02-06 10:50:00', '2024-02-06 10:20:00', '2024-02-06 09:50:00', '2024-02-06 09:20:00', '2024-02-06 08:50:00', '2024-02-06 08:20:00', '2024-02-06 07:50:00', '2024-02-06 07:20:00', '2024-02-06 06:50:00']"
Denmark, Bornholm Airport (RNN/EKRN) ,"['EKRN 081850Z AUTO 30003KT 9999 BKN017/// M00/M01 Q0999', 'EKRN 081820Z AUTO 28003KT 9999 SCT017/// 00/M02 Q0999', 'EKRN 081750Z AUTO 28005KT 9999 SCT015/// 02/M00 Q0999', 'EKRN 081720Z AUTO 28008KT 9999 FEW027/// 02/M00 Q0999', 'EKRN 081650Z AUTO 27009KT 9999 SCT019/// 02/M00 Q0999', 'EKRN 081620Z AUTO 28010KT 9999 BKN018/// 02/M00 Q0999', 'EKRN 081550Z AUTO 28011KT 9999 BKN016/// 02/M00 Q0999', 'EKRN 081520Z AUTO 27011KT 9999 BKN016/// 03/M00 Q0999', 'EKRN 081450Z AUTO 27013KT 9999 -RA SCT016/// BKN045/// 03/00 Q0999', 'EKRN 081420Z AUTO 27013KT 9999 BKN018/// 03/00 Q0999', 'EKRN 081350Z AUTO 27014KT 9999 SCT017/// BKN020/// 03/M00 Q0999', 'EKRN 081320Z AUTO 27014KT 9999 BKN020/// 03/M01 Q0999', 'EKRN 081250Z AUTO 27014KT 9999 FEW017/// SCT021/// 04/M00 Q0999', 'EKRN 081220Z AUTO 27016KT 9999 BKN020/// 04/M01 Q0999', 'EKRN 081150Z AUTO 27016KT 9999 BKN020/// 04/M00 Q0999', 'EKRN 081120Z AUTO 27017KT 9999 BKN022/// 04/M00 Q0999', 'EKRN 081050Z AUTO 27016KT 9999 BKN025/// 03/M01 Q0999', 'EKRN 081020Z AUTO 28015KT 9999 BKN023/// 03/M02 Q0999', 'EKRN 080950Z AUTO 28016KT 9999 FEW023/// 03/M02 Q0999', 'EKRN 080920Z AUTO 27017KT 9999 BKN019/// 03/M01 Q0999', 'EKRN 080850Z AUTO 26016KT 9999 BKN021/// 03/M00 Q0999', 'EKRN 080820Z AUTO 26017KT 9999 BKN020/// 03/M01 Q0999', 'EKRN 080750Z AUTO 26020KT 9999 SCT017/// 02/M01 Q0999', 'EKRN 080720Z AUTO 26019KT 9999 FEW017/// SCT030/// SCT039/// 02/M00 Q0999', 'EKRN 080650Z AUTO 26018KT 9999 SCT015/// 02/M00 Q0999', 'EKRN 080620Z AUTO 24018KT 9999 BKN012/// 02/01 Q0999', 'EKRN 080550Z AUTO 24019KT 9999 BKN022/// 02/00 Q0999', 'EKRN 080520Z AUTO 24021KT 9999 OVC009/// 02/00 Q0999', 'EKRN 080450Z AUTO 24021KT 9999 -RA OVC014/// 02/M00 Q0999', 'EKRN 080420Z AUTO 21014KT 180V240 9999 -RA BKN030/// BKN096/// 02/M00 Q0999', 'EKRN 080350Z AUTO 20014KT 180V240 9999 FEW039/// BKN100/// 02/M00 Q0999', 'EKRN 080320Z AUTO 21011KT 180V240 9999 BKN100/// 02/M01 Q0999', 'EKRN 080250Z AUTO 22010KT 190V270 9999 FEW015/// OVC100/// 02/M01 Q1000', 'EKRN 080220Z AUTO 22010KT 180V250 9999 FEW015/// BKN110/// 02/M01 Q1000', 'EKRN 080150Z AUTO 22009KT 170V260 9999 FEW020/// BKN110/// 02/M01 Q1000', 'EKRN 080120Z AUTO 24011KT 9999 BKN130/// 02/M02 Q1001', 'EKRN 080050Z AUTO 26010KT 9999 SCT140/// 02/M02 Q1001', 'EKRN 080020Z AUTO 27006KT 9999 NCD 01/M03 Q1001', 'EKRN 072350Z AUTO 29008KT 9999 NCD 01/M05 Q1001', 'EKRN 072320Z AUTO 29008KT 9999 NCD 01/M05 Q1001', 'EKRN 072250Z AUTO 28010KT 9999 NCD 01/M05 Q1001', 'EKRN 072220Z AUTO 28008KT 9999 NCD 01/M05 Q1001', 'EKRN 072150Z AUTO 30008KT 9999 SCT026/// 01/M04 Q1001', 'EKRN 072120Z AUTO 29013KT 9999 BKN024/// 01/M04 Q1001', 'EKRN 072050Z AUTO 31010KT 9999 BKN026/// 01/M04 Q1001', 'EKRN 072020Z AUTO 31011KT 9999 BKN025/// 01/M04 Q1001', 'EKRN 071950Z AUTO 30013KT 9999 FEW020/// BKN038/// 01/M03 Q1001', 'EKRN 071920Z AUTO 30010KT 9999 BKN020/// 01/M03 Q1001', 'EKRN 071850Z AUTO 31011KT 9999 FEW020/// 01/M03 Q1000', 'EKRN 071820Z AUTO 30011KT 9999 FEW020/// FEW042/// 01/M03 Q1000', 'EKRN 071750Z AUTO 31009KT 9999 FEW020/// BKN029/// 01/M04 Q1000', 'EKRN 071720Z AUTO 32010KT 9999 FEW023/// BKN035/// 01/M04 Q1000', 'EKRN 071650Z AUTO 31010KT 9999 SCT024/// 01/M04 Q1000', 'EKRN 071620Z AUTO 32008KT 9999 FEW024/// BKN078/// 01/M04 Q0999', 'EKRN 071550Z AUTO 32010KT 9999 FEW024/// BKN075/// 01/M04 Q0999', 'EKRN 071520Z AUTO 32013KT 9999 SCT032/// BKN075/// 01/M04 Q0999', 'EKRN 071450Z AUTO 32012KT 9999 BKN027/// BKN074/// 01/M05 Q0999', 'EKRN 071420Z AUTO 32013KT 9999 BKN025/// BKN071/// 01/M05 Q0998', 'EKRN 071350Z AUTO 32014KT 9999 BKN025/// 01/M04 Q0998', 'EKRN 071320Z AUTO 32016KT 9999 BKN025/// 01/M04 Q0998', 'EKRN 071250Z AUTO 31018KT 9999 BKN023/// 01/M04 Q0997', 'EKRN 071220Z AUTO 32015KT 9999 BKN024/// 01/M05 Q0997', 'EKRN 071150Z AUTO 31018KT 9999 BKN024/// 01/M04 Q0996', 'EKRN 071120Z AUTO 31019KT 9999 BKN021/// 01/M04 Q0996', 'EKRN 071050Z AUTO 30017KT 9999 OVC020/// 01/M04 Q0996', 'EKRN 071020Z AUTO 32016KT 9999 OVC021/// 01/M04 Q0996', 'EKRN 070950Z AUTO 32013KT 290V350 9999 OVC019/// 01/M03 Q0995', 'EKRN 070920Z AUTO 32014KT 9999 BKN022/// BKN044/// 02/M03 Q0994', 'EKRN 070850Z AUTO 31016KT 9999 BKN017/// OVC044/// 02/M03 Q0994', 'EKRN 070820Z AUTO 32015KT 9999 OVC044/// 02/M02 Q0993', 'EKRN 070750Z AUTO 32014KT 9999 SCT014/// BKN045/// 03/M00 Q0993', 'EKRN 070720Z AUTO 30018KT 9999 BKN018/// 03/00 Q0992', 'EKRN 070650Z AUTO 30017KT 9999 BKN021/// BKN220/// 03/00 Q0991', 'EKRN 070620Z AUTO 30018KT 9999 BKN016/// 03/01 Q0991', 'EKRN 070550Z AUTO 29014KT 9999 FEW013/// SCT019/// BKN200/// 03/02 Q0990', 'EKRN 070520Z AUTO 28020KT 9999 BKN017/// BKN040/// 04/01 Q0990', 'EKRN 070450Z AUTO 28021KT 9999 BKN022/// 04/02 Q0990', 'EKRN 070420Z AUTO 27024KT 9999 BKN024/// BKN045/// 04/02 Q0990', 'EKRN 070350Z AUTO 27020KT 9999 FEW050/// 04/02 Q0989', 'EKRN 070320Z AUTO 27019KT 9999 FEW026/// 04/02 Q0989', 'EKRN 070250Z AUTO 27025KT 9999 -RA FEW010/// BKN025/// BKN054/// 04/01 Q0990', 'EKRN 070220Z AUTO 26021KT 9999 FEW030/// 04/02 Q0989', 'EKRN 070150Z AUTO 26020KT 9999 FEW034/// SCT240/// 04/02 Q0990', 'EKRN 070120Z AUTO 26017KT 9999 SCT028/// 04/02 Q0990', 'EKRN 070050Z AUTO 26021KT 9999 SCT046/// BKN190/// 04/02 Q0990', 'EKRN 070020Z AUTO 26020KT 9999 FEW025/// BKN056/// BKN180/// 04/01 Q0990', 'EKRN 062350Z AUTO 27019KT 9999 FEW026/// BKN039/// BKN067/// BKN160/// 04/02 Q0990', 'EKRN 062320Z AUTO 27020KT 9999 FEW056/// BKN150/// 04/02 Q0990', 'EKRN 062250Z AUTO 27023KT 9999 BKN150/// 04/02 Q0990', 'EKRN 062220Z AUTO 27024KT 9999 BKN160/// 04/03 Q0990', 'EKRN 062150Z AUTO 27024KT 9999 BKN059/// BKN180/// 04/03 Q0990', 'EKRN 062120Z AUTO 27022KT 9999 -RA BKN028/// 04/03 Q0989', 'EKRN 062050Z AUTO 27021KT 9999 -RA OVC030/// 05/03 Q0989', 'EKRN 062020Z AUTO 27020KT 9999 BKN005/// OVC035/// 05/04 Q0989', 'EKRN 061950Z AUTO 27023KT 4200 -RA OVC004/// 05/05 Q0989', 'EKRN 061920Z AUTO 25028KT 4500 -RA OVC004/// 06/05 Q0988', 'EKRN 061850Z AUTO 25026KT 5000 -RA OVC004/// 06/06 Q0988', 'EKRN 061820Z AUTO 25024KT 6000 -RA BKN005/// OVC014/// 06/06 Q0989', 'EKRN 061750Z AUTO 25024KT 8000 -RA OVC005/// 06/06 Q0989', 'EKRN 061720Z AUTO 25025KT 5000 -RA BKN005/// OVC017/// 06/06 Q0990', 'EKRN 061650Z AUTO 25023KT 9000 -RA OVC006/// 06/05 Q0990', 'EKRN 061620Z AUTO 25023KT 9999 -RA BKN006/// BKN031/// OVC046/// 06/05 Q0990', 'EKRN 061550Z AUTO 25024KT 9999 -RA BKN004/// OVC024/// 06/05 Q0991', 'EKRN 061520Z AUTO 25022KT 9999 -RA BKN005/// OVC030/// 06/06 Q0991', 'EKRN 061450Z AUTO 25023KT 9999 -RA SCT005/// OVC042/// 06/05 Q0991', 'EKRN 061420Z AUTO 25024G34KT 9999 -RASN OVC004/// 06/05 Q0992', 'EKRN 061350Z AUTO 25023KT 9999 -RA OVC004/// 06/06 Q0992', 'EKRN 061320Z AUTO 25023KT 9999 -RA OVC003/// 06/05 Q0993', 'EKRN 061250Z AUTO 25021KT 9999 -RA OVC004/// 06/05 Q0993', 'EKRN 061220Z AUTO 25020KT 9999 -RA OVC003/// 06/05 Q0993', 'EKRN 061150Z AUTO 25022KT 9999 -RA OVC004/// 06/05 Q0994', 'EKRN 061120Z AUTO 25022KT 9999 -RA OVC004/// 06/05 Q0994', 'EKRN 061050Z AUTO 25021KT 9999 -RA OVC004/// 05/05 Q0995', 'EKRN 061020Z AUTO 25022KT 9999 -RA OVC004/// 06/05 Q0995', 'EKRN 060950Z AUTO 25021KT 9999 R11/P1500D R29/1300N -RA OVC004/// 05/05 Q0995', 'EKRN 060920Z AUTO 25022KT 1500 R11/P1500N R29/1300N -RA OVC004/// 05/05 Q0995', 'EKRN 060850Z AUTO 25020KT 1800 -RA OVC004/// 05/05 Q0995', 'EKRN 060820Z AUTO 25021KT 1800 -RA OVC004/// 05/05 Q0996', 'EKRN 060750Z AUTO 25020KT 1800 -RA OVC003/// 05/05 Q0996', 'EKRN 060720Z AUTO 25021KT 1800 -RA OVC003/// 05/05 Q0996', 'EKRN 060650Z AUTO 25022KT 1700 -RA OVC003/// 05/05 Q0996', 'EKRN 060620Z AUTO 26020KT 1800 -RA OVC003/// 05/05 Q0996', 'EKRN 060550Z AUTO 26019KT 2000 -RA OVC003/// 05/05 Q0996', 'EKRN 060520Z AUTO 26021KT 1800 -RA OVC003/// 05/05 Q0997', 'EKRN 060450Z AUTO 26020KT 2200 -RA OVC003/// 05/05 Q0997', 'EKRN 060420Z AUTO 27012G23KT 3100 -RASN OVC002/// 04/04 Q0997', 'EKRN 060350Z AUTO 27014KT 3300 -RASN OVC004/// 04/04 Q0998', 'EKRN 060320Z AUTO VRB01KT 9999 -RASN OVC005/// 02/01 Q0998', 'EKRN 060250Z AUTO 09005KT 9999 -RA OVC005/// 01/01 Q0998', 'EKRN 060220Z AUTO 09005KT 9999 -RA OVC006/// 01/00 Q0999', 'EKRN 060150Z AUTO 09006KT 9999 -RA OVC007/// 01/00 Q0999', 'EKRN 060120Z AUTO 08006KT 9999 -RA OVC008/// 01/00 Q1000', 'EKRN 060050Z AUTO 10006KT 9999 -RA OVC011/// 00/00 Q1000', 'EKRN 060020Z AUTO 11006KT 9999 -SN OVC019/// 00/00 Q1000', 'EKRN 052350Z AUTO 09006KT 9999 -SN OVC020/// 01/00 Q1000', 'EKRN 052320Z AUTO 08005KT 9999 -SN OVC021/// 00/00 Q1001', 'EKRN 052250Z AUTO 08004KT 7000 -SN OVC018/// 00/00 Q1001', 'EKRN 052220Z AUTO 06003KT 5000 -SN SCT003/// OVC019/// 00/M00 Q1001', 'EKRN 052150Z AUTO 10003KT 3300 -SN FEW006/// OVC025/// 00/M00 Q1001', 'EKRN 052120Z AUTO 10003KT 2500 -SN OVC020/// 00/M00 Q1001', 'EKRN 052050Z AUTO 08001KT 2200 -SN OVC016/// 00/M00 Q1001', 'EKRN 052020Z AUTO 00000KT 1700 -RASN OVC016/// 00/M00 Q1002', 'EKRN 051950Z AUTO 00000KT 3300 -RASN OVC013/// 01/M00 Q1002', 'EKRN 051920Z AUTO 33001KT 9000 -RASN FEW005/// FEW011/// OVC024/// 01/00 Q1002']","['2024-02-08 18:50:00', '2024-02-08 18:20:00', '2024-02-08 17:50:00', '2024-02-08 17:20:00', '2024-02-08 16:50:00', '2024-02-08 16:20:00', '2024-02-08 15:50:00', '2024-02-08 15:20:00', '2024-02-08 14:50:00', '2024-02-08 14:20:00', '2024-02-08 13:50:00', '2024-02-08 13:20:00', '2024-02-08 12:50:00', '2024-02-08 12:20:00', '2024-02-08 11:50:00', '2024-02-08 11:20:00', '2024-02-08 10:50:00', '2024-02-08 10:20:00', '2024-02-08 09:50:00', '2024-02-08 09:20:00', '2024-02-08 08:50:00', '2024-02-08 08:20:00', '2024-02-08 07:50:00', '2024-02-08 07:20:00', '2024-02-08 06:50:00', '2024-02-08 06:20:00', '2024-02-08 05:50:00', '2024-02-08 05:20:00', '2024-02-08 04:50:00', '2024-02-08 04:20:00', '2024-02-08 03:50:00', '2024-02-08 03:20:00', '2024-02-08 02:50:00', '2024-02-08 02:20:00', '2024-02-08 01:50:00', '2024-02-08 01:20:00', '2024-02-08 00:50:00', '2024-02-08 00:20:00', '2024-02-07 23:50:00', '2024-02-07 23:20:00', '2024-02-07 22:50:00', '2024-02-07 22:20:00', '2024-02-07 21:50:00', '2024-02-07 21:20:00', '2024-02-07 20:50:00', '2024-02-07 20:20:00', '2024-02-07 19:50:00', '2024-02-07 19:20:00', '2024-02-07 18:50:00', '2024-02-07 18:20:00', '2024-02-07 17:50:00', '2024-02-07 17:20:00', '2024-02-07 16:50:00', '2024-02-07 16:20:00', '2024-02-07 15:50:00', '2024-02-07 15:20:00', '2024-02-07 14:50:00', '2024-02-07 14:20:00', '2024-02-07 13:50:00', '2024-02-07 13:20:00', '2024-02-07 12:50:00', '2024-02-07 12:20:00', '2024-02-07 11:50:00', '2024-02-07 11:20:00', '2024-02-07 10:50:00', '2024-02-07 10:20:00', '2024-02-07 09:50:00', '2024-02-07 09:20:00', '2024-02-07 08:50:00', '2024-02-07 08:20:00', '2024-02-07 07:50:00', '2024-02-07 07:20:00', '2024-02-07 06:50:00', '2024-02-07 06:20:00', '2024-02-07 05:50:00', '2024-02-07 05:20:00', '2024-02-07 04:50:00', '2024-02-07 04:20:00', '2024-02-07 03:50:00', '2024-02-07 03:20:00', '2024-02-07 02:50:00', '2024-02-07 02:20:00', '2024-02-07 01:50:00', '2024-02-07 01:20:00', '2024-02-07 00:50:00', '2024-02-07 00:20:00', '2024-02-06 23:50:00', '2024-02-06 23:20:00', '2024-02-06 22:50:00', '2024-02-06 22:20:00', '2024-02-06 21:50:00', '2024-02-06 21:20:00', '2024-02-06 20:50:00', '2024-02-06 20:20:00', '2024-02-06 19:50:00', '2024-02-06 19:20:00', '2024-02-06 18:50:00', '2024-02-06 18:20:00', '2024-02-06 17:50:00', '2024-02-06 17:20:00', '2024-02-06 16:50:00', '2024-02-06 16:20:00', '2024-02-06 15:50:00', '2024-02-06 15:20:00', '2024-02-06 14:50:00', '2024-02-06 14:20:00', '2024-02-06 13:50:00', '2024-02-06 13:20:00', '2024-02-06 12:50:00', '2024-02-06 12:20:00', '2024-02-06 11:50:00', '2024-02-06 11:20:00', '2024-02-06 10:50:00', '2024-02-06 10:20:00', '2024-02-06 09:50:00', '2024-02-06 09:20:00', '2024-02-06 08:50:00', '2024-02-06 08:20:00', '2024-02-06 07:50:00', '2024-02-06 07:20:00', '2024-02-06 06:50:00', '2024-02-06 06:20:00', '2024-02-06 05:50:00', '2024-02-06 05:20:00', '2024-02-06 04:50:00', '2024-02-06 04:20:00', '2024-02-06 03:50:00', '2024-02-06 03:20:00', '2024-02-06 02:50:00', '2024-02-06 02:20:00', '2024-02-06 01:50:00', '2024-02-06 01:20:00', '2024-02-06 00:50:00', '2024-02-06 00:20:00', '2024-02-05 23:50:00', '2024-02-05 23:20:00', '2024-02-05 22:50:00', '2024-02-05 22:20:00', '2024-02-05 21:50:00', '2024-02-05 21:20:00', '2024-02-05 20:50:00', '2024-02-05 20:20:00', '2024-02-05 19:50:00', '2024-02-05 19:20:00']"
Denmark, Roskilde Airport (RKE/EKRK) ,"['EKRK 081850Z AUTO 09001KT 9999 NCD M02/M03 Q0999', 'EKRK 081820Z AUTO 04002KT 9999 NCD M01/M03 Q0999', 'EKRK 081750Z AUTO 01002KT 9999 NCD M01/M02 Q0998', 'EKRK 081720Z AUTO 01001KT 9999 NCD 00/M02 Q0998', 'EKRK 081650Z AUTO 32001KT 9999 NCD 00/M02 Q0998', 'EKRK 081620Z AUTO 25001KT 9999 NCD 01/M02 Q0999', 'EKRK 081550Z AUTO 30003KT 9999 FEW022/// 01/M03 Q0999', 'EKRK 081520Z AUTO 32003KT 9999 NCD 01/M02 Q0999', 'EKRK 081450Z AUTO 32004KT 9999 FEW030/// FEW045/// 02/M02 Q0999', 'EKRK 081420Z AUTO 30006KT 9999 SCT023/// BKN047/// 03/M02 Q0999', 'EKRK 081350Z AUTO 29006KT 9999 BKN023/// 03/M01 Q0999', 'EKRK 081320Z AUTO 29009KT 9999 SCT023/// 03/M02 Q0999', 'EKRK 081250Z AUTO 28008KT 250V320 9999 BKN020/// BKN045/// 04/M00 Q0999', 'EKRK 081220Z AUTO 28009KT 9999 BKN021/// 04/M00 Q0999', 'EKRK 081150Z AUTO 27009KT 240V300 9999 SCT019/// 04/M00 Q0999', 'EKRK 081120Z AUTO 27011KT 9999 NCD 03/M01 Q0999', 'EKRK 081050Z AUTO 27010KT 9999 NCD 03/M00 Q0999', 'EKRK 081020Z AUTO 26009KT 9999 FEW012/// 02/00 Q0999', 'EKRK 080950Z AUTO 27009KT 9999 NCD 02/M00 Q0999', 'EKRK 080920Z AUTO 27009KT 9999 NCD 01/M01 Q0999', 'EKRK 080850Z AUTO 26008KT 9999 NCD 01/M01 Q0999', 'EKRK 080820Z AUTO 27009KT 9999 NCD 01/M01 Q0999', 'EKRK 080750Z AUTO 27010KT 9999 NCD 00/M02 Q0999', 'EKRK 080720Z AUTO 26011KT 9999 NCD 00/M02 Q0999', 'EKRK 080650Z AUTO 26009KT 9999 NCD M00/M02 Q0998', 'EKRK 080620Z AUTO 27010KT 9999 NCD M00/M02 Q0998', 'EKRK 080550Z AUTO 26011KT 9999 NCD 00/M02 Q0998', 'EKRK 080520Z AUTO 26009KT 9999 FEW024/// 00/M02 Q0998', 'EKRK 080450Z AUTO 26009KT 9999 BKN024/// 01/M01 Q0998', 'EKRK 080420Z AUTO 26011KT 9999 BKN023/// 01/M01 Q0998', 'EKRK 080350Z AUTO 26013KT 9999 OVC025/// 01/M01 Q0998', 'EKRK 080320Z AUTO 25013KT 9999 BKN020/// 01/M01 Q0998', 'EKRK 080250Z AUTO 25013KT 9999 BKN022/// 01/M01 Q0997', 'EKRK 080220Z AUTO 24013KT 9999 OVC014/// 01/M01 Q0998', 'EKRK 080150Z AUTO 23013KT 9999 OVC013/// 01/M01 Q0998', 'EKRK 080120Z AUTO 23014KT 9999 OVC008/// 01/M00 Q0998', 'EKRK 080050Z AUTO 22015KT 2800 -SN OVC006/// 00/M00 Q0998', 'EKRK 080020Z AUTO 20014G28KT 2500 -SN OVC015/// 00/M01 Q0998', 'EKRK 072350Z AUTO 18009KT 9999 OVC085/// 00/M02 Q0999', 'EKRK 072320Z AUTO 19009KT 9999 OVC077/// 00/M02 Q0999', 'EKRK 072250Z AUTO 20007KT 9999 BKN070/// M00/M02 Q1000', 'EKRK 072220Z AUTO 20005KT 9999 BKN110/// M01/M03 Q1000', 'EKRK 072150Z AUTO 21004KT 9999 BKN140/// M01/M03 Q1000', 'EKRK 072120Z AUTO 21004KT 9999 FEW130/// SCT150/// BKN170/// M02/M04 Q1001', 'EKRK 072050Z AUTO 20004KT 9999 SCT150/// M02/M04 Q1001', 'EKRK 072020Z AUTO 20005KT 9999 NCD M02/M04 Q1001', 'EKRK 071950Z AUTO 19003KT 9999 NCD M02/M04 Q1001', 'EKRK 071920Z AUTO 21003KT 9999 NCD M02/M04 Q1001', 'EKRK 071850Z AUTO 25003KT 9999 NCD M02/M04 Q1001', 'EKRK 071820Z AUTO 27003KT 9999 NCD M02/M04 Q1001', 'EKRK 071750Z AUTO 27004KT 9999 NCD M02/M04 Q1001', 'EKRK 071720Z AUTO 28005KT 9999 NCD M02/M05 Q1001', 'EKRK 071650Z AUTO 29006KT 9999 NCD M01/M04 Q1001', 'EKRK 071620Z AUTO 30008KT 9999 NCD M00/M05 Q1001', 'EKRK 071550Z AUTO 29010KT 9999 FEW026/// 00/M04 Q1000', 'EKRK 071520Z AUTO 31009KT 9999 FEW023/// 01/M04 Q1000', 'EKRK 071450Z AUTO 30012KT 280V340 9999 FEW028/// SCT039/// 01/M03 Q1000', 'EKRK 071420Z AUTO 31015KT 9999 BKN024/// 01/M04 Q1000', 'EKRK 071350Z AUTO 31014KT 9999 FEW020/// BKN031/// 01/M04 Q1000', 'EKRK 071320Z AUTO 30012KT 9999 FEW017/// BKN038/// 02/M03 Q0999', 'EKRK 071250Z AUTO 31011KT 280V340 9999 BKN015/// 01/M02 Q0999', 'EKRK 071220Z AUTO 30013KT 9999 -RA FEW021/// OVC034/// 01/M02 Q0999', 'EKRK 071150Z AUTO 32012KT 9999 -RASN FEW019/// OVC023/// 01/M03 Q0998', 'EKRK 071120Z AUTO 32012KT 9999 -RA SCT020/// OVC039/// 01/M02 Q0998', 'EKRK 071050Z AUTO 33009KT 9999 -RASN SCT017/// BKN054/// 02/M02 Q0998', 'EKRK 071020Z AUTO 31011KT 9999 FEW018/// SCT028/// BKN055/// 01/M01 Q0997', 'EKRK 070950Z AUTO 32011KT 9999 BKN018/// BKN055/// 01/M02 Q0997', 'EKRK 070920Z AUTO 32008KT 9999 -RA BKN019/// OVC054/// 01/M02 Q0996', 'EKRK 070850Z AUTO 33010KT 9999 BKN016/// BKN049/// 01/M02 Q0996', 'EKRK 070820Z AUTO 34012KT 9999 -RA FEW014/// BKN049/// 01/M01 Q0995', 'EKRK 070750Z AUTO 33011KT 9999 BKN010/// OVC050/// 01/M01 Q0995', 'EKRK 070720Z AUTO 32009KT 9999 -RA OVC010/// 01/M00 Q0994', 'EKRK 070650Z AUTO 31009KT 9999 -RA FEW016/// FEW019/// OVC046/// 02/M00 Q0993', 'EKRK 070620Z AUTO 31009KT 9999 FEW012/// BKN044/// 02/M00 Q0993', 'EKRK 070550Z AUTO 31009KT 9999 BKN010/// BKN038/// BKN045/// 01/00 Q0993', 'EKRK 070520Z AUTO 31011KT 280V340 9999 RASN BKN009/// 01/M00 Q0992', 'EKRK 070450Z AUTO 30013KT 9999 -RA BKN015/// 02/00 Q0991', 'EKRK 070420Z AUTO 30013KT 9999 -RA BKN025/// 03/00 Q0991', 'EKRK 070350Z AUTO 30013KT 9999 BKN020/// 03/00 Q0990', 'EKRK 070320Z AUTO 29014KT 9999 SCT018/// BKN029/// 03/01 Q0990', 'EKRK 070250Z AUTO 29011KT 250V320 9999 -RA BKN017/// 03/01 Q0990', 'EKRK 070220Z AUTO 27015KT 9999 FEW020/// BKN034/// 04/01 Q0990', 'EKRK 070150Z AUTO 26017KT 230V300 9999 -RA BKN021/// 04/01 Q0990', 'EKRK 070120Z AUTO 26013KT 9999 BKN030/// 03/01 Q0990', 'EKRK 070050Z AUTO 27012KT 9999 FEW045/// 03/01 Q0990 RESHRA', 'EKRK 070020Z AUTO 27020G30KT 240V300 4000 +RA BR OVC014/// 02/01 Q0990', 'EKRK 062350Z AUTO 25012KT 9999 FEW052/// BKN082/// 04/01 Q0990', 'EKRK 062320Z AUTO 25011KT 9999 FEW039/// FEW100/// 03/01 Q0990', 'EKRK 062250Z AUTO 25014G31KT 210V280 9999 -RA BKN016/// BKN220/// 03/01 Q0990', 'EKRK 062220Z AUTO 27016G27KT 4300 -RA BKN015/// BKN200/// 03/01 Q0991', 'EKRK 062150Z AUTO 27013KT 9999 FEW012/// SCT056/// SCT067/// BKN210/// 04/01 Q0990', 'EKRK 062120Z AUTO 27013KT 9999 DZ BKN017/// BKN210/// 04/02 Q0990', 'EKRK 062050Z AUTO 27013KT 9999 FEW032/// SCT065/// BKN210/// 04/01 Q0991', 'EKRK 062020Z AUTO 28013KT 9999 BKN220/// 04/01 Q0990', 'EKRK 061950Z AUTO 28013KT 9999 FEW019/// SCT066/// BKN210/// 04/01 Q0990', 'EKRK 061920Z AUTO 28016KT 9999 SCT022/// BKN059/// 05/02 Q0990', 'EKRK 061850Z AUTO 27014KT 9999 BKN042/// 05/02 Q0989', 'EKRK 061820Z AUTO 27013KT 9999 -RA FEW018/// BKN034/// 05/03 Q0989', 'EKRK 061750Z AUTO 26012KT 9999 FEW014/// OVC052/// 06/04 Q0989', 'EKRK 061720Z AUTO 27014KT 9999 -RA BKN010/// OVC051/// 06/05 Q0989', 'EKRK 061650Z AUTO 27014KT 8000 -RA OVC009/// 06/05 Q0989', 'EKRK 061620Z AUTO 26016KT 3600 -RA BR OVC006/// 07/06 Q0989', 'EKRK 061550Z AUTO 26014KT 3000 DZ BR OVC007/// 07/07 Q0989', 'EKRK 061520Z AUTO 26018KT 9999 OVC010/// 08/06 Q0989', 'EKRK 061450Z AUTO 25018KT 220V280 9999 OVC011/// 08/06 Q0989', 'EKRK 061420Z AUTO 25018KT 9999 -RA OVC011/// 08/07 Q0990', 'EKRK 061350Z AUTO 25016KT 9999 -RA OVC011/// 08/07 Q0990', 'EKRK 061320Z AUTO 25016G28KT 9999 -RA OVC010/// 08/07 Q0991', 'EKRK 061250Z AUTO 25016KT 9999 -RA OVC010/// 08/07 Q0991', 'EKRK 061220Z AUTO 25017G28KT 9999 -RA OVC010/// 08/07 Q0991', 'EKRK 061150Z AUTO 25015KT 9999 -RA OVC010/// 08/06 Q0992', 'EKRK 061120Z AUTO 25016KT 9999 -RA OVC010/// 08/06 Q0992', 'EKRK 061050Z AUTO 25016KT 9999 -RA OVC010/// 08/07 Q0993', 'EKRK 061020Z AUTO 24015KT 210V270 9999 -RA OVC010/// 08/06 Q0993', 'EKRK 060950Z AUTO 24015KT 9000 -RA OVC009/// 08/06 Q0993', 'EKRK 060920Z AUTO 24013KT 9999 -RA OVC009/// 07/06 Q0993', 'EKRK 060850Z AUTO 24013KT 210V270 9999 -RA OVC009/// 07/06 Q0994', 'EKRK 060820Z AUTO 25013KT 9999 -RA OVC009/// 07/06 Q0994', 'EKRK 060750Z AUTO 25014KT 9999 -RA OVC009/// 07/06 Q0994', 'EKRK 060720Z AUTO 25014KT 9999 -RA OVC009/// 07/06 Q0994', 'EKRK 060650Z AUTO 25013KT 9999 -RA OVC009/// 07/06 Q0995', 'EKRK 060620Z AUTO 25014KT 9000 -RA OVC009/// 07/06 Q0995', 'EKRK 060550Z AUTO 25014KT 9999 -RA OVC009/// 07/06 Q0995', 'EKRK 060520Z AUTO 25015KT 9999 -RA OVC009/// 07/06 Q0995', 'EKRK 060450Z AUTO 25013KT 9999 -RA OVC009/// 07/06 Q0996', 'EKRK 060420Z AUTO 25014KT 9000 -RA OVC009/// 07/06 Q0996', 'EKRK 060350Z AUTO 26013KT 9999 -RA OVC009/// 07/06 Q0996', 'EKRK 060320Z AUTO 26015KT 9999 -RA OVC009/// 07/06 Q0996', 'EKRK 060250Z AUTO 26013KT 8000 -RA OVC009/// 07/06 Q0997', 'EKRK 060220Z AUTO 26012KT 8000 -RA OVC009/// 07/06 Q0997 RERA', 'EKRK 060150Z AUTO VRB02G16KT 9000 -RA OVC005/// 06/05 Q0997 RERA', 'EKRK 060120Z AUTO 10005KT 7000 RA OVC004/// 02/02 Q0998', 'EKRK 060050Z AUTO 11007KT 080V140 7000 RA OVC005/// 02/01 Q0998', 'EKRK 060020Z AUTO 11007KT 8000 RA OVC003/// 02/01 Q0999', 'EKRK 052350Z AUTO 12010KT 9000 -RA OVC003/// 02/01 Q0999 RERA', 'EKRK 052320Z AUTO 10008KT 8000 -RA FEW003/// OVC010/// 01/01 Q0999 RERA', 'EKRK 052250Z AUTO 10010KT 7000 RA OVC003/// 01/00 Q1000', 'EKRK 052220Z AUTO 09008KT 6000 RA OVC003/// 01/01 Q1000', 'EKRK 052150Z AUTO 11008KT 7000 -RA OVC004/// 01/01 Q1000 RERA', 'EKRK 052120Z AUTO 10004KT 320V120 9000 RA OVC004/// 02/01 Q1000', 'EKRK 052050Z AUTO 10005KT 9000 -RA OVC003/// 01/01 Q1000', 'EKRK 052020Z AUTO 09004KT 6000 -RASN SCT003/// OVC011/// 01/01 Q1001', 'EKRK 051950Z AUTO VRB03KT 6000 -RA BKN003/// OVC013/// 01/01 Q1001', 'EKRK 051920Z AUTO 09003KT 7000 -RA FEW003/// OVC013/// 01/01 Q1001']","['2024-02-08 18:50:00', '2024-02-08 18:20:00', '2024-02-08 17:50:00', '2024-02-08 17:20:00', '2024-02-08 16:50:00', '2024-02-08 16:20:00', '2024-02-08 15:50:00', '2024-02-08 15:20:00', '2024-02-08 14:50:00', '2024-02-08 14:20:00', '2024-02-08 13:50:00', '2024-02-08 13:20:00', '2024-02-08 12:50:00', '2024-02-08 12:20:00', '2024-02-08 11:50:00', '2024-02-08 11:20:00', '2024-02-08 10:50:00', '2024-02-08 10:20:00', '2024-02-08 09:50:00', '2024-02-08 09:20:00', '2024-02-08 08:50:00', '2024-02-08 08:20:00', '2024-02-08 07:50:00', '2024-02-08 07:20:00', '2024-02-08 06:50:00', '2024-02-08 06:20:00', '2024-02-08 05:50:00', '2024-02-08 05:20:00', '2024-02-08 04:50:00', '2024-02-08 04:20:00', '2024-02-08 03:50:00', '2024-02-08 03:20:00', '2024-02-08 02:50:00', '2024-02-08 02:20:00', '2024-02-08 01:50:00', '2024-02-08 01:20:00', '2024-02-08 00:50:00', '2024-02-08 00:20:00', '2024-02-07 23:50:00', '2024-02-07 23:20:00', '2024-02-07 22:50:00', '2024-02-07 22:20:00', '2024-02-07 21:50:00', '2024-02-07 21:20:00', '2024-02-07 20:50:00', '2024-02-07 20:20:00', '2024-02-07 19:50:00', '2024-02-07 19:20:00', '2024-02-07 18:50:00', '2024-02-07 18:20:00', '2024-02-07 17:50:00', '2024-02-07 17:20:00', '2024-02-07 16:50:00', '2024-02-07 16:20:00', '2024-02-07 15:50:00', '2024-02-07 15:20:00', '2024-02-07 14:50:00', '2024-02-07 14:20:00', '2024-02-07 13:50:00', '2024-02-07 13:20:00', '2024-02-07 12:50:00', '2024-02-07 12:20:00', '2024-02-07 11:50:00', '2024-02-07 11:20:00', '2024-02-07 10:50:00', '2024-02-07 10:20:00', '2024-02-07 09:50:00', '2024-02-07 09:20:00', '2024-02-07 08:50:00', '2024-02-07 08:20:00', '2024-02-07 07:50:00', '2024-02-07 07:20:00', '2024-02-07 06:50:00', '2024-02-07 06:20:00', '2024-02-07 05:50:00', '2024-02-07 05:20:00', '2024-02-07 04:50:00', '2024-02-07 04:20:00', '2024-02-07 03:50:00', '2024-02-07 03:20:00', '2024-02-07 02:50:00', '2024-02-07 02:20:00', '2024-02-07 01:50:00', '2024-02-07 01:20:00', '2024-02-07 00:50:00', '2024-02-07 00:20:00', '2024-02-06 23:50:00', '2024-02-06 23:20:00', '2024-02-06 22:50:00', '2024-02-06 22:20:00', '2024-02-06 21:50:00', '2024-02-06 21:20:00', '2024-02-06 20:50:00', '2024-02-06 20:20:00', '2024-02-06 19:50:00', '2024-02-06 19:20:00', '2024-02-06 18:50:00', '2024-02-06 18:20:00', '2024-02-06 17:50:00', '2024-02-06 17:20:00', '2024-02-06 16:50:00', '2024-02-06 16:20:00', '2024-02-06 15:50:00', '2024-02-06 15:20:00', '2024-02-06 14:50:00', '2024-02-06 14:20:00', '2024-02-06 13:50:00', '2024-02-06 13:20:00', '2024-02-06 12:50:00', '2024-02-06 12:20:00', '2024-02-06 11:50:00', '2024-02-06 11:20:00', '2024-02-06 10:50:00', '2024-02-06 10:20:00', '2024-02-06 09:50:00', '2024-02-06 09:20:00', '2024-02-06 08:50:00', '2024-02-06 08:20:00', '2024-02-06 07:50:00', '2024-02-06 07:20:00', '2024-02-06 06:50:00', '2024-02-06 06:20:00', '2024-02-06 05:50:00', '2024-02-06 05:20:00', '2024-02-06 04:50:00', '2024-02-06 04:20:00', '2024-02-06 03:50:00', '2024-02-06 03:20:00', '2024-02-06 02:50:00', '2024-02-06 02:20:00', '2024-02-06 01:50:00', '2024-02-06 01:20:00', '2024-02-06 00:50:00', '2024-02-06 00:20:00', '2024-02-05 23:50:00', '2024-02-05 23:20:00', '2024-02-05 22:50:00', '2024-02-05 22:20:00', '2024-02-05 21:50:00', '2024-02-05 21:20:00', '2024-02-05 20:50:00', '2024-02-05 20:20:00', '2024-02-05 19:50:00', '2024-02-05 19:20:00']"
Djibouti, Djibouti Ambouli International Airport (JIB/HDAM) ,"['HDAM 081800Z 12015KT 9999 FEW023 28/22 Q1018', 'HDAM 081800Z 12015KT 9999 FEW023 28/22 Q1018', 'HDAM 081700Z 11011KT 9999 FEW023 29/22 Q1017', 'HDAM 081600Z 11013KT 9999 FEW023 29/22 Q1017', 'HDAM 081500Z 10012KT 9999 FEW023 30/21 Q1017', 'HDAM 081400Z 09015KT 9999 FEW023 30/21 Q1016', 'HDAM 081300Z 09018KT 9999 FEW023 30/21 Q1016']","['2024-02-08 18:00:00', '2024-02-08 17:58:00', '2024-02-08 17:00:00', '2024-02-08 16:00:00', '2024-02-08 15:00:00', '2024-02-08 14:00:00', '2024-02-08 13:00:00']"
Dominica, Dominica Douglas Charles Airport (DOM/TDPD) ,"['TDPD 081800Z 26002KT 9999 BKN014 26/24 Q1014', 'TDPD 081700Z VRB01KT 9999 BKN014 26/24 Q1015', 'TDPD 081600Z 35005KT 9999 BKN014 26/24 Q1016', 'TDPD 081500Z 02003KT 9999 BKN018 28/24 Q1016', 'TDPD 081400Z 20003KT 9999 FEW021 28/24 Q1016', 'TDPD 081300Z 28004KT 9999 FEW021 26/24 Q1015', 'TDPD 081200Z 29003KT 9999 FEW022 24/23 Q1015', 'TDPD 081100Z 29004KT 9999 FEW024 24/23 Q1014', 'TDPD 081000Z 27003KT 9999 FEW023 25/23 Q1012', 'TDPD 080000Z 14006KT 9999 FEW021 28/24 Q1013', 'TDPD 072300Z 14004KT 9999 FEW021 27/25 Q1013', 'TDPD 072200Z 13005KT 9999 FEW018 28/25 Q1013', 'TDPD 072000Z 14008KT 9999 SCT018 29/25 Q1012', 'TDPD 071900Z 13009KT 9999 SCT020 29/26 Q1012', 'TDPD 071800Z 14009KT 9999 -SHRA SCT020 30/25 Q1013', 'TDPD 071700Z 13008KT 9999 SCT020 30/25 Q1014', 'TDPD 071600Z 15005KT 9999 SCT024 31/26 Q1014', 'TDPD 071500Z 13011KT 9999 SCT022 31/25 Q1015', 'TDPD 071400Z 15005KT 9999 FEW022 31/25 Q1015', 'TDPD 071300Z 14005KT 9999 FEW024 30/24 Q1014', 'TDPD 071200Z 12003KT 9999 FEW024 27/25 Q1014', 'TDPD 071100Z 30002KT 9999 FEW019 24/23 Q1013', 'TDPD 071000Z 30002KT 9999 FEW019 23/23 Q1013', 'TDPD 062300Z 16004KT 9999 FEW018 28/24 Q1011', 'TDPD 062200Z 13004KT 9999 FEW018 28/24 Q1011', 'TDPD 062100Z 13005KT 9999 FEW020 29/25 Q1011', 'TDPD 062000Z 15006KT 9999 FEW020 30/25 Q1011', 'TDPD 061900Z 16005KT 9999 FEW020 31/24 Q1011', 'TDPD 061800Z 13009KT 9999 FEW020 31/25 Q1012', 'TDPD 061700Z 14008KT 9999 FEW020 BKN028 31/25 Q1012', 'TDPD 061600Z 14010KT 9999 SCT020 30/25 Q1013', 'TDPD 061500Z 15007KT 9999 SCT022 30/24 Q1014', 'TDPD 061400Z 18006KT 9999 SCT020 30/24 Q1014', 'TDPD 061300Z 16004G15KT 9999 FEW020 30/24 Q1013', 'TDPD 061200Z 16003KT 9999 FEW018 28/24 Q1013', 'TDPD 061100Z 20005KT 9999 FEW018 27/23 Q1012', 'TDPD 061000Z 16004KT 9999 FEW022 27/24 Q1011', 'TDPD 060100Z 31003KT 9999 FEW021 25/24 Q1011', 'TDPD 060000Z VRB01KT 9999 FEW021 25/24 Q1011', 'TDPD 052300Z VRB01KT 9999 FEW021 26/24 Q1010', 'TDPD 052200Z 13003KT 9999 FEW019 28/23 Q1010', 'TDPD 052100Z 14005KT 9999 FEW020 29/24 Q1010', 'TDPD 052000Z 13005KT 9999 FEW020 30/24 Q1009']","['2024-02-08 18:00:00', '2024-02-08 17:00:00', '2024-02-08 16:00:00', '2024-02-08 15:00:00', '2024-02-08 14:00:00', '2024-02-08 13:00:00', '2024-02-08 12:00:00', '2024-02-08 11:00:00', '2024-02-08 10:00:00', '2024-02-08 00:00:00', '2024-02-07 23:00:00', '2024-02-07 22:00:00', '2024-02-07 20:00:00', '2024-02-07 19:00:00', '2024-02-07 18:00:00', '2024-02-07 17:00:00', '2024-02-07 16:00:00', '2024-02-07 15:00:00', '2024-02-07 14:00:00', '2024-02-07 13:00:00', '2024-02-07 12:00:00', '2024-02-07 11:00:00', '2024-02-07 10:00:00', '2024-02-06 23:00:00', '2024-02-06 22:00:00', '2024-02-06 21:00:00', '2024-02-06 20:00:00', '2024-02-06 19:00:00', '2024-02-06 18:00:00', '2024-02-06 17:00:00', '2024-02-06 16:00:00', '2024-02-06 15:00:00', '2024-02-06 14:00:00', '2024-02-06 13:00:00', '2024-02-06 12:00:00', '2024-02-06 11:00:00', '2024-02-06 10:00:00', '2024-02-06 01:00:00', '2024-02-06 00:00:00', '2024-02-05 23:00:00', '2024-02-05 22:00:00', '2024-02-05 21:00:00', '2024-02-05 20:00:00']"
Dominica, Roseau Canefield Airport (DCF/TDCF) ,"['TDCF 081800Z 33005KT 9999 BKN017 27/23 Q1013', 'TDCF 081700Z 34004KT 9999 BKN017 27/23 Q1013', 'TDCF 081600Z 24001KT 9999 BKN017 30/24 Q1014', 'TDCF 081500Z 33003KT 9999 SCT019 29/22 Q1015', 'TDCF 081400Z 34002KT 9999 SCT021 28/22 Q1015', 'TDCF 081300Z 20001KT 9999 FEW018 28/22 Q1014', 'TDCF 081200Z 18001KT 9999 FEW018 BKN061 25/22 Q1013', 'TDCF 072000Z 16003KT 9999 FEW019 31/23 Q1010', 'TDCF 071900Z 19003KT 9999 FEW019 33/23 Q1010', 'TDCF 071900Z 19003KT 9999 FEW019 32/23 Q1011', 'TDCF 071700Z 16003KT 9999 FEW019 33/23 Q1012', 'TDCF 071600Z 17003KT 9999 FEW020 34/23 Q1013', 'TDCF 071500Z 15006G17KT 9999 FEW020 32/22 Q1013', 'TDCF 071400Z 17002KT 9999 FEW020 33/22 Q1013', 'TDCF 071300Z 16003KT 9999 FEW020 32/22 Q1013', 'TDCF 071200Z 15003KT 9999 FEW020 29/22 Q1012', 'TDCF 062100Z 15005KT 9999 SCT019 30/23 Q1010', 'TDCF 062000Z 17003KT 9999 SCT019 31/23 Q1010', 'TDCF 061900Z 18003KT 9999 FEW019 31/23 Q1010', 'TDCF 061800Z 18002KT 9999 FEW020 33/23 Q1010', 'TDCF 061700Z 15005G18KT 9999 FEW020 33/23 Q1011', 'TDCF 061600Z 15006KT 9999 FEW020 33/22 Q1011', 'TDCF 061500Z 15006KT 9999 FEW020 32/22 Q1012', 'TDCF 061400Z 16004KT 9999 FEW019 31/22 Q1012', 'TDCF 061300Z 16004KT 9999 FEW019 30/22 Q1012', 'TDCF 061200Z 19002KT 9999 FEW018 28/22 Q1011', 'TDCF 052100Z 18003KT 9999 FEW022 29/21 Q1008', 'TDCF 052000Z 16003KT 9999 FEW021 31/21 Q1008']","['2024-02-08 18:00:00', '2024-02-08 17:00:00', '2024-02-08 16:00:00', '2024-02-08 15:00:00', '2024-02-08 14:00:00', '2024-02-08 13:00:00', '2024-02-08 12:00:00', '2024-02-07 20:00:00', '2024-02-07 19:00:00', '2024-02-07 18:10:00', '2024-02-07 17:00:00', '2024-02-07 16:00:00', '2024-02-07 15:00:00', '2024-02-07 14:00:00', '2024-02-07 13:00:00', '2024-02-07 12:00:00', '2024-02-06 21:00:00', '2024-02-06 20:00:00', '2024-02-06 19:00:00', '2024-02-06 18:00:00', '2024-02-06 17:00:00', '2024-02-06 16:00:00', '2024-02-06 15:00:00', '2024-02-06 14:00:00', '2024-02-06 13:00:00', '2024-02-06 12:00:00', '2024-02-05 21:00:00', '2024-02-05 20:00:00']"
Dominican-republic, Barahona Maria Montez International Airport (BRX/MDBH) ,"['MDBH 081900Z 22010KT 9999 FEW024 31/23 Q1014', 'MDBH 081800Z 24008KT 9999 FEW024 31/23 Q1016', 'MDBH 081700Z 24010KT 9999 FEW024 30/21 Q1016', 'MDBH 081600Z 27010KT 9999 FEW024 28/20 Q1018', 'MDBH 081500Z 27010KT 9999 FEW024 26/19 Q1018', 'MDBH 081400Z 27006KT 9999 FEW022 24/19 Q1017', 'MDBH 081300Z 27007KT 9999 FEW018 20/17 Q1017', 'MDBH 081200Z 27006KT 9999 FEW016 16/15 Q1016', 'MDBH 080000Z 00000KT 9999 FEW018CB FEW018 SCT080 24/22 Q1013 CB/SE/SW', 'MDBH 072300Z 27005KT 9999 FEW020CB FEW022 SCT080 26/21 Q1012 CB/SE/S', 'MDBH 072200Z 27008KT 9999 FEW022CB FEW022 BKN080 BKN300 28/22 Q1012 CB/SE', 'MDBH 072100Z 27008KT 9999 FEW022CB SCT022 BKN080 BKN300 28/22 Q1011 CB/SE', 'MDBH 072000Z 27007KT 9999 FEW022CB SCT025 BKN080 BKN300 28/22 Q1012 CB/SE/S/N', 'MDBH 071900Z 27007KT 9999 FEW022CB SCT025 BKN080 BKN300 29/22 Q1012 CB/SE/S/N', 'MDBH 071800Z 27006KT 9999 FEW022CB SCT022 BKN080 BKN300 28/23 Q1013 CB/SE/S', 'MDBH 071700Z 27006KT 9999 FEW022CB SCT024 BKN080 BKN300 28/22 Q1013 CB/SE/S', 'MDBH 071600Z 29005KT 9999 FEW022CB SCT025 BKN080 BKN300 29/22 Q1014 CB/SE/S', 'MDBH 071500Z 29006KT 9999 FEW022CB FEW022 SCT080 BKN300 27/22 Q1014 CB/SE', 'MDBH 071400Z 29006KT 9999 FEW020CB FEW020 SCT080 25/22 Q1014 CB/SE', 'MDBH 071300Z 29005KT 9999 SCT018 BKN080 BKN300 24/21 Q1014', 'MDBH 071200Z 27006KT 9999 FEW018 SCT080 23/21 Q1012', 'MDBH 070000Z 00000KT 9999 FEW020 SCT300 27/23 Q1009 METAR MDJB 070000Z 26009KT SCT018 28/24 Q1006 METAR MDSD 070000Z 23016G28KT 9999 FEW018 27/23 Q1006', 'MDBH 062300Z 00000KT 9999 FEW020 SCT080 BKN300 29/25 Q1008', 'MDBH 062200Z 00000KT 9999 FEW022 SCT100 BKN300 30/26 Q1007', 'MDBH 062100Z 27005KT 9999 FEW022 SCT100 30/25 Q1007', 'MDBH 062000Z 27005KT 9999 FEW022 SCT300 29/25 Q1008', 'MDBH 061900Z 27008KT 9999 FEW020 SCT300 27/24 Q1009', 'MDBH 061800Z 27008KT 9999 FEW018CB SCT018 BKN080 BKN300 25/23 Q1010 CB/SW/N METAR MDJB 061800Z 00000KT 9999 BKN020 32/23 Q1007', 'MDBH 061700Z 27006KT 9999 FEW016CB SCT018 BKN080 BKN300 24/23 Q1011 CB/E/SE/NW/N METAR MDJB 061700Z 18015KT 9999 BKN020 31/23 Q1007', 'MDBH 061600Z 27007KT 8000 -RA FEW016CB SCT016 OVC070 23/22 Q1012 CB/E/SE/NW', 'MDBH 061500Z 29008KT 9999 FEW018CB SCT018 BKN080 24/22 Q1012 CB/E/SE/NW', 'MDBH 061400Z 29006KT 9999 FEW018CB SCT018 SCT100 24/23 Q1011 RERA CB/E/SE/NW', 'MDBH 061300Z 29008KT 8000 -RA FEW018CB SCT018 SCT080 24/23 Q1010 CB/W/NW', 'MDBH 061200Z 13006KT 9999 FEW018CB SCT018 SCT080 25/24 Q1008 CB/SE/W', 'MDBH 060000Z 13010KT 9999 SCT018 BKN300 25/23 Q1006', 'MDBH 052300Z 13010KT 9999 SCT020 BKN300 25/23 Q1006', 'MDBH 052200Z 13012KT 9999 SCT022 BKN300 27/23 Q1006', 'MDBH 052100Z 13010KT 9999 SCT022 BKN300 27/24 Q1007', 'MDBH 052000Z 13010KT 9999 SCT022 BKN300 28/24 Q1008']","['2024-02-08 19:00:00', '2024-02-08 18:00:00', '2024-02-08 17:00:00', '2024-02-08 15:59:00', '2024-02-08 15:00:00', '2024-02-08 14:00:00', '2024-02-08 13:00:00', '2024-02-08 12:00:00', '2024-02-08 00:00:00', '2024-02-07 23:00:00', '2024-02-07 22:00:00', '2024-02-07 21:00:00', '2024-02-07 20:00:00', '2024-02-07 19:00:00', '2024-02-07 18:00:00', '2024-02-07 17:00:00', '2024-02-07 16:00:00', '2024-02-07 15:00:00', '2024-02-07 14:00:00', '2024-02-07 13:00:00', '2024-02-07 12:00:00', '2024-02-07 00:00:00', '2024-02-06 23:00:00', '2024-02-06 22:00:00', '2024-02-06 21:00:00', '2024-02-06 20:00:00', '2024-02-06 19:00:00', '2024-02-06 18:00:00', '2024-02-06 17:00:00', '2024-02-06 16:00:00', '2024-02-06 15:00:00', '2024-02-06 14:00:00', '2024-02-06 13:00:00', '2024-02-06 12:00:00', '2024-02-06 00:00:00', '2024-02-05 23:00:00', '2024-02-05 22:00:00', '2024-02-05 21:00:00', '2024-02-05 20:00:00']"
Dominican-republic, La Romana International Airport (LRM/MDLR) ,"['MDLR 081900Z 36012KT 9999 BKN020 28/23 Q1014', 'MDLR 081800Z 36014KT 9999 SCT020 28/21 Q1014', 'MDLR 081700Z 36008KT 9999 SCT020 29/23 Q1015', 'MDLR 081600Z 36012KT 9999 SCT020 28/22 Q1015', 'MDLR 081600Z 36012KT 9999 SCT020 28/22 Q1015', 'MDLR 081500Z 36012KT 9999 FEW020 26/21 Q1016 NOSIG', 'MDLR 081400Z 36012KT 9999 FEW018 25/24 Q1016 NOSIG', 'MDLR 081300Z 36006KT 9999 FEW018 20/19 Q1015 NOSIG', 'MDLR 081200Z 36004KT 9999 FEW016 19/18 Q1014 NOSIG', 'MDLR 081100Z 00000KT 9999 FEW016 19/18 Q1013 NOSIG- METAR MDCY 081100Z 00000KT 9999 SCT018 SCT070 20/19 Q1013', 'MDLR 080300Z 00000KT 99999 FEW014CB BKN016 BKN070 22/22 Q1014 CB/SW/W', 'MDLR 080200Z 00000KT 9999 FEW014CB BKN016 BKN070 22/21 Q1013 CB-SE/S/SW', 'MDLR 080100Z 00000KT 9999 FEW014CB BKN016 BKN070 22/22 Q1013 RETS/RA CB/NE/SW/NW', 'MDLR 080000Z 00000KT 6000 TSRA FEW014CB BKN016 BKN070 22/22 Q1012 CB/NE/E/SW/NW', 'MDLR 072300Z 00000KT 6000 TSRA FEW014CB BKN016 BKN070 23/23 Q1011 CB/E/SE/S/SW', 'MDLR 072200Z 00000KT 6000 TSRA FEW016CB BKN018 BKN070 25/24 Q1011 CB/NE/E/S/W/NW', 'MDLR 072100Z 21006KT 6000 TSRA FEW016CB BKN018 BKN070 25/24 Q1011 CB/NE/NW/N', 'MDLR 072000Z 20006KT 6000 TSRA FEW016CB BKN018 BKN070 26/24 Q1011 CB/NE/E/NW/N', 'MDLR 071900Z 27006KT 9999 FEW016CB SCT018 BKN070 27/25 Q1010 CB/SW/W/NW', 'MDLR 071800Z 18006KT 9999 FEW018CB SCT020 SCT070 26/25 Q1012 CB/SW/NW', 'MDLR 071700Z 18006KT 9999 FEW016CB SCT018 BKN070 25/24 Q1012 RETS/RA CB/NE/SW/NW', 'MDLR 071600Z 19006KT 9999 6000 TSRA FEW016CB BKN018 BKN070 26/25 Q1012 CB/NE/SW/NW', 'MDLR 071500Z 19004KT 6000 TSRA FEW016CB BKN018 BKN070 26/24 Q1012 CB/NE/SE/S', 'MDLR 071400Z 00000KT 9999 SCT016 BKN070 25/24 Q1012', 'MDLR 071300Z 00000KT 9999 FEW018 BKN070 25/24 Q1011', 'MDLR 071200Z 00000KT 9999 SCT016 BKN070 25/23 Q1011', 'MDLR 071100Z 00000KT 9999 BKN016 22/21 Q1010', 'MDLR 070300Z 00000KT 9999 FEW018 26/23 Q1009', 'MDLR 070200Z 00000KT 9999 FEW018 26/24 Q1009', 'MDLR 070100Z 20008KT 9999 FEW018 26/23 Q1009', 'MDLR 070100Z 20008KT 9999 FEW018 26/23 Q1009', 'MDLR 070000Z 25010KT 9999 FEW018 SCT070 26/23 Q1008', 'MDLR 062300Z 24008KT 9999 FEW018 BKN070 26/25 Q1007', 'MDLR 062200Z 22008KT 9999 FEW020 SCT300 28/25 Q1007', 'MDLR 062100Z 20010KT 9999 FEW020 29/25 Q1007', 'MDLR 062000Z 22010KT 9999 FEW020 29/25 Q1007', 'MDLR 061900Z 23015KT 9999 BKN020 29/25 Q1007', 'MDLR 061800Z 23018KT 9999 BKN020 29/26 Q1008', 'MDLR 061700Z 25010KT 9999 SCT020 29/27 Q1009', 'MDLR 061600Z 25012KT 9999 SCT020 29/26 Q1010', 'MDLR 061500Z 25015KT 9999 SCT020 29/26 Q1010', 'MDLR 061400Z 25012KT 9999 FEW018 28/26 Q1010', 'MDLR 061300Z 23010KT 9999 FEW018 27/25 Q1009', 'MDLR 061200Z 20008KT 9999 SCT016 26/25 Q1008', 'MDLR 061100Z 00000KT 9999 SCT016 24/23 Q1008', 'MDLR 060300Z 20008KT 9999 SCT018 BKN300 26/25 Q1009', 'MDLR 060300Z 20008KT 9999 SCT018 BKN300 26/25 Q1009', 'MDLR 060200Z 19008KT 9999 SCT018 BKN300 26/25 Q1009', 'MDLR 060200Z 19008KT 9999 SCT018 BKN300 26/25 Q1009', 'MDLR 060100Z 18004KT 9999 SCT018 SCT300 26/25 Q1008', 'MDLR 060000Z 18005KT 9999 SCT018 SCT300 26/25 Q1007', 'MDLR 052300Z 20006KT 9999 SCT018 SCT300 26/25 Q1007', 'MDLR 052200Z 22008KT 9999 BKN020 27/26 Q1007', 'MDLR 052100Z 19012KT 9999 BKN020 28/26 Q1006', 'MDLR 052000Z 18015KT 9999 BKN020 28/26 Q1006']","['2024-02-08 19:00:00', '2024-02-08 18:00:00', '2024-02-08 17:00:00', '2024-02-08 16:00:00', '2024-02-08 15:59:00', '2024-02-08 15:00:00', '2024-02-08 14:00:00', '2024-02-08 13:00:00', '2024-02-08 12:00:00', '2024-02-08 11:00:00', '2024-02-08 03:00:00', '2024-02-08 02:00:00', '2024-02-08 01:00:00', '2024-02-08 00:00:00', '2024-02-07 23:00:00', '2024-02-07 22:00:00', '2024-02-07 21:00:00', '2024-02-07 20:00:00', '2024-02-07 19:00:00', '2024-02-07 18:00:00', '2024-02-07 17:00:00', '2024-02-07 16:00:00', '2024-02-07 15:00:00', '2024-02-07 14:00:00', '2024-02-07 13:00:00', '2024-02-07 12:00:00', '2024-02-07 11:00:00', '2024-02-07 03:00:00', '2024-02-07 02:00:00', '2024-02-07 01:00:00', '2024-02-07 00:59:00', '2024-02-07 00:00:00', '2024-02-06 23:00:00', '2024-02-06 22:00:00', '2024-02-06 21:00:00', '2024-02-06 20:00:00', '2024-02-06 19:00:00', '2024-02-06 18:00:00', '2024-02-06 17:00:00', '2024-02-06 16:00:00', '2024-02-06 15:00:00', '2024-02-06 14:00:00', '2024-02-06 13:00:00', '2024-02-06 12:00:00', '2024-02-06 11:00:00', '2024-02-06 03:00:00', '2024-02-06 02:59:00', '2024-02-06 02:00:00', '2024-02-06 01:59:00', '2024-02-06 01:00:00', '2024-02-06 00:00:00', '2024-02-05 23:00:00', '2024-02-05 22:00:00', '2024-02-05 21:00:00', '2024-02-05 20:00:00']"
Dominican-republic, Puerto Plata Gregorio Luperon International Airport (POP/MDPP) ,"['MDPP 081900Z 02010KT 9999 BKN020 26/20 Q1015', 'MDPP 081800Z 02012KT 9999 BKN018 26/20 Q1016', 'MDPP 081700Z 03012KT 9999 BKN018 25/20 Q1016', 'MDPP 081600Z 03012KT 9999 BKN018 26/21 Q1017', 'MDPP 081500Z 03016KT 9999 BKN018 24/21 Q1016', 'MDPP 081400Z 03010KT 9999 BKN018 24/21 Q1016', 'MDPP 081300Z 36008KT 9999 BKN017 22/21 Q1015', 'MDPP 081200Z 27005KT 9999 BKN017 19/19 Q1014 RERA', 'MDPP 081100Z 27005KT 3000 RA BKN012 18/18 Q1014', 'MDPP 080900Z 00000KT 3000 +RA BKN014 18/18 Q1012', 'MDPP 080600Z 00000KT 9999 FEW016 20/18 Q1012', 'MDPP 080300Z 00000KT 9999 FEW018 21/18 Q1013', 'MDPP 080200Z 00000KT 9999 FEW018 21/18 Q1013', 'MDPP 080100Z 27005KT 9999 FEW018 22/18 Q1012', 'MDPP 080000Z 27010KT 9999 FEW018 23/18 Q1011', 'MDPP 072300Z 24007KT 9999 SCT018 SCT300 24/18 Q1011', 'MDPP 072200Z 27015KT 9999 SCT018 SCT070 SCT300 26/19 Q1010', 'MDPP 072100Z 30010KT 9999 BKN020 26/19 Q1010', 'MDPP 072000Z 27010KT 9999 BKN020 26/18 Q1010', 'MDPP 071900Z 30015KT 9999 SCT022 27/19 Q1011', 'MDPP 071800Z 27012KT 9999 SCT022 27/18 Q1010', 'MDPP 071700Z 27012KT 9999 FEW020 SCT070 27/18 Q1011', 'MDPP 071600Z 27012KT 9999 FEW020 SCT070 27/18 Q1011', 'MDPP 071500Z 30012KT 9999 FEW020 SCT070 27/20 Q1011', 'MDPP 071400Z 30012KT 9999 FEW020 27/19 Q1011', 'MDPP 071300Z 00000KT 9999 FEW018 26/23 Q1011', 'MDPP 071200Z 00000KT 9999 SCT018 24/23 Q1010', 'MDPP 071100Z 00000KT 9999 FEW018 23/22 Q1009', 'MDPP 070900Z 00000KT 9999 FEW018 22/22 Q1007', 'MDPP 070600Z 00000KT 9999 FEW018 23/23 Q1007', 'MDPP 070300Z 00000KT 9999 SCT018 25/23 Q1007', 'MDPP 070200Z 00000KT 9999 FEW018 24/23 Q1007', 'MDPP 070100Z 00000KT 9999 FEW018 24/24 Q1006', 'MDPP 070100Z 00000KT 9999 FEW018 24/24 Q1006', 'MDPP 070000Z 00000KT 9999 FEW018 25/24 Q1006', 'MDPP 062300Z 24006KT 9999 FEW018 26/24 Q1005', 'MDPP 062200Z 33006KT 9999 FEW018 26/23 Q1004', 'MDPP 062100Z 33006KT 9999 FEW018 27/24 Q1004', 'MDPP 062000Z 33008KT 9999 FEW018 27/24 Q1004', 'MDPP 061900Z 00000KT 9999 FEW018 28/24 Q1004 RERA', 'MDPP 061800Z 18006KT 7000 -RA BKN016 OVC070 22/22 Q1007', 'MDPP 061700Z 20006KT 7000 -RA BKN016 OVC070 22/21 Q1007', 'MDPP 061600Z 21004KT 6000 RA BKN016 OVC070 22/21 Q1008', 'MDPP 061500Z 24004KT 6000 -RA BKN016 OVC070 22/20 Q1009', 'MDPP 061400Z 30016KT 6000 RA OVC016 22/22 Q1009', 'MDPP 061300Z 30016KT 9999 OVC016 23/23 Q1007', 'MDPP 061200Z 00000KT 9999 BKN018 23/22 Q1005', 'MDPP 061100Z 00000KT 9999 SCT018 22/21 Q1005', 'MDPP 060900Z 00000KT 9999 FEW018 22/21 Q1003', 'MDPP 060600Z 00000KT 9999 FEW018 21/20 Q1003', 'MDPP 060600Z 00000KT 9999 FEW018 21/20 Q1003', 'MDPP 060300Z 00000KT 9999 FEW018 23/22 Q1005', 'MDPP 060300Z 00000KT 9999 FEW018 23/22 Q1005', 'MDPP 060200Z 00000KT 9999 FEW018 24/23 Q1005', 'MDPP 060100Z 00000KT 9999 FEW018 25/23 Q1005', 'MDPP 060000Z 00000KT 9999 SCT018 26/24 Q1004', 'MDPP 052300Z 00000KT 9999 SCT018 27/24 Q1004', 'MDPP 052200Z 10004KT 9999 FEW018 27/24 Q1004', 'MDPP 052100Z 10006KT 9999 FEW020 27/23 Q1003', 'MDPP 052000Z 10008KT 9999 SCT020 28/23 Q1003']","['2024-02-08 19:00:00', '2024-02-08 18:00:00', '2024-02-08 17:00:00', '2024-02-08 16:00:00', '2024-02-08 15:00:00', '2024-02-08 14:00:00', '2024-02-08 13:00:00', '2024-02-08 12:00:00', '2024-02-08 11:00:00', '2024-02-08 09:00:00', '2024-02-08 06:00:00', '2024-02-08 03:00:00', '2024-02-08 02:00:00', '2024-02-08 01:00:00', '2024-02-08 00:00:00', '2024-02-07 23:00:00', '2024-02-07 22:00:00', '2024-02-07 21:00:00', '2024-02-07 20:00:00', '2024-02-07 19:00:00', '2024-02-07 18:00:00', '2024-02-07 17:00:00', '2024-02-07 16:00:00', '2024-02-07 15:00:00', '2024-02-07 14:00:00', '2024-02-07 13:00:00', '2024-02-07 12:00:00', '2024-02-07 11:00:00', '2024-02-07 09:00:00', '2024-02-07 06:00:00', '2024-02-07 03:00:00', '2024-02-07 02:00:00', '2024-02-07 01:00:00', '2024-02-07 00:59:00', '2024-02-07 00:00:00', '2024-02-06 23:00:00', '2024-02-06 22:00:00', '2024-02-06 21:00:00', '2024-02-06 20:00:00', '2024-02-06 19:00:00', '2024-02-06 18:00:00', '2024-02-06 17:00:00', '2024-02-06 16:00:00', '2024-02-06 15:00:00', '2024-02-06 14:00:00', '2024-02-06 13:00:00', '2024-02-06 12:00:00', '2024-02-06 11:00:00', '2024-02-06 09:00:00', '2024-02-06 06:00:00', '2024-02-06 05:59:00', '2024-02-06 03:00:00', '2024-02-06 02:59:00', '2024-02-06 02:00:00', '2024-02-06 01:00:00', '2024-02-06 00:00:00', '2024-02-05 23:00:00', '2024-02-05 22:00:00', '2024-02-05 21:00:00', '2024-02-05 20:00:00']"
Dominican-republic, Punta Cana International Airport (PUJ/MDPC) ,"['MDPC 081900Z 35010G25KT 9999 SCT022 26/19 Q1014', 'MDPC 081800Z 34014KT 9999 SCT022 28/19 Q1014', 'MDPC 081700Z 34013KT 9999 SCT022 28/19 Q1015', 'MDPC 081600Z 34016KT 9999 FEW022 27/20 Q1015', 'MDPC 081500Z 34010KT 9999 FEW021 27/20 Q1016', 'MDPC 081400Z 32007KT 9999 FEW020 25/19 Q1015', 'MDPC 081300Z 31007KT 9999 FEW018 22/17 Q1014', 'MDPC 081200Z 30004KT 9999 SCT016 21/17 Q1014', 'MDPC 081100Z 31004KT 9999 SCT015 21/17 Q1013', 'MDPC 081000Z 00000KT 9999 BKN015 21/19 Q1012', 'MDPC 080900Z 00000KT 9999 BKN015 21/20 Q1012', 'MDPC 080800Z 00000KT 9999 BKN015 21/20 Q1012', 'MDPC 080700Z 00000KT 9999 BKN015 22/21 Q1012', 'MDPC 080600Z 00000KT 9999 BKN016 22/21 Q1013', 'MDPC 080500Z 23004KT 9999 BKN016 22/21 Q1014', 'MDPC 080400Z 00000KT 9999 BKN016 22/21 Q1014', 'MDPC 080300Z 00000KT 9999 BKN016 22/21 Q1013', 'MDPC 080200Z 00000KT 9999 BKN015 SCT070 22/21 Q1013', 'MDPC 080100Z 00000KT 8000-RA BKN014 BKN070 22/21 Q1013', 'MDPC 080018Z 26005KT 8000-RA BKN014 BKN070 22/21 Q1013', 'MDPC 080000Z 00000KT 9999 BKN015 BKN070 23/21 Q1013 RERA', 'MDPC 072300Z 00000KT 8000-RA BKN014 BKN070 22/21 Q1011', 'MDPC 072200Z 31004KT 8000-RA BKN014 BKN070 25/21 Q1012', 'MDPC 072100Z 00000KT 290V010 8000 -RA BKN014 OVC070 25/23 Q1011', 'MDPC 072000Z 32005KT 7000 -RA BKN014 OVC070 26/22 Q1011', 'MDPC 071900Z 22007KT 9999 BKN018 BKN080 28/21 Q1011', 'MDPC 071800Z 23007KT 9999 BKN018 BKN070 28/21 Q1011', 'MDPC 071700Z 25009KT 8000 VCSH BKN018 BKN070 28/22 Q1011 TEMPO 8000-SHRA', 'MDPC 071600Z 25007KT 9999 BKN018 BKN070 27/23 Q1012', 'MDPC 071500Z 26006KT 9999 BKN018 SCT070 27/23 Q1013 RERA', 'MDPC 071400Z 24007KT 8000-RA BKN016 SCT070 27/23 Q1012', 'MDPC 071300Z 24006KT 9999 BKN017 25/23 Q1011', 'MDPC 071200Z 25006KT 9999 BKN018 SCT080 24/22 Q1011', 'MDPC 071100Z 24010KT 9999 BKN017 BKN080 24/22 Q1010', 'MDPC 071000Z 21006KT 9999 BKN017 24/22 Q1008 RESH', 'MDPC 070900Z 20006KT 9999 SCT017 23/21 Q1008', 'MDPC 070800Z 25006KT 9999 SCT016 24/21 Q1008', 'MDPC 070700Z 22005KT 9999 FEW016 22/21 Q1008', 'MDPC 070600Z 23005KT 9999 FEW016 23/21 Q1008', 'MDPC 070500Z 24005KT 9999 FEW016 24/21 Q1009', 'MDPC 070400Z 20008KT 9999 FEW015CB FEW016 25/22 Q1009 CB/SE DSIPTG', 'MDPC 070200Z 20010KT 9999 FEW016CB SCT018 25/21 Q1009 CB E/SE', 'MDPC 070100Z 22008KT 9999 SCT018 SCT080 26/21 Q1008', 'MDPC 070100Z 22008KT 9999 SCT018 SCT080 26/21 Q1008', 'MDPC 070000Z 21008KT 9999 SCT019 SCT080 27/22 Q1007', 'MDPC 062300Z 22011KT 9999 BKN019 27/21 Q1007', 'MDPC 062200Z 24014KT 9999 FEW020 29/21 Q1007', 'MDPC 062100Z 23016KT 9999 FEW020 30/21 Q1006', 'MDPC 062000Z 24010KT 9999 BKN019 28/24 Q1007 RERA', 'MDPC 061900Z 23020KT 9999 BKN020 SCT080 32/23 Q1007', 'MDPC 061800Z 22018KT 9999 SCT020 BKN080 31/23 Q1007', 'MDPC 061700Z 21020KT 9999 FEW019 BKN080 31/23 Q1008', 'MDPC 061600Z 22020KT 9999 SCT018 30/23 Q1009', 'MDPC 061500Z 21015KT 9999 SCT018 SCT080 30/24 Q1009', 'MDPC 061400Z 21012KT 9999 BKN018 SCT080 28/25 Q1010', 'MDPC 061300Z 21010KT 9999 SCT018 SCT080 27/24 Q1009', 'MDPC 061200Z 21010KT 9999 FEW018 26/24 Q1008', 'MDPC 061100Z 21012KT 9999 FEW018 26/24 Q1007', 'MDPC 061000Z 20005KT 9999 SCT018 SCT300 25/24 Q1007', 'MDPC 060900Z 23005KT 9999 SCT018 SCT300 26/24 Q1006', 'MDPC 060800Z 21008KT 9999 SCT018 SCT300 26/24 Q1006', 'MDPC 060700Z 21010KT 9999 FEW018 SCT300 26/24 Q1006', 'MDPC 060600Z 20010KT 9999 FEW018 SCT300 26/24 Q1007', 'MDPC 060600Z 20010KT 9999 FEW018 SCT300 26/24 Q1007', 'MDPC 060500Z 19008KT 9999 FEW018 BKN300 26/24 Q1007', 'MDPC 060400Z 19010KT 9999 SCT018 BKN300 26/24 Q1008', 'MDPC 060300Z 18010KT 9999 SCT018 BKN300 26/24 Q1008', 'MDPC 060300Z 18010KT 9999 SCT018 BKN300 26/24 Q1008', 'MDPC 060200Z 18010KT 9999 SCT018 BNK300 26/24 Q1006', 'MDPC 060100Z 18012KT 9999 SCT018 BKN300 27/24 Q1006', 'MDPC 060000Z 18008KT 9999 FEW018 SCT300 26/24 Q1007', 'MDPC 052300Z 19010KT 9999 FEW020 SCT300 27/24 Q1007', 'MDPC 052200Z 19015KT 9999 FEW020 BKN300 28/24 Q1006', 'MDPC 052100Z 18014KT 9999 FEW018 BKN300 29/24 Q1006', 'MDPC 052000Z 18014G24KT 9999 SCT019 SCT300 29/24 Q1006']","['2024-02-08 19:00:00', '2024-02-08 18:00:00', '2024-02-08 17:00:00', '2024-02-08 16:00:00', '2024-02-08 15:00:00', '2024-02-08 14:00:00', '2024-02-08 13:00:00', '2024-02-08 12:00:00', '2024-02-08 11:00:00', '2024-02-08 10:00:00', '2024-02-08 09:00:00', '2024-02-08 08:00:00', '2024-02-08 07:00:00', '2024-02-08 06:00:00', '2024-02-08 05:00:00', '2024-02-08 04:00:00', '2024-02-08 03:00:00', '2024-02-08 02:00:00', '2024-02-08 01:00:00', '2024-02-08 00:18:00', '2024-02-08 00:00:00', '2024-02-07 23:00:00', '2024-02-07 22:00:00', '2024-02-07 21:00:00', '2024-02-07 20:00:00', '2024-02-07 19:00:00', '2024-02-07 18:00:00', '2024-02-07 17:00:00', '2024-02-07 16:00:00', '2024-02-07 15:00:00', '2024-02-07 14:00:00', '2024-02-07 13:00:00', '2024-02-07 12:00:00', '2024-02-07 11:00:00', '2024-02-07 10:00:00', '2024-02-07 09:00:00', '2024-02-07 08:00:00', '2024-02-07 07:00:00', '2024-02-07 06:00:00', '2024-02-07 05:00:00', '2024-02-07 04:00:00', '2024-02-07 02:00:00', '2024-02-07 01:00:00', '2024-02-07 00:59:00', '2024-02-07 00:00:00', '2024-02-06 23:00:00', '2024-02-06 22:00:00', '2024-02-06 21:00:00', '2024-02-06 20:00:00', '2024-02-06 19:00:00', '2024-02-06 18:00:00', '2024-02-06 17:00:00', '2024-02-06 16:00:00', '2024-02-06 15:00:00', '2024-02-06 14:00:00', '2024-02-06 13:00:00', '2024-02-06 12:00:00', '2024-02-06 11:00:00', '2024-02-06 10:00:00', '2024-02-06 09:00:00', '2024-02-06 08:00:00', '2024-02-06 07:00:00', '2024-02-06 06:00:00', '2024-02-06 05:59:00', '2024-02-06 05:00:00', '2024-02-06 04:00:00', '2024-02-06 03:00:00', '2024-02-06 02:59:00', '2024-02-06 02:00:00', '2024-02-06 01:00:00', '2024-02-06 00:00:00', '2024-02-05 23:00:00', '2024-02-05 22:00:00', '2024-02-05 21:00:00', '2024-02-05 20:00:00']"
Dominican-republic, Samana El Catey International Airport (AZS/MDCY) ,"['MDCY 081900Z 02018KT 8000 VCSH SCT022 25/21 Q1015', 'MDCY 081800Z 02018KT 9999 SCT022 26/21 Q1018', 'MDCY 081700Z 02012KT 8000 VCSH SCT018 SCT070 24/21 Q1016', 'MDCY 081600Z 36012KT 8000 VCSH SCT016 SCT070 22/21 Q1016 RESH', 'MDCY 081500Z 36016KT 360V020 8000 VCSH SCT020 SCT070 25/20 Q1016', 'MDCY 081400Z 29012KT 9999 SCT020 SCT070 23/19 Q1015', 'MDCY 081300Z 00000KT 9999 SCT018 SCT070 20/19 Q1015', 'MDCY 081200Z 00000KT 9999 SCT018 SCT070 20/19 Q1014', 'MDCY 080000Z 02010KT 9999 BKN018 BKN070 23/20 Q1011', 'MDCY 072300Z 36010KT 9999 BKN018 BKN070 24/19 Q1011', 'MDCY 072200Z 29008KT 9999 BKN020 BKN070 24/20 Q1010', 'MDCY 072100Z 09006KT 9999 BKN020 BKN070 24/20 Q1010', 'MDCY 072000Z 36012KT 9999 BKN020 BKN070 25/21 Q1010', 'MDCY 071900Z 36014KT 8000 VCSH BKN020 BKN070 26/22 Q1011', 'MDCY 071800Z 09012KT 8000 VCSH BKN020 SCT070 27/22 Q1011 METAR MDAB 071800Z 36006KT 9999 SCT018 BKN070 27/24 Q1011', 'MDCY 071700Z 09006KT 9999 SCT022 SCT080 28/23 Q1011', 'MDCY 071600Z 07006KT 9999 BKN020 SCT080 26/22 Q1012', 'MDCY 071500Z 06006KT 9999 BKN018 SCT080 26/22 Q1012', 'MDCY 071400Z 00000KT 9999 BKN017 SCT070 23/21 Q1011', 'MDCY 071300Z 00000KT 9999 BKN016 SCT070 22/21 Q1011', 'MDCY 071200Z 00000KT 9999 FEW016 SCT070 21/21 Q1010', 'MDCY 071100Z 00000KT 9999 SCT016 21/20 Q1009', 'MDCY 070000Z 00000KT 9999 FEW018 25/22 Q1007', 'MDCY 062300Z 04009KT 9999 FEW018 25/23 Q1006', 'MDCY 062200Z 05008KT 9999 FEW020 26/23 Q1004', 'MDCY 062100Z 05004KT 9999 FEW020 26/23 Q1005', 'MDCY 062000Z 06006KT 9999 SCT018 25/22 Q1006', 'MDCY 061900Z 02004KT 9999 BKN017 25/22 Q1007 RERA', 'MDCY 061800Z 33006KT 8000 -RA BKN017 25/22 Q1009', 'MDCY 061700Z 03008KT 9999 BKN018 26/23 Q1009', 'MDCY 061600Z 35008KT 9999 BKN018 26/23 Q1009', 'MDCY 061500Z 04008KT 9999 SCT018 BKN300 28/23 Q1010', 'MDCY 061400Z 32004KT 9999 BKN017 26/23 Q1009', 'MDCY 061300Z 15004KT 9999 BKN016 26/23 Q1006', 'MDCY 061200Z 24004KT 9999 BKN016 BKN300 26/23 Q1006', 'MDCY 061100Z 00000KT 9999 SCT016 BKN300 26/23 Q1006', 'MDCY 060000Z 13004KT 9999 SCT018 BKN300 27/22 Q1006', 'MDCY 052300Z 19004KT 9999 BKN018 27/22 Q1005', 'MDCY 052200Z 16006KT 9999 SCT020 BKN300 28/22 Q1004', 'MDCY 052100Z 16004KT 9999 FEW020 BKN300 29/23 Q1004', 'MDCY 052000Z 00000KT 9999 FEW020 BKN300 31/22 Q1004']","['2024-02-08 19:00:00', '2024-02-08 18:00:00', '2024-02-08 17:00:00', '2024-02-08 15:59:00', '2024-02-08 15:00:00', '2024-02-08 14:00:00', '2024-02-08 13:00:00', '2024-02-08 12:00:00', '2024-02-08 00:00:00', '2024-02-07 23:00:00', '2024-02-07 22:00:00', '2024-02-07 21:00:00', '2024-02-07 20:00:00', '2024-02-07 19:00:00', '2024-02-07 18:00:00', '2024-02-07 17:00:00', '2024-02-07 16:00:00', '2024-02-07 15:00:00', '2024-02-07 14:00:00', '2024-02-07 13:00:00', '2024-02-07 12:00:00', '2024-02-07 11:00:00', '2024-02-07 00:00:00', '2024-02-06 23:00:00', '2024-02-06 22:00:00', '2024-02-06 21:00:00', '2024-02-06 20:00:00', '2024-02-06 19:00:00', '2024-02-06 18:00:00', '2024-02-06 17:00:00', '2024-02-06 16:00:00', '2024-02-06 15:00:00', '2024-02-06 14:00:00', '2024-02-06 13:00:00', '2024-02-06 12:00:00', '2024-02-06 11:00:00', '2024-02-06 00:00:00', '2024-02-05 23:00:00', '2024-02-05 22:00:00', '2024-02-05 21:00:00', '2024-02-05 20:00:00']"
Dominican-republic, Santiago de los Caballeros Cibao International Airport (STI/MDST) ,"['MDST 081900Z 32007KT 9999 BKN018 26/22 Q1015 RERA', 'MDST 081820Z 34007KT 7000-RA BKN014 22/21 Q1016', 'MDST 081800Z 34008KT 8000 VCSH BKN014 23/22 Q1016', 'MDST 081700Z 27006KT 230V300 7000 -RA BKN014 BKN070 24/23 Q1016', 'MDST 081600Z 29008KT 240V320 8000 VCSH BKN014 BKN070 21/20 Q1017 RERA', 'MDST 081500Z 29008KT 7000 -RA BKN012 BKN070 20/20 Q1017', 'MDST 081400Z 28006KT 240V310 7000 -RA BKN014 BKN070 21/21 Q1017', 'MDST 081300Z 30008KT 260V320 7000 -RA BKN014 BKN070 19/18 Q1016', 'MDST 081200Z 28006KT 9999 BKN015 SCT070 18/18 Q1015', 'MDST 081100Z 29008KT 9999 BKN015 17/17 Q1014', 'MDST 081000Z 29008KT 9999 BKN015 17/17 Q1013', 'MDST 080900Z 27006KT 9999 BKN016 17/17 Q1013', 'MDST 080800Z 29004KT 9999 SCT016 17/17 Q1012', 'MDST 080700Z 27004KT 220V310 9999 FEW016 SCT070 17/16 Q1013', 'MDST 080600Z 00000KT 9999 FEW016 SCT070 17/17 Q1013', 'MDST 080500Z VRB03KT 9999 FEW016 SCT070 18/17 Q1013', 'MDST 080400Z 28004KT 9999 FEW016 SCT070 18/17 Q1014', 'MDST 080300Z 32006KT 9999 FEW016 SCT070 18/16 Q1013', 'MDST 080200Z VRB03KT 9999 SCT018 SCT070 20/17 Q1014', 'MDST 080100Z 25006KT 220V280 9999 SCT018 SCT070 21/17 Q1013', 'MDST 080000Z 27007KT 9999 SCT020 SCT070 23/18 Q1012', 'MDST 072300Z 27007KT 240V300 9999 SCT020 SCT070 24/18 Q1011', 'MDST 072200Z 28011KT 9999 SCT026 BKN070 26/18 Q1010', 'MDST 072100Z 27009KT 240V300 9999 SCT026 BKN070 26/18 Q1010', 'MDST 072000Z 28012KT 9999 SCT025 BKN070 26/19 Q1010', 'MDST 071900Z 27012KT 230V320 9999 BKN023 27/20 Q1011', 'MDST 071800Z 28014KT 250V310 9999 FEW022 SCT080 28/19 Q1010', 'MDST 071700Z 28013KT 250V310 9999 SCT022 BKN070 26/21 Q1012', 'MDST 071600Z 29015KT 9999 FEW022 SCT070 27/20 Q1012', 'MDST 071500Z 28015KT 250V310 9999 FEW020 SCT070 26/21 Q1012', 'MDST 071400Z 27010KT 240V300 9999 SCT018 SCT070 24/21 Q1012', 'MDST 071300Z 27004 220V300 9999 FEW016 22/21 Q1011', 'MDST 071200Z VRB03KT 210V270 9999 FEW016 21/20 Q1010', 'MDST 071100Z 24004KT 180V280 9999 SCT016 21/21 Q1009', 'MDST 071000Z 28008KT 9999 SCT016 21/21 Q1009', 'MDST 070900Z 27010KT 9999 BKN014 22/21 Q1008', 'MDST 070800Z 29004KT 9999 BKN014 22/21 Q1008', 'MDST 070700Z VRB03KT 170V310 9999 BKN015 21/21 Q1008', 'MDST 070600Z 25004KT 220V280 9999 BKN015 21/21 Q1008', 'MDST 070500Z 22004KT 9999 SCT016 22/21 Q1008', 'MDST 070400Z 17004KT 9999 SCT016 21/19 Q1008', 'MDST 070300Z 00000KT 9999 SCT017 21/18 Q1007', 'MDST 070200Z 28008KT 9999 FEW018 23/19 Q1008', 'MDST 070100Z 22004KT 190V280 9999 SCT018 25/20 Q1007', 'MDST 070000Z VRB03KT 220V320 9999 FEW019 25/21 Q1006', 'MDST 062300Z 28004KT 9999 FEW020 24/20 Q1005', 'MDST 062200Z VRB03KT 9999 FEW020 28/23 Q1005', 'MDST 062100Z 31008KT 9999 FEW022 29/22 Q1005', 'MDST 062000Z VRB03KT 9999 FEW022 27/23 Q1004', 'MDST 061900Z 34004KT 290V070 9999 FEW018 26/23 Q1006', 'MDST 061800Z 00000KT 9999 BKN014 BKN070 22/21 Q1008', 'MDST 061700Z 00000KT 9999 BKN014 OVC070 21/19 Q1008 RERA', 'MDST 061600Z 00000KT 8000 -RA BKN014 OVC070 20/20 Q1009', 'MDST 061500Z 28014KT 5000 RA BKN014 OVC070 21/20 Q1009', 'MDST 061400Z 28016KT 5000 RA BKN014 OVC070 23/22 Q1009', 'MDST 061300Z 27005KT 230V290 8000 -RA BKN015 OVC070 22/22 Q1007', 'MDST 061200Z 00000KT 5000 BR FEW015CB SCT016 BKN300 22/21 Q1006 BR/ALL QDS CB/S/SW', 'MDST 061100Z 29005KT 9999 SCT016 BKN300 21/21 Q1005', 'MDST 061000Z 20005KT 9999 SCT018 SCT300 25/24 Q1007', 'MDST 060900Z 31003KT 220V340 5000 BR SCT014 BKN300 21/20 Q1003 BR/ALLQDS', 'MDST 060800Z 00000KT 4000 BR SCT014 BKN300 20/19 Q1003 BR/ALL QDS', 'MDST 060700Z 00000KT 9999 FEW015 20/19 Q1003', 'MDST 060600Z 00000KT 9999 FEW014 20/19 Q1004', 'MDST 060600Z 00000KT 9999 FEW014 20/19 Q1004', 'MDST 060500Z 00000KT 9999 FEW014 20/19 Q1005', 'MDST 060400Z 00000KT 9999 FEW014 20/19 Q1006', 'MDST 060300Z 00000KT 9999 FEW014 22/20 Q1006', 'MDST 060300Z 00000KT 9999 FEW014 22/20 Q1006', 'MDST 060200Z 00000KT 9999 FEW016 22/20 Q1006', 'MDST 060100Z 00000KT 9999 FEW016 23/21 Q1005', 'MDST 060000Z 00000KT 9999 FEW018 25/23 Q1004', 'MDST 052300Z 00000KT 9999 FEW022 SCT300 26/21 Q1004', 'MDST 052200Z 04004KT 010V080 9999 FEW022 BKN300 29/21 Q1004', 'MDST 052100Z 11004KT 070V150 9999 FEW025 BKN300 30/21 Q1003', 'MDST 052000Z 11005KT 060V150 9999 FEW028 BKN300 32/20 Q1003']","['2024-02-08 19:00:00', '2024-02-08 18:20:00', '2024-02-08 18:00:00', '2024-02-08 17:00:00', '2024-02-08 16:00:00', '2024-02-08 15:00:00', '2024-02-08 14:00:00', '2024-02-08 13:00:00', '2024-02-08 12:00:00', '2024-02-08 11:00:00', '2024-02-08 10:00:00', '2024-02-08 09:00:00', '2024-02-08 08:00:00', '2024-02-08 07:00:00', '2024-02-08 06:00:00', '2024-02-08 05:00:00', '2024-02-08 04:00:00', '2024-02-08 03:00:00', '2024-02-08 02:00:00', '2024-02-08 01:00:00', '2024-02-08 00:00:00', '2024-02-07 23:00:00', '2024-02-07 22:00:00', '2024-02-07 21:00:00', '2024-02-07 20:00:00', '2024-02-07 19:00:00', '2024-02-07 18:00:00', '2024-02-07 17:00:00', '2024-02-07 16:00:00', '2024-02-07 15:00:00', '2024-02-07 14:00:00', '2024-02-07 13:00:00', '2024-02-07 12:00:00', '2024-02-07 11:00:00', '2024-02-07 10:00:00', '2024-02-07 09:00:00', '2024-02-07 08:00:00', '2024-02-07 07:00:00', '2024-02-07 06:00:00', '2024-02-07 05:00:00', '2024-02-07 04:00:00', '2024-02-07 03:00:00', '2024-02-07 02:00:00', '2024-02-07 01:00:00', '2024-02-07 00:00:00', '2024-02-06 23:00:00', '2024-02-06 22:00:00', '2024-02-06 21:00:00', '2024-02-06 20:00:00', '2024-02-06 19:00:00', '2024-02-06 18:00:00', '2024-02-06 17:00:00', '2024-02-06 16:00:00', '2024-02-06 15:00:00', '2024-02-06 14:00:00', '2024-02-06 13:00:00', '2024-02-06 12:00:00', '2024-02-06 11:00:00', '2024-02-06 10:00:00', '2024-02-06 09:00:00', '2024-02-06 08:00:00', '2024-02-06 07:00:00', '2024-02-06 06:00:00', '2024-02-06 05:59:00', '2024-02-06 05:00:00', '2024-02-06 04:00:00', '2024-02-06 03:00:00', '2024-02-06 02:59:00', '2024-02-06 02:00:00', '2024-02-06 01:00:00', '2024-02-06 00:00:00', '2024-02-05 23:00:00', '2024-02-05 22:00:00', '2024-02-05 21:00:00', '2024-02-05 20:00:00']"
Dominican-republic, Santo Domingo La Isabela International Airport (JBQ/MDJB) ,"['MDJB 081900Z 36015KT 9999 SCT020 28/20 Q1014', 'MDJB 081800Z 36008KT 9999 SCT020 28/19 Q1014', 'MDJB 081700Z 02015KT 9999 SCT020 28/19 Q1015', 'MDJB 081600Z 36015KT 9999 SCT020 27/20 Q1015', 'MDJB 081500Z 36015KT 9999 FEW020 26/20 Q1016', 'MDJB 081400Z 33007KT 9999 FEW017 24/20 Q1015', 'MDJB 081300Z 00000KT 9999 FEW016 SCT080 21/18 Q1015', 'MDJB 081200Z 00000KT 9999 FEW016 SCT080 17/16 Q1014', 'MDJB 081100Z 36006KT 9999 SCT016 16/16 Q1013', 'MDJB 080300Z 00000KT 9999 SCT016 BKN070 21/20 Q1013', 'MDJB 080200Z 00000KT 9999 SCT016 BKN070 22/20 Q1013', 'MDJB 080100Z 00000KT 9999 BKN016 BKN070 22/21 Q1012', 'MDJB 080000Z 00000KT 9999 BKN016 BKN070 23/21 Q1012', 'MDJB 072300Z 00000KT 9999 BKN016 BKN070 23/21 Q1011', 'MDJB 072230Z 36006KT 9999 BKN016 BKN070 XX/XX Q1010 RERA', 'MDJB 072100Z 36006KT 8000 -RA BKN016 BKN070 24/22 Q1010', 'MDJB 072000Z 36004KT 8000 -RA BKN018 BKN070 26/22 Q1010', 'MDJB 071900Z 12006KT 9999 BKN018 SCT070 28/22 Q1010', 'MDJB 071800Z 18008KT 9999 BKN018 SCT070 28/22 Q1010', 'MDJB 071700Z 12006KT 9999 SCT018 SCT070 30/22 Q1011', 'MDJB 071600Z 06008KT 9999 FEW018 29/22 Q1012', 'MDJB 071500Z 00000KT 9999 FEW018 27/22 Q1012', 'MDJB 071400Z 00000KT 9999 SCT018 26/21 Q1012', 'MDJB 071300Z 00000KT 9999 SCT016 22/20 Q1011', 'MDJB 071200Z 00000KT 9999 SCT016 20/19 Q1010', 'MDJB 071100Z 00000KT 9999 SCT016 23/22 Q1010', 'MDJB 070300Z 00000KT 9999 FEW016 26/25 Q1008', 'MDJB 070200Z 00000KT 9999 FEW018 27/25 Q1008', 'MDJB 070100Z 21005KT 9999 SCT018 27/25 Q1008', 'MDJB 062300Z 19014KT 9999 SCT018 28/24 Q1005', 'MDJB 062200Z 21014KT 9999 SCT020 29/24 Q1004', 'MDJB 062100Z 21014KT 9999 SCT020 31/24 Q1004', 'MDJB 062000Z 21012KT 9999 SCT020 31/24 Q1004', 'MDJB 061900Z 00000KT 9999 SCT020 32/23 Q1006', 'MDJB 061600Z 18014KT 9999 BKN018 29/23 Q1008 METAR MDSD 061600Z 21011G24KT 8000 VCSH BKN018 31/26 Q1008', 'MDJB 061500Z 18012KT 9999 SCT018 SCT300 29/23 Q1008', 'MDJB 061400Z 18014KT 9999 SCT0018 SCT300 27/24 Q1008', 'MDJB 061300Z 18010KT 9999 FEW016 SCT300 26/22 Q1007', 'MDJB 061200Z 18010KT 9999 FEW016 SCT300 26/23 Q1006', 'MDJB 061100Z 18010KT 9999 FEW016 SCT300 25/23 Q1006 METAR MDSD 061100Z 23013KT 9999 SCT016 SCT300 26/25 Q1007', 'MDJB 060300Z 21010KT 9999 FEW018 SCT300 24/23 Q1008', 'MDJB 060200Z COR 18010KT 9999 FEW018 SCT300 24/23 Q1007', 'MDJB 060200Z 18010KT 9999 FEW018 SCT300 Q1007', 'MDJB 060100Z 18010KT 9999 FEW018 SCT300 25/23 Q1006', 'MDJB 060000Z 18015KT 9999 FEW018 SCT300 25/23 Q1005', 'MDJB 052300Z 21010KT 9999 SCT018 SCT300 27/24 Q1005', 'MDJB 052200Z 18010KT 9999 SCT020 BKN300 28/23 Q1005', 'MDJB 052100Z 18015KT 9999 SCT020 BKN300 28/23 Q1005', 'MDJB 052000Z 18018KT 9999 SCT020 BKN300 29/24 Q1005']","['2024-02-08 19:00:00', '2024-02-08 18:00:00', '2024-02-08 17:00:00', '2024-02-08 15:59:00', '2024-02-08 15:00:00', '2024-02-08 14:00:00', '2024-02-08 13:00:00', '2024-02-08 12:00:00', '2024-02-08 11:00:00', '2024-02-08 03:00:00', '2024-02-08 02:00:00', '2024-02-08 01:00:00', '2024-02-08 00:00:00', '2024-02-07 23:00:00', '2024-02-07 22:30:00', '2024-02-07 21:00:00', '2024-02-07 20:00:00', '2024-02-07 19:00:00', '2024-02-07 18:00:00', '2024-02-07 17:00:00', '2024-02-07 16:00:00', '2024-02-07 15:00:00', '2024-02-07 14:00:00', '2024-02-07 13:00:00', '2024-02-07 12:00:00', '2024-02-07 11:00:00', '2024-02-07 03:00:00', '2024-02-07 02:00:00', '2024-02-07 00:59:00', '2024-02-06 23:00:00', '2024-02-06 22:00:00', '2024-02-06 21:00:00', '2024-02-06 20:00:00', '2024-02-06 19:00:00', '2024-02-06 16:00:00', '2024-02-06 15:00:00', '2024-02-06 14:00:00', '2024-02-06 13:00:00', '2024-02-06 12:00:00', '2024-02-06 11:00:00', '2024-02-06 02:59:00', '2024-02-06 02:00:00', '2024-02-06 01:59:00', '2024-02-06 01:00:00', '2024-02-06 00:00:00', '2024-02-05 23:00:00', '2024-02-05 22:00:00', '2024-02-05 21:00:00', '2024-02-05 20:00:00']"
Dominican-republic, Santo Domingo Las Americas International Airport (SDQ/MDSD) ,"['MDSD 081900Z 01015G25KT 9999 SCT020 SCT080 26/19 Q1014', 'MDSD 081800Z 01016KT 9999 SCT020 SCT080 28/21 Q1015', 'MDSD 081700Z 35012KT 9999 FEW020 29/19 Q1015', 'MDSD 081600Z 01010G23KT 9999 FEW020 28/19 Q1016', 'MDSD 081500Z 36016KT 9999 FEW019 26/19 Q1016', 'MDSD 081400Z 35008KT 330V040 9999 FEW018 25/19 Q1015', 'MDSD 081300Z 01006KT 9999 FEW017 22/18 Q1015', 'MDSD 081200Z 36007KT 9999 FEW016 20/18 Q1014', 'MDSD 081100Z 01009KT 9999 FEW016 19/18 Q1013', 'MDSD 081000Z 36007KT 9999 FEW016 19/18 Q1012', 'MDSD 080900Z 03006KT 9999 FEW016 SCT070 19/18 Q1012', 'MDSD 080800Z 34005KT 9999 SCT016 BKN070 21/19 Q1012', 'MDSD 080700Z 03006KT 9999 BKN016 BKN070 21/20 Q1012', 'MDSD 080600Z 00000KT 9999 BKN016 BKN070 22/20 Q1013', 'MDSD 080500Z 04004KT 9999 BKN016 BKN070 22/21 Q1013', 'MDSD 080400Z 00000KT 9999 BKN016 BKN070 22/21 Q1013', 'MDSD 080300Z 00000KT 9999 BKN016 BKN070 22/21 Q1014', 'MDSD 080200Z 06004KT 9999 BKN016 BKN070 23/21 Q1013', 'MDSD 080100Z 06004KT 9999 BKN016 BKN070 23/21 Q1012', 'MDSD 080000Z 03007KT 9999 BKN016 BKN070 24/22 Q1011', 'MDSD 072300Z 35008KT 8000 VCSH BKN016 BKN070 24/22 Q1011 RESH', 'MDSD 072200Z 32007KT 9999 BKN018 BKN080 27/22 Q1009', 'MDSD 072100Z 24008KT 9999 BKN018 BKN080 27/22 Q1010', 'MDSD 072000Z 24007KT 9999 BKN018 BKN080 27/21 Q1010', 'MDSD 071900Z 25005KT 9999 BKN020 BKN070 27/22 Q1010', 'MDSD 071800Z 22006KT 9999 SCT020 BKN080 28/23 Q1010', 'MDSD 071700Z 28007KT 9999 SCT020 BKN080 29/22 Q1011', 'MDSD 071600Z 33007KT 9999 SCT020 BKN080 28/22 Q1011', 'MDSD 071500Z 01006KT 9999 BKN018 BKN080 26/22 Q1012', 'MDSD 071400Z 36006KT 9999 BKN018 BKN080 25/22 Q1012', 'MDSD 071300Z 34006KT 9999 SCT016 BKN070 24/22 Q1011', 'MDSD 071200Z 34007KT 9999 SCT016 BKN070 23/22 Q1010', 'MDSD 071100Z 36006KT 9999 SCT016 23/22 Q1010', 'MDSD 071000Z 34004KT 9999 FEW016 24/22 Q1009', 'MDSD 070900Z 34004KT 9999 FEW016 25/22 Q1007', 'MDSD 070800Z 25011G20KT 9999 FEW016 26/23 Q1007', 'MDSD 070700Z 25014KT 9999 FEW016 26/23 Q1007', 'MDSD 070600Z 26014KT 9999 FEW016 27/23 Q1008', 'MDSD 070500Z 25012KT 9999 FEW016 27/23 Q1008', 'MDSD 070400Z 25012KT 9999 FEW016 27/23 Q1008', 'MDSD 070300Z 24012KT 9999 FEW016 27/24 Q1008', 'MDSD 070200Z 24016G24KT 9999 FEW018 27/23 Q1007', 'MDSD 070100Z 24016G29KT 9999 FEW018 27/23 Q1007', 'MDSD 070000Z 23016G28KT 9999 FEW018 27/23 Q1006', 'MDSD 062300Z 22015G27KT 9999 FEW018 27/23 Q1005', 'MDSD 062200Z 21012G27KT 9999 FEW018 29/24 Q1005', 'MDSD 062100Z 21010G24KT 9999 FEW018 31/25 Q1005', 'MDSD 062000Z 22009KT 9999 FEW018 32/25 Q1005', 'MDSD 061900Z 24009KT 9999 SCT018 SCT070 30/25 Q1006', 'MDSD 061800Z 25015G27KT 9999 BKN018 SCT070 28/25 Q1007 RERA', 'MDSD 061700Z 22013G28KT 9999 BKN018 SCT300 30/26 Q1008', 'MDSD 061500Z 21012G24KT 9999 BKN018 30/26 Q1009', 'MDSD 061400Z 21011G23KT 9999 BKN016 29/26 Q1009', 'MDSD 061300Z 22011KT 9999 BKN016 28/26 Q1008', 'MDSD 061200Z 23014KT 9999 BKN016 27/26 Q1007', 'MDSD 061100Z 23013KT 9999 SCT016 SCT300 26/25 Q1007', 'MDSD 061000Z 23015KT 9999 FEW016 SCT300 26/25 Q1006', 'MDSD 060900Z 22015KT 9999 FEW016 BKN300 26/25 Q1006', 'MDSD 060800Z 22012KT 9999 FEW016 SCT300 26/25 Q1006', 'MDSD 060700Z 22015KT 9999 FEW018 SCT300 26/25 Q1006', 'MDSD 060600Z 22015KT 9999 FEW018 SCT300 27/26 Q1006', 'MDSD 060500Z 22013KT 9999 SCT018 SCT300 27/26 Q1007', 'MDSD 060400Z 22013KT 9999 FEW018 SCT300 27/26 Q1007', 'MDSD 060300Z 21013KT 9999 SCT018 BKN300 27/26 Q1008', 'MDSD 060200Z 21010KT 9999 FEW018 BKN300 27/26 Q1008', 'MDSD 060100Z 21012KT 9999 FEW018 BKN300 27/26 Q1007', 'MDSD 060000Z 21012KT 9999 FEW020 BKN300 27/25 Q1006', 'MDSD 052300Z 21015KT 9999 FEW020 SCT300 27/25 Q1006', 'MDSD 052200Z 22015KT 9999 SCT020 BKN300 29/25 Q1006', 'MDSD 052100Z 22012KT 9999 SVT020 BKN300 30/25 Q1006', 'MDSD 052000Z 22015KT 9999 SCT021 BKN300 31/26 Q1005']","['2024-02-08 19:00:00', '2024-02-08 18:00:00', '2024-02-08 17:00:00', '2024-02-08 16:00:00', '2024-02-08 15:00:00', '2024-02-08 14:00:00', '2024-02-08 13:00:00', '2024-02-08 12:00:00', '2024-02-08 11:00:00', '2024-02-08 10:00:00', '2024-02-08 09:00:00', '2024-02-08 08:00:00', '2024-02-08 07:00:00', '2024-02-08 06:00:00', '2024-02-08 05:00:00', '2024-02-08 04:00:00', '2024-02-08 03:00:00', '2024-02-08 02:00:00', '2024-02-08 01:00:00', '2024-02-08 00:00:00', '2024-02-07 23:00:00', '2024-02-07 22:00:00', '2024-02-07 21:00:00', '2024-02-07 20:00:00', '2024-02-07 19:00:00', '2024-02-07 18:00:00', '2024-02-07 17:00:00', '2024-02-07 16:00:00', '2024-02-07 15:00:00', '2024-02-07 14:00:00', '2024-02-07 13:00:00', '2024-02-07 12:00:00', '2024-02-07 11:00:00', '2024-02-07 10:00:00', '2024-02-07 09:00:00', '2024-02-07 08:00:00', '2024-02-07 07:00:00', '2024-02-07 06:00:00', '2024-02-07 05:00:00', '2024-02-07 04:00:00', '2024-02-07 03:00:00', '2024-02-07 02:00:00', '2024-02-07 01:00:00', '2024-02-07 00:00:00', '2024-02-06 23:00:00', '2024-02-06 22:00:00', '2024-02-06 21:00:00', '2024-02-06 20:00:00', '2024-02-06 19:00:00', '2024-02-06 18:00:00', '2024-02-06 17:00:00', '2024-02-06 15:00:00', '2024-02-06 14:00:00', '2024-02-06 13:00:00', '2024-02-06 12:00:00', '2024-02-06 11:00:00', '2024-02-06 10:00:00', '2024-02-06 09:00:00', '2024-02-06 08:00:00', '2024-02-06 07:00:00', '2024-02-06 06:00:00', '2024-02-06 05:00:00', '2024-02-06 04:00:00', '2024-02-06 03:00:00', '2024-02-06 02:00:00', '2024-02-06 01:00:00', '2024-02-06 00:00:00', '2024-02-05 23:00:00', '2024-02-05 22:00:00', '2024-02-05 21:00:00', '2024-02-05 20:00:00']"
Ecuador, Cuenca Mariscal Lamar International Airport (CUE/SECU) ,"['SECU 081900Z 05006KT 9999 BKN040 23/11 Q1025', 'SECU 081800Z 06006KT 9999 BKN040 22/11 Q1027', 'SECU 081700Z 02006KT 9999 BKN040 21/11 Q1027', 'SECU 081600Z 04005KT 9999 BKN040 20/11 Q1028', 'SECU 081500Z 05004KT 9999 SCT040 BKN090 18/12 Q1029', 'SECU 081400Z 12003KT 9999 BKN033 16/12 Q1029', 'SECU 081300Z 16002KT 9999 FEW005 BKN030 BKN070 13/11 Q1028', 'SECU 081200Z 08002KT 9999 FEW005 BKN033 BKN070 12/11 Q1027', 'SECU 081100Z 07003KT 9999 FEW005 BKN030 BKN070 11/11 Q1027', 'SECU 080400Z 03002KT 9999 FEW040 14/12 Q1028', 'SECU 080300Z 03002KT 9999 SCT040 15/12 Q1028', 'SECU 080200Z 03005KT 9999 BKN040 SCT070 16/12 Q1028', 'SECU 080100Z 01004KT 9999 BKN040 SCT070 16/12 Q1027', 'SECU 080000Z 02006KT 9999 BKN040 SCT070 17/12 Q1026', 'SECU 072300Z 06010KT 9999 -RA BKN040 SCT100 17/13 Q1025', 'SECU 072200Z 33005KT 9999 BKN040 SCT100 20/12 Q1024', 'SECU 072100Z 09009KT 9999 BKN040 SCT100 21/11 Q1024', 'SECU 072000Z 08006KT 9999 BKN040 SCT100 22/11 Q1025', 'SECU 071900Z 05008KT 9999 BKN040 BKN100 22/12 Q1025', 'SECU 071800Z 06010KT 9999 OVC040 21/12 Q1027', 'SECU 071700Z 31003KT 9999 OVC040 20/12 Q1027', 'SECU 071600Z 17004KT 9999 BKN040 19/11 Q1028', 'SECU 071500Z 15004KT 9999 BKN040 SCT100 18/12 Q1029', 'SECU 071400Z 09003KT 9999 BKN040 BKN070 17/12 Q1029', 'SECU 071300Z 13002KT 9999 BKN040 BKN070 14/11 Q1028', 'SECU 071200Z 09002KT 9999 BKN040 BKN070 13/13 Q1028', 'SECU 071100Z 03002KT 9999 BKN040 BKN070 13/13 Q1027', 'SECU 070400Z 04002KT 9999 BKN033 14/11 Q1028', 'SECU 070300Z 35004KT 9999 BKN033 15/11 Q1028', 'SECU 070200Z 32002KT 9999 BKN033 15/12 Q1027', 'SECU 070100Z 34003KT 9999 FEW033 15/11 Q1026', 'SECU 070000Z 14002KT 9999 FEW033 17/10 Q1025', 'SECU 062300Z 08004KT 9999 SCT033 18/10 Q1024', 'SECU 062200Z 04003KT 9999 BKN040 20/09 Q1024', 'SECU 062100Z 02004KT 9999 BKN040 20/09 Q1024', 'SECU 061900Z 18002KT 9999 BKN040 BKN100 19/09 Q1027', 'SECU 061800Z 12004KT 9999 BKN040 BKN100 19/09 Q1028', 'SECU 061700Z 11003KT 9999 FEW040 BKN100 17/10 Q1029', 'SECU 061600Z 07004KT 9999 BKN033 BKN090 15/11 Q1030', 'SECU 061500Z 12003KT 9999 BKN030 BKN070 13/11 Q1030', 'SECU 061400Z 07004KT 9999 BKN030 BKN070 12/10 Q1030', 'SECU 161300Z 01002KT 9999 4000N BCFG FEW005 BKN030 11/09 Q1029', 'SECU 061200Z 06002KT 9999 4000N BCFG FEW005 BKN030 10/09 Q1029', 'SECU 061100Z 02003KT 9999 3000N BCFG FEW005 BKN026 10/09 Q1028', 'SECU 060400Z 03002KT 9999 FEW015 BKN030 12/12 Q1029', 'SECU 060300Z 09002KT 9999 FEW015 BKN040 12/12 Q1029', 'SECU 060200Z 03003KT 9999 FEW015 BKN030 13/12 Q1028', 'SECU 060100Z 03002KT 9999 FEW015 OVC030 13/12 Q1028', 'SECU 060000Z 02004KT 9999 -RA FEW015 OVC030 13/12 Q1027', 'SECU 052300Z 07006KT 9999 -RA OVC030 14/13 Q1026', 'SECU 052200Z 17007KT 9999 OVC033 17/11 Q1025', 'SECU 052100Z 27004KT 9999 OVC040 19/09 Q1024', 'SECU 052000Z 23004KT 9999 BKN040 SCT100 19/09 Q1024']","['2024-02-08 19:00:00', '2024-02-08 18:00:00', '2024-02-08 17:00:00', '2024-02-08 16:00:00', '2024-02-08 15:00:00', '2024-02-08 14:00:00', '2024-02-08 13:00:00', '2024-02-08 12:00:00', '2024-02-08 11:00:00', '2024-02-08 04:00:00', '2024-02-08 03:00:00', '2024-02-08 02:00:00', '2024-02-08 01:00:00', '2024-02-08 00:00:00', '2024-02-07 23:00:00', '2024-02-07 22:00:00', '2024-02-07 21:00:00', '2024-02-07 20:00:00', '2024-02-07 19:00:00', '2024-02-07 18:00:00', '2024-02-07 17:00:00', '2024-02-07 16:00:00', '2024-02-07 15:00:00', '2024-02-07 14:00:00', '2024-02-07 13:00:00', '2024-02-07 12:00:00', '2024-02-07 11:00:00', '2024-02-07 04:00:00', '2024-02-07 03:00:00', '2024-02-07 02:00:00', '2024-02-07 01:00:00', '2024-02-07 00:00:00', '2024-02-06 23:00:00', '2024-02-06 22:00:00', '2024-02-06 21:00:00', '2024-02-06 19:00:00', '2024-02-06 18:00:00', '2024-02-06 17:00:00', '2024-02-06 16:00:00', '2024-02-06 15:00:00', '2024-02-06 14:00:00', '2024-02-06 13:05:00', '2024-02-06 12:00:00', '2024-02-06 11:00:00', '2024-02-06 04:00:00', '2024-02-06 03:00:00', '2024-02-06 02:00:00', '2024-02-06 01:00:00', '2024-02-06 00:00:00', '2024-02-05 23:00:00', '2024-02-05 22:00:00', '2024-02-05 21:00:00', '2024-02-05 20:00:00']"
Ecuador, El Coca Francisco de Orellana Airport (OCC/SECO) ,"['SECO 081900Z 27002KT 9999 FEW025 SCT100 31/24 Q1011 RMK A2986', 'SECO 081800Z 22003KT 9999 FEW025 BKN100 32/24 Q1012 RMK A2990', 'SECO 081700Z 13004KT 9999 FEW023 BKN100 31/24 Q1014 RMK A2994', 'SECO 081600Z 13002KT 9999 FEW023 BKN100 29/24 Q1015 RMK A2997', 'SECO 081500Z 33002KT 9999 FEW020 BKN100 26/25 Q1015 RMK A2997', 'SECO 081400Z 04002KT 9999 SCT016 BKN090 24/24 Q1015 RMK A2998', 'SECO 081300Z 27002KT 9999 -RA FEW005 SCT015 OVC090 23/23 Q1014 RMK A2997', 'SECO 072200Z 16005KT 9999 FEW030 SCT100 30/24 Q1010 RMK A2983', 'SECO 072100Z 17004KT 9999 SCT026 SCT100 31/24 Q1010 RMK A2985', 'SECO 072000Z 02002KT 9999 SCT026 SCT100 30/24 Q1011 RMK A2988', 'SECO 071900Z 02005KT 9999 SCT025 SCT100 30/24 Q1013 RMK A2992', 'SECO 071800Z 36005KT 9999 SCT025 BKN100 29/24 Q1014 RMK A2996', 'SECO 071700Z 07004KT 9999 SCT023 BKN100 28/24 Q1015 RMK A2999', 'SECO 071600Z 11002KT 9999 SCT023 BKN100 28/24 Q1016 RMK A3001', 'SECO 071500Z 09001KT 9999 BKN020 BKN100 27/24 Q1016 RMK A3002', 'SECO 071400Z 26002KT 9999 BKN020 BKN100 25/24 Q1016 RMK A3002', 'SECO 071300Z 16003KT 9999 FEW005 BKN015 BKN090 24/24 Q1016 RMK A3001', 'SECO 071200Z 15002KT 9999 FEW004 BKN015 BKN090 23/23 Q1015 RMK A2997', 'SECO 062200Z 28003KT 9999 FEW033 SCT100 29/23 Q1010 RMK A2982', 'SECO 062100Z 13003KT 9999 SCT030 SCT100 29/23 Q1010 RMK A2984', 'SECO 062000Z 11004KT 9999 SCT026 BKN100 28/23 Q1011 RMK A2986', 'SECO 061900Z 16002KT 9999 SCT025 BKN100 27/24 Q1013 RMK A2993', 'SECO 061800Z 14003KT 9999 SCT023 BKN100 27/23 Q1014 RMK A2997', 'SECO 061700Z 11003KT 9999 SCT023 BKN100 26/22 Q1015 RMK A2999', 'SECO 061600Z 12003KT 9999 SCT020 BKN100 25/23 Q1016 RMK A3001', 'SECO 061500Z 10003KT 9999 FEW007 SCT016 BKN100 24/23 Q1016 RMK A3001', 'SECO 061400Z 09002KT 6000 BCFG FEW006 SCT016 BKN090 23/23 Q1016 RMK A3000', 'SECO 061300Z 04003KT 0800 FG VV/// 22/22 Q1015 RMK A2998', 'SECO 061200Z 33001KT 0100 FG VV/// 21/21 Q1014 RMK A2994', 'SECO 052200Z 29003KT 8000 -RA SCT026 OVC100 23/23 Q1011 RMK A2987', 'SECO 052100Z 28003KT 6000 -RA SCT026 OVC100 23/23 Q1012 RMK A2988', 'SECO 052000Z 27004KT 6000 -RA SCT026 OVC100 23/23 Q1011 RMK A2988']","['2024-02-08 19:00:00', '2024-02-08 18:00:00', '2024-02-08 17:00:00', '2024-02-08 16:00:00', '2024-02-08 15:00:00', '2024-02-08 14:00:00', '2024-02-08 13:00:00', '2024-02-07 22:00:00', '2024-02-07 21:00:00', '2024-02-07 20:00:00', '2024-02-07 19:00:00', '2024-02-07 18:00:00', '2024-02-07 17:00:00', '2024-02-07 16:00:00', '2024-02-07 15:00:00', '2024-02-07 14:00:00', '2024-02-07 13:00:00', '2024-02-07 12:00:00', '2024-02-06 22:00:00', '2024-02-06 21:00:00', '2024-02-06 20:00:00', '2024-02-06 19:00:00', '2024-02-06 18:00:00', '2024-02-06 17:00:00', '2024-02-06 16:00:00', '2024-02-06 15:00:00', '2024-02-06 14:00:00', '2024-02-06 13:00:00', '2024-02-06 12:00:00', '2024-02-05 22:00:00', '2024-02-05 21:00:00', '2024-02-05 20:00:00']"
Ecuador, Seymour Baltra Galapagos Airport (GPS/SEGS) ,"['SEGS 081900Z 04006KT 360V080 9999 SCT020 30/22 Q1012 RMK A2989', 'SEGS 081800Z 03006KT 360V070 9999 SCT020 31/23 Q1013 RMK A2991', 'SEGS 081700Z 35007KT 310V040 9999 FEW020 30/23 Q1013 RMK A2993', 'SEGS 081600Z 33007KT 290V360 9999 FEW020 29/22 Q1013 RMK A2994', 'SEGS 081500Z 30007KT 9999 FEW020 29/22 Q1013 RMK A2993', 'SEGS 081400Z 18011KT 9999 FEW020 28/22 Q1013 RMK A2992', 'SEGS 081300Z 16006KT 9999 FEW020 26/22 Q1012 RMK A2989', 'SEGS 081200Z 17005KT 9999 FEW016 25/22 Q1011 RMK A2987', 'SEGS 081100Z 15007KT 9999 FEW030 26/22 Q1011 RMK A2986', 'SEGS 081000Z 15005KT 9999 FEW030 26/22 Q1010 RMK A2985', 'SEGS 080400Z 17009KT 9999 FEW023 27/22 Q1014 RMK A2994', 'SEGS 080300Z 17010KT 9999 FEW023 27/22 Q1013 RMK A2992', 'SEGS 080200Z 17010KT 9999 FEW020 27/22 Q1012 RMK A2990', 'SEGS 080100Z 15010KT 9999 FEW020 28/22 Q1012 RMK A2988', 'SEGS 080000Z 16013KT 9999 FEW020 29/22 Q1011 RMK A2986', 'SEGS 072300Z 15013KT 9999 FEW020 29/22 Q1010 RMK A2983', 'SEGS 072200Z 14016KT 9999 FEW020 30/22 Q1010 RMK A2983', 'SEGS 072100Z 30005KT 130V040 9999 SCT020 30/22 Q1010 RMK A2984', 'SEGS 072000Z 32009KT 290V350 9999 SCT020 30/23 Q1011 RMK A2987', 'SEGS 071900Z 22008KT 080V210 9999 SCT020 30/23 Q1012 RMK A2989', 'SEGS 071800Z 13016KT 9999 FEW020 33/22 Q1012 RMK A2990', 'SEGS 071700Z 14015KT 9999 FEW020 32/22 Q1013 RMK A2992', 'SEGS 071600Z 14013KT 9999 FEW020 31/22 Q1014 RMK A2994', 'SEGS 071500Z 16011KT 9999 FEW020 31/22 Q1013 RMK A2993', 'SEGS 071400Z 17012KT 9999 FEW020 28/23 Q1013 RMK A2992', 'SEGS 062200Z 25007KT 9999 VCSH SCT016 BKN040 28/23 Q1010 RMK A2983', 'SEGS 062100Z 24006KT 9999 VCSH SCT016 BKN040 29/23 Q1010 RMK A2984', 'SEGS 062000Z 18003KT 130V250 9999 VCSH SCT016 BKN040 29/23 Q1011 RMK A2986', 'SEGS 061900Z 30008KT 9999 -RA SCT016 29/23 Q1012 RMK A2988', 'SEGS 061800Z 14017KT 9999 VCSH SCT020 SCT040 31/22 Q1012 RMK A2989', 'SEGS 061700Z 14015KT 9999 FEW020 SCT040 32/22 Q1013 RMK A2991', 'SEGS 061600Z 17013KT 9999 FEW020 BKN033 30/22 Q1013 RMK A2993', 'SEGS 061500Z 16013KT 9999 FEW016 BKN030 29/22 Q1013 RMK A2993', 'SEGS 061400Z 16011KT 9999 FEW015 BKN030 28/22 Q1013 RMK A2992', 'SEGS 052200Z 19008KT 150V230 9999 FEW020 SCT040 30/22 Q1009 RMK A2981', 'SEGS 052100Z 23008KT 190V250 9999 VCSH SCT020 BKN040 29/22 Q1010 RMK A2983', 'SEGS 052000Z 13014KT 9999 VCSH SCT020 29/23 Q1010 RMK A2985']","['2024-02-08 19:00:00', '2024-02-08 18:00:00', '2024-02-08 17:00:00', '2024-02-08 16:00:00', '2024-02-08 15:00:00', '2024-02-08 14:00:00', '2024-02-08 13:00:00', '2024-02-08 12:00:00', '2024-02-08 11:00:00', '2024-02-08 10:00:00', '2024-02-08 04:00:00', '2024-02-08 03:00:00', '2024-02-08 02:00:00', '2024-02-08 01:00:00', '2024-02-08 00:00:00', '2024-02-07 23:00:00', '2024-02-07 22:00:00', '2024-02-07 21:00:00', '2024-02-07 20:00:00', '2024-02-07 19:00:00', '2024-02-07 18:00:00', '2024-02-07 17:00:00', '2024-02-07 16:00:00', '2024-02-07 15:00:00', '2024-02-07 14:00:00', '2024-02-06 22:00:00', '2024-02-06 21:00:00', '2024-02-06 20:00:00', '2024-02-06 19:00:00', '2024-02-06 18:00:00', '2024-02-06 17:00:00', '2024-02-06 16:00:00', '2024-02-06 15:00:00', '2024-02-06 14:00:00', '2024-02-05 22:00:00', '2024-02-05 21:00:00', '2024-02-05 20:00:00']"
Ecuador, Guayaquil International Airport (GYE/SEGU) ,"['SEGU 081900Z 04007KT 9999 SCT020 SCT100 32/24 Q1008 NOSIG RMK A2978', 'SEGU 081800Z 02007KT 9999 BKN020 SCT100 32/24 Q1009 NOSIG RMK A2981', 'SEGU 081700Z 02007KT 360V080 9999 BKN020 SCT100 31/25 Q1010 NOSIG RMK A2983', 'SEGU 081600Z 05007KT 9999 VCSH BKN020 SCT026 30/24 Q1011 NOSIG RMK A985', 'SEGU 081500Z 03005KT 9999 SCT016 BKN026 29/24 Q1011 NOSIG RMK A2987', 'SEGU 081400Z 03003KT 310V070 9999 FEW010 BKN026 28/25 Q1011 NOSIG RMK A2987', 'SEGU 081300Z 03004KT 9999 FEW010 BKN026 27/25 Q1010 NOSIG RMK A2985', 'SEGU 081200Z 01006KT 9999 FEW008 BKN026 OVC100 25/24 Q1010 NOSIG RMK A2983', 'SEGU 081100Z 01006KT 9999 FEW010 BKN026 BKN100 26/25 Q1009 NOSIG RMK A2981', 'SEGU 081000Z 05003KT 9999 FEW009 BKN026 OVC100 26/25 Q1009 NOSIG RMK A2982', 'SEGU 080900Z 08002KT 9999 FEW009 BKN026 OVC100 26/25 Q1009 NOSIG RMK A2980', 'SEGU 080800Z 32004KT 9999 FEW009 BKN026 OVC100 26/25 Q1009 NOSIG RMK A2981', 'SEGU 080700Z 31005KT 9999 FEW027 BKN026 OVC100 26/25 Q1009 NOSIG RMK A2981', 'SEGU 080600Z 36008KT 9999 VCSH FEW008 BKN026 OVC100 26/25 Q1011 NOSIG RMK A2985', 'SEGU 080500Z 26005KT 9999 -RA FEW008 BKN026 BKN100 27/24 Q1011 NOSIG RMK A2987', 'SEGU 080400Z 24008KT 9999 FEW008 BKN026 BKN100 27/24 Q1011 NOSIG RMK A2986', 'SEGU 080300Z 23008KT 9999 FEW010 BKN026 BKN100 27/24 Q1011 NOSIG RMK A2985', 'SEGU 080200Z 23008KT 9999 VCSH FEW010 SCT026 BKN100 27/25 Q1010 NOSIG RMK A2983', 'SEGU 080100Z 22008KT 9999 VCSH FEW020 SCT026 BKN100 27/25 Q1009 NOSIG RMK A2982', 'SEGU 080000Z 20010KT 9999 VCSH FEW020 SCT026 BKN100 28/25 Q1009 NOSIG RMK A2980', 'SEGU 072300Z 19011KT 9999 VCSH FEW023 SCT030 BKN100 28/25 Q1008 NOSIG RMK A2977', 'SEGU 072200Z 21011KT 9999 FEW023 SCT023 BKN100 30/26 Q1007 NOSIG RMK A2975', 'SEGU 072100Z 07006KT 9999 FEW030 SCT100 32/25 Q1007 NOSIG RMK A2974', 'SEGU 072000Z 05007KT 9999 FEW030 SCT100 33/25 Q1007 NOSIG RMK A2976', 'SEGU 071900Z 03008KT 9999 SCT026 SCT100 33/25 Q1008 NOSIG RMK A2979', 'SEGU 071800Z 03007KT 9999 SCT023 SCT100 32/25 Q1010 NOSIG RMK A2982', 'SEGU 071700Z 03009KT 9999 BKN023 BKN100 31/25 Q1011 NOSIG RMK A2985', 'SEGU 071600Z 03009KT 9999 BKN023 SCT100 31/25 Q1011 NOSIG RMK A2987', 'SEGU 071500Z 35004KT 9999 SCT023 SCT100 30/25 Q1012 NOSIG RMK A2988', 'SEGU 071400Z 35005KT 9999 FEW016 SCT023 29/24 Q1011 NOSIG RMK A2988', 'SEGU 071300Z 33004KT 9999 SCT023 SCT100 27/24 Q1011 NOSIG RMK A2986', 'SEGU 071200Z 32003KT 9999 FEW015 SCT023 27/24 Q1010 NOSIG RMK A2983', 'SEGU 071100Z 31003KT 9999 FEW015 SCT023 27/24 Q1009 NOSIG RMK A2981', 'SEGU 071000Z 31004KT 9999 FEW015 BKN023 27/24 Q1009 NOSIG RMK A2981', 'SEGU 070900Z 23004KT 9999 FEW015 BKN023 27/24 Q1009 NOSIG RMK A2980', 'SEGU 070800Z 24004KT 220V280 9999 FEW015 BKN023 27/24 Q1009 NOSIG RMK A2981', 'SEGU 070700Z 24005KT 220V290 9999 FEW015 BKN023 27/24 Q1010 NOSIG RMK A2982', 'SEGU 070600Z 28003KT 250V310 9999 FEW015 BKN023 28/24 Q1010 NOSIG RMK A2984', 'SEGU 070500Z 23007KT 220V280 9999 FEW015 BKN023 27/24 Q1011 NOSIG RMK A2986', 'SEGU 070400Z 25005KT 210V290 9999 FEW015 SCT023 28/24 Q1011 NOSIG RMK A2986', 'SEGU 070300Z 23007KT 9999 SCT023 28/24 Q1011 NOSIG RMK A2986', 'SEGU 070200Z 23009KT 210V300 9999 SCT023 29/23 Q1010 NOSIG RMK A2982', 'SEGU 070000Z 22007KT 190V250 9999 FEW020 SCT023 30/23 Q1007 NOSIG RMK A2976', 'SEGU 062300Z 23010KT 9999 SCT020 31/24 Q1006 NOSIG RMK A2973', 'SEGU 062200Z 17003KT 9999 SCT020 32/24 Q1006 NOSIG RMK A2972', 'SEGU 062100Z VRB02KT 9999 SCT020 32/24 Q1006 NOSIG RMK A2972', 'SEGU 062000Z 13004KT 070V180 9999 SCT020 33/25 Q1007 NOSIG RMK A2975', 'SEGU 061900Z 13004KT 050V180 9999 SCT020 33/25 Q1008 NOSIG RMK A2978', 'SEGU 061800Z 15005KT 090V190 9999 SCT020 32/25 Q1009 NOSIG RMK A2982', 'SEGU 061700Z 14006KT 070V190 9999 SCT020 32/24 Q1010 NOSIG RMK A2987', 'SEGU 061600Z 22005KT 190V270 9999 SCT020 32/25 Q1011 NOSIG RMK A2987', 'SEGU 061400Z 21009KT 180V250 9999 SCT020 SCT100 29/25 Q1011 NOSIG RMK A2987', 'SEGU 061300Z 21005KT 9999 SCT026 SCT100 29/25 Q1011 NOSIG RMK A2986', 'SEGU 061200Z 21008KT 9999 SCT023 SCT100 26/24 Q1010 NOSIG RMK A2983', 'SEGU 061100Z 23007KT 9999 FEW023 SCT100 27/24 Q1009 NOSIG RMK A2981', 'SEGU 061000Z 23007KT 9999 FEW023 SCT100 27/24 Q1009 NOSIG RMK A2980', 'SEGU 060900Z 21006KT 9999 FEW023 26/24 Q1009 NOSIG RMK A2980', 'SEGU 060600Z 23005KT 9999 FEW023 SCT100 27/24 Q1010 NOSIG RMK A2983', 'SEGU 060500Z 21004KT 9999 SCT023 SCT100 27/24 Q1010 NOSIG RMK A2985', 'SEGU 060400Z 21006KT 9999 FEW023 SCT100 27/24 Q1010 NOSIG RMK A2985', 'SEGU 060300Z 22007KT 9999 SCT023 SCT100 28/24 Q1010 NOSIG RMK A2985', 'SEGU 060200Z 17005KT 9999 SCT023 SCT100 28/25 Q1010 NOSIG RMK A2982', 'SEGU 060100Z 16003KT 9999 SCT026 SCT100 29/24 Q1008 NOSIG RMK A2979', 'SEGU 060000Z 04003KT 9999 BKN026 SCT100 29/24 Q1008 NOSIG RMK A2976', 'SEGU 052300Z 05004KT 9999 SCT026 SCT100 30/24 Q1007 NOSIG RMK A2974', 'SEGU 052200Z 06006KT 9999 FEW020 SCT100 30/24 Q1007 NOSIG RMK A2974', 'SEGU 052100Z 05008KT 9999 FEW020 SCT100 31/25 Q1007 NOSIG RMK A2974', 'SEGU 052000Z 04007KT 9999 SCT020 SCT100 32/25 Q1007 NOSIG RMK A2976']","['2024-02-08 19:00:00', '2024-02-08 18:00:00', '2024-02-08 17:00:00', '2024-02-08 16:00:00', '2024-02-08 15:00:00', '2024-02-08 14:00:00', '2024-02-08 13:00:00', '2024-02-08 12:00:00', '2024-02-08 11:00:00', '2024-02-08 10:00:00', '2024-02-08 09:00:00', '2024-02-08 08:00:00', '2024-02-08 07:00:00', '2024-02-08 06:00:00', '2024-02-08 05:00:00', '2024-02-08 04:00:00', '2024-02-08 03:00:00', '2024-02-08 02:00:00', '2024-02-08 01:00:00', '2024-02-08 00:00:00', '2024-02-07 23:00:00', '2024-02-07 22:00:00', '2024-02-07 21:00:00', '2024-02-07 20:00:00', '2024-02-07 19:00:00', '2024-02-07 18:00:00', '2024-02-07 17:00:00', '2024-02-07 16:00:00', '2024-02-07 15:00:00', '2024-02-07 14:00:00', '2024-02-07 13:00:00', '2024-02-07 12:00:00', '2024-02-07 11:00:00', '2024-02-07 10:00:00', '2024-02-07 09:00:00', '2024-02-07 08:00:00', '2024-02-07 07:00:00', '2024-02-07 06:00:00', '2024-02-07 05:00:00', '2024-02-07 04:00:00', '2024-02-07 03:00:00', '2024-02-07 02:00:00', '2024-02-07 00:00:00', '2024-02-06 23:00:00', '2024-02-06 22:00:00', '2024-02-06 21:00:00', '2024-02-06 20:00:00', '2024-02-06 19:00:00', '2024-02-06 18:00:00', '2024-02-06 17:00:00', '2024-02-06 16:00:00', '2024-02-06 14:00:00', '2024-02-06 13:00:00', '2024-02-06 12:00:00', '2024-02-06 11:00:00', '2024-02-06 10:00:00', '2024-02-06 09:00:00', '2024-02-06 06:00:00', '2024-02-06 05:00:00', '2024-02-06 04:00:00', '2024-02-06 03:00:00', '2024-02-06 02:00:00', '2024-02-06 01:00:00', '2024-02-06 00:00:00', '2024-02-05 23:00:00', '2024-02-05 22:00:00', '2024-02-05 21:00:00', '2024-02-05 20:00:00']"
Ecuador, Latacunga Cotopaxi International Airport (LTX/SELT) ,"['SELT 081900Z 18014KT 9999 BKN030 18/10 Q1029', 'SELT 081800Z 18013KT 9999 SCT030 18/11 Q1030', 'SELT 081700Z 17015KT 9999 SCT030 16/11 Q1031', 'SELT 081600Z 17010KT 9999 BKN026 15/12 Q1032', 'SELT 081500Z 17011KT 9999 BKN023 14/12 Q1033', 'SELT 081400Z 19006KT 9999 SCT010 BKN023 12/11 Q1033', 'SELT 081300Z 14003KT 9999 SCT010 BKN023 11/11 Q1032', 'SELT 081200Z 22004KT 9999 SCT010 BKN023 10/10 Q1031', 'SELT 081100Z 17006KT 9999 SCT010 OVC023 10/10 Q1031', 'SELT 080300Z 10001KT 9999 OVC010 10/10 Q1033', 'SELT 080200Z 01002KT 9999 FEW010 09/09 Q1032', 'SELT 080100Z 19002KT 9999 FEW015 SCT100 09/09 Q1031', 'SELT 080000Z 14004KT 9999 VCSH FEW015 BKN033 BKN100 11/11 Q1031', 'SELT 072300Z 01005KT 9999 -RA FEW015 BKN033 BKN100 11/11 Q1031', 'SELT 072200Z 01010KT 8000 -RA FEW015 BKN033 BKN100 12/12 Q1030', 'SELT 072100Z 21002KT 9999 VCSH FEW015 BKN033 BKN100 15/11 Q1029', 'SELT 072000Z 310065KT 9999 4000N -RA BKN033 BKN100 12/12 Q1030 RETS', 'SELT 071905Z 05010KT 9999 2000N TSRA FEW026CB BKN030 13/12 Q1030', 'SELT 071900Z 16015KT 9999 VCSH FEW026TCU BKN030 17/10 Q1029', 'SELT 071800Z 16010KT 9999 SCT030 18/09 Q1030', 'SELT 071700Z 17006KT 9999 SCT030 17/10 Q1031', 'SELT 071600Z 11004KT 9999 SCT030 17/09 Q1033', 'SELT 071500Z 20004KT 9999 SCT030 14/10 Q1033', 'SELT 071400Z 20002KT 9999 SCT026 12/10 Q1034', 'SELT 071300Z 31002KT 9999 SCT020 SCT030 12/10 Q1033', 'SELT 071200Z 34001KT 9999 SCT016 BKN030 09/09 Q1032', 'SELT 071100Z 21001KT 9999 SCT013 BKN030 09/09 Q1031', 'SELT 070300Z 18008KT 9999 FEW100 11/11 Q1032', 'SELT 070200Z 20006KT 9999 SCT100 12/11 Q1031', 'SELT 070100Z 23003KT 9999 SCT100 13/10 Q1029', 'SELT 070000Z 16002KT 9999 FEW030 13/09 Q1028', 'SELT 062300Z 11003KT 9999 FEW030 16/09 Q1027', 'SELT 062200Z 16010KT 9999 SCT030 17/08 Q1027', 'SELT 062100Z 21004KT 9999 SCT030 SCT100 18/08 Q1027', 'SELT 062000Z 15005KT 9999 SCT030 SCT100 18/08 Q1028', 'SELT 061900Z 17007KT 9999 BKN030 16/09 Q1030', 'SELT 061800Z 16006KT 9999 BKN030 15/08 Q1031', 'SELT 061700Z 17003KT 9999 BKN030 14/07 Q1033', 'SELT 061600Z 20004KT 9999 BKN030 SCT100 12/10 Q1033', 'SELT 061500Z 17002KT 9999 BKN026 SCT100 11/09 Q1033', 'SELT 061400Z 36002KT 9999 BKN026 10/09 Q1033', 'SELT 061300Z 36002KT 9999 BKN026 09/09 Q1033', 'SELT 061200Z 32002KT 9999 BKN026 08/08 Q1031', 'SELT 061100Z 00000KT 9999 BKN026 08/08 Q1031', 'SELT 060300Z 33002KT 9999 SCT033 08/08 Q1032', 'SELT 060200Z 15002KT 9999 SCT030 09/09 Q1032', 'SELT 060100Z 19003KT 9999 BKN030 10/10 Q1031', 'SELT 060000Z 18008KT 9999 -RA BKN030 10/10 Q1030', 'SELT 052300Z 03002KT 9999 VCSH BKN030 BKN080 11/11 Q1029', 'SELT 052200Z 20005KT 9999 VCSH BKN030 BKN200 12/10 Q1028 RETSRA', 'SELT 052100Z 01007KT 4000N 9999 -TSRA SCT026CB BKN030 12/11 Q1027', 'SELT 052025Z 08011KT 2000N 9999 -TSRA SCT026CB BKN030 10/10 Q1026', 'SELT 052000Z 12006KT 9999 TS VCSH FEW026CB BKN030 18/10 Q1026']","['2024-02-08 19:00:00', '2024-02-08 18:00:00', '2024-02-08 17:00:00', '2024-02-08 16:00:00', '2024-02-08 15:00:00', '2024-02-08 14:00:00', '2024-02-08 13:00:00', '2024-02-08 12:00:00', '2024-02-08 11:00:00', '2024-02-08 03:00:00', '2024-02-08 02:00:00', '2024-02-08 01:00:00', '2024-02-08 00:00:00', '2024-02-07 23:00:00', '2024-02-07 22:00:00', '2024-02-07 21:00:00', '2024-02-07 20:00:00', '2024-02-07 19:05:00', '2024-02-07 19:00:00', '2024-02-07 18:00:00', '2024-02-07 17:00:00', '2024-02-07 16:00:00', '2024-02-07 15:00:00', '2024-02-07 14:00:00', '2024-02-07 13:00:00', '2024-02-07 12:00:00', '2024-02-07 11:00:00', '2024-02-07 03:00:00', '2024-02-07 02:00:00', '2024-02-07 01:00:00', '2024-02-07 00:00:00', '2024-02-06 23:00:00', '2024-02-06 22:00:00', '2024-02-06 21:00:00', '2024-02-06 20:00:00', '2024-02-06 19:00:00', '2024-02-06 18:00:00', '2024-02-06 17:00:00', '2024-02-06 16:00:00', '2024-02-06 15:00:00', '2024-02-06 14:00:00', '2024-02-06 13:00:00', '2024-02-06 12:00:00', '2024-02-06 11:00:00', '2024-02-06 03:00:00', '2024-02-06 02:00:00', '2024-02-06 01:00:00', '2024-02-06 00:00:00', '2024-02-05 23:00:00', '2024-02-05 22:00:00', '2024-02-05 21:00:00', '2024-02-05 20:25:00', '2024-02-05 20:00:00']"
Ecuador, Loja Ciudad de Catamayo Airport (LOH/SECA) ,"['SECA 081800Z 100077KT 9999 SCT040 31/15 Q1017 RMK A3004', 'SECA 081700Z 11006KT 9999 SCT040 28/14 Q1018 RMK A3007', 'SECA 081600Z 07011KT 9999 SCT040 29/15 Q1019 RMK A3009', 'SECA 081500Z 21004KT 9999 SCT040 24/18 Q1019 RMK A3011', 'SECA 081400Z 20003KT 9999 SCT040 22/17 Q1020 RMK A3012', 'SECA 081300Z 20002KT 9999 BKN040 20/17 Q1019 RMK A3011', 'SECA 081200Z 19002KT 9999 BKN040 18/17 Q1018 RMK A3008', 'SECA 081100Z 32001KT 9999 SCT040 18/16 Q1018 RMK A3006', 'SECA 072300Z 06012KT 9999 VCSH BKN040 27/16 Q1015 RMK A3000', 'SECA 072200Z 10012KT 070V160 9999 BKN040 29/15 Q1015 RMK A2997', 'SECA 072100Z 14007KT 110V230 9999 SCT040 SCT100 29/15 Q1015 RMK A2998', 'SECA 072000Z 04008KT 360V070 9999 SCT040 BKN100 29/16 Q1016 RMK A3000', 'SECA 071900Z 04007KT 320V110 9999 SCT040 BKN100 29/17 Q1017 RMK A3003', 'SECA 071800Z 15009KT 120V180 9999 VCSH BKN040 28/17 Q1018 RMK A3007', 'SECA 071600Z 27003KT 9999 SCT040 SCT100 25/17 Q1019 RMK A3010', 'SECA 071500Z 13001KT 9999 SCT040 SCT100 23/17 Q1020 RMK A3012', 'SECA 071400Z 04002KT 9999 SCT040 CT100 21/17 Q1020 RMK A3012', 'SECA 071300Z 33002KT 9999 BKN040 SCT100 18/17 Q1019 RMK A3012', 'SECA 071100Z VRB02KT 9999 BKN040 18/17 Q1018 RMK A3007', 'SECA 062300Z 05004KT 9999 BKN040 28/14 Q1015 RMK A2998', 'SECA 062200Z 05014KT 9999 BKN040 28/14 Q1014 RMK A2996', 'SECA 062100Z 06013KT 9999 BKN040 29/14 Q1014 RMK A2997', 'SECA 062000Z 07015KT 9999 BKN040 31/14 Q1015 RMK A2998', 'SECA 061900Z 08013KT 9999 BKN040 30/14 Q1017 RMK A3003', 'SECA 061800Z 07019KT 9999 BKN040 30/13 Q1018 RMK A3006', 'SECA 061700Z 24002KT 9999 BKN040 28/17 Q1018 RMK A3009', 'SECA 061600Z 16003KT 9999 SCT040 25/17 Q1019 RMK A3012', 'SECA 061500Z 14002KT 9999 SCT040 23/16 Q1020 RMK A3014', 'SECA 061400Z 04001KT 9999 BKN040 20/17 Q1021 RMK A3016', 'SECA 061300Z 33001KT 9999 FEW005 SCT016 OVC070 18/17 Q1020 RMK A3015', 'SECA 061200Z 16002KT 9999 FEW005 SCT016 OVC070 18/17 Q1020 RMK A3013', 'SECA 061100Z 33002KT 9999 VCSH FEW005 SCT016 OVC070 17/16 Q1019 RMK A3011', 'SECA 052300Z 18007KT 9999 SCT040 BKN100 20/18 Q1016 RMK A3002', 'SECA 052200Z 11006KT 070V200 -RA BKN040 25/14 Q1016 RMK A3001', 'SECA 052100Z 07001KT 9999 BKN040 30/14 Q1013 RMK A2993', 'SECA 052000Z 31002KT 9999 BKN040 30/15 Q1014 RMK A2993']","['2024-02-08 18:00:00', '2024-02-08 17:00:00', '2024-02-08 16:00:00', '2024-02-08 15:00:00', '2024-02-08 14:00:00', '2024-02-08 13:00:00', '2024-02-08 12:00:00', '2024-02-08 11:00:00', '2024-02-07 23:00:00', '2024-02-07 22:00:00', '2024-02-07 21:00:00', '2024-02-07 20:00:00', '2024-02-07 19:00:00', '2024-02-07 18:00:00', '2024-02-07 16:00:00', '2024-02-07 15:00:00', '2024-02-07 14:00:00', '2024-02-07 13:00:00', '2024-02-07 11:00:00', '2024-02-06 23:00:00', '2024-02-06 22:00:00', '2024-02-06 21:00:00', '2024-02-06 20:00:00', '2024-02-06 19:00:00', '2024-02-06 18:00:00', '2024-02-06 17:00:00', '2024-02-06 16:00:00', '2024-02-06 15:00:00', '2024-02-06 14:00:00', '2024-02-06 13:00:00', '2024-02-06 12:00:00', '2024-02-06 11:00:00', '2024-02-05 23:00:00', '2024-02-05 22:00:00', '2024-02-05 21:00:00', '2024-02-05 20:00:00']"
Ecuador, Manta Eloy Alfaro International Airport (MEC/SEMT) ,"['SEMT 081900Z 27010KT 9999 FEW020 29/24 Q1008 RMK A2977', 'SEMT 081800Z 27008KT 9999 FEW020 30/25 Q1009 RMK A2980', 'SEMT 081700Z 34006K 9999 FEW020 SCT100 30/25 Q1010 RMK A2983', 'SEMT 081600Z 34006KT 9999 SCT020 BKN040 29/25 Q1011 RMK A2985', 'SEMT 081500Z 05004KT 9999 SCT016 BKN026 27/25 Q1011 RMK A2986', 'SEMT 081400Z 24003KT 9999 FEW013 BKN020 26/24 Q1011 RMK A2986', 'SEMT 081300Z 30004KT 9999 OVC020 26/24 Q1010 RMK A2983', 'SEMT 081200Z 29002KT 9999 BKN020 26/24 Q1009 RMK A2981', 'SEMT 081100Z 16003KT 9999 BKN020 25/24 Q1008 RMK A2979', 'SEMT 081000Z 13003KT 9999 BKN020 26/24 Q1008 RMK A2977', 'SEMT 080900Z 06003KT 9999 BKN020 26/24 Q1008 RMK A2976', 'SEMT 080800Z 09002KT 9999 BKN020 26/24 Q1008 RMK A2978', 'SEMT 080700Z 07002KT 9999 BKN020 26/24 Q1009 RMK A2981', 'SEMT 080600Z 20006KT 9999 BKN020 26/24 Q1010 RMK A2984', 'SEMT 080500Z 20005KT 9999 BKN020 26/24 Q1010 RMK A2985', 'SEMT 080400Z 19006KT 9999 BKN020 26/24 Q1010 RMK A2985', 'SEMT 080300Z 19007KT 9999 BKN020 26/24 Q1010 RMK A2985', 'SEMT 080200Z 18007KT 9999 BKN016 BKN023 27/24 Q1010 RMK A2984', 'SEMT 080100Z 19005KT 9999 FEW016 BKN023 27/24 Q1009 RMK A2981', 'SEMT 080000Z 28004KT 240V310 9999 BKN023 28/25 Q1009 RMK A2979', 'SEMT 072300Z 26005KT 210V290 9999 BKN023 28/25 Q1008 RMK A2977', 'SEMT 072200Z 27007KT 9999 BKN023 29/25 Q1007 RMK A2975', 'SEMT 072100Z 28007KT 230V310 9999 VCSH BKN023 29/25 Q1007 RMK A2975', 'SEMT 072000Z 30009KT 270V330 9999 SCT023 30/25 Q1008 RMK A2976', 'SEMT 071900Z 29006KT 270V330 9999 SCT023 29/25 Q1008 RMK A2979', 'SEMT 071800Z 34007KT 310V010 9999 BKN023 30/25 Q1010 RMK A2984', 'SEMT 071700Z 36005KT 310V050 9999 BKN023 29/25 Q1011 RMK A2986', 'SEMT 071600Z 36006KT 9999 VCSH OVC023 28/25 Q1011 RMK A2988', 'SEMT 071500Z 36006KT 340V040 9999 BKN023 28/25 Q1011 RMK A2988', 'SEMT 071400Z 35005KT 9999 BKN023 28/25 Q1011 RMK A29', 'SEMT 071300Z 06005KT 9999 BKN020 27/25 Q1010 RMK A2984', 'SEMT 071200Z 18003KT 9999 BKN020 26/24 Q1009 RMK A2982', 'SEMT 071100Z 18002KT 9999 BKN020 26/24 Q1009 RMK A2981', 'SEMT 071000Z 20008KT 9999 BKN020 27/24 Q1009 RMK A2980', 'SEMT 070800Z 21006KT 9999 BKN020 27/25 Q1008 RMK A2979', 'SEMT 070600Z 18007KT 9999 BKN020 27/25 Q1010 RMK A2983', 'SEMT 070500Z 20006KT 9999 BKN020 27/25 Q1010 RMK A2984', 'SEMT 070400Z 22005KT 9999 BKN020 27/25 Q1010 RMK A2985', 'SEMT 070300Z 22006KT 9999 BKN020 27/24 Q1010 RMK A2985', 'SEMT 070200Z 20007KT 9999 BKN020 27/24 Q1009 RMK A2981', 'SEMT 070100Z 19008KT 9999 BKN020 28/24 Q1008 RMK A2979', 'SEMT 070000Z 20010KT 9999 BKN023 28/24 Q1007 RMK A2975', 'SEMT 062300Z 20011KT 150V210 9999 SCT023 30/24 Q1006 RMK A2973', 'SEMT 062200Z 26007KT 230V290 9999 FEW023 30/26 Q1006 RMK A2971', 'SEMT 062100Z 26009KT 9999 FEW023 30/26 Q1006 RMK A2972', 'SEMT 062000Z 27008KT 9999 SCT023 30/26 Q1007 RMK A2974', 'SEMT 061900Z 27009KT 9999 BKN023 29/26 Q1008 RMK A2977', 'SEMT 061800Z 36007KT 9999 6000 -SHRA BKN023 26/25 Q1009 RMK A2979', 'SEMT 061700Z 26007KT 230V300 9999 BKN023 30/25 Q1010 RMK A2982', 'SEMT 061600Z 19008KT 9999 BKN023 31/24 Q1010 RMK A2979', 'SEMT 061500Z 15006KT 060V230 9999 BKN023 32/24 Q1011 RMK A2986', 'SEMT 061400Z 19009KT 160V220 9999 BKN023 29/24 Q1011 RMK A2985', 'SEMT 061300Z 19005KT 160V220 9999 BKN023 28/24 Q1010 RMK A2983', 'SEMT 061200Z 22004KT 9999 BKN020 27/24 Q1009 RMK A2982', 'SEMT 061000Z 18004KT 9999 BKN020 27/24 Q1008 RMK A2979', 'SEMT 060900Z 18006KT 9999 BKN020 27/24 Q1008 RMK A2978', 'SEMT 060800Z 21004KT 9999 BKN020 27/24 Q1008 RMK A2979', 'SEMT 060700Z 14003KT 9999 BKN020 27/24 Q1009 RMK A2982', 'SEMT 060600Z 14003KT 9999 BKN020 27/24 Q1009 RMK A2982', 'SEMT 060500Z 18005KT 9999 SCT020 27/24 Q1010 RMK A2983', 'SEMT 060400Z 17005KT 9999 SCT020 27/24 Q1010 RMK A2983', 'SEMT 060300Z 21006KT 9999 SCT020 27/24 Q1010 RMK A2983', 'SEMT 060100Z 18006KT 9999 BKN020 28/23 Q1008 RMK A2978', 'SEMT 060000Z 16005KT 9999 BKN020 29/24 Q1007 RMK A2976', 'SEMT 052300Z 30004KT 9999 BKN020 29/25 Q1006 RMK A2973', 'SEMT 052200Z 23005KT 9999 SCT020 BKN100 30/24 Q1006 RMK A2972', 'SEMT 052100Z 16005KT 9999 SCT020 BKN100 29/24 Q1006 RMK A2972', 'SEMT 052000Z 28005KT 9999 SCT020 BKN100 30/24 Q1007 RMK A2974']","['2024-02-08 19:00:00', '2024-02-08 18:00:00', '2024-02-08 17:00:00', '2024-02-08 16:00:00', '2024-02-08 15:00:00', '2024-02-08 14:00:00', '2024-02-08 13:00:00', '2024-02-08 12:00:00', '2024-02-08 11:00:00', '2024-02-08 10:00:00', '2024-02-08 09:00:00', '2024-02-08 08:00:00', '2024-02-08 07:00:00', '2024-02-08 06:00:00', '2024-02-08 05:00:00', '2024-02-08 04:00:00', '2024-02-08 03:00:00', '2024-02-08 02:00:00', '2024-02-08 01:00:00', '2024-02-08 00:00:00', '2024-02-07 23:00:00', '2024-02-07 22:00:00', '2024-02-07 21:00:00', '2024-02-07 20:00:00', '2024-02-07 19:00:00', '2024-02-07 18:00:00', '2024-02-07 17:00:00', '2024-02-07 16:00:00', '2024-02-07 15:00:00', '2024-02-07 14:00:00', '2024-02-07 13:00:00', '2024-02-07 12:00:00', '2024-02-07 11:00:00', '2024-02-07 10:00:00', '2024-02-07 08:00:00', '2024-02-07 06:00:00', '2024-02-07 05:00:00', '2024-02-07 04:00:00', '2024-02-07 03:00:00', '2024-02-07 02:00:00', '2024-02-07 01:00:00', '2024-02-07 00:00:00', '2024-02-06 23:00:00', '2024-02-06 22:00:00', '2024-02-06 21:00:00', '2024-02-06 20:00:00', '2024-02-06 19:00:00', '2024-02-06 18:00:00', '2024-02-06 17:00:00', '2024-02-06 16:00:00', '2024-02-06 15:00:00', '2024-02-06 14:00:00', '2024-02-06 13:00:00', '2024-02-06 12:00:00', '2024-02-06 10:00:00', '2024-02-06 09:00:00', '2024-02-06 08:00:00', '2024-02-06 07:00:00', '2024-02-06 06:00:00', '2024-02-06 05:00:00', '2024-02-06 04:00:00', '2024-02-06 03:00:00', '2024-02-06 01:00:00', '2024-02-06 00:00:00', '2024-02-05 23:00:00', '2024-02-05 22:00:00', '2024-02-05 21:00:00', '2024-02-05 20:00:00']"
Ecuador, Quito Mariscal Sucre International Airport (UIO/SEQM) ,"['SEQM 081900Z 35008KT 280V030 9999 SCT040 25/11 Q1023 NOSIG RMK A3022', 'SEQM 081800Z 33006KT 220V020 9999 SCT040 25/10 Q1025 NOSIG RMK A3026', 'SEQM 081700Z 35006KT 280V040 9999 FEW040 23/10 Q1026 NOSIG RMK A3030', 'SEQM 081600Z VRB03KT 9999 FEW040 23/11 Q1027 NOSIG RMK A3034', 'SEQM 081500Z 26004KT 200V310 9999 FEW040 20/12 Q1028 NOSIG RMK A3036', 'SEQM 081400Z VRB02KT 9999 FEW040 18/11 Q1028 NOSIG RMK A3037', 'SEQM 081300Z 13004KT 110V170 9999 FEW030 12/11 Q1028 NOSIG RMK A3035', 'SEQM 081200Z 23002KT 9999 SCT020 SCT300 11/10 Q1027 NOSIG RMK A3033', 'SEQM 081100Z 18002KT 9999 FEW005 SCT300 11/10 Q1026 NOSIG RMK A3031', 'SEQM 081000Z 13003KT 100V170 9999 FEW005 OVC016 13/12 Q1026 NOSIG RMK A3030', 'SEQM 080900Z 14004KT 9999 FEW005 OVC020 12/11 Q1026 NOSIG RMK A3030', 'SEQM 080800Z 12003KT 9999 FEW005 BKN020 BKN300 11/10 Q1026 NOSIG RMK A3032', 'SEQM 080700Z 15002KT 9999 FEW005 BKN300 11/10 Q1027 NOSIG RMK A3034', 'SEQM 080600Z 11004KT 8000 BCFG FEW005 BKN020 12/10 Q1027 NOSIG RMK A3035', 'SEQM 080500Z 15003KT 8000 BCFG FEW005 BKN016 13/11 Q1029 NOSIG RMK A3038', 'SEQM 080400Z 12006KT 8000 BCFG FEW005 BKN016 13/12 Q1029 NOSIG RMK A3040', 'SEQM 080300Z 11003KT 080V140 8000 BCFG FEW005 BKN013 14/13 Q1028 NOSIG RMK A3037', 'SEQM 080200Z 01002KT 9999 FEW003 SCT300 13/12 Q1027 NOSIG RMK A3035', 'SEQM 080100Z 05004KT 9999 FEW020 SCT300 14/13 Q1026 NOSIG RMK A3032', 'SEQM 080000Z 09003KT 9999 FEW020 SCT080 BKN300 15/14 Q1026 NOSIG RMK A3030', 'SEQM 072300Z 00000KT 9999 FEW020 BKN080 17/14 Q1025 NOSIG RMK A3029', 'SEQM 072200Z 04003KT 020V080 9999 SCT020 BKN080 17/13 Q1026 NOSIG RMK A3030', 'SEQM 072100Z 04003KT 350V070 9999 SCT030 BKN080 17/14 Q1025 NOSIG RMK A3028', 'SEQM 072014Z 02007KT 9999 FEW020 SCT030 BKN080 17/14 Q1025 RETS NOSIG RMK A3028', 'SEQM 072000Z 36009KT 9999 -TSRA FEW020CB SCT026 BKN080 17/14 Q1025 BECMG AT2020 NSW RMK A3028', 'SEQM 071920Z 01011KT 9999 -TSRA FEW020CB SCT030TCU BKN080 18/15 Q1025 BECMG AT2000 NSW RMK A3029', 'SEQM 071900Z 02008KT 9999 -RA SCT030TCU BKN080 20/15 Q1025 NOSIG RMK A3029', 'SEQM 071800Z 36008KT 310V040 9999 VCSH FEW030 SCT100 23/11 Q1026 NOSIG RMK A3030', 'SEQM 071700Z 35007KT 230V040 9999 SCT030 22/10 Q1027 NOSIG RMK A3033', 'SEQM 071600Z 30003KT 270V050 9999 FEW030 21/10 Q1028 NOSIG RMK A3036', 'SEQM 071500Z 26004KT 200V320 9999 FEW030 20/10 Q1029 NOSIG RMK A3039', 'SEQM 071400Z 23004KT 200V290 9999 FEW030 18/12 Q1029 NOSIG RMK A3039', 'SEQM 071300Z 14002KT 9999 FEW030 16/12 Q1028 NOSIG RMK A3037', 'SEQM 071200Z 18003KT CAVOK 10/09 Q1027 NOSIG RMK A3034', 'SEQM 071100Z 15003KT CAVOK 09/08 Q1027 NOSIG RMK A3034', 'SEQM 071000Z 18003KT CAVOK 10/08 Q1026 NOSIG RMK A3032', 'SEQM 070900Z 08004KT CAVOK 11/09 Q1026 NOSIG RMK A3031', 'SEQM 070800Z 09004KT CAVOK 11/09 Q1026 NOSIG RMK A3032', 'SEQM 070700Z 17004KT 9999 FEW030 SCT100 11/10 Q1027 NOSIG RMK A3033', 'SEQM 070600Z VRB02KT 9999 FEW030 SCT100 12/11 Q1028 NOSIG RMK A3036', 'SEQM 070500Z 15003KT 9999 FEW030 13/12 Q1028 NOSIG RMK A3037', 'SEQM 070400Z VRB02KT 9999 SCT030 13/12 Q1029 NOSIG RMK A3038', 'SEQM 070300Z 11003KT 9999 FEW010 SCT030 13/12 Q1029 NOSIG RMK A3038', 'SEQM 070200Z VRB01KT 9999 FEW010 BKN030 14/13 Q1028 NOSIG RMK A3036', 'SEQM 070100Z 04004KT 9999 FEW010 SCT030 15/13 Q1027 NOSIG RMK A3032', 'SEQM 070000Z 03008KT 9999 SCT030 SCT300 16/13 Q1025 NOSIG RMK A3028', 'SEQM 062300Z 02008KT 9999 VCSH FEW026 SCT030 18/13 Q1024 NOSIG RMK A3026', 'SEQM 062200Z 01010KT 9999 SCT030 BKN100 19/13 Q1023 NOSIG RMK A3023', 'SEQM 062100Z 01011KT 9999 FEW026TCU SCT030 BKN100 20/14 Q1023 NOSIG RMK A3023', 'SEQM 062000Z 01010KT 330V040 9999 FEW026TCU SCT030 BKN100 21/14 Q1024 NOSIG RMK A3025', 'SEQM 061900Z 01007KT 9999 FEW026TCU SCT030 BKN100 22/11 Q1025 NOSIG RMK A3028', 'SEQM 061800Z 04004KT 9999 FEW026CB SCT030 BKN100 21/10 Q1026 NOSIG RMK A3031', 'SEQM 061700Z 02004KT 9999 SCT026 BKN100 20/10 Q1027 NOSIG RMK A3035', 'SEQM 061600Z 03003KT 9999 SCT026 BKN100 19/10 Q1028 NOSIG RMK A3037', 'SEQM 061500Z 35002KT 9999 FEW026 SCT100 17/11 Q1028 NOSIG RMK A3038', 'SEQM 061400Z 14001KT 9999 SCT020 16/11 Q1028 NOSIG RMK A3038', 'SEQM 061300Z 15003KT 8000 BCFG FEW005 SCT020 12/12 Q1028 BECMG TL1330 9999 RMK A3036', 'SEQM 061206Z VRB02KT 0800 R36/0550 FG OVC005 11/11 Q1027 BECMG TL1230 3000 BR RMK A3033', 'SEQM 061200Z 15002KT 5000 BR SCT005 BKN016 BKN300 10/09 Q1027 TEMPO 6000 RMK A3033', 'SEQM 061100Z 13005KT 8000 BCFG FEW005 SCT300 10/10 Q1026 BECMG AT1140 9999 RMK A3031', 'SEQM 061026Z 14005KT 8000 BCFG FEW005 BKN300 10/09 Q1026 NOSIG RMK A3030', 'SEQM 061000Z 17003KT 4000 BR FEW003 SCT300 10/09 Q1026 TEMPO 2000 RMK A3030', 'SEQM 060900Z 00000KT 9999 FEW005 SCT300 10/09 Q1026 NOSIG RMK A3030', 'SEQM 060800Z 12005KT 9999 FEW005 SCT300 12/11 Q1026 NOSIG RMK A3031', 'SEQM 060700Z 14005KT 9999 FEW005 SCT300 12/11 Q1026 NOSIG RMK A3032', 'SEQM 060600Z 18004KT 9999 FEW005 BKN300 12/12 Q1027 NOSIG RMK A3034', 'SEQM 060500Z 13004KT 9999 FEW005 BKN300 12/11 Q1028 NOSIG RMK A3035', 'SEQM 060400Z 09003KT 8000 BCFG FEW005 BKN300 13/12 Q1028 BECMG AT0430 9999 RMK A3037', 'SEQM 060319Z 00000KT CAVOK 12/11 Q1028 NOSIG', 'SEQM 060300Z 07002KT 9999 FEW005 SCT080 BKN300 13/12 Q1028 NOSIG RMK A3036', 'SEQM 060200Z 14001KT 9999 FEW003 SCT010 BKN080 14/13 Q1027 NOSIG RMK A3035', 'SEQM 060100Z 14002KT 9999 FEW005 BKN080 14/13 Q1027 NOSIG RMK A3033', 'SEQM 060000Z 33002KT 9999 FEW005 BKN020 OVC100 15/13 Q1026 NOSIG RMK A3030', 'SEQM 052300Z VRB02KT 9999 -RA BKN020 OVC100 15/14 Q1025 RERA NOSIG RMK A3028', 'SEQM 052200Z 12003KT 080V140 9999 -RA BKN020 OVC100 15/14 Q1024 NOSIG RMK A3026', 'SEQM 052100Z 29004KT 9999 -RA FEW015 OVC030 16/13 Q1023 RETS NOSIG RMK A3024', 'SEQM 052013Z 05005KT 9999 -TSRA FEW020CB BKN030 18/14 Q1024 BECMG FM2030 NSW RMK A3024', 'SEQM 052000Z 05005KT 9999 TS VCSH FEW020CB BKN030 18/14 Q1024 BECMG FM2030 NSW RMK A3024']","['2024-02-08 19:00:00', '2024-02-08 18:00:00', '2024-02-08 17:00:00', '2024-02-08 16:00:00', '2024-02-08 15:00:00', '2024-02-08 14:00:00', '2024-02-08 13:00:00', '2024-02-08 12:00:00', '2024-02-08 11:00:00', '2024-02-08 10:00:00', '2024-02-08 09:00:00', '2024-02-08 08:00:00', '2024-02-08 07:00:00', '2024-02-08 06:00:00', '2024-02-08 05:00:00', '2024-02-08 04:00:00', '2024-02-08 03:00:00', '2024-02-08 02:00:00', '2024-02-08 01:00:00', '2024-02-08 00:00:00', '2024-02-07 23:00:00', '2024-02-07 22:00:00', '2024-02-07 21:00:00', '2024-02-07 20:14:00', '2024-02-07 20:00:00', '2024-02-07 19:20:00', '2024-02-07 19:00:00', '2024-02-07 18:00:00', '2024-02-07 17:00:00', '2024-02-07 16:00:00', '2024-02-07 15:00:00', '2024-02-07 14:00:00', '2024-02-07 13:00:00', '2024-02-07 12:00:00', '2024-02-07 11:00:00', '2024-02-07 10:00:00', '2024-02-07 09:00:00', '2024-02-07 08:00:00', '2024-02-07 07:00:00', '2024-02-07 06:00:00', '2024-02-07 05:00:00', '2024-02-07 04:00:00', '2024-02-07 03:00:00', '2024-02-07 02:00:00', '2024-02-07 01:00:00', '2024-02-07 00:00:00', '2024-02-06 23:00:00', '2024-02-06 22:00:00', '2024-02-06 21:00:00', '2024-02-06 20:00:00', '2024-02-06 19:00:00', '2024-02-06 18:00:00', '2024-02-06 17:00:00', '2024-02-06 16:00:00', '2024-02-06 15:00:00', '2024-02-06 14:00:00', '2024-02-06 13:00:00', '2024-02-06 12:06:00', '2024-02-06 12:00:00', '2024-02-06 11:00:00', '2024-02-06 10:26:00', '2024-02-06 10:00:00', '2024-02-06 09:00:00', '2024-02-06 08:00:00', '2024-02-06 07:00:00', '2024-02-06 06:00:00', '2024-02-06 05:00:00', '2024-02-06 04:00:00', '2024-02-06 03:19:00', '2024-02-06 03:00:00', '2024-02-06 02:00:00', '2024-02-06 01:00:00', '2024-02-06 00:00:00', '2024-02-05 23:00:00', '2024-02-05 22:00:00', '2024-02-05 21:00:00', '2024-02-05 20:13:00', '2024-02-05 20:00:00']"
Ecuador, Salinas General Ulpiano Paez Airport (SNC/SESA) ,"['SESA 081900Z 26009KT 9999 FEW007 SCT090 30/26 Q1009 RMK A2982', 'SESA 081720Z 23003KT 8000 4000E -DZ SCT005 SCT009 BKN070 29/26 Q1011 RERA RMK A2987', 'SESA 081700Z 06005KT 4000 2000E RA SCT004 SCT008 BKN070 29/26 Q1011 RMK A2987', 'SESA 081600Z 22004KT 9999 VCSH FEW005 SCT009 BKN090 29/25 Q1011 RMK A2988', 'SESA 081500Z 17006KT 9999 VCSH SCT007 BKN100 29/25 Q1012 RMK A2988', 'SESA 081400Z 19009KT 9999 VCSH SCT007 BKN100 28/25 Q1011 RMK A2988', 'SESA 081300Z 19011KT 9999 FEW005 SCT008 BKN100 28/24 Q1011 RMK A2985', 'SESA 081200Z 19011KT 9999 FEW005 SCT008 BKN100 28/25 Q1010 RMK A2984', 'SESA 081100Z 19012KT 9999 FEW005 SCT008 BKN100 27/25 Q1010 RMK A2983', 'SESA 080400Z 22009KT 9999 FEW005 SCT007 BKN100 27/25 Q1012 RMK A2989', 'SESA 080300Z 21011KT 9999 FEW003 SCT007 BKN100 27/25 Q1012 RMK A2990', 'SESA 080200Z 22010KT 9999 -RA FEW003 SCT007 BKN100 28/25 Q1012 RMK A2987', 'SESA 080100Z 22009KT 9999 FEW005 SCT007 BKN100 28/24 Q1011 RMK A2985', 'SESA 080000Z 23012KT 9999 SCT008 BKN100 28/24 Q1010 RMK A2983', 'SESA 072300Z 25010KT 9999 SCT010 BKN100 30/24 Q1009 RMK A2980', 'SESA 072200Z 23009KT 9999 SCT010 30/24 Q1009 RMK A2979', 'SESA 072100Z 23012KT 9999 FEW010 31/24 Q1008 RMK A2979', 'SESA 072000Z 23010KT 9999 FEW010 30/24 Q1009 RMK A2982', 'SESA 071900Z 23011KT 9999 FEW010 32/25 Q1010 RMK A2989', 'SESA 071800Z 24010KT 9999 FEW010 SCT100 32/25 Q1011 RMK A2987', 'SESA 071700Z 24009KT 9999 FEW010 SCT100 31/25 Q1012 RMK A2989', 'SESA 071600Z 20009KT 9999 FEW008 BKN100 30/25 Q1012 RMK A2990', 'SESA 071500Z 20010KT 9999 VCSH SCT007 BKN100 29/25 Q1012 RMK A2991', 'SESA 071400Z 21009KT 9999 VCSH FEW007 SCT008 BKN100 29/26 Q1012 RMK A2990', 'SESA 071300Z 21008KT 9999 -RA FEW005 SCT007 BKN100 28/25 Q1012 RMK A2988', 'SESA 071200Z 22007KT 9999 FEW005 SCT007 BKN100 28/25 Q1011 RMK A2985', 'SESA 071100Z 20006KT 9999 FEW008 BKN100 27/25 Q1010 RMK A2984', 'SESA 070300Z 20009KT 9999 SCT007 28/25 Q1012 RMK A2989', 'SESA 070200Z 20009KT 9999 FEW010 28/25 Q1011 RMK A2987', 'SESA 070100Z 23007KT 9999 FEW010 28/25 Q1010 RMK A2982', 'SESA 070000Z 23010T 9999 FEW010 28/25 Q1009 RMK A2980', 'SESA 062300Z 22009KT 9999 FEW010 29/25 Q1008 RMK A2978', 'SESA 062200Z 23011KT 9999 FEW010 30/24 Q1008 RMK A2977', 'SESA 062100Z 22011KT 9999 FEW010 31/25 Q1008 RMK A2978', 'SESA 062000Z 21012T 9999 FEW010 32/25 Q1009 RMK A2981', 'SESA 061900Z 21010T 9999 FEW010 32/25 Q1010 RMK A2984', 'SESA 061800Z 22010T 9999 FEW010 31/25 Q1011 RMK A2987', 'SESA 061700Z 22011T 9999 SCT010 32/25 Q1012 RMK A2989', 'SESA 061600Z 21008T 9999 FEW010 31/25 Q1012 RMK A2991', 'SESA 061500Z 18010T 9999 SCT010 309/25 Q1012 RMK A2990', 'SESA 061400Z 18011T 9999 SCT007 29/25 Q1012 RMK A2990', 'SESA 061300Z 19013T 9999 SCT007 BKN100 28/25 Q1012 RMK A2988', 'SESA 061200Z 19010T 9999 FEW005 BKN100 28/25 Q1010 RMK A2986', 'SESA 061100Z 19016T 9999 FEW005 SCT007 BKN100 27/25 Q1010 RMK A2984', 'SESA 052300Z 20010T 9999 FEW010 SCT100 29/25 Q1008 RMK A2978', 'SESA 052100Z 20010KT 9999 FEW010 BKN100 30/24 Q1008 RMK A2977', 'SESA 052000Z 19010KT 9999 FEW010 BKN100 30/24 Q1009 RMK A2979']","['2024-02-08 19:00:00', '2024-02-08 17:20:00', '2024-02-08 17:00:00', '2024-02-08 16:00:00', '2024-02-08 15:00:00', '2024-02-08 14:00:00', '2024-02-08 13:00:00', '2024-02-08 12:00:00', '2024-02-08 11:00:00', '2024-02-08 04:00:00', '2024-02-08 03:00:00', '2024-02-08 02:00:00', '2024-02-08 01:00:00', '2024-02-08 00:00:00', '2024-02-07 23:00:00', '2024-02-07 22:00:00', '2024-02-07 21:00:00', '2024-02-07 20:00:00', '2024-02-07 19:00:00', '2024-02-07 18:00:00', '2024-02-07 17:00:00', '2024-02-07 16:00:00', '2024-02-07 15:00:00', '2024-02-07 14:00:00', '2024-02-07 13:00:00', '2024-02-07 12:00:00', '2024-02-07 11:00:00', '2024-02-07 03:00:00', '2024-02-07 02:00:00', '2024-02-07 01:00:00', '2024-02-07 00:00:00', '2024-02-06 23:00:00', '2024-02-06 22:00:00', '2024-02-06 21:00:00', '2024-02-06 20:00:00', '2024-02-06 19:00:00', '2024-02-06 18:00:00', '2024-02-06 17:00:00', '2024-02-06 16:00:00', '2024-02-06 15:00:00', '2024-02-06 14:00:00', '2024-02-06 13:00:00', '2024-02-06 12:00:00', '2024-02-06 11:00:00', '2024-02-05 23:00:00', '2024-02-05 21:00:00', '2024-02-05 20:00:00']"
Ecuador, San Cristobal Airport (SCY/SEST) ,"['SEST 081900Z 16008KT 9999 SCT020 30/23 Q1009 RMK A2980', 'SEST 081800Z 14009KT 9999 SCT020 30/23 Q1009 RMK A2981', 'SEST 081700Z 15010KT 9999 SCT020 30/24 Q1010 RMK A2984', 'SEST 081600Z 14011KT 9999 SCT020 28/25 Q1011 RMK A2985', 'SEST 081500Z 13007KT 9999 SCT020 27/24 Q1010 RMK A2985', 'SEST 072200Z 14010KT 9999 SCT023 29/25 Q1008 RMK A2977', 'SEST 072100Z 15008KT 9999 SCT023 31/24 Q1008 RMK A2978', 'SEST 072000Z 13010KT 9999 SCT023 30/25 Q1008 RMK A2978', 'SEST 071900Z 15010KT 9999 SCT023 31/25 Q1009 RMK A2981', 'SEST 071800Z 13012KT 9999 SCT023 30/25 Q1010 RMK A2983', 'SEST 071700Z 14012KT 9999 SCT020 30/25 Q1010 RMK A2984', 'SEST 071600Z 14011KT 9999 SCT020 29/24 Q1011 RMK A2986', 'SEST 071500Z 14009KT 9999 SCT020 28/25 Q1011 RMK A2986', 'SEST 071400Z 14011KT 9999 SCT016 27/24 Q1010 RMK A2984', 'SEST 071300Z 13008KT 9999 SCT016 26/25 Q1010 RMK A2983', 'SEST 062200Z 14008KT 9999 -RA SCT020 BKN080 27/24 Q1007 RMK A2973', 'SEST 062100Z 13009KT 9999 SCT020 BKN080 28/24 Q1008 RMK A2975', 'SEST 062000Z 14008KT 9999 FEW020 BKN080 29/25 Q1008 RMK A2976', 'SEST 061900Z 14012KT 9999 SCT020 BKN080 30/24 Q1009 RMK A2979', 'SEST 061800Z 16013KT 9999 VCSH SCT015 BKN050 29/26 Q1010 RMK A2983', 'SEST 061700Z 14010KT 9999 4000E -RA SCT013 BKN050 29/26 Q1010 RMK A2985', 'SEST 061600Z 15013KT 9999 SCT016 SCT050 29/26 Q1011 RMK A2986', 'SEST 061500Z 15012KT 9999 FEW016 SCT060 28/26 Q1011 RMK A2986', 'SEST 061400Z 12008KT 9999 SCT016 SCT050 27/25 Q1010 RMK A2983', 'SEST 052200Z 16008KT 9999 FEW020 29/25 Q1007 RMK A2974', 'SEST 052100Z 15010KT 9999 FEW020 30/25 Q1007 RMK A2975', 'SEST 052000Z 15013KT 9999 SCT020 30/24 Q1008 RMK A2978']","['2024-02-08 19:00:00', '2024-02-08 18:00:00', '2024-02-08 17:00:00', '2024-02-08 16:00:00', '2024-02-08 15:00:00', '2024-02-07 22:00:00', '2024-02-07 21:00:00', '2024-02-07 20:00:00', '2024-02-07 19:00:00', '2024-02-07 18:00:00', '2024-02-07 17:00:00', '2024-02-07 16:00:00', '2024-02-07 15:00:00', '2024-02-07 14:00:00', '2024-02-07 13:00:00', '2024-02-06 22:00:00', '2024-02-06 21:00:00', '2024-02-06 20:00:00', '2024-02-06 19:00:00', '2024-02-06 18:00:00', '2024-02-06 17:00:00', '2024-02-06 16:00:00', '2024-02-06 15:00:00', '2024-02-06 14:00:00', '2024-02-05 22:00:00', '2024-02-05 21:00:00', '2024-02-05 20:00:00']"
Ecuador, Santa Rosa International Airport (ETR/SERO) ,"['SERO 081900Z 32009KT 9999 FEW016 BKN080 30/24 Q1009', 'SERO 081800Z 35009KT 9999 FEW016 BKN070 30/25 Q1010', 'SERO 081700Z 36009KT 9999 SCT016 BKN070 30/25 Q1011', 'SERO 081600Z 34007KT 9999 SCT013 29/25 Q1011', 'SERO 081500Z 35009KT 9999 SCT013 BKN040 28/25 Q1011', 'SERO 081400Z 36007KT 9999 SCT013 28/25 Q1011', 'SERO 081300Z 00000KT 9999 FEW020 BKN080 26/25 Q1010', 'SERO 081200Z 16003KT 9999 FEW007 OVC020 25/25 Q1010', 'SERO 080000Z 33010KT 9999 -RA SCT010 BKN020 BKN080 27/24 Q1010', 'SERO 072300Z 00000KT 9999 VCSH SCT010 BKN020 BKN100 27/25 Q1009', 'SERO 072200Z 03006KT 9999 -RA SCT010 SCT020 OVC100 27/25 Q1008', 'SERO 072100Z 32006KT 9999 -RA FEW010 SCT020 BKN100 30/26 Q1008', 'SERO 072000Z 31009KT 9999 VCSH FEW010 SCT020 BKN100 30/25 Q1009', 'SERO 071900Z 32012KT 9999 FEW010 SCT020 BKN100 32/25 Q1009', 'SERO 071800Z 30009KT 9999 FEW010 SCT100 32/25 Q1010', 'SERO 071700Z 32007KT 9999 FEW010 SCT100 31/25 Q1011', 'SERO 071600Z 35008KT 9999 SCT010 SCT020 31/25 Q1011', 'SERO 071500Z 33005KT 9999 SCT010 30/25 Q1012', 'SERO 071400Z 06004KT 9999 FEW010 29/25 Q1012', 'SERO 071300Z 00000KT 9999 FEW010 26/25 Q1011', 'SERO 071200Z 00000KT 9999 FEW010 BKN020 26/25 Q1010', 'SERO 062300Z 29004KT 9999 FEW026 SCT070 30/25 Q1008', 'SERO 062200Z 32009KT 9999 FEW013 SCT070 31/25 Q1007', 'SERO 062100Z 30007KT 9999 FEW016 SCT070 32/24 Q1007', 'SERO 062000Z 30006KT 9999 FEW016 SCT080 32/24 Q1008', 'SERO 061900Z 35006KT 9999 FEW016 SCT080 32/25 Q1009', 'SERO 061800Z 00000KT 9999 FEW016 BKN080 32/23 Q1010', 'SERO 061600Z 33004KT 9999 FEW016 31/24 Q1011', 'SERO 061500Z 24003KT 9999 FEW013 30/24 Q1012', 'SERO 061400Z 00000KT 9999 FEW080 28/24 Q1012', 'SERO 061300Z 00000KT 9999 BKN080 26/25 Q1012', 'SERO 061200Z 00000KT 9999 SCT080 25/24 Q1011', 'SERO 060000Z 00000KT 9999 -RA BKN020 BKN080 28/24 Q1009', 'SERO 052300Z 30007KT 9999 BKN020 29/23 Q1008', 'SERO 052200Z 29011KT 9999 FEW010 BKN020 30/23 Q1007', 'SERO 052100Z 30004KT 9999 FEW010 SCT100 32/23 Q1007', 'SERO 052000Z 24006KT 9999 FEW010 SCT100 32/23 Q1007']","['2024-02-08 19:00:00', '2024-02-08 18:00:00', '2024-02-08 17:00:00', '2024-02-08 16:00:00', '2024-02-08 15:00:00', '2024-02-08 14:00:00', '2024-02-08 13:00:00', '2024-02-08 12:00:00', '2024-02-08 00:00:00', '2024-02-07 23:00:00', '2024-02-07 22:00:00', '2024-02-07 21:00:00', '2024-02-07 20:00:00', '2024-02-07 19:00:00', '2024-02-07 18:00:00', '2024-02-07 17:00:00', '2024-02-07 16:00:00', '2024-02-07 15:00:00', '2024-02-07 14:00:00', '2024-02-07 13:00:00', '2024-02-07 12:00:00', '2024-02-06 23:00:00', '2024-02-06 22:00:00', '2024-02-06 21:00:00', '2024-02-06 20:00:00', '2024-02-06 19:00:00', '2024-02-06 18:00:00', '2024-02-06 16:00:00', '2024-02-06 15:00:00', '2024-02-06 14:00:00', '2024-02-06 13:00:00', '2024-02-06 12:00:00', '2024-02-06 00:00:00', '2024-02-05 23:00:00', '2024-02-05 22:00:00', '2024-02-05 21:00:00', '2024-02-05 20:00:00']"
Egypt, Abu Simbel Airport (ABS/HEBL) ,"['HEBL 081800Z 34004KT CAVOK 21/02 Q1016 NOSIG', 'HEBL 081400Z 02010KT CAVOK 25/03 Q1016 NOSIG', 'HEBL 081300Z 06008KT CAVOK 24/04 Q1016 NOSIG', 'HEBL 081200Z 06008KT CAVOK 23/05 Q1016 NOSIG', 'HEBL 081100Z 03010KT CAVOK 22/04 Q1017 NOSIG', 'HEBL 081000Z 03010KT CAVOK 21/05 Q1018 NOSIG', 'HEBL 080900Z 03010KT CAVOK 20/06 Q1019 NOSIG', 'HEBL 080800Z 00000KT CAVOK 17/03 Q1020 NOSIG', 'HEBL 080700Z 00000KT CAVOK 16/02 Q1020 NOSIG', 'HEBL 080600Z 00000KT CAVOK 11/01 Q1019 NOSIG', 'HEBL 080500Z 00000KT CAVOK 10/03 Q1017 NOSIG', 'HEBL 080400Z 00000KT CAVOK 09/02 Q1017 NOSIG', 'HEBL 080300Z 27004KT CAVOK 09/01 Q1017 NOSIG', 'HEBL 080200Z 00000KT CAVOK 09/04 Q1018 NOSIG', 'HEBL 080100Z 00000KT CAVOK 09/03 Q1018 NOSIG', 'HEBL 080000Z 29004KT CAVOK 10/02 Q1018 NOSIG', 'HEBL 072300Z 00000KT CAVOK 11/01 Q1018 NOSIG', 'HEBL 072200Z 29006KT CAVOK 12/02 Q1019 NOSIG', 'HEBL 072100Z 29005KT CAVOK 13/02 Q1019 NOSIG', 'HEBL 072000Z 31006KT CAVOK 16/03 Q1019 NOSIG', 'HEBL 071900Z 31004KT CAVOK 17/02 Q1019 NOSIG', 'HEBL 071800Z 31004KT CAVOK 18/01 Q1019 NOSIG', 'HEBL 071700Z 06008KT CAVOK 21/01 Q1018 NOSIG', 'HEBL 071600Z 06008KT CAVOK 22/01 Q1017 NOSIG', 'HEBL 071500Z 06007KT CAVOK 23/02 Q1017 NOSIG', 'HEBL 071400Z 07008KT CAVOK 22/02 Q1018 NOSIG', 'HEBL 071200Z 08007KT CAVOK 22/04 Q1018 NOSIG', 'HEBL 071000Z 04007KT CAVOK 19/04 Q1021 NOSIG', 'HEBL 070900Z 02010KT CAVOK 18/05 Q1021 NOSIG', 'HEBL 070800Z 36006KT CAVOK 17/04 Q1023 NOSIG', 'HEBL 070700Z 35004KT CAVOK 16/03 Q1023 NOSIG', 'HEBL 070600Z 34006KT CAVOK 12/02 Q1022 NOSIG', 'HEBL 070500Z 35004KT CAVOK 10/01 Q1022 NOSIG', 'HEBL 070400Z 36006KT CAVOK 09/00 Q1022 NOSIG', 'HEBL 070300Z 34008KT CAVOK 10/01 Q1022 NOSIG', 'HEBL 070100Z 36006KT CAVOK 12/02 Q1022 NOSIG', 'HEBL 070000Z 34006KT CAVOK 13/02 Q1022 NOSIG', 'HEBL 062300Z 36004KT CAVOK 13/00 Q1023 NOSIG', 'HEBL 062200Z 33005KT CAVOK 14/01 Q1023 NOSIG', 'HEBL 062100Z 33007KT CAVOK 15/02 Q1023 NOSIG', 'HEBL 062000Z 35006KT CAVOK 16/M02 Q1024 NOSIG', 'HEBL 061900Z 35006KT CAVOK 17/M00 Q1024 NOSIG', 'HEBL 061800Z 35005KT CAVOK 18/00 Q1023 NOSIG', 'HEBL 061700Z 35008KT CAVOK 19/02 Q1023 NOSIG', 'HEBL 061600Z 35009KT CAVOK 20/00 Q1022 NOSIG', 'HEBL 061500Z 08005KT CAVOK 20/03 Q1022 NOSIG', 'HEBL 061400Z 06005KT CAVOK 20/03 Q1022 NOSIG', 'HEBL 061300Z 09008KT CAVOK 20/03 Q1022 NOSIG', 'HEBL 061200Z 08008KT CAVOK 19/04 Q1023 NOSIG', 'HEBL 061100Z 02010KT CAVOK 21/05 Q1024 NOSIG', 'HEBL 061000Z 02012KT CAVOK 20/04 Q1025 NOSIG', 'HEBL 060900Z 02013KT CAVOK 18/03 Q1026 NOSIG', 'HEBL 060800Z 06006KT CAVOK 15/03 Q1025 NOSIG', 'HEBL 060700Z 06006KT CAVOK 13/04 Q1026 NOSIG', 'HEBL 060600Z 06005KT CAVOK 12/03 Q1026 NOSIG', 'HEBL 060500Z 36006KT CAVOK 10/01 Q1026 NOSIG', 'HEBL 060400Z 36006KT CAVOK 09/01 Q1026 NOSIG', 'HEBL 060300Z 35006KT CAVOK 10/00 Q1025 NOSIG', 'HEBL 060200Z 00000KT CAVOK 10/M02 Q1025 NOSIG', 'HEBL 060100Z 00000KT CAVOK 11/M01 Q1025 NOSIG', 'HEBL 060000Z 34006KT CAVOK 12/M01 Q1025 NOSIG', 'HEBL 052300Z 34004KT CAVOK 13/M03 Q1025 NOSIG', 'HEBL 052200Z 34006KT CAVOK 14/M02 Q1025 NOSIG', 'HEBL 052100Z 34006KT CAVOK 15/M01 Q1026 NOSIG', 'HEBL 052000Z 33006KT CAVOK 16/M03 Q1025 NOSIG']","['2024-02-08 18:00:00', '2024-02-08 14:00:00', '2024-02-08 13:00:00', '2024-02-08 12:00:00', '2024-02-08 11:00:00', '2024-02-08 10:00:00', '2024-02-08 09:00:00', '2024-02-08 08:00:00', '2024-02-08 07:00:00', '2024-02-08 06:00:00', '2024-02-08 05:00:00', '2024-02-08 04:00:00', '2024-02-08 03:00:00', '2024-02-08 02:00:00', '2024-02-08 01:00:00', '2024-02-08 00:00:00', '2024-02-07 23:00:00', '2024-02-07 22:00:00', '2024-02-07 21:00:00', '2024-02-07 20:00:00', '2024-02-07 19:00:00', '2024-02-07 18:00:00', '2024-02-07 17:00:00', '2024-02-07 16:00:00', '2024-02-07 15:00:00', '2024-02-07 14:00:00', '2024-02-07 12:00:00', '2024-02-07 10:00:00', '2024-02-07 09:00:00', '2024-02-07 08:00:00', '2024-02-07 07:00:00', '2024-02-07 06:00:00', '2024-02-07 05:00:00', '2024-02-07 04:00:00', '2024-02-07 03:00:00', '2024-02-07 01:00:00', '2024-02-07 00:00:00', '2024-02-06 23:00:00', '2024-02-06 22:00:00', '2024-02-06 21:00:00', '2024-02-06 20:00:00', '2024-02-06 19:00:00', '2024-02-06 18:00:00', '2024-02-06 17:00:00', '2024-02-06 16:00:00', '2024-02-06 15:00:00', '2024-02-06 14:00:00', '2024-02-06 13:00:00', '2024-02-06 12:00:00', '2024-02-06 11:00:00', '2024-02-06 10:00:00', '2024-02-06 09:00:00', '2024-02-06 08:00:00', '2024-02-06 07:00:00', '2024-02-06 06:00:00', '2024-02-06 05:00:00', '2024-02-06 04:00:00', '2024-02-06 03:00:00', '2024-02-06 02:00:00', '2024-02-06 01:00:00', '2024-02-06 00:00:00', '2024-02-05 23:00:00', '2024-02-05 22:00:00', '2024-02-05 21:00:00', '2024-02-05 20:00:00']"
Egypt, Alexandria Borg El Arab Airport (HBE/HEBA) ,"['HEBA 081800Z 00000KT CAVOK 14/11 Q1018 NOSIG', 'HEBA 081700Z 01004KT CAVOK 15/11 Q1018 NOSIG', 'HEBA 081600Z 33004KT CAVOK 17/12 Q1018 NOSIG', 'HEBA 081500Z 33005KT CAVOK 19/12 Q1018 NOSIG', 'HEBA 081400Z 30004KT 9999 FEW020 SCT100 20/12 Q1018 NOSIG', 'HEBA 081300Z 27005KT 9999 FEW020 SCT100 21/10 Q1019 NOSIG', 'HEBA 081200Z 19004KT 9999 FEW020 22/12 Q1019 NOSIG', 'HEBA 081100Z 18005KT CAVOK 20/13 Q1020 NOSIG', 'HEBA 081000Z 16006KT 6000 NSC 18/14 Q1021 NOSIG', 'HEBA 080900Z 15006KT 6000 NSC 17/14 Q1021 NOSIG', 'HEBA 080800Z 14008KT 2000 BR NSC 15/14 Q1022 NOSIG', 'HEBA 080700Z 15006KT 1500 R32R/1500 BR NSC 12/11 Q1022 NOSIG', 'HEBA 080600Z 14006KT 0800 R32/0800 FG NSC 10/09 Q1022 NOSIG', 'HEBA 080500Z 15006KT 0800 R32/0800 FG NSC 09/08 Q1021 NOSIG', 'HEBA 080400Z 12006KT 3000 BR NSC 10/09 Q1021 NOSIG', 'HEBA 080300Z 13007KT 3000 BR NSC 10/09 Q1021 NOSIG', 'HEBA 080200Z 12006KT 3000 BR NSC 10/09 Q1021 NOSIG', 'HEBA 080100Z 13006KT 3000 BR NSC 10/09 Q1021 NOSIG', 'HEBA 080000Z 12004KT 3000 BR NSC 11/09 Q1022 NOSIG', 'HEBA 072300Z 11006KT 6000 NSC 12/10 Q1022 NOSIG', 'HEBA 072200Z 10005KT 6000 NSC 12/10 Q1022 NOSIG', 'HEBA 072100Z 08004KT 6000 NSC 13/11 Q1022 NOSIG', 'HEBA 072000Z 10005KT CAVOK 14/12 Q1023 NOSIG', 'HEBA 071900Z 10005KT CAVOK 14/11 Q1023 NOSIG', 'HEBA 071800Z 08004KT CAVOK 15/11 Q1023 NOSIG', 'HEBA 071700Z 32005KT 9999 FEW020 16/12 Q1022 NOSIG', 'HEBA 071600Z 33006KT 9999 FEW020 17/12 Q1022 NOSIG', 'HEBA 071500Z 32006KT 9999 FEW020 18/11 Q1022 NOSIG', 'HEBA 071400Z 00000KT 9999 SCT020 19/13 Q1023 NOSIG', 'HEBA 071300Z 00000KT 9999 SCT020 20/13 Q1023 NOSIG', 'HEBA 071200Z 24004KT 9999 SCT020 19/13 Q1023 NOSIG', 'HEBA 071100Z 14005KT 9999 SCT020 SCT022 20/13 Q1024 NOSIG', 'HEBA 071000Z 11005KT 9999 SCT020 19/13 Q1024 NOSIG', 'HEBA 070900Z 17004KT 9999 SCT020 18/14 Q1025 NOSIG', 'HEBA 070800Z 19004KT 6000 SCT020 15/14 Q1026 NOSIG', 'HEBA 070700Z 21005KT 3000 BR SCT020 13/12 Q1026 NOSIG', 'HEBA 070600Z 19006KT 9999 FEW020 10/09 Q1026 NOSIG', 'HEBA 070500Z 21004KT 9999 SCT020 09/08 Q1025 NOSIG', 'HEBA 070400Z 20006KT 9999 SCT020 09/08 Q1025 NOSIG', 'HEBA 070300Z 19004KT 9999 SCT020 10/09 Q1025 NOSIG', 'HEBA 070100Z 25004KT 9999 SCT020 12/11 Q1026 NOSIG', 'HEBA 070000Z 24005KT 9999 SCT020 13/11 Q1026 NOSIG', 'HEBA 062300Z 23005KT 9999 SCT020 12/10 Q1027 NOSIG', 'HEBA 062200Z 23005KT 9999 SCT020 12/10 Q1027 NOSIG', 'HEBA 062100Z 21005KT 9999 SCT020 13/10 Q1027 NOSIG', 'HEBA 062000Z 24004KT 9999 SCT020 14/11 Q1027 NOSIG', 'HEBA 061900Z 23004KT 9999 SCT020 14/11 Q1027 NOSIG', 'HEBA 061800Z 25004KT 9999 SCT020 15/12 Q1027 NOSIG', 'HEBA 061700Z 27004KT 9999 SCT020 15/12 Q1026 NOSIG', 'HEBA 061600Z 30005KT 9999 SCT020 16/12 Q1026 NOSIG', 'HEBA 061500Z 27007KT 9999 SCT020 SCT022 17/13 Q1026 NOSIG', 'HEBA 061400Z 31010KT 9999 SCT020 SCT022 19/13 Q1026 NOSIG', 'HEBA 061300Z 31011KT 9999 SCT020 SCT022 18/13 Q1026 NOSIG', 'HEBA 061200Z 29010KT 9999 SCT020 SCT022 18/14 Q1026 NOSIG', 'HEBA 061100Z 27010KT 9999 SCT020 SCT022 18/14 Q1026 NOSIG', 'HEBA 061000Z 27008KT 9999 SCT020 SCT022 18/14 Q1027 NOSIG', 'HEBA 060900Z 28008KT 9999 SCT020 18/14 Q1027 NOSIG', 'HEBA 060800Z 27006KT 9999 SCT020 16/14 Q1027 NOSIG', 'HEBA 060700Z 26007KT 9999 SCT020 14/12 Q1027 NOSIG', 'HEBA 060600Z 24006KT 9999 SCT020 12/10 Q1027 NOSIG', 'HEBA 060500Z 25003KT 9999 SCT020 12/10 Q1026 NOSIG', 'HEBA 060400Z 24003KT 9999 SCT020 11/10 Q1026 NOSIG', 'HEBA 060300Z 24004KT 9999 SCT020 11/10 Q1026 NOSIG', 'HEBA 060200Z 24005KT 9999 SCT020 11/10 Q1026 NOSIG', 'HEBA 060100Z 25005KT 9999 SCT020 12/10 Q1026 NOSIG', 'HEBA 060000Z 24006KT 9999 SCT020 12/10 Q1026 NOSIG', 'HEBA 052300Z 25004KT 9999 SCT020 12/10 Q1026 NOSIG', 'HEBA 052200Z 26005KT 9999 SCT020 13/11 Q1026 NOSIG', 'HEBA 052100Z 27006KT 9999 SCT020 13/11 Q1026 NOSIG', 'HEBA 052000Z 28005KT 9999 SCT020 13/10 Q1026 NOSIG']","['2024-02-08 18:00:00', '2024-02-08 17:00:00', '2024-02-08 16:00:00', '2024-02-08 15:00:00', '2024-02-08 14:00:00', '2024-02-08 13:00:00', '2024-02-08 12:00:00', '2024-02-08 11:00:00', '2024-02-08 10:00:00', '2024-02-08 09:00:00', '2024-02-08 08:00:00', '2024-02-08 07:00:00', '2024-02-08 06:00:00', '2024-02-08 05:00:00', '2024-02-08 04:00:00', '2024-02-08 03:00:00', '2024-02-08 02:00:00', '2024-02-08 01:00:00', '2024-02-08 00:00:00', '2024-02-07 23:00:00', '2024-02-07 22:00:00', '2024-02-07 21:00:00', '2024-02-07 20:00:00', '2024-02-07 19:00:00', '2024-02-07 18:00:00', '2024-02-07 17:00:00', '2024-02-07 16:00:00', '2024-02-07 15:00:00', '2024-02-07 14:00:00', '2024-02-07 13:00:00', '2024-02-07 12:00:00', '2024-02-07 11:00:00', '2024-02-07 10:00:00', '2024-02-07 09:00:00', '2024-02-07 08:00:00', '2024-02-07 07:00:00', '2024-02-07 06:00:00', '2024-02-07 05:00:00', '2024-02-07 04:00:00', '2024-02-07 03:00:00', '2024-02-07 01:00:00', '2024-02-07 00:00:00', '2024-02-06 23:00:00', '2024-02-06 22:00:00', '2024-02-06 21:00:00', '2024-02-06 20:00:00', '2024-02-06 19:00:00', '2024-02-06 18:00:00', '2024-02-06 17:00:00', '2024-02-06 16:00:00', '2024-02-06 15:00:00', '2024-02-06 14:00:00', '2024-02-06 13:00:00', '2024-02-06 12:00:00', '2024-02-06 11:00:00', '2024-02-06 10:00:00', '2024-02-06 09:00:00', '2024-02-06 08:00:00', '2024-02-06 07:00:00', '2024-02-06 06:00:00', '2024-02-06 05:00:00', '2024-02-06 04:00:00', '2024-02-06 03:00:00', '2024-02-06 02:00:00', '2024-02-06 01:00:00', '2024-02-06 00:00:00', '2024-02-05 23:00:00', '2024-02-05 22:00:00', '2024-02-05 21:00:00', '2024-02-05 20:00:00']"
Egypt, Assiut Airport (ATZ/HEAT) ,"['HEAT 081800Z 35008KT CAVOK 17/05 Q1020 NOSIG', 'HEAT 081700Z 34008KT CAVOK 19/05 Q1020 NOSIG', 'HEAT 081600Z 33009KT CAVOK 20/05 Q1020 NOSIG', 'HEAT 081500Z 36010KT CAVOK 21/05 Q1019 NOSIG', 'HEAT 081400Z 35012KT CAVOK 21/04 Q1019 NOSIG', 'HEAT 081300Z 33010KT CAVOK 22/04 Q1019 NOSIG', 'HEAT 081200Z 34010KT CAVOK 22/04 Q1020 NOSIG', 'HEAT 081100Z 35009KT CAVOK 22/05 Q1021 NOSIG', 'HEAT 081000Z 34008KT CAVOK 21/05 Q1022 NOSIG', 'HEAT 080900Z 36008KT CAVOK 19/04 Q1023 NOSIG', 'HEAT 080800Z 35006KT CAVOK 17/04 Q1023 NOSIG', 'HEAT 080600Z 31003KT CAVOK 09/07 Q1022 NOSIG', 'HEAT 080500Z 27003KT CAVOK 08/04 Q1021 NOSIG', 'HEAT 080400Z 28002KT CAVOK 07/04 Q1021 NOSIG', 'HEAT 080300Z 29002KT CAVOK 08/04 Q1021 NOSIG', 'HEAT 080200Z 36003KT CAVOK 09/07 Q1021 NOSIG', 'HEAT 080100Z 02002KT CAVOK 10/07 Q1021 NOSIG', 'HEAT 080000Z 35004KT CAVOK 12/06 Q1022 NOSIG', 'HEAT 072300Z 35003KT CAVOK 12/05 Q1023 NOSIG', 'HEAT 072200Z 34004KT CAVOK 13/05 Q1023 NOSIG', 'HEAT 072100Z 35003KT CAVOK 14/06 Q1023 NOSIG', 'HEAT 072000Z 34005KT CAVOK 14/06 Q1023 NOSIG', 'HEAT 071900Z 35010KT CAVOK 15/06 Q1023 NOSIG', 'HEAT 071800Z 35007KT CAVOK 16/06 Q1023 NOSIG', 'HEAT 071700Z 34005KT CAVOK 18/05 Q1022 NOSIG', 'HEAT 071600Z 36006KT CAVOK 20/05 Q1022 NOSIG', 'HEAT 071500Z 03007KT CAVOK 22/06 Q1022 NOSIG', 'HEAT 071400Z 36007KT CAVOK 22/05 Q1022 NOSIG', 'HEAT 071300Z 01006KT CAVOK 23/05 Q1022 NOSIG', 'HEAT 071200Z 36006KT CAVOK 22/07 Q1023 NOSIG', 'HEAT 071100Z 04008KT CAVOK 22/07 Q1024 NOSIG', 'HEAT 071000Z 02006KT CAVOK 18/07 Q1025 NOSIG', 'HEAT 070900Z 01007KT CAVOK 17/07 Q1026 NOSIG', 'HEAT 070800Z 02007KT CAVOK 15/07 Q1026 NOSIG', 'HEAT 070600Z 36004KT CAVOK 10/06 Q1026 NOSIG', 'HEAT 070400Z 24004KT CAVOK 08/06 Q1026 NOSIG', 'HEAT 070300Z 23002KT CAVOK 09/06 Q1026 NOSIG', 'HEAT 070100Z 02004KT CAVOK 10/06 Q1026 NOSIG', 'HEAT 070000Z 01005KT CAVOK 11/07 Q1026 NOSIG', 'HEAT 062300Z 35004KT CAVOK 11/06 Q1027 NOSIG', 'HEAT 062200Z 34004KT CAVOK 12/06 Q1027 NOSIG', 'HEAT 062100Z 35005KT CAVOK 13/06 Q1027 NOSIG', 'HEAT 062000Z 35003KT CAVOK 12/06 Q1027 NOSIG', 'HEAT 061900Z 35006KT CAVOK 14/06 Q1028 NOSIG', 'HEAT 061800Z 35007KT CAVOK 14/06 Q1028 NOSIG', 'HEAT 061700Z 36008KT CAVOK 15/06 Q1027 NOSIG', 'HEAT 061600Z 35006KT CAVOK 17/06 Q1026 NOSIG', 'HEAT 061500Z 35011KT CAVOK 19/05 Q1026 NOSIG', 'HEAT 061400Z 35006KT CAVOK 20/06 Q1026 NOSIG', 'HEAT 061300Z 36010KT CAVOK 19/05 Q1026 NOSIG', 'HEAT 061200Z 02009KT CAVOK 19/04 Q1027 NOSIG', 'HEAT 061100Z 01009KT CAVOK 18/07 Q1027 NOSIG', 'HEAT 061000Z 02008KT CAVOK 17/07 Q1028 NOSIG', 'HEAT 060900Z 01009KT CAVOK 16/08 Q1029 NOSIG', 'HEAT 060800Z 33003KT CAVOK 15/06 Q1030 NOSIG', 'HEAT 060600Z 27003KT CAVOK 08/02 Q1029 NOSIG', 'HEAT 060500Z 27002KT CAVOK 05/01 Q1027 NOSIG', 'HEAT 060400Z 28001KT CAVOK 06/01 Q1027 NOSIG', 'HEAT 060300Z 27001KT CAVOK 07/01 Q1027 NOSIG', 'HEAT 060200Z 35002KT CAVOK 07/01 Q1028 NOSIG', 'HEAT 060100Z 36002KT CAVOK 08/01 Q1028 NOSIG', 'HEAT 060000Z 35002KT CAVOK 09/01 Q1028 NOSIG', 'HEAT 052300Z 32003KT CAVOK 09/02 Q1028 NOSIG', 'HEAT 052200Z 32002KT CAVOK 10/02 Q1028 NOSIG', 'HEAT 052100Z 32004KT CAVOK 11/02 Q1028 NOSIG', 'HEAT 052000Z 32002KT CAVOK 11/03 Q1028 NOSIG']","['2024-02-08 18:00:00', '2024-02-08 17:00:00', '2024-02-08 16:00:00', '2024-02-08 15:00:00', '2024-02-08 14:00:00', '2024-02-08 13:00:00', '2024-02-08 12:00:00', '2024-02-08 11:00:00', '2024-02-08 10:00:00', '2024-02-08 09:00:00', '2024-02-08 08:00:00', '2024-02-08 06:00:00', '2024-02-08 05:00:00', '2024-02-08 04:00:00', '2024-02-08 03:00:00', '2024-02-08 02:00:00', '2024-02-08 01:00:00', '2024-02-08 00:00:00', '2024-02-07 23:00:00', '2024-02-07 22:00:00', '2024-02-07 21:00:00', '2024-02-07 20:00:00', '2024-02-07 19:00:00', '2024-02-07 18:00:00', '2024-02-07 17:00:00', '2024-02-07 16:00:00', '2024-02-07 15:00:00', '2024-02-07 14:00:00', '2024-02-07 13:00:00', '2024-02-07 12:00:00', '2024-02-07 11:00:00', '2024-02-07 10:00:00', '2024-02-07 09:00:00', '2024-02-07 08:00:00', '2024-02-07 06:00:00', '2024-02-07 04:00:00', '2024-02-07 03:00:00', '2024-02-07 01:00:00', '2024-02-07 00:00:00', '2024-02-06 23:00:00', '2024-02-06 22:00:00', '2024-02-06 21:00:00', '2024-02-06 20:00:00', '2024-02-06 19:00:00', '2024-02-06 18:00:00', '2024-02-06 17:00:00', '2024-02-06 16:00:00', '2024-02-06 15:00:00', '2024-02-06 14:00:00', '2024-02-06 13:00:00', '2024-02-06 12:00:00', '2024-02-06 11:00:00', '2024-02-06 10:00:00', '2024-02-06 09:00:00', '2024-02-06 08:00:00', '2024-02-06 06:00:00', '2024-02-06 05:00:00', '2024-02-06 04:00:00', '2024-02-06 03:00:00', '2024-02-06 02:00:00', '2024-02-06 01:00:00', '2024-02-06 00:00:00', '2024-02-05 23:00:00', '2024-02-05 22:00:00', '2024-02-05 21:00:00', '2024-02-05 20:00:00']"
Egypt, Aswan International Airport (ASW/HESN) ,"['HESN 081800Z 35005KT CAVOK 23/M02 Q1016 NOSIG', 'HESN 081700Z 33003KT CAVOK 23/M01 Q1016 NOSIG', 'HESN 081600Z 00000KT CAVOK 25/M01 Q1016 NOSIG', 'HESN 081500Z 00000KT CAVOK 26/M01 Q1015 NOSIG', 'HESN 081400Z 00000KT CAVOK 27/M01 Q1015 NOSIG', 'HESN 081300Z 30004KT CAVOK 27/M02 Q1016 NOSIG', 'HESN 081200Z 00000KT CAVOK 26/M02 Q1016 NOSIG', 'HESN 081100Z 36006KT CAVOK 25/00 Q1018 NOSIG', 'HESN 081000Z 01007KT CAVOK 24/00 Q1018 NOSIG', 'HESN 080900Z 36007KT CAVOK 23/M01 Q1019 NOSIG', 'HESN 080800Z 36008KT CAVOK 19/01 Q1020 NOSIG', 'HESN 080700Z 36006KT CAVOK 16/01 Q1019 NOSIG', 'HESN 080600Z 01005KT CAVOK 14/01 Q1019 NOSIG', 'HESN 080500Z 35004KT CAVOK 12/01 Q1018 NOSIG', 'HESN 080400Z 35005KT CAVOK 12/00 Q1018 NOSIG', 'HESN 080300Z 35008KT CAVOK 13/M00 Q1017 NOSIG', 'HESN 080200Z 35006KT CAVOK 12/M01 Q1018 NOSIG', 'HESN 080100Z 36005KT CAVOK 13/M01 Q1018 NOSIG', 'HESN 080000Z 34005KT CAVOK 14/M00 Q1018 NOSIG', 'HESN 072300Z 35005KT CAVOK 16/M02 Q1019 NOSIG', 'HESN 072200Z 36006KT CAVOK 17/M02 Q1019 NOSIG', 'HESN 072100Z 35007KT CAVOK 18/M02 Q1019 NOSIG', 'HESN 072000Z 36005KT CAVOK 18/M00 Q1019 NOSIG', 'HESN 071900Z 01005KT CAVOK 19/01 Q1019 NOSIG', 'HESN 071800Z 35009KT CAVOK 20/01 Q1019 NOSIG', 'HESN 071700Z 32004KT CAVOK 21/01 Q1018 NOSIG', 'HESN 071600Z 34006KT CAVOK 23/01 Q1017 NOSIG', 'HESN 071500Z 33006KT CAVOK 24/03 Q1017 NOSIG', 'HESN 071400Z 35008KT CAVOK 25/02 Q1017 NOSIG', 'HESN 071300Z 36009KT CAVOK 25/02 Q1018 NOSIG', 'HESN 071200Z 36006KT CAVOK 24/04 Q1018 NOSIG', 'HESN 071100Z 03008KT CAVOK 23/05 Q1020 NOSIG', 'HESN 071000Z 03005KT CAVOK 22/06 Q1021 NOSIG', 'HESN 070900Z 02008KT CAVOK 20/06 Q1022 NOSIG', 'HESN 070800Z 36006KT CAVOK 16/02 Q1023 NOSIG', 'HESN 070700Z 01007KT CAVOK 15/03 Q1023 NOSIG', 'HESN 070600Z 36005KT CAVOK 11/00 Q1022 NOSIG', 'HESN 070500Z 35006KT CAVOK 10/M00 Q1022 NOSIG', 'HESN 070400Z 36004KT CAVOK 10/M00 Q1022 NOSIG', 'HESN 070300Z 36004KT CAVOK 10/00 Q1021 NOSIG', 'HESN 062300Z 35005KT CAVOK 13/00 Q1023 NOSIG', 'HESN 062200Z 36004KT CAVOK 14/00 Q1024 NOSIG', 'HESN 062100Z 01004KT CAVOK 15/00 Q1024 NOSIG', 'HESN 062000Z 34000KT CAVOK 17/00 Q1023 NOSIG', 'HESN 061900Z 33007KT CAVOK 17/01 Q1023 NOSIG', 'HESN 061800Z 33006KT CAVOK 18/M01 Q1023 NOSIG', 'HESN 061700Z 35005KT CAVOK 19/M01 Q1023 NOSIG', 'HESN 061600Z 35006KT CAVOK 20/00 Q1022 NOSIG', 'HESN 061500Z 35007KT CAVOK 21/M01 Q1022 NOSIG', 'HESN 061400Z 34006KT CAVOK 22/M01 Q1022 NOSIG', 'HESN 061300Z 35007KT CAVOK 22/01 Q1022 NOSIG', 'HESN 061200Z 00000KT CAVOK 22/01 Q1023 NOSIG', 'HESN 061100Z 01006KT CAVOK 21/01 Q1024 NOSIG', 'HESN 061000Z 03006KT CAVOK 19/02 Q1025 NOSIG', 'HESN 060900Z 01009KT CAVOK 18/03 Q1025 NOSIG', 'HESN 060800Z 34008KT CAVOK 16/03 Q1026 NOSIG', 'HESN 060700Z 36009KT CAVOK 13/01 Q1026 NOSIG', 'HESN 060600Z 01005KT CAVOK 12/00 Q1025 NOSIG', 'HESN 060500Z 01003KT CAVOK 09/M01 Q1025 NOSIG', 'HESN 060400Z 02003KT CAVOK 09/M01 Q1025 NOSIG', 'HESN 060300Z 00000KT CAVOK 09/M01 Q1024 NOSIG', 'HESN 060200Z 34004KT CAVOK 11/M00 Q1024 NOSIG', 'HESN 060100Z 33005KT CAVOK 11/M00 Q1024 NOSIG', 'HESN 060000Z 34005KT CAVOK 12/M00 Q1024 NOSIG', 'HESN 052300Z 33004KT CAVOK 12/M02 Q1025 NOSIG', 'HESN 052200Z 32005KT CAVOK 12/M02 Q1025 NOSIG', 'HESN 052100Z 33004KT CAVOK 13/M02 Q1025 NOSIG', 'HESN 052000Z 30005KT CAVOK 14/M02 Q1025 NOSIG']","['2024-02-08 18:00:00', '2024-02-08 17:00:00', '2024-02-08 16:00:00', '2024-02-08 15:00:00', '2024-02-08 14:00:00', '2024-02-08 13:00:00', '2024-02-08 12:00:00', '2024-02-08 11:00:00', '2024-02-08 10:00:00', '2024-02-08 09:00:00', '2024-02-08 08:00:00', '2024-02-08 07:00:00', '2024-02-08 06:00:00', '2024-02-08 05:00:00', '2024-02-08 04:00:00', '2024-02-08 03:00:00', '2024-02-08 02:00:00', '2024-02-08 01:00:00', '2024-02-08 00:00:00', '2024-02-07 23:00:00', '2024-02-07 22:00:00', '2024-02-07 21:00:00', '2024-02-07 20:00:00', '2024-02-07 19:00:00', '2024-02-07 18:00:00', '2024-02-07 17:00:00', '2024-02-07 16:00:00', '2024-02-07 15:00:00', '2024-02-07 14:00:00', '2024-02-07 13:00:00', '2024-02-07 12:00:00', '2024-02-07 11:00:00', '2024-02-07 10:00:00', '2024-02-07 09:00:00', '2024-02-07 08:00:00', '2024-02-07 07:00:00', '2024-02-07 06:00:00', '2024-02-07 05:00:00', '2024-02-07 04:00:00', '2024-02-07 03:00:00', '2024-02-06 23:00:00', '2024-02-06 22:00:00', '2024-02-06 21:00:00', '2024-02-06 20:00:00', '2024-02-06 19:00:00', '2024-02-06 18:00:00', '2024-02-06 17:00:00', '2024-02-06 16:00:00', '2024-02-06 15:00:00', '2024-02-06 14:00:00', '2024-02-06 13:00:00', '2024-02-06 12:00:00', '2024-02-06 11:00:00', '2024-02-06 10:00:00', '2024-02-06 09:00:00', '2024-02-06 08:00:00', '2024-02-06 07:00:00', '2024-02-06 06:00:00', '2024-02-06 05:00:00', '2024-02-06 04:00:00', '2024-02-06 03:00:00', '2024-02-06 02:00:00', '2024-02-06 01:00:00', '2024-02-06 00:00:00', '2024-02-05 23:00:00', '2024-02-05 22:00:00', '2024-02-05 21:00:00', '2024-02-05 20:00:00']"
Egypt, Cairo International Airport (CAI/HECA) ,"['HECA 081900Z 05003KT 6000 FEW025 18/10 Q1019 NOSIG', 'HECA 081830Z 36005KT 6000 FEW025 18/10 Q1019 NOSIG', 'HECA 081730Z 36006KT 4000 HZ FEW025 19/09 Q1019 NOSIG', 'HECA 081700Z 36006KT 4000 HZ FEW025 SCT200 19/09 Q1018 NOSIG', 'HECA 081630Z 34006KT 4000 HZ FEW025 SCT070 SCT200 20/09 Q1018 BECMG 6000', 'HECA 081600Z 03008KT 9999 FEW025 SCT070 SCT200 21/04 Q1018 NOSIG', 'HECA 081530Z 35005KT 9999 FEW025 SCT070 SCT200 21/02 Q1018 NOSIG', 'HECA 081430Z 34006KT 320V040 CAVOK 22/05 Q1018 NOSIG', 'HECA 081400Z 34007KT CAVOK 22/05 Q1018 NOSIG', 'HECA 081300Z 34008KT CAVOK 22/08 Q1018 NOSIG', 'HECA 081200Z 09003KT CAVOK 22/06 Q1019 NOSIG', 'HECA 081130Z 05005KT 6000 NSC 21/05 Q1019 NOSIG', 'HECA 081030Z 05003KT 6000 FEW025 SCT200 20/10 Q1020 NOSIG', 'HECA 081000Z 04006KT 6000 FEW025 SCT200 19/11 Q1021 NOSIG', 'HECA 080900Z 09009KT 6000 FEW025 SCT200 17/13 Q1021 NOSIG', 'HECA 080830Z 08006KT 4000 BR SCT025 16/13 Q1022 NOSIG', 'HECA 080800Z 07007KT 4000 BR SCT025 14/13 Q1022 NOSIG', 'HECA 080730Z 07007KT 3000 BR SCT020 SCT025 13/13 Q1022 NOSIG', 'HECA 080700Z 08008KT 3000 BR SCT020 SCT025 13/13 Q1022 NOSIG', 'HECA 080630Z 07006KT 2000 BR SCT025 12/12 Q1022 NOSIG', 'HECA 080600Z 07004KT 2000 BR SCT025 12/12 Q1022 NOSIG', 'HECA 080530Z 05003KT 2000 BR NSC 12/12 Q1022 NOSIG', 'HECA 080500Z 05003KT 2000 BR SCT025 12/12 Q1022 NOSIG', 'HECA 080430Z 08004KT 4000 BR SCT020 SCT025 12/12 Q1022 NOSIG', 'HECA 080400Z 08004KT 4000 BR SCT020 SCT025 12/12 Q1022 NOSIG', 'HECA 080300Z 07003KT 2000 BR SCT020 SCT025 13/12 Q1021 NOSIG', 'HECA 080230Z 07004KT 0500 R05L/0500 R23R/0500 FG NSC 13/12 Q1021 NOSIG', 'HECA 080206Z 07004KT 0400 R05L/0500 R23R/0400 FG NSC 13/12 Q1021 NOSIG', 'HECA 080200Z 07004KT 0400 R05L0500 R23R0400 FG NSC 13/12 Q1021 NOSIG', 'HECA 080130Z 07004KT 2000 BR NSC 13/12 Q1022 NOSIG', 'HECA 080100Z 06003KT 6000 NSC 14/12 Q1022 NOSIG', 'HECA 080030Z 07003KT 6000 NSC 14/12 Q1022 NOSIG', 'HECA 080000Z 02003KT 6000 NSC 14/12 Q1022 NOSIG', 'HECA 072330Z 02002KT CAVOK 14/12 Q1022 NOSIG', 'HECA 072300Z 02004KT CAVOK 15/12 Q1023 NOSIG', 'HECA 072230Z 05005KT CAVOK 15/12 Q1023 NOSIG', 'HECA 072200Z 05005KT CAVOK 15/12 Q1023 NOSIG', 'HECA 072100Z 07003KT CAVOK 16/12 Q1023 NOSIG', 'HECA 072000Z 05006KT CAVOK 16/12 Q1023 NOSIG', 'HECA 072000Z 05006KT CAVOK 16/12 Q1023 NOSIG', 'HECA 071930Z 06006KT CAVOK 17/12 Q1023 NOSIG', 'HECA 071900Z 05006KT CAVOK 17/11 Q1023 NOSIG', 'HECA 071830Z 02006KT CAVOK 18/11 Q1023 NOSIG', 'HECA 071800Z 02006KT CAVOK 18/12 Q1023 NOSIG', 'HECA 071700Z 36008KT CAVOK 19/12 Q1022 NOSIG', 'HECA 071630Z 35009KT CAVOK 19/12 Q1022 NOSIG', 'HECA 071600Z 35009KT CAVOK 19/12 Q1022 NOSIG', 'HECA 071530Z 35008KT CAVOK 20/12 Q1022 NOSIG', 'HECA 071500Z 35009KT CAVOK 21/12 Q1022 NOSIG', 'HECA 071430Z 34009KT CAVOK 21/11 Q1022 NOSIG', 'HECA 071400Z 34009KT CAVOK 22/11 Q1022 NOSIG', 'HECA 071330Z 35006KT CAVOK 22/08 Q1022 NOSIG', 'HECA 071300Z 35006KT CAVOK 23/06 Q1022 NOSIG', 'HECA 071230Z 02006KT CAVOK 22/05 Q1022 NOSIG', 'HECA 071200Z 02006KT CAVOK 22/06 Q1022 NOSIG', 'HECA 071130Z 04004KT CAVOK 22/07 Q1023 NOSIG', 'HECA 071100Z 06004KT CAVOK 21/07 Q1023 NOSIG', 'HECA 071030Z 07005KT CAVOK 20/08 Q1024 NOSIG', 'HECA 071000Z 06005KT CAVOK 19/09 Q1024 NOSIG', 'HECA 070930Z 04004KT CAVOK 19/10 Q1025 NOSIG', 'HECA 070900Z 06004KT CAVOK 18/11 Q1025 NOSIG', 'HECA 070800Z 08006KT 9999 SCT025 17/12 Q1026 NOSIG', 'HECA 070730Z 07006KT 9999 SCT025 16/12 Q1026 NOSIG', 'HECA 070700Z 07003KT 9999 SCT025 16/13 Q1026 NOSIG', 'HECA 070600Z 06003KT 9999 SCT025 14/12 Q1026 NOSIG', 'HECA 070500Z 05002KT 6000 NSC 14/11 Q1026 NOSIG', 'HECA 070500Z 05002KT 6000 NSC 14/11 Q1026 NOSIG', 'HECA 070430Z 05002KT 6000 NSC 14/11 Q1026 NOSIG', 'HECA 070400Z 03002KT 6000 NSC 14/11 Q1026 NOSIG', 'HECA 070330Z 02003KT 6000 NSC 14/11 Q1026 NOSIG', 'HECA 070300Z 00000KT 6000 NSC 14/11 Q1026 NOSIG', 'HECA 070230Z 00000KT 6000 NSC 14/11 Q1026 NOSIG', 'HECA 070200Z 00000KT 6000 NSC 14/11 Q1026 NOSIG', 'HECA 070130Z 00000KT 6000 NSC 14/10 Q1026 NOSIG', 'HECA 070100Z 00000KT 6000 NSC 14/11 Q1026 NOSIG', 'HECA 070030Z 00000KT 6000 NSC 15/11 Q1026 NOSIG', 'HECA 070000Z 00000KT 6000 NSC 15/11 Q1026 NOSIG', 'HECA 062330Z 06002KT 6000 NSC 15/12 Q1027 NOSIG', 'HECA 062300Z 07003KT 6000 NSC 16/12 Q1027 NOSIG', 'HECA 062230Z 02003KT 6000 NSC 16/12 Q1027 NOSIG', 'HECA 062200Z 00000KT 6000 NSC 16/12 Q1027 NOSIG', 'HECA 062130Z 00000KT 6000 NSC 16/12 Q1027 NOSIG', 'HECA 062100Z 35003KT 6000 NSC 16/12 Q1027 NOSIG', 'HECA 062030Z 36003KT 6000 NSC 17/12 Q1027 NOSIG', 'HECA 062000Z 36006KT 6000 NSC 17/12 Q1028 NOSIG', 'HECA 061930Z 36005KT 6000 NSC 18/11 Q1027 NOSIG', 'HECA 061900Z 00000KT 6000 NSC 17/09 Q1027 NOSIG', 'HECA 061830Z 10002KT 6000 NSC 18/09 Q1027 NOSIG', 'HECA 061800Z 00000KT 6000 NSC 18/09 Q1027 NOSIG', 'HECA 061730Z 03003KT CAVOK 19/09 Q1027 NOSIG', 'HECA 061700Z 02003KT CAVOK 19/09 Q1026 NOSIG', 'HECA 061630Z 35003KT CAVOK 19/09 Q1026 NOSIG', 'HECA 061600Z 36004KT CAVOK 20/09 Q1026 NOSIG', 'HECA 061500Z 32005KT 9999 FEW025 20/08 Q1026 NOSIG', 'HECA 061430Z 33004KT 9999 SCT025 20/08 Q1026 NOSIG', 'HECA 061400Z 34005KT 9999 SCT025 20/08 Q1026 NOSIG', 'HECA 061300Z 31003KT 9999 SCT025 20/08 Q1025', 'HECA 061230Z 30005KT 9999 SCT025 20/08 Q1025 NOSIG', 'HECA 061200Z 32007KT 9999 SCT025 20/08 Q1026 NOSIG', 'HECA 061100Z 30004KT 9999 SCT025 19/09 Q1027 NOSIG', 'HECA 061000Z 27005KT 6000 SCT025 18/10 Q1027 NOSIG', 'HECA 060930Z 30005KT 6000 SCT025 18/10 Q1028 NOSIG', 'HECA 060900Z 29003KT 6000 SCT025 18/10 Q1028 NOSIG', 'HECA 060800Z 24004KT 4000 BR NSC 17/11 Q1028 BECMG 6000', 'HECA 060730Z 24004KT 3000 BR NSC 16/11 Q1028 NOSIG', 'HECA 060700Z 22003KT 3000 BR NSC 15/11 Q1028 NOSIG', 'HECA 060600Z 00000KT 3000 BR NSC 13/11 Q1027 NOSIG', 'HECA 060500Z 18001KT 3000 BR NSC 11/09 Q1027 NOSIG', 'HECA 060400Z 15001KT 3000 BR NSC 11/09 Q1026 NOSIG', 'HECA 060330Z 16001KT 3000 BR NSC 11/09 Q1026 NOSIG', 'HECA 060230Z 23002KT 4000 BR NSC 13/10 Q1026 NOSIG', 'HECA 060200Z 17002KT 4000 BR NSC 12/09 Q1026 NOSIG', 'HECA 060130Z 22003KT 4000 BR NSC 13/10 Q1026 NOSIG', 'HECA 060030Z 00000KT 4000 BR NSC 12/09 Q1026 NOSIG', 'HECA 060000Z 22001KT 6000 NSC 14/11 Q1026 NOSIG', 'HECA 052300Z 00000KT 6000 NSC 14/11 Q1026 NOSIG', 'HECA 052200Z 30002KT CAVOK 15/11 Q1027 NOSIG', 'HECA 052130Z 30002KT CAVOK 15/10 Q1027 NOSIG', 'HECA 052100Z 30003KT CAVOK 15/10 Q1026 NOSIG', 'HECA 052000Z 29004KT CAVOK 16/10 Q1026 NOSIG']","['2024-02-08 19:00:00', '2024-02-08 18:30:00', '2024-02-08 17:30:00', '2024-02-08 17:00:00', '2024-02-08 16:30:00', '2024-02-08 16:00:00', '2024-02-08 15:30:00', '2024-02-08 14:30:00', '2024-02-08 14:00:00', '2024-02-08 13:00:00', '2024-02-08 12:00:00', '2024-02-08 11:30:00', '2024-02-08 10:30:00', '2024-02-08 09:59:00', '2024-02-08 09:00:00', '2024-02-08 08:30:00', '2024-02-08 08:00:00', '2024-02-08 07:30:00', '2024-02-08 07:00:00', '2024-02-08 06:27:00', '2024-02-08 06:00:00', '2024-02-08 05:30:00', '2024-02-08 05:00:00', '2024-02-08 04:30:00', '2024-02-08 04:00:00', '2024-02-08 03:00:00', '2024-02-08 02:30:00', '2024-02-08 02:06:00', '2024-02-08 02:00:00', '2024-02-08 01:30:00', '2024-02-08 01:00:00', '2024-02-08 00:30:00', '2024-02-08 00:00:00', '2024-02-07 23:30:00', '2024-02-07 23:00:00', '2024-02-07 22:30:00', '2024-02-07 22:00:00', '2024-02-07 21:00:00', '2024-02-07 20:00:00', '2024-02-07 19:57:00', '2024-02-07 19:30:00', '2024-02-07 19:00:00', '2024-02-07 18:30:00', '2024-02-07 18:00:00', '2024-02-07 17:00:00', '2024-02-07 16:30:00', '2024-02-07 16:00:00', '2024-02-07 15:30:00', '2024-02-07 15:00:00', '2024-02-07 14:30:00', '2024-02-07 14:00:00', '2024-02-07 13:30:00', '2024-02-07 13:00:00', '2024-02-07 12:30:00', '2024-02-07 12:00:00', '2024-02-07 11:30:00', '2024-02-07 11:00:00', '2024-02-07 10:30:00', '2024-02-07 09:59:00', '2024-02-07 09:30:00', '2024-02-07 09:00:00', '2024-02-07 08:00:00', '2024-02-07 07:27:00', '2024-02-07 07:00:00', '2024-02-07 06:00:00', '2024-02-07 05:00:00', '2024-02-07 04:56:00', '2024-02-07 04:30:00', '2024-02-07 04:00:00', '2024-02-07 03:30:00', '2024-02-07 02:58:00', '2024-02-07 02:30:00', '2024-02-07 01:57:00', '2024-02-07 01:25:00', '2024-02-07 01:00:00', '2024-02-07 00:30:00', '2024-02-06 23:57:00', '2024-02-06 23:29:00', '2024-02-06 22:57:00', '2024-02-06 22:27:00', '2024-02-06 21:56:00', '2024-02-06 21:29:00', '2024-02-06 20:57:00', '2024-02-06 20:30:00', '2024-02-06 20:00:00', '2024-02-06 19:29:00', '2024-02-06 18:57:00', '2024-02-06 18:27:00', '2024-02-06 17:59:00', '2024-02-06 17:30:00', '2024-02-06 16:59:00', '2024-02-06 16:30:00', '2024-02-06 15:58:00', '2024-02-06 15:00:00', '2024-02-06 14:30:00', '2024-02-06 14:00:00', '2024-02-06 13:00:00', '2024-02-06 12:30:00', '2024-02-06 12:00:00', '2024-02-06 11:00:00', '2024-02-06 10:00:00', '2024-02-06 09:30:00', '2024-02-06 09:00:00', '2024-02-06 08:00:00', '2024-02-06 07:30:00', '2024-02-06 07:00:00', '2024-02-06 06:00:00', '2024-02-06 05:00:00', '2024-02-06 04:00:00', '2024-02-06 03:30:00', '2024-02-06 02:30:00', '2024-02-06 02:00:00', '2024-02-06 01:30:00', '2024-02-06 00:30:00', '2024-02-06 00:00:00', '2024-02-05 23:00:00', '2024-02-05 22:00:00', '2024-02-05 21:30:00', '2024-02-05 21:00:00', '2024-02-05 20:00:00']"
Egypt, Cairo Capital International Airport (CCE/HECP) ,"['HECP 081800Z 34006KT CAVOK 17/07 Q1019 NOSIG', 'HECP 081700Z 35007KT CAVOK 18/07 Q1019 NOSIG', 'HECP 081600Z 35005KT CAVOK 19/06 Q1018 NOSIG', 'HECP 081500Z 36006KT CAVOK 20/05 Q1018 NOSIG', 'HECP 081400Z 35006KT CAVOK 22/04 Q1018 NOSIG', 'HECP 081300Z 36007KT CAVOK 22/05 Q1018 NOSIG', 'HECP 081200Z 34006KT CAVOK 22/06 Q1019 NOSIG', 'HECP 081100Z 35005KT CAVOK 19/09 Q1020 NOSIG', 'HECP 081000Z 03005KT CAVOK 15/11 Q1021 NOSIG', 'HECP 080900Z 02004KT 6000 FEW025 13/12 Q1021 NOSIG', 'HECP 080800Z 06004KT 3000 BR SCT025 11/10 Q1022 NOSIG', 'HECP 080700Z 34002KT 0500 R19R/0500 FG NSC 10/10 Q1022 NOSIG', 'HECP 080600Z 08003KT 0200 R19/0200 FG NSC 10/09 Q1022 NOSIG', 'HECP 071800Z 02008KT CAVOK 16/11 Q1023 NOSIG', 'HECP 071700Z 03008KT CAVOK 19/M02 Q1023 NOSIG', 'HECP 071600Z 04006KT CAVOK 20/M01 Q1022 NOSIG', 'HECP 071500Z 05008KT CAVOK 21/00 Q1022 NOSIG', 'HECP 071400Z 03006KT CAVOK 20/06 Q1022 NOSIG', 'HECP 071300Z 05005KT CAVOK 21/05 Q1022 NOSIG', 'HECP 071200Z 03007KT CAVOK 21/06 Q1023 NOSIG', 'HECP 071100Z 04005KT CAVOK 20/06 Q1023 NOSIG', 'HECP 071000Z 07005KT CAVOK 19/09 Q1025 NOSIG', 'HECP 070900Z 09005KT CAVOK 17/10 Q1026 NOSIG', 'HECP 070800Z 11005KT 9999 SCT020 BKN100 14/10 Q1026 NOSIG', 'HECP 070700Z 10004KT 9999 SCT020 SCT025 12/09 Q1026 NOSIG', 'HECP 070600Z 03002KT 9999 SCT020 SCT025 10/07 Q1026 NOSIG', 'HECP 061800Z 36010KT CAVOK 16/08 Q1027 NOSIG', 'HECP 061700Z 34008KT CAVOK 17/08 Q1026 NOSIG', 'HECP 061600Z 35007KT CAVOK 18/07 Q1026 NOSIG', 'HECP 061500Z 32008KT 9999 SCT025 17/08 Q1026 NOSIG', 'HECP 061400Z 35007KT 9999 SCT020 18/07 Q1026 NOSIG', 'HECP 061300Z 34006KT 9999 SCT025 19/06 Q1026 NOSIG', 'HECP 061200Z 35010KT 9999 SCT020 SCT025 18/06 Q1026 NOSIG', 'HECP 061100Z 33008KT 9999 SCT020 SCT025 18/07 Q1027', 'HECP 061000Z 32006KT 9999 SCT020 SCT025 17/08 Q1027 NOSIG', 'HECP 060900Z 25006KT CAVOK 15/06 Q1027 NOSIG', 'HECP 060800Z 24005KT CAVOK 14/07 Q1028 NOSIG', 'HECP 060700Z 23003KT CAVOK 13/08 Q1027 NOSIG', 'HECP 060600Z 22002KT CAVOK 10/07 Q1027 NOSIG']","['2024-02-08 18:00:00', '2024-02-08 17:00:00', '2024-02-08 16:00:00', '2024-02-08 15:00:00', '2024-02-08 14:00:00', '2024-02-08 13:00:00', '2024-02-08 12:00:00', '2024-02-08 11:00:00', '2024-02-08 10:00:00', '2024-02-08 09:00:00', '2024-02-08 08:00:00', '2024-02-08 07:00:00', '2024-02-08 06:00:00', '2024-02-07 18:00:00', '2024-02-07 17:00:00', '2024-02-07 16:00:00', '2024-02-07 15:00:00', '2024-02-07 14:00:00', '2024-02-07 13:00:00', '2024-02-07 12:00:00', '2024-02-07 11:00:00', '2024-02-07 10:00:00', '2024-02-07 09:00:00', '2024-02-07 08:00:00', '2024-02-07 07:00:00', '2024-02-07 06:00:00', '2024-02-06 18:00:00', '2024-02-06 17:00:00', '2024-02-06 16:00:00', '2024-02-06 15:00:00', '2024-02-06 14:00:00', '2024-02-06 13:00:00', '2024-02-06 12:00:00', '2024-02-06 11:00:00', '2024-02-06 10:00:00', '2024-02-06 09:00:00', '2024-02-06 08:00:00', '2024-02-06 07:00:00', '2024-02-06 06:00:00']"
Egypt, El Arish International Airport (AAC/HEAR) ,"['HEAR 081800Z 16002KT CAVOK 14/10 Q1018 NOSIG', 'HEAR 081700Z 35003KT CAVOK 15/11 Q1018 NOSIG', 'HEAR 081600Z 34002KT CAVOK 17/12 Q1018 NOSIG', 'HEAR 081500Z 34005KT CAVOK 18/14 Q1018 NOSIG', 'HEAR 081400Z 35006KT CAVOK 18/14 Q1018 NOSIG', 'HEAR 081300Z 34005KT CAVOK 20/15 Q1018 NOSIG', 'HEAR 081200Z 34006KT CAVOK 20/14 Q1019 NOSIG', 'HEAR 081100Z 31006KT CAVOK 21/14 Q1019 NOSIG', 'HEAR 081000Z 20002KT CAVOK 20/13 Q1021 NOSIG', 'HEAR 080900Z 14002KT 8000 NSC 18/14 Q1022 NOSIG', 'HEAR 080800Z 16005KT 4000 BR NSC 15/14 Q1022 NOSIG', 'HEAR 080700Z 15006KT 2000 BR NSC 12/12 Q1023 NOSIG', 'HEAR 080600Z 16002KT 2000 BR NSC 10/10 Q1022 NOSIG', 'HEAR 072300Z 16002KT CAVOK 10/07 Q1022 NOSIG', 'HEAR 072200Z 14004KT CAVOK 11/08 Q1023 NOSIG', 'HEAR 072100Z 13003KT CAVOK 12/09 Q1023 NOSIG', 'HEAR 072000Z 14004KT CAVOK 12/08 Q1024 NOSIG', 'HEAR 071900Z 00000KT CAVOK 13/10 Q1024 NOSIG', 'HEAR 071800Z 03002KT CAVOK 14/10 Q1024 NOSIG', 'HEAR 071700Z 02006KT CAVOK 14/12 Q1024 NOSIG', 'HEAR 071600Z 01004KT CAVOK 16/11 Q1023 NOSIG', 'HEAR 071500Z 01009KT CAVOK 18/12 Q1023 NOSIG', 'HEAR 071400Z 02008KT CAVOK 20/12 Q1023 NOSIG', 'HEAR 071200Z 08006KT CAVOK 22/12 Q1023 NOSIG', 'HEAR 071100Z 14004KT CAVOK 22/14 Q1025 NOSIG', 'HEAR 071000Z 18003KT CAVOK 21/13 Q1026 NOSIG', 'HEAR 070900Z 17003KT CAVOK 20/12 Q1026 NOSIG', 'HEAR 070800Z 20002KT CAVOK 17/12 Q1028 NOSIG', 'HEAR 070700Z 17004KT CAVOK 14/10 Q1028 NOSIG', 'HEAR 070600Z 16005KT CAVOK 12/04 Q1027 NOSIG', 'HEAR 070500Z 15007KT CAVOK 10/09 Q1027 NOSIG', 'HEAR 062300Z 19003KT CAVOK 09/06 Q1026 NOSIG', 'HEAR 062200Z 17002KT CAVOK 10/07 Q1027 NOSIG', 'HEAR 062100Z 18003KT CAVOK 11/08 Q1027 NOSIG', 'HEAR 062000Z 16002KT CAVOK 11/08 Q1028 NOSIG', 'HEAR 061900Z 00000KT CAVOK 12/08 Q1027 NOSIG', 'HEAR 061800Z 18002KT CAVOK 13/09 Q1027 NOSIG', 'HEAR 061700Z 32006KT CAVOK 15/10 Q1027 NOSIG', 'HEAR 061600Z 30005KT CAVOK 17/11 Q1027 NOSIG', 'HEAR 061500Z 31006KT CAVOK 18/12 Q1026 NOSIG', 'HEAR 061400Z 34004KT CAVOK 18/09 Q1027 NOSIG', 'HEAR 061300Z 32005KT CAVOK 20/10 Q1026 NOSIG', 'HEAR 061200Z 31006KT CAVOK 21/10 Q1026 NOSIG', 'HEAR 061100Z 27004KT CAVOK 21/12 Q1026 NOSIG', 'HEAR 061000Z 26006KT CAVOK 20/12 Q1026 NOSIG', 'HEAR 060900Z 24005KT CAVOK 19/11 Q1027 NOSIG', 'HEAR 060800Z 24006KT 9999 SCT025 17/10 Q1027 NOSIG', 'HEAR 060700Z 21005KT 9999 BKN025 15/10 Q1027 NOSIG', 'HEAR 060600Z 23004KT 9999 BKN025 14/10 Q1026 NOSIG', 'HEAR 052300Z 00000KT CAVOK 11/06 Q1024 NOSIG', 'HEAR 052200Z 26003KT CAVOK 13/08 Q1025 NOSIG', 'HEAR 052100Z 23002KT CAVOK 14/09 Q1025 NOSIG', 'HEAR 052000Z 27004KT CAVOK 12/05 Q1024 NOSIG']","['2024-02-08 18:00:00', '2024-02-08 17:00:00', '2024-02-08 16:00:00', '2024-02-08 15:00:00', '2024-02-08 14:00:00', '2024-02-08 13:00:00', '2024-02-08 12:00:00', '2024-02-08 11:00:00', '2024-02-08 10:00:00', '2024-02-08 09:00:00', '2024-02-08 08:00:00', '2024-02-08 07:00:00', '2024-02-08 06:00:00', '2024-02-07 23:00:00', '2024-02-07 22:00:00', '2024-02-07 21:00:00', '2024-02-07 20:00:00', '2024-02-07 19:00:00', '2024-02-07 18:00:00', '2024-02-07 17:00:00', '2024-02-07 16:00:00', '2024-02-07 15:00:00', '2024-02-07 14:00:00', '2024-02-07 12:00:00', '2024-02-07 11:00:00', '2024-02-07 10:00:00', '2024-02-07 09:00:00', '2024-02-07 08:00:00', '2024-02-07 07:00:00', '2024-02-07 06:00:00', '2024-02-07 05:00:00', '2024-02-06 23:00:00', '2024-02-06 22:00:00', '2024-02-06 21:00:00', '2024-02-06 20:00:00', '2024-02-06 19:00:00', '2024-02-06 18:00:00', '2024-02-06 17:00:00', '2024-02-06 16:00:00', '2024-02-06 15:00:00', '2024-02-06 14:00:00', '2024-02-06 13:00:00', '2024-02-06 12:00:00', '2024-02-06 11:00:00', '2024-02-06 10:00:00', '2024-02-06 09:00:00', '2024-02-06 08:00:00', '2024-02-06 07:00:00', '2024-02-06 06:00:00', '2024-02-05 23:00:00', '2024-02-05 22:00:00', '2024-02-05 21:00:00', '2024-02-05 20:00:00']"
Egypt, Hurghada International Airport (HRG/HEGN) ,"['HEGN 081800Z 27004KT CAVOK 19/10 Q1017 NOSIG', 'HEGN 081700Z 33002KT CAVOK 21/13 Q1016 NOSIG', 'HEGN 081600Z 34003KT CAVOK 22/12 Q1016 NOSIG', 'HEGN 081500Z 02003KT CAVOK 25/06 Q1016 NOSIG', 'HEGN 081400Z 02003KT CAVOK 26/06 Q1016 NOSIG', 'HEGN 081300Z 01003KT CAVOK 26/05 Q1016 NOSIG', 'HEGN 081200Z 01005KT CAVOK 26/03 Q1017 NOSIG', 'HEGN 081100Z 36005KT CAVOK 25/05 Q1017 NOSIG', 'HEGN 081000Z 36007KT CAVOK 24/05 Q1019 NOSIG', 'HEGN 080900Z 36008KT CAVOK 23/05 Q1019 NOSIG', 'HEGN 080800Z 33009KT CAVOK 21/02 Q1020 NOSIG', 'HEGN 080700Z 32008KT CAVOK 20/02 Q1020 NOSIG', 'HEGN 080600Z 31007KT CAVOK 17/01 Q1020 NOSIG', 'HEGN 080500Z 31007KT CAVOK 15/01 Q1020 NOSIG', 'HEGN 080400Z 30010KT CAVOK 15/02 Q1019 NOSIG', 'HEGN 080300Z 31009KT CAVOK 15/02 Q1019 NOSIG', 'HEGN 080200Z 30006KT CAVOK 15/02 Q1019 NOSIG', 'HEGN 080100Z 31007KT CAVOK 15/02 Q1019 NOSIG', 'HEGN 080000Z 29008KT CAVOK 16/03 Q1020 NOSIG', 'HEGN 072300Z 30009KT CAVOK 15/06 Q1020 NOSIG', 'HEGN 072200Z 30008KT CAVOK 16/06 Q1020 NOSIG', 'HEGN 072100Z 30007KT CAVOK 16/06 Q1021 NOSIG', 'HEGN 072000Z 33008KT CAVOK 18/09 Q1021 NOSIG', 'HEGN 071900Z 30006KT CAVOK 17/08 Q1021 NOSIG', 'HEGN 071800Z 29009KT CAVOK 18/05 Q1021 NOSIG', 'HEGN 071700Z 00000KT CAVOK 20/06 Q1020 NOSIG', 'HEGN 071600Z 01002KT CAVOK 21/05 Q1020 NOSIG', 'HEGN 071500Z 36002KT CAVOK 23/06 Q1020 NOSIG', 'HEGN 071400Z 33004KT CAVOK 23/06 Q1020 NOSIG', 'HEGN 071300Z 35003KT CAVOK 24/06 Q1020 NOSIG', 'HEGN 071200Z 02003KT CAVOK 24/06 Q1021 NOSIG', 'HEGN 071100Z 35005KT CAVOK 23/07 Q1021 NOSIG', 'HEGN 071000Z 35009KT CAVOK 22/09 Q1023 NOSIG', 'HEGN 070900Z 33008KT CAVOK 21/08 Q1023 NOSIG', 'HEGN 070800Z 31010KT CAVOK 20/08 Q1024 NOSIG', 'HEGN 070700Z 30011KT CAVOK 19/08 Q1025 NOSIG', 'HEGN 070600Z 30011KT CAVOK 17/08 Q1024 NOSIG', 'HEGN 070500Z 29007KT CAVOK 15/07 Q1024 NOSIG', 'HEGN 070400Z 30009KT CAVOK 14/06 Q1023 NOSIG', 'HEGN 070300Z 30010KT CAVOK 14/06 Q1023 NOSIG', 'HEGN 070100Z 29008KT CAVOK 15/05 Q1024 NOSIG', 'HEGN 070000Z 29008KT CAVOK 16/05 Q1024 NOSIG', 'HEGN 062300Z 29006KT CAVOK 16/04 Q1024 NOSIG', 'HEGN 062200Z 28015KT CAVOK 15/05 Q1024 NOSIG', 'HEGN 062100Z 28007KT CAVOK 16/02 Q1025 NOSIG', 'HEGN 062000Z 30006KT CAVOK 16/02 Q1025 NOSIG', 'HEGN 061900Z 31007KT CAVOK 17/04 Q1025 NOSIG', 'HEGN 061800Z 32006KT CAVOK 18/08 Q1025 NOSIG', 'HEGN 061700Z 34008KT CAVOK 19/08 Q1024 NOSIG', 'HEGN 061600Z 35008KT CAVOK 20/08 Q1024 NOSIG', 'HEGN 061500Z 36008KT CAVOK 21/08 Q1023 NOSIG', 'HEGN 061400Z 01008KT CAVOK 22/06 Q1023 NOSIG', 'HEGN 061300Z 01009KT CAVOK 22/07 Q1023 NOSIG', 'HEGN 061200Z 01009KT CAVOK 23/07 Q1023 NOSIG', 'HEGN 061100Z 36009KT CAVOK 22/04 Q1024 NOSIG', 'HEGN 061000Z 36010KT CAVOK 22/05 Q1025 NOSIG', 'HEGN 060900Z 35012KT CAVOK 20/04 Q1026 NOSIG', 'HEGN 060800Z 31010KT CAVOK 19/07 Q1026 NOSIG', 'HEGN 060700Z 30015KT CAVOK 18/08 Q1026 NOSIG', 'HEGN 060600Z 29011KT CAVOK 16/08 Q1026 NOSIG', 'HEGN 060500Z 29011KT CAVOK 14/08 Q1025 NOSIG', 'HEGN 060400Z 29008KT CAVOK 13/04 Q1025 NOSIG', 'HEGN 060300Z 29007KT CAVOK 14/04 Q1024 NOSIG', 'HEGN 060200Z 29008KT CAVOK 14/05 Q1024 NOSIG', 'HEGN 060100Z 29008KT CAVOK 14/05 Q1024 NOSIG', 'HEGN 060000Z 29010KT CAVOK 15/04 Q1024 NOSIG', 'HEGN 052300Z 29010KT CAVOK 15/04 Q1024 NOSIG', 'HEGN 052200Z 29009KT CAVOK 15/02 Q1024 NOSIG', 'HEGN 052100Z 29010KT CAVOK 15/03 Q1024 NOSIG', 'HEGN 052000Z 29009KT CAVOK 15/01 Q1024 NOSIG']","['2024-02-08 18:00:00', '2024-02-08 17:00:00', '2024-02-08 16:00:00', '2024-02-08 15:00:00', '2024-02-08 14:00:00', '2024-02-08 13:00:00', '2024-02-08 12:00:00', '2024-02-08 11:00:00', '2024-02-08 10:00:00', '2024-02-08 09:00:00', '2024-02-08 08:00:00', '2024-02-08 07:00:00', '2024-02-08 06:00:00', '2024-02-08 05:00:00', '2024-02-08 04:00:00', '2024-02-08 03:00:00', '2024-02-08 02:00:00', '2024-02-08 01:00:00', '2024-02-08 00:00:00', '2024-02-07 23:00:00', '2024-02-07 22:00:00', '2024-02-07 21:00:00', '2024-02-07 20:00:00', '2024-02-07 19:00:00', '2024-02-07 18:00:00', '2024-02-07 17:00:00', '2024-02-07 16:00:00', '2024-02-07 15:00:00', '2024-02-07 14:00:00', '2024-02-07 13:00:00', '2024-02-07 12:00:00', '2024-02-07 11:00:00', '2024-02-07 10:00:00', '2024-02-07 09:00:00', '2024-02-07 08:00:00', '2024-02-07 07:00:00', '2024-02-07 06:00:00', '2024-02-07 05:00:00', '2024-02-07 04:00:00', '2024-02-07 03:00:00', '2024-02-07 01:00:00', '2024-02-07 00:00:00', '2024-02-06 23:00:00', '2024-02-06 22:00:00', '2024-02-06 21:00:00', '2024-02-06 20:00:00', '2024-02-06 19:00:00', '2024-02-06 18:00:00', '2024-02-06 17:00:00', '2024-02-06 16:00:00', '2024-02-06 15:00:00', '2024-02-06 14:00:00', '2024-02-06 13:00:00', '2024-02-06 12:00:00', '2024-02-06 11:00:00', '2024-02-06 10:00:00', '2024-02-06 09:00:00', '2024-02-06 08:00:00', '2024-02-06 07:00:00', '2024-02-06 06:00:00', '2024-02-06 05:00:00', '2024-02-06 04:00:00', '2024-02-06 03:00:00', '2024-02-06 02:00:00', '2024-02-06 01:00:00', '2024-02-06 00:00:00', '2024-02-05 23:00:00', '2024-02-05 22:00:00', '2024-02-05 21:00:00', '2024-02-05 20:00:00']"
Egypt, Luxor International Airport (LXR/HELX) ,"['HELX 081800Z 17002KT CAVOK 19/02 Q1017 NOSIG', 'HELX 081700Z 28004KT CAVOK 19/05 Q1016 NOSIG', 'HELX 081600Z 35003KT CAVOK 23/02 Q1016 NOSIG', 'HELX 081500Z 36003KT CAVOK 26/00 Q1016 NOSIG', 'HELX 081400Z 36003KT CAVOK 27/M00 Q1016 NOSIG', 'HELX 081300Z 04003KT CAVOK 27/00 Q1016 NOSIG', 'HELX 081200Z 06002KT CAVOK 27/01 Q1016 NOSIG', 'HELX 081100Z 34003KT CAVOK 25/05 Q1017 NOSIG', 'HELX 081000Z 32005KT CAVOK 23/06 Q1018 NOSIG', 'HELX 080900Z 09003KT CAVOK 21/06 Q1019 NOSIG', 'HELX 080800Z 09002KT CAVOK 19/05 Q1020 NOSIG', 'HELX 080700Z 05003KT CAVOK 16/03 Q1020 NOSIG', 'HELX 080600Z 12002KT CAVOK 13/01 Q1020 NOSIG', 'HELX 080500Z 09001KT CAVOK 09/00 Q1020 NOSIG', 'HELX 080400Z 00000KT CAVOK 08/M01 Q1019 NOSIG', 'HELX 080300Z 00000KT CAVOK 09/M01 Q1019 NOSIG', 'HELX 080200Z 12003KT CAVOK 10/M01 Q1018 NOSIG', 'HELX 080100Z 16003KT CAVOK 11/M02 Q1018 NOSIG', 'HELX 080000Z 00000KT CAVOK 10/01 Q1019 NOSIG', 'HELX 072300Z 22002KT CAVOK 12/M01 Q1019 NOSIG', 'HELX 072200Z 17004KT CAVOK 14/M01 Q1020 NOSIG', 'HELX 072100Z 00000KT CAVOK 15/01 Q1020 NOSIG', 'HELX 072000Z 15002KT CAVOK 16/M00 Q1020 NOSIG', 'HELX 071900Z 15002KT CAVOK 18/M00 Q1019 NOSIG', 'HELX 071800Z 15003KT CAVOK 19/00 Q1019 NOSIG', 'HELX 071700Z 00000KT CAVOK 21/02 Q1019 NOSIG', 'HELX 071600Z 29004KT CAVOK 21/02 Q1019 NOSIG', 'HELX 071500Z 30005KT CAVOK 24/02 Q1018 NOSIG', 'HELX 071400Z 33006KT CAVOK 25/05 Q1018 NOSIG', 'HELX 071300Z 03004KT CAVOK 25/01 Q1019 NOSIG', 'HELX 071200Z 04004KT CAVOK 24/05 Q1020 NOSIG', 'HELX 071100Z 03004KT CAVOK 23/06 Q1021 NOSIG', 'HELX 071000Z 36004KT 6000 NSC 22/06 Q1021 NOSIG', 'HELX 070900Z 35003KT 4000 HZ NSC 20/06 Q1023 NOSIG', 'HELX 070800Z 01002KT 6000 NSC 17/05 Q1024 NOSIG', 'HELX 070700Z 05005KT 6000 NSC 14/04 Q1024 NOSIG', 'HELX 070600Z 05003KT CAVOK 12/02 Q1024 NOSIG', 'HELX 070500Z 14002KT CAVOK 09/00 Q1024 NOSIG', 'HELX 070400Z 00000KT CAVOK 08/M00 Q1024 NOSIG', 'HELX 070300Z 00000KT CAVOK 08/00 Q1024 NOSIG', 'HELX 070100Z 00000KT CAVOK 11/01 Q1023 NOSIG', 'HELX 070000Z 08002KT CAVOK 12/01 Q1023 NOSIG', 'HELX 062300Z 16003KT CAVOK 12/01 Q1024 NOSIG', 'HELX 062200Z 16003KT CAVOK 12/01 Q1024 NOSIG', 'HELX 062100Z 00000KT CAVOK 14/02 Q1024 NOSIG', 'HELX 062000Z 18004KT CAVOK 15/03 Q1023 NOSIG', 'HELX 061900Z 19002KT CAVOK 15/04 Q1024 NOSIG', 'HELX 061800Z 30003KT CAVOK 16/05 Q1024 NOSIG', 'HELX 061700Z 30003KT CAVOK 17/04 Q1023 NOSIG', 'HELX 061600Z 07003KT CAVOK 21/03 Q1023 NOSIG', 'HELX 061500Z 04005KT CAVOK 22/03 Q1023 NOSIG', 'HELX 061400Z 02005KT CAVOK 22/03 Q1022 NOSIG', 'HELX 061300Z 34004KT CAVOK 22/02 Q1023 NOSIG', 'HELX 061200Z 03005KT CAVOK 22/02 Q1023 NOSIG', 'HELX 061100Z 36005KT CAVOK 21/04 Q1024 NOSIG', 'HELX 061000Z 03005KT CAVOK 21/05 Q1025 NOSIG', 'HELX 060900Z 01005KT CAVOK 19/05 Q1026 NOSIG', 'HELX 060800Z 35003KT CAVOK 17/05 Q1026 NOSIG', 'HELX 060700Z 14002KT CAVOK 15/04 Q1026 NOSIG', 'HELX 060600Z 18002KT CAVOK 10/01 Q1026 NOSIG', 'HELX 060500Z 00000KT CAVOK 08/00 Q1026 NOSIG', 'HELX 060400Z 16002KT CAVOK 08/00 Q1025 NOSIG', 'HELX 060300Z 15002KT CAVOK 09/00 Q1025 NOSIG', 'HELX 060200Z 00000KT CAVOK 10/00 Q1025 NOSIG', 'HELX 060100Z 00000KT CAVOK 11/01 Q1025 NOSIG', 'HELX 060000Z 22001KT CAVOK 11/01 Q1025 NOSIG', 'HELX 052300Z 15004KT CAVOK 12/04 Q1025 NOSIG', 'HELX 052200Z 16003KT CAVOK 13/03 Q1025 NOSIG', 'HELX 052100Z 16004KT CAVOK 13/03 Q1025 NOSIG', 'HELX 052000Z 29002KT CAVOK 16/02 Q1025 NOSIG']","['2024-02-08 18:00:00', '2024-02-08 17:00:00', '2024-02-08 16:00:00', '2024-02-08 15:00:00', '2024-02-08 14:00:00', '2024-02-08 13:00:00', '2024-02-08 12:00:00', '2024-02-08 11:00:00', '2024-02-08 10:00:00', '2024-02-08 09:00:00', '2024-02-08 08:00:00', '2024-02-08 07:00:00', '2024-02-08 06:00:00', '2024-02-08 05:00:00', '2024-02-08 04:00:00', '2024-02-08 03:00:00', '2024-02-08 02:00:00', '2024-02-08 01:00:00', '2024-02-08 00:00:00', '2024-02-07 23:00:00', '2024-02-07 22:00:00', '2024-02-07 21:00:00', '2024-02-07 20:00:00', '2024-02-07 19:00:00', '2024-02-07 18:00:00', '2024-02-07 17:00:00', '2024-02-07 16:00:00', '2024-02-07 15:00:00', '2024-02-07 14:00:00', '2024-02-07 13:00:00', '2024-02-07 12:00:00', '2024-02-07 11:00:00', '2024-02-07 10:00:00', '2024-02-07 09:00:00', '2024-02-07 08:00:00', '2024-02-07 07:00:00', '2024-02-07 06:00:00', '2024-02-07 05:00:00', '2024-02-07 04:00:00', '2024-02-07 03:00:00', '2024-02-07 01:00:00', '2024-02-07 00:00:00', '2024-02-06 23:00:00', '2024-02-06 22:00:00', '2024-02-06 21:00:00', '2024-02-06 20:00:00', '2024-02-06 19:00:00', '2024-02-06 18:00:00', '2024-02-06 17:00:00', '2024-02-06 16:00:00', '2024-02-06 15:00:00', '2024-02-06 14:00:00', '2024-02-06 13:00:00', '2024-02-06 12:00:00', '2024-02-06 11:00:00', '2024-02-06 10:00:00', '2024-02-06 09:00:00', '2024-02-06 08:00:00', '2024-02-06 07:00:00', '2024-02-06 06:00:00', '2024-02-06 05:00:00', '2024-02-06 04:00:00', '2024-02-06 03:00:00', '2024-02-06 02:00:00', '2024-02-06 01:00:00', '2024-02-06 00:00:00', '2024-02-05 23:00:00', '2024-02-05 22:00:00', '2024-02-05 21:00:00', '2024-02-05 20:00:00']"
Egypt, Marsa Alam International Airport (RMF/HEMA) ,"['HEMA 081800Z 30007KT CAVOK 19/14 Q1017 NOSIG', 'HEMA 081700Z 34010KT CAVOK 20/14 Q1016 NOSIG', 'HEMA 081600Z 34010KT CAVOK 21/15 Q1016 NOSIG', 'HEMA 081500Z 35012KT CAVOK 22/15 Q1016 NOSIG', 'HEMA 081400Z 35012KT CAVOK 23/14 Q1016 NOSIG', 'HEMA 081300Z 34013KT CAVOK 24/13 Q1016 NOSIG', 'HEMA 081200Z 36015KT CAVOK 24/14 Q1016 NOSIG', 'HEMA 081100Z 34013KT CAVOK 25/11 Q1018 NOSIG', 'HEMA 081000Z 32012KT CAVOK 24/11 Q1018 NOSIG', 'HEMA 080900Z 35015KT CAVOK 24/11 Q1019 NOSIG', 'HEMA 080800Z 31016KT CAVOK 22/10 Q1020 NOSIG', 'HEMA 080700Z 33018KT CAVOK 22/10 Q1019 NOSIG', 'HEMA 080600Z 31013KT CAVOK 20/07 Q1019 NOSIG', 'HEMA 080500Z 31014KT CAVOK 16/06 Q1018 NOSIG', 'HEMA 080400Z 30011KT CAVOK 17/06 Q1018 NOSIG', 'HEMA 080300Z 31012KT CAVOK 17/06 Q1018 NOSIG', 'HEMA 080200Z 29010KT CAVOK 17/07 Q1018 NOSIG', 'HEMA 080100Z 29012KT CAVOK 18/07 Q1018 NOSIG', 'HEMA 080000Z 31011KT CAVOK 16/04 Q1019 NOSIG', 'HEMA 072300Z 30010KT CAVOK 16/03 Q1019 NOSIG', 'HEMA 072200Z 30011KT CAVOK 16/03 Q1019 NOSIG', 'HEMA 072100Z 32010KT CAVOK 17/10 Q1020 NOSIG', 'HEMA 072000Z 30010KT CAVOK 17/10 Q1020 NOSIG', 'HEMA 071900Z 31010KT CAVOK 18/10 Q1020 NOSIG', 'HEMA 071800Z 32012KT CAVOK 19/12 Q1020 NOSIG', 'HEMA 071700Z 35014KT CAVOK 19/10 Q1019 NOSIG', 'HEMA 071600Z 33015KT CAVOK 20/10 Q1019 NOSIG', 'HEMA 071500Z 34018KT 9999 FEW020 22/11 Q1019 NOSIG', 'HEMA 071400Z 33015KT 9999 FEW020 22/12 Q1019 NOSIG', 'HEMA 071300Z 34017KT 9999 FEW020 22/12 Q1019 NOSIG', 'HEMA 071200Z 35017KT 9999 SCT020 22/13 Q1020 NOSIG', 'HEMA 071100Z 34015KT 9999 FEW020 23/13 Q1020 NOSIG', 'HEMA 071000Z 34020KT 9999 FEW020 22/13 Q1021 NOSIG', 'HEMA 070900Z 34020KT CAVOK 22/13 Q1022 NOSIG', 'HEMA 070800Z 31016KT CAVOK 21/11 Q1022 NOSIG', 'HEMA 070700Z 32021KT CAVOK 20/11 Q1023 NOSIG', 'HEMA 070600Z 31017KT CAVOK 18/10 Q1022 NOSIG', 'HEMA 070500Z 30014KT CAVOK 17/09 Q1022 NOSIG', 'HEMA 070400Z 29011KT CAVOK 16/09 Q1022 NOSIG', 'HEMA 070300Z 30011KT CAVOK 17/08 Q1022 NOSIG', 'HEMA 070100Z 31011KT CAVOK 16/10 Q1022 NOSIG', 'HEMA 070000Z 30012KT CAVOK 16/10 Q1023 NOSIG', 'HEMA 062300Z 31014KT CAVOK 17/10 Q1023 NOSIG', 'HEMA 062200Z 30013KT CAVOK 17/09 Q1023 NOSIG', 'HEMA 062100Z 30014KT CAVOK 17/03 Q1023 NOSIG', 'HEMA 062000Z 31010KT CAVOK 17/09 Q1024 NOSIG', 'HEMA 061900Z 30010KT CAVOK 17/08 Q1024 NOSIG', 'HEMA 061800Z 31010KT CAVOK 17/09 Q1024 NOSIG', 'HEMA 061700Z 33010KT CAVOK 18/09 Q1023 NOSIG', 'HEMA 061600Z 33012KT CAVOK 19/09 Q1023 NOSIG', 'HEMA 061500Z 33014KT 9999 FEW020 20/10 Q1023 NOSIG', 'HEMA 061400Z 35017KT 9999 FEW020 21/10 Q1022 NOSIG', 'HEMA 061300Z 35019KT 9999 BKN025 21/11 Q1022 NOSIG', 'HEMA 061100Z 36020KT 9999 BKN020 21/10 Q1024 NOSIG', 'HEMA 061000Z 32017KT 9999 BKN020 21/10 Q1024 NOSIG', 'HEMA 060900Z 34021KT 9999 BKN020 20/11 Q1024 NOSIG', 'HEMA 060800Z 32012KT 9999 FEW020 19/07 Q1025 NOSIG', 'HEMA 060700Z 30012KT 9999 FEW020 18/06 Q1025 NOSIG', 'HEMA 060600Z 31015KT 9999 FEW020 17/06 Q1024 NOSIG', 'HEMA 060500Z 32014KT CAVOK 16/04 Q1024 NOSIG', 'HEMA 060400Z 29014KT CAVOK 15/03 Q1023 NOSIG', 'HEMA 060300Z 31015KT CAVOK 16/03 Q1023 NOSIG', 'HEMA 060100Z 30012KT CAVOK 16/02 Q1023 NOSIG', 'HEMA 060000Z 31016KT CAVOK 17/02 Q1023 NOSIG', 'HEMA 052300Z 31012KT CAVOK 16/06 Q1023 NOSIG', 'HEMA 052200Z 30010KT CAVOK 16/06 Q1023 NOSIG', 'HEMA 052100Z 30012KT CAVOK 17/06 Q1023 NOSIG', 'HEMA 052000Z 32010KT CAVOK 17/07 Q1023 NOSIG']","['2024-02-08 18:00:00', '2024-02-08 17:00:00', '2024-02-08 16:00:00', '2024-02-08 15:00:00', '2024-02-08 14:00:00', '2024-02-08 13:00:00', '2024-02-08 12:00:00', '2024-02-08 11:00:00', '2024-02-08 10:00:00', '2024-02-08 09:00:00', '2024-02-08 08:00:00', '2024-02-08 07:00:00', '2024-02-08 06:00:00', '2024-02-08 05:00:00', '2024-02-08 04:00:00', '2024-02-08 03:00:00', '2024-02-08 02:00:00', '2024-02-08 01:00:00', '2024-02-08 00:00:00', '2024-02-07 23:00:00', '2024-02-07 22:00:00', '2024-02-07 21:00:00', '2024-02-07 20:00:00', '2024-02-07 19:00:00', '2024-02-07 18:00:00', '2024-02-07 17:00:00', '2024-02-07 16:00:00', '2024-02-07 15:00:00', '2024-02-07 14:00:00', '2024-02-07 13:00:00', '2024-02-07 12:00:00', '2024-02-07 11:00:00', '2024-02-07 10:00:00', '2024-02-07 09:00:00', '2024-02-07 08:00:00', '2024-02-07 07:00:00', '2024-02-07 06:00:00', '2024-02-07 05:00:00', '2024-02-07 04:00:00', '2024-02-07 03:00:00', '2024-02-07 01:00:00', '2024-02-07 00:00:00', '2024-02-06 23:00:00', '2024-02-06 22:00:00', '2024-02-06 21:00:00', '2024-02-06 20:00:00', '2024-02-06 19:00:00', '2024-02-06 18:00:00', '2024-02-06 17:00:00', '2024-02-06 16:00:00', '2024-02-06 15:00:00', '2024-02-06 14:00:00', '2024-02-06 13:00:00', '2024-02-06 11:00:00', '2024-02-06 10:00:00', '2024-02-06 09:00:00', '2024-02-06 08:00:00', '2024-02-06 07:00:00', '2024-02-06 06:00:00', '2024-02-06 05:00:00', '2024-02-06 04:00:00', '2024-02-06 03:00:00', '2024-02-06 01:00:00', '2024-02-06 00:00:00', '2024-02-05 23:00:00', '2024-02-05 22:00:00', '2024-02-05 21:00:00', '2024-02-05 20:00:00']"
Egypt, Marsa Matruh International Airport (MUH/HEMM) ,"['HEMM 081800Z 21003KT CAVOK 14/10 Q1019 NOSIG', 'HEMM 081700Z 23003KT CAVOK 17/10 Q1019 NOSIG', 'HEMM 081600Z 30005KT CAVOK 18/11 Q1019 NOSIG', 'HEMM 081500Z 31008KT CAVOK 19/09 Q1019 NOSIG', 'HEMM 081400Z 33008KT CAVOK 20/09 Q1019 NOSIG', 'HEMM 081300Z 31009KT CAVOK 20/07 Q1019 NOSIG', 'HEMM 081200Z 33007KT CAVOK 20/08 Q1019 NOSIG', 'HEMM 081100Z 24007KT CAVOK 20/05 Q1020 NOSIG', 'HEMM 081000Z 22008KT CAVOK 19/07 Q1021 NOSIG', 'HEMM 080900Z 21006KT CAVOK 18/08 Q1022 NOSIG', 'HEMM 080800Z 22007KT CAVOK 17/08 Q1022 NOSIG', 'HEMM 080700Z 22006KT CAVOK 14/09 Q1022 NOSIG', 'HEMM 080600Z 22006KT CAVOK 10/08 Q1022 NOSIG', 'HEMM 080500Z 20003KT CAVOK 09/08 Q1021 NOSIG', 'HEMM 080400Z 00000KT CAVOK 10/09 Q1021 NOSIG', 'HEMM 080300Z 00000KT CAVOK 10/09 Q1021 NOSIG', 'HEMM 080200Z 12004KT CAVOK 10/09 Q1022 NOSIG', 'HEMM 080100Z 00000KT CAVOK 11/09 Q1022 NOSIG', 'HEMM 080000Z 13003KT CAVOK 11/09 Q1022 NOSIG', 'HEMM 072300Z 13004KT CAVOK 11/09 Q1022 NOSIG', 'HEMM 072200Z 15004KT CAVOK 12/10 Q1023 NOSIG', 'HEMM 072100Z 16003KT CAVOK 12/10 Q1023 NOSIG', 'HEMM 072000Z 26003KT CAVOK 13/10 Q1023 NOSIG', 'HEMM 071900Z 00000KT CAVOK 14/11 Q1023 NOSIG', 'HEMM 071800Z 07003KT CAVOK 15/11 Q1023 NOSIG', 'HEMM 071700Z 02003KT CAVOK 17/12 Q1023 NOSIG', 'HEMM 071600Z 36004KT CAVOK 17/11 Q1022 NOSIG', 'HEMM 071500Z 36006KT CAVOK 18/12 Q1022 NOSIG', 'HEMM 071400Z 35006KT CAVOK 19/12 Q1022 NOSIG', 'HEMM 071300Z 34009KT CAVOK 20/11 Q1023 NOSIG', 'HEMM 071200Z 24011KT CAVOK 22/09 Q1023 NOSIG', 'HEMM 071100Z 23010KT CAVOK 21/09 Q1024 NOSIG', 'HEMM 071000Z 22009KT CAVOK 20/09 Q1025 NOSIG', 'HEMM 070900Z 21007KT CAVOK 20/10 Q1025 NOSIG', 'HEMM 070800Z 23004KT CAVOK 17/10 Q1026 NOSIG', 'HEMM 070700Z 20009KT CAVOK 14/09 Q1026 NOSIG', 'HEMM 070600Z 21010KT CAVOK 11/09 Q1026 NOSIG', 'HEMM 070500Z 20006KT CAVOK 11/09 Q1025 NOSIG', 'HEMM 070400Z 19008KT CAVOK 10/09 Q1025 NOSIG', 'HEMM 070300Z 18008KT CAVOK 10/09 Q1025 NOSIG', 'HEMM 070100Z 17004KT CAVOK 10/09 Q1026 NOSIG', 'HEMM 070000Z 15003KT CAVOK 10/09 Q1027 NOSIG', 'HEMM 062300Z 22004KT CAVOK 11/10 Q1027 NOSIG', 'HEMM 062200Z 24003KT CAVOK 11/10 Q1027 NOSIG', 'HEMM 062100Z 23003KT CAVOK 12/10 Q1028 NOSIG', 'HEMM 062000Z 00000KT CAVOK 13/11 Q1028 NOSIG', 'HEMM 061900Z 20003KT CAVOK 13/11 Q1028 NOSIG', 'HEMM 061800Z 21004KT CAVOK 15/11 Q1028 NOSIG', 'HEMM 061700Z 26003KT 9999 FEW020 16/12 Q1027 NOSIG', 'HEMM 061600Z 29008KT 9999 SCT020 17/12 Q1027 NOSIG', 'HEMM 061500Z 28009KT 9999 SCT020 18/13 Q1027 NOSIG', 'HEMM 061400Z 28011KT 9999 SCT020 19/13 Q1027 NOSIG', 'HEMM 061300Z 29011KT 9999 SCT020 19/13 Q1027 NOSIG', 'HEMM 061200Z 28014KT 9999 SCT020 19/13 Q1027 NOSIG', 'HEMM 061100Z 28017KT 9999 SCT020 19/12 Q1028 NOSIG', 'HEMM 061000Z 27013KT 9999 SCT020 19/12 Q1029 NOSIG', 'HEMM 060900Z 26008KT 9999 SCT020 18/12 Q1029 NOSIG', 'HEMM 060800Z 25009KT 9999 SCT020 17/13 Q1029 NOSIG', 'HEMM 060700Z 23008KT 9999 SCT020 14/12 Q1028 NOSIG', 'HEMM 060600Z 23007KT 9999 FEW020 12/11 Q1028 NOSIG', 'HEMM 060500Z 23004KT 9999 FEW020 11/09 Q1028 NOSIG', 'HEMM 060400Z 21008KT 9999 FEW020 11/10 Q1027 NOSIG', 'HEMM 060300Z 23007KT 9999 FEW020 12/10 Q1027 NOSIG', 'HEMM 060200Z 2208KT 9999 SCT020 11/10 Q1027 NOSIG', 'HEMM 060100Z 24007KT 9999 SCT020 12/10 Q1027 NOSIG', 'HEMM 060000Z 25008KT 9999 SCT020 12/11 Q1027 NOSIG', 'HEMM 052300Z 21006KT 9999 SCT020 12/10 Q1027 NOSIG', 'HEMM 052200Z 22005KT 9999 SCT020 13/11 Q1028 NOSIG', 'HEMM 052100Z 24006KT 9999 SCT020 13/11 Q1028 NOSIG', 'HEMM 052000Z 24007KT 9999 SCT020 13/11 Q1028 NOSIG']","['2024-02-08 18:00:00', '2024-02-08 17:00:00', '2024-02-08 16:00:00', '2024-02-08 15:00:00', '2024-02-08 14:00:00', '2024-02-08 13:00:00', '2024-02-08 12:00:00', '2024-02-08 11:00:00', '2024-02-08 10:00:00', '2024-02-08 09:00:00', '2024-02-08 08:00:00', '2024-02-08 07:00:00', '2024-02-08 06:00:00', '2024-02-08 05:00:00', '2024-02-08 04:00:00', '2024-02-08 03:00:00', '2024-02-08 02:00:00', '2024-02-08 01:00:00', '2024-02-08 00:00:00', '2024-02-07 23:00:00', '2024-02-07 22:00:00', '2024-02-07 21:00:00', '2024-02-07 20:00:00', '2024-02-07 19:00:00', '2024-02-07 18:00:00', '2024-02-07 17:00:00', '2024-02-07 16:00:00', '2024-02-07 15:00:00', '2024-02-07 14:00:00', '2024-02-07 13:00:00', '2024-02-07 12:00:00', '2024-02-07 11:00:00', '2024-02-07 10:00:00', '2024-02-07 09:00:00', '2024-02-07 08:00:00', '2024-02-07 07:00:00', '2024-02-07 06:00:00', '2024-02-07 05:00:00', '2024-02-07 04:00:00', '2024-02-07 03:00:00', '2024-02-07 01:00:00', '2024-02-07 00:00:00', '2024-02-06 23:00:00', '2024-02-06 22:00:00', '2024-02-06 21:00:00', '2024-02-06 20:00:00', '2024-02-06 19:00:00', '2024-02-06 18:00:00', '2024-02-06 17:00:00', '2024-02-06 16:00:00', '2024-02-06 15:00:00', '2024-02-06 14:00:00', '2024-02-06 13:00:00', '2024-02-06 12:00:00', '2024-02-06 11:00:00', '2024-02-06 10:00:00', '2024-02-06 09:00:00', '2024-02-06 08:00:00', '2024-02-06 07:00:00', '2024-02-06 06:00:00', '2024-02-06 05:00:00', '2024-02-06 04:00:00', '2024-02-06 03:00:00', '2024-02-06 02:00:00', '2024-02-06 01:00:00', '2024-02-06 00:00:00', '2024-02-05 23:00:00', '2024-02-05 22:00:00', '2024-02-05 21:00:00', '2024-02-05 20:00:00']"
Egypt, Port Said Airport (PSD/HEPS) ,"['HEPS 081800Z 01006KT CAVOK 14/14 Q1019 NOSIG', 'HEPS 081700Z 02006KT CAVOK 17/14 Q1019 NOSIG', 'HEPS 081600Z 03006KT CAVOK 17/13 Q1018 NOSIG', 'HEPS 081500Z 02008KT CAVOK 18/13 Q1018 NOSIG', 'HEPS 081400Z 02004KT CAVOK 18/14 Q1019 NOSIG', 'HEPS 081300Z 01005KT CAVOK 19/14 Q1019 NOSIG', 'HEPS 081200Z 01007KT CAVOK 19/14 Q1020 NOSIG', 'HEPS 081100Z 06003KT 9999 SCT025 19/14 Q1021 NOSIG', 'HEPS 081000Z 07004KT 9999 SCT025 19/13 Q1022 NOSIG', 'HEPS 080900Z 08003KT 9999 SCT025 18/13 Q1022 NOSIG', 'HEPS 080800Z 29002KT CAVOK 18/14 Q1022 NOSIG', 'HEPS 080700Z 08004KT CAVOK 18/13 Q1022 NOSIG', 'HEPS 080600Z 19002KT CAVOK 15/13 Q1022 NOSIG', 'HEPS 080500Z 08004KT 9999 SCT030 14/12 Q1022 NOSIG', 'HEPS 080400Z 08003KT 9999 SCT030 14/12 Q1022 NOSIG', 'HEPS 080300Z 09002KT 9999 SCT030 15/13 Q1022 NOSIG', 'HEPS 080200Z 07004KT CAVOK 15/13 Q1023 NOSIG', 'HEPS 080100Z 06004KT CAVOK 16/13 Q1023 NOSIG', 'HEPS 080000Z 07005KT CAVOK 16/13 Q1023 NOSIG', 'HEPS 072300Z 05006KT CAVOK 15/13 Q1023 NOSIG', 'HEPS 072200Z 06005KT CAVOK 16/13 Q1023 NOSIG', 'HEPS 072100Z 07006KT CAVOK 16/13 Q1023 NOSIG', 'HEPS 072000Z 36005KT CAVOK 16/13 Q1023 NOSIG', 'HEPS 071900Z 04005KT CAVOK 16/13 Q1024 NOSIG', 'HEPS 071800Z 36010KT CAVOK 17/13 Q1024 NOSIG', 'HEPS 071700Z 04003KT CAVOK 16/11 Q1023 NOSIG', 'HEPS 071600Z 05002KT CAVOK 17/12 Q1023 NOSIG', 'HEPS 071500Z 04003KT CAVOK 17/12 Q1023 NOSIG', 'HEPS 071400Z 02004KT 9999 FEW025 18/13 Q1024 NOSIG', 'HEPS 071300Z 01006KT 9999 FEW025 18/13 Q1024 NOSIG', 'HEPS 071200Z 01003KT 9999 FEW025 18/12 Q1024 NOSIG', 'HEPS 071100Z 32004KT 9999 SCT025 18/12 Q1024 NOSIG', 'HEPS 071000Z 24003KT 9999 SCT025 18/13 Q1025 NOSIG', 'HEPS 070900Z 19005KT 9999 SCT025 17/13 Q1026 NOSIG', 'HEPS 070800Z 18004KT 7000 FEW025 14/12 Q1026 NOSIG', 'HEPS 070700Z 18004KT 6000 FEW025 14/13 Q1026 NOSIG', 'HEPS 070600Z 19005KT 6000 SCT030 13/13 Q1026 NOSIG', 'HEPS 070400Z 18003KT 6000 SCT030 12/12 Q1026 NOSIG', 'HEPS 070300Z 18003KT 6000 SCT030 12/12 Q1026 NOSIG', 'HEPS 070100Z 18003KT 9999 SCT030 14/13 Q1026 NOSIG', 'HEPS 070000Z 18002KT 9999 SCT030 14/13 Q1026 NOSIG', 'HEPS 062300Z 31005KT CAVOK 15/13 Q1027 NOSIG', 'HEPS 062200Z 31009KT CAVOK 15/13 Q1027 NOSIG', 'HEPS 062100Z 30004KT CAVOK 16/14 Q1027 NOSIG', 'HEPS 062000Z 30004KT CAVOK 16/14 Q1027 NOSIG', 'HEPS 061900Z 32005KT CAVOK 16/14 Q1027 NOSIG', 'HEPS 061800Z 31003KT CAVOK 16/14 Q1027 NOSIG', 'HEPS 061700Z 32006KT CAVOK 17/14 Q1026 NOSIG', 'HEPS 061600Z 31008KT CAVOK 17/15 Q1026 NOSIG', 'HEPS 061500Z 31006KT CAVOK 18/15 Q1026 NOSIG', 'HEPS 061400Z 33005KT 9999 SCT030 18/13 Q1025 NOSIG', 'HEPS 061300Z 33006KT 9999 FEW025 19/14 Q1026 NOSIG', 'HEPS 061200Z 32004KT 9999 FEW025 19/14 Q1026 NOSIG', 'HEPS 061100Z 29006KT CAVOK 20/13 Q1026 NOSIG', 'HEPS 061000Z 29009KT CAVOK 19/13 Q1027 NOSIG', 'HEPS 060900Z 24006KT 8000 NSC 18/13 Q1027 NOSIG', 'HEPS 060800Z 23006KT 4000 BR NSC 15/12 Q1027 BECMG 6000', 'HEPS 060700Z 22006KT 3500 BR NSC 13/11 Q1027 NOSIG', 'HEPS 060600Z 22008KT 4000 BR NSC 13/11 Q1026 NOSIG', 'HEPS 060500Z 26009KT 9999 SCT030 12/10 Q1025 NOSIG', 'HEPS 060400Z 25009KT 9999 SCT030 12/10 Q1025 NOSIG', 'HEPS 060300Z 24010KT 9999 SCT030 13/11 Q1025 NOSIG', 'HEPS 060200Z 25009KT 9999 SCT030 12/10 Q1026 NOSIG', 'HEPS 060100Z 24010KT 9999 SCT030 13/11 Q1026 NOSIG', 'HEPS 060000Z 24008KT 9999 SCT030 13/11 Q1026 NOSIG', 'HEPS 052300Z 26008KT 9999 SCT030 13/10 Q1026 NOSIG', 'HEPS 052200Z 25008KT 9999 SCT030 14/11 Q1026 NOSIG', 'HEPS 052100Z 26007KT 9999 SCT030 14/11 Q1026 NOSIG', 'HEPS 052000Z 24012KT 9999 SCT030 14/11 Q1025 NOSIG']","['2024-02-08 18:00:00', '2024-02-08 17:00:00', '2024-02-08 16:00:00', '2024-02-08 15:00:00', '2024-02-08 14:00:00', '2024-02-08 13:00:00', '2024-02-08 12:00:00', '2024-02-08 11:00:00', '2024-02-08 10:00:00', '2024-02-08 09:00:00', '2024-02-08 08:00:00', '2024-02-08 07:00:00', '2024-02-08 06:00:00', '2024-02-08 05:00:00', '2024-02-08 04:00:00', '2024-02-08 03:00:00', '2024-02-08 02:00:00', '2024-02-08 01:00:00', '2024-02-08 00:00:00', '2024-02-07 23:00:00', '2024-02-07 22:00:00', '2024-02-07 21:00:00', '2024-02-07 20:00:00', '2024-02-07 19:00:00', '2024-02-07 18:00:00', '2024-02-07 17:00:00', '2024-02-07 16:00:00', '2024-02-07 15:00:00', '2024-02-07 14:00:00', '2024-02-07 13:00:00', '2024-02-07 12:00:00', '2024-02-07 11:00:00', '2024-02-07 10:00:00', '2024-02-07 09:00:00', '2024-02-07 08:00:00', '2024-02-07 07:00:00', '2024-02-07 06:00:00', '2024-02-07 04:00:00', '2024-02-07 03:00:00', '2024-02-07 01:00:00', '2024-02-07 00:00:00', '2024-02-06 23:00:00', '2024-02-06 22:00:00', '2024-02-06 21:00:00', '2024-02-06 20:00:00', '2024-02-06 19:00:00', '2024-02-06 18:00:00', '2024-02-06 17:00:00', '2024-02-06 16:00:00', '2024-02-06 15:00:00', '2024-02-06 14:00:00', '2024-02-06 13:00:00', '2024-02-06 12:00:00', '2024-02-06 11:00:00', '2024-02-06 10:00:00', '2024-02-06 09:00:00', '2024-02-06 08:00:00', '2024-02-06 07:00:00', '2024-02-06 06:00:00', '2024-02-06 05:00:00', '2024-02-06 04:00:00', '2024-02-06 03:00:00', '2024-02-06 02:00:00', '2024-02-06 01:00:00', '2024-02-06 00:00:00', '2024-02-05 23:00:00', '2024-02-05 22:00:00', '2024-02-05 21:00:00', '2024-02-05 20:00:00']"
Egypt, Sharm el-Sheikh International Airport (SSH/HESH) ,"['HESH 081800Z 33003KT CAVOK 19/10 Q1016 NOSIG', 'HESH 081700Z 14007KT CAVOK 22/12 Q1016 NOSIG', 'HESH 081600Z 12004KT CAVOK 23/13 Q1016 NOSIG', 'HESH 081500Z 10005KT CAVOK 24/13 Q1016 NOSIG', 'HESH 081400Z 35004KT CAVOK 25/06 Q1017 NOSIG', 'HESH 081300Z 36005KT CAVOK 26/05 Q1017 NOSIG', 'HESH 081200Z 02006KT CAVOK 26/06 Q1017 NOSIG', 'HESH 081100Z 36010KT CAVOK 24/09 Q1019 NOSIG', 'HESH 081000Z 35011KT CAVOK 24/10 Q1019 NOSIG', 'HESH 080900Z 01010KT CAVOK 24/10 Q1019 NOSIG', 'HESH 080800Z 34010KT CAVOK 22/07 Q1020 NOSIG', 'HESH 080700Z 35012KT CAVOK 22/08 Q1020 NOSIG', 'HESH 080600Z 34008KT CAVOK 20/08 Q1020 NOSIG', 'HESH 080500Z 34009KT CAVOK 17/08 Q1018 NOSIG', 'HESH 080400Z 33011KT CAVOK 17/09 Q1018 NOSIG', 'HESH 080300Z 34010KT CAVOK 18/09 Q1018 NOSIG', 'HESH 080200Z 33007KT CAVOK 18/08 Q1019 NOSIG', 'HESH 080100Z 34010KT CAVOK 19/10 Q1019 NOSIG', 'HESH 080000Z 34010KT CAVOK 19/09 Q1019 NOSIG', 'HESH 072300Z 34008KT CAVOK 18/06 Q1020 NOSIG', 'HESH 072200Z 33005KT CAVOK 19/07 Q1020 NOSIG', 'HESH 072100Z 34007KT CAVOK 20/07 Q1020 NOSIG', 'HESH 072000Z 24003KT CAVOK 19/08 Q1021 NOSIG', 'HESH 071900Z 27004KT CAVOK 19/07 Q1021 NOSIG', 'HESH 071800Z 23003KT CAVOK 20/10 Q1021 NOSIG', 'HESH 071700Z 02007KT CAVOK 21/08 Q1019 NOSIG', 'HESH 071600Z 01008KT CAVOK 22/09 Q1019 NOSIG', 'HESH 071500Z 36008KT CAVOK 23/09 Q1020 NOSIG', 'HESH 071400Z 01012KT CAVOK 23/08 Q1020 NOSIG', 'HESH 071300Z 02008KT CAVOK 23/09 Q1021 NOSIG', 'HESH 071200Z 02010KT CAVOK 24/09 Q1022 NOSIG', 'HESH 071100Z 01013KT CAVOK 23/08 Q1023 NOSIG', 'HESH 071000Z 02012KT CAVOK 22/07 Q1023 NOSIG', 'HESH 070900Z 01014KT CAVOK 22/08 Q1024 NOSIG', 'HESH 070800Z 34010KT CAVOK 20/06 Q1024 NOSIG', 'HESH 070700Z 30011KT CAVOK 20/07 Q1024 NOSIG', 'HESH 070600Z 35010KT CAVOK 19/07 Q1024 NOSIG', 'HESH 070500Z 35010KT CAVOK 17/06 Q1024 NOSIG', 'HESH 070400Z 36009KT CAVOK 17/05 Q1023 NOSIG', 'HESH 070300Z 35010KT CAVOK 17/06 Q1023 NOSIG', 'HESH 070100Z 36012KT CAVOK 17/05 Q1023 NOSIG', 'HESH 070000Z 35011KT CAVOK 18/06 Q1023 NOSIG', 'HESH 062300Z 34010KT CAVOK 18/05 Q1024 NOSIG', 'HESH 062200Z 35009KT CAVOK 18/06 Q1024 NOSIG', 'HESH 062100Z 34010KT CAVOK 19/06 Q1024 NOSIG', 'HESH 062000Z 33007KT CAVOK 19/08 Q1025 NOSIG', 'HESH 061900Z 35010KT CAVOK 19/09 Q1024 NOSIG', 'HESH 061800Z 34009KT CAVOK 20/09 Q1024 NOSIG', 'HESH 061700Z 01009KT CAVOK 20/06 Q1024 NOSIG', 'HESH 061600Z 33006KT CAVOK 21/06 Q1023 NOSIG', 'HESH 061500Z 01012KT CAVOK 22/07 Q1023 NOSIG', 'HESH 061400Z 02011KT CAVOK 22/06 Q1023 NOSIG', 'HESH 061300Z 04012KT CAVOK 23/07 Q1023 NOSIG', 'HESH 061200Z 03012KT CAVOK 22/07 Q1024 NOSIG', 'HESH 061100Z 36016KT CAVOK 21/05 Q1026 NOSIG', 'HESH 061000Z 01016KT CAVOK 21/06 Q1026 NOSIG', 'HESH 060900Z 01014KT CAVOK 20/06 Q1026 NOSIG', 'HESH 060800Z 35015KT CAVOK 19/05 Q1025 NOSIG', 'HESH 060700Z 36019KT CAVOK 18/06 Q1025 NOSIG', 'HESH 060600Z 36014KT CAVOK 17/06 Q1025 NOSIG', 'HESH 060500Z 34011KT CAVOK 17/05 Q1023 NOSIG', 'HESH 060400Z 35012KT CAVOK 16/05 Q1023 NOSIG', 'HESH 060300Z 35014KT CAVOK 16/05 Q1023 NOSIG', 'HESH 060200Z 36004KT CAVOK 16/02 Q1024 NOSIG', 'HESH 060100Z 35005KT CAVOK 16/02 Q1024 NOSIG', 'HESH 060000Z 34005KT CAVOK 16/02 Q1024 NOSIG', 'HESH 052300Z 33008KT CAVOK 17/02 Q1024 NOSIG', 'HESH 052200Z 34010KT CAVOK 18/02 Q1024 NOSIG', 'HESH 052100Z 34012KT CAVOK 18/02 Q1024 NOSIG', 'HESH 052000Z 32005KT CAVOK 18/08 Q1023 NOSIG']","['2024-02-08 18:00:00', '2024-02-08 17:00:00', '2024-02-08 16:00:00', '2024-02-08 15:00:00', '2024-02-08 14:00:00', '2024-02-08 13:00:00', '2024-02-08 12:00:00', '2024-02-08 11:00:00', '2024-02-08 10:00:00', '2024-02-08 09:00:00', '2024-02-08 08:00:00', '2024-02-08 07:00:00', '2024-02-08 06:00:00', '2024-02-08 05:00:00', '2024-02-08 04:00:00', '2024-02-08 03:00:00', '2024-02-08 02:00:00', '2024-02-08 01:00:00', '2024-02-08 00:00:00', '2024-02-07 23:00:00', '2024-02-07 22:00:00', '2024-02-07 21:00:00', '2024-02-07 20:00:00', '2024-02-07 19:00:00', '2024-02-07 18:00:00', '2024-02-07 17:00:00', '2024-02-07 16:00:00', '2024-02-07 15:00:00', '2024-02-07 14:00:00', '2024-02-07 13:00:00', '2024-02-07 12:00:00', '2024-02-07 11:00:00', '2024-02-07 10:00:00', '2024-02-07 09:00:00', '2024-02-07 08:00:00', '2024-02-07 07:00:00', '2024-02-07 06:00:00', '2024-02-07 05:00:00', '2024-02-07 04:00:00', '2024-02-07 03:00:00', '2024-02-07 01:00:00', '2024-02-07 00:00:00', '2024-02-06 23:00:00', '2024-02-06 22:00:00', '2024-02-06 21:00:00', '2024-02-06 20:00:00', '2024-02-06 19:00:00', '2024-02-06 18:00:00', '2024-02-06 17:00:00', '2024-02-06 16:00:00', '2024-02-06 15:00:00', '2024-02-06 14:00:00', '2024-02-06 13:00:00', '2024-02-06 12:00:00', '2024-02-06 11:00:00', '2024-02-06 10:00:00', '2024-02-06 09:00:00', '2024-02-06 08:00:00', '2024-02-06 07:00:00', '2024-02-06 06:00:00', '2024-02-06 05:00:00', '2024-02-06 04:00:00', '2024-02-06 03:00:00', '2024-02-06 02:00:00', '2024-02-06 01:00:00', '2024-02-06 00:00:00', '2024-02-05 23:00:00', '2024-02-05 22:00:00', '2024-02-05 21:00:00', '2024-02-05 20:00:00']"
Egypt, Sohag International Airport (HMB/HESG) ,"['HESG 081800Z 31006KT CAVOK 19/04 Q1017 NOSIG', 'HESG 081700Z 33008KT CAVOK 21/06 Q1017 NOSIG', 'HESG 081600Z 35009KT CAVOK 23/06 Q1016 NOSIG', 'HESG 081500Z 34010KT CAVOK 24/05 Q1016 NOSIG', 'HESG 081400Z 34008KT CAVOK 25/07 Q1016 NOSIG', 'HESG 081300Z 35009KT CAVOK 25/07 Q1016 NOSIG', 'HESG 081200Z 01008KT CAVOK 23/08 Q1017 NOSIG', 'HESG 081100Z 01006KT CAVOK 22/05 Q1018 NOSIG', 'HESG 081000Z 02006KT CAVOK 20/06 Q1019 NOSIG', 'HESG 080900Z 35005KT CAVOK 19/06 Q1019 NOSIG', 'HESG 080800Z 35004KT CAVOK 17/04 Q1020 NOSIG', 'HESG 080700Z 34003KT CAVOK 15/04 Q1020 NOSIG', 'HESG 080600Z 25004KT CAVOK 11/04 Q14019 NOSIG', 'HESG 080500Z 28005KT CAVOK 11/05 Q1019 NOSIG', 'HESG 080400Z 27004KT CAVOK 09/04 Q1018 NOSIG', 'HESG 080300Z 26004KT CAVOK 09/04 Q1018 NOSIG', 'HESG 080200Z 27004KT CAVOK 10/04 Q101 NOSIG9', 'HESG 080100Z 26003KT CAVOK 11/04 Q1019 NOSIG', 'HESG 080000Z 27004KT CAVOK 12/03 Q1019 NOSIG', 'HESG 072300Z 26005KT CAVOK 13/04 Q1019 NOSIG', 'HESG 072200Z 27006KT CAVOK 14/04 Q1019 NOSIG', 'HESG 072100Z 27004KT CAVOK 15/04 Q1020 NOSIG', 'HESG 072000Z 28005KT CAVOK 16/05 Q1020 NOSIG', 'HESG 071900Z 31004KT CAVOK 17/05 Q1020 NOSIG', 'HESG 071800Z 33005KT CAVOK 19/05 Q1019 NOSIG', 'HESG 071700Z 35006KT CAVOK 21/03 Q1019 NOSIG', 'HESG 071600Z 01006KT CAVOK 22/02 Q1019 NOSIG', 'HESG 071500Z 02005KT CAVOK 24/02 Q1018 NOSIG', 'HESG 071400Z 09002KT CAVOK 25/01 Q1018 NOSIG', 'HESG 071300Z 06002KT CAVOK 26/01 Q1018 NOSIG', 'HESG 071200Z 29006KT CAVOK 22/04 Q1019 NOSIG', 'HESG 071100Z 27005KT CAVOK 22/04 Q1020 NOSIG', 'HESG 071000Z 33004KT CAVOK 20/07 Q1021 NOSIG', 'HESG 070900Z 33006KT CAVOK 18/06 Q1022 NOSIG', 'HESG 070800Z 32007KT CAVOK 15/06 Q1023 NOSIG', 'HESG 070700Z 33006KT CAVOK 13/06 Q1023 NOSIG', 'HESG 070600Z 24005KT CAVOK 10/06 Q1023 NOSIG', 'HESG 070500Z 29005KT CAVOK 09/05 Q1023 NOSIG', 'HESG 070400Z 27005KT CAVOK 08/04 Q1022 NOSIG', 'HESG 070300Z 28005KT CAVOK 09/05 Q1022 NOSIG', 'HESG 070100Z 28006KT CAVOK 11/04 Q1023 NOSIG', 'HESG 070000Z 27007KT CAVOK 12/04 Q1023 NOSIG', 'HESG 062300Z 27008KT CAVOK 13/04 Q1023 NOSIG', 'HESG 062200Z 30008KT CAVOK 14/05 Q1023 NOSIG', 'HESG 062100Z 31005KT CAVOK 14/05 Q1024 NOSIG', 'HESG 062000Z 31006KT CAVOK 15/04 Q1024 NOSIG', 'HESG 061900Z 31008KT CAVOK 15/01 Q1024 NOSIG', 'HESG 061800Z 30008KT CAVOK 16/01 Q1023 NOSIG', 'HESG 061700Z 29009KT CAVOK 18/01 Q1023 NOSIG', 'HESG 061600Z 29008KT CAVOK 20/02 Q1022 NOSIG', 'HESG 061500Z 29010KT CAVOK 21/02 Q1022 NOSIG', 'HESG 061400Z 30012KT CAVOK 21/02 Q1022 NOSIG', 'HESG 061300Z 31012KT CAVOK 21/03 Q1023 NOSIG', 'HESG 061200Z 33009KT CAVOK 21/05 Q1023 NOSIG', 'HESG 061100Z 30012KT CAVOK 19/06 Q1025 NOSIG', 'HESG 061000Z 31011KT CAVOK 18/06 Q1025 NOSIG', 'HESG 060900Z 33011KT CAVOK 16/06 Q1026 NOSIG', 'HESG 060800Z 30007KT CAVOK 12/04 Q1026 NOSIG', 'HESG 060700Z 28005KT CAVOK 10/03 Q1026 NOSIG', 'HESG 060600Z 26003KT CAVOK 09/02 Q1026 NOSIG', 'HESG 060500Z 28006KT CAVOK 09/01 Q1025 NOSIG', 'HESG 060400Z 26007KT CAVOK 08/01 Q1025 NOSIG', 'HESG 060300Z 25007KT CAVOK 08/01 Q1024 NOSIG', 'HESG 060100Z 25005KT CAVOK 09/01 Q1024 NOSIG', 'HESG 060000Z 25006KT CAVOK 09/01 Q1024 NOSIG', 'HESG 052300Z 27005KT CAVOK 11/01 Q1024 NOSIG', 'HESG 052200Z 26007KT CAVOK 11/01 Q1025 NOSIG', 'HESG 052100Z 25008KT CAVOK 12/01 Q1025 NOSIG', 'HESG 052000Z 28006KT CAVOK 13/M01 Q1025 NOSIG']","['2024-02-08 18:00:00', '2024-02-08 17:00:00', '2024-02-08 16:00:00', '2024-02-08 15:00:00', '2024-02-08 14:00:00', '2024-02-08 13:00:00', '2024-02-08 12:00:00', '2024-02-08 11:00:00', '2024-02-08 10:00:00', '2024-02-08 09:00:00', '2024-02-08 08:00:00', '2024-02-08 07:00:00', '2024-02-08 06:00:00', '2024-02-08 05:00:00', '2024-02-08 04:00:00', '2024-02-08 03:00:00', '2024-02-08 02:00:00', '2024-02-08 01:00:00', '2024-02-08 00:00:00', '2024-02-07 23:00:00', '2024-02-07 22:00:00', '2024-02-07 21:00:00', '2024-02-07 20:00:00', '2024-02-07 19:00:00', '2024-02-07 18:00:00', '2024-02-07 17:00:00', '2024-02-07 16:00:00', '2024-02-07 15:00:00', '2024-02-07 14:00:00', '2024-02-07 13:00:00', '2024-02-07 12:00:00', '2024-02-07 11:00:00', '2024-02-07 10:00:00', '2024-02-07 09:00:00', '2024-02-07 08:00:00', '2024-02-07 07:00:00', '2024-02-07 06:00:00', '2024-02-07 05:00:00', '2024-02-07 04:00:00', '2024-02-07 03:00:00', '2024-02-07 01:00:00', '2024-02-07 00:00:00', '2024-02-06 23:00:00', '2024-02-06 22:00:00', '2024-02-06 21:00:00', '2024-02-06 20:00:00', '2024-02-06 19:00:00', '2024-02-06 18:00:00', '2024-02-06 17:00:00', '2024-02-06 16:00:00', '2024-02-06 15:00:00', '2024-02-06 14:00:00', '2024-02-06 13:00:00', '2024-02-06 12:00:00', '2024-02-06 11:00:00', '2024-02-06 10:00:00', '2024-02-06 09:00:00', '2024-02-06 08:00:00', '2024-02-06 07:00:00', '2024-02-06 06:00:00', '2024-02-06 05:00:00', '2024-02-06 04:00:00', '2024-02-06 03:00:00', '2024-02-06 01:00:00', '2024-02-06 00:00:00', '2024-02-05 23:00:00', '2024-02-05 22:00:00', '2024-02-05 21:00:00', '2024-02-05 20:00:00']"
El-salvador, San Salvador International Airport (SAL/MSLP) ,"['MSLP 081900Z 17006KT 100V230 CAVOK 32/16 Q1011 A2987 NOSIG', 'MSLP 081800Z VRB04KT CAVOK 32/13 Q1013 A2991 NOSIG', 'MSLP 081700Z VRB02KT CAVOK 31/14 Q1014 A2994 NOSIG', 'MSLP 081600Z 03005KT 320V090 CAVOK 30/14 Q1014 A2995 NOSIG', 'MSLP 081500Z 01006KT 340V060 CAVOK 28/15 Q1014 A2996 NOSIG', 'MSLP 081400Z 04006KT CAVOK 25/14 Q1014 A2994 NOSIG', 'MSLP 081300Z 02009KT CAVOK 23/14 Q1013 A2992 NOSIG', 'MSLP 081200Z 02010KT CAVOK 23/14 Q1012 A2989 NOSIG', 'MSLP 081100Z 02009KT CAVOK 23/14 Q1012 A2988 NOSIG', 'MSLP 081000Z 02008KT CAVOK 23/14 Q1011 A2987 NOSIG', 'MSLP 080900Z 01006KT CAVOK 22/14 Q1011 A2988 NOSIG', 'MSLP 080800Z 04003KT 010V070 CAVOK 19/15 Q1012 A2990 NOSIG', 'MSLP 080700Z 11005KT 070V140 CAVOK 22/15 Q1013 A2991 NOSIG', 'MSLP 080600Z 02007KT CAVOK 24/15 Q1013 A2992 NOSIG', 'MSLP 080500Z 03003KT 350V120 CAVOK 21/15 Q1013 A2992 NOSIG', 'MSLP 080400Z 36005KT 340V070 CAVOK 22/17 Q1013 A2993 NOSIG', 'MSLP 080300Z VRB02KT CAVOK 21/18 Q1013 A2991 NOSIG', 'MSLP 080200Z 05004KT CAVOK 22/18 Q1012 A2990 NOSIG', 'MSLP 080100Z 00000KT CAVOK 22/19 Q1011 A2987 NOSIG', 'MSLP 080000Z VRB01KT CAVOK 26/19 Q1011 A2986 NOSIG', 'MSLP 072300Z 18004KT 110V230 CAVOK 29/18 Q1010 A2983 NOSIG', 'MSLP 072200Z 17004KT 100V240 CAVOK 32/15 Q1010 A2982 NOSIG', 'MSLP 072100Z VRB05KT CAVOK 34/09 Q1010 A2983 NOSIG', 'MSLP 072000Z 35009G19KT 310V060 CAVOK 34/09 Q1011 A2987 NOSIG', 'MSLP 071900Z 01010KT 330V040 CAVOK 33/10 Q1012 A2990 NOSIG', 'MSLP 071800Z 01012G22KT 340V040 CAVOK 32/10 Q1013 A2993 NOSIG', 'MSLP 071725Z 01013G23KT 340V050 CAVOK 32/10 Q1014 NOSIG', 'MSLP 071700Z 01014G24KT 340V040 CAVOK 30/11 Q1014 A2996 NOSIG', 'MSLP 071600Z 02014G24KT 340V040 CAVOK 29/10 Q1015 A2997 NOSIG', 'MSLP 071500Z 01013G23KT 340V040 CAVOK 28/10 Q1015 A2997 NOSIG', 'MSLP 071427Z 02015G25KT 350V050 CAVOK 27/10 Q1014 NOSIG', 'MSLP 071400Z 01014G24KT CAVOK 25/10 Q1014 A2995 NOSIG', 'MSLP 071300Z 02012G22KT CAVOK 24/10 Q1013 A2993 NOSIG', 'MSLP 071200Z 02013KT CAVOK 23/09 Q1012 A2991 NOSIG', 'MSLP 071100Z 02016G27KT CAVOK 23/09 Q1012 A2989 NOSIG', 'MSLP 070900Z 02013KT 350V050 CAVOK 24/09 Q1011 A2986 NOSIG', 'MSLP 070800Z 02013G23KT CAVOK 24/09 Q1011 A2987 NOSIG', 'MSLP 070700Z 03012KT CAVOK 24/09 Q1012 A2989 NOSIG', 'MSLP 070600Z 02013G23KT 350V070 CAVOK 25/09 Q1012 A2989 NOSIG', 'MSLP 070500Z 36013G23KT CAVOK 25/09 Q1012 A2990 NOSIG', 'MSLP 070400Z 02011KT CAVOK 25/09 Q1012 A2990 NOSIG', 'MSLP 070300Z 02014G24KT 350V050 CAVOK 26/09 Q1011 A2988 NOSIG', 'MSLP 070200Z 01014G24KT CAVOK 27/09 Q1011 A2985 NOSIG', 'MSLP 070100Z 02011KT CAVOK 29/09 Q1010 A2982 NOSIG', 'MSLP 070000Z 03007G18KT CAVOK 30/07 Q1009 A2980 NOSIG', 'MSLP 062300Z 01008KT 340V040 CAVOK 33/07 Q1008 A2978 NOSIG', 'MSLP 062200Z 36009G19KT 320V040 CAVOK 35/05 Q1008 A2977 NOSIG', 'MSLP 062100Z 36011G21KT 330V030 CAVOK 35/06 Q1008 A2978 NOSIG', 'MSLP 062000Z 02013G23KT CAVOK 35/08 Q1009 A2980 NOSIG', 'MSLP 061900Z 02014G24KT CAVOK 34/08 Q1010 A2982 NOSIG', 'MSLP 061800Z 36013G23KT 320V040 CAVOK 33/11 Q1010 A2985 NOSIG', 'MSLP 061700Z 01016G27KT 330V030 CAVOK 32/11 Q1011 A2988 NOSIG', 'MSLP 061600Z 02015G25KT 340V050 CAVOK 30/12 Q1012 A2989 NOSIG', 'MSLP 061500Z 01012G22KT 340V050 CAVOK 29/14 Q1012 A2989 NOSIG', 'MSLP 061400Z 03007G17KT 330V080 9999 FEW077 27/15 Q1011 A2987 NOSIG', 'MSLP 061300Z 03009KT 350V070 9999 FEW077 26/15 Q1010 A2985 NOSIG', 'MSLP 061200Z 03005KT 360V070 9999 FEW077 26/15 Q1010 A2982 NOSIG', 'MSLP 061100Z 03009KT 340V070 9999 SCT077 26/15 Q1009 A2981 NOSIG', 'MSLP 061000Z 36005KT 320V040 9999 SCT077 26/15 Q1009 A2980 NOSIG', 'MSLP 060900Z 34004KT 310V010 9999 FEW073 26/16 Q1009 A2979 NOSIG', 'MSLP 060800Z 06003KT 020V100 9999 SCT070 25/18 Q1009 A2980 NOSIG', 'MSLP 060700Z 04008KT 9999 SCT070 26/18 Q1009 A2980 NOSIG', 'MSLP 060600Z 02007KT 9999 FEW041 SCT070 26/20 Q1009 A2982 NOSIG', 'MSLP 060500Z 01004KT 9999 VCSH SCT070 27/24 Q1010 A2982 NOSIG RMK SH N', 'MSLP 060400Z VRB01KT 9999 FEW077 26/24 Q1009 A2982 NOSIG', 'MSLP 060300Z 36004KT 310V030 9999 FEW077 27/24 Q1009 A2980 NOSIG', 'MSLP 060200Z 26005KT CAVOK 27/24 Q1008 A2978 NOSIG', 'MSLP 060100Z 24006KT 9999 FEW027 27/24 Q1007 A2975 NOSIG', 'MSLP 060000Z 24009KT 9999 FEW030 28/24 Q1006 A2973 NOSIG', 'MSLP 052300Z 25014KT 9999 FEW043 29/24 Q1006 A2971 NOSIG', 'MSLP 052200Z 26014KT 9999 FEW050 30/24 Q1005 A2970 NOSIG', 'MSLP 052100Z 25013KT 9999 FEW050 31/24 Q1005 A2970 NOSIG', 'MSLP 052000Z 23012G22KT 200V270 9999 FEW043 32/24 Q1006 A2971 NOSIG']","['2024-02-08 19:00:00', '2024-02-08 18:00:00', '2024-02-08 17:00:00', '2024-02-08 16:00:00', '2024-02-08 15:00:00', '2024-02-08 14:00:00', '2024-02-08 13:00:00', '2024-02-08 12:00:00', '2024-02-08 11:00:00', '2024-02-08 10:00:00', '2024-02-08 09:00:00', '2024-02-08 08:00:00', '2024-02-08 07:00:00', '2024-02-08 06:00:00', '2024-02-08 05:00:00', '2024-02-08 04:00:00', '2024-02-08 03:00:00', '2024-02-08 02:00:00', '2024-02-08 01:00:00', '2024-02-08 00:00:00', '2024-02-07 23:00:00', '2024-02-07 22:00:00', '2024-02-07 21:00:00', '2024-02-07 20:00:00', '2024-02-07 19:00:00', '2024-02-07 18:00:00', '2024-02-07 17:25:00', '2024-02-07 17:00:00', '2024-02-07 16:00:00', '2024-02-07 15:00:00', '2024-02-07 14:27:00', '2024-02-07 14:00:00', '2024-02-07 13:00:00', '2024-02-07 12:00:00', '2024-02-07 11:00:00', '2024-02-07 09:00:00', '2024-02-07 08:00:00', '2024-02-07 07:00:00', '2024-02-07 06:00:00', '2024-02-07 05:00:00', '2024-02-07 04:00:00', '2024-02-07 03:00:00', '2024-02-07 02:00:00', '2024-02-07 01:00:00', '2024-02-07 00:00:00', '2024-02-06 23:00:00', '2024-02-06 22:00:00', '2024-02-06 21:00:00', '2024-02-06 20:00:00', '2024-02-06 19:00:00', '2024-02-06 18:00:00', '2024-02-06 17:00:00', '2024-02-06 16:00:00', '2024-02-06 15:00:00', '2024-02-06 14:00:00', '2024-02-06 13:00:00', '2024-02-06 12:00:00', '2024-02-06 11:00:00', '2024-02-06 10:00:00', '2024-02-06 09:00:00', '2024-02-06 08:00:00', '2024-02-06 07:00:00', '2024-02-06 06:00:00', '2024-02-06 05:00:00', '2024-02-06 04:00:00', '2024-02-06 03:00:00', '2024-02-06 02:00:00', '2024-02-06 01:00:00', '2024-02-06 00:00:00', '2024-02-05 23:00:00', '2024-02-05 22:00:00', '2024-02-05 21:00:00', '2024-02-05 20:00:00']"
El-salvador, San Salvador Ilopango International Airport (ILS/MSSS) ,"['MSSS 081750Z 36005KT CAVOK 27/13 Q1017 A3005', 'MSSS 081650Z 33006KT CAVOK 25/13 Q1018 A3009', 'MSSS 081550Z 34008KT CAVOK 23/13 Q1019 A3010', 'MSSS 081450Z 34008KT CAVOK 20/12 Q1019 A3009', 'MSSS 081350Z 35005KT CAVOK 18/12 Q1018 A3007', 'MSSS 081250Z 34006KT CAVOK 16/12 Q1018 A3006', 'MSSS 071550Z 33012KT CAVOK 22/10 Q1020 A3013', 'MSSS 071450Z 34012KT CAVOK 20/11 Q1020 A3013', 'MSSS 071250Z 34006KT CAVOK 15/9 Q1019 A3009', 'MSSS 062250Z 34008KT CAVOK 27/05 Q1014 A2994', 'MSSS 062150Z 34011KT CAVOK 28/06 Q1013 A2993', 'MSSS 062050Z 34012KT CAVOK 29/05 Q1014 A2994', 'MSSS 061950Z 36011G22KT CAVOK 29/06 Q1014 A2996', 'MSSS 061850Z 33015G25KT CAVOK 28/6 Q1015 A2999', 'MSSS 061750Z 35011KT CAVOK 27/9 Q1016 A3001', 'MSSS 061650Z 34012KT CAVOK 25/10 Q1017 A3004', 'MSSS 061550Z 34013KT CAVOK 25/10 Q1017 A3005', 'MSSS 061450Z 34013KT CAVOK 22/11 Q1017 A3005', 'MSSS 061350Z 33009KT CAVOK 21/14 Q1017 A3004', 'MSSS 061250Z 33007KT CAVOK 20/13 Q1016 A3002', 'MSSS 052250Z 18009KT 9999 FEW033 28/21 Q1010 A2982', 'MSSS 052150Z 18010KT 9999 FEW033 30/21 Q1009 A2981', 'MSSS 051950Z 14003KT 9999 FEW030 30/18 Q1010 A2985']","['2024-02-08 17:50:00', '2024-02-08 16:50:00', '2024-02-08 15:50:00', '2024-02-08 14:50:00', '2024-02-08 13:50:00', '2024-02-08 12:50:00', '2024-02-07 15:50:00', '2024-02-07 14:50:00', '2024-02-07 12:50:00', '2024-02-06 22:50:00', '2024-02-06 21:50:00', '2024-02-06 20:50:00', '2024-02-06 19:50:00', '2024-02-06 18:50:00', '2024-02-06 17:50:00', '2024-02-06 16:50:00', '2024-02-06 15:50:00', '2024-02-06 14:50:00', '2024-02-06 13:50:00', '2024-02-06 12:50:00', '2024-02-05 22:50:00', '2024-02-05 21:50:00', '2024-02-05 19:50:00']"
Equatorial-guinea, Bata Airport (BSG/FGBT) ,"['FGBT 081700Z 26004KT 230V300 9999 FEW010 30/27 Q1009', 'FGBT 081500Z 26008KT 220V280 9999 SCT010 31/27 Q1009', 'FGBT 081100Z 26008KT 9999 SCT010 31/27 Q1012', 'FGBT 080900Z 19007KT 160V220 9999 FEW010 31/27 Q1013', 'FGBT 080300Z /////KT 9999 TS SCT010 FEW020CB 27/27 Q1011', 'FGBT 071700Z 26006KT 190V280 9999 FEW010 31/26 Q1009', 'FGBT 071100Z 27006KT 250V310 9999 SCT010 31/27 Q1013', 'FGBT 070500Z 14005KT 9999 FEW010 26/26 Q1012', 'FGBT 070300Z 15004KT 9999 FEW010 26/26 Q1012', 'FGBT 070000Z /////KT 9999 FEW010 27/27 Q1012', 'FGBT 062300Z 17003KT 9999 FEW010 27/27 Q1013', 'FGBT 061700Z 25006KT 210V270 9999 SCT010 FEW020CB 31/27 Q1010', 'FGBT 061600Z 25007KT 190V280 9999 SCT010 FEW020CB 31/27 Q1009', 'FGBT 061300Z 28008KT 8000 FEW010 32/26 Q1011', 'FGBT 061000Z 30003KT 220V350 8000 SCT010 31/26 Q1014', 'FGBT 060800Z 11003KT 070V140 9999 FEW010 28/26 Q1015', 'FGBT 060300Z 13002KT 9999 SCT010 ///// Q1012', 'FGBT 052100Z /////KT 9999 FEW010 26/26 Q1014']","['2024-02-08 17:00:00', '2024-02-08 15:00:00', '2024-02-08 11:00:00', '2024-02-08 09:00:00', '2024-02-08 03:00:00', '2024-02-07 17:00:00', '2024-02-07 11:00:00', '2024-02-07 05:00:00', '2024-02-07 03:00:00', '2024-02-07 00:00:00', '2024-02-06 23:00:00', '2024-02-06 17:00:00', '2024-02-06 16:00:00', '2024-02-06 13:00:00', '2024-02-06 10:00:00', '2024-02-06 08:00:00', '2024-02-06 03:00:00', '2024-02-05 21:00:00']"
Equatorial-guinea, Malabo International Airport (SSG/FGSL) ,"['FGSL 081830Z 26003KT 4000 DU FEW010 29/27 Q1011 NOSIG', 'FGSL 081800Z 27004KT 2800 DU FEW010 29/27 Q1011 BECMG 4000', 'FGSL 081700Z 27005KT 2800 DU FEW010 30/27 Q1010 NOSIG', 'FGSL 081630Z 27006KT 240V300 2800 DU FEW010 30/27 Q1010 NOSIG', 'FGSL 081600Z 29006KT 240V320 2800 DU FEW010 31/27 Q1010 NOSIG', 'FGSL 081500Z 28006KT 230V330 2800 DU FEW010 32/27 Q1010 NOSIG', 'FGSL 081430Z 27007KT 230V310 2800 DU FEW010 32/27 Q1010 NOSIG', 'FGSL 081400Z 27008KT 240V310 2800 DU FEW010 32/27 Q1010 NOSIG', 'FGSL 081330Z 28008KT 250V320 2800 DU FEW010 32/27 Q1010 NOSIG', 'FGSL 081300Z 28008KT 240V340 2800 DU FEW010 32/27 Q1011 NOSIG', 'FGSL 081200Z 27009KT 240V300 2600 DU FEW010 32/27 Q1012 NOSIG', 'FGSL 081130Z 28009KT 220V320 2600 DU FEW010 33/27 Q1013 NOSIG', 'FGSL 081100Z 28007KT 240V330 2600 DU FEW010 32/27 Q1013 NOSIG', 'FGSL 081030Z 26009KT 220V300 2600 DU FEW010 32/27 Q1014 NOSIG', 'FGSL 081000Z 26008KT 220V300 2600 DU FEW010 31/27 Q1014 NOSIG', 'FGSL 080930Z 26007KT 220V320 2600 DU FEW010 32/27 Q1014 NOSIG', 'FGSL 080900Z 23007KT 190V270 2600 DU FEW010 31/27 Q1014 NOSIG', 'FGSL 080830Z 23005KT 200V270 2800 DU FEW010 31/27 Q1014 NOSIG', 'FGSL 080800Z VRB02KT 2800 DU FEW010 29/26 Q1014 NOSIG', 'FGSL 080730Z VRB02KT 2800 DU FEW010 26/24 Q1014 NOSIG', 'FGSL 080700Z 23003KT 2800 DU FEW010 25/23 Q1014 NOSIG', 'FGSL 080600Z 24003KT 3500 BR FEW010 24/23 Q1013 NOSIG', 'FGSL 080500Z 25003KT 3500 BR FEW012 25/23 Q1013 NOSIG', 'FGSL 080400Z 24002KT 3500 BR FEW012 25/23 Q1012 NOSIG', 'FGSL 080300Z 24004KT 3500 BR FEW012 26/24 Q1012 NOSIG', 'FGSL 080230Z 22004KT 3500 BR FEW012 26/24 Q1012 NOSIG', 'FGSL 080200Z 24005KT 3500 BR FEW012 27/24 Q1012 NOSIG', 'FGSL 080100Z 24007KT 3500 BR FEW012 27/24 Q1012 NOSIG', 'FGSL 080030Z 24007KT 3500 BR FEW012 27/24 Q1012 NOSIG', 'FGSL 080000Z 24006KT 3500 BR FEW012 26/24 Q1013 NOSIG', 'FGSL 072300Z 24006KT 3500 BR FEW012 26/24 Q1013 NOSIG', 'FGSL 072230Z 24005KT 3500 BR FEW012 27/24 Q1013 NOSIG', 'FGSL 072200Z 25005KT 3500 BR FEW012 27/24 Q1013 NOSIG', 'FGSL 072130Z 25005KT 3500 BR FEW012 27/24 Q1013 NOSIG', 'FGSL 072100Z 24005KT 3500 DU FEW012 27/24 Q1013 NOSIG', 'FGSL 072000Z 24005KT 3500 DU FEW012 27/24 Q1012 NOSIG', 'FGSL 071900Z 24007KT 3500 DU FEW012 29/24 Q1011 NOSIG', 'FGSL 071700Z 25008KT 220V280 2800 DU FEW012 30/27 Q1010 NOSIG', 'FGSL 071630Z 26010KT 2800 DU FEW012 31/27 Q1009 NOSIG', 'FGSL 071600Z 27008KT 240V300 2800 DU FEW012 32/26 Q1009 NOSIG', 'FGSL 071530Z 27007KT 2800 DU FEW012 33/26 Q1009 NOSIG', 'FGSL 071500Z 28006KT 240V310 2800 DU FEW012 33/26 Q1009 NOSIG', 'FGSL 071430Z 26008KT 240V300 2800 DU FEW012 33/26 Q1009 NOSIG', 'FGSL 071400Z 25008KT 230V290 2800 DU FEW012 33/26 Q1010 NOSIG', 'FGSL 071330Z 26007KT 210V300 2500 DU FEW012 33/26 Q1010 NOSIG', 'FGSL 071300Z 26008KT 230V300 2500 HZ FEW010 33/26 Q1011 NOSIG', 'FGSL 071200Z 27008KT 230V320 2500 HZ FEW010 33/27 Q1012 NOSIG', 'FGSL 071100Z 27008KT 230V340 2500 HZ FEW010 33/27 Q1013 NOSIG', 'FGSL 071030Z 27008KT 230V320 2500 HZ FEW010 32/27 Q1014 NOSIG', 'FGSL 071000Z 26008KT 2500 HZ FEW010 32/26 Q1014 NOSIG', 'FGSL 070930Z 28007KT 240V310 2500 HZ FEW010 32/27 Q1014 NOSIG', 'FGSL 070900Z 25007KT 2500 HZ FEW010 31/27 Q1014 NOSIG', 'FGSL 070800Z 23005KT 190V250 2500 BR FEW010 30/26 Q1014 NOSIG', 'FGSL 070700Z VRB02KT 2200 BR FEW010 27/24 Q1014 NOSIG', 'FGSL 070630Z 23002KT 2200 BR FEW010 26/25 Q1014 NOSIG', 'FGSL 070600Z 20004KT 2100 BR FEW010 26/25 Q1014 NOSIG', 'FGSL 070530Z 27002KT 4000 BR FEW010 27/26 Q1013 BECMG 2100', 'FGSL 070500Z 26003KT 4000 BR FEW010 26/26 Q1013 NOSIG', 'FGSL 070430Z 24005KT 4000 BR FEW010 26/26 Q1013 NOSIG', 'FGSL 070400Z 24005KT 4000 BR FEW010 27/26 Q1012 NOSIG', 'FGSL 070300Z 25006KT 4000 BR FEW010 27/26 Q1012 NOSIG', 'FGSL 070230Z 24006KT 4000 BR FEW010 26/25 Q1012 NOSIG', 'FGSL 070200Z AUTO 24005KT NCD 26/25 Q1012', 'FGSL 070130Z 24005KT 4000 BR FEW013 26/25 Q1013 NOSIG', 'FGSL 070100Z 25004KT 4000 BR FEW013 26/25 Q1013 NOSIG', 'FGSL 070000Z 25004KT 4000 BR FEW013 27/26 Q1013 NOSIG', 'FGSL 062330Z 26005KT 4000 BR FEW013 27/26 Q1014 NOSIG', 'FGSL 062030Z 24003KT 4000 BR FEW013 27/25 Q1014 NOSIG', 'FGSL 062000Z 23004KT 4000 DU FEW013 27/25 Q1014 NOSIG', 'FGSL 061900Z 23005KT 4000 DU FEW013 28/25 Q1012 NOSIG', 'FGSL 061830Z 24005KT 2800 DU FEW013 28/25 Q1012 BECMG 4000 DU', 'FGSL 061800Z 25006KT 2800 DU FEW013 29/25 Q1011 NOSIG', 'FGSL 061730Z 24006KT 2800 HZ FEW013 29/25 Q1011 NOSIG', 'FGSL 061700Z 24007KT 2800 HZ FEW013 30/25 Q1010 NOSIG', 'FGSL 061630Z 25008KT 220V290 2800 HZ FEW013 31/25 Q1010 NOSIG', 'FGSL 061600Z 25007KT 2800 HZ FEW013 31/25 Q1010 NOSIG', 'FGSL 061530Z 25006KT 220V280 2800 HZ FEW013 32/25 Q1010 NOSIG', 'FGSL 061500Z 25007KT 2800 HZ FEW013 32/25 Q1010 NOSIG', 'FGSL 061430Z 28005KT 230V320 2800 HZ FEW013 33/25 Q1010 NOSIG', 'FGSL 061400Z 29006KT 210V350 2800 HZ FEW013 33/25 Q1011 NOSIG', 'FGSL 061330Z 32004KT 260V030 2800 HZ FEW013 33/27 Q1011 NOSIG', 'FGSL 061300Z 29006KT 220V360 2800 HZ FEW013 34/26 Q1011 NOSIG', 'FGSL 061200Z 26006KT 230V360 2800 HZ FEW012 34/25 Q1012 NOSIG', 'FGSL 061130Z 28007KT 250V320 2800 HZ FEW012 33/25 Q1013 NOSIG', 'FGSL 061100Z 29006KT 240V340 2800 HZ FEW012 33/25 Q1014 NOSIG', 'FGSL 061000Z 27006KT 240V330 2800 DU FEW012 33/25 Q1015 NOSIG', 'FGSL 060900Z VRB02KT 2800 DU FEW012 33/25 Q1015 NOSIG', 'FGSL 060800Z 00000KT 2800 DU FEW012 31/21 Q1015 NOSIG', 'FGSL 060730Z 00000KT 2800 DU FEW012 29/21 Q1015 NOSIG', 'FGSL 060700Z 00000KT 2800 DU FEW012 26/21 Q1015 NOSIG', 'FGSL 060630Z 00000KT 2800 DU FEW012 25/23 Q1014 NOSIG', 'FGSL 060600Z 00000KT 2200 DU FEW012 24/23 Q1014 NOSIG', 'FGSL 060500Z 25003KT 4500 DU SCT012 25/23 Q1013 NOSIG', 'FGSL 060430Z 25003KT 4500 DU SCT012 25/23 Q1013 NOSIG', 'FGSL 060400Z 24004KT 4500 DU SCT012 25/23 Q1013 NOSIG', 'FGSL 060300Z 25004KT 4500 DU SCT012 25/24 Q1013 NOSIG', 'FGSL 060230Z 25003KT 4500 DU SCT012 25/24 Q1012 NOSIG', 'FGSL 060200Z 24004KT 4500 DU SCT012 25/24 Q1013 NOSIG', 'FGSL 060130Z 22003KT 4500 DU SCT012 25/24 Q1013 NOSIG', 'FGSL 060100Z 24003KT 4500 DU SCT012 26/25 Q1013 NOSIG', 'FGSL 060030Z 23001KT 4500 DU SCT012 26/25 Q1014 NOSIG', 'FGSL 052330Z 24003KT 4500 DU SCT012 27/25 Q1014 NOSIG', 'FGSL 052300Z 26003KT 4500 DU SCT012 27/25 Q1014 NOSIG', 'FGSL 052200Z 25004KT 4500 DU SCT012 27/24 Q1015 NOSIG', 'FGSL 052130Z 25004KT 4500 DU SCT012 27/23 Q1015 NOSIG', 'FGSL 052100Z 25004KT 4500 DU SCT012 27/23 Q1015 NOSIG', 'FGSL 052030Z 25004KT 2400 DU SCT012 27/23 Q1015 BECMG 4500', 'FGSL 052000Z 24004KT 2400 DU SCT012 27/24 Q1014 NOSIG', 'FGSL 051930Z 24004KT 2400 DU SCT012 27/23 Q1014 NOSIG']","['2024-02-08 18:30:00', '2024-02-08 18:00:00', '2024-02-08 17:00:00', '2024-02-08 16:30:00', '2024-02-08 16:00:00', '2024-02-08 15:00:00', '2024-02-08 14:30:00', '2024-02-08 14:00:00', '2024-02-08 13:30:00', '2024-02-08 13:00:00', '2024-02-08 12:00:00', '2024-02-08 11:30:00', '2024-02-08 11:00:00', '2024-02-08 10:30:00', '2024-02-08 10:00:00', '2024-02-08 09:30:00', '2024-02-08 09:00:00', '2024-02-08 08:30:00', '2024-02-08 08:00:00', '2024-02-08 07:30:00', '2024-02-08 07:00:00', '2024-02-08 06:00:00', '2024-02-08 05:00:00', '2024-02-08 04:00:00', '2024-02-08 03:00:00', '2024-02-08 02:30:00', '2024-02-08 02:00:00', '2024-02-08 01:00:00', '2024-02-08 00:30:00', '2024-02-08 00:00:00', '2024-02-07 23:00:00', '2024-02-07 22:30:00', '2024-02-07 22:00:00', '2024-02-07 21:30:00', '2024-02-07 21:00:00', '2024-02-07 20:00:00', '2024-02-07 19:00:00', '2024-02-07 17:00:00', '2024-02-07 16:30:00', '2024-02-07 16:00:00', '2024-02-07 15:30:00', '2024-02-07 15:00:00', '2024-02-07 14:30:00', '2024-02-07 14:00:00', '2024-02-07 13:30:00', '2024-02-07 13:00:00', '2024-02-07 12:00:00', '2024-02-07 11:00:00', '2024-02-07 10:30:00', '2024-02-07 10:00:00', '2024-02-07 09:30:00', '2024-02-07 09:00:00', '2024-02-07 08:00:00', '2024-02-07 07:00:00', '2024-02-07 06:30:00', '2024-02-07 06:00:00', '2024-02-07 05:30:00', '2024-02-07 05:00:00', '2024-02-07 04:30:00', '2024-02-07 04:00:00', '2024-02-07 03:00:00', '2024-02-07 02:30:00', '2024-02-07 02:00:00', '2024-02-07 01:30:00', '2024-02-07 01:00:00', '2024-02-07 00:00:00', '2024-02-06 23:30:00', '2024-02-06 20:30:00', '2024-02-06 20:00:00', '2024-02-06 19:00:00', '2024-02-06 18:30:00', '2024-02-06 18:00:00', '2024-02-06 17:30:00', '2024-02-06 17:00:00', '2024-02-06 16:30:00', '2024-02-06 16:00:00', '2024-02-06 15:30:00', '2024-02-06 15:00:00', '2024-02-06 14:30:00', '2024-02-06 14:00:00', '2024-02-06 13:30:00', '2024-02-06 13:00:00', '2024-02-06 12:00:00', '2024-02-06 11:30:00', '2024-02-06 11:00:00', '2024-02-06 10:00:00', '2024-02-06 09:00:00', '2024-02-06 08:00:00', '2024-02-06 07:30:00', '2024-02-06 07:00:00', '2024-02-06 06:30:00', '2024-02-06 06:00:00', '2024-02-06 05:00:00', '2024-02-06 04:30:00', '2024-02-06 04:00:00', '2024-02-06 03:00:00', '2024-02-06 02:30:00', '2024-02-06 02:00:00', '2024-02-06 01:30:00', '2024-02-06 01:00:00', '2024-02-06 00:30:00', '2024-02-05 23:30:00', '2024-02-05 23:00:00', '2024-02-05 22:00:00', '2024-02-05 21:30:00', '2024-02-05 21:00:00', '2024-02-05 20:30:00', '2024-02-05 20:00:00', '2024-02-05 19:30:00']"
Estonia, Kardla Airport (KDL/EEKA) ,"['EEKA 081620Z VRB02KT CAVOK M12/M13 Q1002', 'EEKA 081550Z VRB02KT CAVOK M11/M13 Q1002', 'EEKA 081520Z VRB01KT CAVOK M09/M12 Q1002', 'EEKA 081450Z VRB02KT 9999 FEW023 M07/M10 Q1002', 'EEKA 081420Z 06003KT 010V120 9999 FEW023 M06/M10 Q1002', 'EEKA 081350Z 03007KT 360V060 9999 BKN019 M06/M09 Q1002', 'EEKA 081320Z 03003KT 9999 BKN019 M04/M10 Q1002', 'EEKA 081250Z 14001KT 9999 SCT023 M03/M09 Q1002', 'EEKA 080820Z 18003KT 9999 FEW023 M08/M10 Q1001', 'EEKA 080750Z 19003KT 9999 FEW023 M10/M12 Q1000', 'EEKA 080720Z 20003KT 160V230 9999 SCT023 M11/M12 Q1000', 'EEKA 080650Z VRB02KT 9999 SCT023 M11/M12 Q1000', 'EEKA 080620Z 18004KT 9999 SCT023 M08/M11 Q1000', 'EEKA 080550Z 35008KT 9999 SCT023 M06/M10 Q0999', 'EEKA 080520Z 36008KT 9999 SCT023 M06/M10 Q0999', 'EEKA 080450Z 36009KT 9999 SCT023 M06/M10 Q0999', 'EEKA 080420Z 36006KT 300V030 9999 SCT023 M06/M10 Q0999', 'EEKA 080350Z 35006KT 9999 FEW023 M06/M10 Q0999', 'EEKA 071620Z 02005KT 340V060 3400 SN SCT006 BKN027 M05/M07 Q0995', 'EEKA 071550Z 00000KT 2900 SN FEW011 BKN027 M05/M07 Q0995', 'EEKA 071520Z 05004KT 010V080 3500 SN FEW006 BKN027 M05/M07 Q0994', 'EEKA 071450Z 03005KT 360V070 6000 -SN SCT013 BKN027 M04/M08 Q0994', 'EEKA 071420Z 05003KT 350V110 9999 -SN BKN027 M04/M09 Q0994', 'EEKA 071350Z 03004KT 350V090 9999 FEW027 BKN040 M04/M09 Q0994', 'EEKA 071320Z 05004KT 360V110 9999 SCT027 M04/M09 Q0993', 'EEKA 071250Z 04005KT 360V080 9999 BKN027 M04/M09 Q0993', 'EEKA 070820Z 05006KT 360V080 9999 BKN030 M04/M09 Q0990', 'EEKA 070750Z 05006KT 020V090 9999 BKN030 M04/M09 Q0990', 'EEKA 070720Z 04008KT 360V100 9999 BKN033 M04/M09 Q0989', 'EEKA 070650Z 04010KT 360V080 9999 BKN033 M04/M08 Q0989', 'EEKA 070620Z 05009KT 360V090 9999 BKN030 M05/M09 Q0989', 'EEKA 070550Z 05010KT 310V090 9999 BKN027 M05/M09 Q0988', 'EEKA 070520Z 05009KT 010V090 9999 OVC023 M05/M09 Q0988', 'EEKA 070450Z 06009KT 010V100 9999 OVC023 M05/M09 Q0988', 'EEKA 070420Z 06010KT 010V090 9999 OVC023 M05/M08 Q0988', 'EEKA 070350Z 06010KT 020V110 9999 OVC023 M04/M09 Q0988', 'EEKA 061620Z 15003KT9999 OVC033 M03/M07 Q0996', 'EEKA 061550Z 10003KT 070V130 9999 OVC037 M03/M07 Q0997', 'EEKA 061520Z 10003KT 9999 OVC037 M03/M07 Q0997', 'EEKA 061450Z 08004KT 050V110 9999 OVC033 M02/M07 Q0997', 'EEKA 061420Z VRB02KT 9999 OVC037 M02/M07 Q0997', 'EEKA 061350Z 02003KT 350V070 9999 OVC037 M02/M07 Q0997', 'EEKA 061320Z 01003KT 300V050 9999 OVC037 M02/M07 Q0997', 'EEKA 061250Z 01004KT 9999 OVC037 M02/M07 Q0997', 'EEKA 060820Z 33009KT 9999 OVC033 M02/M07 Q0998', 'EEKA 060750Z 33010KT 9999 -SN OVC027 M02/M07 Q0998', 'EEKA 060720Z 33011KT 9999 OVC027 M02/M07 Q0997', 'EEKA 060650Z 34014KT 9999 OVC027 M02/M06 Q0997', 'EEKA 060620Z 33015KT 9999 -SN OVC023 M02/M06 Q0997', 'EEKA 060550Z 33016KT 9999 BKN030 M02/M07 Q0997', 'EEKA 060520Z 33017KT 9999 BKN037 M02/M07 Q0997', 'EEKA 060450Z 33017KT 9999 FEW025 BKN040 M02/M07 Q0997', 'EEKA 060420Z 33016KT 9999 FEW015 SCT049 M02/M05 Q0996', 'EEKA 060350Z 33014KT 9999 BKN017 M02/M05 Q0996']","['2024-02-08 16:20:00', '2024-02-08 15:50:00', '2024-02-08 15:20:00', '2024-02-08 14:50:00', '2024-02-08 14:20:00', '2024-02-08 13:50:00', '2024-02-08 13:20:00', '2024-02-08 12:50:00', '2024-02-08 08:20:00', '2024-02-08 07:50:00', '2024-02-08 07:20:00', '2024-02-08 06:50:00', '2024-02-08 06:20:00', '2024-02-08 05:50:00', '2024-02-08 05:20:00', '2024-02-08 04:50:00', '2024-02-08 04:20:00', '2024-02-08 03:50:00', '2024-02-07 16:20:00', '2024-02-07 15:50:00', '2024-02-07 15:20:00', '2024-02-07 14:50:00', '2024-02-07 14:20:00', '2024-02-07 13:50:00', '2024-02-07 13:20:00', '2024-02-07 12:50:00', '2024-02-07 08:20:00', '2024-02-07 07:50:00', '2024-02-07 07:20:00', '2024-02-07 06:50:00', '2024-02-07 06:20:00', '2024-02-07 05:50:00', '2024-02-07 05:20:00', '2024-02-07 04:50:00', '2024-02-07 04:20:00', '2024-02-07 03:50:00', '2024-02-06 16:20:00', '2024-02-06 15:50:00', '2024-02-06 15:20:00', '2024-02-06 14:50:00', '2024-02-06 14:20:00', '2024-02-06 13:50:00', '2024-02-06 13:20:00', '2024-02-06 12:50:00', '2024-02-06 08:20:00', '2024-02-06 07:50:00', '2024-02-06 07:20:00', '2024-02-06 06:50:00', '2024-02-06 06:20:00', '2024-02-06 05:50:00', '2024-02-06 05:20:00', '2024-02-06 04:50:00', '2024-02-06 04:20:00', '2024-02-06 03:50:00']"
Estonia, Kuressaare Airport (URE/EEKE) ,"['EEKE 081850Z AUTO 06005KT 9999NDV NSC M06/M09 Q1002', 'EEKE 081820Z AUTO 05006KT 9999NDV NSC M06/M09 Q1002', 'EEKE 081750Z 06006KT CAVOK M05/M09 Q1002', 'EEKE 081720Z 07005KT CAVOK M05/M09 Q1002', 'EEKE 081650Z 08007KT CAVOK M05/M09 Q1002', 'EEKE 081620Z 09005KT 050V120 CAVOK M05/M09 Q1002', 'EEKE 081550Z 08004KT 020V140 CAVOK M05/M09 Q1002', 'EEKE 081520Z 10007KT CAVOK M05/M10 Q1001', 'EEKE 081450Z 10007KT CAVOK M04/M10 Q1001', 'EEKE 081420Z 11007KT CAVOK M04/M09 Q1002', 'EEKE 081350Z 11006KT CAVOK M04/M09 Q1001', 'EEKE 081320Z 13006KT CAVOK M04/M08 Q1001', 'EEKE 081250Z 11006KT CAVOK M04/M09 Q1001', 'EEKE 081220Z AUTO 12006KT 080V150 9999NDV NCD M04/M08 Q1001', 'EEKE 081150Z AUTO 13007KT 9999NDV NCD M04/M08 Q1001', 'EEKE 081120Z AUTO 13007KT 9999NDV NCD M04/M08 Q1001', 'EEKE 081050Z 08006KT CAVOK M04/M10 Q1001', 'EEKE 081020Z 08006KT 9999 FEW041 M04/M10 Q1001', 'EEKE 080950Z 08005KT 9999 FEW045 M04/M09 Q1001', 'EEKE 080920Z 09004KT 060V120 CAVOK M04/M09 Q1001', 'EEKE 080850Z 07004KT CAVOK M04/M08 Q1001', 'EEKE 080820Z 05004KT 9999 FEW044 M05/M08 Q1001', 'EEKE 080750Z 03004KT 9999 FEW047 M07/M08 Q1000', 'EEKE 080720Z 05004KT 9999 FEW043 M07/M08 Q1000', 'EEKE 080650Z 04005KT 9999 FEW043 M07/M08 Q1000', 'EEKE 080620Z 06004KT CAVOK M08/M09 Q1000', 'EEKE 080550Z 08002KT CAVOK M06/M08 Q1000', 'EEKE 080520Z 00000KT CAVOK M06/M08 Q0999', 'EEKE 080450Z 06003KT CAVOK M06/M08 Q0999', 'EEKE 080420Z AUTO 03004KT 9999NDV NSC M05/M07 Q0999', 'EEKE 080350Z AUTO 03005KT 9999NDV FEW050 M05/M07 Q0999', 'EEKE 080320Z AUTO 35003KT 320V030 9999NDV NSC M05/M07 Q0999', 'EEKE 080250Z AUTO 34003KT 9999NDV NSC M04/M07 Q0999', 'EEKE 080220Z AUTO VRB02KT 9999NDV FEW041 M04/M06 Q0999', 'EEKE 080150Z AUTO 28003KT 230V360 9999NDV -SN FEW030 BKN041 M04/M06 Q0998', 'EEKE 080120Z AUTO 29003KT 250V320 6000NDV -SN FEW017 BKN020 OVC046 M04/M06 Q0998', 'EEKE 080050Z AUTO VRB02KT 6000NDV -SN FEW020 SCT025 OVC047 M04/M06 Q0998', 'EEKE 080020Z AUTO 30002KT 9999NDV -SN FEW026 OVC046 M04/M06 Q0998', 'EEKE 072350Z AUTO VRB02KT 9999NDV -SG FEW039 OVC044 M05/M06 Q0998', 'EEKE 072320Z AUTO 29002KT 9999NDV FEW042 OVC049 M05/M06 Q0997', 'EEKE 072250Z AUTO 32002KT 9999NDV FEW041 BKN048 M05/M06 Q0997', 'EEKE 072220Z AUTO VRB02KT 9999NDV FEW037 OVC045 M04/M06 Q0997', 'EEKE 072150Z AUTO VRB01KT 9999NDV OVC045 M04/M06 Q0997', 'EEKE 072120Z AUTO 01003KT 9999NDV OVC046 M04/M06 Q0997', 'EEKE 072050Z AUTO VRB02KT 9999NDV -SN OVC040 M04/M06 Q0997', 'EEKE 072020Z AUTO VRB02KT 9999NDV -SN OVC038 M04/M06 Q0997', 'EEKE 071950Z AUTO VRB01KT 9999NDV OVC039 M04/M06 Q0996', 'EEKE 071920Z AUTO VRB01KT 9999NDV OVC038 M04/M06 Q0996', 'EEKE 071850Z AUTO 00000KT 9999NDV OVC039 M04/M06 Q0996', 'EEKE 071820Z AUTO VRB02KT 9999NDV -SN OVC034 M04/M07 Q0996', 'EEKE 071750Z 33003KT 300V360 9999 -SN FEW028 OVC033 M04/M07 Q0996', 'EEKE 071720Z 34003KT 9999 -SN OVC034 M04/M07 Q0996', 'EEKE 071650Z 35004KT 310V010 9999 -SN FEW036 OVC041 M04/M07 Q0995', 'EEKE 071620Z 34005KT 310V010 9999 OVC038 M04/M07 Q0995', 'EEKE 071550Z 35006KT 9999 FEW026 OVC036 M04/M08 Q0995', 'EEKE 071520Z 36003KT 320V020 9999 FEW027 BKN035 M03/M07 Q0995', 'EEKE 071450Z 02006KT 340V040 9999 VCSH FEW029 BKN033 M03/M08 Q0994', 'EEKE 071420Z 34006KT 310V010 9999 VCSH FEW029 BKN037 M03/M08 Q0994', 'EEKE 071350Z AUTO 34007KT 300V020 9999NDV -SN OVC030 M03/M07 Q0993', 'EEKE 071320Z AUTO 02006KT 9999NDV BKN033 OVC040 M03/M08 Q0993', 'EEKE 071250Z AUTO 02008KT 9999NDV OVC037 M03/M09 Q0993', 'EEKE 071220Z 01010KT 340V040 9999 SCT035 M03/M09 Q0992', 'EEKE 071150Z 02010KT 9999 FEW032 M03/M09 Q0992', 'EEKE 071120Z 02011KT 340V040 9999 FW039 M03/M09 Q0992', 'EEKE 071050Z 01010KT 9999 FEW039 M03/M08 Q0991', 'EEKE 071020Z 02011KT 9999 FEW040 M04/M08 Q0991', 'EEKE 070950Z 02011KT 9999 BKN040 M04/M08 Q0991', 'EEKE 070920Z 01011KT 9999 OVC040 M04/M08 Q0990', 'EEKE 070850Z 02013KT 350V050 9999 OVC041 M05/M08 Q0990', 'EEKE 070820Z 02012KT 9999 OVC044 M05/M07 Q0989', 'EEKE 070750Z AUTO 02011KT 9999NDV OVC044 M04/M07 Q0989', 'EEKE 070720Z AUTO 02010KT 9999NDV FEW034 OVC043 M05/M07 Q0988', 'EEKE 070650Z 02011KT 9999 FEW034 SCT039 OVC045 M05/M07 Q0988', 'EEKE 070620Z 03010KT 9999 FEW039 OVC045 M05/M07 Q0987', 'EEKE 070550Z 03011KT 9999 OVC045 M05/M07 Q0986', 'EEKE 070520Z 04012KT 9999 BKN046 M04/M07 Q0986', 'EEKE 070450Z 03012KT 9999 FEW046 M04/M07 Q0986', 'EEKE 070420Z AUTO 04012KT 9999NDV FEW044 M04/M07 Q0986', 'EEKE 070350Z AUTO 05012KT 9999NDV FEW044 M04/M07 Q0986', 'EEKE 070320Z AUTO 05013KT 9999NDV FEW017 SCT045 M04/M07 Q0986', 'EEKE 070250Z AUTO 05013KT 9999NDV FEW016 SCT044 M04/M06 Q0986', 'EEKE 070220Z AUTO 06011KT 020V080 9999NDV FEW015 BKN041 M04/M06 Q0986', 'EEKE 070150Z AUTO 06011KT 9999NDV FEW016 BKN041 M03/M06 Q0986', 'EEKE 070120Z AUTO 07013KT 040V100 9999NDV FEW014 BKN036 M03/M06 Q0986', 'EEKE 070050Z AUTO 08013KT 050V110 9999NDV FEW014 BKN037 M03/M06 Q0986', 'EEKE 070020Z AUTO 08012KT 050V110 9999NDV FEW014 BKN041 M03/M05 Q0987', 'EEKE 062350Z AUTO 09012KT 9999NDV SCT014 BKN040 M03/M05 Q0987', 'EEKE 062320Z AUTO 09012KT 9999NDV FEW015 SCT017 OVC039 M03/M05 Q0988', 'EEKE 062250Z AUTO 10011KT 070V130 9999NDV SCT017 BKN020 OVC038 M03/M05 Q0989', 'EEKE 062220Z AUTO 10010KT 9999NDV FEW021 OVC037 M03/M06 Q0989', 'EEKE 062150Z AUTO 10010KT 9999NDV FEW023 BKN037 M03/M06 Q0990', 'EEKE 062120Z AUTO 10011KT 9999NDV BKN038 M03/M07 Q0990', 'EEKE 062050Z AUTO 11010KT 9999NDV OVC039 M02/M06 Q0991', 'EEKE 062020Z AUTO 11010KT 9999NDV OVC040 M02/M06 Q0993', 'EEKE 061950Z AUTO 12009KT 9999NDV OVC041 M02/M06 Q0993', 'EEKE 061920Z AUTO 12008KT 9999NDV OVC041 M02/M06 Q0993', 'EEKE 061850Z AUTO 13007KT 9999NDV OVC041 M02/M06 Q0994', 'EEKE 061820Z AUTO 13007KT 9999NDV OVC041 M02/M06 Q0995', 'EEKE 061750Z 14007KT 9999 OVC041 M02/M06 Q0995', 'EEKE 061720Z 14006KT 9999 OVC042 M02/M06 Q0995', 'EEKE 061650Z 13004KT 9999 OVC041 M02/M06 Q0996', 'EEKE 061550Z 13004KT 9999 OVC042 M02/M06 Q0996', 'EEKE 061520Z 14004KT 9999 OVC042 M02/M06 Q0997', 'EEKE 061450Z 15004KT 9999 OVC041 M02/M05 Q0997', 'EEKE 061420Z 16004KT 9999 OVC042 M02/M05 Q0997', 'EEKE 061350Z 15005KT 9999 OVC043 M02/M05 Q0997', 'EEKE 061320Z 17005KT 9999 BKN038 M02/M05 Q0998', 'EEKE 061250Z AUTO 17004KT 9999NDV OVC035 M01/M05 Q0998', 'EEKE 061220Z AUTO 17005KT 9999NDV OVC043 M01/M05 Q0998', 'EEKE 061150Z 18005KT 9999 FEW035 OVC043 M01/M05 Q0998', 'EEKE 061120Z VRB02KT 9999 OVC044 M00/M05 Q0998', 'EEKE 061050Z 35002KT 280V060 9999 OVC046 M01/M06 Q0999', 'EEKE 061020Z 03003KT 340V080 9999 FEW035 OVC045 M01/M06 Q0999', 'EEKE 060950Z 35004KT 310V010 9999 FEW031 BKN042 M01/M06 Q0999', 'EEKE 060920Z 03002KT 9999 BKN044 M01/M05 Q0999', 'EEKE 060850Z 36004KT 9999 BKN047 M01/M05 Q0998', 'EEKE 060820Z 35002KT 320V020 9999 FEW031 SCT045 M01/M05 Q0998', 'EEKE 060750Z 36005KT 9999 -SN FEW028 SCT036 M02/M05 Q0998', 'EEKE 060720Z AUTO 32004KT 270V010 9999NDV -SN FEW018 OVC048 M02/M04 Q0998', 'EEKE 060650Z 30005KT 250V330 9999 -SHSN FEW023 SCT033 BKN042CB M02/M03 Q0998', 'EEKE 060620Z 32005KT 280V360 9000 -SHSN FEW022 SCT031 BKN044CB M02/M03 Q0997', 'EEKE 060550Z 29007KT 230V350 9999 -SN SCT027 BKN040CB M01/M05 Q0997', 'EEKE 060520Z 28006KT 250V310 9999 BKN042 M02/M05 Q0997', 'EEKE 060450Z 28005KT 240V300 9999 BKN045 M01/M05 Q0997', 'EEKE 060420Z AUTO 29005KT 250V360 9999NDV BKN035 OVC041 M01/M06 Q0997', 'EEKE 060350Z AUTO 30006KT 270V340 9999NDV OVC034 M01/M06 Q0997', 'EEKE 060320Z AUTO 30005KT 270V350 9999NDV OVC034 M01/M05 Q0997', 'EEKE 060250Z AUTO 31004KT 270V340 9999NDV OVC032 M02/M04 Q0997', 'EEKE 060220Z AUTO 31004KT 250V360 9999NDV -SG OVC031 M02/M02 Q0997', 'EEKE 060150Z AUTO 29004KT 250V330 9999NDV -SG FEW030 OVC038 M02/M02 Q0997', 'EEKE 060120Z AUTO 31004KT 280V350 8000NDV -SN FEW008 BKN018 OVC043 M02/M02 Q0997', 'EEKE 060050Z AUTO 32006KT 270V360 2100NDV -SN SCT013 OVC015 M02/M02 Q0997', 'EEKE 060020Z AUTO 34007KT 300V020 2400NDV -SN OVC012 M02/M03 Q0997', 'EEKE 052350Z AUTO 29004KT 230V350 9999NDV -SN SCT016 BKN030 OVC034 M02/M03 Q0996', 'EEKE 052320Z AUTO 31006KT 270V350 9999NDV -FZRASN SCT029 BKN036 OVC041 M01/M05 Q0996', 'EEKE 052250Z AUTO 32007KT 280V360 9999NDV OVC034 M00/M05 Q0996', 'EEKE 052220Z AUTO 31006KT 250V010 9999NDV BKN026 OVC035 M01/M04 Q0996', 'EEKE 052150Z AUTO 32005KT 280V350 9999NDV -SN FEW024 OVC038 M01/M04 Q0996', 'EEKE 052120Z AUTO 33007KT 290V360 9999NDV -SN BKN026 BKN032 OVC037 M00/M05 Q0996', 'EEKE 052050Z AUTO 32008KT 280V020 9999NDV OVC028 M00/M05 Q0995', 'EEKE 052020Z AUTO 31007KT 260V340 9999NDV OVC028 M00/M05 Q0995', 'EEKE 051950Z AUTO 31007KT 270V020 9999NDV OVC028 M00/M05 Q0995']","['2024-02-08 18:50:00', '2024-02-08 18:20:00', '2024-02-08 17:50:00', '2024-02-08 17:20:00', '2024-02-08 16:50:00', '2024-02-08 16:20:00', '2024-02-08 15:50:00', '2024-02-08 15:20:00', '2024-02-08 14:50:00', '2024-02-08 14:20:00', '2024-02-08 13:50:00', '2024-02-08 13:20:00', '2024-02-08 12:50:00', '2024-02-08 12:20:00', '2024-02-08 11:50:00', '2024-02-08 11:20:00', '2024-02-08 10:50:00', '2024-02-08 10:20:00', '2024-02-08 09:50:00', '2024-02-08 09:20:00', '2024-02-08 08:50:00', '2024-02-08 08:20:00', '2024-02-08 07:50:00', '2024-02-08 07:20:00', '2024-02-08 06:50:00', '2024-02-08 06:20:00', '2024-02-08 05:50:00', '2024-02-08 05:20:00', '2024-02-08 04:50:00', '2024-02-08 04:20:00', '2024-02-08 03:50:00', '2024-02-08 03:20:00', '2024-02-08 02:50:00', '2024-02-08 02:20:00', '2024-02-08 01:50:00', '2024-02-08 01:20:00', '2024-02-08 00:50:00', '2024-02-08 00:20:00', '2024-02-07 23:50:00', '2024-02-07 23:20:00', '2024-02-07 22:50:00', '2024-02-07 22:20:00', '2024-02-07 21:50:00', '2024-02-07 21:20:00', '2024-02-07 20:50:00', '2024-02-07 20:20:00', '2024-02-07 19:50:00', '2024-02-07 19:20:00', '2024-02-07 18:50:00', '2024-02-07 18:20:00', '2024-02-07 17:50:00', '2024-02-07 17:20:00', '2024-02-07 16:50:00', '2024-02-07 16:20:00', '2024-02-07 15:50:00', '2024-02-07 15:20:00', '2024-02-07 14:50:00', '2024-02-07 14:20:00', '2024-02-07 13:50:00', '2024-02-07 13:20:00', '2024-02-07 12:50:00', '2024-02-07 12:20:00', '2024-02-07 11:50:00', '2024-02-07 11:20:00', '2024-02-07 10:50:00', '2024-02-07 10:20:00', '2024-02-07 09:50:00', '2024-02-07 09:20:00', '2024-02-07 08:50:00', '2024-02-07 08:20:00', '2024-02-07 07:50:00', '2024-02-07 07:20:00', '2024-02-07 06:50:00', '2024-02-07 06:20:00', '2024-02-07 05:50:00', '2024-02-07 05:20:00', '2024-02-07 04:50:00', '2024-02-07 04:20:00', '2024-02-07 03:50:00', '2024-02-07 03:20:00', '2024-02-07 02:50:00', '2024-02-07 02:20:00', '2024-02-07 01:50:00', '2024-02-07 01:20:00', '2024-02-07 00:50:00', '2024-02-07 00:20:00', '2024-02-06 23:50:00', '2024-02-06 23:20:00', '2024-02-06 22:50:00', '2024-02-06 22:20:00', '2024-02-06 21:50:00', '2024-02-06 21:20:00', '2024-02-06 20:50:00', '2024-02-06 20:20:00', '2024-02-06 19:50:00', '2024-02-06 19:20:00', '2024-02-06 18:50:00', '2024-02-06 18:20:00', '2024-02-06 17:50:00', '2024-02-06 17:20:00', '2024-02-06 16:50:00', '2024-02-06 15:50:00', '2024-02-06 15:20:00', '2024-02-06 14:50:00', '2024-02-06 14:20:00', '2024-02-06 13:50:00', '2024-02-06 13:20:00', '2024-02-06 12:50:00', '2024-02-06 12:20:00', '2024-02-06 11:50:00', '2024-02-06 11:20:00', '2024-02-06 10:50:00', '2024-02-06 10:20:00', '2024-02-06 09:50:00', '2024-02-06 09:20:00', '2024-02-06 08:50:00', '2024-02-06 08:20:00', '2024-02-06 07:50:00', '2024-02-06 07:20:00', '2024-02-06 06:50:00', '2024-02-06 06:20:00', '2024-02-06 05:50:00', '2024-02-06 05:20:00', '2024-02-06 04:50:00', '2024-02-06 04:20:00', '2024-02-06 03:50:00', '2024-02-06 03:20:00', '2024-02-06 02:50:00', '2024-02-06 02:20:00', '2024-02-06 01:50:00', '2024-02-06 01:20:00', '2024-02-06 00:50:00', '2024-02-06 00:20:00', '2024-02-05 23:50:00', '2024-02-05 23:20:00', '2024-02-05 22:50:00', '2024-02-05 22:20:00', '2024-02-05 21:50:00', '2024-02-05 21:20:00', '2024-02-05 20:50:00', '2024-02-05 20:20:00', '2024-02-05 19:50:00']"
Estonia, Parnu Airport (EPU/EEPU) ,"['EEPU 081850Z AUTO 04003KT 9999 NCD M11/M12 Q1003', 'EEPU 081820Z AUTO 05002KT 9999 NCD M11/M11 Q1003', 'EEPU 081750Z AUTO 07003KT 9999 NCD M11/M12 Q1003', 'EEPU 081720Z AUTO 05001KT 9999 NCD M10/M11 Q1003', 'EEPU 081650Z AUTO 02002KT 9999 NCD M10/M12 Q1002', 'EEPU 081620Z AUTO 03002KT 9999 NCD M08/M11 Q1002', 'EEPU 081550Z AUTO 08002KT 9999 NCD M08/M11 Q1002', 'EEPU 081520Z AUTO 07003KT 9999 NCD M08/M11 Q1002', 'EEPU 081450Z AUTO 06005KT 9999 NCD M07/M10 Q1002', 'EEPU 081420Z AUTO 07006KT 9999 FEW026/// M06/M10 Q1002', 'EEPU 081350Z AUTO 03005KT 340V080 9999 BKN027/// M05/M10 Q1002', 'EEPU 081320Z AUTO 35005KT 310V020 9999 BKN027/// M05/M11 Q1002', 'EEPU 081250Z AUTO 35004KT 310V030 9999 FEW023/// M05/M10 Q1001', 'EEPU 081220Z AUTO 35003KT 290V030 9999 NCD M05/M10 Q1001', 'EEPU 081150Z AUTO 05004KT 020V080 9999 FEW019/// M06/M10 Q1001', 'EEPU 081120Z AUTO VRB02KT 9999 FEW017/// M05/M10 Q1001', 'EEPU 081050Z AUTO 33003KT 290V020 9999 SCT016/// M06/M10 Q1001', 'EEPU 081020Z AUTO VRB01KT 9999 FEW015/// M07/M10 Q1001', 'EEPU 080950Z AUTO VRB02KT 9999 FEW015/// M06/M09 Q1001', 'EEPU 080920Z AUTO 06003KT 9999 NCD M06/M09 Q1001', 'EEPU 080850Z AUTO 08003KT 9999 NCD M07/M10 Q1001', 'EEPU 080820Z AUTO 07003KT 9999 NCD M08/M10 Q1000', 'EEPU 080750Z AUTO 07003KT 9999 FEW087/// M09/M11 Q1000', 'EEPU 080720Z AUTO 07004KT 9999 FEW015/// M09/M10 Q1000', 'EEPU 080650Z AUTO 07005KT 9999 BKN015/// M08/M10 Q1000', 'EEPU 080620Z AUTO 09003KT 9999 OVC015/// M08/M09 Q1000', 'EEPU 080550Z AUTO 06003KT 9999 -SN BKN016/// M08/M09 Q0999', 'EEPU 080520Z AUTO 04003KT 9999 -SN SCT017/// BKN021/// BKN034/// M08/M09 Q0999', 'EEPU 080450Z AUTO 08004KT 9999 FEW017/// SCT041/// M09/M10 Q0999', 'EEPU 080420Z AUTO 11004KT 9999 FEW019/// SCT023/// BKN037/// M08/M10 Q0999', 'EEPU 080350Z AUTO 10004KT 9999 -SN FEW021/// OVC044/// M08/M10 Q0999', 'EEPU 080320Z AUTO 09004KT 9999 -SN FEW021/// OVC044/// M07/M09 Q0999', 'EEPU 080250Z AUTO 10003KT 070V130 9999 -SN SCT022/// OVC043/// M07/M09 Q0998', 'EEPU 080220Z AUTO 10002KT 9999 -SN SCT022/// OVC043/// M07/M09 Q0998', 'EEPU 080150Z AUTO VRB02KT 9999 FEW025/// OVC044/// M07/M09 Q0998', 'EEPU 080120Z AUTO 18003KT 070V220 9999 FEW023/// OVC045/// M07/M09 Q0998', 'EEPU 080050Z AUTO VRB02KT 9999 -SN FEW027/// OVC045/// M07/M09 Q0997', 'EEPU 080020Z AUTO 16003KT 130V200 9999 -SN BKN030/// OVC047/// M07/M10 Q0998', 'EEPU 072350Z AUTO VRB02KT 9999 -SN FEW033/// OVC043/// M07/M10 Q0997', 'EEPU 072320Z AUTO 00000KT 9000 -SN FEW032/// OVC041/// M07/M10 Q0997', 'EEPU 072250Z AUTO 16002KT 9999 -SN OVC041/// M07/M10 Q0997', 'EEPU 072220Z AUTO VRB02KT 9999 -SN OVC040/// M07/M10 Q0997', 'EEPU 072150Z AUTO VRB02KT 9999 -SN OVC040/// M07/M10 Q0997', 'EEPU 072120Z AUTO VRB01KT 9999 -SN OVC037/// M07/M10 Q0997', 'EEPU 072050Z AUTO VRB02KT 9999 -SN OVC043/// M07/M10 Q0996', 'EEPU 072020Z AUTO 04002KT 9999 -SN FEW037/// OVC043/// M07/M11 Q0996', 'EEPU 071950Z AUTO 04004KT 9999 -SN OVC044/// M07/M11 Q0996', 'EEPU 071920Z AUTO 05005KT 9999 -SN OVC043/// M07/M11 Q0996', 'EEPU 071850Z AUTO 36003KT 9999 FEW028/// OVC043/// M07/M11 Q0996', 'EEPU 071820Z AUTO 03005KT 9999 OVC045/// M07/M11 Q0996', 'EEPU 071750Z AUTO 36003KT 9999 SCT048/// M08/M11 Q0995', 'EEPU 071720Z AUTO 36004KT 9999 NCD M07/M11 Q0995', 'EEPU 071650Z AUTO 03005KT 9999 NCD M08/M11 Q0995', 'EEPU 071620Z AUTO VRB02KT 9999 FEW030/// M06/M10 Q0994', 'EEPU 071550Z AUTO 32003KT 9999 FEW030/// OVC036/// M05/M10 Q0994', 'EEPU 071520Z AUTO 33003KT 310V020 9999 BKN036/// M05/M10 Q0994', 'EEPU 071450Z AUTO 36004KT 310V030 9999 FEW038/// M05/M11 Q0993', 'EEPU 071420Z AUTO 36004KT 320V030 9999 BKN039/// M05/M10 Q0993', 'EEPU 071350Z AUTO 36006KT 330V030 9999 FEW024/// M05/M10 Q0993', 'EEPU 071320Z AUTO 35007KT 9999 BKN020/// BKN048/// M05/M09 Q0992', 'EEPU 071250Z AUTO 35007KT 9999 SCT020/// OVC048/// M05/M09 Q0992', 'EEPU 071220Z AUTO 36007KT 320V020 9999 -SN BKN020/// OVC048/// M05/M09 Q0991', 'EEPU 071150Z AUTO 01006KT 330V040 9999 -SN OVC019/// M05/M08 Q0991', 'EEPU 071120Z AUTO 01008KT 320V050 9999 -SN BKN017/// BKN020/// OVC046/// M05/M08 Q0991', 'EEPU 071050Z AUTO 01007KT 330V040 9999 -SN BKN016/// OVC045/// M05/M08 Q0990', 'EEPU 071020Z AUTO 01007KT 9999 -SN SCT016/// OVC041/// M05/M08 Q0990', 'EEPU 070950Z AUTO 02007KT 9999 -SN FEW016/// OVC040/// M05/M08 Q0989', 'EEPU 070920Z AUTO 04009KT 9999 FEW016/// OVC040/// M05/M08 Q0989', 'EEPU 070850Z AUTO 04010KT 9999 FEW017/// OVC041/// M05/M08 Q0988', 'EEPU 070820Z AUTO 03011KT 9999 BKN040/// M05/M09 Q0988', 'EEPU 070750Z AUTO 04010KT 9999 BKN040/// BKN160/// M05/M09 Q0988', 'EEPU 070720Z AUTO 05010KT 9999 FEW041/// SCT120/// BKN170/// M05/M09 Q0987', 'EEPU 070650Z AUTO 05011KT 9999 OVC120/// M05/M09 Q0987', 'EEPU 070620Z AUTO 05011KT 9999 BKN110/// M05/M09 Q0987', 'EEPU 070550Z AUTO 05012KT 9999 -SN FEW038/// SCT072/// BKN110/// M06/M08 Q0986', 'EEPU 070520Z AUTO 05012KT 9999 -SN SCT041/// BKN050/// OVC068/// M05/M08 Q0987', 'EEPU 070450Z AUTO 06011KT 9999 OVC044/// M05/M08 Q0986', 'EEPU 070420Z AUTO 06010KT 9999 OVC042/// M05/M08 Q0986', 'EEPU 070350Z AUTO 06011KT 9999 OVC042/// M05/M08 Q0986', 'EEPU 070320Z AUTO 07011KT 9999 OVC036/// M05/M08 Q0987', 'EEPU 070250Z AUTO 07011KT 9999 OVC034/// M05/M08 Q0987', 'EEPU 070220Z AUTO 07011KT 9999 OVC034/// M05/M08 Q0987', 'EEPU 070150Z AUTO 07010KT 9999 BKN031/// OVC039/// M04/M08 Q0987', 'EEPU 070120Z AUTO 07011KT 9999 OVC037/// M04/M08 Q0987', 'EEPU 070050Z AUTO 08011KT 9999 OVC038/// M04/M08 Q0988', 'EEPU 070020Z AUTO 09010KT 9999 OVC039/// M04/M08 Q0989', 'EEPU 062350Z AUTO 08009KT 9999 OVC038/// M04/M08 Q0990', 'EEPU 062320Z AUTO 08010KT 9999 OVC038/// M04/M08 Q0990', 'EEPU 062250Z AUTO 08010KT 9999 FEW019/// SCT033/// OVC140/// M04/M08 Q0990', 'EEPU 062220Z AUTO 08009KT 9999 FEW020/// BKN027/// OVC033/// M04/M08 Q0991', 'EEPU 062150Z AUTO 08008KT 9999 OVC029/// M04/M09 Q0992', 'EEPU 062120Z AUTO 08008KT 9999 OVC028/// M04/M09 Q0993', 'EEPU 062050Z AUTO 08007KT 9999 OVC028/// M04/M09 Q0993', 'EEPU 062020Z AUTO 08007KT 9999 OVC028/// M04/M09 Q0994', 'EEPU 061950Z AUTO 07006KT 9999 OVC028/// M04/M08 Q0994', 'EEPU 061920Z AUTO 09004KT 060V120 9999 OVC027/// M04/M08 Q0995', 'EEPU 061850Z AUTO 12005KT 9999 OVC026/// M03/M08 Q0995', 'EEPU 061820Z AUTO 09005KT 070V130 9999 OVC026/// M03/M08 Q0995', 'EEPU 061750Z AUTO 11005KT 9999 OVC025/// M03/M08 Q0996', 'EEPU 061720Z AUTO 11003KT 090V150 9999 OVC025/// M03/M08 Q0996', 'EEPU 061650Z AUTO 13004KT 9999 OVC025/// M03/M07 Q0997', 'EEPU 061620Z AUTO VRB02KT 9999 OVC025/// M03/M07 Q0997', 'EEPU 061550Z AUTO VRB02KT 9999 OVC025/// M03/M07 Q0997', 'EEPU 061520Z AUTO VRB02KT 9999 OVC025/// M03/M07 Q0997', 'EEPU 061450Z AUTO VRB03KT 9999 OVC025/// M03/M08 Q0997', 'EEPU 061420Z AUTO 00000KT 9999 OVC025/// M03/M07 Q0997', 'EEPU 061350Z AUTO VRB02KT 9999 OVC026/// M03/M08 Q0997', 'EEPU 061320Z AUTO 04004KT 9999 OVC028/// M03/M07 Q0998', 'EEPU 061250Z AUTO 06003KT 9999 FEW022/// OVC025/// M03/M07 Q0998', 'EEPU 061220Z AUTO VRB02KT 9999 -SN FEW015/// BKN023/// OVC028/// M03/M06 Q0998', 'EEPU 061150Z AUTO 00000KT 9999 -SN OVC030/// M03/M06 Q0998', 'EEPU 061120Z AUTO 35003KT 9999 -SN FEW017/// BKN030/// OVC035/// M03/M06 Q0998', 'EEPU 061050Z AUTO 35003KT 320V020 9999 -SN FEW022/// OVC033/// M03/M06 Q0998', 'EEPU 061020Z AUTO 05003KT 9999 -SN FEW019/// SCT031/// OVC036/// M03/M06 Q0998', 'EEPU 060950Z AUTO VRB02KT 9999 -SN SCT018/// BKN025/// OVC035/// M03/M06 Q0998', 'EEPU 060920Z AUTO 02004KT 350V050 9999 -SN BKN019/// BKN034/// M03/M06 Q0997', 'EEPU 060850Z AUTO 33004KT 310V010 9999 -SN FEW011/// BKN016/// M03/M05 Q0997', 'EEPU 060820Z AUTO 34003KT 300V010 9999 -SN FEW015/// BKN038/// M03/M05 Q0997', 'EEPU 060750Z AUTO 29003KT 9999 -SN FEW018/// OVC040/// M03/M05 Q0997', 'EEPU 060720Z AUTO 30004KT 280V340 9999 -SN BKN017/// BKN029/// OVC034/// M03/M05 Q0997', 'EEPU 060650Z AUTO 28005KT 9999 -SN FEW026/// OVC042/// M03/M05 Q0996', 'EEPU 060620Z AUTO 27004KT 9999 OVC047/// M03/M05 Q0996', 'EEPU 060550Z AUTO 29004KT 9999 OVC051/// M03/M06 Q0996', 'EEPU 060520Z AUTO 28005KT 9999 OVC051/// M03/M05 Q0996', 'EEPU 060450Z AUTO 29005KT 9999 BKN050/// M03/M05 Q0996', 'EEPU 060420Z AUTO 29005KT 9999 NCD M03/M05 Q0996', 'EEPU 060350Z AUTO 30006KT 9999 -SN BKN038/// M02/M05 Q0996', 'EEPU 060320Z AUTO 29007KT 9999 -SN FEW029/// OVC039/// M02/M04 Q0996', 'EEPU 060250Z AUTO 29007KT 9999 -SN BKN031/// OVC037/// M02/M05 Q0995', 'EEPU 060220Z AUTO 29006KT 9999 -SN FEW021/// BKN032/// OVC041/// M02/M05 Q0995', 'EEPU 060150Z AUTO 29006KT 9999 -SN SCT024/// BKN029/// OVC033/// M02/M06 Q0995', 'EEPU 060120Z AUTO 29006KT 9999 -SN FEW026/// BKN039/// OVC049/// M02/M06 Q0995', 'EEPU 060050Z AUTO 27007KT 9999 OVC034/// M02/M06 Q0995', 'EEPU 060020Z AUTO 28008KT 9999 -SN OVC034/// M02/M05 Q0995', 'EEPU 052350Z AUTO 26007KT 9999 BKN036/// BKN043/// OVC071/// M02/M05 Q0995', 'EEPU 052320Z AUTO 26007KT 9999 BKN037/// BKN047/// OVC071/// M02/M05 Q0995', 'EEPU 052250Z AUTO 28006KT 9999 BKN036/// BKN047/// M02/M05 Q0994', 'EEPU 052220Z AUTO 29007KT 9999 -SN SCT023/// OVC043/// M02/M04 Q0994', 'EEPU 052150Z AUTO 28007KT 9999 -SN SCT018/// BKN040/// OVC047/// M02/M05 Q0994', 'EEPU 052120Z AUTO 29008KT 9999 BKN034/// OVC040/// M01/M05 Q0994', 'EEPU 052050Z AUTO 29008KT 9999 OVC036/// M01/M05 Q0993', 'EEPU 052020Z AUTO 29009KT 9999 FEW027/// BKN038/// OVC046/// M01/M05 Q0993', 'EEPU 051950Z AUTO 29008KT 9999 FEW014/// SCT022/// BKN033/// M01/M04 Q0993']","['2024-02-08 18:50:00', '2024-02-08 18:20:00', '2024-02-08 17:50:00', '2024-02-08 17:20:00', '2024-02-08 16:50:00', '2024-02-08 16:20:00', '2024-02-08 15:50:00', '2024-02-08 15:20:00', '2024-02-08 14:50:00', '2024-02-08 14:20:00', '2024-02-08 13:50:00', '2024-02-08 13:20:00', '2024-02-08 12:50:00', '2024-02-08 12:20:00', '2024-02-08 11:50:00', '2024-02-08 11:20:00', '2024-02-08 10:50:00', '2024-02-08 10:20:00', '2024-02-08 09:50:00', '2024-02-08 09:20:00', '2024-02-08 08:50:00', '2024-02-08 08:20:00', '2024-02-08 07:50:00', '2024-02-08 07:20:00', '2024-02-08 06:50:00', '2024-02-08 06:20:00', '2024-02-08 05:50:00', '2024-02-08 05:20:00', '2024-02-08 04:50:00', '2024-02-08 04:20:00', '2024-02-08 03:50:00', '2024-02-08 03:20:00', '2024-02-08 02:50:00', '2024-02-08 02:20:00', '2024-02-08 01:50:00', '2024-02-08 01:20:00', '2024-02-08 00:50:00', '2024-02-08 00:20:00', '2024-02-07 23:50:00', '2024-02-07 23:20:00', '2024-02-07 22:50:00', '2024-02-07 22:20:00', '2024-02-07 21:50:00', '2024-02-07 21:20:00', '2024-02-07 20:50:00', '2024-02-07 20:20:00', '2024-02-07 19:50:00', '2024-02-07 19:20:00', '2024-02-07 18:50:00', '2024-02-07 18:20:00', '2024-02-07 17:50:00', '2024-02-07 17:20:00', '2024-02-07 16:50:00', '2024-02-07 16:20:00', '2024-02-07 15:50:00', '2024-02-07 15:20:00', '2024-02-07 14:50:00', '2024-02-07 14:20:00', '2024-02-07 13:50:00', '2024-02-07 13:20:00', '2024-02-07 12:50:00', '2024-02-07 12:20:00', '2024-02-07 11:50:00', '2024-02-07 11:20:00', '2024-02-07 10:50:00', '2024-02-07 10:20:00', '2024-02-07 09:50:00', '2024-02-07 09:20:00', '2024-02-07 08:50:00', '2024-02-07 08:20:00', '2024-02-07 07:50:00', '2024-02-07 07:20:00', '2024-02-07 06:50:00', '2024-02-07 06:20:00', '2024-02-07 05:50:00', '2024-02-07 05:20:00', '2024-02-07 04:50:00', '2024-02-07 04:20:00', '2024-02-07 03:50:00', '2024-02-07 03:20:00', '2024-02-07 02:50:00', '2024-02-07 02:20:00', '2024-02-07 01:50:00', '2024-02-07 01:20:00', '2024-02-07 00:50:00', '2024-02-07 00:20:00', '2024-02-06 23:50:00', '2024-02-06 23:20:00', '2024-02-06 22:50:00', '2024-02-06 22:20:00', '2024-02-06 21:50:00', '2024-02-06 21:20:00', '2024-02-06 20:50:00', '2024-02-06 20:20:00', '2024-02-06 19:50:00', '2024-02-06 19:20:00', '2024-02-06 18:50:00', '2024-02-06 18:20:00', '2024-02-06 17:50:00', '2024-02-06 17:20:00', '2024-02-06 16:50:00', '2024-02-06 16:20:00', '2024-02-06 15:50:00', '2024-02-06 15:20:00', '2024-02-06 14:50:00', '2024-02-06 14:20:00', '2024-02-06 13:50:00', '2024-02-06 13:20:00', '2024-02-06 12:50:00', '2024-02-06 12:20:00', '2024-02-06 11:50:00', '2024-02-06 11:20:00', '2024-02-06 10:50:00', '2024-02-06 10:20:00', '2024-02-06 09:50:00', '2024-02-06 09:20:00', '2024-02-06 08:50:00', '2024-02-06 08:20:00', '2024-02-06 07:50:00', '2024-02-06 07:20:00', '2024-02-06 06:50:00', '2024-02-06 06:20:00', '2024-02-06 05:50:00', '2024-02-06 05:20:00', '2024-02-06 04:50:00', '2024-02-06 04:20:00', '2024-02-06 03:50:00', '2024-02-06 03:20:00', '2024-02-06 02:50:00', '2024-02-06 02:20:00', '2024-02-06 01:50:00', '2024-02-06 01:20:00', '2024-02-06 00:50:00', '2024-02-06 00:20:00', '2024-02-05 23:50:00', '2024-02-05 23:20:00', '2024-02-05 22:50:00', '2024-02-05 22:20:00', '2024-02-05 21:50:00', '2024-02-05 21:20:00', '2024-02-05 20:50:00', '2024-02-05 20:20:00', '2024-02-05 19:50:00']"
Estonia, Tallinn Lennart Meri Airport  (TLL/EETN) ,"['EETN 081850Z 09006KT 9999 -SN OVC040 M09/M11 Q1003 NOSIG', 'EETN 081820Z 10007KT 9999 -SN OVC038 M09/M10 Q1003 NOSIG', 'EETN 081750Z 10008KT 9999 -SN FEW019 OVC039 M09/M10 Q1003 NOSIG', 'EETN 081720Z 10008KT 9999 -SN OVC038 M08/M10 Q1003 NOSIG', 'EETN 081650Z 10008KT 9999 -SN OVC033 M08/M10 Q1003 NOSIG', 'EETN 081620Z 10009KT 9999 -SN FEW021 OVC036 M08/M10 Q1002 TEMPO 3000 SN', 'EETN 081550Z 10009KT 7000 -SN FEW018 OVC036 M08/M10 Q1002 TEMPO 2000 SN', 'EETN 081520Z 10008KT 7000 -SN SCT026 OVC036 M08/M09 Q1002 TEMPO 3000 SN', 'EETN 081450Z 10006KT 9999 -SHSN FEW026CB BKN038 M07/M10 Q1002 TEMPO 3000 SHSN', 'EETN 081420Z 10005KT 9999 -SHSN SCT020CB BKN033 M07/M10 Q1002 TEMPO 3000 SHSN', 'EETN 081350Z 11004KT 9999 -SHSN FEW020CB BKN027 M07/M10 Q1002 NOSIG', 'EETN 081320Z 14003KT 9999 BKN018 M07/M10 Q1001 NOSIG', 'EETN 081250Z 15005KT 9999 SCT017 M07/M10 Q1001 NOSIG', 'EETN 081220Z 16004KT 130V190 9999 FEW010 SCT015 M07/M10 Q1001 NOSIG', 'EETN 081150Z 19005KT 9999 SCT010 SCT029 M07/M10 Q1001 NOSIG', 'EETN 081120Z 23006KT 9999 SCT026 SCT037 M07/M10 Q1001 NOSIG', 'EETN 081050Z 23004KT 180V250 9999 FEW015 BKN038 M07/M10 Q1001 NOSIG', 'EETN 081020Z 26003KT 9999 SCT012 SCT030 M08/M10 Q1001 NOSIG', 'EETN 080950Z 23003KT 9999 SCT011 SCT030 M08/M10 Q1000 NOSIG', 'EETN 080920Z 25004KT 190V270 9999 FEW017 BKN032 M08/M10 Q1000 NOSIG', 'EETN 080850Z 24003KT 9999 -SN SCT026 BKN040 M08/M10 Q1000 NOSIG', 'EETN 080820Z 22003KT 140V260 8000 -SN FEW030 BKN038 M08/M09 Q1000 NOSIG', 'EETN 080750Z 23003KT 3500 SN OVC029 M08/M09 Q1000 NOSIG', 'EETN 080720Z 23003KT 180V260 5000 SN OVC031 M08/M10 Q1000', 'EETN 080650Z 22003KT 6000 SHSN FEW015CB OVC029 M09/M10 Q0999 TEMPO 2000', 'EETN 080620Z 23004KT 5000 SHSN SCT013CB OVC028 M09/M10 Q0999 TEMPO 2000', 'EETN 080550Z 21003KT 5000 SHSN FEW011 SCT018CB OVC025 M09/M10 Q0999 NOSIG', 'EETN 080520Z 21005KT 6000 SHSN SCT018CB BKN026 M09/M10 Q0999 NOSIG', 'EETN 080450Z 21004KT 7000 -SHSN FEW016CB BKN024 M09/M10 Q0999 TEMPO 2000 SHSN', 'EETN 080420Z 21004KT 5000 SHSN SCT015CB OVC022 M09/M10 Q0998 TEMPO 2000', 'EETN 080350Z 21004KT 5000 SHSN SCT015CB OVC022 M09/M10 Q0998 TEMPO 2000', 'EETN 080320Z 22003KT 6000 SHSN SCT015CB OVC023 M09/M10 Q0998', 'EETN 080250Z 22003KT 4700 SHSN SCT016CB OVC022 M09/M10 Q0998', 'EETN 080220Z 21003KT 4800 SHSN SCT015CB OVC020 M09/M10 Q0998', 'EETN 080150Z 22002KT 7000 -SHSN SCT017CB OVC020 M09/M10 Q0998', 'EETN 080120Z 21002KT 4800 SHSN SCT016CB BKN019 M09/M10 Q0998', 'EETN 080050Z 20001KT 4500 SHSN SCT015CB BKN018 M09/M10 Q0997', 'EETN 080020Z 23002KT 4800 SHSN SCT015CB BKN018 M09/M10 Q0997', 'EETN 072350Z 23003KT 6000 SHSN BKN014 SCT018CB M09/M10 Q0997', 'EETN 072320Z 22002KT 4900 SHSN BKN013 SCT016CB M09/M10 Q0997', 'EETN 072250Z 22003KT 3800 SHSN BKN013 SCT017CB M09/M10 Q0997', 'EETN 072220Z VRB02KT 7000 -SHSN SCT014CB OVC019 M09/M11 Q0997', 'EETN 072150Z VRB02KT 8000 -SHSN SCT014CB OVC019 M09/M11 Q0996 TEMPO 3000 SHSN', 'EETN 072120Z 04003KT 7000 -SHSN SCT015CB BKN020 M09/M11 Q0996 TEMPO 3000 SHSN', 'EETN 072050Z 02004KT 8000 -SHSN SCT016CB BKN020 M09/M11 Q0996 NOSIG', 'EETN 072020Z 04005KT 9999 -SHSN FEW017CB BKN020 M09/M11 Q0996 NOSIG', 'EETN 071950Z 04006KT 9999 -SHSN FEW017CB BKN020 M09/M11 Q0995 NOSIG', 'EETN 071920Z 03005KT 9999 SCT015 BKN024 M09/M11 Q0995 NOSIG', 'EETN 071850Z 03005KT 9999 SCT016 BKN020 M09/M12 Q0995 NOSIG', 'EETN 071820Z 03006KT 9999 SCT014 BKN047 M09/M11 Q0995 NOSIG', 'EETN 071750Z 03006KT 9999 BKN015 BKN045 M09/M11 Q0995 NOSIG', 'EETN 071720Z 02005KT 9999 BKN015 BKN045 M09/M11 Q0995 NOSIG', 'EETN 071650Z 03005KT 9000 -SHSN FEW016CB OVC020 M08/M10 Q0994 TEMPO 2000 SHSN', 'EETN 071620Z 02005KT 6000 -SHSN SCT011 SCT018CB BKN024 M08/M10 Q0994 TEMPO 2000 SHSN', 'EETN 071550Z 01005KT 3800 SHSN FEW012 SCT017CB BKN023 M08/M10 Q0994 NOSIG', 'EETN 071520Z 01005KT 3000 SHSN BKN015 SCT019CB M08/M11 Q0994 NOSIG', 'EETN 071450Z 01005KT 9999 OVC015 M08/M11 Q0994 TEMPO SCT015CB BKN020', 'EETN 071420Z 01007KT 340V040 9999 OVC015 M08/M11 Q0993 TEMPO SCT015CB', 'EETN 071350Z 03007KT 360V060 9999 BKN015 M08/M11 Q0993 NOSIG', 'EETN 071320Z 03009KT 360V060 8000 -SHSN SCT017CB BKN023 M07/M11 Q0992 NOSIG', 'EETN 071250Z 03008KT 9999 -SHSN BKN014 FEW018CB BKN045 M07/M10 Q0992 NOSIG', 'EETN 071220Z 04008KT 010V070 8000 -SHSN SCT014 FEW017CB BKN028 M07/M09 Q0992 TEMPO 2000 SHSN', 'EETN 071150Z 05009KT 5000 SHSN BKN015 SCT020CB M06/M09 Q0991 TEMPO 2000', 'EETN 071120Z 04008KT 360V070 4100 SHSN SCT017CB OVC022 M06/M09 Q0991 TEMPO 2000', 'EETN 071050Z 04008KT 010V070 9999 -SHSN FEW018CB OVC023 M06/M10 Q0991 TEMPO 2000 SHSN', 'EETN 071020Z 06008KT 030V090 9999 BKN024 M06/M10 Q0990 TEMPO SCT018CB', 'EETN 070950Z 06009KT 9999 -SHSN FEW019CB BKN030 M06/M10 Q0990 NOSIG', 'EETN 070920Z 06011KT 9999 FEW019CB BKN049 M06/M10 Q0990 NOSIG', 'EETN 070850Z 06011KT 9000 -SHSN FEW013 FEW017CB BKN035 M06/M09 Q0990 TEMPO 2000 SHSN', 'EETN 070820Z 07010KT 1100 R08/1500 +SHSN BKN010 BKN016CB M06/M08 Q0990 TEMPO 0800', 'EETN 070750Z 07008KT 9000 -SHSN FEW017CB BKN047 M06/M09 Q0989 TEMPO 1500 SHSN', 'EETN 070720Z 07007KT 9999 FEW019CB BKN042 M06/M10 Q0989 TEMPO 2000 SHSN', 'EETN 070650Z 09008KT 9999 BKN039 M06/M09 Q0989 NOSIG', 'EETN 070620Z 09007KT 9999 OVC036 M06/M10 Q0989 NOSIG', 'EETN 070550Z 10007KT 9999 OVC036 M06/M10 Q0989 NOSIG', 'EETN 070520Z 10009KT 9999 OVC032 M06/M09 Q0989 NOSIG', 'EETN 070450Z 09009KT 9999 OVC031 M06/M10 Q0989 NOSIG', 'EETN 070420Z 08008KT 9999 OVC031 M06/M10 Q0989 NOSIG', 'EETN 070350Z 07007KT 9999 SCT030 OVC035 M06/M11 Q0989 NOSIG', 'EETN 070320Z 07008KT 9999 OVC031 M06/M10 Q0989', 'EETN 070250Z 08009KT 9999 OVC030 M06/M09 Q0989', 'EETN 070220Z 07008KT 9999 OVC030 M06/M09 Q0989', 'EETN 070150Z 08009KT 9999 -SN OVC027 M06/M09 Q0990', 'EETN 070120Z 09008KT 9999 -SN OVC027 M06/M08 Q0990', 'EETN 070050Z 08008KT 9999 -SN OVC026 M06/M08 Q0990', 'EETN 070020Z 10006KT 9999 OVC028 M06/M08 Q0991', 'EETN 062350Z 10007KT 9999 OVC029 M06/M08 Q0991', 'EETN 062320Z 10007KT 9999 OVC030 M06/M08 Q0992', 'EETN 062250Z 09007KT 9999 OVC031 M06/M08 Q0992', 'EETN 062220Z 11006KT 9999 OVC031 M06/M08 Q0992', 'EETN 062150Z 09006KT 9999 -SN OVC031 M05/M09 Q0993 NOSIG', 'EETN 062120Z 11006KT 9999 -SN OVC031 M05/M08 Q0993 NOSIG', 'EETN 062050Z 15004KT 9999 OVC032 M05/M09 Q0994 NOSIG', 'EETN 062020Z 13002KT 9999 OVC033 M05/M08 Q0994 NOSIG', 'EETN 061950Z 15002KT 9999 OVC033 M05/M08 Q0995 NOSIG', 'EETN 061920Z 14003KT 9999 OVC033 M05/M08 Q0995 NOSIG', 'EETN 061850Z 13003KT 9999 OVC033 M05/M08 Q0995 NOSIG', 'EETN 061820Z 14004KT 9999 OVC032 M05/M07 Q0995 NOSIG', 'EETN 061750Z 14003KT 9999 -SN OVC032 M05/M07 Q0996 NOSIG', 'EETN 061720Z 14003KT 9999 OVC032 M05/M07 Q0996 NOSIG', 'EETN 061650Z 13003KT 9999 OVC033 M05/M07 Q0996 NOSIG', 'EETN 061620Z 11003KT 9999 OVC032 M05/M07 Q0996 NOSIG', 'EETN 061550Z 07004KT 9999 OVC033 M04/M07 Q0996 NOSIG', 'EETN 061520Z VRB02KT 9999 OVC035 M04/M10 Q0997 NOSIG', 'EETN 061450Z 01003KT 9999 OVC036 M04/M09 Q0997 NOSIG', 'EETN 061420Z 34003KT 9999 FEW020CB OVC036 M04/M09 Q0997 NOSIG', 'EETN 061350Z 02004KT 9999 FEW020CB OVC036 M04/M07 Q0997 NOSIG', 'EETN 061320Z 34004KT 9999 FEW020CB BKN035 M04/M07 Q0997 NOSIG', 'EETN 061250Z 31003KT 9000 -SHSN SCT020CB BKN028 M04/M07 Q0997 RESHSN NOSIG', 'EETN 061220Z 32003KT 9000 -SHSN SCT020CB OVC026 M04/M07 Q0997 NOSIG', 'EETN 061150Z 35003KT 9999 -SHSN FEW017CB OVC026 M04/M07 Q0997 NOSIG', 'EETN 061120Z VRB02KT 9999 -SHSN FEW018CB BKN026 M04/M07 Q0997 NOSIG', 'EETN 061050Z 01003KT 9999 -SHSN FEW017CB BKN026 M04/M07 Q0997 NOSIG', 'EETN 061020Z 34003KT 9999 -SHSN SCT020CB BKN024 M04/M07 Q0997 NOSIG', 'EETN 060950Z VRB02KT 9000 -SHSN SCT020CB BKN024 M04/M07 Q0997 NOSIG', 'EETN 060920Z 34004KT 9999 -SHSN SCT021CB BKN025 M04/M08 Q0997 NOSIG', 'EETN 060850Z 35004KT 9999 -SHSN FEW021CB BKN024 M04/M08 Q0997 NOSIG', 'EETN 060820Z 35005KT 9999 -SHSN FEW020CB BKN025 M04/M08 Q0997 NOSIG', 'EETN 060750Z 34006KT 9999 -SHSNGS SCT020CB BKN024 M04/M08 Q0996 NOSIG', 'EETN 060720Z 35007KT 9999 -SHSN FEW020CB BKN024 M04/M08 Q0996 NOSIG', 'EETN 060650Z 35005KT 9999 SCT020 OVC026 M04/M08 Q0996 NOSIG', 'EETN 060620Z 34004KT 9999 BKN020 M04/M08 Q0996 NOSIG', 'EETN 060550Z 32004KT 280V350 9999 BKN021 BKN040 M04/M08 Q0996 NOSIG', 'EETN 060520Z 34005KT 9999 SCT023 BKN042 M04/M09 Q0995 NOSIG', 'EETN 060450Z 34004KT 9999 SCT021 BKN045 M04/M08 Q0995 NOSIG', 'EETN 060420Z 36007KT 330V030 9999 BKN022 M04/M08 Q0995', 'EETN 060350Z 35008KT 9999 BKN022 M03/M07 Q0995', 'EETN 060320Z 34007KT 320V020 9999 BKN022 M03/M07 Q0995', 'EETN 060250Z 34010KT 310V020 9999 BKN023 M03/M07 Q0995', 'EETN 060220Z 34007KT 300V010 9999 OVC024 M03/M07 Q0994', 'EETN 060150Z 35008KT 320V020 9999 SCT020 BKN031 M03/M07 Q0994', 'EETN 060120Z 36009KT 9999 FEW015CB OVC026 M03/M06 Q0994', 'EETN 060050Z 36010KT 330V030 9999 -SHSN SCT015CB OVC021 M03/M05 Q0994', 'EETN 060020Z 33011KT 9999 -SHSN FEW015CB OVC022 M02/M06 Q0993', 'EETN 052350Z 32009KT 290V350 8000 -SHSN FEW015CB SCT020 OVC028 M02/M05 Q0993', 'EETN 052320Z 32008KT 290V350 9999 FEW015CB SCT020 OVC028 M02/M05 Q0993', 'EETN 052250Z 33010KT 300V360 9999 BKN019 OVC030 M02/M05 Q0993', 'EETN 052220Z 32011KT 290V350 9999 BKN018 OVC029 M02/M05 Q0992', 'EETN 052150Z 32009KT 290V350 9999 SCT018 BKN029 M02/M05 Q0992 NOSIG', 'EETN 052120Z 32009KT 290V350 9999 BKN017 M02/M05 Q0992 NOSIG', 'EETN 052050Z 32010KT 9999 BKN019 BKN045 M02/M05 Q0991 TEMPO SCT015CB', 'EETN 052020Z 32010KT 9999 FEW015CB BKN019 OVC036 M02/M05 Q0991 NOSIG', 'EETN 051950Z 32010KT 9999 FEW015CB OVC022 M02/M05 Q0991 NOSIG']","['2024-02-08 18:50:00', '2024-02-08 18:20:00', '2024-02-08 17:50:00', '2024-02-08 17:20:00', '2024-02-08 16:50:00', '2024-02-08 16:20:00', '2024-02-08 15:50:00', '2024-02-08 15:20:00', '2024-02-08 14:50:00', '2024-02-08 14:20:00', '2024-02-08 13:50:00', '2024-02-08 13:20:00', '2024-02-08 12:50:00', '2024-02-08 12:20:00', '2024-02-08 11:50:00', '2024-02-08 11:20:00', '2024-02-08 10:50:00', '2024-02-08 10:20:00', '2024-02-08 09:50:00', '2024-02-08 09:20:00', '2024-02-08 08:50:00', '2024-02-08 08:20:00', '2024-02-08 07:50:00', '2024-02-08 07:20:00', '2024-02-08 06:50:00', '2024-02-08 06:20:00', '2024-02-08 05:50:00', '2024-02-08 05:20:00', '2024-02-08 04:50:00', '2024-02-08 04:20:00', '2024-02-08 03:50:00', '2024-02-08 03:20:00', '2024-02-08 02:50:00', '2024-02-08 02:20:00', '2024-02-08 01:50:00', '2024-02-08 01:20:00', '2024-02-08 00:50:00', '2024-02-08 00:20:00', '2024-02-07 23:50:00', '2024-02-07 23:20:00', '2024-02-07 22:50:00', '2024-02-07 22:20:00', '2024-02-07 21:50:00', '2024-02-07 21:20:00', '2024-02-07 20:50:00', '2024-02-07 20:20:00', '2024-02-07 19:50:00', '2024-02-07 19:20:00', '2024-02-07 18:50:00', '2024-02-07 18:20:00', '2024-02-07 17:50:00', '2024-02-07 17:20:00', '2024-02-07 16:50:00', '2024-02-07 16:20:00', '2024-02-07 15:50:00', '2024-02-07 15:20:00', '2024-02-07 14:50:00', '2024-02-07 14:20:00', '2024-02-07 13:50:00', '2024-02-07 13:20:00', '2024-02-07 12:50:00', '2024-02-07 12:20:00', '2024-02-07 11:50:00', '2024-02-07 11:20:00', '2024-02-07 10:50:00', '2024-02-07 10:20:00', '2024-02-07 09:50:00', '2024-02-07 09:20:00', '2024-02-07 08:50:00', '2024-02-07 08:20:00', '2024-02-07 07:50:00', '2024-02-07 07:20:00', '2024-02-07 06:50:00', '2024-02-07 06:20:00', '2024-02-07 05:50:00', '2024-02-07 05:20:00', '2024-02-07 04:50:00', '2024-02-07 04:20:00', '2024-02-07 03:50:00', '2024-02-07 03:20:00', '2024-02-07 02:50:00', '2024-02-07 02:20:00', '2024-02-07 01:50:00', '2024-02-07 01:20:00', '2024-02-07 00:50:00', '2024-02-07 00:20:00', '2024-02-06 23:50:00', '2024-02-06 23:20:00', '2024-02-06 22:50:00', '2024-02-06 22:20:00', '2024-02-06 21:50:00', '2024-02-06 21:20:00', '2024-02-06 20:50:00', '2024-02-06 20:20:00', '2024-02-06 19:50:00', '2024-02-06 19:20:00', '2024-02-06 18:50:00', '2024-02-06 18:20:00', '2024-02-06 17:50:00', '2024-02-06 17:20:00', '2024-02-06 16:50:00', '2024-02-06 16:20:00', '2024-02-06 15:50:00', '2024-02-06 15:20:00', '2024-02-06 14:50:00', '2024-02-06 14:20:00', '2024-02-06 13:50:00', '2024-02-06 13:20:00', '2024-02-06 12:50:00', '2024-02-06 12:20:00', '2024-02-06 11:50:00', '2024-02-06 11:20:00', '2024-02-06 10:50:00', '2024-02-06 10:20:00', '2024-02-06 09:50:00', '2024-02-06 09:20:00', '2024-02-06 08:50:00', '2024-02-06 08:20:00', '2024-02-06 07:50:00', '2024-02-06 07:20:00', '2024-02-06 06:50:00', '2024-02-06 06:20:00', '2024-02-06 05:50:00', '2024-02-06 05:20:00', '2024-02-06 04:50:00', '2024-02-06 04:20:00', '2024-02-06 03:50:00', '2024-02-06 03:20:00', '2024-02-06 02:50:00', '2024-02-06 02:20:00', '2024-02-06 01:50:00', '2024-02-06 01:20:00', '2024-02-06 00:50:00', '2024-02-06 00:20:00', '2024-02-05 23:50:00', '2024-02-05 23:20:00', '2024-02-05 22:50:00', '2024-02-05 22:20:00', '2024-02-05 21:50:00', '2024-02-05 21:20:00', '2024-02-05 20:50:00', '2024-02-05 20:20:00', '2024-02-05 19:50:00']"
Estonia, Tartu Airport (TAY/EETU) ,"['EETU 081850Z AUTO 10006KT 9999 -SN OVC017/// M08/M11 Q1002', 'EETU 081820Z AUTO 10006KT 9999 -SN SCT010/// OVC017/// M08/M11 Q1003', 'EETU 081750Z AUTO 09007KT 9999 -SN OVC010/// M08/M11 Q1002', 'EETU 081720Z AUTO 08007KT 9999 -SN OVC010/// M08/M11 Q1002', 'EETU 081650Z AUTO 09007KT 9999 -SN FEW006/// SCT011/// OVC019/// M08/M11 Q1002', 'EETU 081620Z AUTO 10005KT 9000 -SN BKN007/// BKN014/// OVC041/// M08/M10 Q1002', 'EETU 081550Z AUTO 10006KT 9999 -SN SCT004/// BKN008/// OVC019/// M08/M10 Q1002', 'EETU 081520Z 10006KT 9999 -SN BKN006 OVC040 M08/M10 Q1002', 'EETU 081450Z 09007KT 9999 -SN BKN006 OVC043 M08/M10 Q1002', 'EETU 081420Z 09007KT 9999 -SN FEW006 SCT021 OVC042 M08/M10 Q1002', 'EETU 081350Z 09007KT 9999 -SN SCT007 OVC040 M08/M10 Q1001', 'EETU 081320Z 08006KT 9999 -SN SCT009 OVC039 M08/M10 Q1001', 'EETU 081250Z 09006KT 9999 -SN FEW006 SCT022 OVC039 M08/M11 Q1001', 'EETU 081220Z 09006KT 9999 FEW007 BKN011 BKN038 M08/M11 Q1001', 'EETU 081150Z 10004KT 9999 SCT009 BKN040 M08/M11 Q1001', 'EETU 081120Z 13004KT 9999 FEW009 SCT015 OVC022 M08/M11 Q1001', 'EETU 081050Z 09004KT 9999 OVC021 M08/M11 Q1001', 'EETU 081020Z 13003KT 110V170 8000 -SN BKN009 OVC023 M08/M10 Q1001', 'EETU 080950Z 10003KT 5000 -SN SCT018 OVC042 M08/M11 Q1001', 'EETU 080920Z 11003KT 8000 -SN SCT008 OVC026 M08/M11 Q1001', 'EETU 080850Z 12002KT 5000 -SN BKN010 OVC025 M09/M11 Q1001', 'EETU 080820Z VRB02KT 8000 -SN SCT015 OVC023 M09/M11 Q1001', 'EETU 080750Z VRB01KT 8000 -SN BKN016 OVC042 M09/M11 Q1000', 'EETU 080720Z 00000KT 8000 -SN BKN015 OVC037 M09/M11 Q1000', 'EETU 080650Z VRB01KT 9999 -SN SCT010 BKN016 OVC046 M09/M11 Q1000', 'EETU 080620Z 24002KT 9999 -SN FEW014 SCT023 OVC040 M09/M11 Q1000', 'EETU 080550Z AUTO 23002KT 5000 -SN SCT014/// BKN021/// OVC042/// M09/M12 Q0999', 'EETU 080520Z AUTO 22003KT 8000 -SN FEW007/// BKN014/// OVC041/// M09/M12 Q0999', 'EETU 080450Z AUTO 26004KT 9999 -SN SCT020/// BKN038/// OVC051/// M09/M12 Q0999', 'EETU 080420Z AUTO VRB03KT 9999 -SN OVC019/// M10/M12 Q0999', 'EETU 080350Z AUTO 30003KT 260V330 9999 -SN BKN030/// OVC046/// M10/M12 Q0999', 'EETU 080320Z AUTO 26005KT 230V290 9999 -SN SCT031/// OVC042/// M10/M12 Q0998', 'EETU 080250Z AUTO 29003KT 260V320 9999 -SN FEW029/// OVC038/// M10/M12 Q0998', 'EETU 080220Z AUTO 29004KT 260V330 9999 FEW024/// OVC037/// M10/M12 Q0998 RESG', 'EETU 080150Z AUTO 28006KT 9999 -SN FEW031/// OVC038/// M10/M13 Q0998 RESG', 'EETU 080120Z AUTO 28005KT 9999 OVC042/// M11/M13 Q0997', 'EETU 080050Z AUTO 28005KT 9999 OVC045/// M11/M13 Q0997', 'EETU 080020Z AUTO 28005KT 9999 BKN046/// M13/M14 Q0997', 'EETU 072350Z AUTO 29005KT 9999 NCD M12/M14 Q0997', 'EETU 072320Z AUTO 28006KT 9999 NCD M12/M14 Q0997', 'EETU 072250Z AUTO 27007KT 9999 FEW021/// SCT036/// M12/M14 Q0996', 'EETU 072220Z AUTO 27008KT 9999 NCD M12/M14 Q0996', 'EETU 072150Z AUTO 29006KT 9999 FEW021/// M11/M13 Q0996', 'EETU 072120Z AUTO 29007KT 9999 -SN ///024/// M10/M12 Q0995', 'EETU 072050Z AUTO 29005KT 9000 -SN BKN005/// BKN010/// OVC013/// M10/M12 Q0995', 'EETU 072020Z AUTO 29005KT 260V320 7000 -SN FEW005/// BKN013/// OVC018/// M09/M11 Q0995', 'EETU 071950Z AUTO 31006KT 9999 -SN BKN013/// BKN017/// OVC043/// M09/M11 Q0995', 'EETU 071920Z AUTO 32005KT 290V350 9999 -SN OVC016/// M09/M12 Q0994', 'EETU 071850Z AUTO 32006KT 9999 -SN BKN017/// OVC066/// M09/M12 Q0994', 'EETU 071820Z AUTO 32004KT 9999 -SN FEW008/// SCT011/// BKN018/// M09/M12 Q0994', 'EETU 071750Z AUTO 32005KT 9000 -SN SCT007/// BKN016/// OVC023/// M09/M12 Q0993', 'EETU 071720Z AUTO 33006KT 9999 -SN SCT009/// OVC020/// M08/M11 Q0993', 'EETU 071650Z AUTO 33006KT 9999 -SN SCT016/// BKN024/// BKN030/// M08/M11 Q0993', 'EETU 071620Z AUTO 28004KT 9999 -SN BKN017/// BKN022/// OVC032/// M08/M11 Q0992', 'EETU 071550Z AUTO VRB03KT 9999 -SN BKN015/// OVC029/// M08/M11 Q0992', 'EETU 071520Z 30004KT 280V340 8000 -SN FEW007 BKN015 OVC032 M08/M11 Q0992', 'EETU 071450Z VRB02KT 8000 -SN SCT010 OVC033 M08/M11 Q0991', 'EETU 071420Z 35004KT 310V040 9999 -SN FEW025 OVC033 M08/M11 Q0991', 'EETU 071350Z 02005KT 340V050 9999 OVC031 M08/M12 Q0991', 'EETU 071320Z 04004KT 360V070 9999 -SN SCT017 OVC032 M07/M12 Q0990', 'EETU 071250Z 02005KT 350V050 9999 -SN FEW019 OVC032 M07/M11 Q0990', 'EETU 071220Z 02005KT 350V070 9999 FEW006 BKN017 BKN025 M07/M11 Q0990', 'EETU 071150Z 03007KT 9999 SCT014 BKN020 M07/M11 Q0989', 'EETU 071120Z 02007KT 9999 BKN013 BKN037 M08/M11 Q0989', 'EETU 071050Z 03008KT 360V070 9999 -SN BKN013 OVC032 M08/M11 Q0988', 'EETU 071020Z 04008KT 360V080 9999 -SN DRSN SCT012 OVC031 M08/M11 Q0988', 'EETU 070950Z 04009KT 010V070 9999 -SN DRSN SCT006 OVC011 M08/M11 Q0988', 'EETU 070920Z 04008KT 350V080 9999 -SN DRSN BKN011 OVC031 M07/M10 Q0987', 'EETU 070850Z 04010KT 9999 -SN DRSN BKN012 OVC030 M07/M10 Q0987', 'EETU 070820Z 04008KT 9999 -SN DRSN BKN010 OVC028 M07/M10 Q0987', 'EETU 070750Z 04009KT 020V080 8000 -SN DRSN BKN010 OVC039 M07/M10 Q0987', 'EETU 070720Z 04009KT 4000 -SN DRSN FEW006 BKN030 OVC045 M07/M09 Q0986', 'EETU 070650Z 06010KT 2500 -SN DRSN FEW005 BKN026 OVC037 M07/M09 Q0986', 'EETU 070620Z 06009KT 4000 -SN DRSN SCT011 OVC040 M06/M09 Q0986', 'EETU 070550Z AUTO 06009KT 8000 -SN SCT012/// BKN045/// M06/M09 Q0986', 'EETU 070520Z AUTO 06009KT 6000 -SN ///042/// M06/M09 Q0986 RESG', 'EETU 070450Z AUTO 07010KT 9999 OVC036/// M06/M10 Q0986', 'EETU 070420Z AUTO 07010KT 9999 OVC034/// M06/M10 Q0987', 'EETU 070350Z AUTO 07011KT 9999 OVC032/// M06/M10 Q0987', 'EETU 070320Z AUTO 09012KT 9999 FEW022/// SCT029/// OVC034/// M06/M10 Q0987', 'EETU 070250Z AUTO 09011KT 9999 SCT021/// OVC035/// M06/M10 Q0988', 'EETU 070220Z AUTO 09012KT 9999 BKN019/// OVC036/// M06/M10 Q0988', 'EETU 070150Z AUTO 09011KT 9999 OVC018/// M06/M10 Q0988', 'EETU 070120Z AUTO 10010KT 9999 OVC018/// M06/M10 Q0989', 'EETU 070050Z AUTO 09009KT 9999 OVC019/// M06/M10 Q0990', 'EETU 070020Z AUTO 10010KT 9999 OVC020/// M06/M10 Q0991', 'EETU 062350Z AUTO 09010KT 9999 OVC021/// M06/M09 Q0991', 'EETU 062320Z AUTO 09009KT 9999 FEW017/// OVC022/// M06/M09 Q0992', 'EETU 062250Z AUTO 09010KT 9999 BKN027/// OVC034/// M06/M09 Q0992', 'EETU 062220Z AUTO 10009KT 9999 OVC031/// M06/M09 Q0993', 'EETU 062150Z AUTO 11007KT 9999 OVC031/// M05/M09 Q0993', 'EETU 062120Z AUTO 12007KT 9999 OVC031/// M05/M09 Q0994', 'EETU 062050Z AUTO 13006KT 9999 OVC029/// M05/M08 Q0994 RESHUP', 'EETU 062020Z AUTO 12006KT 090V150 9999 OVC029/// M05/M09 Q0995 REFZUP', 'EETU 061950Z AUTO 13003KT 9999 OVC028/// M05/M09 Q0995', 'EETU 061920Z AUTO 08004KT 9999 OVC028/// M05/M08 Q0995', 'EETU 061850Z AUTO 07005KT 9999 OVC027/// M05/M08 Q0995', 'EETU 061820Z AUTO 12003KT 9999 OVC026/// M05/M08 Q0996', 'EETU 061750Z AUTO 16003KT 9999 OVC024/// M05/M08 Q0996', 'EETU 061720Z AUTO 16004KT 9999 OVC023/// M05/M08 Q0996', 'EETU 061650Z AUTO 00000KT 9999 OVC023/// M04/M08 Q0997', 'EETU 061620Z AUTO 32004KT 290V010 9999 OVC022/// M04/M09 Q0997', 'EETU 061550Z VRB02KT 9999 -SN OVC022 M04/M09 Q0997', 'EETU 061520Z VRB02KT 9999 -SN OVC023 M04/M08 Q0997', 'EETU 061450Z VRB03KT 9999 OVC023 M04/M08 Q0997', 'EETU 061420Z VRB03KT 9999 SCT020 OVC027 M04/M08 Q0997', 'EETU 061350Z 01003KT 9999 -SN FEW018 BKN022 OVC029 M04/M08 Q0997', 'EETU 061320Z 36003KT 320V040 9999 -SN OVC026 M04/M08 Q0997', 'EETU 061250Z 33004KT 310V010 9999 -SHSN FEW016 FEW025CB OVC028 M04/M08 Q0997', 'EETU 061220Z 32004KT 280V360 9999 FEW017 FEW026CB OVC029 M04/M08 Q0997', 'EETU 061150Z 31004KT 280V350 9999 OVC026 M04/M08 Q0997', 'EETU 061120Z 33006KT 300V010 9999 -SHSN FEW015 FEW027CB OVC030 M04/M08 Q0997', 'EETU 061050Z 33006KT 300V010 9999 -SHSN SCT012 FEW025CB OVC030 M04/M07 Q0997', 'EETU 061020Z 34006KT 300V010 9999 -SHSN SCT016 FEW023CB OVC036 M04/M07 Q0997', 'EETU 060950Z 35003KT 320V030 9999 -SHSN SCT015 SCT023CB OVC031 M04/M07 Q0997', 'EETU 060920Z 34004KT 9999 -SHSN FEW009 SCT013 SCT023CB OVC032 M04/M07 Q0996', 'EETU 060850Z 32005KT 290V350 9999 -SHSN SCT013 FEW022CB BKN029 M04/M07 Q0996', 'EETU 060820Z AUTO 31006KT 270V340 9999 SG BKN021/// OVC029/// M04/M07 Q0996 RESHUP', 'EETU 060750Z 31004KT 280V350 9999 -SN SCT016 BKN024 OVC049 M04/M07 Q0996', 'EETU 060720Z 32005KT 9999 SCT018 BKN024 M04/M07 Q0995', 'EETU 060650Z 32006KT 280V340 9999 BKN017 BKN022 M04/M07 Q0995', 'EETU 060620Z 33007KT 290V350 9999 FEW012 BKN016 BKN023 M04/M07 Q0995', 'EETU 060550Z AUTO 33009KT 290V360 9999 BKN012/// OVC019/// M03/M06 Q0994', 'EETU 060520Z AUTO 31008KT 280V340 9999 -SN BKN013/// OVC016/// M03/M06 Q0994 RESHUP RESN', 'EETU 060450Z AUTO 29009KT 260V330 9999 OVC015/// M03/M06 Q0994', 'EETU 060420Z AUTO 27009KT 9999 SG SCT019/// BKN040/// OVC062/// M03/M06 Q0994 RESHUP RESN', 'EETU 060350Z AUTO 27009KT 9999 BKN061/// M03/M06 Q0994', 'EETU 060320Z AUTO 28009KT 9999 -SN SCT015/// BKN032/// OVC053/// M03/M05 Q0993', 'EETU 060250Z AUTO 28010KT 9999 -SN BKN016/// OVC028/// M03/M05 Q0993', 'EETU 060220Z AUTO 28009KT 9999 -SN BKN016/// OVC028/// M02/M05 Q0993', 'EETU 060150Z AUTO 28010KT 2800 -SN FEW010/// BKN016/// OVC031/// M03/M05 Q0993', 'EETU 060120Z AUTO 28010KT 9999 -SN OVC017/// M02/M05 Q0993', 'EETU 060050Z AUTO 28010KT 9999 -SN BKN014/// OVC035/// M02/M05 Q0993', 'EETU 060020Z AUTO 28011KT 9999 -SN BKN013/// OVC038/// M02/M05 Q0992', 'EETU 052350Z AUTO 28011KT 260V320 9999 -SN BKN012/// BKN017/// OVC028/// M02/M05 Q0992 RESG', 'EETU 052320Z AUTO 28011KT 9999 -SN FEW009/// BKN015/// OVC031/// M02/M04 Q0992', 'EETU 052250Z AUTO 27010KT 7000 -SN VV010 M02/M04 Q0992 RESHUP RESN', 'EETU 052220Z AUTO 28012KT 9999 BKN015/// BKN021/// OVC041/// M02/M04 Q0991', 'EETU 052150Z AUTO 26012KT 9999 BKN011/// OVC017/// M02/M04 Q0991', 'EETU 052120Z AUTO 25010KT 6000 -SN ///032/// M02/M04 Q0991', 'EETU 052050Z AUTO 26011KT 9999 -SN OVC044/// M02/M04 Q0991 REFZUP', 'EETU 052020Z AUTO 26011KT 9999 FEW040/// OVC057/// M02/M05 Q0991', 'EETU 051950Z AUTO 25010KT 9999 FEW025/// OVC055/// M02/M05 Q0991']","['2024-02-08 18:50:00', '2024-02-08 18:20:00', '2024-02-08 17:50:00', '2024-02-08 17:20:00', '2024-02-08 16:50:00', '2024-02-08 16:20:00', '2024-02-08 15:50:00', '2024-02-08 15:20:00', '2024-02-08 14:50:00', '2024-02-08 14:20:00', '2024-02-08 13:50:00', '2024-02-08 13:20:00', '2024-02-08 12:50:00', '2024-02-08 12:20:00', '2024-02-08 11:50:00', '2024-02-08 11:20:00', '2024-02-08 10:50:00', '2024-02-08 10:20:00', '2024-02-08 09:50:00', '2024-02-08 09:20:00', '2024-02-08 08:50:00', '2024-02-08 08:20:00', '2024-02-08 07:50:00', '2024-02-08 07:20:00', '2024-02-08 06:50:00', '2024-02-08 06:20:00', '2024-02-08 05:50:00', '2024-02-08 05:20:00', '2024-02-08 04:50:00', '2024-02-08 04:20:00', '2024-02-08 03:50:00', '2024-02-08 03:20:00', '2024-02-08 02:50:00', '2024-02-08 02:20:00', '2024-02-08 01:50:00', '2024-02-08 01:20:00', '2024-02-08 00:50:00', '2024-02-08 00:20:00', '2024-02-07 23:50:00', '2024-02-07 23:20:00', '2024-02-07 22:50:00', '2024-02-07 22:20:00', '2024-02-07 21:50:00', '2024-02-07 21:20:00', '2024-02-07 20:50:00', '2024-02-07 20:20:00', '2024-02-07 19:50:00', '2024-02-07 19:20:00', '2024-02-07 18:50:00', '2024-02-07 18:20:00', '2024-02-07 17:50:00', '2024-02-07 17:20:00', '2024-02-07 16:50:00', '2024-02-07 16:20:00', '2024-02-07 15:50:00', '2024-02-07 15:20:00', '2024-02-07 14:50:00', '2024-02-07 14:20:00', '2024-02-07 13:50:00', '2024-02-07 13:20:00', '2024-02-07 12:50:00', '2024-02-07 12:20:00', '2024-02-07 11:50:00', '2024-02-07 11:20:00', '2024-02-07 10:50:00', '2024-02-07 10:20:00', '2024-02-07 09:50:00', '2024-02-07 09:20:00', '2024-02-07 08:50:00', '2024-02-07 08:20:00', '2024-02-07 07:50:00', '2024-02-07 07:20:00', '2024-02-07 06:50:00', '2024-02-07 06:20:00', '2024-02-07 05:50:00', '2024-02-07 05:20:00', '2024-02-07 04:50:00', '2024-02-07 04:20:00', '2024-02-07 03:50:00', '2024-02-07 03:20:00', '2024-02-07 02:50:00', '2024-02-07 02:20:00', '2024-02-07 01:50:00', '2024-02-07 01:20:00', '2024-02-07 00:50:00', '2024-02-07 00:20:00', '2024-02-06 23:50:00', '2024-02-06 23:20:00', '2024-02-06 22:50:00', '2024-02-06 22:20:00', '2024-02-06 21:50:00', '2024-02-06 21:20:00', '2024-02-06 20:50:00', '2024-02-06 20:20:00', '2024-02-06 19:50:00', '2024-02-06 19:20:00', '2024-02-06 18:50:00', '2024-02-06 18:20:00', '2024-02-06 17:50:00', '2024-02-06 17:20:00', '2024-02-06 16:50:00', '2024-02-06 16:20:00', '2024-02-06 15:50:00', '2024-02-06 15:20:00', '2024-02-06 14:50:00', '2024-02-06 14:20:00', '2024-02-06 13:50:00', '2024-02-06 13:20:00', '2024-02-06 12:50:00', '2024-02-06 12:20:00', '2024-02-06 11:50:00', '2024-02-06 11:20:00', '2024-02-06 10:50:00', '2024-02-06 10:20:00', '2024-02-06 09:50:00', '2024-02-06 09:20:00', '2024-02-06 08:50:00', '2024-02-06 08:20:00', '2024-02-06 07:50:00', '2024-02-06 07:20:00', '2024-02-06 06:50:00', '2024-02-06 06:20:00', '2024-02-06 05:50:00', '2024-02-06 05:20:00', '2024-02-06 04:50:00', '2024-02-06 04:20:00', '2024-02-06 03:50:00', '2024-02-06 03:20:00', '2024-02-06 02:50:00', '2024-02-06 02:20:00', '2024-02-06 01:50:00', '2024-02-06 01:20:00', '2024-02-06 00:50:00', '2024-02-06 00:20:00', '2024-02-05 23:50:00', '2024-02-05 23:20:00', '2024-02-05 22:50:00', '2024-02-05 22:20:00', '2024-02-05 21:50:00', '2024-02-05 21:20:00', '2024-02-05 20:50:00', '2024-02-05 20:20:00', '2024-02-05 19:50:00']"
