country,airport,METARs,UTC/Time
France, Agen La Garenne Airport (AGF/LFBA) ,"['LFBA 082030Z AUTO 14004KT 9999 -RA ///TCU 14/10 Q0997 BECMG NSC', 'LFBA 082000Z AUTO 15003KT 9999 -RA ///TCU 14/09 Q0997 BECMG NSC', 'LFBA 081930Z AUTO 20006KT 160V240 9999 -RA ///TCU 16/07 Q0998 BECMG NSC', 'LFBA 081900Z AUTO 19005KT 150V230 9999 ///TCU 16/08 Q0998 BECMG NSC', 'LFBA 081830Z AUTO 14004KT 110V170 CAVOK 15/09 Q0998 NOSIG', 'LFBA 081800Z AUTO 15004KT CAVOK 16/08 Q0998 NOSIG', 'LFBA 081730Z AUTO 16006KT 120V210 CAVOK 16/07 Q0998 NOSIG', 'LFBA 081700Z AUTO 15003KT 100V200 CAVOK 15/08 Q0999 NOSIG', 'LFBA 081630Z AUTO VRB02KT 9999 -RA ///TCU 15/09 Q1000 BECMG NSC', 'LFBA 081600Z AUTO 29005KT 9999 -RA ///TCU 16/09 Q1000 BECMG NSC', 'LFBA 081530Z AUTO 25004KT 190V340 9999 -RA FEW049/// BKN070/// OVC084/// ///TCU 17/10 Q1001 BECMG NSC', 'LFBA 081500Z AUTO 15004KT 080V160 9999 ///TCU 17/09 Q1001 BECMG NSC', 'LFBA 081430Z AUTO 18004KT 150V300 CAVOK 18/10 Q1001 NOSIG', 'LFBA 081400Z AUTO 11007KT CAVOK 17/11 Q1002 NOSIG', 'LFBA 081330Z AUTO 10008KT CAVOK 17/11 Q1002 NOSIG', 'LFBA 081300Z AUTO 10006KT CAVOK 17/12 Q1003 NOSIG', 'LFBA 081230Z AUTO 11007KT CAVOK 16/11 Q1004 NOSIG', 'LFBA 081200Z AUTO 11006KT CAVOK 16/11 Q1004 NOSIG', 'LFBA 081130Z AUTO 12009KT CAVOK 15/11 Q1005 NOSIG', 'LFBA 081100Z AUTO 12011KT CAVOK 14/10 Q1006 NOSIG', 'LFBA 081030Z AUTO 11012KT CAVOK 12/10 Q1006 NOSIG', 'LFBA 081000Z AUTO 12011KT CAVOK 12/10 Q1006 NOSIG', 'LFBA 080930Z AUTO 11010KT CAVOK 11/10 Q1007 NOSIG', 'LFBA 080900Z AUTO 12011KT CAVOK 11/09 Q1007 NOSIG', 'LFBA 080830Z AUTO 12009KT CAVOK 10/09 Q1008 NOSIG', 'LFBA 080800Z AUTO 12008KT CAVOK 09/08 Q1008 NOSIG', 'LFBA 080730Z AUTO 12010KT CAVOK 09/08 Q1008 NOSIG', 'LFBA 080700Z AUTO 11009KT CAVOK 09/08 Q1009 TEMPO 4000 BR', 'LFBA 080630Z AUTO 11007KT CAVOK 08/08 Q1009 TEMPO 4000 BR', 'LFBA 080600Z AUTO 11007KT CAVOK 09/08 Q1010 TEMPO 4000 BR', 'LFBA 080530Z AUTO 11008KT CAVOK 09/08 Q1010', 'LFBA 080500Z AUTO 11007KT 9000 NSC 09/09 Q1010', 'LFBA 080430Z AUTO /////KT 9000 NSC 09/08 Q1011', 'LFBA 080400Z AUTO 12008KT CAVOK 10/09 Q1011', 'LFBA 080330Z AUTO 11006KT 9000 NSC 09/09 Q1011', 'LFBA 080300Z AUTO 11007KT CAVOK 10/09 Q1012', 'LFBA 080230Z AUTO 11008KT 9999 ///TCU 10/09 Q1012', 'LFBA 080130Z AUTO 11007KT CAVOK 11/09 Q1012', 'LFBA 080100Z AUTO 11007KT CAVOK 10/09 Q1012', 'LFBA 080030Z AUTO 11005KT CAVOK 10/10 Q1013', 'LFBA 080000Z AUTO 11005KT 9000 SCT046 BKN060 OVC100 10/09 Q1013', 'LFBA 072330Z AUTO 11004KT 9999 OVC045 11/10 Q1014', 'LFBA 072300Z AUTO 10006KT 9999 OVC046 11/10 Q1014', 'LFBA 072230Z AUTO 11005KT 9999 OVC048 11/10 Q1014', 'LFBA 072200Z AUTO 09005KT 9999 OVC047 11/10 Q1014', 'LFBA 072130Z AUTO 07004KT 9000 OVC041 11/10 Q1014', 'LFBA 072100Z AUTO VRB02KT 9999 -RA OVC036 12/09 Q1014 NOSIG', 'LFBA 072030Z AUTO 24007KT 190V280 9000 -RA OVC033 13/08 Q1015 NOSIG', 'LFBA 072000Z AUTO 25007KT 210V290 9000 -RA BKN037 OVC045 14/07 Q1015 NOSIG', 'LFBA 071930Z AUTO 24003KT CAVOK 14/08 Q1015 NOSIG', 'LFBA 071900Z AUTO 21003KT CAVOK 14/08 Q1015 NOSIG', 'LFBA 071830Z AUTO 21003KT 180V240 CAVOK 14/08 Q1015 NOSIG', 'LFBA 071800Z AUTO 21003KT CAVOK 13/09 Q1015 NOSIG', 'LFBA 071730Z AUTO VRB03KT CAVOK 13/09 Q1015 TEMPO 4000 RA', 'LFBA 071700Z AUTO 12005KT CAVOK 14/09 Q1015 NOSIG', 'LFBA 071630Z AUTO VRB02KT 9999 ///TCU 15/09 Q1015 BECMG NSC', 'LFBA 071600Z AUTO 12003KT 070V190 CAVOK 16/09 Q1015 NOSIG', 'LFBA 071530Z AUTO VRB03KT CAVOK 16/08 Q1015 NOSIG', 'LFBA 071500Z AUTO 08005KT CAVOK 16/09 Q1016 NOSIG', 'LFBA 071430Z AUTO 11005KT 060V130 CAVOK 17/09 Q1016 NOSIG', 'LFBA 071400Z AUTO 08003KT 040V120 CAVOK 16/08 Q1016 NOSIG', 'LFBA 071330Z AUTO 08005KT CAVOK 15/08 Q1017 NOSIG', 'LFBA 071300Z AUTO 08005KT CAVOK 14/08 Q1017 NOSIG', 'LFBA 071230Z AUTO 08005KT CAVOK 14/08 Q1018 NOSIG', 'LFBA 071200Z AUTO 10005KT CAVOK 13/08 Q1018 NOSIG', 'LFBA 071130Z AUTO 09006KT 060V120 CAVOK 12/07 Q1019 NOSIG', 'LFBA 071100Z AUTO 09006KT 060V120 CAVOK 11/07 Q1019 NOSIG', 'LFBA 071030Z AUTO 09005KT 060V120 9000 NSC 10/06 Q1020 NOSIG', 'LFBA 071000Z AUTO 10006KT CAVOK 08/06 Q1020 NOSIG', 'LFBA 070930Z AUTO 10007KT 6000 SCT003 07/06 Q1020 NOSIG', 'LFBA 070900Z AUTO 10007KT 4100 BR VV/// 06/06 Q1020 BECMG CAVOK', 'LFBA 070830Z AUTO 11007KT 0500 R29/0700D FG VV/// 05/04 Q1020 BECMG CAVOK', 'LFBA 070800Z AUTO 12005KT 1200 0450 R29/0700D -RA BCFG VV/// 03/03 Q1020 BECMG 9999 NSW BKN004', 'LFBA 070730Z AUTO 11003KT 4700 BR FEW001 03/03 Q1020 BECMG 9999 NSW BKN004', 'LFBA 070700Z AUTO 11002KT 0350 R29///// FG VV/// 03/02 Q1020 BECMG 9999 NSW BKN004', 'LFBA 070630Z AUTO 10004KT 2500 1200 R29///// BR NSC 02/02 Q1020 TEMPO VV/// BECMG 9999 NSW', 'LFBA 070600Z AUTO 12003KT 1300 R29///// BCFG NSC 04/03 Q1020 TEMPO 0600 FG VV///', 'LFBA 070530Z AUTO 11003KT 4900 BR NSC 05/04 Q1021', 'LFBA 070500Z AUTO 12004KT 6000 NSC 05/05 Q1021', 'LFBA 070430Z AUTO 13004KT 7000 NSC 06/05 Q1021', 'LFBA 070400Z AUTO 12005KT 7000 FEW037 05/04 Q1021', 'LFBA 070330Z AUTO 12006KT 9999 SCT038 06/05 Q1022', 'LFBA 070300Z AUTO 12003KT 9999 OVC038 07/06 Q1022', 'LFBA 070230Z AUTO 12004KT 9000 OVC038 07/06 Q1022', 'LFBA 070200Z AUTO 12006KT 9999 OVC038 07/06 Q1022', 'LFBA 070130Z AUTO 11004KT 9999 OVC037 08/06 Q1023', 'LFBA 070100Z AUTO 11004KT 9999 OVC037 08/06 Q1023', 'LFBA 070030Z AUTO 11004KT 9999 OVC036 08/06 Q1023', 'LFBA 070000Z AUTO 11005KT 9999 OVC036 08/06 Q1023', 'LFBA 062330Z AUTO 11005KT 9999 OVC036 08/06 Q1024', 'LFBA 062300Z AUTO 11005KT 9999 OVC036 08/06 Q1024', 'LFBA 062230Z AUTO 11004KT 9999 OVC037 08/06 Q1024', 'LFBA 062200Z AUTO 12005KT 9999 OVC038 08/06 Q1024', 'LFBA 062130Z AUTO 11005KT 9999 OVC039 08/06 Q1024', 'LFBA 062100Z AUTO 11004KT 9999 OVC039 08/06 Q1025 BECMG 3000 BR', 'LFBA 062030Z AUTO 10005KT 9999 OVC040 08/06 Q1025 BECMG 3000 BR', 'LFBA 062000Z AUTO 10006KT 9999 OVC041 08/06 Q1025 NOSIG', 'LFBA 061930Z AUTO 12006KT 9999 OVC041 08/06 Q1025 NOSIG', 'LFBA 061900Z AUTO 12005KT 9999 OVC041 09/06 Q1025 NOSIG', 'LFBA 061830Z AUTO 12005KT 9999 OVC042 09/07 Q1025 NOSIG', 'LFBA 061800Z AUTO 10004KT 9999 OVC044 09/07 Q1025 NOSIG', 'LFBA 061730Z AUTO 09004KT 9999 OVC045 09/07 Q1025 NOSIG', 'LFBA 061700Z AUTO 10005KT 9999 OVC046 09/07 Q1025 NOSIG', 'LFBA 061630Z AUTO 10007KT 9999 OVC045 10/07 Q1025 NOSIG', 'LFBA 061600Z AUTO 12008KT 9999 SCT039 OVC046 10/07 Q1025 NOSIG', 'LFBA 061530Z AUTO 10005KT 9999 OVC039 10/07 Q1025 NOSIG', 'LFBA 061500Z AUTO 11005KT 9999 OVC042 10/07 Q1025 NOSIG', 'LFBA 061430Z AUTO 10004KT 9999 OVC043 10/07 Q1025 NOSIG', 'LFBA 061400Z AUTO 08004KT 9999 OVC043 10/07 Q1026 NOSIG', 'LFBA 061330Z AUTO 09005KT 9999 FEW020 OVC044 10/07 Q1026 NOSIG', 'LFBA 061300Z AUTO 09005KT 9999 FEW015 OVC043 09/07 Q1026 NOSIG', 'LFBA 061230Z AUTO 09006KT 9999 FEW014 OVC043 09/07 Q1027 NOSIG', 'LFBA 061200Z AUTO 10007KT 9999 FEW009 OVC043 08/07 Q1027 NOSIG', 'LFBA 061130Z AUTO 10008KT 9999 FEW005 OVC042 07/06 Q1028 NOSIG', 'LFBA 061100Z AUTO 11007KT 9000 OVC005 07/06 Q1028 BECMG FEW010 BKN030', 'LFBA 061030Z AUTO 11007KT 8000 OVC004 06/06 Q1028 BECMG FEW010 BKN030', 'LFBA 061000Z AUTO 10007KT 5000 BR OVC003 06/06 Q1028 BECMG FEW010 BKN030', 'LFBA 060930Z AUTO 10007KT 3900 BR OVC002 06/05 Q1028 BECMG 9999 NSW FEW010 BKN030', 'LFBA 060900Z AUTO 10006KT 2700 BR OVC002 06/05 Q1028 BECMG 9999 NSW BKN006 OVC025', 'LFBA 060830Z AUTO 11006KT 4400 BR OVC003 06/05 Q1028 BECMG 9999 NSW SCT010 BKN030', 'LFBA 060800Z AUTO 12009KT 5000 BR OVC003 05/05 Q1028 BECMG SCT005 BKN025', 'LFBA 060730Z AUTO 11005KT 5000 BR OVC003 05/05 Q1028 BECMG SCT005 BKN025', 'LFBA 060700Z AUTO 10005KT 5000 BR OVC003 05/05 Q1028 BECMG SCT005 BKN025', 'LFBA 060630Z AUTO 10004KT 4600 BR OVC002 05/05 Q1028 BECMG 9999 NSW SCT005 BKN025', 'LFBA 060600Z AUTO 10005KT 5000 BR OVC002 05/05 Q1028 NOSIG', 'LFBA 060530Z AUTO 10005KT 4600 BR BKN002 BKN006 OVC029 05/05 Q1028', 'LFBA 060500Z AUTO 11004KT 3700 BR OVC007 05/05 Q1028', 'LFBA 060430Z AUTO 11003KT 5000 BR BKN006 OVC010 05/05 Q1028', 'LFBA 060400Z AUTO VRB02KT 6000 OVC004 05/05 Q1028', 'LFBA 060330Z AUTO 09003KT 5000 BR OVC004 05/05 Q1028', 'LFBA 060300Z AUTO 10003KT 6000 OVC003 05/05 Q1029', 'LFBA 060230Z AUTO 10003KT 6000 OVC004 05/05 Q1029', 'LFBA 060200Z AUTO 10004KT 6000 OVC006 05/05 Q1029', 'LFBA 060130Z AUTO 11003KT 7000 BKN005 OVC009 05/05 Q1029', 'LFBA 060100Z AUTO 00000KT 7000 OVC006 05/05 Q1029', 'LFBA 060030Z AUTO 10002KT 9000 OVC007 05/04 Q1030', 'LFBA 060000Z AUTO 13002KT 9999 BKN008 OVC018 05/04 Q1030', 'LFBA 052330Z AUTO 12004KT 9999 BKN008 OVC017 05/04 Q1030', 'LFBA 052300Z AUTO VRB02KT 9999 OVC008 05/04 Q1030', 'LFBA 052230Z AUTO 20003KT 170V240 9999 OVC007 05/04 Q1030', 'LFBA 052200Z AUTO 31005KT 270V340 9999 OVC005 05/05 Q1030', 'LFBA 052130Z AUTO VRB02KT 6000 OVC003 05/05 Q1030', 'LFBA 052100Z AUTO 36003KT 5000 BR OVC004 05/05 Q1030 TEMPO 2000 BR']","['2024-02-08 20:30:00', '2024-02-08 20:00:00', '2024-02-08 19:30:00', '2024-02-08 19:00:00', '2024-02-08 18:30:00', '2024-02-08 18:00:00', '2024-02-08 17:30:00', '2024-02-08 17:00:00', '2024-02-08 16:30:00', '2024-02-08 16:00:00', '2024-02-08 15:30:00', '2024-02-08 15:00:00', '2024-02-08 14:30:00', '2024-02-08 14:00:00', '2024-02-08 13:30:00', '2024-02-08 13:00:00', '2024-02-08 12:30:00', '2024-02-08 12:00:00', '2024-02-08 11:30:00', '2024-02-08 11:00:00', '2024-02-08 10:30:00', '2024-02-08 10:00:00', '2024-02-08 09:30:00', '2024-02-08 09:00:00', '2024-02-08 08:30:00', '2024-02-08 08:00:00', '2024-02-08 07:30:00', '2024-02-08 07:00:00', '2024-02-08 06:30:00', '2024-02-08 06:00:00', '2024-02-08 05:30:00', '2024-02-08 05:00:00', '2024-02-08 04:30:00', '2024-02-08 04:00:00', '2024-02-08 03:30:00', '2024-02-08 03:00:00', '2024-02-08 02:30:00', '2024-02-08 01:30:00', '2024-02-08 01:00:00', '2024-02-08 00:30:00', '2024-02-08 00:00:00', '2024-02-07 23:30:00', '2024-02-07 23:00:00', '2024-02-07 22:30:00', '2024-02-07 22:00:00', '2024-02-07 21:30:00', '2024-02-07 21:00:00', '2024-02-07 20:30:00', '2024-02-07 20:00:00', '2024-02-07 19:30:00', '2024-02-07 19:00:00', '2024-02-07 18:30:00', '2024-02-07 18:00:00', '2024-02-07 17:30:00', '2024-02-07 17:00:00', '2024-02-07 16:30:00', '2024-02-07 16:00:00', '2024-02-07 15:30:00', '2024-02-07 15:00:00', '2024-02-07 14:30:00', '2024-02-07 14:00:00', '2024-02-07 13:30:00', '2024-02-07 13:00:00', '2024-02-07 12:30:00', '2024-02-07 12:00:00', '2024-02-07 11:30:00', '2024-02-07 11:00:00', '2024-02-07 10:30:00', '2024-02-07 10:00:00', '2024-02-07 09:30:00', '2024-02-07 09:00:00', '2024-02-07 08:30:00', '2024-02-07 08:00:00', '2024-02-07 07:30:00', '2024-02-07 07:00:00', '2024-02-07 06:30:00', '2024-02-07 06:00:00', '2024-02-07 05:30:00', '2024-02-07 05:00:00', '2024-02-07 04:30:00', '2024-02-07 04:00:00', '2024-02-07 03:30:00', '2024-02-07 03:00:00', '2024-02-07 02:30:00', '2024-02-07 02:00:00', '2024-02-07 01:30:00', '2024-02-07 01:00:00', '2024-02-07 00:30:00', '2024-02-07 00:00:00', '2024-02-06 23:30:00', '2024-02-06 23:00:00', '2024-02-06 22:30:00', '2024-02-06 22:00:00', '2024-02-06 21:30:00', '2024-02-06 21:00:00', '2024-02-06 20:30:00', '2024-02-06 20:00:00', '2024-02-06 19:30:00', '2024-02-06 19:00:00', '2024-02-06 18:30:00', '2024-02-06 18:00:00', '2024-02-06 17:30:00', '2024-02-06 17:00:00', '2024-02-06 16:30:00', '2024-02-06 16:00:00', '2024-02-06 15:30:00', '2024-02-06 15:00:00', '2024-02-06 14:30:00', '2024-02-06 14:00:00', '2024-02-06 13:30:00', '2024-02-06 13:00:00', '2024-02-06 12:30:00', '2024-02-06 12:00:00', '2024-02-06 11:30:00', '2024-02-06 11:00:00', '2024-02-06 10:30:00', '2024-02-06 10:00:00', '2024-02-06 09:30:00', '2024-02-06 09:00:00', '2024-02-06 08:30:00', '2024-02-06 08:00:00', '2024-02-06 07:30:00', '2024-02-06 07:00:00', '2024-02-06 06:30:00', '2024-02-06 06:00:00', '2024-02-06 05:30:00', '2024-02-06 05:00:00', '2024-02-06 04:30:00', '2024-02-06 04:00:00', '2024-02-06 03:30:00', '2024-02-06 03:00:00', '2024-02-06 02:30:00', '2024-02-06 02:00:00', '2024-02-06 01:30:00', '2024-02-06 01:00:00', '2024-02-06 00:30:00', '2024-02-06 00:00:00', '2024-02-05 23:30:00', '2024-02-05 23:00:00', '2024-02-05 22:30:00', '2024-02-05 22:00:00', '2024-02-05 21:30:00', '2024-02-05 21:00:00']"
France, Ajaccio Napoleon Bonaparte Airport (AJA/LFKJ) ,"['LFKJ 082030Z AUTO 05005KT 9999 FEW019 BKN026 BKN031 11/10 Q1011 TEMPO BKN014', 'LFKJ 082000Z AUTO 05004KT 030V090 9999 BKN020 OVC026 11/10 Q1011 TEMPO BKN014', 'LFKJ 081930Z AUTO 06003KT 030V090 9999 BKN021 BKN027 OVC038 12/10 Q1011 TEMPO BKN014', 'LFKJ 081900Z AUTO 05004KT 9999 SCT027 BKN033 BKN040 12/10 Q1011 TEMPO BKN014', 'LFKJ 081830Z AUTO 06003KT 030V100 9999 FEW042 SCT048 12/11 Q1012 TEMPO BKN014', 'LFKJ 081800Z AUTO 06003KT CAVOK 13/10 Q1011 TEMPO BKN014', 'LFKJ 081730Z AUTO 10002KT 9999 FEW028 13/11 Q1011 TEMPO BKN014', 'LFKJ 081700Z AUTO VRB02KT CAVOK 14/12 Q1011 TEMPO BKN014', 'LFKJ 081630Z AUTO 19006KT CAVOK 15/12 Q1011 TEMPO BKN014', 'LFKJ 081600Z AUTO 21007KT 9999 FEW036 SCT042 16/12 Q1011 NOSIG', 'LFKJ 081530Z AUTO 20007KT 9999 BKN037 17/13 Q1012 NOSIG', 'LFKJ 081500Z AUTO 20007KT 9999 BKN040 17/13 Q1012 NOSIG', 'LFKJ 081430Z AUTO 22010KT 9999 FEW028 SCT037 17/13 Q1012 NOSIG', 'LFKJ 081400Z AUTO 23008KT 9999 FEW033 17/13 Q1012 TEMPO BKN014', 'LFKJ 081330Z AUTO 25005KT 9999 SCT037 SCT240 17/12 Q1012 TEMPO BKN014', 'LFKJ 081300Z AUTO 24006KT CAVOK 17/12 Q1012 TEMPO BKN014', 'LFKJ 081230Z AUTO 23006KT CAVOK 17/12 Q1012 TEMPO BKN014', 'LFKJ 081200Z AUTO 22007KT 9999 FEW017 18/13 Q1013 TEMPO BKN014', 'LFKJ 081130Z AUTO 20006KT 160V230 9999 BKN042 18/12 Q1013 TEMPO BKN014', 'LFKJ 081100Z AUTO 21005KT 9999 BKN043 17/11 Q1014 TEMPO BKN014', 'LFKJ 081030Z AUTO VRB03KT 9999 BKN043 17/12 Q1014 TEMPO BKN014', 'LFKJ 081000Z AUTO 02004KT 350V050 9999 FEW020 BKN025 BKN031 15/09 Q1014 TEMPO BKN014', 'LFKJ 080930Z AUTO 02005KT 9999 BKN026 BKN033 BKN045 13/09 Q1014 TEMPO BKN014', 'LFKJ 080900Z AUTO 04005KT 9999 BKN026 BKN034 BKN045 11/07 Q1014 TEMPO BKN014', 'LFKJ 080830Z AUTO 03006KT 9999 BKN033 BKN043 09/07 Q1014 TEMPO BKN014', 'LFKJ 080800Z AUTO 04005KT 010V070 9999 FEW034 08/06 Q1014 NOSIG', 'LFKJ 080730Z AUTO 05008KT CAVOK 06/05 Q1014 NOSIG', 'LFKJ 080700Z AUTO 04005KT CAVOK 06/05 Q1014 NOSIG', 'LFKJ 080630Z AUTO 10003KT CAVOK 06/05 Q1014 NOSIG', 'LFKJ 080600Z AUTO 03004KT CAVOK 06/05 Q1014 NOSIG', 'LFKJ 080530Z AUTO 03007KT 330V070 CAVOK 06/05 Q1013 NOSIG', 'LFKJ 080500Z AUTO 04007KT CAVOK 07/06 Q1014 NOSIG', 'LFKJ 080430Z AUTO 05006KT CAVOK 07/05 Q1014 NOSIG', 'LFKJ 080400Z AUTO 03003KT CAVOK 07/06 Q1014 NOSIG', 'LFKJ 080330Z AUTO 04004KT 010V100 CAVOK 09/06 Q1014 NOSIG', 'LFKJ 080300Z AUTO 02005KT CAVOK 09/06 Q1014 NOSIG', 'LFKJ 080230Z AUTO 03007KT CAVOK 09/06 Q1015 NOSIG', 'LFKJ 080130Z AUTO 03005KT 9999 BKN030 10/07 Q1016 NOSIG', 'LFKJ 080100Z AUTO 05006KT 9999 FEW031 BKN040 10/07 Q1016 NOSIG', 'LFKJ 080030Z AUTO 03005KT 9999 BKN029 OVC040 10/07 Q1016 NOSIG', 'LFKJ 080000Z AUTO 02006KT 9999 BKN033 OVC041 10/07 Q1016 NOSIG', 'LFKJ 072330Z AUTO 01005KT 9999 BKN032 OVC038 10/07 Q1016 NOSIG', 'LFKJ 072300Z AUTO 01008KT 9999 FEW031 OVC039 10/08 Q1016 NOSIG', 'LFKJ 072230Z AUTO 03005KT 9999 BKN031 OVC043 10/08 Q1016 NOSIG', 'LFKJ 072200Z AUTO 04004KT 020V080 9999 BKN036 BKN043 BKN052 10/08 Q1016 NOSIG', 'LFKJ 072130Z AUTO 03006KT 9999 FEW024 BKN036 BKN043 10/08 Q1016 NOSIG', 'LFKJ 072100Z AUTO 05006KT 9999 SCT028 BKN034 10/08 Q1016 NOSIG', 'LFKJ 072030Z AUTO 05004KT 9999 OVC036 10/08 Q1016 NOSIG', 'LFKJ 072000Z AUTO 04003KT 360V060 9999 BKN037 OVC044 10/08 Q1016 NOSIG', 'LFKJ 071930Z AUTO 35002KT 9999 BKN037 11/08 Q1016 NOSIG', 'LFKJ 071900Z AUTO 12002KT 9999 FEW031 BKN039 12/08 Q1016 NOSIG', 'LFKJ 071830Z AUTO 00000KT 9999 BKN026 BKN031 OVC039 13/08 Q1016 NOSIG', 'LFKJ 071800Z AUTO 26003KT 9999 SCT025 OVC035 13/09 Q1016 NOSIG', 'LFKJ 071730Z AUTO 23006KT 200V260 9999 OVC032 13/09 Q1016 NOSIG', 'LFKJ 071700Z AUTO 23007KT 9999 BKN025 BKN036 13/09 Q1016 NOSIG', 'LFKJ 071630Z AUTO 21008KT 9999 SCT036 13/08 Q1016 NOSIG', 'LFKJ 071600Z AUTO 22006KT 9999 FEW025 OVC036 15/08 Q1016 NOSIG', 'LFKJ 071530Z AUTO 22007KT 190V250 9999 FEW022 BKN034 15/09 Q1016 NOSIG', 'LFKJ 071500Z AUTO 23009KT 9999 SCT034 15/09 Q1016 NOSIG', 'LFKJ 071430Z AUTO 23009KT CAVOK 16/09 Q1016 NOSIG', 'LFKJ 071400Z AUTO 22008KT CAVOK 16/10 Q1016 NOSIG', 'LFKJ 071330Z AUTO 23008KT CAVOK 16/09 Q1016 NOSIG', 'LFKJ 071300Z AUTO 22007KT CAVOK 16/10 Q1016 NOSIG', 'LFKJ 071230Z AUTO 22006KT CAVOK 15/09 Q1017 NOSIG', 'LFKJ 071200Z AUTO 22006KT CAVOK 15/10 Q1017 NOSIG', 'LFKJ 071130Z AUTO 22006KT CAVOK 15/10 Q1017 NOSIG', 'LFKJ 071100Z AUTO 21006KT CAVOK 15/09 Q1017 NOSIG', 'LFKJ 071030Z AUTO 21005KT CAVOK 14/09 Q1018 NOSIG', 'LFKJ 071000Z AUTO VRB02KT 9999 FEW017 SCT029 13/08 Q1018 NOSIG', 'LFKJ 070930Z AUTO 05002KT 9999 BKN018 OVC028 11/07 Q1018 NOSIG', 'LFKJ 070900Z AUTO 04005KT 9999 OVC027 10/07 Q1018 NOSIG', 'LFKJ 070830Z AUTO 05006KT 9999 OVC024 09/06 Q1018 NOSIG', 'LFKJ 070800Z AUTO 05006KT 9999 BKN025 BKN150 09/06 Q1018 NOSIG', 'LFKJ 070730Z AUTO 05006KT CAVOK 08/05 Q1018 NOSIG', 'LFKJ 070700Z AUTO 03007KT CAVOK 07/05 Q1018 NOSIG', 'LFKJ 070630Z AUTO 05006KT CAVOK 07/04 Q1018 NOSIG', 'LFKJ 070600Z AUTO 05007KT CAVOK 07/05 Q1017 NOSIG', 'LFKJ 070530Z AUTO 05007KT CAVOK 07/05 Q1017 NOSIG', 'LFKJ 070500Z AUTO 05005KT CAVOK 07/05 Q1018 NOSIG', 'LFKJ 070430Z AUTO 07004KT CAVOK 07/05 Q1018 NOSIG', 'LFKJ 070400Z AUTO 05004KT CAVOK 08/05 Q1018 NOSIG', 'LFKJ 070330Z AUTO 04007KT CAVOK 08/05 Q1018 NOSIG', 'LFKJ 070300Z AUTO 03007KT CAVOK 08/05 Q1018 NOSIG', 'LFKJ 070230Z AUTO 03008KT CAVOK 08/05 Q1019 NOSIG', 'LFKJ 070200Z AUTO 03008KT 9999 FEW025 BKN170 BKN190 07/05 Q1019 NOSIG', 'LFKJ 070130Z AUTO 04009KT CAVOK 07/05 Q1020 NOSIG', 'LFKJ 070100Z AUTO 03009KT CAVOK 07/05 Q1020 NOSIG', 'LFKJ 070030Z AUTO 04007KT CAVOK 07/05 Q1020 NOSIG', 'LFKJ 070000Z AUTO 03006KT CAVOK 07/05 Q1020 NOSIG', 'LFKJ 062330Z AUTO 05008KT CAVOK 06/05 Q1021 NOSIG', 'LFKJ 062300Z AUTO 04007KT CAVOK 06/05 Q1021 NOSIG', 'LFKJ 062230Z AUTO 05007KT CAVOK 07/05 Q1021 NOSIG', 'LFKJ 062200Z AUTO 06006KT CAVOK 07/06 Q1021 NOSIG', 'LFKJ 062130Z AUTO 04005KT CAVOK 08/07 Q1021 NOSIG', 'LFKJ 062100Z AUTO 04006KT CAVOK 08/07 Q1022 NOSIG', 'LFKJ 062030Z AUTO 05004KT CAVOK 09/08 Q1021 NOSIG', 'LFKJ 062000Z AUTO 05004KT CAVOK 09/07 Q1022 NOSIG', 'LFKJ 061930Z AUTO 04004KT CAVOK 10/09 Q1022 NOSIG', 'LFKJ 061900Z AUTO 04005KT CAVOK 11/09 Q1022 NOSIG', 'LFKJ 061830Z AUTO 04006KT CAVOK 11/09 Q1022 NOSIG', 'LFKJ 061800Z AUTO 04005KT CAVOK 12/10 Q1022 NOSIG', 'LFKJ 061730Z AUTO VRB02KT CAVOK 13/10 Q1022 NOSIG', 'LFKJ 061700Z AUTO 04002KT CAVOK 13/10 Q1022 NOSIG', 'LFKJ 061630Z AUTO 00000KT 9999 FEW022 14/10 Q1022 NOSIG', 'LFKJ 061600Z AUTO 21003KT 9999 BKN022 15/11 Q1022 NOSIG', 'LFKJ 061530Z AUTO VRB02KT CAVOK 15/11 Q1023 NOSIG', 'LFKJ 061500Z AUTO 25004KT CAVOK 15/11 Q1023 NOSIG', 'LFKJ 061430Z AUTO 24004KT CAVOK 15/11 Q1023 NOSIG', 'LFKJ 061400Z AUTO 24004KT CAVOK 16/10 Q1023 NOSIG', 'LFKJ 061330Z AUTO 24005KT CAVOK 16/11 Q1023 NOSIG', 'LFKJ 061300Z AUTO 23006KT CAVOK 16/10 Q1023 NOSIG', 'LFKJ 061230Z AUTO 23006KT CAVOK 16/10 Q1024 NOSIG', 'LFKJ 061200Z AUTO 23006KT CAVOK 16/10 Q1024 NOSIG', 'LFKJ 061130Z AUTO 24005KT CAVOK 16/10 Q1025 NOSIG', 'LFKJ 061100Z AUTO VRB02KT CAVOK 16/10 Q1025 NOSIG', 'LFKJ 061030Z AUTO VRB03KT CAVOK 16/09 Q1025 NOSIG', 'LFKJ 061000Z AUTO 03003KT 360V090 9999 FEW021 15/10 Q1025 NOSIG', 'LFKJ 060930Z AUTO 05005KT 010V070 9999 BKN021 14/09 Q1026 NOSIG', 'LFKJ 060900Z AUTO 04004KT 9999 BKN021 11/08 Q1026 NOSIG', 'LFKJ 060830Z AUTO 04004KT 010V070 9999 OVC021 10/06 Q1026 NOSIG', 'LFKJ 060800Z AUTO 03006KT 9999 OVC021 08/05 Q1026 TEMPO BKN012', 'LFKJ 060730Z AUTO 04007KT 9999 BKN022 08/05 Q1025 TEMPO BKN012', 'LFKJ 060700Z AUTO 03007KT 9999 BKN021 07/04 Q1025 TEMPO BKN012', 'LFKJ 060630Z AUTO 03007KT 9999 OVC020 08/05 Q1025 TEMPO BKN012', 'LFKJ 060600Z AUTO 05007KT 9999 OVC020 07/04 Q1026 TEMPO BKN012', 'LFKJ 060530Z AUTO 04006KT 9999 BKN020 07/05 Q1026 TEMPO BKN012', 'LFKJ 060500Z AUTO 03005KT 9999 SCT020 07/04 Q1026 TEMPO BKN012', 'LFKJ 060430Z AUTO 03006KT 9999 OVC021 08/05 Q1026 TEMPO BKN012', 'LFKJ 060400Z AUTO 04007KT 9999 SCT020 07/05 Q1026 TEMPO BKN012', 'LFKJ 060330Z AUTO 04008KT 9999 SCT019 07/05 Q1026 TEMPO BKN012', 'LFKJ 060300Z AUTO 04006KT 9999 OVC019 07/05 Q1026 TEMPO BKN012', 'LFKJ 060230Z AUTO 03007KT 9999 BKN018 06/04 Q1026 TEMPO BKN012', 'LFKJ 060200Z AUTO 05008KT 9999 FEW016 06/04 Q1027 TEMPO BKN012', 'LFKJ 060130Z AUTO 04006KT 9999 FEW015 06/04 Q1027 TEMPO BKN012', 'LFKJ 060100Z AUTO 05008KT CAVOK 06/04 Q1027 TEMPO BKN012', 'LFKJ 060030Z AUTO 04007KT CAVOK 06/05 Q1027 TEMPO BKN012', 'LFKJ 060000Z AUTO 03006KT CAVOK 07/05 Q1027 TEMPO BKN012', 'LFKJ 052330Z AUTO 05008KT CAVOK 07/05 Q1027 TEMPO BKN012', 'LFKJ 052300Z AUTO 04007KT CAVOK 08/06 Q1027 TEMPO BKN012', 'LFKJ 052230Z AUTO 04007KT CAVOK 07/06 Q1027 TEMPO BKN012', 'LFKJ 052200Z AUTO 06005KT CAVOK 08/06 Q1027 TEMPO BKN012', 'LFKJ 052130Z AUTO 05005KT CAVOK 08/06 Q1027 TEMPO BKN012', 'LFKJ 052100Z AUTO 05005KT CAVOK 09/07 Q1027 TEMPO BKN012']","['2024-02-08 20:30:00', '2024-02-08 20:00:00', '2024-02-08 19:30:00', '2024-02-08 19:00:00', '2024-02-08 18:30:00', '2024-02-08 18:00:00', '2024-02-08 17:30:00', '2024-02-08 17:00:00', '2024-02-08 16:30:00', '2024-02-08 16:00:00', '2024-02-08 15:30:00', '2024-02-08 15:00:00', '2024-02-08 14:30:00', '2024-02-08 14:00:00', '2024-02-08 13:30:00', '2024-02-08 13:00:00', '2024-02-08 12:30:00', '2024-02-08 12:00:00', '2024-02-08 11:30:00', '2024-02-08 11:00:00', '2024-02-08 10:30:00', '2024-02-08 10:00:00', '2024-02-08 09:30:00', '2024-02-08 09:00:00', '2024-02-08 08:30:00', '2024-02-08 08:00:00', '2024-02-08 07:30:00', '2024-02-08 07:00:00', '2024-02-08 06:30:00', '2024-02-08 06:00:00', '2024-02-08 05:30:00', '2024-02-08 05:00:00', '2024-02-08 04:30:00', '2024-02-08 04:00:00', '2024-02-08 03:30:00', '2024-02-08 03:00:00', '2024-02-08 02:30:00', '2024-02-08 01:30:00', '2024-02-08 01:00:00', '2024-02-08 00:30:00', '2024-02-08 00:00:00', '2024-02-07 23:30:00', '2024-02-07 23:00:00', '2024-02-07 22:30:00', '2024-02-07 22:00:00', '2024-02-07 21:30:00', '2024-02-07 21:00:00', '2024-02-07 20:30:00', '2024-02-07 20:00:00', '2024-02-07 19:30:00', '2024-02-07 19:00:00', '2024-02-07 18:30:00', '2024-02-07 18:00:00', '2024-02-07 17:30:00', '2024-02-07 17:00:00', '2024-02-07 16:30:00', '2024-02-07 16:00:00', '2024-02-07 15:30:00', '2024-02-07 15:00:00', '2024-02-07 14:30:00', '2024-02-07 14:00:00', '2024-02-07 13:30:00', '2024-02-07 13:00:00', '2024-02-07 12:30:00', '2024-02-07 12:00:00', '2024-02-07 11:30:00', '2024-02-07 11:00:00', '2024-02-07 10:30:00', '2024-02-07 10:00:00', '2024-02-07 09:30:00', '2024-02-07 09:00:00', '2024-02-07 08:30:00', '2024-02-07 08:00:00', '2024-02-07 07:30:00', '2024-02-07 07:00:00', '2024-02-07 06:30:00', '2024-02-07 06:00:00', '2024-02-07 05:30:00', '2024-02-07 05:00:00', '2024-02-07 04:30:00', '2024-02-07 04:00:00', '2024-02-07 03:30:00', '2024-02-07 03:00:00', '2024-02-07 02:30:00', '2024-02-07 02:00:00', '2024-02-07 01:30:00', '2024-02-07 01:00:00', '2024-02-07 00:30:00', '2024-02-07 00:00:00', '2024-02-06 23:30:00', '2024-02-06 23:00:00', '2024-02-06 22:30:00', '2024-02-06 22:00:00', '2024-02-06 21:30:00', '2024-02-06 21:00:00', '2024-02-06 20:30:00', '2024-02-06 20:00:00', '2024-02-06 19:30:00', '2024-02-06 19:00:00', '2024-02-06 18:30:00', '2024-02-06 18:00:00', '2024-02-06 17:30:00', '2024-02-06 17:00:00', '2024-02-06 16:30:00', '2024-02-06 16:00:00', '2024-02-06 15:30:00', '2024-02-06 15:00:00', '2024-02-06 14:30:00', '2024-02-06 14:00:00', '2024-02-06 13:30:00', '2024-02-06 13:00:00', '2024-02-06 12:30:00', '2024-02-06 12:00:00', '2024-02-06 11:30:00', '2024-02-06 11:00:00', '2024-02-06 10:30:00', '2024-02-06 10:00:00', '2024-02-06 09:30:00', '2024-02-06 09:00:00', '2024-02-06 08:30:00', '2024-02-06 08:00:00', '2024-02-06 07:30:00', '2024-02-06 07:00:00', '2024-02-06 06:30:00', '2024-02-06 06:00:00', '2024-02-06 05:30:00', '2024-02-06 05:00:00', '2024-02-06 04:30:00', '2024-02-06 04:00:00', '2024-02-06 03:30:00', '2024-02-06 03:00:00', '2024-02-06 02:30:00', '2024-02-06 02:00:00', '2024-02-06 01:30:00', '2024-02-06 01:00:00', '2024-02-06 00:30:00', '2024-02-06 00:00:00', '2024-02-05 23:30:00', '2024-02-05 23:00:00', '2024-02-05 22:30:00', '2024-02-05 22:00:00', '2024-02-05 21:30:00', '2024-02-05 21:00:00']"
France, Annecy Mont Blanc Airport (NCY/LFLP) ,"['LFLP 082030Z AUTO 27004KT 230V300 9999 FEW074 OVC090 09/08 Q1000', 'LFLP 082000Z AUTO 04003KT 330V090 8000 -RA SCT064 OVC074 09/08 Q1000', 'LFLP 081930Z AUTO VRB02KT 9999 -RA BKN076 OVC094 10/08 Q1001 NOSIG', 'LFLP 081900Z AUTO 00000KT 9999 FEW060 SCT078 OVC100 10/08 Q1001 NOSIG', 'LFLP 081830Z AUTO VRB03KT CAVOK 10/07 Q1001 NOSIG', 'LFLP 081800Z AUTO 18005KT 140V220 CAVOK 11/07 Q1001 NOSIG', 'LFLP 081730Z AUTO 24004KT 200V280 9999 FEW078 OVC100 11/07 Q1002 NOSIG', 'LFLP 081700Z AUTO VRB02KT CAVOK 11/07 Q1002 NOSIG', 'LFLP 081630Z AUTO 23004KT 190V260 CAVOK 11/08 Q1003 NOSIG', 'LFLP 081600Z AUTO 25004KT CAVOK 12/08 Q1003 NOSIG', 'LFLP 081530Z AUTO 23005KT CAVOK 12/08 Q1003 NOSIG', 'LFLP 081500Z AUTO 24005KT 200V270 CAVOK 13/08 Q1004 NOSIG', 'LFLP 081430Z AUTO 26004KT 220V300 CAVOK 13/09 Q1004 NOSIG', 'LFLP 081400Z AUTO VRB02KT CAVOK 13/09 Q1005 NOSIG', 'LFLP 081330Z AUTO VRB03KT 9999 FEW013 BKN130 12/09 Q1006 NOSIG', 'LFLP 081300Z AUTO 31006KT 270V340 CAVOK 12/08 Q1007 NOSIG', 'LFLP 081230Z AUTO VRB02KT 9999 FEW014 SCT088 11/08 Q1007 NOSIG', 'LFLP 081200Z AUTO VRB02KT 9999 BKN024 BKN031 OVC090 10/08 Q1008 NOSIG', 'LFLP 081130Z AUTO 30004KT 260V330 9999 FEW022 OVC027 09/08 Q1009 NOSIG', 'LFLP 081100Z AUTO 00000KT 8000 OVC020 08/08 Q1010 NOSIG', 'LFLP 081030Z AUTO VRB02KT 6000 DZ OVC017 08/07 Q1010 BECMG NSW', 'LFLP 081000Z AUTO VRB02KT 3100 -RADZ BR OVC019 08/07 Q1011 BECMG 9999 NSW', 'LFLP 080930Z AUTO 32003KT 8000 OVC027 08/07 Q1011 NOSIG', 'LFLP 080900Z AUTO VRB02KT 8000 BKN023 BKN029 BKN035 07/07 Q1011 TEMPO 3000 -RA BR', 'LFLP 080830Z AUTO VRB01KT 6000 FEW010 BKN024 BKN031 07/07 Q1011 NOSIG', 'LFLP 080800Z AUTO VRB01KT 2700 -RA BR BKN026 OVC034 07/06 Q1011 BECMG 9999 NSW', 'LFLP 080730Z AUTO 30004KT 9999 -DZ BKN021 OVC028 07/06 Q1011 NOSIG', 'LFLP 080700Z AUTO 23001KT 6000 -RADZ BKN024 OVC029 07/06 Q1011 NOSIG', 'LFLP 080630Z AUTO 29004KT 240V320 8000 -RA FEW022 OVC032 07/06 Q1011 NOSIG', 'LFLP 080600Z AUTO 08002KT 7000 -RADZ OVC033 06/06 Q1011 NOSIG', 'LFLP 080530Z AUTO 00000KT 9999 OVC034 07/06 Q1011 NOSIG', 'LFLP 080500Z AUTO 23003KT 170V290 9999 OVC030 07/06 Q1011 TEMPO 4000 RA BKN012', 'LFLP 080430Z AUTO 17004KT 130V200 9999 -DZ OVC027 07/06 Q1011 TEMPO 4000 RA BKN012', 'LFLP 080400Z AUTO 15004KT 9999 3100 OVC027 07/06 Q1012 TEMPO 4000 RA BKN012', 'LFLP 080330Z AUTO 16005KT 130V200 9999 OVC029 07/06 Q1012 TEMPO 4000 RA BKN012', 'LFLP 080300Z AUTO VRB03KT 9999 -RA OVC033 07/06 Q1012 TEMPO 4000 RA BKN012', 'LFLP 080230Z AUTO VRB02KT 9999 -RA OVC035 07/06 Q1012 TEMPO 4000 RA BKN012', 'LFLP 080130Z AUTO 16004KT 120V190 9999 -RA OVC038 07/06 Q1013', 'LFLP 080100Z AUTO 14008KT 9999 -RA OVC037 07/05 Q1013', 'LFLP 080030Z AUTO 14012KT 9999 -RA OVC038 07/05 Q1013', 'LFLP 080000Z AUTO 15008KT 9999 -RA OVC038 07/05 Q1013', 'LFLP 072330Z AUTO 15008KT 9999 -RA OVC038 07/05 Q1013', 'LFLP 072300Z AUTO 15009KT 120V180 9999 -RA OVC040 07/05 Q1013', 'LFLP 072230Z AUTO 15009KT 9999 -RA BKN043 BKN049 OVC058 08/05 Q1014', 'LFLP 072200Z AUTO 14010KT 120V180 9999 -DZ OVC052 08/05 Q1014', 'LFLP 072130Z AUTO 17009KT 140V200 9999 BKN049 OVC062 08/05 Q1014', 'LFLP 072100Z AUTO 16009KT 9999 -RA BKN046 OVC052 08/05 Q1014', 'LFLP 072030Z AUTO 15009KT 120V180 9999 -RADZ BKN046 OVC058 08/05 Q1014', 'LFLP 072000Z AUTO 15010KT 9999 DZ BKN041 OVC047 08/05 Q1014', 'LFLP 071930Z AUTO 16009KT 120V190 9999 -RA OVC042/// ///TCU 08/05 Q1014', 'LFLP 071900Z AUTO 15009KT 120V180 9999 -RA BKN044/// OVC052/// ///TCU 08/05 Q1014 TEMPO BKN050', 'LFLP 071830Z AUTO 14007KT 100V170 9999 -RA BKN043 BKN049 OVC058 08/05 Q1014 NOSIG', 'LFLP 071800Z AUTO VRB03KT 9000 -RA SCT038 OVC049 08/05 Q1014 NOSIG', 'LFLP 071730Z AUTO 13006KT 9999 -RA FEW042/// OVC050/// ///TCU 09/05 Q1014 TEMPO BKN050', 'LFLP 071700Z AUTO 17005KT 9999 -RA OVC052/// ///TCU 09/04 Q1014 TEMPO BKN050', 'LFLP 071630Z AUTO 24006KT 9999 OVC058 10/03 Q1014 NOSIG', 'LFLP 071600Z AUTO 23005KT 9999 BKN066 BKN084 OVC110 10/03 Q1014 NOSIG', 'LFLP 071530Z AUTO 25005KT CAVOK 11/03 Q1014 NOSIG', 'LFLP 071500Z AUTO 26007KT 230V290 CAVOK 11/02 Q1014 NOSIG', 'LFLP 071430Z AUTO 24004KT 220V280 CAVOK 13/03 Q1014 NOSIG', 'LFLP 071400Z AUTO 22004KT 160V280 CAVOK 12/03 Q1015 NOSIG', 'LFLP 071330Z AUTO VRB02KT CAVOK 12/03 Q1015 NOSIG', 'LFLP 071300Z AUTO 21004KT 140V260 9999 FEW052 11/04 Q1016 NOSIG', 'LFLP 071230Z AUTO 21005KT 180V250 9999 BKN052 BKN150 11/03 Q1017 NOSIG', 'LFLP 071200Z AUTO 28003KT 210V340 9999 BKN052 10/03 Q1017 NOSIG', 'LFLP 071130Z AUTO VRB03KT 9999 FEW052 09/02 Q1017 NOSIG', 'LFLP 071100Z AUTO 13006KT 090V150 9999 FEW050 08/02 Q1018 NOSIG', 'LFLP 071030Z AUTO 10004KT 040V170 9999 BKN047 08/03 Q1018 NOSIG', 'LFLP 071000Z AUTO 07003KT 010V120 9999 OVC046 06/03 Q1019 NOSIG', 'LFLP 070930Z AUTO VRB02KT 9999 OVC044 05/02 Q1019 NOSIG', 'LFLP 070900Z AUTO VRB03KT 9000 OVC042 04/02 Q1019 NOSIG', 'LFLP 070830Z AUTO VRB02KT 9999 OVC041 03/01 Q1019 NOSIG', 'LFLP 070800Z AUTO VRB03KT 9000 OVC042 02/01 Q1019 NOSIG', 'LFLP 070730Z AUTO 06005KT 020V110 8000 OVC042 01/01 Q1019 NOSIG', 'LFLP 070700Z AUTO 07005KT 8000 BKN044 01/M00 Q1019 TEMPO 0800 FG VV///', 'LFLP 070630Z AUTO VRB03KT 9000 BKN044 01/00 Q1019 TEMPO 0800 FG VV///', 'LFLP 070600Z AUTO 05005KT CAVOK 02/01 Q1019 TEMPO 0800 FG VV///', 'LFLP 070530Z AUTO 05005KT 020V090 9999 FEW036 03/01 Q1020 TEMPO 0800 FG VV///', 'LFLP 070500Z AUTO 04006KT 9999 OVC036 03/02 Q1020 TEMPO 0800 FG VV///', 'LFLP 070430Z AUTO 08007KT 9999 OVC033 04/02 Q1020 TEMPO 0800 FG VV///', 'LFLP 070400Z AUTO 06004KT 9999 OVC034 03/02 Q1020 TEMPO 0800 FG VV///', 'LFLP 070330Z AUTO VRB03KT 9999 OVC033 02/02 Q1020 TEMPO 0800 FG VV///', 'LFLP 070300Z AUTO 00000KT 9999 OVC033 02/01 Q1021 TEMPO 0800 FG VV///', 'LFLP 070230Z AUTO VRB03KT 9999 OVC033 02/01 Q1021 TEMPO 0800 FG VV///', 'LFLP 070200Z AUTO VRB02KT 9999 OVC032 02/01 Q1021', 'LFLP 070130Z AUTO VRB02KT 9999 OVC032 02/01 Q1021', 'LFLP 070100Z AUTO 00000KT 9999 OVC032 01/00 Q1022', 'LFLP 070030Z AUTO VRB02KT 9999 OVC033 02/01 Q1022', 'LFLP 070000Z AUTO 35004KT 330V050 CAVOK 01/00 Q1022', 'LFLP 062330Z AUTO 33003KT 9000 FEW034 02/01 Q1022', 'LFLP 062300Z AUTO 14006KT 8000 SCT023 01/00 Q1023', 'LFLP 062230Z AUTO 16002KT 9000 OVC023 01/00 Q1023', 'LFLP 062200Z AUTO 00000KT 9000 BKN023 01/00 Q1023', 'LFLP 062130Z AUTO VRB02KT 9000 FEW032 02/01 Q1023', 'LFLP 062100Z AUTO 32003KT 9000 FEW031 02/01 Q1023', 'LFLP 062030Z AUTO 31004KT 270V330 CAVOK 02/01 Q1023', 'LFLP 062000Z AUTO VRB03KT CAVOK 03/01 Q1023', 'LFLP 061930Z AUTO VRB03KT 9999 FEW022 03/01 Q1023', 'LFLP 061900Z AUTO 33003KT 9999 FEW020 04/02 Q1023 NOSIG', 'LFLP 061830Z AUTO 25003KT 210V270 CAVOK 04/02 Q1023 NOSIG', 'LFLP 061800Z AUTO VRB03KT CAVOK 05/02 Q1023 NOSIG', 'LFLP 061730Z AUTO VRB01KT CAVOK 06/02 Q1023 NOSIG', 'LFLP 061700Z AUTO 27005KT 250V310 CAVOK 06/03 Q1022 NOSIG', 'LFLP 061630Z AUTO 23006KT CAVOK 07/03 Q1022 NOSIG', 'LFLP 061600Z AUTO 23005KT 210V290 CAVOK 09/03 Q1022 NOSIG', 'LFLP 061530Z AUTO 26005KT 230V290 CAVOK 09/03 Q1022 NOSIG', 'LFLP 061500Z AUTO 27005KT 230V300 CAVOK 10/03 Q1022 NOSIG', 'LFLP 061430Z AUTO 26005KT 200V290 CAVOK 10/04 Q1022 NOSIG', 'LFLP 061400Z AUTO 26005KT 230V300 CAVOK 10/03 Q1022 NOSIG', 'LFLP 061330Z AUTO 22005KT 200V270 CAVOK 09/03 Q1023 NOSIG', 'LFLP 061300Z AUTO 22006KT 190V270 CAVOK 09/03 Q1023 NOSIG', 'LFLP 061230Z AUTO 22004KT 160V270 CAVOK 09/03 Q1024 NOSIG', 'LFLP 061200Z AUTO 20006KT 170V230 CAVOK 07/03 Q1024 NOSIG', 'LFLP 061130Z AUTO 26004KT 220V320 CAVOK 06/03 Q1025 NOSIG', 'LFLP 061100Z AUTO 21003KT CAVOK 04/03 Q1025 NOSIG', 'LFLP 061030Z AUTO 21003KT CAVOK 03/02 Q1025 NOSIG', 'LFLP 061000Z AUTO VRB02KT CAVOK 02/01 Q1025 NOSIG', 'LFLP 060930Z AUTO VRB02KT 7000 FEW002 01/01 Q1025 NOSIG', 'LFLP 060900Z AUTO VRB03KT 1000 0900 R04/2600U BCFG SCT002 BKN210 M00/M00 Q1025 BECMG 9999 NSW', 'LFLP 060830Z AUTO VRB02KT 1700 0900 R04/2300U BCFG VV/// M01/M01 Q1025 BECMG CAVOK', 'LFLP 060800Z AUTO 00000KT 0500 0450 R04/0800U FZFG VV/// M01/M01 Q1025 BECMG CAVOK', 'LFLP 060730Z AUTO 22003KT 0450 R04/0600D FZFG VV/// M02/M02 Q1025 BECMG CAVOK', 'LFLP 060700Z AUTO 30002KT 2500 1400 R04/4400U BR FEW001 SCT220 M02/M02 Q1024 TEMPO 0400 FZFG VV///', 'LFLP 060630Z AUTO 00000KT 1200 1100 R04/1800N BR VV/// M02/M02 Q1024 BECMG 1500 BR OVC002', 'LFLP 060600Z AUTO VRB01KT 0900 R04/1000U FZFG VV/// M02/M02 Q1024 BECMG 1500 BR OVC002', 'LFLP 060530Z AUTO 00000KT 0400 R04/0550U FZFG VV/// M01/M02 Q1024 BECMG 1500 BR OVC002', 'LFLP 060500Z AUTO 00000KT 0300 0250 R04/0325N FZFG VV/// M01/M01 Q1025 BECMG 1500 BR OVC002', 'LFLP 060430Z AUTO 00000KT 4900 0600 R04/P5000 BCFG VV/// M01/M02 Q1024 BECMG 1500 BR OVC002', 'LFLP 060400Z AUTO 00000KT 1800 BR VV/// M02/M02 Q1025 BECMG 0400 FG', 'LFLP 060330Z AUTO 00000KT 0400 0300 R04/0325N FZFG VV/// M02/M02 Q1025 NOSIG', 'LFLP 060300Z AUTO VRB01KT 0250 R04/0275N FZFG VV/// M01/M01 Q1025 BECMG 0400 FG', 'LFLP 060230Z AUTO VRB01KT 0750 R04/1400U FZFG VV/// M02/M02 Q1025 BECMG 0400 FG', 'LFLP 060200Z AUTO 00000KT 0600 0500 R04/0600N FZFG VV/// M02/M02 Q1026', 'LFLP 060130Z AUTO 00000KT 0450 0400 R04/0500N FZFG VV/// M02/M02 Q1026', 'LFLP 060100Z AUTO 00000KT 1200 0550 R04/0650D BCFG VV/// M01/M01 Q1026', 'LFLP 060030Z AUTO 00000KT 0400 0350 R04/0400N FZFG VV/// M01/M01 Q1026', 'LFLP 060000Z AUTO 00000KT 0650 0600 R04/0750N FZFG VV/// M01/M01 Q1026', 'LFLP 052330Z AUTO 00000KT 0400 0300 R04/0375N FZFG VV/// M00/M01 Q1027', 'LFLP 052300Z AUTO 00000KT 0350 R04/0375N FG VV/// 00/00 Q1027', 'LFLP 052230Z AUTO VRB01KT 0300 R04/0325N FG VV/// 00/00 Q1027', 'LFLP 052200Z AUTO VRB01KT 0350 0300 R04/0375N FG VV/// 01/01 Q1027', 'LFLP 052130Z AUTO 36001KT 0600 R04/0700N FG VV/// 00/00 Q1027', 'LFLP 052100Z AUTO 00000KT 0450 0400 R04/0450N FG VV/// 00/00 Q1027']","['2024-02-08 20:30:00', '2024-02-08 20:00:00', '2024-02-08 19:30:00', '2024-02-08 19:00:00', '2024-02-08 18:30:00', '2024-02-08 18:00:00', '2024-02-08 17:30:00', '2024-02-08 17:00:00', '2024-02-08 16:30:00', '2024-02-08 16:00:00', '2024-02-08 15:30:00', '2024-02-08 15:00:00', '2024-02-08 14:30:00', '2024-02-08 14:00:00', '2024-02-08 13:30:00', '2024-02-08 13:00:00', '2024-02-08 12:30:00', '2024-02-08 12:00:00', '2024-02-08 11:30:00', '2024-02-08 11:00:00', '2024-02-08 10:30:00', '2024-02-08 10:00:00', '2024-02-08 09:30:00', '2024-02-08 09:00:00', '2024-02-08 08:30:00', '2024-02-08 08:00:00', '2024-02-08 07:30:00', '2024-02-08 07:00:00', '2024-02-08 06:30:00', '2024-02-08 06:00:00', '2024-02-08 05:30:00', '2024-02-08 05:00:00', '2024-02-08 04:30:00', '2024-02-08 04:00:00', '2024-02-08 03:30:00', '2024-02-08 03:00:00', '2024-02-08 02:30:00', '2024-02-08 01:30:00', '2024-02-08 01:00:00', '2024-02-08 00:30:00', '2024-02-08 00:00:00', '2024-02-07 23:30:00', '2024-02-07 23:00:00', '2024-02-07 22:30:00', '2024-02-07 22:00:00', '2024-02-07 21:30:00', '2024-02-07 21:00:00', '2024-02-07 20:30:00', '2024-02-07 20:00:00', '2024-02-07 19:30:00', '2024-02-07 19:00:00', '2024-02-07 18:30:00', '2024-02-07 18:00:00', '2024-02-07 17:30:00', '2024-02-07 17:00:00', '2024-02-07 16:30:00', '2024-02-07 16:00:00', '2024-02-07 15:30:00', '2024-02-07 15:00:00', '2024-02-07 14:30:00', '2024-02-07 14:00:00', '2024-02-07 13:30:00', '2024-02-07 13:00:00', '2024-02-07 12:30:00', '2024-02-07 12:00:00', '2024-02-07 11:30:00', '2024-02-07 11:00:00', '2024-02-07 10:30:00', '2024-02-07 10:00:00', '2024-02-07 09:30:00', '2024-02-07 09:00:00', '2024-02-07 08:30:00', '2024-02-07 08:00:00', '2024-02-07 07:30:00', '2024-02-07 07:00:00', '2024-02-07 06:30:00', '2024-02-07 06:00:00', '2024-02-07 05:30:00', '2024-02-07 05:00:00', '2024-02-07 04:30:00', '2024-02-07 04:00:00', '2024-02-07 03:30:00', '2024-02-07 03:00:00', '2024-02-07 02:30:00', '2024-02-07 02:00:00', '2024-02-07 01:30:00', '2024-02-07 01:00:00', '2024-02-07 00:30:00', '2024-02-07 00:00:00', '2024-02-06 23:30:00', '2024-02-06 23:00:00', '2024-02-06 22:30:00', '2024-02-06 22:00:00', '2024-02-06 21:30:00', '2024-02-06 21:00:00', '2024-02-06 20:30:00', '2024-02-06 20:00:00', '2024-02-06 19:30:00', '2024-02-06 19:00:00', '2024-02-06 18:30:00', '2024-02-06 18:00:00', '2024-02-06 17:30:00', '2024-02-06 17:00:00', '2024-02-06 16:30:00', '2024-02-06 16:00:00', '2024-02-06 15:30:00', '2024-02-06 15:00:00', '2024-02-06 14:30:00', '2024-02-06 14:00:00', '2024-02-06 13:30:00', '2024-02-06 13:00:00', '2024-02-06 12:30:00', '2024-02-06 12:00:00', '2024-02-06 11:30:00', '2024-02-06 11:00:00', '2024-02-06 10:30:00', '2024-02-06 10:00:00', '2024-02-06 09:30:00', '2024-02-06 09:00:00', '2024-02-06 08:30:00', '2024-02-06 08:00:00', '2024-02-06 07:30:00', '2024-02-06 07:00:00', '2024-02-06 06:30:00', '2024-02-06 06:00:00', '2024-02-06 05:30:00', '2024-02-06 05:00:00', '2024-02-06 04:30:00', '2024-02-06 04:00:00', '2024-02-06 03:30:00', '2024-02-06 03:00:00', '2024-02-06 02:30:00', '2024-02-06 02:00:00', '2024-02-06 01:30:00', '2024-02-06 01:00:00', '2024-02-06 00:30:00', '2024-02-06 00:00:00', '2024-02-05 23:30:00', '2024-02-05 23:00:00', '2024-02-05 22:30:00', '2024-02-05 22:00:00', '2024-02-05 21:30:00', '2024-02-05 21:00:00']"
French-guiana, Cayenne Felix Eboue Airport (CAY/SOCA) ,"['SOCA 082030Z AUTO 06013KT 9999 -RA SCT023 BKN034 BKN040 28/25 Q1011 BECMG VRB02KT', 'SOCA 082000Z AUTO 06014KT 9999 SCT025 SCT031 BKN037 29/24 Q1011 TEMPO 3000 SHRA BKN018TCU BECMG VRB02KT', 'SOCA 081930Z AUTO 05014KT 9999 FEW025 SCT033 BKN044 29/24 Q1011 TEMPO 3000 SHRA BKN018TCU BECMG VRB02KT', 'SOCA 081900Z AUTO 05012KT 9999 SCT027 BKN037 BKN049 29/24 Q1011 TEMPO 3000 SHRA BKN018TCU', 'SOCA 081830Z AUTO 05016KT 9999 SCT027 BKN040 BKN049 30/24 Q1011 TEMPO 3000 SHRA BKN018TCU', 'SOCA 081800Z AUTO 06015KT 9999 BKN025 BKN030 BKN040 29/24 Q1011 TEMPO 3000 SHRA BKN018TCU', 'SOCA 081700Z AUTO 05016KT 9999 SCT025 BKN035 BKN042 30/24 Q1012 NOSIG', 'SOCA 081630Z AUTO 05019KT 9999 SCT024 SCT033 BKN044 29/24 Q1013 NOSIG', 'SOCA 081600Z AUTO 05015KT 9999 FEW025 SCT031 BKN043 30/24 Q1013 NOSIG', 'SOCA 081530Z AUTO 05017KT 9999 SCT026 BKN041 BKN047 29/24 Q1013 NOSIG', 'SOCA 081430Z AUTO 06018KT 9999 BKN023/// BKN037/// BKN047/// ///CB 30/25 Q1014 BECMG BKN025', 'SOCA 081400Z AUTO 05018KT 9999 SCT023/// BKN029/// BKN038/// ///TCU 29/24 Q1014 TEMPO 3000 SHRA BECMG BKN025', 'SOCA 081330Z AUTO 05014KT 9999 BKN022/// BKN031/// BKN042/// ///CB 29/25 Q1014 TEMPO 3000 SHRA BECMG BKN025', 'SOCA 081300Z AUTO 05014KT 9999 BKN022/// BKN029/// BKN035/// ///TCU 30/25 Q1014 TEMPO 3000 SHRA', 'SOCA 081230Z AUTO 04012KT 9999 BKN023/// BKN029/// OVC034/// ///TCU 29/25 Q1014 TEMPO 3000 SHRA', 'SOCA 081200Z AUTO 06009KT 030V090 9999 BKN022 OVC027 28/25 Q1014 TEMPO 3000 SHRA BKN018TCU', 'SOCA 081130Z AUTO 05007KT 9999 BKN023 BKN029 BKN041 28/25 Q1013 TEMPO 1000 TSRA SCT008 BKN015CB', 'SOCA 081100Z AUTO 06005KT 030V090 9999 SCT022 SCT027 BKN074 27/25 Q1013 TEMPO 1000 TSRA SCT008 BKN015CB', 'SOCA 081000Z AUTO 07006KT 040V110 9999 BKN021/// BKN033/// BKN042/// ///TCU 26/24 Q1012 TEMPO 2500 SHRA', 'SOCA 080930Z AUTO 04005KT 9999 BKN021/// BKN030/// BKN040/// ///TCU 26/24 Q1012 TEMPO 2500 SHRA', 'SOCA 080900Z AUTO 05004KT 010V070 9999 BKN022/// BKN034/// BKN041/// ///CB 27/24 Q1012 TEMPO 2500 SHRA', 'SOCA 080830Z AUTO 06003KT 040V100 9999 FEW022 BKN031 BKN054 27/24 Q1011 TEMPO 2500 SHRA SCT010 BKN015TCU', 'SOCA 080800Z AUTO VRB01KT 9999 SCT022/// BKN038/// BKN062/// ///TCU 26/24 Q1011 TEMPO 2500 SHRA', 'SOCA 080730Z AUTO VRB02KT 9999 -RA BKN020/// BKN030/// OVC048/// ///TCU 26/24 Q1011 TEMPO 2500 SHRA', 'SOCA 080700Z AUTO VRB03KT 9999 BKN023 BKN042 BKN050 27/24 Q1011 TEMPO 3000 SHRA BKN015TCU', 'SOCA 080630Z AUTO 08004KT 9999 SCT027 BKN037 BKN046 27/24 Q1011 TEMPO 3000 SHRA BKN015TCU', 'SOCA 080600Z AUTO 06004KT 9999 BKN026/// BKN032/// BKN052/// ///TCU 27/24 Q1012 TEMPO 3000 SHRA', 'SOCA 080530Z AUTO 07004KT 040V110 9999 BKN024 BKN030 BKN043 27/24 Q1012 TEMPO 3000 SHRA BKN015TCU', 'SOCA 080500Z AUTO 08004KT 9999 BKN024 BKN046 OVC060 27/24 Q1012 TEMPO 3000 SHRA BKN015TCU', 'SOCA 080430Z AUTO 08004KT 050V110 9999 FEW025 SCT036 OVC046 27/24 Q1012 TEMPO 3000 SHRA BKN015TCU', 'SOCA 080400Z AUTO 12004KT 090V150 9999 SCT023/// BKN031/// BKN042/// ///CB 27/24 Q1013 TEMPO 3000 SHRA', 'SOCA 080300Z AUTO 08009KT 9999 FEW026 BKN041 BKN050 28/23 Q1013 TEMPO 3000 SHRA BKN015TCU', 'SOCA 080230Z AUTO 07007KT 9999 BKN026 BKN031 BKN039 28/24 Q1013 TEMPO 3000 SHRA BKN015TCU', 'SOCA 080130Z AUTO 08007KT 050V130 9999 FEW028 SCT041 BKN047 28/23 Q1013 TEMPO 3000 SHRA BKN015TCU', 'SOCA 080100Z AUTO /////KT //// // ////// ///// Q////', 'SOCA 080030Z AUTO 07008KT 040V100 9999 BKN025 BKN031 BKN037 28/24 Q1012 TEMPO 3000 SHRA BKN015TCU', 'SOCA 080000Z AUTO 07009KT 9999 FEW045 28/23 Q1012 TEMPO 3000 SHRA BKN015TCU', 'SOCA 072330Z AUTO 07007KT 9999 BKN025 BKN038 BKN048 28/24 Q1012 TEMPO 3000 SHRA BKN015TCU', 'SOCA 072300Z AUTO 07007KT 9999 SCT026 SCT036 BKN058 28/24 Q1012 TEMPO 3000 SHRA BKN015TCU', 'SOCA 072230Z AUTO 06008KT 9999 FEW024 28/24 Q1012 TEMPO 3000 SHRA BKN015TCU', 'SOCA 072200Z AUTO 07006KT 9999 SCT026 SCT031 28/24 Q1011 NOSIG', 'SOCA 072130Z AUTO 08007KT 9999 FEW026 28/24 Q1011 NOSIG', 'SOCA 072100Z AUTO 07010KT 9999 FEW031 29/24 Q1011 NOSIG', 'SOCA 072030Z AUTO 07013KT 9999 SCT033 SCT039 BKN046 30/24 Q1011 BECMG VRB02KT', 'SOCA 072000Z AUTO 07012KT 9999 FEW027 30/23 Q1011 BECMG VRB02KT', 'SOCA 071930Z AUTO 07015KT 9999 FEW025 SCT050 30/24 Q1011 BECMG VRB02KT', 'SOCA 071900Z AUTO 06013KT 9999 BKN028 BKN036 30/24 Q1011 NOSIG', 'SOCA 071830Z AUTO 06014KT 9999 SCT028 SCT033 BKN040 31/24 Q1011 NOSIG', 'SOCA 071800Z AUTO 07011KT 9999 SCT027 BKN035 BKN048 30/24 Q1012 NOSIG', 'SOCA 071730Z AUTO 07012KT 9999 BKN026 BKN033 BKN049 30/24 Q1012 NOSIG', 'SOCA 071700Z AUTO 06015KT 9999 SCT026 BKN036 BKN042 30/24 Q1012 NOSIG', 'SOCA 071630Z AUTO 06016KT 9999 BKN027 BKN034 BKN042 31/25 Q1013 NOSIG', 'SOCA 071600Z AUTO 07013KT 9999 BKN026 BKN033 BKN040 30/24 Q1013 NOSIG', 'SOCA 071530Z AUTO 06016KT 9999 BKN026 BKN035 OVC043 30/25 Q1014 NOSIG', 'SOCA 071500Z AUTO 07014KT 9999 BKN026 BKN032 BKN040 30/25 Q1014 NOSIG', 'SOCA 071430Z AUTO 07014KT 030V090 9999 BKN024 BKN030 BKN038 30/25 Q1014 NOSIG', 'SOCA 071400Z AUTO 07014KT 9999 SCT024 BKN029 BKN043 30/25 Q1014 TEMPO 3000 SHRA BKN018TCU', 'SOCA 071330Z AUTO 07010KT 040V110 9999 BKN024 BKN033 BKN041 29/25 Q1014 TEMPO 3000 SHRA BKN018TCU', 'SOCA 071300Z AUTO 07012KT 9999 BKN022 OVC041 29/25 Q1014 TEMPO 3000 SHRA BKN018TCU', 'SOCA 071200Z AUTO 07011KT 9999 BKN019 BKN025 BKN030 29/26 Q1014 TEMPO 3000 SHRA BKN018TCU', 'SOCA 071130Z AUTO 08006KT 9999 SCT019 SCT025 28/26 Q1013 TEMPO 3000 SHRA BKN015TCU', 'SOCA 071100Z AUTO 08003KT 9999 BKN020 BKN025 BKN031 26/26 Q1013 TEMPO 3000 SHRA BKN015TCU', 'SOCA 071030Z AUTO 08004KT 9999 FEW043 26/25 Q1012 TEMPO 3000 SHRA BKN015TCU', 'SOCA 071000Z AUTO 08003KT 020V120 9999 FEW015 25/25 Q1012 TEMPO 3000 SHRA BKN015TCU', 'SOCA 070930Z AUTO VRB02KT 6000 -RA BKN016/// BKN023/// BKN038/// ///TCU 25/25 Q1012 TEMPO 3000 SHRA', 'SOCA 070900Z AUTO 00000KT 8000 BKN017/// BKN023/// ///CB 25/25 Q1011 TEMPO 3000 SHRA', 'SOCA 070800Z AUTO 26003KT 6000 BKN022 BKN028 25/24 Q1011 TEMPO 3000 SHRA BKN015TCU', 'SOCA 070730Z AUTO 09004KT 9999 SCT019/// ///CB 26/25 Q1011 TEMPO 3000 SHRA', 'SOCA 070700Z AUTO 08003KT 9999 BKN019 BKN026 26/25 Q1011 TEMPO 3000 SHRA BKN015TCU', 'SOCA 070630Z AUTO 00000KT 8000 SCT017/// BKN022/// BKN027/// ///TCU 26/25 Q1011 TEMPO 3000 SHRA', 'SOCA 070600Z AUTO VRB02KT 9999 SCT018/// SCT024/// ///TCU 26/25 Q1011 TEMPO 3000 SHRA', 'SOCA 070530Z AUTO 07003KT 9999 SCT018/// BKN023/// BKN028/// ///TCU 26/25 Q1011 TEMPO 3000 SHRA', 'SOCA 070500Z AUTO 10004KT 9999 SCT019 SCT054 26/25 Q1011 TEMPO 3000 SHRA BKN015TCU', 'SOCA 070430Z AUTO 08005KT 9999 FEW021 SCT049 26/25 Q1012 TEMPO 3000 SHRA BKN015TCU', 'SOCA 070400Z AUTO 09007KT 060V120 9999 SCT019 SCT026 BKN042 27/26 Q1012 TEMPO 3000 SHRA BKN015TCU', 'SOCA 070330Z AUTO 09006KT 9999 FEW019 SCT025 26/25 Q1012 TEMPO 3000 SHRA BKN015TCU', 'SOCA 070300Z AUTO 08006KT 9999 FEW019 SCT052 26/26 Q1012 TEMPO 3000 SHRA BKN015TCU', 'SOCA 070230Z AUTO 09004KT 9999 FEW017 SCT032 26/26 Q1012 TEMPO 3000 SHRA BKN015TCU', 'SOCA 070200Z AUTO 00000KT 9999 SCT020 SCT026 BKN036 25/25 Q1013 TEMPO 3000 SHRA BKN015TCU', 'SOCA 070130Z AUTO 00000KT 9999 FEW016 25/25 Q1013 TEMPO 3000 SHRA BKN015TCU', 'SOCA 070030Z AUTO 00000KT 9999 FEW017 25/25 Q1013 TEMPO 3000 SHRA BKN015TCU', 'SOCA 070000Z AUTO 00000KT 9999 SCT018 25/25 Q1012 TEMPO 3000 SHRA BKN015TCU', 'SOCA 062330Z AUTO 00000KT 9999 FEW017 SCT025 BKN033 25/25 Q1012 TEMPO 3000 SHRA BKN015TCU', 'SOCA 062300Z AUTO 00000KT 9999 SCT013 BKN019 BKN029 26/25 Q1012 TEMPO 3000 SHRA BKN015TCU', 'SOCA 062230Z AUTO VRB01KT 9999 BKN016/// BKN021/// BKN028/// ///TCU 26/25 Q1012 TEMPO 3000 SHRA', 'SOCA 062200Z AUTO VRB01KT 9999 SCT025/// BKN032/// BKN044/// ///TCU 26/25 Q1012 TEMPO 3000 SHRA', 'SOCA 062130Z AUTO VRB03KT 9999 -RA FEW010/// BKN019/// BKN033/// ///CB 26/25 Q1011 TEMPO 3000 SHRA', 'SOCA 062100Z AUTO VRB04KT 6000 -RA SCT008/// BKN025/// BKN039/// ///CB 26/25 Q1011 TEMPO 3000 SHRA', 'SOCA 062030Z AUTO 09002KT 9999 ///CB 26/25 Q1011 TEMPO 3000 SHRA', 'SOCA 062000Z AUTO 08003KT 9999 FEW033 SCT094 26/25 Q1011 TEMPO 3000 SHRA BKN015TCU', 'SOCA 061930Z AUTO 08004KT 050V110 9999 FEW011/// SCT033/// BKN058/// ///TCU 26/25 Q1011 TEMPO 3000 SHRA', 'SOCA 061900Z AUTO 08018G30KT 9999 1000 R08/1300D +RA FEW015/// BKN024/// BKN031/// ///TCU 27/25 Q1011 TEMPO 3000 SHRA BECMG 10010KT', 'SOCA 061830Z AUTO 09009KT 9999 SCT024 BKN033 BKN039 30/26 Q1011 TEMPO 3000 SHRA BKN015TCU', 'SOCA 061800Z AUTO 07008KT 040V110 9999 FEW017 SCT024 BKN030 31/26 Q1011 TEMPO 3000 SHRA BKN015TCU', 'SOCA 061730Z AUTO VRB01KT 9999 BKN021 BKN026 BKN031 29/26 Q1012 TEMPO 3000 SHRA BKN015TCU', 'SOCA 061700Z AUTO 25005KT 9999 BKN015/// OVC023/// ///TCU 28/25 Q1013 TEMPO 3000 SHRA SCT008 BKN012CB BECMG 10010KT', 'SOCA 061630Z AUTO VRB02KT 9999 FEW008/// OVC024/// ///TCU 28/25 Q1013 TEMPO 3000 SHRA SCT008 BKN012CB', 'SOCA 061530Z AUTO 00000KT 9999 BKN007/// BKN011/// BKN200/// ///TCU 26/24 Q1014 TEMPO 2000 SHRA SCT008 BKN012CB BECMG 10010KT', 'SOCA 061430Z AUTO 10004KT 060V170 5000 -RA BR SCT010/// SCT029/// BKN044/// ///TCU 25/24 Q1015 TEMPO 2000 SHRA SCT008 BKN012CB', 'SOCA 061400Z AUTO 14007KT 090V210 9999 SCT010 BKN014 OVC031 25/24 Q1015 TEMPO 2000 SHRA SCT008 BKN012CB', 'SOCA 061330Z AUTO 14003KT 100V200 9999 1200 R08/1600D +RA FEW013/// SCT032/// BKN041/// ///TCU 25/24 Q1015 TEMPO 2000 SHRA SCT008 BKN012CB', 'SOCA 061300Z AUTO VRB03KT 5000 -RA BR BKN041/// BKN058/// BKN072/// ///TCU 25/24 Q1015 TEMPO 1000 TSRA BKN007 BKN010CB', 'SOCA 061230Z AUTO 12004KT 070V180 8000 RA SCT008/// BKN027/// BKN068/// ///TCU 25/24 Q1015 TEMPO 1000 TSRA BKN007 BKN010CB', 'SOCA 061200Z AUTO 08012KT 1300 R08/1800U +RA BR SCT007/// SCT011/// BKN017/// ///CB 25/24 Q1014 TEMPO TSRA SCT008 BKN012CB BKN015TCU', 'SOCA 061130Z AUTO 17003KT 120V210 9999 SCT005/// BKN022/// BKN039/// ///CB 26/25 Q1013 TEMPO 1000 TSRA SCT008 BKN012CB BKN015TCU', 'SOCA 061100Z AUTO 10003KT 070V150 9999 FEW008/// SCT015/// BKN033/// ///CB 25/24 Q1013 TEMPO 1000 TSRA SCT008 BKN012CB BKN015TCU', 'SOCA 061030Z AUTO 08007KT 050V110 1900 RA BR BKN008/// BKN014/// BKN025/// ///CB 25/25 Q1012 TEMPO 1000 TSRA SCT008 BKN012CB BKN015TCU', 'SOCA 061000Z AUTO 10008KT 070V130 7000 -RA BKN012/// BKN019/// BKN062/// ///CB 26/24 Q1012 TEMPO 1000 TSRA', 'SOCA 060930Z AUTO 06006KT 040V110 9999 BKN019/// OVC027/// ///CB 27/25 Q1011 TEMPO 1000 TSRA SCT008 BKN012CB BKN015TCU', 'SOCA 060900Z AUTO 07004KT 9999 FEW019/// SCT024/// BKN052/// ///CB 26/25 Q1011 TEMPO 1000 TSRA SCT008 BKN012CB BKN015TCU', 'SOCA 060830Z AUTO 07005KT 9999 FEW018/// BKN029/// BKN088/// ///TCU 26/25 Q1010 TEMPO 1000 TSRA SCT008 BKN012CB BKN015TCU', 'SOCA 060800Z AUTO VRB02G15KT 9999 FEW010/// BKN016/// BKN022/// ///TCU 26/26 Q1010 TEMPO 1000 TSRA SCT008 BKN012CB BKN015TCU', 'SOCA 060730Z AUTO VRB02KT 9999 BKN018/// BKN035/// BKN070/// ///TCU 26/25 Q1010 TEMPO 1000 TSRA SCT008 BKN012CB BKN015TCU', 'SOCA 060700Z AUTO VRB02KT 9999 FEW009/// BKN013/// BKN019/// ///TCU 26/25 Q1010 TEMPO 2500 SHRA SCT008 BKN015TCU', 'SOCA 060630Z AUTO 07004KT 9999 SCT018/// BKN042/// BKN088/// ///TCU 26/25 Q1010 TEMPO 2500 SHRA', 'SOCA 060600Z AUTO 05012G28KT 360V070 7000 -RA FEW013/// BKN018/// BKN024/// ///CB 26/25 Q1010 TEMPO 2500 SHRA BECMG VRB02KT', 'SOCA 060530Z AUTO VRB02KT 9999 BKN017/// BKN023/// BKN031/// ///TCU 27/25 Q1010 TEMPO 2500 SHRA', 'SOCA 060500Z AUTO VRB03KT 9999 SCT012/// SCT017/// BKN030/// ///TCU 27/26 Q1011 TEMPO 2500 SHRA', 'SOCA 060430Z AUTO 10003KT 060V150 9999 SCT016/// SCT021/// BKN026/// ///TCU 27/26 Q1011 TEMPO 2500 SHRA', 'SOCA 060400Z AUTO 09004KT 9999 SCT018/// SCT023/// BKN049/// ///TCU 27/25 Q1011 TEMPO 2500 SHRA', 'SOCA 060330Z AUTO VRB01KT 9999 SCT018/// BKN034/// BKN066/// ///TCU 27/25 Q1011 TEMPO 2500 SHRA', 'SOCA 060230Z AUTO 09006KT 9999 FEW017 BKN037 BKN046 27/25 Q1011 TEMPO 2500 SHRA SCT008 BKN015TCU', 'SOCA 060200Z AUTO 08005KT 9999 FEW018/// ///TCU 27/25 Q1011 TEMPO 2500 SHRA', 'SOCA 060130Z AUTO 09005KT 9999 FEW019 27/25 Q1011 TEMPO 2500 SHRA SCT008 BKN015TCU', 'SOCA 060100Z AUTO 08005KT 9999 FEW019 27/25 Q1012 TEMPO 2500 SHRA SCT008 BKN015TCU', 'SOCA 060030Z AUTO 07002KT 9999 SCT019 SCT026 27/25 Q1011 TEMPO 2500 SHRA SCT008 BKN015TCU', 'SOCA 060000Z AUTO 07003KT 9999 FEW019 27/25 Q1011 TEMPO 2500 SHRA SCT010 BKN015TCU', 'SOCA 052300Z AUTO 08003KT 9999 BKN019 BKN026 27/26 Q1011 TEMPO 2500 SHRA SCT010 BKN015TCU', 'SOCA 052230Z AUTO 08003KT 9999 SCT019 BKN026 BKN038 27/26 Q1010 TEMPO 2500 SHRA SCT010 BKN015TCU', 'SOCA 052200Z AUTO 06010KT 9999 -RA BKN018 BKN026 28/26 Q1010 NOSIG', 'SOCA 052130Z AUTO 08008KT CAVOK 29/25 Q1010 NOSIG', 'SOCA 052100Z AUTO 07010KT 9999 FEW021 29/25 Q1010 NOSIG']","['2024-02-08 20:30:00', '2024-02-08 20:00:00', '2024-02-08 19:30:00', '2024-02-08 19:00:00', '2024-02-08 18:30:00', '2024-02-08 18:00:00', '2024-02-08 17:00:00', '2024-02-08 16:30:00', '2024-02-08 16:00:00', '2024-02-08 15:30:00', '2024-02-08 14:30:00', '2024-02-08 14:00:00', '2024-02-08 13:30:00', '2024-02-08 13:00:00', '2024-02-08 12:30:00', '2024-02-08 12:00:00', '2024-02-08 11:30:00', '2024-02-08 11:00:00', '2024-02-08 10:00:00', '2024-02-08 09:30:00', '2024-02-08 09:00:00', '2024-02-08 08:30:00', '2024-02-08 08:00:00', '2024-02-08 07:30:00', '2024-02-08 07:00:00', '2024-02-08 06:30:00', '2024-02-08 06:00:00', '2024-02-08 05:30:00', '2024-02-08 05:00:00', '2024-02-08 04:30:00', '2024-02-08 04:00:00', '2024-02-08 03:00:00', '2024-02-08 02:30:00', '2024-02-08 01:30:00', '2024-02-08 01:00:00', '2024-02-08 00:30:00', '2024-02-08 00:00:00', '2024-02-07 23:30:00', '2024-02-07 23:00:00', '2024-02-07 22:30:00', '2024-02-07 22:00:00', '2024-02-07 21:30:00', '2024-02-07 21:00:00', '2024-02-07 20:30:00', '2024-02-07 20:00:00', '2024-02-07 19:30:00', '2024-02-07 19:00:00', '2024-02-07 18:30:00', '2024-02-07 18:00:00', '2024-02-07 17:30:00', '2024-02-07 17:00:00', '2024-02-07 16:30:00', '2024-02-07 16:00:00', '2024-02-07 15:30:00', '2024-02-07 15:00:00', '2024-02-07 14:30:00', '2024-02-07 14:00:00', '2024-02-07 13:30:00', '2024-02-07 13:00:00', '2024-02-07 12:00:00', '2024-02-07 11:30:00', '2024-02-07 11:00:00', '2024-02-07 10:30:00', '2024-02-07 10:00:00', '2024-02-07 09:30:00', '2024-02-07 09:00:00', '2024-02-07 08:00:00', '2024-02-07 07:30:00', '2024-02-07 07:00:00', '2024-02-07 06:30:00', '2024-02-07 06:00:00', '2024-02-07 05:30:00', '2024-02-07 05:00:00', '2024-02-07 04:30:00', '2024-02-07 04:00:00', '2024-02-07 03:30:00', '2024-02-07 03:00:00', '2024-02-07 02:30:00', '2024-02-07 02:00:00', '2024-02-07 01:30:00', '2024-02-07 00:30:00', '2024-02-07 00:00:00', '2024-02-06 23:30:00', '2024-02-06 23:00:00', '2024-02-06 22:30:00', '2024-02-06 22:00:00', '2024-02-06 21:30:00', '2024-02-06 21:00:00', '2024-02-06 20:30:00', '2024-02-06 20:00:00', '2024-02-06 19:30:00', '2024-02-06 19:00:00', '2024-02-06 18:30:00', '2024-02-06 18:00:00', '2024-02-06 17:30:00', '2024-02-06 17:00:00', '2024-02-06 16:30:00', '2024-02-06 15:30:00', '2024-02-06 14:30:00', '2024-02-06 14:00:00', '2024-02-06 13:30:00', '2024-02-06 13:00:00', '2024-02-06 12:30:00', '2024-02-06 12:00:00', '2024-02-06 11:30:00', '2024-02-06 11:00:00', '2024-02-06 10:30:00', '2024-02-06 10:00:00', '2024-02-06 09:30:00', '2024-02-06 09:00:00', '2024-02-06 08:30:00', '2024-02-06 08:00:00', '2024-02-06 07:30:00', '2024-02-06 07:00:00', '2024-02-06 06:30:00', '2024-02-06 06:00:00', '2024-02-06 05:30:00', '2024-02-06 05:00:00', '2024-02-06 04:30:00', '2024-02-06 04:00:00', '2024-02-06 03:30:00', '2024-02-06 02:30:00', '2024-02-06 02:00:00', '2024-02-06 01:30:00', '2024-02-06 01:00:00', '2024-02-06 00:30:00', '2024-02-06 00:00:00', '2024-02-05 23:00:00', '2024-02-05 22:30:00', '2024-02-05 22:00:00', '2024-02-05 21:30:00', '2024-02-05 21:00:00']"
Gabon, Franceville Mvengue Airport (MVB/FOON) ,"['FOON 081800Z /////KT 8000 -TSRA SCT013 FEW020CB 24/23 Q1012', 'FOON 081700Z /////KT 8000 -TSRA SCT013 FEW020CB 24/23 Q1011', 'FOON 081600Z /////KT 8000 TS SCT013 FEW020CB 29/24 Q1012', 'FOON 081500Z /////KT 9999 SCT013 31/24 Q1011', 'FOON 081400Z /////KT 9999 SCT013 30/23 Q1011', 'FOON 081300Z /////KT 9999 BKN012 31/24 Q1012', 'FOON 081200Z /////KT 9999 BKN011 30/23 Q1013', 'FOON 081100Z /////KT 9999 SCT010 30/23 Q1014', 'FOON 081000Z /////KT 9999 FEW008 28/23 Q1015', 'FOON 080900Z /////KT 9999 FEW008 27/23 Q1016', 'FOON 080800Z /////KT 9999 FEW008 24/22 Q1015', 'FOON 080700Z /////KT 9999 FEW002 24/22 Q1015', 'FOON 080600Z /////KT 8000 FEW002 23/22 Q1014', 'FOON 080500Z /////KT 8000 FEW008 23/22 Q1014', 'FOON 072100Z /////KT 8000 FEW008 24/23 Q1014', 'FOON 072000Z /////KT 8000 FEW008 25/24 Q1013', 'FOON 071900Z /////KT 8000 FEW008 24/23 Q1012', 'FOON 071800Z /////KT 8000 FEW008 25/23 Q1011', 'FOON 071700Z /////KT 9999 FEW008 26/23 Q1009', 'FOON 071600Z /////KT 9999 FEW010 FEW020CB 27/23 Q1008', 'FOON 071500Z /////KT 9999 SCT013 FEW020CB 26/24 Q1009', 'FOON 071400Z /////KT 9999 SCT013 FEW020CB 33/23 Q1010', 'FOON 071300Z /////KT 9999 BKN013 33/23 Q1011', 'FOON 071200Z /////KT 9999 BKN013 32/24 Q1013', 'FOON 071100Z /////KT 9999 BKN012 32/23 Q1014', 'FOON 071000Z /////KT 9999 SCT011 31/24 Q1015', 'FOON 070900Z /////KT 9999 SCT010 29/24 Q1016', 'FOON 070800Z /////KT 9999 SCT008 27/24 Q1016', 'FOON 070700Z /////KT 9999 FEW004 25/24 Q1016', 'FOON 070600Z /////KT 9999 FEW002 23/22 Q1015', 'FOON 070500Z /////KT 8000 FEW002 22/22 Q1015', 'FOON 062000Z /////KT 8000 SCT010 24/23 Q1015', 'FOON 061900Z /////KT 8000 SCT010 25/23 Q1013', 'FOON 061800Z /////KT 9999 FEW010 26/23 Q1013', 'FOON 061700Z /////KT CAVOK 30/23 Q1012', 'FOON 061600Z /////KT 9999 FEW012 32/22 Q1012', 'FOON 061500Z /////KT 9999 SCT012 33/22 Q1012', 'FOON 061400Z /////KT 9999 SCT012 32/21 Q1012', 'FOON 061300Z /////KT 9999 SCT011 33/24 Q1013', 'FOON 061200Z /////KT 9999 FEW010 32/21 Q1013', 'FOON 061100Z /////KT 9999 FEW010 31/23 Q1014', 'FOON 061000Z /////KT 9999 FEW010 27/23 Q1015', 'FOON 060900Z /////KT 9999 SCT010 BKN015 27/22 Q1016', 'FOON 060800Z /////KT 9999 FEW008 23/22 Q1016', 'FOON 060700Z /////KT 8000 FEW008 21/21 Q1016', 'FOON 060600Z /////KT 8000 FEW002 21/21 Q1015', 'FOON 060500Z /////KT 8000 FEW008 21/21 Q1015']","['2024-02-08 18:00:00', '2024-02-08 17:00:00', '2024-02-08 16:00:00', '2024-02-08 15:00:00', '2024-02-08 14:00:00', '2024-02-08 13:00:00', '2024-02-08 12:00:00', '2024-02-08 11:00:00', '2024-02-08 10:00:00', '2024-02-08 09:00:00', '2024-02-08 08:00:00', '2024-02-08 07:00:00', '2024-02-08 06:00:00', '2024-02-08 05:00:00', '2024-02-07 21:00:00', '2024-02-07 20:00:00', '2024-02-07 19:00:00', '2024-02-07 18:00:00', '2024-02-07 17:00:00', '2024-02-07 16:00:00', '2024-02-07 15:00:00', '2024-02-07 14:00:00', '2024-02-07 13:00:00', '2024-02-07 12:00:00', '2024-02-07 11:00:00', '2024-02-07 10:00:00', '2024-02-07 09:00:00', '2024-02-07 08:00:00', '2024-02-07 07:00:00', '2024-02-07 06:00:00', '2024-02-07 05:00:00', '2024-02-06 20:00:00', '2024-02-06 19:00:00', '2024-02-06 18:00:00', '2024-02-06 17:00:00', '2024-02-06 16:00:00', '2024-02-06 15:00:00', '2024-02-06 14:00:00', '2024-02-06 13:00:00', '2024-02-06 12:00:00', '2024-02-06 11:00:00', '2024-02-06 10:00:00', '2024-02-06 09:00:00', '2024-02-06 08:00:00', '2024-02-06 07:00:00', '2024-02-06 06:00:00', '2024-02-06 05:00:00']"
Gabon, Libreville International Airport (LBV/FOOL) ,"['FOOL 082000Z 21004KT 170V240 9999 FEW013 29/26 Q1012 NOSIG', 'FOOL 081930Z 22005KT 190V250 9999 FEW013 29/26 Q1011 NOSIG', 'FOOL 081900Z 26005KT 210V290 9999 FEW013 29/26 Q1010 NOSIG', 'FOOL 081830Z 28005KT 250V310 9999 FEW013 29/26 Q1010 NOSIG', 'FOOL 081800Z 25004KT 210V290 9999 FEW013 29/26 Q1010 NOSIG', 'FOOL 081700Z 25005KT 200V290 9999 FEW014 30/25 Q1009 NOSIG', 'FOOL 081630Z 26004KT 220V300 9999 FEW014 30/25 Q1009 NOSIG', 'FOOL 081600Z 27004KT 210V310 9999 FEW015 31/26 Q1008 NOSIG', 'FOOL 081500Z 26004KT 210V330 9999 FEW015 32/26 Q1009 NOSIG', 'FOOL 081430Z 25005KT 180V280 9999 FEW015 32/26 Q1009 NOSIG', 'FOOL 081400Z 24004KT 170V340 9999 FEW014 32/26 Q1010 NOSIG', 'FOOL 081330Z 22005KT 170V260 9999 FEW014 32/26 Q1010 NOSIG', 'FOOL 081300Z 24005KT 190V280 9999 FEW014 32/26 Q1010 NOSIG', 'FOOL 081200Z 25004KT 150V320 9999 FEW013 32/26 Q1011 NOSIG', 'FOOL 081130Z 26003KT 180V330 9999 FEW013 31/26 Q1012 NOSIG', 'FOOL 081100Z 25004KT 200V330 9999 FEW012 31/26 Q1012 NOSIG', 'FOOL 081030Z 22004KT 170V260 9999 SCT012 30/26 Q1013 NOSIG', 'FOOL 081000Z 18004KT 130V230 8000 SCT011 29/25 Q1013 NOSIG', 'FOOL 080930Z 18004KT 140V240 8000 SCT011 29/25 Q1013 NOSIG', 'FOOL 080900Z 21004KT 180V250 8000 FEW011 29/25 Q1013 NOSIG', 'FOOL 080830Z VRB02KT 8000 FEW011 29/25 Q1014 NOSIG', 'FOOL 080800Z 11004KT 070V140 8000 FEW010 28/26 Q1014 NOSIG', 'FOOL 080730Z 11004KT 8000 FEW010 28/25 Q1013 NOSIG', 'FOOL 080700Z 13006KT 090V150 8000 SCT010 27/25 Q1013 NOSIG', 'FOOL 080630Z 13004KT 9999 SCT010 BKN028 27/25 Q1013 NOSIG', 'FOOL 080600Z 16006KT 9999 SCT010 BKN028 27/25 Q1012 NOSIG', 'FOOL 080500Z 22006KT 9999 TS SCT010 FEW020CB 27/26 Q1012 TEMPO 4000 TSRA', 'FOOL 080400Z 22006KT 9999 TS SCT010 FEW020CB 27/26 Q1012 TEMPO 4000 TSRA', 'FOOL 080300Z 25004KT 9999 TS SCT010 FEW020CB 29/26 Q1011 NOSIG', 'FOOL 080230Z 25004KT 9999 TS SCT010 FEW020CB 29/26 Q1011 BECMG 4000 TSRA', 'FOOL 080200Z 24006KT 9999 TS SCT010 FEW020CB 29/26 Q1011 BECMG 4000 TSRA', 'FOOL 080100Z 24006KT 9999 SCT010 29/26 Q1012 NOSIG', 'FOOL 080030Z 23006KT 9999 SCT010 29/26 Q1012 NOSIG', 'FOOL 080000Z 25006KT 9999 FEW013 29/26 Q1012 NOSIG', 'FOOL 072300Z 24006KT 180V270 9999 FEW013 29/26 Q1013 NOSIG', 'FOOL 072230Z 24007KT 9999 FEW013 29/26 Q1013 NOSIG', 'FOOL 072200Z 24007KT 210V280 9999 FEW013 29/26 Q1012 NOSIG', 'FOOL 072130Z 25007KT 220V280 9999 FEW013 30/26 Q1013 NOSIG', 'FOOL 072100Z 24006KT 210V270 9999 FEW013 30/26 Q1013 NOSIG', 'FOOL 072000Z 25006KT 9999 SCT013 29/26 Q1011 NOSIG', 'FOOL 071900Z 26006KT 230V300 9999 SCT013 29/26 Q1010 NOSIG', 'FOOL 071700Z 25007KT 210V270 9999 FEW013 30/26 Q1009 NOSIG', 'FOOL 071630Z 24007KT 220V280 9999 FEW013 31/26 Q1008 NOSIG', 'FOOL 071600Z 25006KT 200V290 9999 FEW013 31/27 Q1009 NOSIG', 'FOOL 071530Z 25006KT 210V300 9999 FEW013 32/26 Q1009 NOSIG', 'FOOL 071500Z 25007KT 210V280 9999 FEW013 32/27 Q1009 NOSIG', 'FOOL 071430Z 25007KT 9999 FEW013 32/26 Q1009 NOSIG', 'FOOL 071400Z 24006KT 180V270 9999 FEW013 32/27 Q1010 NOSIG', 'FOOL 071330Z 24007KT 200V290 9999 FEW013 32/26 Q1010 NOSIG', 'FOOL 071300Z 24005KT 190V280 9999 FEW013 32/27 Q1011 NOSIG', 'FOOL 071200Z 24006KT 210V280 9999 SCT014 31/27 Q1012 NOSIG', 'FOOL 071130Z 24006KT 210V280 9999 SCT014 31/27 Q1012 NOSIG', 'FOOL 071100Z 23004KT 140V300 9999 FEW013 32/26 Q1013 NOSIG', 'FOOL 071030Z 22004KT 170V290 9999 FEW013 32/26 Q1013 NOSIG', 'FOOL 071000Z 18006KT 150V240 9999 FEW013 31/26 Q1013 NOSIG', 'FOOL 070930Z 21005KT 170V280 9999 FEW013 31/26 Q1013 NOSIG', 'FOOL 070900Z 17006KT 150V210 9999 FEW013 30/26 Q1014 NOSIG', 'FOOL 070800Z VRB02KT 9999 SCT012 29/26 Q1014 NOSIG', 'FOOL 070700Z 08003KT 8000 FEW012 FEW020CB 27/26 Q1013 NOSIG', 'FOOL 070630Z 08004KT 9999 FEW012 FEW020CB 26/25 Q1013 NOSIG', 'FOOL 070600Z VRB02KT 9999 FEW012 FEW020CB 26/25 Q1013 NOSIG', 'FOOL 070530Z VRB02KT 9999 FEW012 26/25 Q1012 NOSIG', 'FOOL 070500Z VRB02KT 9999 FEW012 26/25 Q1012 NOSIG', 'FOOL 070430Z VRB02KT 9999 FEW012 26/25 Q1012 NOSIG', 'FOOL 070400Z VRB02KT 9999 FEW012 26/25 Q1012 NOSIG', 'FOOL 070300Z VRB02KT 9999 FEW012 26/25 Q1012 NOSIG', 'FOOL 070230Z VRB02KT 9999 FEW012 26/25 Q1012 NOSIG', 'FOOL 070200Z VRB02KT 9999 FEW012 26/25 Q1012 NOSIG', 'FOOL 070130Z VRB02KT 9999 FEW012 26/25 Q1012 NOSIG', 'FOOL 070100Z VRB02KT 9999 FEW012 26/25 Q1012 NOSIG', 'FOOL 070000Z VRB02KT 9999 FEW012 27/26 Q1013 NOSIG', 'FOOL 062330Z VRB02KT 9999 FEW012 27/26 Q1013 NOSIG', 'FOOL 062300Z 00000KT 9999 FEW012 27/25 Q1013 NOSIG', 'FOOL 062200Z VRB02KT 9999 FEW013 29/25 Q1013 NOSIG', 'FOOL 062130Z VRB02KT 9999 FEW013 29/25 Q1013 NOSIG', 'FOOL 062100Z 21003KT 9999 FEW013 29/25 Q1013 NOSIG', 'FOOL 062030Z 22004KT 9999 FEW013 29/25 Q1012 NOSIG', 'FOOL 062000Z 22004KT 9999 FEW013 29/25 Q1012 NOSIG', 'FOOL 061900Z 23005KT 200V260 9999 FEW013 FEW020CB 29/25 Q1011 NOSIG', 'FOOL 061830Z 23005KT 200V260 9999 FEW013 FEW020CB 29/25 Q1011 NOSIG', 'FOOL 061800Z 24005KT 190V270 9999 FEW013 FEW020CB 29/25 Q1010 NOSIG', 'FOOL 061730Z 24005KT 9999 FEW012 29/25 Q1011 NOSIG', 'FOOL 061700Z 23005KT 9999 SCT012 30/25 Q1010 NOSIG', 'FOOL 061630Z 23007KT 9999 SCT012 30/25 Q1010 NOSIG', 'FOOL 061600Z 24007KT 9999 SCT012 30/25 Q1010 NOSIG', 'FOOL 061530Z 23007KT 9999 SCT012 30/26 Q1010 NOSIG', 'FOOL 061500Z 24007KT 9999 SCT012 31/26 Q1010 NOSIG', 'FOOL 061430Z 24007KT 9999 SCT012 31/26 Q1010 NOSIG', 'FOOL 061400Z 24008KT 9999 SCT012 31/26 Q1011 NOSIG', 'FOOL 061330Z 24008KT 9999 SCT012 31/26 Q1011 NOSIG', 'FOOL 061300Z 25005KT 9999 SCT012 31/26 Q1012 NOSIG', 'FOOL 061230Z 25005KT 9999 SCT012 31/26 Q1012 NOSIG', 'FOOL 061130Z 21005KT 9999 SCT012 31/26 Q1013 NOSIG', 'FOOL 061000Z 23004KT 9999 SCT012 31/26 Q1014 NOSIG', 'FOOL 060900Z 09004KT 9999 SCT010 29/25 Q1014 NOSIG', 'FOOL 060800Z 09005KT 8000 SCT010 27/25 Q1014 NOSIG', 'FOOL 060730Z 11005KT 8000 SCT010 27/25 Q1014 NOSIG', 'FOOL 060700Z 11004KT 9999 FEW010 26/24 Q1014 NOSIG', 'FOOL 060630Z 10004KT 9999 FEW010 25/24 Q1013 NOSIG', 'FOOL 060600Z 09004KT 9999 FEW010 25/24 Q1013 NOSIG', 'FOOL 060500Z 10004KT 9999 FEW010 25/24 Q1013 NOSIG', 'FOOL 060430Z 10004KT 9999 FEW010 25/24 Q1013 NOSIG', 'FOOL 060400Z 09004KT 9999 FEW010 25/24 Q1012 NOSIG', 'FOOL 060230Z VRB02KT 9999 SCT010 25/24 Q1012 NOSIG', 'FOOL 060200Z 06002KT 9999 SCT010 25/24 Q1012 NOSIG', 'FOOL 060130Z 07004KT 9999 FEW010 25/24 Q1012 NOSIG', 'FOOL 060100Z 08005KT 9999 FEW010 25/24 Q1012 NOSIG', 'FOOL 060030Z 07005KT 9999 FEW010 25/24 Q1013 NOSIG', 'FOOL 060000Z 08005KT 9999 FEW010 25/25 Q1013 NOSIG', 'FOOL 052330Z 09004KT 9999 FEW011 25/25 Q1013 NOSIG', 'FOOL 052300Z 06004KT 030V090 9999 FEW011 25/25 Q1013 NOSIG', 'FOOL 052200Z 07006KT 9999 BKN011 26/25 Q1014 BECMG AT2230 SCT011', 'FOOL 052130Z 07006KT 9999 BKN011 26/25 Q1014 NOSIG', 'FOOL 052100Z 09005KT 9999 BKN011 26/25 Q1014 NOSIG']","['2024-02-08 20:00:00', '2024-02-08 19:30:00', '2024-02-08 19:00:00', '2024-02-08 18:30:00', '2024-02-08 18:00:00', '2024-02-08 17:00:00', '2024-02-08 16:30:00', '2024-02-08 16:00:00', '2024-02-08 15:00:00', '2024-02-08 14:30:00', '2024-02-08 14:00:00', '2024-02-08 13:30:00', '2024-02-08 13:00:00', '2024-02-08 12:00:00', '2024-02-08 11:30:00', '2024-02-08 11:00:00', '2024-02-08 10:30:00', '2024-02-08 10:00:00', '2024-02-08 09:30:00', '2024-02-08 09:00:00', '2024-02-08 08:30:00', '2024-02-08 08:00:00', '2024-02-08 07:30:00', '2024-02-08 07:00:00', '2024-02-08 06:30:00', '2024-02-08 06:00:00', '2024-02-08 05:00:00', '2024-02-08 04:00:00', '2024-02-08 03:00:00', '2024-02-08 02:30:00', '2024-02-08 02:00:00', '2024-02-08 01:00:00', '2024-02-08 00:30:00', '2024-02-08 00:00:00', '2024-02-07 23:00:00', '2024-02-07 22:30:00', '2024-02-07 22:00:00', '2024-02-07 21:30:00', '2024-02-07 21:00:00', '2024-02-07 20:00:00', '2024-02-07 19:00:00', '2024-02-07 17:00:00', '2024-02-07 16:30:00', '2024-02-07 16:00:00', '2024-02-07 15:30:00', '2024-02-07 15:00:00', '2024-02-07 14:30:00', '2024-02-07 14:00:00', '2024-02-07 13:30:00', '2024-02-07 13:00:00', '2024-02-07 12:00:00', '2024-02-07 11:30:00', '2024-02-07 11:00:00', '2024-02-07 10:30:00', '2024-02-07 10:00:00', '2024-02-07 09:30:00', '2024-02-07 09:00:00', '2024-02-07 08:00:00', '2024-02-07 07:00:00', '2024-02-07 06:30:00', '2024-02-07 06:00:00', '2024-02-07 05:30:00', '2024-02-07 05:00:00', '2024-02-07 04:30:00', '2024-02-07 04:00:00', '2024-02-07 03:00:00', '2024-02-07 02:30:00', '2024-02-07 02:00:00', '2024-02-07 01:30:00', '2024-02-07 01:00:00', '2024-02-07 00:00:00', '2024-02-06 23:30:00', '2024-02-06 23:00:00', '2024-02-06 22:00:00', '2024-02-06 21:30:00', '2024-02-06 21:00:00', '2024-02-06 20:30:00', '2024-02-06 20:00:00', '2024-02-06 19:00:00', '2024-02-06 18:30:00', '2024-02-06 18:00:00', '2024-02-06 17:30:00', '2024-02-06 17:00:00', '2024-02-06 16:30:00', '2024-02-06 16:00:00', '2024-02-06 15:30:00', '2024-02-06 15:00:00', '2024-02-06 14:30:00', '2024-02-06 14:00:00', '2024-02-06 13:30:00', '2024-02-06 13:00:00', '2024-02-06 12:30:00', '2024-02-06 11:30:00', '2024-02-06 10:00:00', '2024-02-06 09:00:00', '2024-02-06 08:00:00', '2024-02-06 07:30:00', '2024-02-06 07:00:00', '2024-02-06 06:30:00', '2024-02-06 06:00:00', '2024-02-06 05:00:00', '2024-02-06 04:30:00', '2024-02-06 04:00:00', '2024-02-06 02:30:00', '2024-02-06 02:00:00', '2024-02-06 01:30:00', '2024-02-06 01:00:00', '2024-02-06 00:30:00', '2024-02-06 00:00:00', '2024-02-05 23:30:00', '2024-02-05 23:00:00', '2024-02-05 22:00:00', '2024-02-05 21:30:00', '2024-02-05 21:00:00']"
Gabon, Port-Gentil International Airport (POG/FOOG) ,"['FOOG 081900Z 19007KT 9999 SCT010 FEW020CB 28/26 Q1011', 'FOOG 081800Z 20009KT 9999 -RA SCT010 FEW020CB SCT026 28/26 Q1010', 'FOOG 081700Z 20010KT 9999 SCT010 FEW020CB SCT026 30/26 Q1009', 'FOOG 081600Z 20010KT 170V230 9999 SCT011 FEW020CB 31/26 Q1009', 'FOOG 081500Z 21009KT 9999 FEW012 FEW020CB 31/26 Q1009', 'FOOG 081400Z 22011KT 9999 FEW012 32/25 Q1010', 'FOOG 081300Z 24008KT 9999 FEW012 31/23 Q1010', 'FOOG 081200Z 21008KT 180V250 9999 FEW012 31/24 Q1011', 'FOOG 081100Z 24009KT 9999 FEW012 FEW021CB 31/25 Q1012', 'FOOG 081000Z 21005KT 160V260 9999 FEW012 FEW021CB 31/25 Q1013', 'FOOG 080900Z 17006KT 9999 FEW008 FEW016CB 28/25 Q1013', 'FOOG 080800Z 16006KT 8000 TS FEW008 FEW016CB 25/23 Q1014', 'FOOG 080700Z VRB07KT 2500 TSRA SCT008 SCT020CB BKN023 24/23 Q1013', 'FOOG 080600Z 19008KT 8000 -TSRA SCT008 FEW020CB BKN023 27/23 Q1012', 'FOOG 072300Z 19006KT 9999 SCT008 FEW020CB BKN023 29/26 Q1013', 'FOOG 072200Z 20008KT 9999 SCT008 FEW020CB 29/26 Q1013', 'FOOG 072100Z 20008KT 9999 SCT010 FEW020CB 29/26 Q1013', 'FOOG 072000Z 21008KT 9999 SCT010 FEW020CB 29/26 Q1012', 'FOOG 071900Z 23007KT 9999 SCT011 FEW020CB 29/26 Q1010', 'FOOG 071800Z 22008KT 9999 SCT011 FEW020CB 29/26 Q1010', 'FOOG 071700Z 21008KT 9999 FEW012 30/25 Q1009', 'FOOG 071600Z 22008KT 9999 FEW012 31/25 Q1009', 'FOOG 071500Z 22009KT 190V260 9999 SCT013 32/26 Q1009', 'FOOG 071300Z 22007KT 190V250 9999 SCT010 31/26 Q1011', 'FOOG 071200Z 23007KT 190V260 9999 SCT012 32/26 Q1012', 'FOOG 071100Z 22007KT 180V260 9999 SCT012 32/26 Q1013', 'FOOG 071000Z 23005KT 200V270 9999 SCT011 30/26 Q1013', 'FOOG 070900Z 21005KT 9999 SCT010 30/26 Q1014', 'FOOG 070800Z VRB01KT 9999 SCT010 31/26 Q1014', 'FOOG 070700Z 00000KT 9000 FEW010 28/27 Q1013', 'FOOG 070600Z 00000KT 9999 SCT008 27/26 Q1013', 'FOOG 070500Z 07001KT 9999 SCT008 27/26 Q1012', 'FOOG 062300Z 20004KT 9999 FEW010 28/25 Q1013', 'FOOG 062200Z 19003KT 9999 FEW010 FEW020CB 28/25 Q1013', 'FOOG 062100Z 18004KT 9999 FEW010 FEW020CB 28/25 Q1013', 'FOOG 062000Z 19004KT 9999 FEW010 28/25 Q1012', 'FOOG 061900Z 19004KT 9999 FEW010 28/24 Q1011', 'FOOG 061800Z 20005KT 9999 FEW010 29/24 Q1011', 'FOOG 061700Z 22008KT 9999 FEW010 FEW020CB 30/24 Q1010', 'FOOG 061600Z 20008KT 9999 FEW011 30/24 Q1010', 'FOOG 061500Z 21010KT 9999 FEW012 31/24 Q1010', 'FOOG 061400Z 20011KT 170V230 9999 FEW012 31/25 Q1011', 'FOOG 061300Z 20011KT 9999 FEW011 31/23 Q1011', 'FOOG 061200Z 19010KT 160V220 9999 FEW010 31/24 Q1012', 'FOOG 061100Z 20009KT 9999 FEW010 31/25 Q1013', 'FOOG 061000Z 18008KT 150V220 9999 FEW010 31/24 Q1014', 'FOOG 060900Z 15005KT 080V200 9999 FEW010 30/24 Q1014', 'FOOG 060800Z 13005KT 090V150 9999 FEW008 27/24 Q1015', 'FOOG 060700Z VRB03KT 9000 FEW008 26/24 Q1015', 'FOOG 060600Z VRB03KT 9000 FEW008 25/24 Q1013', 'FOOG 060500Z 09003KT 9000 FEW008 25/24 Q1013', 'FOOG 052300Z VRB03KT 8000 FEW008 25/24 Q1013', 'FOOG 052200Z VRB02KT 8000 FEW008 26/24 Q1013', 'FOOG 052100Z 00000KT 8000 FEW008 26/25 Q1013']","['2024-02-08 19:00:00', '2024-02-08 18:00:00', '2024-02-08 17:00:00', '2024-02-08 16:00:00', '2024-02-08 15:00:00', '2024-02-08 14:00:00', '2024-02-08 13:00:00', '2024-02-08 12:00:00', '2024-02-08 11:00:00', '2024-02-08 10:00:00', '2024-02-08 09:00:00', '2024-02-08 08:00:00', '2024-02-08 07:00:00', '2024-02-08 06:00:00', '2024-02-07 23:00:00', '2024-02-07 22:00:00', '2024-02-07 21:00:00', '2024-02-07 20:00:00', '2024-02-07 19:00:00', '2024-02-07 18:00:00', '2024-02-07 17:00:00', '2024-02-07 16:00:00', '2024-02-07 15:00:00', '2024-02-07 13:00:00', '2024-02-07 12:00:00', '2024-02-07 11:00:00', '2024-02-07 10:00:00', '2024-02-07 09:00:00', '2024-02-07 08:00:00', '2024-02-07 07:00:00', '2024-02-07 06:00:00', '2024-02-07 05:00:00', '2024-02-06 23:00:00', '2024-02-06 22:00:00', '2024-02-06 21:00:00', '2024-02-06 20:00:00', '2024-02-06 19:00:00', '2024-02-06 18:00:00', '2024-02-06 17:00:00', '2024-02-06 16:00:00', '2024-02-06 15:00:00', '2024-02-06 14:00:00', '2024-02-06 13:00:00', '2024-02-06 12:00:00', '2024-02-06 11:00:00', '2024-02-06 10:00:00', '2024-02-06 09:00:00', '2024-02-06 08:00:00', '2024-02-06 07:00:00', '2024-02-06 06:00:00', '2024-02-06 05:00:00', '2024-02-05 23:00:00', '2024-02-05 22:00:00', '2024-02-05 21:00:00']"
Gambia, Banjul International Airport (BJL/GBYD) ,"['GBYD 082000Z 30011KT 9000 NSC 27/16 Q1010', 'GBYD 081900Z 34005KT 9000 NSC 31/13 Q1009', 'GBYD 081800Z 34005KT 9000 NSC 36/09 Q1009', 'GBYD 081700Z 1404KT 9000 NSC 39/06 Q1009', 'GBYD 081600Z 33007KT 9000 NSC 39/03 Q1009', 'GBYD 081500Z 11007KT 9000 NSC 39/03 Q1010', 'GBYD 081400Z 09006KT 9000 NSC 37/04 Q1011', 'GBYD 081300Z 06007KT 9000 HZ NSC 35/02 Q1013', 'GBYD 081300Z 06007KT 9000 HZ NSC 35/02 Q1013', 'GBYD 081200Z 05008KT 9000 HZ NSC 34/M00 Q1013', 'GBYD 081100Z 05005KT 9000 HZ NSC 32/05 Q1014', 'GBYD 081000Z 06009KT 9000 NSC 28/04 Q1014', 'GBYD 090900Z 05010KT 9000 NSC 26/02 Q1014', 'GBYD 080800Z 09005KT 9000 NSC 24/06 Q1013', 'GBYD 080800Z 09005KT 9000 NSC 24/06 Q1013', 'GBYD 080700Z 09007KT 9000 NSC 24/06 Q1012', 'GBYD 080700Z 09007KT 9000 NSC 24/06 Q1012', 'GBYD 080600Z 09004KT 9000 NSC 24/05 Q1012', 'GBYD 080600Z 09004KT 9000 NSC 24/05 Q1012', 'GBYD 080500Z VRB03KT 9000 NSC 23/08 Q1012', 'GBYD 080500Z VRB03KT 9000 NSC 23/08 Q1012', 'GBYD 080400Z VRB03KT 9000 NSC 24/08 Q1012', 'GBYD 080300Z 00000KT 9000 NSC 25/15 Q1013', 'GBYD 080200Z VRB02KT 9000 NSC 24/16 Q1013', 'GBYD 080200Z VRB02KT 9000 NSC 24/16 Q1013', 'GBYD 080100Z VRB02KT 9000 NSC 25/16 Q1013', 'GBYD 080100Z VRB02KT 9000 NSC 25/16 Q1013', 'GBYD 080000Z VRB02KT 9000 NSC 25/16 Q1013', 'GBYD 080000Z VRB02KT 9000 NSC 25/16 Q1013', 'GBYD 072300Z 00000KT 9000 NSC 25/15 Q1013', 'GBYD 072300Z 00000KT 9000 NSC 25/15 Q1013', 'GBYD 072200Z 00000KT 9000 NSC 28/15 Q1013', 'GBYD 072200Z 00000KT 9000 NSC 28/15 Q1013', 'GBYD 072100Z 32006KT 9000 NSC 29/14 Q1012', 'GBYD 072100Z 32006KT 9000 NSC 29/14 Q1012', 'GBYD 072000Z 32004KT 9000 NSC 30/12 Q1011', 'GBYD 071900Z 32010KT CAVOK 31/11 Q1011', 'GBYD 071800Z 09010KT CAVOK 37/06 Q1010', 'GBYD 071700Z 17011KT CAVOK 38/05 Q1010', 'GBYD 071600Z 09010KT CAVOK 39/07 Q1010', 'GBYD 071500Z 09012KT CAVOK 38/06 Q1011', 'GBYD 071400Z 09014KT CAVOK 37/05 Q1012', 'GBYD 071300Z 09008KT CAVOK 35/04 Q1013', 'GBYD 071200Z 09010KT CAVOK 33/07 Q1014', 'GBYD 071100Z 08010KT CAVOK 31/04 Q1014', 'GBYD 071000Z 05009KT CAVOK 28/06 Q1014', 'GBYD 070900Z 09004KT CAVOK 25/09 Q1014', 'GBYD 070800Z 00000KT CAVOK 21/09 Q1014', 'GBYD 070800Z 00000KT CAVOK 21/09 Q1014', 'GBYD 070700Z 00000KT CAVOK 21/10 Q1013', 'GBYD 070600Z 00000KT CAVOK 22/12 Q1013', 'GBYD 070600Z 00000KT CAVOK 22/12 Q1013', 'GBYD 070500Z 00000KT CAVOK 23/13 Q1013', 'GBYD 070500Z 00000KT CAVOK 23/13 Q1013', 'GBYD 070400Z 00000KT CAVOK 22/15 Q1013', 'GBYD 070400Z 00000KT CAVOK 22/15 Q1013', 'GBYD 070300Z 00000KT CAVOK 24/15 Q1013', 'GBYD 070300Z 00000KT CAVOK 24/15 Q1013', 'GBYD 070200Z 00000KT CAVOK 24/15 Q1014', 'GBYD 070200Z 00000KT CAVOK 24/15 Q1014', 'GBYD 070100Z 00000KT CAVOK 25/16 Q1014', 'GBYD 070100Z 00000KT CAVOK 25/16 Q1014', 'GBYD 070000Z 00000KT CAVOK 25/16 Q1014', 'GBYD 070000Z 00000KT CAVOK 25/16 Q1014', 'GBYD 062300Z 00000KT CAVOK 25/16 Q1014', 'GBYD 062300Z 00000KT CAVOK 25/16 Q1014', 'GBYD 062200Z 34004KT CAVOK 27/13 Q1014', 'GBYD 062100Z 02004KT CAVOK 28/11 Q1013', 'GBYD 062000Z 04004KT CAVOK 31/09 Q1012', 'GBYD 061900Z 00000KT CAVOK 34/10 Q1011', 'GBYD 061900Z 00000KT CAVOK 34/10 Q1011', 'GBYD 061800Z 00000KT CAVOK 38/06 Q1010', 'GBYD 061800Z 00000KT CAVOK 38/06 Q1010', 'GBYD 061700Z 00000KT CAVOK 39/08 Q1010', 'GBYD 061700Z 00000KT CAVOK 39/08 Q1010', 'GBYD 061600Z 09007KT CAVOK 39/08 Q1010', 'GBYD 061600Z 09007KT CAVOK 39/08 Q1010', 'GBYD 061500Z 09006KT CAVOK 38/05 Q1011', 'GBYD 061500Z 09006KT CAVOK 38/05 Q1011', 'GBYD 061400Z 09007KT CAVOK 37/04 Q1012', 'GBYD 061300Z 09012KT CAVOK 35/02 Q1012', 'GBYD 061200Z 08012KT CAVOK 34/06 Q1013', 'GBYD 061100Z 09012KT CAVOK 33/04 Q1014', 'GBYD 061000Z 09010KT CAVOK 28/04 Q1014', 'GBYD 060900Z 09004KT 9000 NSC 22/08 Q1013', 'GBYD 060800Z 00000KT 9000 NSC 19/08 Q1013', 'GBYD 060700Z 06006KT 9000 NSC 20/09 Q1012', 'GBYD 060600Z 00000KT 9000 NSC 21/09 Q1012', 'GBYD 060500Z 35004KT 9000 NSC 21/10 Q1012', 'GBYD 060400Z 00000KT 9000 NSC 22/11 Q1012', 'GBYD 060300Z 36007KT 9000 NSC 23/12 Q1012', 'GBYD 060300Z 36007KT 9000 NSC 23/12 Q1012', 'GBYD 060200Z 36008KT 9000 NSC 25/13 Q1012', 'GBYD 060200Z 36008KT 9000 NSC 25/13 Q1012', 'GBYD 060100Z 02005KT 9000 25/12 Q1013', 'GBYD 060000Z 35005KT 9000 NSC 25/13 Q1013', 'GBYD 052300Z 35005KT 9000 NSC 26/13 Q1013', 'GBYD 052200Z 36007KT 9000 NSC 26/16 Q1013', 'GBYD 052200Z 36007KT 9000 NSC 26/16 Q1013', 'GBYD 052100Z 36008KT 9000 NSC 28/08 Q1012']","['2024-02-08 20:00:00', '2024-02-08 19:00:00', '2024-02-08 18:00:00', '2024-02-08 17:00:00', '2024-02-08 16:00:00', '2024-02-08 15:00:00', '2024-02-08 14:00:00', '2024-02-08 13:00:00', '2024-02-08 12:58:00', '2024-02-08 12:00:00', '2024-02-08 11:00:00', '2024-02-08 10:00:00', '2024-02-08 09:08:00', '2024-02-08 08:00:00', '2024-02-08 07:57:00', '2024-02-08 07:00:00', '2024-02-08 06:57:00', '2024-02-08 06:00:00', '2024-02-08 05:56:00', '2024-02-08 05:00:00', '2024-02-08 04:53:00', '2024-02-08 04:00:00', '2024-02-08 03:00:00', '2024-02-08 02:00:00', '2024-02-08 01:57:00', '2024-02-08 01:00:00', '2024-02-08 00:55:00', '2024-02-08 00:00:00', '2024-02-07 23:55:00', '2024-02-07 23:00:00', '2024-02-07 22:56:00', '2024-02-07 22:00:00', '2024-02-07 21:58:00', '2024-02-07 21:00:00', '2024-02-07 20:59:00', '2024-02-07 20:00:00', '2024-02-07 19:00:00', '2024-02-07 18:00:00', '2024-02-07 17:00:00', '2024-02-07 16:00:00', '2024-02-07 15:00:00', '2024-02-07 14:00:00', '2024-02-07 13:00:00', '2024-02-07 12:00:00', '2024-02-07 11:00:00', '2024-02-07 10:00:00', '2024-02-07 09:00:00', '2024-02-07 08:00:00', '2024-02-07 07:54:00', '2024-02-07 07:00:00', '2024-02-07 06:00:00', '2024-02-07 05:56:00', '2024-02-07 05:00:00', '2024-02-07 04:53:00', '2024-02-07 04:00:00', '2024-02-07 03:55:00', '2024-02-07 03:00:00', '2024-02-07 02:58:00', '2024-02-07 02:00:00', '2024-02-07 01:47:00', '2024-02-07 01:00:00', '2024-02-07 00:56:00', '2024-02-07 00:00:00', '2024-02-06 23:50:00', '2024-02-06 23:00:00', '2024-02-06 22:56:00', '2024-02-06 22:00:00', '2024-02-06 21:00:00', '2024-02-06 20:00:00', '2024-02-06 19:00:00', '2024-02-06 18:54:00', '2024-02-06 18:00:00', '2024-02-06 17:56:00', '2024-02-06 17:00:00', '2024-02-06 16:53:00', '2024-02-06 16:00:00', '2024-02-06 15:59:00', '2024-02-06 15:00:00', '2024-02-06 14:57:00', '2024-02-06 14:00:00', '2024-02-06 13:00:00', '2024-02-06 12:00:00', '2024-02-06 11:00:00', '2024-02-06 10:00:00', '2024-02-06 09:00:00', '2024-02-06 08:00:00', '2024-02-06 07:00:00', '2024-02-06 06:00:00', '2024-02-06 05:00:00', '2024-02-06 04:00:00', '2024-02-06 03:00:00', '2024-02-06 02:59:00', '2024-02-06 02:00:00', '2024-02-06 01:53:00', '2024-02-06 01:00:00', '2024-02-06 00:00:00', '2024-02-05 23:00:00', '2024-02-05 22:00:00', '2024-02-05 21:57:00', '2024-02-05 21:00:00']"
Georgia, Batumi International Airport (BUS/UGSB) ,"['UGSB 082000Z 13017KT 9999 BKN110 13/04 Q1014 NOSIG', 'UGSB 081930Z 13017KT 9999 BKN120 13/05 Q1015 NOSIG', 'UGSB 081900Z 13017KT 9999 BKN100 13/05 Q1015 NOSIG', 'UGSB 081830Z 14014KT CAVOK 13/05 Q1015 NOSIG', 'UGSB 081800Z 13014KT CAVOK 13/05 Q1015 NOSIG', 'UGSB 081730Z 13015KT CAVOK 13/05 Q1015 NOSIG', 'UGSB 081700Z 13014KT CAVOK 13/05 Q1015 NOSIG', 'UGSB 081630Z 12013KT CAVOK 14/05 Q1015 NOSIG', 'UGSB 081600Z 12009KT CAVOK 12/06 Q1015 NOSIG', 'UGSB 081530Z 00000KT CAVOK 13/05 Q1015 NOSIG', 'UGSB 081500Z 00000KT CAVOK 14/06 Q1015 NOSIG', 'UGSB 081430Z 00000KT CAVOK 15/07 Q1014 NOSIG', 'UGSB 081400Z 00000KT CAVOK 16/07 Q1015 NOSIG', 'UGSB 081330Z VRB02KT CAVOK 16/07 Q1015 NOSIG', 'UGSB 081300Z 34006KT 320V030 CAVOK 17/06 Q1015 NOSIG', 'UGSB 081230Z 34006KT CAVOK 17/06 Q1014 NOSIG', 'UGSB 081200Z 31005KT CAVOK 17/07 Q1014 NOSIG', 'UGSB 081130Z 13004KT 100V160 CAVOK 21/03 Q1014 NOSIG', 'UGSB 081100Z 12005KT 090V160 CAVOK 20/03 Q1015 NOSIG', 'UGSB 081030Z 14007KT CAVOK 19/04 Q1015 NOSIG', 'UGSB 081000Z 13009KT CAVOK 19/05 Q1015 NOSIG', 'UGSB 080930Z 13014KT CAVOK 17/05 Q1015 NOSIG', 'UGSB 080900Z 14015KT CAVOK 17/04 Q1016 NOSIG', 'UGSB 080830Z 13017KT CAVOK 16/04 Q1015 NOSIG', 'UGSB 080800Z 12018KT CAVOK 15/04 Q1015 NOSIG', 'UGSB 080730Z 13021KT CAVOK 14/04 Q1015 NOSIG', 'UGSB 080700Z 13022KT CAVOK 14/04 Q1015 NOSIG', 'UGSB 080630Z 13023G33KT CAVOK 13/03 Q1015 NOSIG', 'UGSB 080600Z 13022KT CAVOK 12/03 Q1015 NOSIG', 'UGSB 080530Z 13024KT CAVOK 11/03 Q1015 NOSIG', 'UGSB 080500Z 13022G32KT CAVOK 10/03 Q1014 NOSIG', 'UGSB 080430Z 13024KT CAVOK 11/03 Q1014 NOSIG', 'UGSB 080400Z 13022KT CAVOK 10/03 Q1014 NOSIG', 'UGSB 080330Z 13023KT CAVOK 10/03 Q1014 NOSIG', 'UGSB 080300Z 13024KT CAVOK 10/03 Q1014 NOSIG', 'UGSB 080230Z 13025KT CAVOK 10/03 Q1014 NOSIG', 'UGSB 080200Z 13026KT CAVOK 10/03 Q1014 NOSIG', 'UGSB 080130Z 13024KT CAVOK 10/04 Q1014 NOSIG', 'UGSB 080100Z 13024KT CAVOK 10/03 Q1014 NOSIG', 'UGSB 080030Z AUTO 13026KT CAVOK 10/04 Q1014 NOSIG', 'UGSB 080000Z AUTO 13025KT CAVOK 10/04 Q1014 NOSIG', 'UGSB 072330Z AUTO 13025KT 9999 FEW120 10/04 Q1015 NOSIG', 'UGSB 072300Z 13026KT CAVOK 11/04 Q1015 NOSIG', 'UGSB 072230Z 13025KT CAVOK 11/04 Q1015 NOSIG', 'UGSB 072200Z 13024KT CAVOK 11/04 Q1015 NOSIG', 'UGSB 072130Z 13022KT CAVOK 11/04 Q1015 NOSIG', 'UGSB 072100Z 13023KT CAVOK 11/04 Q1015 NOSIG', 'UGSB 072030Z 13024KT CAVOK 11/04 Q1015 NOSIG', 'UGSB 072000Z 13022KT CAVOK 11/04 Q1015 NOSIG', 'UGSB 071930Z 13022KT CAVOK 11/05 Q1015 NOSIG', 'UGSB 071900Z 13021KT CAVOK 12/05 Q1015 NOSIG', 'UGSB 071830Z 13022KT CAVOK 12/05 Q1015 NOSIG', 'UGSB 071800Z 13020KT CAVOK 12/05 Q1015 NOSIG', 'UGSB 071730Z 13021KT CAVOK 13/05 Q1015 NOSIG', 'UGSB 071700Z 13019KT CAVOK 12/06 Q1015 NOSIG', 'UGSB 071630Z 13018KT CAVOK 13/06 Q1015 NOSIG', 'UGSB 071600Z 13017KT CAVOK 13/07 Q1015 NOSIG', 'UGSB 071530Z 13014KT CAVOK 14/06 Q1015 NOSIG', 'UGSB 071500Z 12013KT CAVOK 14/07 Q1014 NOSIG', 'UGSB 071430Z 12012KT CAVOK 15/07 Q1014 NOSIG', 'UGSB 071400Z 13010KT CAVOK 17/07 Q1014 NOSIG', 'UGSB 071330Z 12006KT CAVOK 17/07 Q1015 NOSIG', 'UGSB 071300Z 00000KT CAVOK 16/10 Q1015 NOSIG', 'UGSB 071230Z 36004KT 320V040 CAVOK 15/09 Q1015 NOSIG', 'UGSB 071200Z 13011KT CAVOK 18/08 Q1015 NOSIG', 'UGSB 071130Z 12012KT CAVOK 18/07 Q1015 NOSIG', 'UGSB 071100Z 13012KT CAVOK 17/07 Q1015 NOSIG', 'UGSB 071030Z 12013KT CAVOK 17/07 Q1015 NOSIG', 'UGSB 071000Z 12016KT CAVOK 16/07 Q1016 NOSIG', 'UGSB 070930Z 12017KT CAVOK 16/08 Q1016 NOSIG', 'UGSB 070900Z 13018KT CAVOK 15/07 Q1017 NOSIG', 'UGSB 070830Z 13019KT CAVOK 14/07 Q1017 NOSIG', 'UGSB 070800Z 12020KT CAVOK 13/07 Q1017 NOSIG', 'UGSB 070730Z 13019KT CAVOK 13/06 Q1017 NOSIG', 'UGSB 070700Z 13021KT CAVOK 12/06 Q1018 NOSIG', 'UGSB 070630Z 13019KT CAVOK 11/06 Q1018 NOSIG', 'UGSB 070600Z 13018KT CAVOK 10/06 Q1018 NOSIG', 'UGSB 070530Z 13018KT CAVOK 10/06 Q1018 NOSIG', 'UGSB 070500Z 13015KT CAVOK 10/06 Q1018 NOSIG', 'UGSB 070430Z 13015KT 9999 SCT082 09/06 Q1018 NOSIG', 'UGSB 070400Z 13014KT 9999 BKN080 10/06 Q1018 NOSIG', 'UGSB 070330Z 14011KT 9999 BKN083 10/06 Q1018 NOSIG', 'UGSB 070300Z 14011KT 9999 OVC084 10/06 Q1018 NOSIG', 'UGSB 070230Z 14012KT 9999 OVC085 10/06 Q1018 NOSIG', 'UGSB 070200Z 14011KT 9999 OVC080 10/06 Q1018 NOSIG', 'UGSB 070130Z 13012KT 9999 OVC080 11/06 Q1018 NOSIG', 'UGSB 070100Z 13012KT 9999 OVC081 11/06 Q1018 NOSIG', 'UGSB 070030Z 13012KT 9999 OVC081 11/07 Q1018 NOSIG', 'UGSB 070000Z 14011KT 9999 OVC079 10/07 Q1018 NOSIG', 'UGSB 062330Z 13011KT 9999 FEW028 BKN076 11/07 Q1018 NOSIG', 'UGSB 062300Z 17005KT 130V230 9999 FEW028 BKN080 12/07 Q1019 NOSIG', 'UGSB 062230Z 18006KT 090V230 9999 FEW028 BKN078 12/07 Q1019 NOSIG', 'UGSB 062200Z 23007KT 9999 FEW030 BKN078 13/08 Q1019 NOSIG', 'UGSB 062130Z 22009KT 180V260 9999 FEW030 BKN062 13/07 Q1019 NOSIG', 'UGSB 062100Z 21006KT 160V240 9999 SCT030 BKN061 13/07 Q1019 NOSIG', 'UGSB 062030Z 23012KT 9999 SCT030 BKN060 12/08 Q1018 NOSIG', 'UGSB 062000Z 23013KT 9999 -RA SCT030 BKN055 12/08 Q1019 NOSIG', 'UGSB 061930Z 23016KT 9999 -RA BKN040 12/08 Q1019 NOSIG', 'UGSB 061900Z 22015KT 9999 -RA SCT025 BKN060 12/08 Q1018 NOSIG', 'UGSB 061830Z 22015KT 9999 SCT026 BKN060 12/08 Q1018 NOSIG', 'UGSB 061800Z 22016KT 9999 -RA SCT026 BKN055 12/09 Q1018 NOSIG', 'UGSB 061730Z 21014KT 9999 -RA SCT025 BKN050 11/09 Q1017 NOSIG', 'UGSB 061700Z 22015KT 9999 -RA SCT024 BKN048 11/09 Q1017 NOSIG', 'UGSB 061630Z 22016KT 9999 -RA SCT024 BKN042 11/09 Q1017 NOSIG', 'UGSB 061600Z 22016KT 9999 -RA SCT023 BKN038 10/10 Q1017 NOSIG', 'UGSB 061530Z 22016KT 9999 -RA SCT020 BKN035 10/10 Q1017 NOSIG', 'UGSB 061500Z 21014KT 9999 -RA SCT023 BKN038 10/09 Q1016 NOSIG', 'UGSB 061430Z 21010KT 170V230 6000 -SHRA BKN021CB 10/09 Q1016 NOSIG', 'UGSB 061400Z 19006KT 160V220 7000 -SHRA BKN023CB 09/09 Q1016 NOSIG', 'UGSB 061330Z 20009KT 170V230 6000 -RA SCT010 BKN042 09/08 Q1016 NOSIG', 'UGSB 061300Z 21014KT 9000 -RA SCT010 BKN046 09/09 Q1016 NOSIG', 'UGSB 061230Z 22015KT 9999 -RA FEW010 BKN028 10/10 Q1016 NOSIG', 'UGSB 061200Z 24017KT 9999 -SHRA SCT010 BKN023CB 10/10 Q1015 NOSIG', 'UGSB 061130Z 24015KT 7000 -SHRA SCT010 BKN026CB 10/10 Q1015 NOSIG', 'UGSB 061100Z 24013KT 9999 -SHRA SCT013 BKN025CB 10/10 Q1015 NOSIG', 'UGSB 061030Z 25016KT 9999 -RA FEW016 BKN026 10/09 Q1015 NOSIG', 'UGSB 061000Z 25017KT 9999 -RA FEW016 BKN024 11/10 Q1014 NOSIG', 'UGSB 060930Z 25016KT 9000 -RA FEW016 BKN028 11/10 Q1014 NOSIG', 'UGSB 060900Z 24017KT 9999 -RA FEW013 BKN024 11/11 Q1014 NOSIG', 'UGSB 060830Z 25017KT 9999 FEW014 BKN024 11/11 Q1014 NOSIG', 'UGSB 060800Z 25020KT 9999 -RA FEW016 BKN024 11/10 Q1013 NOSIG', 'UGSB 060730Z 25018KT 8000 -RA FEW016 BKN022 11/11 Q1012 NOSIG', 'UGSB 060700Z 26017KT 7000 -RA FEW016 BKN023 11/11 Q1012 NOSIG', 'UGSB 060630Z 26019KT 7000 -RA SCT030 OVC044 11/10 Q1012 NOSIG', 'UGSB 060600Z 26019KT 8000 -RA SCT033 OVC044 11/10 Q1012 NOSIG', 'UGSB 060530Z 27020KT 9000 -SHRA SCT027CB OVC042 11/09 Q1012 NOSIG', 'UGSB 060500Z 27022KT 6000 SHRA BKN029CB OVC041 11/10 Q1012 NOSIG', 'UGSB 060430Z 27017KT 9999 -SHRA SCT029CB OVC052 11/10 Q1011 NOSIG', 'UGSB 060400Z 28016KT 8000 -RA FEW029 BKN034 11/09 Q1011 NOSIG', 'UGSB 060330Z 26018G29KT 9999 -SHRA SCT026CB OVC043 11/08 Q1011 NOSIG', 'UGSB 060300Z 26018G29KT 9999 -SHRA SCT023CB OVC049 11/08 Q1011 NOSIG', 'UGSB 060230Z 26023G33KT 9999 SCT026CB BKN037 13/06 Q1010 NOSIG', 'UGSB 060200Z 26026G38KT 9999 -SHRA FEW019 BKN026CB 12/06 Q1010 NOSIG', 'UGSB 060130Z 24020KT 9999 -SHRA SCT026CB BKN053 13/06 Q1010 NOSIG', 'UGSB 060100Z 23019KT 9999 -RA SCT033 BKN056 13/05 Q1009 NOSIG', 'UGSB 060030Z 21013KT 180V240 9999 FEW033 BKN053 11/06 Q1010 NOSIG', 'UGSB 060000Z 21013KT 9999 -RA SCT029 BKN053 11/06 Q1010 NOSIG', 'UGSB 052330Z 21011G21KT 180V240 9999 -RA FEW033 OVC052 10/06 Q1011 NOSIG', 'UGSB 052300Z 20012KT 160V230 9999 FEW029 OVC054 10/07 Q1011 NOSIG', 'UGSB 052230Z 24014KT 9999 OVC046 11/07 Q1012 NOSIG', 'UGSB 052200Z 24015KT 9999 -RA FEW023 OVC046 11/07 Q1012 NOSIG', 'UGSB 052130Z 27021KT 9999 -RA SCT023 BKN051 11/07 Q1012 NOSIG', 'UGSB 052100Z AUTO 26017KT 9999 OVC059 12/06 Q1011 NOSIG']","['2024-02-08 20:00:00', '2024-02-08 19:30:00', '2024-02-08 19:00:00', '2024-02-08 18:30:00', '2024-02-08 18:00:00', '2024-02-08 17:30:00', '2024-02-08 17:00:00', '2024-02-08 16:30:00', '2024-02-08 16:00:00', '2024-02-08 15:30:00', '2024-02-08 15:00:00', '2024-02-08 14:30:00', '2024-02-08 14:00:00', '2024-02-08 13:30:00', '2024-02-08 13:00:00', '2024-02-08 12:30:00', '2024-02-08 12:00:00', '2024-02-08 11:30:00', '2024-02-08 11:00:00', '2024-02-08 10:30:00', '2024-02-08 10:00:00', '2024-02-08 09:30:00', '2024-02-08 09:00:00', '2024-02-08 08:30:00', '2024-02-08 08:00:00', '2024-02-08 07:30:00', '2024-02-08 07:00:00', '2024-02-08 06:30:00', '2024-02-08 06:00:00', '2024-02-08 05:30:00', '2024-02-08 05:00:00', '2024-02-08 04:30:00', '2024-02-08 04:00:00', '2024-02-08 03:30:00', '2024-02-08 03:00:00', '2024-02-08 02:30:00', '2024-02-08 02:00:00', '2024-02-08 01:30:00', '2024-02-08 01:00:00', '2024-02-08 00:30:00', '2024-02-08 00:00:00', '2024-02-07 23:30:00', '2024-02-07 23:00:00', '2024-02-07 22:30:00', '2024-02-07 22:00:00', '2024-02-07 21:30:00', '2024-02-07 21:00:00', '2024-02-07 20:30:00', '2024-02-07 20:00:00', '2024-02-07 19:30:00', '2024-02-07 19:00:00', '2024-02-07 18:30:00', '2024-02-07 18:00:00', '2024-02-07 17:30:00', '2024-02-07 17:00:00', '2024-02-07 16:30:00', '2024-02-07 16:00:00', '2024-02-07 15:30:00', '2024-02-07 15:00:00', '2024-02-07 14:30:00', '2024-02-07 14:00:00', '2024-02-07 13:30:00', '2024-02-07 13:00:00', '2024-02-07 12:30:00', '2024-02-07 12:00:00', '2024-02-07 11:30:00', '2024-02-07 11:00:00', '2024-02-07 10:30:00', '2024-02-07 10:00:00', '2024-02-07 09:30:00', '2024-02-07 09:00:00', '2024-02-07 08:30:00', '2024-02-07 08:00:00', '2024-02-07 07:30:00', '2024-02-07 07:00:00', '2024-02-07 06:30:00', '2024-02-07 06:00:00', '2024-02-07 05:30:00', '2024-02-07 05:00:00', '2024-02-07 04:30:00', '2024-02-07 04:00:00', '2024-02-07 03:30:00', '2024-02-07 03:00:00', '2024-02-07 02:30:00', '2024-02-07 02:00:00', '2024-02-07 01:30:00', '2024-02-07 01:00:00', '2024-02-07 00:30:00', '2024-02-07 00:00:00', '2024-02-06 23:30:00', '2024-02-06 23:00:00', '2024-02-06 22:30:00', '2024-02-06 22:00:00', '2024-02-06 21:30:00', '2024-02-06 21:00:00', '2024-02-06 20:30:00', '2024-02-06 20:00:00', '2024-02-06 19:30:00', '2024-02-06 19:00:00', '2024-02-06 18:30:00', '2024-02-06 18:00:00', '2024-02-06 17:30:00', '2024-02-06 17:00:00', '2024-02-06 16:30:00', '2024-02-06 16:00:00', '2024-02-06 15:30:00', '2024-02-06 15:00:00', '2024-02-06 14:30:00', '2024-02-06 14:00:00', '2024-02-06 13:30:00', '2024-02-06 13:00:00', '2024-02-06 12:30:00', '2024-02-06 12:00:00', '2024-02-06 11:30:00', '2024-02-06 11:00:00', '2024-02-06 10:30:00', '2024-02-06 10:00:00', '2024-02-06 09:30:00', '2024-02-06 09:00:00', '2024-02-06 08:30:00', '2024-02-06 08:00:00', '2024-02-06 07:30:00', '2024-02-06 07:00:00', '2024-02-06 06:30:00', '2024-02-06 06:00:00', '2024-02-06 05:30:00', '2024-02-06 05:00:00', '2024-02-06 04:30:00', '2024-02-06 04:00:00', '2024-02-06 03:30:00', '2024-02-06 03:00:00', '2024-02-06 02:30:00', '2024-02-06 02:00:00', '2024-02-06 01:30:00', '2024-02-06 01:00:00', '2024-02-06 00:30:00', '2024-02-06 00:00:00', '2024-02-05 23:30:00', '2024-02-05 23:00:00', '2024-02-05 22:30:00', '2024-02-05 22:00:00', '2024-02-05 21:30:00', '2024-02-05 21:00:00']"
Georgia, Kutaisi International Airport (KUT/UGKO) ,"['UGKO 082000Z VRB02KT CAVOK 10/05 Q1014 NOSIG', 'UGKO 081930Z AUTO 06003KT 040V100 9999 FEW039/// 11/05 Q1014 NOSIG', 'UGKO 081900Z 08004KT 9999 BKN083 10/05 Q1014 NOSIG', 'UGKO 081830Z 06004KT 9999 BKN080 10/05 Q1014 NOSIG', 'UGKO 081800Z 05005KT 9999 BKN084 09/05 Q1014 NOSIG', 'UGKO 081730Z 07003KT CAVOK 11/04 Q1014 NOSIG', 'UGKO 081700Z 12003KT CAVOK 11/04 Q1015 NOSIG', 'UGKO 081630Z 06005KT 9999 BKN082 11/04 Q1015 NOSIG', 'UGKO 081600Z 07004KT CAVOK 11/04 Q1015 NOSIG', 'UGKO 081530Z 04004KT CAVOK 12/05 Q1015 NOSIG', 'UGKO 081500Z 06003KT 9999 BKN078 13/05 Q1014 NOSIG', 'UGKO 081430Z 07004KT 9999 BKN084 14/04 Q1014 NOSIG', 'UGKO 081400Z 06005KT 9999 BKN082 14/06 Q1014 NOSIG', 'UGKO 081330Z 09004KT 9999 BKN084 15/06 Q1014 NOSIG', 'UGKO 081300Z 12003KT 9999 BKN082 16/07 Q1014 NOSIG', 'UGKO 081230Z 14003KT 9999 BKN076 16/06 Q1014 NOSIG', 'UGKO 081200Z 13004KT 090V160 9999 BKN083 17/07 Q1014 NOSIG', 'UGKO 081130Z 09003KT 040V170 9999 BKN087 17/05 Q1014 NOSIG', 'UGKO 081100Z VRB02KT 9999 BKN085 17/04 Q1015 NOSIG', 'UGKO 081030Z 11005KT 9999 BKN081 17/05 Q1015 NOSIG', 'UGKO 081000Z 09005KT 9999 BKN083 17/04 Q1015 NOSIG', 'UGKO 080930Z 10007KT 9999 BKN084 17/03 Q1015 NOSIG', 'UGKO 080900Z 10007KT 070V130 9999 BKN082 16/04 Q1015 NOSIG', 'UGKO 080830Z 11007KT 070V130 CAVOK 15/04 Q1015 NOSIG', 'UGKO 080800Z 09010KT CAVOK 14/04 Q1015 NOSIG', 'UGKO 080730Z 09010KT CAVOK 13/04 Q1015 NOSIG', 'UGKO 080700Z 10008KT CAVOK 12/04 Q1015 NOSIG', 'UGKO 080630Z 08009KT CAVOK 11/04 Q1015 NOSIG', 'UGKO 080600Z 08010KT CAVOK 10/03 Q1015 NOSIG', 'UGKO 080530Z 08009KT CAVOK 08/03 Q1015 NOSIG', 'UGKO 080500Z 09007KT CAVOK 06/02 Q1015 NOSIG', 'UGKO 080430Z 09005KT CAVOK 05/02 Q1015 NOSIG', 'UGKO 080400Z 09007KT CAVOK 05/02 Q1015 NOSIG', 'UGKO 080330Z 08006KT CAVOK 05/02 Q1015 NOSIG', 'UGKO 080300Z 09007KT CAVOK 05/02 Q1015 NOSIG', 'UGKO 080230Z VRB02KT CAVOK 06/02 Q1015 NOSIG', 'UGKO 080200Z 08007KT CAVOK 06/02 Q1015 NOSIG', 'UGKO 080130Z 08007KT 9999 FEW100 06/03 Q1015 NOSIG', 'UGKO 080100Z 06008KT CAVOK 06/03 Q1015 NOSIG', 'UGKO 080030Z 09005KT 060V130 CAVOK 06/03 Q1015 NOSIG', 'UGKO 080000Z AUTO 08006KT 9999 SCT110/// 06/04 Q1015 NOSIG', 'UGKO 072330Z 08007KT CAVOK 06/04 Q1016 NOSIG', 'UGKO 072300Z 09007KT CAVOK 05/04 Q1016 NOSIG', 'UGKO 072230Z 09007KT CAVOK 05/04 Q1016 NOSIG', 'UGKO 072200Z 10007KT CAVOK 06/04 Q1016 NOSIG', 'UGKO 072130Z VRB02KT CAVOK 07/04 Q1016 NOSIG', 'UGKO 072100Z 08007KT CAVOK 07/04 Q1016 NOSIG', 'UGKO 072030Z 07007KT CAVOK 07/05 Q1015 NOSIG', 'UGKO 072000Z 08007KT CAVOK 08/05 Q1015 NOSIG', 'UGKO 071930Z 07007KT CAVOK 08/05 Q1015 NOSIG', 'UGKO 071900Z 08008KT CAVOK 08/06 Q1015 NOSIG', 'UGKO 071830Z 06007KT CAVOK 09/06 Q1015 NOSIG', 'UGKO 071800Z 07010KT CAVOK 08/06 Q1015 NOSIG', 'UGKO 071730Z 08007KT CAVOK 08/05 Q1015 NOSIG', 'UGKO 071700Z VRB02KT CAVOK 08/06 Q1015 NOSIG', 'UGKO 071630Z 06005KT CAVOK 09/06 Q1015 NOSIG', 'UGKO 071600Z 06007KT CAVOK 09/06 Q1015 NOSIG', 'UGKO 071530Z VRB02KT CAVOK 09/05 Q1015 NOSIG', 'UGKO 071500Z 06005KT CAVOK 11/06 Q1015 NOSIG', 'UGKO 071430Z VRB02KT CAVOK 13/07 Q1015 NOSIG', 'UGKO 071400Z VRB02KT CAVOK 14/07 Q1015 NOSIG', 'UGKO 071330Z 09007KT CAVOK 14/07 Q1015 NOSIG', 'UGKO 071300Z 09007KT 060V120 CAVOK 15/07 Q1015 NOSIG', 'UGKO 071230Z 09007KT CAVOK 15/06 Q1015 NOSIG', 'UGKO 071200Z 10005KT 060V170 CAVOK 15/07 Q1015 NOSIG', 'UGKO 071130Z 11005KT 080V150 9999 SCT080 15/07 Q1015 NOSIG', 'UGKO 071100Z 10005KT 050V120 9999 SCT081 15/08 Q1015 NOSIG', 'UGKO 071030Z VRB02KT 9999 SCT080 15/06 Q1016 NOSIG', 'UGKO 071000Z VRB02KT 9999 SCT084 15/07 Q1016 NOSIG', 'UGKO 070930Z 15005KT 100V190 9999 BKN083 14/07 Q1017 NOSIG', 'UGKO 070900Z VRB02KT 9999 BKN085 13/08 Q1017 NOSIG', 'UGKO 070830Z VRB02KT 9999 BKN077 13/08 Q1017 NOSIG', 'UGKO 070800Z 15003KT 110V180 9999 BKN078 12/08 Q1017 NOSIG', 'UGKO 070730Z 15005KT 9999 BKN078 11/09 Q1018 NOSIG', 'UGKO 070700Z 18004KT 150V210 9999 BKN074 10/09 Q1018 NOSIG', 'UGKO 070630Z 18005KT 9999 BKN070 09/08 Q1018 NOSIG', 'UGKO 070600Z 18005KT 9999 BKN075 09/08 Q1018 NOSIG', 'UGKO 070530Z VRB02KT 9999 SCT078 08/08 Q1018 NOSIG', 'UGKO 070500Z VRB02KT 9999 SCT078 07/07 Q1018 NOSIG', 'UGKO 070430Z VRB02KT 9999 SCT039 08/07 Q1017 NOSIG', 'UGKO 070400Z VRB02KT 9999 SCT037 08/07 Q1017 NOSIG', 'UGKO 070330Z VRB02KT 9999 SCT036 08/07 Q1017 NOSIG', 'UGKO 070300Z 32008KT 300V360 9999 BKN078 08/07 Q1017 NOSIG', 'UGKO 070230Z 32010KT 9999 BKN087 09/07 Q1016 NOSIG', 'UGKO 070200Z 32011KT 9999 BKN084 09/07 Q1016 NOSIG', 'UGKO 070130Z 32010KT 9999 BKN049 09/08 Q1016 NOSIG', 'UGKO 070100Z 31010KT 9999 BKN040 09/08 Q1016 NOSIG', 'UGKO 070030Z 31010KT 9999 BKN044 09/08 Q1016 NOSIG', 'UGKO 070000Z 28012KT 250V310 9999 -RA BKN045 10/08 Q1016 NOSIG', 'UGKO 062330Z 28018KT 9999 -RA OVC046 10/08 Q1016 NOSIG', 'UGKO 062300Z 26015KT 9999 -RA SCT024 OVC050 10/08 Q1016 NOSIG', 'UGKO 062230Z 26020KT 9999 -RA SCT034 OVC054 10/08 Q1016 NOSIG', 'UGKO 062200Z 25020G30KT 9999 -RA BKN035 OVC050 10/08 Q1015 NOSIG', 'UGKO 062130Z 25024G36KT 8000 -RA BKN032 OVC043 09/08 Q1015 NOSIG', 'UGKO 062100Z 25025G39KT 8000 RA BKN031 OVC050 09/08 Q1015 NOSIG', 'UGKO 062030Z 26026G38KT 9999 -RA SCT012 BKN029 OVC078 10/08 Q1014 NOSIG', 'UGKO 062000Z 28017G28KT 3700 -SHRA BKN015CB 09/09 Q1014 NOSIG', 'UGKO 061930Z 28016KT 3500 SHRA BKN015CB 09/09 Q1014 NOSIG', 'UGKO 061900Z 29016G30KT 260V320 3700 SHRA BKN017CB 08/07 Q1014 NOSIG', 'UGKO 061830Z 29014KT 4500 SHRA BKN017CB 07/07 Q1014 NOSIG', 'UGKO 061800Z 29012KT 7000 SHRA BKN016CB 06/06 Q1014 NOSIG', 'UGKO 061730Z 30011KT 9999 -SHRA SCT010 BKN015CB OVC061 06/06 Q1014 NOSIG', 'UGKO 061700Z 31012KT 9999 -SHRA SCT012 BKN015CB OVC054 06/06 Q1014 NOSIG', 'UGKO 061630Z 30012KT 5000 SHRA SCT012 BKN020CB OVC059 06/06 Q1014 NOSIG', 'UGKO 061600Z 28011KT 5000 SHRA SCT012 BKN019CB OVC059 06/06 Q1014 NOSIG', 'UGKO 061530Z 30012KT 7000 -SHRA SCT005 BKN015CB OVC021 07/07 Q1013 NOSIG', 'UGKO 061500Z 28014KT 9999 RA SCT022 OVC037 07/07 Q1013 NOSIG', 'UGKO 061430Z 27013KT 9999 RA SCT019 OVC040 07/07 Q1012 NOSIG', 'UGKO 061400Z 28015KT 9999 -RA SCT021 OVC042 08/07 Q1012 NOSIG', 'UGKO 061330Z 27016KT 9999 -SHRA SCT010 BKN015CB OVC035 08/07 Q1012 NOSIG', 'UGKO 061300Z 27017KT 9999 -SHRA SCT013 BKN017CB OVC039 08/07 Q1012 NOSIG', 'UGKO 061230Z 27019KT 9999 -SHRA SCT012 BKN017CB OVC030 08/07 Q1011 NOSIG', 'UGKO 061200Z 27025KT 8000 -RA SCT030 OVC065 08/06 Q1011 NOSIG', 'UGKO 061130Z 26020KT 8000 -RA SCT011 OVC035 08/07 Q1011 NOSIG', 'UGKO 061100Z 26021KT 9999 -SHRA SCT015CB OVC035 08/07 Q1011 NOSIG', 'UGKO 061030Z 27019KT 9999 -SHRA SCT024CB OVC035 09/07 Q1010 NOSIG', 'UGKO 061000Z 27019KT 9999 -SHRA SCT025CB OVC035 09/07 Q1010 NOSIG', 'UGKO 060930Z 27018G28KT 9999 -SHRA SCT037CB OVC096 08/06 Q1010 NOSIG', 'UGKO 060900Z 26019KT 9000 -SHRA SCT022CB OVC031 08/06 Q1010 NOSIG', 'UGKO 060830Z 26019KT 9999 -SHRA SCT028CB OVC035 08/06 Q1010 NOSIG', 'UGKO 060800Z 26019G31KT 9999 -SHRA SCT020CB OVC042 08/06 Q1009 NOSIG', 'UGKO 060730Z 26018G29KT 9999 -SHRA SCT019CB OVC041 08/06 Q1009 NOSIG', 'UGKO 060700Z 26020KT 9999 -SHRA SCT025CB OVC065 08/06 Q1008 NOSIG', 'UGKO 060630Z 27022G32KT 9999 SCT015CB OVC028 08/06 Q1008 NOSIG', 'UGKO 060600Z 27023G35KT 9999 -SHRA SCT015CB OVC018 08/06 Q1008 NOSIG', 'UGKO 060530Z 28021KT 9999 SHRA SCT011 BKN018CB OVC050 07/06 Q1007 NOSIG', 'UGKO 060500Z 28024G35KT 2200 SHRA SCT008 BKN016CB OVC046 07/06 Q1007 NOSIG', 'UGKO 060430Z 27024G36KT 9999 SCT008 BKN015CB OVC038 09/08 Q1006 NOSIG', 'UGKO 060400Z 26028G41KT 4200 SHRA SCT008 BKN017CB OVC050 09/08 Q1005 NOSIG', 'UGKO 060330Z 26026G38KT 9999 -SHRA SCT016 BKN026CB OVC060 09/08 Q1005 NOSIG', 'UGKO 060300Z 26032G46KT 8000 -SHRA SCT018 BKN028CB OVC038 09/08 Q1004 NOSIG', 'UGKO 060230Z 25037G55KT 9999 SCT024 BKN027CB OVC032 10/07 Q1004 NOSIG', 'UGKO 060200Z 25033G51KT 2300 SHRA BKN027CB OVC110 09/07 Q1003 NOSIG', 'UGKO 060130Z 25030G52KT 2900 SHRA BKN028CB OVC100 09/06 Q1004 NOSIG', 'UGKO 060100Z 27022G37KT 4100 -SHRA BKN013CB OVC068 08/07 Q1005 NOSIG', 'UGKO 060030Z 26024G35KT 2600 SHRA SCT006 BKN027CB OVC076 08/07 Q1005 NOSIG', 'UGKO 060000Z 25028G45KT 3300 SHRA BKN025CB OVC098 09/07 Q1005 NOSIG', 'UGKO 052330Z 25024G41KT 9999 -SHRA SCT026CB OVC047 09/06 Q1006 NOSIG', 'UGKO 052300Z 25023G38KT 9999 SCT022 OVC050 09/06 Q1006 NOSIG', 'UGKO 052230Z 24020G31KT 9999 BKN023CB OVC056 08/06 Q1007 NOSIG', 'UGKO 052200Z 25023G37KT 6000 -SHRA BKN023CB OVC058 07/06 Q1007 NOSIG', 'UGKO 052130Z 27019KT 3500 SHRA BKN020CB OVC064 07/06 Q1008 NOSIG', 'UGKO 052100Z 26016KT 4400 SHRA BKN019CB OVC063 07/06 Q1008 NOSIG']","['2024-02-08 20:00:00', '2024-02-08 19:30:00', '2024-02-08 19:00:00', '2024-02-08 18:30:00', '2024-02-08 18:00:00', '2024-02-08 17:30:00', '2024-02-08 17:00:00', '2024-02-08 16:30:00', '2024-02-08 16:00:00', '2024-02-08 15:30:00', '2024-02-08 15:00:00', '2024-02-08 14:30:00', '2024-02-08 14:00:00', '2024-02-08 13:30:00', '2024-02-08 13:00:00', '2024-02-08 12:30:00', '2024-02-08 12:00:00', '2024-02-08 11:30:00', '2024-02-08 11:00:00', '2024-02-08 10:30:00', '2024-02-08 10:00:00', '2024-02-08 09:30:00', '2024-02-08 09:00:00', '2024-02-08 08:30:00', '2024-02-08 08:00:00', '2024-02-08 07:30:00', '2024-02-08 07:00:00', '2024-02-08 06:30:00', '2024-02-08 06:00:00', '2024-02-08 05:30:00', '2024-02-08 05:00:00', '2024-02-08 04:30:00', '2024-02-08 04:00:00', '2024-02-08 03:30:00', '2024-02-08 03:00:00', '2024-02-08 02:30:00', '2024-02-08 02:00:00', '2024-02-08 01:30:00', '2024-02-08 01:00:00', '2024-02-08 00:30:00', '2024-02-08 00:00:00', '2024-02-07 23:30:00', '2024-02-07 23:00:00', '2024-02-07 22:30:00', '2024-02-07 22:00:00', '2024-02-07 21:30:00', '2024-02-07 21:00:00', '2024-02-07 20:30:00', '2024-02-07 20:00:00', '2024-02-07 19:30:00', '2024-02-07 19:00:00', '2024-02-07 18:30:00', '2024-02-07 18:00:00', '2024-02-07 17:30:00', '2024-02-07 17:00:00', '2024-02-07 16:30:00', '2024-02-07 16:00:00', '2024-02-07 15:30:00', '2024-02-07 15:00:00', '2024-02-07 14:30:00', '2024-02-07 14:00:00', '2024-02-07 13:30:00', '2024-02-07 13:00:00', '2024-02-07 12:30:00', '2024-02-07 12:00:00', '2024-02-07 11:30:00', '2024-02-07 11:00:00', '2024-02-07 10:30:00', '2024-02-07 10:00:00', '2024-02-07 09:30:00', '2024-02-07 09:00:00', '2024-02-07 08:30:00', '2024-02-07 08:00:00', '2024-02-07 07:30:00', '2024-02-07 07:00:00', '2024-02-07 06:30:00', '2024-02-07 06:00:00', '2024-02-07 05:30:00', '2024-02-07 05:00:00', '2024-02-07 04:30:00', '2024-02-07 04:00:00', '2024-02-07 03:30:00', '2024-02-07 03:00:00', '2024-02-07 02:30:00', '2024-02-07 02:00:00', '2024-02-07 01:30:00', '2024-02-07 01:00:00', '2024-02-07 00:30:00', '2024-02-07 00:00:00', '2024-02-06 23:30:00', '2024-02-06 23:00:00', '2024-02-06 22:30:00', '2024-02-06 22:00:00', '2024-02-06 21:30:00', '2024-02-06 21:00:00', '2024-02-06 20:30:00', '2024-02-06 20:00:00', '2024-02-06 19:30:00', '2024-02-06 19:00:00', '2024-02-06 18:30:00', '2024-02-06 18:00:00', '2024-02-06 17:30:00', '2024-02-06 17:00:00', '2024-02-06 16:30:00', '2024-02-06 16:00:00', '2024-02-06 15:30:00', '2024-02-06 15:00:00', '2024-02-06 14:30:00', '2024-02-06 14:00:00', '2024-02-06 13:30:00', '2024-02-06 13:00:00', '2024-02-06 12:30:00', '2024-02-06 12:00:00', '2024-02-06 11:30:00', '2024-02-06 11:00:00', '2024-02-06 10:30:00', '2024-02-06 10:00:00', '2024-02-06 09:30:00', '2024-02-06 09:00:00', '2024-02-06 08:30:00', '2024-02-06 08:00:00', '2024-02-06 07:30:00', '2024-02-06 07:00:00', '2024-02-06 06:30:00', '2024-02-06 06:00:00', '2024-02-06 05:30:00', '2024-02-06 05:00:00', '2024-02-06 04:30:00', '2024-02-06 04:00:00', '2024-02-06 03:30:00', '2024-02-06 03:00:00', '2024-02-06 02:30:00', '2024-02-06 02:00:00', '2024-02-06 01:30:00', '2024-02-06 01:00:00', '2024-02-06 00:30:00', '2024-02-06 00:00:00', '2024-02-05 23:30:00', '2024-02-05 23:00:00', '2024-02-05 22:30:00', '2024-02-05 22:00:00', '2024-02-05 21:30:00', '2024-02-05 21:00:00']"
Georgia, Tbilisi International Airport (TBS/UGTB) ,"['UGTB 082000Z 01003KT 270V060 CAVOK 08/01 Q1015 NOSIG', 'UGTB 081930Z 34010KT CAVOK 08/02 Q1015 NOSIG', 'UGTB 081900Z 31011KT CAVOK 07/01 Q1015 NOSIG', 'UGTB 081830Z 33003KT CAVOK 09/01 Q1015 NOSIG', 'UGTB 081800Z 35003KT 330V030 CAVOK 10/01 Q1015 NOSIG', 'UGTB 081730Z 00000KT CAVOK 09/00 Q1015 NOSIG', 'UGTB 081700Z 35001KT CAVOK 10/00 Q1015 NOSIG', 'UGTB 081630Z 05005KT CAVOK 09/01 Q1015 NOSIG', 'UGTB 081600Z 03006KT CAVOK 10/01 Q1015 NOSIG', 'UGTB 081530Z 34006KT CAVOK 10/01 Q1015 NOSIG', 'UGTB 081500Z 35004KT CAVOK 12/01 Q1015 NOSIG', 'UGTB 081430Z 26004KT 210V290 CAVOK 12/01 Q1015 NOSIG', 'UGTB 081400Z 29006KT CAVOK 13/01 Q1015 NOSIG', 'UGTB 081330Z 31008KT CAVOK 14/01 Q1015 NOSIG', 'UGTB 081300Z 29007KT CAVOK 15/02 Q1015 NOSIG', 'UGTB 081230Z 32007KT CAVOK 16/01 Q1015 NOSIG', 'UGTB 081200Z 29005KT CAVOK 16/00 Q1015 NOSIG', 'UGTB 081130Z 27006KT 230V310 CAVOK 17/00 Q1015 NOSIG', 'UGTB 081100Z 27005KT 240V320 CAVOK 17/00 Q1015 NOSIG', 'UGTB 081030Z 30009KT 270V330 CAVOK 15/01 Q1015 NOSIG', 'UGTB 081000Z 31010KT CAVOK 14/01 Q1016 NOSIG', 'UGTB 080930Z 30011KT CAVOK 13/00 Q1016 NOSIG', 'UGTB 080900Z 31011KT CAVOK 13/01 Q1016 NOSIG', 'UGTB 080830Z 32010KT CAVOK 12/00 Q1017 NOSIG', 'UGTB 080800Z 31013KT CAVOK 12/00 Q1017 NOSIG', 'UGTB 080730Z 31014KT CAVOK 10/00 Q1017 NOSIG', 'UGTB 080700Z 30015KT CAVOK 09/00 Q1017 NOSIG', 'UGTB 080630Z 30015KT CAVOK 08/00 Q1017 NOSIG', 'UGTB 080600Z 31014KT CAVOK 07/00 Q1018 NOSIG', 'UGTB 080530Z 31013KT CAVOK 05/01 Q1018 NOSIG', 'UGTB 080500Z 31012KT CAVOK 04/00 Q1018 NOSIG', 'UGTB 080430Z 32012KT CAVOK 03/00 Q1018 NOSIG', 'UGTB 080400Z 31012KT CAVOK 03/00 Q1018 NOSIG', 'UGTB 080330Z 31009KT CAVOK 03/M00 Q1017 NOSIG', 'UGTB 080300Z 31012KT CAVOK 03/00 Q1017 NOSIG', 'UGTB 080230Z 33009KT CAVOK 04/00 Q1017 NOSIG', 'UGTB 080200Z 33009KT CAVOK 04/01 Q1017 NOSIG', 'UGTB 080130Z 31010KT CAVOK 04/01 Q1017 NOSIG', 'UGTB 080100Z 32010KT CAVOK 03/01 Q1017 NOSIG', 'UGTB 080030Z 32009KT CAVOK 04/01 Q1017 NOSIG', 'UGTB 080000Z 33008KT CAVOK 03/01 Q1017 NOSIG', 'UGTB 072330Z 32008KT CAVOK 04/01 Q1017 NOSIG', 'UGTB 072300Z 32009KT CAVOK 05/01 Q1017 NOSIG', 'UGTB 072230Z 34005KT 310V010 CAVOK 04/01 Q1017 NOSIG', 'UGTB 072200Z 33008KT CAVOK 05/01 Q1017 NOSIG', 'UGTB 072130Z 34009KT CAVOK 06/01 Q1017 NOSIG', 'UGTB 072100Z 33004KT 310V020 CAVOK 05/01 Q1017 NOSIG', 'UGTB 072030Z VRB02KT CAVOK 07/02 Q1017 NOSIG', 'UGTB 072000Z 03004KT 350V050 CAVOK 06/02 Q1017 NOSIG', 'UGTB 071930Z 33005KT CAVOK 07/01 Q1016 NOSIG', 'UGTB 071900Z 28006KT CAVOK 08/01 Q1016 NOSIG', 'UGTB 071830Z 26009KT CAVOK 09/01 Q1016 NOSIG', 'UGTB 071800Z 24006KT CAVOK 07/02 Q1016 NOSIG', 'UGTB 071730Z 27008KT 240V300 CAVOK 08/02 Q1016 NOSIG', 'UGTB 071700Z 31012KT CAVOK 09/02 Q1016 NOSIG', 'UGTB 071630Z 32013KT CAVOK 08/02 Q1015 NOSIG', 'UGTB 071600Z 32015KT CAVOK 10/01 Q1016 NOSIG', 'UGTB 071530Z 33016KT CAVOK 10/01 Q1016 NOSIG', 'UGTB 071500Z 33016KT CAVOK 10/02 Q1015 NOSIG', 'UGTB 071430Z 33015KT CAVOK 10/02 Q1015 NOSIG', 'UGTB 071400Z 33015KT CAVOK 11/02 Q1015 NOSIG', 'UGTB 071330Z 31013KT CAVOK 12/02 Q1016 NOSIG', 'UGTB 071300Z 31018KT CAVOK 13/02 Q1015 NOSIG', 'UGTB 071230Z 32019KT CAVOK 13/02 Q1015 NOSIG', 'UGTB 071200Z 31018KT CAVOK 14/02 Q1015 NOSIG', 'UGTB 071130Z 31018KT CAVOK 13/02 Q1015 NOSIG', 'UGTB 071100Z 32021KT CAVOK 14/03 Q1015 NOSIG', 'UGTB 071030Z 32019KT CAVOK 14/03 Q1015 NOSIG', 'UGTB 071000Z 31022KT CAVOK 13/04 Q1016 NOSIG', 'UGTB 070930Z 32020KT CAVOK 11/04 Q1016 NOSIG', 'UGTB 070900Z 32023KT CAVOK 11/03 Q1016 NOSIG', 'UGTB 070830Z 32021KT CAVOK 11/04 Q1016 NOSIG', 'UGTB 070800Z 31020KT CAVOK 10/03 Q1016 NOSIG', 'UGTB 070730Z 31019KT CAVOK 11/03 Q1016 NOSIG', 'UGTB 070700Z 31015G25KT 270V330 9999 SCT067 11/04 Q1016 NOSIG', 'UGTB 070630Z 24006KT 180V320 9999 BKN066 08/04 Q1016 NOSIG', 'UGTB 070600Z VRB05KT 9999 OVC064 08/03 Q1016 NOSIG', 'UGTB 070530Z 12004KT 040V200 9999 OVC064 06/03 Q1016 NOSIG', 'UGTB 070500Z 13006KT 9999 BKN065 04/02 Q1016 NOSIG', 'UGTB 070430Z 14005KT 060V170 9999 BKN061 05/02 Q1015 NOSIG', 'UGTB 070400Z 13008KT 9999 BKN059 OVC067 04/02 Q1015 NOSIG', 'UGTB 070330Z 20010KT 170V240 9999 FEW051 OVC059 05/03 Q1015 NOSIG', 'UGTB 070300Z 21010KT 9999 OVC056 05/03 Q1014 NOSIG', 'UGTB 070230Z 22006KT 200V260 9999 -RA OVC055 06/03 Q1014 NOSIG', 'UGTB 070200Z 24003KT 190V340 9999 OVC060 05/02 Q1014 NOSIG', 'UGTB 070130Z 30015KT 9999 OVC061 07/03 Q1013 NOSIG', 'UGTB 070100Z 27010KT 9999 OVC062 06/03 Q1014 NOSIG', 'UGTB 070030Z 28013KT 9999 OVC065 06/02 Q1013 NOSIG', 'UGTB 070000Z 29016KT 9999 -DZ FEW053 OVC066 06/02 Q1013 NOSIG', 'UGTB 062330Z 30018KT 9999 OVC067 06/02 Q1013 NOSIG', 'UGTB 062300Z 30020KT 9999 BKN060 OVC070 06/02 Q1012 NOSIG', 'UGTB 062230Z 31023G33KT 9999 OVC062 06/02 Q1012 NOSIG', 'UGTB 062200Z 31023G33KT 9999 BKN062 06/02 Q1011 NOSIG', 'UGTB 062130Z 31023KT 9999 BKN061 06/02 Q1011 NOSIG', 'UGTB 062100Z 32020KT 9999 SCT054 05/02 Q1011 NOSIG', 'UGTB 062030Z 30015KT 9999 FEW062 05/02 Q1011 NOSIG', 'UGTB 062000Z 29013KT 9999 FEW046 SCT058 05/02 Q1011 NOSIG', 'UGTB 061930Z 27016KT 9999 FEW060 05/01 Q1011 NOSIG', 'UGTB 061900Z 25015KT 9999 FEW058 04/01 Q1011 NOSIG', 'UGTB 061830Z 24012KT 9999 FEW020 04/01 Q1011 NOSIG', 'UGTB 061800Z 25011KT 9999 FEW020 05/01 Q1010 NOSIG', 'UGTB 061730Z 30019KT CAVOK 05/01 Q1010 NOSIG', 'UGTB 061700Z 30022G34KT CAVOK 06/01 Q1009 NOSIG', 'UGTB 061630Z 32026KT CAVOK 06/01 Q1008 NOSIG', 'UGTB 061600Z 32034G46KT CAVOK 06/01 Q1007 NOSIG', 'UGTB 061530Z 32033G43KT CAVOK 06/01 Q1007 NOSIG', 'UGTB 061500Z 32032KT 9999 FEW070 06/01 Q1007 NOSIG', 'UGTB 061430Z 32031KT 9999 FEW057CB 06/01 Q1006 NOSIG', 'UGTB 061400Z 32028G39KT 9999 FEW059CB BKN067 07/02 Q1006 NOSIG', 'UGTB 061330Z 32031G41KT 9999 BKN065 07/01 Q1006 NOSIG', 'UGTB 061300Z 32031G44KT 9999 BKN070 08/01 Q1006 NOSIG', 'UGTB 061230Z 32032KT CAVOK 08/01 Q1005 NOSIG', 'UGTB 061200Z 32029G40KT 9999 FEW064 08/01 Q1005 NOSIG', 'UGTB 061130Z 32031G42KT CAVOK 09/01 Q1004 NOSIG', 'UGTB 061100Z 32027KT 9999 SCT070 09/01 Q1004 NOSIG', 'UGTB 061030Z 32030G40KT 9999 FEW057 BKN068 09/01 Q1003 NOSIG', 'UGTB 061000Z 32028KT 9999 BKN067 08/01 Q1003 NOSIG', 'UGTB 060930Z 32027G39KT 9999 BKN066 08/02 Q1003 NOSIG', 'UGTB 060900Z 32024G35KT 9999 SCT066 08/02 Q1003 NOSIG', 'UGTB 060830Z 31022KT 9999 FEW045CB SCT062 07/02 Q1003 NOSIG', 'UGTB 060800Z 30014G24KT 9999 SCT063CB 07/03 Q1003 NOSIG', 'UGTB 060730Z 29005KT 9999 SCT045CB BKN063 06/03 Q1003 TEMPO 31020KT', 'UGTB 060700Z 30010KT 9999 -SHRA SCT040CB BKN053 05/03 Q1003 TEMPO 31020KT', 'UGTB 060630Z 33011KT 9999 -SHRA BKN034CB OVC054 05/03 Q1003 TEMPO 31020KT', 'UGTB 060600Z 34009KT 9999 -SHRA FEW037 BKN044CB OVC056 05/03 Q1003 TEMPO 31020KT', 'UGTB 060530Z 34009KT 9999 -SHRA FEW032 SCT036CB OVC044 04/03 Q1002 TEMPO 31020KT', 'UGTB 060500Z 31008KT 7000 -RA BKN034 OVC042 03/03 Q1003 TEMPO 31020KT', 'UGTB 060430Z 30011KT 280V350 9999 -RA SCT033 OVC045 04/02 Q1002 TEMPO 31020KT', 'UGTB 060400Z 20003KT 110V250 9999 -RA SCT053 OVC065 02/01 Q1001 NOSIG', 'UGTB 060330Z VRB04KT 9999 FEW048 BKN063 03/01 Q1001 NOSIG', 'UGTB 060300Z VRB04KT 9999 -RA SCT038 03/01 Q1001 NOSIG', 'UGTB 060230Z VRB02KT 9999 -RA SCT043 BKN056 OVC065 02/01 Q1002 NOSIG', 'UGTB 060200Z 00000KT 9999 FEW060 03/M00 Q1003 NOSIG', 'UGTB 060130Z 22003KT 160V250 CAVOK 03/M01 Q1003 NOSIG', 'UGTB 060100Z 04003KT 290V100 9999 SCT064 03/M00 Q1003 NOSIG', 'UGTB 060030Z 32007KT 9999 OVC064 03/01 Q1004 NOSIG', 'UGTB 060000Z 32007KT 290V360 9999 SCT067 03/01 Q1005 NOSIG', 'UGTB 052330Z 33007KT 9999 FEW061 02/00 Q1005 NOSIG', 'UGTB 052300Z 31008KT CAVOK 01/M01 Q1005 NOSIG', 'UGTB 052230Z 32009KT CAVOK 01/M01 Q1006 NOSIG', 'UGTB 052200Z 32006KT CAVOK 02/M00 Q1006 NOSIG', 'UGTB 052130Z 35005KT CAVOK 02/M00 Q1007 NOSIG', 'UGTB 052100Z 35004KT 290V040 CAVOK 02/M00 Q1007 NOSIG']","['2024-02-08 20:00:00', '2024-02-08 19:30:00', '2024-02-08 19:00:00', '2024-02-08 18:30:00', '2024-02-08 18:00:00', '2024-02-08 17:30:00', '2024-02-08 17:00:00', '2024-02-08 16:30:00', '2024-02-08 16:00:00', '2024-02-08 15:30:00', '2024-02-08 15:00:00', '2024-02-08 14:30:00', '2024-02-08 14:00:00', '2024-02-08 13:30:00', '2024-02-08 13:00:00', '2024-02-08 12:30:00', '2024-02-08 12:00:00', '2024-02-08 11:30:00', '2024-02-08 11:00:00', '2024-02-08 10:30:00', '2024-02-08 10:00:00', '2024-02-08 09:30:00', '2024-02-08 09:00:00', '2024-02-08 08:30:00', '2024-02-08 08:00:00', '2024-02-08 07:30:00', '2024-02-08 07:00:00', '2024-02-08 06:30:00', '2024-02-08 06:00:00', '2024-02-08 05:30:00', '2024-02-08 05:00:00', '2024-02-08 04:30:00', '2024-02-08 04:00:00', '2024-02-08 03:30:00', '2024-02-08 03:00:00', '2024-02-08 02:30:00', '2024-02-08 02:00:00', '2024-02-08 01:30:00', '2024-02-08 01:00:00', '2024-02-08 00:30:00', '2024-02-08 00:00:00', '2024-02-07 23:30:00', '2024-02-07 23:00:00', '2024-02-07 22:30:00', '2024-02-07 22:00:00', '2024-02-07 21:30:00', '2024-02-07 21:00:00', '2024-02-07 20:30:00', '2024-02-07 20:00:00', '2024-02-07 19:30:00', '2024-02-07 19:00:00', '2024-02-07 18:30:00', '2024-02-07 18:00:00', '2024-02-07 17:30:00', '2024-02-07 17:00:00', '2024-02-07 16:30:00', '2024-02-07 16:00:00', '2024-02-07 15:30:00', '2024-02-07 15:00:00', '2024-02-07 14:30:00', '2024-02-07 14:00:00', '2024-02-07 13:30:00', '2024-02-07 13:00:00', '2024-02-07 12:30:00', '2024-02-07 12:00:00', '2024-02-07 11:30:00', '2024-02-07 11:00:00', '2024-02-07 10:30:00', '2024-02-07 10:00:00', '2024-02-07 09:30:00', '2024-02-07 09:00:00', '2024-02-07 08:30:00', '2024-02-07 08:00:00', '2024-02-07 07:30:00', '2024-02-07 07:00:00', '2024-02-07 06:30:00', '2024-02-07 06:00:00', '2024-02-07 05:30:00', '2024-02-07 05:00:00', '2024-02-07 04:30:00', '2024-02-07 04:00:00', '2024-02-07 03:30:00', '2024-02-07 03:00:00', '2024-02-07 02:30:00', '2024-02-07 02:00:00', '2024-02-07 01:30:00', '2024-02-07 01:00:00', '2024-02-07 00:30:00', '2024-02-07 00:00:00', '2024-02-06 23:30:00', '2024-02-06 23:00:00', '2024-02-06 22:30:00', '2024-02-06 22:00:00', '2024-02-06 21:30:00', '2024-02-06 21:00:00', '2024-02-06 20:30:00', '2024-02-06 20:00:00', '2024-02-06 19:30:00', '2024-02-06 19:00:00', '2024-02-06 18:30:00', '2024-02-06 18:00:00', '2024-02-06 17:30:00', '2024-02-06 17:00:00', '2024-02-06 16:30:00', '2024-02-06 16:00:00', '2024-02-06 15:30:00', '2024-02-06 15:00:00', '2024-02-06 14:30:00', '2024-02-06 14:00:00', '2024-02-06 13:30:00', '2024-02-06 13:00:00', '2024-02-06 12:30:00', '2024-02-06 12:00:00', '2024-02-06 11:30:00', '2024-02-06 11:00:00', '2024-02-06 10:30:00', '2024-02-06 10:00:00', '2024-02-06 09:30:00', '2024-02-06 09:00:00', '2024-02-06 08:30:00', '2024-02-06 08:00:00', '2024-02-06 07:30:00', '2024-02-06 07:00:00', '2024-02-06 06:30:00', '2024-02-06 06:00:00', '2024-02-06 05:30:00', '2024-02-06 05:00:00', '2024-02-06 04:30:00', '2024-02-06 04:00:00', '2024-02-06 03:30:00', '2024-02-06 03:00:00', '2024-02-06 02:30:00', '2024-02-06 02:00:00', '2024-02-06 01:30:00', '2024-02-06 01:00:00', '2024-02-06 00:30:00', '2024-02-06 00:00:00', '2024-02-05 23:30:00', '2024-02-05 23:00:00', '2024-02-05 22:30:00', '2024-02-05 22:00:00', '2024-02-05 21:30:00', '2024-02-05 21:00:00']"
Germany, Altenburg Nobitz Airport (AOC/EDAC) ,"['EDAC 082020Z AUTO 07004KT 030V110 3800 // SCT004/// BKN011/// OVC020/// 03/03 Q0995', 'EDAC 081950Z AUTO 06005KT 030V090 6000 // FEW005/// SCT013/// OVC016/// 03/03 Q0995', 'EDAC 081920Z AUTO 07004KT 030V100 8000 // FEW005/// OVC017/// 03/03 Q0996', 'EDAC 081850Z AUTO 07004KT 040V110 7000 // FEW005/// OVC018/// 03/03 Q0996', 'EDAC 081820Z AUTO 07005KT 050V110 8000 // SCT005/// OVC020/// 03/03 Q0996', 'EDAC 081750Z AUTO 07005KT 8000 // SCT005/// OVC022/// 03/03 Q0996', 'EDAC 081720Z AUTO 05004KT 030V090 6000 // BKN006/// BKN012/// OVC023/// 04/03 Q0997', 'EDAC 081650Z 07004KT 040V100 4200 -RA BR FEW005 SCT007 OVC024 04/03 Q0997', 'EDAC 081620Z 08003KT 020V110 4000 -RA BR SCT005 SCT011 OVC026 04/03 Q0997', 'EDAC 081550Z 07004KT 040V100 4200 -RA BR SCT005 BKN008 04/03 Q0998', 'EDAC 081520Z 06003KT 020V100 4200 -RA BR BKN005 04/03 Q0998', 'EDAC 081450Z 06003KT 4000 -RA BR BKN004 04/03 Q0999', 'EDAC 081420Z 07003KT 040V100 3800 -RA BR FEW005 BKN007 04/03 Q0999', 'EDAC 081350Z 10002KT 6000 -RA SCT006 BKN008 04/03 Q0999', 'EDAC 081320Z 10003KT 070V150 8000 -RA BKN006 04/03 Q0999', 'EDAC 081220Z 13003KT 090V160 9999 OVC008 04/02 Q1000', 'EDAC 081150Z VRB02KT 9999 SCT006 OVC008 04/02 Q1001', 'EDAC 081120Z VRB01KT 9999 OVC007 04/02 Q1001', 'EDAC 081050Z 22003KT 9999 OVC006 03/02 Q1002', 'EDAC 081020Z 18003KT 150V220 9999 OVC005 03/02 Q1002', 'EDAC 080950Z VRB02KT 7000 OVC004 03/02 Q1002', 'EDAC 080920Z VRB01KT 3500 BR BKN003 03/02 Q1002', 'EDAC 080850Z VRB01KT 2000 BR FEW003 OVC010 02/02 Q1002', 'EDAC 080820Z 00000KT 3500 1700NE BR SCT004 BKN006 02/02 Q1002', 'EDAC 080750Z VRB02KT 3500 1700NE BR FEW005 OVC008 02/02 Q1002', 'EDAC 080720Z VRB02KT 2500 BR FEW002 SCT013 OVC026 02/01 Q1002', 'EDAC 080650Z VRB01KT 1200 R22/P2000N BR FEW001 OVC012 02/01 Q1002', 'EDAC 080620Z AUTO 00000KT 3300 // OVC013/// 02/01 Q1002', 'EDAC 080550Z AUTO 00000KT 3800 // BKN011/// OVC016/// 02/01 Q1002', 'EDAC 080520Z AUTO VRB02KT 7000 // FEW011/// OVC018/// 02/01 Q1002', 'EDAC 080450Z AUTO VRB01KT 8000 // OVC018/// 02/01 Q1002', 'EDAC 080420Z AUTO VRB02KT 9000 // BKN020/// OVC030/// 02/01 Q1002', 'EDAC 080350Z AUTO 13003KT 9999 // FEW022/// BKN031/// OVC035/// 01/01 Q1002', 'EDAC 080320Z AUTO VRB02KT 9999 // BKN020/// OVC034/// 01/01 Q1002', 'EDAC 080250Z AUTO VRB01KT 9000 // FEW021/// BKN036/// OVC059/// 01/01 Q1003', 'EDAC 080220Z AUTO VRB02KT 6000 // FEW038/// OVC063/// 01/01 Q1003', 'EDAC 080150Z AUTO 07002KT 6000 // OVC066/// 01/01 Q1003', 'EDAC 080120Z AUTO 09002KT 5000 // OVC065/// 01/01 Q1004', 'EDAC 080050Z AUTO VRB01KT 7000 // OVC063/// 01/01 Q1004', 'EDAC 080020Z AUTO VRB01KT 9999 // BKN064/// OVC081/// 01/00 Q1004', 'EDAC 072350Z AUTO 15003KT 9999 // FEW056/// OVC078/// 01/00 Q1004', 'EDAC 072320Z AUTO VRB02KT 9999 // OVC074/// 01/00 Q1004', 'EDAC 072250Z AUTO 16003KT 140V200 9999 // FEW006/// BKN079/// OVC090/// 01/01 Q1004', 'EDAC 072220Z AUTO 17003KT 140V200 9999 // BKN080/// OVC099/// 01/01 Q1004', 'EDAC 072150Z AUTO 17004KT 9999 // OVC078/// 01/01 Q1005', 'EDAC 072120Z AUTO 15002KT 9999 // OVC081/// 01/01 Q1005', 'EDAC 072050Z AUTO VRB02KT 9999 // FEW036/// BKN084/// OVC097/// 01/00 Q1005', 'EDAC 072020Z AUTO 18004KT 9999 // FEW037/// OVC089/// 01/00 Q1005', 'EDAC 071950Z AUTO 19006KT 9999 // SCT030/// SCT036/// OVC093/// 01/00 Q1005', 'EDAC 071920Z AUTO 20005KT 9999 // SCT029/// BKN037/// OVC100/// 01/00 Q1005', 'EDAC 071850Z AUTO 20005KT 9999 // FEW029/// BKN037/// OVC100/// 01/01 Q1005', 'EDAC 071820Z AUTO 20005KT 9999 // FEW025/// BKN033/// OVC100/// 01/01 Q1005', 'EDAC 071750Z AUTO 20004KT 9999 // FEW005/// BKN064/// OVC100/// 01/01 Q1005', 'EDAC 071720Z AUTO 21005KT 9999 // FEW004/// OVC069/// 01/01 Q1005', 'EDAC 071650Z 21005KT 9999 -RA BKN005 01/01 Q1005', 'EDAC 071620Z 20006KT 9000 -SN BKN004 01/01 Q1005', 'EDAC 071550Z 22005KT 3700 -SN BR SCT005 BKN012 01/00 Q1005', 'EDAC 071450Z 21005KT 9000 -SNRA BKN005 01/01 Q1005', 'EDAC 071420Z 27006KT 4000 -SNRA BR BKN006 02/01 Q1005', 'EDAC 071350Z 24005KT 9999 -SNRA SCT006 BKN017 02/01 Q1005', 'EDAC 071320Z 26007KT 230V290 9999 -RA BKN007 02/01 Q1005', 'EDAC 071250Z 25008KT 9999 -RA BKN007 OVC012 02/01 Q1004', 'EDAC 071220Z 24009KT 6000 -RA BKN008 03/02 Q1004', 'EDAC 071150Z 26009KT 9999 -RA FEW009 BKN026 03/01 Q1004', 'EDAC 071120Z 27009KT 9999 -RA FEW009 SCT032 OVC039 03/02 Q1004', 'EDAC 071050Z 29007KT 9000 -RA SCT008 BKN032 03/02 Q1004', 'EDAC 071020Z 31008KT 9000 BKN007 03/02 Q1004', 'EDAC 070950Z 32009KT 6000 -RA OVC007 02/02 Q1004', 'EDAC 070920Z 33008KT 4000 -RA BR BKN007 OVC016 02/02 Q1004', 'EDAC 070850Z 33009KT 9999 -RA SCT007 BKN015 03/02 Q1004', 'EDAC 070820Z 34011KT 9999 -RA FEW005 BKN007 OVC015 03/03 Q1003', 'EDAC 070750Z 36009KT 5000 -RA SCT005 BKN014 05/04 Q1002', 'EDAC 070720Z 23015KT 9999 -RA OVC028 09/06 Q1001', 'EDAC 070650Z AUTO 22017KT 9999 // BKN029/// OVC034/// 08/05 Q1001', 'EDAC 070620Z AUTO 22019KT 9999 // SCT029/// BKN035/// OVC043/// 08/05 Q1000', 'EDAC 070550Z AUTO 22020KT 9999 // SCT039/// OVC044/// 08/05 Q1001', 'EDAC 070520Z AUTO 22019KT 9999 // SCT031/// OVC085/// 08/05 Q1001', 'EDAC 070450Z AUTO 22023KT 9999 // BKN029/// BKN045/// OVC067/// 08/05 Q1001', 'EDAC 070420Z AUTO 21021KT 9999 // BKN027/// OVC034/// 09/05 Q1001', 'EDAC 070350Z AUTO 22022KT 9999 // BKN029/// OVC037/// 09/05 Q1002', 'EDAC 070320Z AUTO 21021KT 9999 // BKN031/// OVC036/// 09/04 Q1002', 'EDAC 070250Z AUTO 21019KT 9999 // SCT033/// BKN038/// OVC047/// 09/04 Q1002', 'EDAC 070220Z AUTO 22020KT 9999 // SCT037/// BKN087/// OVC140/// 09/04 Q1003', 'EDAC 070150Z AUTO 22021KT 9999 // BKN034/// OVC190/// 09/04 Q1003', 'EDAC 070120Z AUTO 22019KT 9999 // OVC033/// 09/04 Q1004', 'EDAC 070050Z AUTO 23021KT 9999 // OVC035/// 09/04 Q1004', 'EDAC 070020Z AUTO 22018KT 9999 // BKN036/// OVC170/// 09/04 Q1004', 'EDAC 062350Z AUTO 22019KT 9999 // BKN037/// OVC042/// 09/04 Q1005', 'EDAC 062320Z AUTO 22017G27KT 9999 // SCT036/// BKN120/// OVC200/// 09/04 Q1005', 'EDAC 062250Z AUTO 22020KT 9999 // FEW130/// BKN190/// 08/04 Q1005', 'EDAC 062220Z AUTO 22020KT 9999 // OVC190/// 09/04 Q1005', 'EDAC 062150Z AUTO 22021KT 9999 // FEW058/// OVC210/// 09/04 Q1005', 'EDAC 062120Z AUTO 23020G30KT 9999 // FEW058/// BKN250/// 09/04 Q1006', 'EDAC 062050Z AUTO 22017KT 9999 // FEW036/// BKN250/// 08/04 Q1006', 'EDAC 062020Z AUTO 23018KT 9999 // FEW037/// SCT050/// OVC240/// 09/04 Q1007', 'EDAC 061950Z AUTO 22016KT 9999 // FEW034/// BKN054/// BKN220/// 08/04 Q1007', 'EDAC 061920Z AUTO 22017KT 9999 // FEW035/// BKN058/// BKN240/// 09/04 Q1007', 'EDAC 061850Z AUTO 22018KT 9999 // FEW038/// BKN058/// BKN250/// 09/04 Q1007', 'EDAC 061820Z AUTO 22019KT 9999 // FEW041/// OVC057/// 09/04 Q1007', 'EDAC 061750Z AUTO 22021G31KT 9999 // BKN047/// OVC056/// 09/04 Q1008', 'EDAC 061720Z 23018KT 9999 OVC047 09/04 Q1008', 'EDAC 061650Z 23021KT 9999 FEW033 OVC046 09/04 Q1008', 'EDAC 061620Z 23019G29KT 9999 FEW035 BKN051 09/04 Q1008', 'EDAC 061550Z 23018G29KT 9999 FEW038 OVC045 09/04 Q1008', 'EDAC 061520Z 22018KT 9999 FEW034 SCT041 BKN048 10/04 Q1008', 'EDAC 061450Z 22019KT 9999 SCT034 SCT041 OVC047 10/04 Q1009', 'EDAC 061420Z 23020KT 9999 FEW033 OVC044 10/04 Q1009', 'EDAC 061350Z 23016KT 9999 BKN034 OVC047 09/04 Q1010', 'EDAC 061320Z 23018KT 9999 OVC032 09/04 Q1010', 'EDAC 061250Z 23019KT 9999 BKN031 OVC035 09/04 Q1010', 'EDAC 061220Z 23019KT 9999 OVC029 09/04 Q1010', 'EDAC 061150Z 23019KT 9999 BKN031 OVC041 09/04 Q1010', 'EDAC 061050Z 23016KT 9999 BKN031 OVC038 09/04 Q1011', 'EDAC 061020Z 23014KT 9999 SCT032 OVC042 09/04 Q1011', 'EDAC 060920Z 22014KT 9999 BKN031 OVC039 09/03 Q1011', 'EDAC 060820Z 22010KT 9999 OVC032 08/03 Q1012', 'EDAC 060750Z 21009KT 9999 OVC032 08/03 Q1012', 'EDAC 060720Z 22011KT 9999 OVC032 08/03 Q1012', 'EDAC 060650Z AUTO /////KT ///V/// 9999 // OVC032/// 08/03 Q1012', 'EDAC 060620Z AUTO 23012KT 9999 // OVC030/// 08/03 Q1012', 'EDAC 060550Z AUTO 24011KT 9999 // OVC029/// 08/03 Q1012', 'EDAC 060520Z AUTO 24011KT 9999 // OVC029/// 08/03 Q1012', 'EDAC 060450Z AUTO 23009KT 9999 // OVC030/// 08/03 Q1013', 'EDAC 060420Z AUTO 23009KT 200V260 9999 // OVC030/// 08/02 Q1013', 'EDAC 060350Z AUTO 23010KT 9999 // OVC030/// 08/03 Q1013', 'EDAC 060320Z AUTO 23010KT 9999 // OVC029/// 08/03 Q1013', 'EDAC 060250Z AUTO 24010KT 9999 // OVC028/// 08/03 Q1013', 'EDAC 060220Z AUTO 25012KT 9999 // OVC029/// 08/03 Q1013', 'EDAC 060150Z AUTO 25011KT 200V280 9999 // OVC029/// 08/03 Q1014', 'EDAC 060120Z AUTO 26010KT 230V290 9999 // OVC029/// 08/03 Q1014', 'EDAC 060050Z AUTO 24015KT 9999 // OVC030/// 08/03 Q1014', 'EDAC 060020Z AUTO 24013KT 9999 // OVC031/// 08/03 Q1014', 'EDAC 052350Z AUTO 23013KT 9999 // BKN035/// 08/03 Q1014', 'EDAC 052320Z AUTO 24012KT 210V270 9999 // SCT035/// 08/03 Q1014', 'EDAC 052250Z AUTO 23006KT 9999 // FEW033/// 06/03 Q1014', 'EDAC 052220Z AUTO 22008KT 9999 // FEW037/// 05/03 Q1014', 'EDAC 052150Z AUTO 22008KT 9999 // NCD 07/03 Q1014', 'EDAC 052120Z AUTO 22010KT 9999 // NCD 07/04 Q1013']","['2024-02-08 20:20:00', '2024-02-08 19:50:00', '2024-02-08 19:20:00', '2024-02-08 18:50:00', '2024-02-08 18:20:00', '2024-02-08 17:50:00', '2024-02-08 17:20:00', '2024-02-08 16:50:00', '2024-02-08 16:20:00', '2024-02-08 15:50:00', '2024-02-08 15:20:00', '2024-02-08 14:50:00', '2024-02-08 14:20:00', '2024-02-08 13:50:00', '2024-02-08 13:20:00', '2024-02-08 12:20:00', '2024-02-08 11:50:00', '2024-02-08 11:20:00', '2024-02-08 10:50:00', '2024-02-08 10:20:00', '2024-02-08 09:50:00', '2024-02-08 09:20:00', '2024-02-08 08:50:00', '2024-02-08 08:20:00', '2024-02-08 07:50:00', '2024-02-08 07:20:00', '2024-02-08 06:50:00', '2024-02-08 06:20:00', '2024-02-08 05:50:00', '2024-02-08 05:20:00', '2024-02-08 04:50:00', '2024-02-08 04:20:00', '2024-02-08 03:50:00', '2024-02-08 03:20:00', '2024-02-08 02:50:00', '2024-02-08 02:20:00', '2024-02-08 01:50:00', '2024-02-08 01:20:00', '2024-02-08 00:50:00', '2024-02-08 00:20:00', '2024-02-07 23:50:00', '2024-02-07 23:20:00', '2024-02-07 22:50:00', '2024-02-07 22:20:00', '2024-02-07 21:50:00', '2024-02-07 21:20:00', '2024-02-07 20:50:00', '2024-02-07 20:20:00', '2024-02-07 19:50:00', '2024-02-07 19:20:00', '2024-02-07 18:50:00', '2024-02-07 18:20:00', '2024-02-07 17:50:00', '2024-02-07 17:20:00', '2024-02-07 16:50:00', '2024-02-07 16:20:00', '2024-02-07 15:50:00', '2024-02-07 14:50:00', '2024-02-07 14:20:00', '2024-02-07 13:50:00', '2024-02-07 13:20:00', '2024-02-07 12:50:00', '2024-02-07 12:20:00', '2024-02-07 11:50:00', '2024-02-07 11:20:00', '2024-02-07 10:50:00', '2024-02-07 10:20:00', '2024-02-07 09:50:00', '2024-02-07 09:20:00', '2024-02-07 08:50:00', '2024-02-07 08:20:00', '2024-02-07 07:50:00', '2024-02-07 07:20:00', '2024-02-07 06:50:00', '2024-02-07 06:20:00', '2024-02-07 05:50:00', '2024-02-07 05:20:00', '2024-02-07 04:50:00', '2024-02-07 04:20:00', '2024-02-07 03:50:00', '2024-02-07 03:20:00', '2024-02-07 02:50:00', '2024-02-07 02:20:00', '2024-02-07 01:50:00', '2024-02-07 01:20:00', '2024-02-07 00:50:00', '2024-02-07 00:20:00', '2024-02-06 23:50:00', '2024-02-06 23:20:00', '2024-02-06 22:50:00', '2024-02-06 22:20:00', '2024-02-06 21:50:00', '2024-02-06 21:20:00', '2024-02-06 20:50:00', '2024-02-06 20:20:00', '2024-02-06 19:50:00', '2024-02-06 19:20:00', '2024-02-06 18:50:00', '2024-02-06 18:20:00', '2024-02-06 17:50:00', '2024-02-06 17:20:00', '2024-02-06 16:50:00', '2024-02-06 16:20:00', '2024-02-06 15:50:00', '2024-02-06 15:20:00', '2024-02-06 14:50:00', '2024-02-06 14:20:00', '2024-02-06 13:50:00', '2024-02-06 13:20:00', '2024-02-06 12:50:00', '2024-02-06 12:20:00', '2024-02-06 11:50:00', '2024-02-06 10:50:00', '2024-02-06 10:20:00', '2024-02-06 09:20:00', '2024-02-06 08:20:00', '2024-02-06 07:50:00', '2024-02-06 07:20:00', '2024-02-06 06:50:00', '2024-02-06 06:20:00', '2024-02-06 05:50:00', '2024-02-06 05:20:00', '2024-02-06 04:50:00', '2024-02-06 04:20:00', '2024-02-06 03:50:00', '2024-02-06 03:20:00', '2024-02-06 02:50:00', '2024-02-06 02:20:00', '2024-02-06 01:50:00', '2024-02-06 01:20:00', '2024-02-06 00:50:00', '2024-02-06 00:20:00', '2024-02-05 23:50:00', '2024-02-05 23:20:00', '2024-02-05 22:50:00', '2024-02-05 22:20:00', '2024-02-05 21:50:00', '2024-02-05 21:20:00']"
Germany, Altenstadt Air Base (QCA/ETHA) ,"['ETHA 082020Z AUTO 22003KT 9999 // ////// 08/03 Q0999 ///', 'ETHA 081920Z AUTO 23006KT 9999 // ////// 08/03 Q0999 ///', 'ETHA 081820Z AUTO 21004KT 9999 // ////// 09/03 Q1000 ///', 'ETHA 081720Z AUTO 25007KT 9999 // ////// 09/03 Q1001 ///', 'ETHA 081620Z AUTO 25012KT 9999 // ////// 09/04 Q1001 ///', 'ETHA 081520Z AUTO 27023KT 9999 // ////// 09/04 Q1001 ///', 'ETHA 081420Z AUTO 26020KT 9999 // ////// 10/05 Q1003 ///', 'ETHA 081320Z AUTO 27024G34KT 9999 // ////// 10/06 Q1003 ///', 'ETHA 081256Z 27025G35KT 9999 -RA FEW020 BKN060 BKN100 10/06 Q1003 BLU', 'ETHA 081220Z 26022KT 9999 -RA FEW020 BKN060 BKN110 11/06 Q1003 BLU', 'ETHA 081120Z 26024G42KT 9999 FEW035 BKN060 11/05 Q1004 BLU', 'ETHA 081035Z 26022G37KT 9999 FEW035 BKN060 11/05 Q1004 BLU', 'ETHA 081020Z 26018KT 9999 FEW035 SCT060 11/05 Q1004 BLU+FCST CNL', 'ETHA 080920Z 26020KT 9999 FEW030 SCT110 BKN250 10/04 Q1004 BLU+BLU+', 'ETHA 080820Z 25017KT 9999 FEW035 SCT110 09/04 Q1004 BLU+BLU TEMPO BLU+', 'ETHA 080720Z 25016KT 9999 SCT026 SCT060 BKN100 08/04 Q1005 BLU BLU TEMPO WHT', 'ETHA 080620Z 25020KT 9999 SCT024 SCT040 BKN100 08/04 Q1005 BLU BLU TEMPO WHT', 'ETHA 080520Z 26021KT 9999 -RA SCT022 BKN041 07/04 Q1005 BLU BLU TEMPO WHT', 'ETHA 080420Z 27023G35KT 9999 -RA FEW020 BKN047 07/04 Q1005 BLU', 'ETHA 080320Z AUTO 27026G36KT 9999 // ////// 07/04 Q1005 ///', 'ETHA 080220Z AUTO 26024KT 9999 // ////// 07/04 Q1005 ///', 'ETHA 080120Z AUTO 27024G34KT 9999 // ////// 06/04 Q1005 ///', 'ETHA 080020Z AUTO 26022KT 9999 // ////// 06/04 Q1006 ///', 'ETHA 072320Z AUTO 25019KT 9999 // ////// 06/03 Q1006 ///', 'ETHA 072220Z AUTO 25017KT 9999 // ////// 05/03 Q1006 ///', 'ETHA 072120Z AUTO 26026KT 9999 // ////// 06/02 Q1006 ///', 'ETHA 072020Z AUTO 27023G35KT 9999 // ////// 07/01 Q1006 ///', 'ETHA 071920Z 27015KT 9999 BKN060 BKN100 07/M00 Q1006 BLU', 'ETHA 071820Z 27020KT 9999 BKN060 08/M00 Q1007 BLU', 'ETHA 071720Z 27015G25KT 9999 FEW040 BKN080 07/M00 Q1007 BLU', 'ETHA 071643Z 26016KT 9999 FEW040 BKN080 08/M00 Q1007 BLU FCST CNL', 'ETHA 071620Z 27018KT 9999 FEW040 BKN080 08/M00 Q1008 BLU BLU', 'ETHA 071520Z 26018KT 9999 FEW040 BKN080 09/M00 Q1008 BLU BLU', 'ETHA 071420Z 26023KT 9999 FEW040 BKN080 09/M00 Q1008 BLU BLU', 'ETHA 071320Z 26023G33KT 9999 FEW040 BKN080 BKN220 09/M00 Q1009 BLU BLU+ TEMPO BLU', 'ETHA 071231Z 26025G35KT 9999 FEW030 BKN090 BKN220 09/M00 Q1010 BLU BLU+ TEMPO BLU', 'ETHA 071220Z 25026KT 9999 FEW030 BKN090 BKN220 09/M00 Q1010 BLU BLU+ TEMPO BLU', 'ETHA 071120Z 25026KT 9999 FEW030 BKN220 08/00 Q1011 BLU+BLU+', 'ETHA 071059Z 26024G35KT 9999 FEW040 BKN280 08/00 Q1011 BLU+BLU+', 'ETHA 071020Z 28025KT 9999 SCT040 BKN280 08/00 Q1012 BLU+BLU+', 'ETHA 070926Z 26025G35KT 9999 SCT045 BKN280 08/00 Q1012 BLU+BLU+', 'ETHA 070820Z 26022KT 9999 FEW040 BKN280 07/M00 Q1012 BLU+BLU+', 'ETHA 070720Z 26019KT 9999 FEW040 BKN280 06/M00 Q1012 BLU+BLU+', 'ETHA 070620Z 27017KT 9999 FEW040 BKN240 05/M00 Q1013 BLU+BLU+', 'ETHA 070520Z 26017KT 9999 SCT230 05/M01 Q1013 BLU+BLU+', 'ETHA 070420Z 27020KT 9999 SCT240 04/M00 Q1013 BLU+', 'ETHA 070220Z AUTO 26016KT 9999 // ////// 03/M00 Q1014 ///', 'ETHA 070120Z AUTO 26016KT 9999 // ////// 03/M00 Q1015 ///', 'ETHA 070020Z AUTO 25015KT 9999 // ////// 03/00 Q1016 ///', 'ETHA 062320Z AUTO 24012KT 9999 // ////// 03/M00 Q1016 ///', 'ETHA 062220Z AUTO 24013KT 9999 // ////// 03/00 Q1016 ///', 'ETHA 062120Z AUTO 26014KT 9999 // ////// 03/00 Q1017 ///', 'ETHA 062020Z AUTO 25008KT 9999 // ////// 03/00 Q1017 ///', 'ETHA 061940Z 26007KT 9999 BKN015 BKN300 03/01 Q1017 WHT', 'ETHA 061920Z 25008KT 9999 SCT015 BKN300 03/00 Q1017 BLU+', 'ETHA 061820Z 27009KT 9999 BKN290 04/01 Q1017 BLU+', 'ETHA 061720Z 29013KT 9999 BKN310 05/00 Q1017 BLU+', 'ETHA 061620Z 28012KT 9999 BKN320 06/M00 Q1017 BLU+', 'ETHA 061520Z 28012KT 9999 BKN320 07/M00 Q1017 BLU+FCST CNL', 'ETHA 061420Z 29012KT 9999 BKN320 09/M00 Q1017 BLU+BLU+', 'ETHA 061325Z 27014KT 9999 FEW120 BKN320 09/M00 Q1018 BLU+BLU+', 'ETHA 061220Z 28013KT 9999 FEW120 BKN250 10/M00 Q1019 BLU+BLU+', 'ETHA 061120Z 28015KT 9999 FEW120 BKN250 09/M01 Q1019 BLU+BLU+', 'ETHA 061037Z 28016KT 9999 FEW120 BKN250 09/M01 Q1020 BLU+BLU+', 'ETHA 061020Z 28017KT 9999 FEW120 BKN250 09/M01 Q1019 BLU+BLU+', 'ETHA 060920Z 27019KT 9999 FEW120 BKN250 08/M01 Q1019 BLU+BLU+', 'ETHA 060820Z 26014KT 9999 FEW120 BKN250 09/M04 Q1019 BLU+BLU+', 'ETHA 060720Z 26013KT 9999 FEW120 BKN250 08/M04 Q1019 BLU+BLU+', 'ETHA 060620Z 26019KT 9999 FEW120 BKN250 08/M05 Q1019 BLU+BLU+', 'ETHA 060520Z 26007KT 9999 FEW100 SCT280 07/M04 Q1019 BLU+BLU+', 'ETHA 060420Z 27015KT 9999 FEW100 SCT280 08/M04 Q1019 BLU+', 'ETHA 060320Z AUTO 26021KT 9999 // ////// 10/M04 Q1019 ///', 'ETHA 060220Z AUTO 26011KT 9999 // ////// 09/M04 Q1019 ///', 'ETHA 060120Z AUTO 26013KT 9999 // ////// 09/M04 Q1020 ///', 'ETHA 060020Z AUTO 27008KT 9999 // ////// 08/M04 Q1020 ///', 'ETHA 052320Z AUTO 26013KT 9999 // ////// 08/M03 Q1021 ///', 'ETHA 052220Z AUTO 26015KT 9999 // ////// 09/M02 Q1021 ///', 'ETHA 052120Z AUTO 27017KT 9999 // ////// 09/M02 Q1021 ///']","['2024-02-08 20:20:00', '2024-02-08 19:20:00', '2024-02-08 18:20:00', '2024-02-08 17:20:00', '2024-02-08 16:20:00', '2024-02-08 15:20:00', '2024-02-08 14:20:00', '2024-02-08 13:20:00', '2024-02-08 12:56:00', '2024-02-08 12:20:00', '2024-02-08 11:20:00', '2024-02-08 10:35:00', '2024-02-08 10:20:00', '2024-02-08 09:20:00', '2024-02-08 08:20:00', '2024-02-08 07:20:00', '2024-02-08 06:20:00', '2024-02-08 05:20:00', '2024-02-08 04:20:00', '2024-02-08 03:20:00', '2024-02-08 02:20:00', '2024-02-08 01:20:00', '2024-02-08 00:20:00', '2024-02-07 23:20:00', '2024-02-07 22:20:00', '2024-02-07 21:20:00', '2024-02-07 20:20:00', '2024-02-07 19:20:00', '2024-02-07 18:20:00', '2024-02-07 17:20:00', '2024-02-07 16:43:00', '2024-02-07 16:20:00', '2024-02-07 15:20:00', '2024-02-07 14:20:00', '2024-02-07 13:20:00', '2024-02-07 12:31:00', '2024-02-07 12:20:00', '2024-02-07 11:20:00', '2024-02-07 10:59:00', '2024-02-07 10:20:00', '2024-02-07 09:26:00', '2024-02-07 08:20:00', '2024-02-07 07:20:00', '2024-02-07 06:20:00', '2024-02-07 05:20:00', '2024-02-07 04:20:00', '2024-02-07 02:20:00', '2024-02-07 01:20:00', '2024-02-07 00:20:00', '2024-02-06 23:20:00', '2024-02-06 22:20:00', '2024-02-06 21:20:00', '2024-02-06 20:20:00', '2024-02-06 19:40:00', '2024-02-06 19:20:00', '2024-02-06 18:20:00', '2024-02-06 17:20:00', '2024-02-06 16:20:00', '2024-02-06 15:20:00', '2024-02-06 14:20:00', '2024-02-06 13:25:00', '2024-02-06 12:20:00', '2024-02-06 11:20:00', '2024-02-06 10:37:00', '2024-02-06 10:20:00', '2024-02-06 09:20:00', '2024-02-06 08:20:00', '2024-02-06 07:20:00', '2024-02-06 06:20:00', '2024-02-06 05:20:00', '2024-02-06 04:20:00', '2024-02-06 03:20:00', '2024-02-06 02:20:00', '2024-02-06 01:20:00', '2024-02-06 00:20:00', '2024-02-05 23:20:00', '2024-02-05 22:20:00', '2024-02-05 21:20:00']"
Germany, Augsburg Airport (AGB/EDMA) ,"['EDMA 082020Z AUTO VRB02KT 9999 // OVC110/// 09/05 Q0999', 'EDMA 081950Z 24004KT CAVOK 09/05 Q0999', 'EDMA 081920Z 22007KT CAVOK 10/06 Q0999', 'EDMA 081850Z 21010KT CAVOK 10/06 Q0999', 'EDMA 081820Z 21010KT CAVOK 10/06 Q1000', 'EDMA 081750Z 22008KT CAVOK 10/06 Q1000', 'EDMA 081720Z 23010KT CAVOK 10/06 Q1000', 'EDMA 081650Z 23012KT CAVOK 10/06 Q1000', 'EDMA 081620Z 25012KT CAVOK 11/06 Q1001', 'EDMA 081550Z 24012KT CAVOK 10/06 Q1001', 'EDMA 081520Z 23014KT CAVOK 11/06 Q1001', 'EDMA 081450Z 23016G26KT 9999 FEW023 11/06 Q1001', 'EDMA 081420Z 23018KT 9999 FEW023 11/07 Q1002', 'EDMA 081350Z 22016KT 9999 FEW022 11/07 Q1001', 'EDMA 081320Z 23019KT 9999 FEW026 11/07 Q1002', 'EDMA 081250Z 24014KT 9999 -RA FEW024 11/08 Q1002', 'EDMA 081220Z 24017KT 9999 -RA NSC 11/08 Q1002', 'EDMA 081150Z 23016G26KT 9999 FEW025 SCT045 12/08 Q1003', 'EDMA 081120Z 23015KT 9999 -RA OVC044 11/07 Q1003', 'EDMA 081050Z 23016KT 9999 FEW040 11/07 Q1003', 'EDMA 081020Z 24011KT 9999 -RA FEW017 OVC048 10/07 Q1004', 'EDMA 080950Z 23013KT 9999 -RA NSC 09/07 Q1004', 'EDMA 080920Z 23013KT 9999 -RA OVC033 09/07 Q1004', 'EDMA 080850Z 23012KT 9999 -RA FEW021 BKN039 09/06 Q1004', 'EDMA 080820Z 24013KT 9999 -RA FEW035 OVC040 09/06 Q1004', 'EDMA 080750Z 23014KT 9999 -RA FEW020 SCT037 OVC042 08/06 Q1004', 'EDMA 080720Z 24013KT 9999 -RA FEW021 OVC036 08/06 Q1004', 'EDMA 080650Z 23014KT 9999 FEW018 SCT031 OVC039 08/05 Q1004', 'EDMA 080620Z 23015KT 9999 -RA FEW017 BKN031 OVC041 08/06 Q1004', 'EDMA 080550Z 23014KT 9999 -RA BKN015 OVC028 08/06 Q1004', 'EDMA 080520Z AUTO 23015KT 9999 // SCT016/// BKN033/// OVC039/// 08/06 Q1004', 'EDMA 080450Z AUTO 23017KT 9999 // BKN016/// OVC034/// 08/06 Q1004', 'EDMA 080420Z AUTO 23016KT 9999 // SCT016/// BKN027/// OVC031/// 08/06 Q1004', 'EDMA 080350Z AUTO 23016KT 9999 // FEW015/// BKN032/// OVC036/// 08/06 Q1004', 'EDMA 080320Z AUTO 24016KT 9999 // SCT015/// OVC030/// 08/06 Q1004', 'EDMA 080250Z AUTO 24017KT 9999 // SCT014/// BKN034/// OVC044/// 08/06 Q1004', 'EDMA 080220Z AUTO 24014KT 9999 // SCT015/// OVC030/// 08/06 Q1004', 'EDMA 080150Z AUTO 24014KT 9999 // SCT015/// OVC030/// 08/05 Q1005', 'EDMA 080120Z AUTO 24014KT 9999 // FEW014/// SCT016/// OVC031/// 07/05 Q1005', 'EDMA 080050Z AUTO 23015KT 9999 // SCT013/// BKN021/// OVC033/// 07/05 Q1005', 'EDMA 080020Z AUTO 23015KT 9000 // BKN014/// BKN025/// OVC035/// 07/05 Q1005', 'EDMA 072350Z AUTO 24014G24KT 9999 // BKN016/// OVC025/// 07/05 Q1005', 'EDMA 072320Z AUTO 23015KT 9999 // FEW015/// BKN021/// OVC035/// 07/05 Q1005', 'EDMA 072250Z AUTO 23015KT 9999 // SCT018/// BKN028/// OVC041/// 07/05 Q1005', 'EDMA 072220Z AUTO 23014KT 9999 // FEW016/// SCT042/// OVC064/// 07/05 Q1005', 'EDMA 072150Z AUTO 23016KT 210V270 9999 // FEW027/// OVC060/// 07/05 Q1005', 'EDMA 072120Z AUTO 23015KT 9999 // BKN061/// OVC069/// 07/05 Q1005', 'EDMA 072050Z AUTO 24013KT 9999 // BKN057/// OVC065/// 07/05 Q1006', 'EDMA 072020Z AUTO 24014KT 9999 // FEW047/// OVC065/// 08/04 Q1006', 'EDMA 071950Z 24012KT 9999 -SHRA NSC 08/04 Q1006', 'EDMA 071920Z 23013KT 9999 -SHRA NSC 08/04 Q1006', 'EDMA 071850Z 23013KT 9999 -SHRA NSC 08/04 Q1006', 'EDMA 071820Z 24012KT CAVOK 09/03 Q1006', 'EDMA 071750Z 23013KT CAVOK 08/03 Q1007', 'EDMA 071720Z 23015KT CAVOK 09/03 Q1007', 'EDMA 071650Z 23016KT CAVOK 09/03 Q1007', 'EDMA 071620Z 23016KT 9999 SCT043 09/03 Q1007', 'EDMA 071550Z 24018KT 9999 OVC040 09/03 Q1007', 'EDMA 071520Z 24017KT 9999 OVC036 09/03 Q1007', 'EDMA 071450Z 24018KT 9999 OVC036 10/03 Q1008', 'EDMA 071420Z 24020KT 9999 OVC037 10/03 Q1008', 'EDMA 071350Z 24017G29KT 9999 OVC037 10/03 Q1008', 'EDMA 071320Z 24018G29KT 9999 BKN043 10/03 Q1008', 'EDMA 071250Z 24019G31KT 9999 BKN045 10/03 Q1009', 'EDMA 071220Z 24018KT 9999 SCT045 09/03 Q1009', 'EDMA 071150Z 23020G31KT 200V260 CAVOK 10/03 Q1009', 'EDMA 071120Z 24019G31KT CAVOK 09/03 Q1010', 'EDMA 071050Z 24023G35KT CAVOK 09/03 Q1010', 'EDMA 071020Z 23023KT CAVOK 09/03 Q1010', 'EDMA 070950Z 23024KT CAVOK 09/03 Q1010', 'EDMA 070920Z 23024KT CAVOK 08/03 Q1010', 'EDMA 070850Z 23024G35KT CAVOK 08/03 Q1011', 'EDMA 070820Z 23020KT CAVOK 07/02 Q1011', 'EDMA 070750Z 23019KT CAVOK 06/02 Q1011', 'EDMA 070720Z 23018KT CAVOK 06/02 Q1011', 'EDMA 070650Z 23020KT CAVOK 05/01 Q1011', 'EDMA 070620Z 23019KT CAVOK 05/01 Q1011', 'EDMA 070550Z 23020KT CAVOK 05/01 Q1011', 'EDMA 070520Z AUTO 24019G29KT 9999 // SCT053/// BKN230/// 06/01 Q1011', 'EDMA 070450Z AUTO 23017KT 9999 // SCT250/// 06/02 Q1012', 'EDMA 070420Z AUTO 23017KT 9999 // BKN049/// 05/01 Q1012', 'EDMA 070350Z AUTO 23015KT 9999 // SCT049/// SCT230/// 05/02 Q1012', 'EDMA 070320Z AUTO 24014KT 9999 // BKN230/// 05/01 Q1013', 'EDMA 070250Z AUTO 24014KT 9999 // BKN250/// 05/01 Q1013', 'EDMA 070220Z AUTO 22015KT 9999 // BKN044/// BKN250/// 05/01 Q1013', 'EDMA 070150Z AUTO 23013KT 9999 // BKN043/// 05/01 Q1014', 'EDMA 070120Z AUTO 22014KT 9999 // BKN049/// 05/01 Q1014', 'EDMA 070050Z AUTO 23015KT 9999 // NCD 05/01 Q1014', 'EDMA 070020Z AUTO 23014KT 9999 // NCD 05/01 Q1015', 'EDMA 062350Z AUTO 23013KT 9999 // NCD 05/01 Q1015', 'EDMA 062320Z AUTO 24015KT 9999 // FEW044/// 05/01 Q1015', 'EDMA 062250Z AUTO 24013KT 9999 // BKN041/// 05/01 Q1016', 'EDMA 062220Z AUTO 24014KT 9999 // BKN041/// 05/01 Q1016', 'EDMA 062150Z AUTO 23015KT 9999 // FEW042/// 05/01 Q1016', 'EDMA 062120Z AUTO 23016KT 9999 // NCD 05/01 Q1016', 'EDMA 062050Z AUTO 23015KT 9999 // NCD 05/01 Q1016', 'EDMA 062020Z AUTO 24013KT 9999 // NCD 05/01 Q1016', 'EDMA 061950Z 24016KT CAVOK 05/02 Q1016', 'EDMA 061920Z 24013KT CAVOK 05/02 Q1016', 'EDMA 061850Z 23013KT CAVOK 06/02 Q1016', 'EDMA 061820Z 24006KT CAVOK 04/01 Q1017', 'EDMA 061750Z 25007KT CAVOK 05/01 Q1017', 'EDMA 061720Z 26007KT CAVOK 06/01 Q1017', 'EDMA 061650Z 27007KT 9999 FEW032 06/01 Q1017', 'EDMA 061620Z 26010KT CAVOK 07/02 Q1017', 'EDMA 061550Z 26012KT CAVOK 08/02 Q1017', 'EDMA 061520Z 25010KT CAVOK 08/02 Q1017', 'EDMA 061450Z 25014KT 220V280 9999 SCT030 09/01 Q1017', 'EDMA 061420Z 24013KT 9999 SCT033 09/02 Q1018', 'EDMA 061350Z 25012KT 9999 SCT032 09/02 Q1018', 'EDMA 061320Z 25016KT 9999 SCT030 09/02 Q1018', 'EDMA 061250Z 26014KT 9999 BKN030 09/03 Q1019', 'EDMA 061220Z 24012KT 9999 BKN030 09/02 Q1019', 'EDMA 061150Z 25012KT 9999 FEW027 08/01 Q1020', 'EDMA 061120Z 27014KT 9999 SCT025 07/02 Q1020', 'EDMA 061050Z 27015KT 9999 FEW026 07/02 Q1020', 'EDMA 061020Z 26014KT CAVOK 07/01 Q1020', 'EDMA 060950Z 27015KT CAVOK 07/02 Q1020', 'EDMA 060920Z 27013KT CAVOK 06/01 Q1020', 'EDMA 060850Z 28010KT CAVOK 05/01 Q1020', 'EDMA 060820Z 27008KT CAVOK 04/01 Q1020', 'EDMA 060750Z 29008KT CAVOK 03/01 Q1020', 'EDMA 060720Z 30009KT CAVOK 02/01 Q1020', 'EDMA 060650Z 29009KT CAVOK 02/00 Q1020', 'EDMA 060620Z 30009KT CAVOK 02/00 Q1019', 'EDMA 060550Z 31010KT CAVOK 03/00 Q1019', 'EDMA 060520Z AUTO 31009KT 9999 // NCD 03/01 Q1019', 'EDMA 060450Z AUTO 31009KT 9999 // NCD 04/01 Q1019', 'EDMA 060420Z AUTO 32009KT 9999 // NCD 04/01 Q1019', 'EDMA 060350Z AUTO 31005KT 9999 // NCD 03/01 Q1019', 'EDMA 060320Z AUTO 32009KT 9999 // NCD 04/01 Q1019', 'EDMA 060250Z AUTO 33005KT 310V010 9999 // NCD 04/01 Q1019', 'EDMA 060220Z AUTO 24004KT 9999 // NCD 07/01 Q1019', 'EDMA 060150Z AUTO 25006KT 9999 // NCD 06/00 Q1019', 'EDMA 060120Z AUTO 27005KT 9999 // NCD 06/01 Q1019', 'EDMA 060050Z AUTO 23009KT 9999 // NCD 06/01 Q1019', 'EDMA 060020Z AUTO 23011KT 9999 // NCD 07/01 Q1019', 'EDMA 052350Z AUTO 23010KT 9999 // NCD 07/01 Q1019', 'EDMA 052320Z AUTO 23005KT 9999 // NCD 06/00 Q1020', 'EDMA 052250Z AUTO 24005KT 9999 // NCD 06/00 Q1020', 'EDMA 052220Z AUTO 23009KT 9999 // NCD 06/01 Q1020', 'EDMA 052150Z AUTO 22009KT 9999 // NCD 07/00 Q1020', 'EDMA 052120Z AUTO 22005KT 190V250 9999 // NCD 06/M00 Q1020']","['2024-02-08 20:20:00', '2024-02-08 19:50:00', '2024-02-08 19:20:00', '2024-02-08 18:50:00', '2024-02-08 18:20:00', '2024-02-08 17:50:00', '2024-02-08 17:20:00', '2024-02-08 16:50:00', '2024-02-08 16:20:00', '2024-02-08 15:50:00', '2024-02-08 15:20:00', '2024-02-08 14:50:00', '2024-02-08 14:20:00', '2024-02-08 13:50:00', '2024-02-08 13:20:00', '2024-02-08 12:50:00', '2024-02-08 12:20:00', '2024-02-08 11:50:00', '2024-02-08 11:20:00', '2024-02-08 10:50:00', '2024-02-08 10:20:00', '2024-02-08 09:50:00', '2024-02-08 09:20:00', '2024-02-08 08:50:00', '2024-02-08 08:20:00', '2024-02-08 07:50:00', '2024-02-08 07:20:00', '2024-02-08 06:50:00', '2024-02-08 06:20:00', '2024-02-08 05:50:00', '2024-02-08 05:20:00', '2024-02-08 04:50:00', '2024-02-08 04:20:00', '2024-02-08 03:50:00', '2024-02-08 03:20:00', '2024-02-08 02:50:00', '2024-02-08 02:20:00', '2024-02-08 01:50:00', '2024-02-08 01:20:00', '2024-02-08 00:50:00', '2024-02-08 00:20:00', '2024-02-07 23:50:00', '2024-02-07 23:20:00', '2024-02-07 22:50:00', '2024-02-07 22:20:00', '2024-02-07 21:50:00', '2024-02-07 21:20:00', '2024-02-07 20:50:00', '2024-02-07 20:20:00', '2024-02-07 19:50:00', '2024-02-07 19:20:00', '2024-02-07 18:50:00', '2024-02-07 18:20:00', '2024-02-07 17:50:00', '2024-02-07 17:20:00', '2024-02-07 16:50:00', '2024-02-07 16:20:00', '2024-02-07 15:50:00', '2024-02-07 15:20:00', '2024-02-07 14:50:00', '2024-02-07 14:20:00', '2024-02-07 13:50:00', '2024-02-07 13:20:00', '2024-02-07 12:50:00', '2024-02-07 12:20:00', '2024-02-07 11:50:00', '2024-02-07 11:20:00', '2024-02-07 10:50:00', '2024-02-07 10:20:00', '2024-02-07 09:50:00', '2024-02-07 09:20:00', '2024-02-07 08:50:00', '2024-02-07 08:20:00', '2024-02-07 07:50:00', '2024-02-07 07:20:00', '2024-02-07 06:50:00', '2024-02-07 06:20:00', '2024-02-07 05:50:00', '2024-02-07 05:20:00', '2024-02-07 04:50:00', '2024-02-07 04:20:00', '2024-02-07 03:50:00', '2024-02-07 03:20:00', '2024-02-07 02:50:00', '2024-02-07 02:20:00', '2024-02-07 01:50:00', '2024-02-07 01:20:00', '2024-02-07 00:50:00', '2024-02-07 00:20:00', '2024-02-06 23:50:00', '2024-02-06 23:20:00', '2024-02-06 22:50:00', '2024-02-06 22:20:00', '2024-02-06 21:50:00', '2024-02-06 21:20:00', '2024-02-06 20:50:00', '2024-02-06 20:20:00', '2024-02-06 19:50:00', '2024-02-06 19:20:00', '2024-02-06 18:50:00', '2024-02-06 18:20:00', '2024-02-06 17:50:00', '2024-02-06 17:20:00', '2024-02-06 16:50:00', '2024-02-06 16:20:00', '2024-02-06 15:50:00', '2024-02-06 15:20:00', '2024-02-06 14:50:00', '2024-02-06 14:20:00', '2024-02-06 13:50:00', '2024-02-06 13:20:00', '2024-02-06 12:50:00', '2024-02-06 12:20:00', '2024-02-06 11:50:00', '2024-02-06 11:20:00', '2024-02-06 10:50:00', '2024-02-06 10:20:00', '2024-02-06 09:50:00', '2024-02-06 09:20:00', '2024-02-06 08:50:00', '2024-02-06 08:20:00', '2024-02-06 07:50:00', '2024-02-06 07:20:00', '2024-02-06 06:50:00', '2024-02-06 06:20:00', '2024-02-06 05:50:00', '2024-02-06 05:20:00', '2024-02-06 04:50:00', '2024-02-06 04:20:00', '2024-02-06 03:50:00', '2024-02-06 03:20:00', '2024-02-06 02:50:00', '2024-02-06 02:20:00', '2024-02-06 01:50:00', '2024-02-06 01:20:00', '2024-02-06 00:50:00', '2024-02-06 00:20:00', '2024-02-05 23:50:00', '2024-02-05 23:20:00', '2024-02-05 22:50:00', '2024-02-05 22:20:00', '2024-02-05 21:50:00', '2024-02-05 21:20:00']"
Germany, Berlin Brandenburg Airport (BER/EDDB) ,"['EDDB 082020Z AUTO 08006KT 5000 -SN BR BKN003 00/M00 Q0998 TEMPO 2000 -SN', 'EDDB 081950Z AUTO 07005KT 4300 -SN BR FEW002 BKN019 BKN026 00/M00 Q0999 TEMPO 2500 -SN BR BKN004', 'EDDB 081920Z AUTO 07005KT 5000 -SN BR FEW003 BKN019 BKN028 00/M00 Q0999 RESN TEMPO 2000 SN BKN004', 'EDDB 081850Z AUTO 07004KT 5000 -SN BR SCT005 BKN010 BKN018 01/M00 Q0999 RESN TEMPO 3000 SNRA BKN003', 'EDDB 081820Z AUTO 07008KT 9999 -RA FEW010 BKN025 BKN035 02/01 Q0999 RERA TEMPO BKN012', 'EDDB 081750Z AUTO 08005KT 9999 -DZ SCT017 BKN034 BKN043 03/01 Q0999 TEMPO BKN012', 'EDDB 081720Z AUTO 07005KT 9999 -DZ FEW036 BKN047 03/01 Q0999 NOSIG', 'EDDB 081650Z AUTO 07005KT 9999 FEW033 SCT039 BKN048 03/01 Q0999 NOSIG', 'EDDB 081620Z AUTO 10006KT 9999 FEW024 SCT042 BKN048 03/01 Q1000 NOSIG', 'EDDB 081550Z AUTO 09005KT 9999 FEW013 03/01 Q1000 NOSIG', 'EDDB 081520Z AUTO 08004KT 9999 FEW012 04/02 Q1000 NOSIG', 'EDDB 081450Z AUTO 10003KT 9999 FEW013 04/01 Q1000 NOSIG', 'EDDB 081420Z AUTO 08003KT 9999 FEW011 04/01 Q1000 NOSIG', 'EDDB 081350Z AUTO VRB02KT 9999 FEW010 04/01 Q1001 NOSIG', 'EDDB 081320Z AUTO VRB01KT 9999 FEW009 04/02 Q1001 NOSIG', 'EDDB 081250Z AUTO 16004KT 110V180 9999 FEW007 04/01 Q1001 NOSIG', 'EDDB 081220Z AUTO 17004KT 130V210 9999 FEW006 03/02 Q1002 NOSIG', 'EDDB 081150Z AUTO 19004KT 150V230 8000 BKN005 03/02 Q1002', 'EDDB 081120Z AUTO VRB02KT 6000 BKN004 03/02 Q1002 BECMG SCT005', 'EDDB 081050Z AUTO 19005KT 150V220 4400 BR BKN003 02/01 Q1002 BECMG 5000 BKN005', 'EDDB 081020Z AUTO VRB02KT 3800 BR OVC002 01/01 Q1003', 'EDDB 080950Z AUTO 17005KT 150V210 2600 0900 R25R/1300U R25L/1500U BCFG OVC001 00/00 Q1003', 'EDDB 080920Z AUTO 18005KT 0900 0500 R25R/1300U R25L/0800N FG BKN001 00/M00 Q1003 BECMG 1500 BCFG', 'EDDB 080850Z AUTO 17003KT 130V190 0700 0450 R25R/0900N R25L/0800N FZFG BKN001 M00/M00 Q1003 NOSIG', 'EDDB 080820Z AUTO 17004KT 0650 0500 R25R/0600D R25L/0700N FZFG BKN002 M01/M01 Q1003 TEMPO 1000 BCFG OVC001', 'EDDB 080750Z AUTO VRB02KT 0750 0550 R25R/1700D R25L/0750N FZFG BKN002 M01/M01 Q1004 TEMPO 1000 BCFG OVC001', 'EDDB 080720Z AUTO 16004KT 0700 0550 R25R/1500N R25L/1300N FZFG BKN002 M01/M01 Q1003 TEMPO 1000 BCFG OVC001', 'EDDB 080650Z AUTO 17003KT 140V200 0750 0600 R25R/1500D R25L/0900N FZFG BKN001 BKN004 M01/M01 Q1003 TEMPO 1200 BCFG OVC001', 'EDDB 080620Z AUTO 16003KT 1000 0700 R25R/1200U R25L/1000N BCFG BKN002 M01/M02 Q1003', 'EDDB 080550Z AUTO 17004KT 1000 0750 R25R/1100D R25L/1000N BCFG BKN001 M01/M01 Q1004 TEMPO 0500 FZFG', 'EDDB 080520Z AUTO 17004KT 1200 0900 R25R/1700D R25L/1400D BCFG BKN001 M01/M02 Q1003 TEMPO 0700 FZFG', 'EDDB 080450Z AUTO 17003KT 150V220 1400 1100 R25R/1700D R25L/1800N BR BKN001 M01/M01 Q1003 TEMPO 0300 FZFG OVC001', 'EDDB 080420Z AUTO 20004KT 1000 0800 R25R/P2000N R25L/1100N BCFG SCT001 M01/M01 Q1004 TEMPO 0300 FZFG OVC001', 'EDDB 080350Z AUTO 19004KT 0800 0600 R25R/1000U R25L/1100N FZFG FEW001 M01/M01 Q1003 TEMPO 0300 FZFG OVC001', 'EDDB 080320Z AUTO 20005KT 0600 0550 R25R/P2000N R25L/1000N FZFG SCT001 M01/M02 Q1004 TEMPO 0300 FZFG OVC001', 'EDDB 080250Z AUTO 17003KT 9999 FEW002 M01/M01 Q1004 TEMPO 0300 FZFG OVC001', 'EDDB 080220Z AUTO VRB01KT CAVOK M02/M02 Q1004', 'EDDB 080150Z AUTO 22002KT CAVOK M01/M02 Q1004 NOSIG', 'EDDB 080120Z AUTO VRB02KT CAVOK M01/M02 Q1004 NOSIG', 'EDDB 080050Z AUTO 19004KT CAVOK M01/M02 Q1004 NOSIG', 'EDDB 080020Z AUTO 19002KT CAVOK M01/M02 Q1004 NOSIG', 'EDDB 072350Z AUTO 20002KT CAVOK M01/M02 Q1004 NOSIG', 'EDDB 072320Z AUTO 21004KT CAVOK M00/M02 Q1004', 'EDDB 072250Z AUTO 21004KT 9999 FEW034 00/M02 Q1004 NOSIG', 'EDDB 072220Z AUTO VRB02KT 9999 BKN035 01/M02 Q1004 NOSIG', 'EDDB 072150Z AUTO 22005KT 9999 SCT036 00/M02 Q1004 NOSIG', 'EDDB 072120Z AUTO 24005KT CAVOK 01/M02 Q1004 NOSIG', 'EDDB 072050Z AUTO 24006KT CAVOK 00/M02 Q1004 NOSIG', 'EDDB 072020Z AUTO 27004KT CAVOK 00/M02 Q1005 NOSIG', 'EDDB 071950Z AUTO 25005KT CAVOK 01/M02 Q1005 NOSIG', 'EDDB 071920Z AUTO 28003KT CAVOK 01/M02 Q1004 NOSIG', 'EDDB 071850Z AUTO 25006KT CAVOK 01/M02 Q1004 NOSIG', 'EDDB 071820Z AUTO 26006KT CAVOK 01/M02 Q1004 NOSIG', 'EDDB 071750Z AUTO 25005KT CAVOK 01/M03 Q1004 NOSIG', 'EDDB 071720Z AUTO 26005KT CAVOK 02/M03 Q1004 NOSIG', 'EDDB 071650Z AUTO 28005KT CAVOK 03/M03 Q1004 NOSIG', 'EDDB 071620Z AUTO 29007KT CAVOK 03/M03 Q1004 NOSIG', 'EDDB 071550Z AUTO 29006KT CAVOK 04/M04 Q1003 NOSIG', 'EDDB 071520Z AUTO 30010KT CAVOK 05/M03 Q1003 NOSIG', 'EDDB 071450Z AUTO 29012KT CAVOK 05/M03 Q1003 NOSIG', 'EDDB 071420Z AUTO 28013KT CAVOK 05/M02 Q1003 NOSIG', 'EDDB 071350Z AUTO 29017KT 9999 FEW036 05/M02 Q1002 NOSIG', 'EDDB 071320Z AUTO 29015KT 9999 FEW036 06/M01 Q1002 NOSIG', 'EDDB 071250Z AUTO 30013KT 9999 FEW035 06/M02 Q1002 NOSIG', 'EDDB 071220Z AUTO 28014KT 9999 FEW027 05/M00 Q1002 NOSIG', 'EDDB 071150Z AUTO 30013KT 270V330 9999 SCT027 05/M00 Q1001 NOSIG', 'EDDB 071120Z AUTO 28016KT 9999 SCT028 05/01 Q1001 NOSIG', 'EDDB 071050Z AUTO 28019KT 9999 BKN023 05/01 Q1001 NOSIG', 'EDDB 071020Z AUTO 28018KT 9999 VCSH FEW016 BKN035 FEW///TCU 05/02 Q1001 NOSIG', 'EDDB 070950Z AUTO 28023KT 7000 -RADZ FEW006 BKN023 OVC029 04/01 Q1000 NOSIG', 'EDDB 070920Z AUTO 26018KT 9999 BKN013 BKN018 OVC031 05/03 Q1000 BECMG BKN020', 'EDDB 070850Z AUTO 26016KT 9999 BKN013 04/02 Q1000 BECMG BKN020', 'EDDB 070820Z AUTO 26015KT 9999 BKN012 04/02 Q1000 NOSIG', 'EDDB 070750Z AUTO 25015KT 9999 BKN013 04/02 Q0999 NOSIG', 'EDDB 070720Z AUTO 25013KT 9999 BKN013 OVC017 03/02 Q0999 NOSIG', 'EDDB 070650Z AUTO 25015KT 9999 BKN013 BKN019 BKN047 03/02 Q0999 TEMPO BKN011', 'EDDB 070620Z AUTO 25014KT 9999 SCT011 BKN033 BKN041 03/02 Q0999 NOSIG', 'EDDB 070550Z AUTO 25014KT 9999 -RA SCT011 OVC021 03/02 Q0999 NOSIG', 'EDDB 070520Z AUTO 27015KT 9999 -RA SCT013 OVC024 04/02 Q0999 TEMPO 29015G25KT', 'EDDB 070450Z AUTO 29018KT 9999 -RA SCT013 BKN025 OVC033 04/02 Q0999 RERA TEMPO 29015G25KT', 'EDDB 070420Z AUTO 30015KT 9999 -RA FEW012 BKN031 OVC039 04/02 Q0999 TEMPO 31015G25KT', 'EDDB 070350Z AUTO 30011KT 270V340 9999 -RA SCT010 BKN023 BKN033 05/04 Q0998 NOSIG', 'EDDB 070320Z AUTO 29012KT 9999 -RA BKN013 BKN036 06/04 Q0998 NOSIG', 'EDDB 070250Z AUTO 29013KT 9999 -RA FEW012 BKN034 06/05 Q0998 RESHRA NOSIG', 'EDDB 070220Z AUTO 29018KT 9000 SHRA FEW009 BKN031 OVC039 FEW///TCU 07/05 Q0998 BECMG 30012KT NSW', 'EDDB 070150Z AUTO 23024KT 210V270 9999 SHRA SCT016 BKN029 OVC045 FEW///TCU 09/07 Q0997 BECMG 30013KT 4000 SHRA BKN012 BKN020CB', 'EDDB 070120Z AUTO 23027KT 9999 -RADZ FEW016 BKN038 OVC047 09/07 Q0997 BECMG 30013KT 4000 SHRA BKN012 BKN020CB', 'EDDB 070050Z AUTO 23023KT 9999 -RA SCT016 BKN023 BKN047 09/07 Q0997 BECMG 30013KT 4000 SHRA BKN012 BKN020CB', 'EDDB 070020Z AUTO 24023KT 7000 -RA BKN019 BKN026 09/07 Q0998 TEMPO 24025G35KT', 'EDDB 062350Z AUTO 24025G35KT 9999 -RA BKN022 BKN027 09/07 Q0998 NOSIG', 'EDDB 062320Z AUTO 24023G33KT 9999 -DZ BKN024 OVC029 10/07 Q0998 TEMPO 24025G35KT', 'EDDB 062250Z AUTO 24023KT 9999 -RADZ SCT022 BKN028 BKN034 10/07 Q0998 TEMPO 23025G40KT', 'EDDB 062220Z AUTO 24022KT 9999 -RADZ BKN023 OVC028 09/07 Q0999 TEMPO 24025G40KT', 'EDDB 062150Z AUTO 24022G32KT 9999 -RADZ BKN024 10/07 Q0999 TEMPO 24025G40KT', 'EDDB 062120Z AUTO 24026KT 9999 -RADZ BKN025 OVC030 10/06 Q0999 TEMPO 24025G40KT', 'EDDB 062050Z AUTO 24023KT 9999 -RADZ BKN026 OVC034 11/06 Q1000 NOSIG', 'EDDB 062020Z AUTO 24026G36KT 9999 BKN025 BKN030 11/06 Q1000 TEMPO 24025G40KT', 'EDDB 061950Z AUTO 24022G32KT 9999 BKN027 BKN032 11/06 Q1000 NOSIG', 'EDDB 061920Z AUTO 23023G33KT 9999 OVC030 10/06 Q1000 NOSIG', 'EDDB 061850Z AUTO 23021KT 9999 BKN032 OVC045 10/06 Q1000 TEMPO 26025G35KT', 'EDDB 061820Z AUTO 23021KT 9999 SCT030 BKN036 10/06 Q1001 NOSIG', 'EDDB 061750Z AUTO 23023KT 9999 BKN030 10/06 Q1001 TEMPO 26025G35KT', 'EDDB 061720Z AUTO 23026KT 9999 FEW019 BKN026 OVC032 10/06 Q1001 TEMPO 26025G35KT', 'EDDB 061650Z AUTO 23023G33KT 9999 BKN030 BKN037 10/06 Q1001 NOSIG', 'EDDB 061620Z AUTO 23022KT 9999 SCT029 BKN036 10/06 Q1001 TEMPO 24020G35KT', 'EDDB 061550Z AUTO 23023KT 9999 BKN030 BKN035 10/06 Q1002 TEMPO 24020G35KT', 'EDDB 061520Z AUTO 24023KT 9999 BKN032 BKN044 11/06 Q1002 TEMPO 24025G35KT', 'EDDB 061450Z AUTO 24023KT 9999 SCT028 BKN032 BKN043 11/06 Q1002 NOSIG', 'EDDB 061420Z AUTO 25020KT 9999 SCT029 BKN034 11/06 Q1003 NOSIG', 'EDDB 061350Z AUTO 24020KT 9999 -DZ BKN030 11/06 Q1003 TEMPO 25025G35KT', 'EDDB 061320Z AUTO 24022G36KT 9999 BKN030 OVC037 11/06 Q1004 NOSIG', 'EDDB 061250Z AUTO 24020KT 9999 BKN030 BKN039 11/06 Q1004 TEMPO 24020G35KT', 'EDDB 061220Z AUTO 24019KT 9999 BKN028 BKN033 OVC048 11/06 Q1004 TEMPO 23020G35KT', 'EDDB 061150Z AUTO 24019KT 9999 -RADZ BKN024 BKN029 10/06 Q1005 TEMPO 24020G35KT', 'EDDB 061120Z AUTO 24019G34KT 9999 BKN026 OVC031 11/05 Q1005 NOSIG', 'EDDB 061050Z AUTO 25022KT 9999 BKN028 BKN033 OVC047 11/06 Q1005 TEMPO 25025G35KT', 'EDDB 061020Z AUTO 25022KT 9999 OVC029 OVC047 11/05 Q1005 TEMPO 25025G35KT', 'EDDB 060950Z AUTO 25022KT 9999 OVC027 11/05 Q1005 TEMPO 25025G35KT', 'EDDB 060920Z AUTO 25019KT 9999 BKN028 OVC047 11/05 Q1006 TEMPO 25025G35KT', 'EDDB 060850Z AUTO 25021G32KT 9999 BKN025 OVC029 10/05 Q1006 TEMPO 25025G35KT', 'EDDB 060820Z AUTO 25020KT 9999 OVC024 10/05 Q1006 TEMPO 25025G35KT', 'EDDB 060750Z AUTO 25022G33KT 9999 -DZ BKN024 10/05 Q1006 NOSIG', 'EDDB 060720Z AUTO 25021KT 9999 BKN024 10/05 Q1006 TEMPO 25025G35KT', 'EDDB 060650Z AUTO 25022KT 9999 BKN024 OVC042 10/05 Q1006 TEMPO 25025G35KT', 'EDDB 060620Z AUTO 25019G30KT 9999 BKN024 OVC042 09/05 Q1006 TEMPO 25025G35KT', 'EDDB 060550Z AUTO 25022KT 9999 BKN023 OVC042 09/05 Q1006 TEMPO 25025G35KT', 'EDDB 060520Z AUTO 25020KT 9999 BKN020 BKN025 OVC040 09/05 Q1007 TEMPO 25020G30KT', 'EDDB 060450Z AUTO 25021KT 9999 BKN022 BKN028 OVC038 09/05 Q1007 TEMPO 25020G30KT', 'EDDB 060420Z AUTO 25022G32KT 9999 BKN022 BKN040 09/05 Q1007 NOSIG', 'EDDB 060350Z AUTO 25021KT 9999 BKN022 BKN040 09/05 Q1007 TEMPO 26020G30KT', 'EDDB 060320Z AUTO 25019KT 9999 BKN022 09/05 Q1007 TEMPO 26020G30KT', 'EDDB 060250Z AUTO 25021KT 9999 BKN023 OVC030 09/05 Q1008 TEMPO 26020G30KT', 'EDDB 060220Z AUTO 25024KT 9999 BKN023 BKN027 09/05 Q1008 TEMPO 26025G35KT', 'EDDB 060150Z AUTO 26023KT 9999 BKN024 BKN028 OVC044 09/05 Q1008 TEMPO 26025G35KT', 'EDDB 060120Z AUTO 25020KT 9999 BKN027 BKN033 OVC044 09/04 Q1008 TEMPO 26025G35KT', 'EDDB 060050Z AUTO 26023KT 9999 BKN028 BKN036 OVC044 10/04 Q1008 TEMPO 26025G35KT', 'EDDB 060020Z AUTO 26021KT 9999 BKN027 BKN033 OVC044 10/05 Q1009 TEMPO 26025G35KT', 'EDDB 052350Z AUTO 26023KT 9999 BKN027 BKN033 OVC041 10/05 Q1009 TEMPO 26025G35KT', 'EDDB 052320Z AUTO 26021G32KT 9999 BKN026 BKN035 10/05 Q1009 TEMPO 26020G30KT', 'EDDB 052250Z AUTO 26018KT 9999 BKN026 OVC034 10/05 Q1009 TEMPO 27020G30KT', 'EDDB 052220Z AUTO 27019KT 9999 BKN026 OVC033 10/05 Q1009 TEMPO 27020G30KT', 'EDDB 052150Z AUTO 26020KT 9999 BKN025 BKN031 OVC038 10/06 Q1009 TEMPO 27020G30KT', 'EDDB 052120Z AUTO 26016KT 9999 BKN025 OVC034 10/06 Q1009 TEMPO 27020G30KT']","['2024-02-08 20:20:00', '2024-02-08 19:50:00', '2024-02-08 19:20:00', '2024-02-08 18:50:00', '2024-02-08 18:20:00', '2024-02-08 17:50:00', '2024-02-08 17:20:00', '2024-02-08 16:50:00', '2024-02-08 16:20:00', '2024-02-08 15:50:00', '2024-02-08 15:20:00', '2024-02-08 14:50:00', '2024-02-08 14:20:00', '2024-02-08 13:50:00', '2024-02-08 13:20:00', '2024-02-08 12:50:00', '2024-02-08 12:20:00', '2024-02-08 11:50:00', '2024-02-08 11:20:00', '2024-02-08 10:50:00', '2024-02-08 10:20:00', '2024-02-08 09:50:00', '2024-02-08 09:20:00', '2024-02-08 08:50:00', '2024-02-08 08:20:00', '2024-02-08 07:50:00', '2024-02-08 07:20:00', '2024-02-08 06:50:00', '2024-02-08 06:20:00', '2024-02-08 05:50:00', '2024-02-08 05:20:00', '2024-02-08 04:50:00', '2024-02-08 04:20:00', '2024-02-08 03:50:00', '2024-02-08 03:20:00', '2024-02-08 02:50:00', '2024-02-08 02:20:00', '2024-02-08 01:50:00', '2024-02-08 01:20:00', '2024-02-08 00:50:00', '2024-02-08 00:20:00', '2024-02-07 23:50:00', '2024-02-07 23:20:00', '2024-02-07 22:50:00', '2024-02-07 22:20:00', '2024-02-07 21:50:00', '2024-02-07 21:20:00', '2024-02-07 20:50:00', '2024-02-07 20:20:00', '2024-02-07 19:50:00', '2024-02-07 19:20:00', '2024-02-07 18:50:00', '2024-02-07 18:20:00', '2024-02-07 17:50:00', '2024-02-07 17:20:00', '2024-02-07 16:50:00', '2024-02-07 16:20:00', '2024-02-07 15:50:00', '2024-02-07 15:20:00', '2024-02-07 14:50:00', '2024-02-07 14:20:00', '2024-02-07 13:50:00', '2024-02-07 13:20:00', '2024-02-07 12:50:00', '2024-02-07 12:20:00', '2024-02-07 11:50:00', '2024-02-07 11:20:00', '2024-02-07 10:50:00', '2024-02-07 10:20:00', '2024-02-07 09:50:00', '2024-02-07 09:20:00', '2024-02-07 08:50:00', '2024-02-07 08:20:00', '2024-02-07 07:50:00', '2024-02-07 07:20:00', '2024-02-07 06:50:00', '2024-02-07 06:20:00', '2024-02-07 05:50:00', '2024-02-07 05:20:00', '2024-02-07 04:50:00', '2024-02-07 04:20:00', '2024-02-07 03:50:00', '2024-02-07 03:20:00', '2024-02-07 02:50:00', '2024-02-07 02:20:00', '2024-02-07 01:50:00', '2024-02-07 01:20:00', '2024-02-07 00:50:00', '2024-02-07 00:20:00', '2024-02-06 23:50:00', '2024-02-06 23:20:00', '2024-02-06 22:50:00', '2024-02-06 22:20:00', '2024-02-06 21:50:00', '2024-02-06 21:20:00', '2024-02-06 20:50:00', '2024-02-06 20:20:00', '2024-02-06 19:50:00', '2024-02-06 19:20:00', '2024-02-06 18:50:00', '2024-02-06 18:20:00', '2024-02-06 17:50:00', '2024-02-06 17:20:00', '2024-02-06 16:50:00', '2024-02-06 16:20:00', '2024-02-06 15:50:00', '2024-02-06 15:20:00', '2024-02-06 14:50:00', '2024-02-06 14:20:00', '2024-02-06 13:50:00', '2024-02-06 13:20:00', '2024-02-06 12:50:00', '2024-02-06 12:20:00', '2024-02-06 11:50:00', '2024-02-06 11:20:00', '2024-02-06 10:50:00', '2024-02-06 10:20:00', '2024-02-06 09:50:00', '2024-02-06 09:20:00', '2024-02-06 08:50:00', '2024-02-06 08:20:00', '2024-02-06 07:50:00', '2024-02-06 07:20:00', '2024-02-06 06:50:00', '2024-02-06 06:20:00', '2024-02-06 05:50:00', '2024-02-06 05:20:00', '2024-02-06 04:50:00', '2024-02-06 04:20:00', '2024-02-06 03:50:00', '2024-02-06 03:20:00', '2024-02-06 02:50:00', '2024-02-06 02:20:00', '2024-02-06 01:50:00', '2024-02-06 01:20:00', '2024-02-06 00:50:00', '2024-02-06 00:20:00', '2024-02-05 23:50:00', '2024-02-05 23:20:00', '2024-02-05 22:50:00', '2024-02-05 22:20:00', '2024-02-05 21:50:00', '2024-02-05 21:20:00']"
Ghana, Accra Kotoka International Airport (ACC/DGAA) ,"['DGAA 082000Z 19007KT 3000 BR NSC 28/26 Q1011 NOSIG', 'DGAA 081900Z 19008KT 3000 BR NSC 28/25 Q1011 NOSIG', 'DGAA 081800Z 19007KT 1500 HZ NSC 29/25 Q1010 NOSIG', 'DGAA 081700Z 17008KT 1000 HZ NSC 31/22 Q1009 NOSIG', 'DGAA 081600Z 16007KT 120V190 1000 HZ NSC 32/21 Q1009 NOSIG', 'DGAA 081500Z 16008KT 110V190 1000 HZ NSC 34/18 Q1010 NOSIG', 'DGAA 081400Z 17008KT 130V200 1000 HZ NSC 33/17 Q1010 NOSIG', 'DGAA 081300Z 19006KT 150V300 1000 HZ NSC 33/19 Q1011 NOSIG', 'DGAA 081200Z 21006KT 0800 DU NSC 33/19 Q1013 NOSIG', 'DGAA 081100Z 23006KT 160V250 0800 DU NSC 31/21 Q1014 NOSIG', 'DGAA 081000Z 27006KT 240V300 0800 DU NSC 29/22 Q1015 NOSIG', 'DGAA 080900Z 28007KT 210V300 0800 DU NSC 28/23 Q1015 NOSIG', 'DGAA 080800Z 28004KT 230V300 0800 DU NSC 27/21 Q1014 NOSIG', 'DGAA 080700Z 27005KT 0800 DU NSC 26/20 Q1013 NOSIG', 'DGAA 080600Z 27005KT 5000 HZ NSC 26/20 Q1012 NOSIG', 'DGAA 080500Z 28006KT 5000 HZ NSC 26/20 Q1012 NOSIG', 'DGAA 080400Z 27005KT 5000 HZ NSC 26/20 Q1012 NOSIG', 'DGAA 080300Z 27005KT 5000 HZ NSC 27/21 Q1012 NOSIG', 'DGAA 080200Z 21004KT 5000 HZ NSC 27/22 Q1012 NOSIG', 'DGAA 080100Z 19003KT 5000 HZ NSC 27/21 Q1013 NOSIG', 'DGAA 080000Z 15001KT 5000 HZ NSC 28/22 Q1013 NOSIG', 'DGAA 072300Z 12001KT 5000 HZ NSC 28/22 Q1014 NOSIG', 'DGAA 072200Z VRB01KT 5000 HZ NSC 28/21 Q1013 NOSIG', 'DGAA 072100Z VRB01KT 5000 HZ NSC 28/22 Q1013 NOSIG', 'DGAA 072000Z 13003KT 5000 HZ NSC 29/21 Q1012 NOSIG', 'DGAA 071900Z 13003KT 5000 HZ NSC 29/17 Q1011 NOSIG', 'DGAA 071800Z 12005KT 080V160 1500 HZ NSC 30/15 Q1010 NOSIG', 'DGAA 071700Z 12005KT 1500 HZ NSC 32/12 Q1010 NOSIG', 'DGAA 071600Z 13007KT 090V160 1200 HZ NSC 33/11 Q1009 NOSIG', 'DGAA 071500Z 11007KT 080V140 1200 HZ NSC 34/12 Q1010 NOSIG', 'DGAA 071400Z 12007KT 080V150 1200 HZ NSC 34/11 Q1011 NOSIG', 'DGAA 071300Z 05006KT 010V080 0800 DU NSC 35/06 Q1012 NOSIG', 'DGAA 071200Z 05005KT 330V110 0800 DU NSC 34/13 Q1013 NOSIG', 'DGAA 071100Z 03007KT 360V070 0800 DU NSC 32/14 Q1014 NOSIG', 'DGAA 071000Z 02006KT 8000 HZ NSC 30/14 Q1015 NOSIG', 'DGAA 070900Z 04004KT 010V080 8000 DU NSC 28/11 Q1015 NOSIG', 'DGAA 070800Z 01005KT 0800 DU NSC 28/11 Q1014 NOSIG', 'DGAA 070700Z 30003KT 250V320 0800 DU NSC 27/12 Q1013 NOSIG', 'DGAA 070600Z 28005KT 3000 HZ NSC 26/13 Q1013 NOSIG', 'DGAA 070500Z 30004KT 5000 HZ NSC 26/13 Q1012 NOSIG', 'DGAA 070400Z 31003KT 5000 HZ NSC 27/13 Q1012 NOSIG', 'DGAA 070300Z 36001KT 5000 HZ FEW032 27/12 Q1012 NOSIG', 'DGAA 070200Z 35002KT 5000 HZ NSC 27/15 Q1013 NOSIG', 'DGAA 070100Z VRB02KT 5000 HZ NSC 27/16 Q1014 NOSIG', 'DGAA 070000Z 35003KT 5000 HZ NSC 28/16 Q1014 NOSIG', 'DGAA 062300Z 02003KT 5000 HZ NSC 28/18 Q1015 NOSIG', 'DGAA 062200Z 03004KT 5000 HZ NSC 28/18 Q1015 NOSIG', 'DGAA 062100Z 06003KT 5000 HZ NSC 28/20 Q1014 NOSIG', 'DGAA 062000Z 06003KT 5000 HZ NSC 28/20 Q1013 NOSIG', 'DGAA 061900Z 11004KT 1500 HZ NSC 29/18 Q1012 NOSIG', 'DGAA 061800Z 10006KT 060V130 1500 DU NSC 30/17 Q1011 NOSIG', 'DGAA 061700Z 10007KT 070V140 1500 DU NSC 31/15 Q1010 NOSIG', 'DGAA 061600Z 10009KT 070V140 1000 DU NSC 31/13 Q1010 NOSIG', 'DGAA 061500Z 10008KT 060V140 1000 DU NSC 33/11 Q1011 NOSIG', 'DGAA 060800Z 03004KT 1000 HZ NSC 27/20 Q1015 NOSIG', 'DGAA 060700Z 01004KT 8000 HZ NSC 26/21 Q1014 NOSIG', 'DGAA 060600Z 29003KT 2000 BR NSC 26/22 Q1013 NOSIG', 'DGAA 060500Z 34001KT 5000 BR NSC 26/22 Q1013 NOSIG', 'DGAA 060400Z 30003KT 5000 BR NSC 27/23 Q1012 NOSIG', 'DGAA 060300Z 01002KT 5000 BR NSC 27/23 Q1013 NOSIG', 'DGAA 060200Z 00000KT 5000 BR NSC 27/24 Q1013 NOSIG', 'DGAA 060100Z 10002KT 5000 BR NSC 27/24 Q1013 NOSIG', 'DGAA 060000Z 03002KT 5000 HZ NSC 28/24 Q1014 NOSIG', 'DGAA 052300Z VRB01KT 5000 HZ NSC 27/25 Q1015 NOSIG', 'DGAA 052200Z 07002KT 5000 HZ NSC 28/24 Q1014 NOSIG', 'DGAA 052100Z 10003KT 5000 HZ NSC 28/24 Q1014 NOSIG']","['2024-02-08 20:00:00', '2024-02-08 19:00:00', '2024-02-08 18:00:00', '2024-02-08 17:00:00', '2024-02-08 16:00:00', '2024-02-08 15:00:00', '2024-02-08 14:00:00', '2024-02-08 13:00:00', '2024-02-08 12:00:00', '2024-02-08 11:00:00', '2024-02-08 10:00:00', '2024-02-08 09:00:00', '2024-02-08 08:00:00', '2024-02-08 07:00:00', '2024-02-08 06:00:00', '2024-02-08 05:00:00', '2024-02-08 04:00:00', '2024-02-08 03:00:00', '2024-02-08 02:00:00', '2024-02-08 01:00:00', '2024-02-08 00:00:00', '2024-02-07 23:00:00', '2024-02-07 22:00:00', '2024-02-07 21:00:00', '2024-02-07 20:00:00', '2024-02-07 19:00:00', '2024-02-07 18:00:00', '2024-02-07 17:00:00', '2024-02-07 16:00:00', '2024-02-07 15:00:00', '2024-02-07 14:00:00', '2024-02-07 13:00:00', '2024-02-07 12:00:00', '2024-02-07 11:00:00', '2024-02-07 10:00:00', '2024-02-07 09:00:00', '2024-02-07 08:00:00', '2024-02-07 07:00:00', '2024-02-07 06:00:00', '2024-02-07 05:00:00', '2024-02-07 04:00:00', '2024-02-07 03:00:00', '2024-02-07 02:00:00', '2024-02-07 01:00:00', '2024-02-07 00:00:00', '2024-02-06 23:00:00', '2024-02-06 22:00:00', '2024-02-06 21:00:00', '2024-02-06 20:00:00', '2024-02-06 19:00:00', '2024-02-06 18:00:00', '2024-02-06 17:00:00', '2024-02-06 16:00:00', '2024-02-06 15:00:00', '2024-02-06 08:00:00', '2024-02-06 07:00:00', '2024-02-06 06:00:00', '2024-02-06 05:00:00', '2024-02-06 04:00:00', '2024-02-06 03:00:00', '2024-02-06 02:00:00', '2024-02-06 01:00:00', '2024-02-06 00:00:00', '2024-02-05 23:00:00', '2024-02-05 22:00:00', '2024-02-05 21:00:00']"
Ghana, Kumasi Airport (KMS/DGSI) ,"['DGSI 081900Z 00000KT 2000 HZ NSC 32/13 Q1012 NOSIG', 'DGSI 081800Z 00000KT 2000 HZ NSC 34/16 Q1011 NOSIG', 'DGSI 081600Z 14002KT 2000 HZ NSC 37/17 Q1011 NOSIG', 'DGSI 081500Z 36002KT 2000 NSC 36/14 Q1012 NOSIG', 'DGSI 081400Z 05008KT 2000 NSC 35/17 Q1014 NOSIG', 'DGSI 081300Z 05008KT 2000 HZ NSC 35/17 Q1014 NOSIG', 'DGSI 081200Z 00000KT 2000 HZ NSC 33/16 Q1015 NOSIG', 'DGSI 081100Z 05002KT 1500 HZ NSC 31/18 Q1016 NOSIG', 'DGSI 081000Z 05003KT 1500 HZ NSC 28/17 Q1016 NOSIG', 'DGSI 080700Z 00000KT 1500 HZ NSC 23/17 Q1015 NOSIG', 'DGSI 080600Z 36002KT 2000 HZ NSC 24/17 Q1015 NOSIG', 'DGSI 080000Z 05002KT 2000 HZ NSC 28/13 Q1016 NOSIG', 'DGSI 072100Z 05004KT 2000 HZ NSC 30/15 Q1015 NOSIG', 'DGSI 072000Z 05003KT 2000 HZ NSC 31/13 Q1014 NOSIG', 'DGSI 071800Z 05005KT 2000 HZ NSC 34/16 Q1012 NOSIG', 'DGSI 071600Z 14007KT 3000 HZ NSC 36/16 Q1011 NOSIG', 'DGSI 071500Z 05007KT 3000 HZ NSC 37/11 Q1011 NOSIG', 'DGSI 071400Z 05006KT 3000 HZ NSC 36/15 Q1012 NOSIG', 'DGSI 071200Z 05005KT 3000 HZ NSC 33/14 Q1015 NOSIG', 'DGSI 071100Z 05007KT 3000 HZ NSC 31/11 Q1016 NOSIG', 'DGSI 071000Z 05007KT 2000 HZ NSC 29/06 Q1016 NOSIG', 'DGSI 070800Z 00000KT 2000 HZ NSC 25/11 Q1016 NOSIG', 'DGSI 061800Z 09002KT 2000 HZ NSC 33/18 Q1013 NOSIG', 'DGSI 061500Z 32006KT 4000 HZ NSC 35/16 Q1010 NOSIG', 'DGSI 060600Z 00000KT 2000 HZ NSC 25/16 Q1015 NOSIG', 'DGSI 060000Z 05003KT 2000 HZ NSC 28/09 Q1016 NOSIG', 'DGSI 052100Z 05007KT 2000 HZ NSC 30/11 Q1016 NOSIG']","['2024-02-08 19:00:00', '2024-02-08 18:00:00', '2024-02-08 16:00:00', '2024-02-08 15:00:00', '2024-02-08 14:00:00', '2024-02-08 13:00:00', '2024-02-08 12:00:00', '2024-02-08 11:00:00', '2024-02-08 10:00:00', '2024-02-08 07:00:00', '2024-02-08 06:00:00', '2024-02-08 00:00:00', '2024-02-07 21:00:00', '2024-02-07 20:00:00', '2024-02-07 18:00:00', '2024-02-07 16:00:00', '2024-02-07 15:00:00', '2024-02-07 14:00:00', '2024-02-07 12:00:00', '2024-02-07 11:00:00', '2024-02-07 10:00:00', '2024-02-07 08:00:00', '2024-02-06 18:00:00', '2024-02-06 15:00:00', '2024-02-06 06:00:00', '2024-02-06 00:00:00', '2024-02-05 21:00:00']"
Ghana, Takoradi Airport (TKD/DGTK) ,"['DGTK 082000Z 23005KT 2500 BR NSC 29/27 Q1012 NOSIG', 'DGTK 081800Z 23007KT 2500 BR NSC 30/27 Q1010 NOSIG', 'DGTK 081500Z 23008KT 3000 HZ NSC 32/27 Q1010 NOSIG', 'DGTK 081400Z 23009KT 3000 HZ NSC 32/27 Q1011 NOSIG', 'DGTK 081300Z 18005KT 4000 HZ NSC 32/26 Q1012 NOSIG', 'DGTK 081200Z 18005KT 4000 HZ FEW013 32/26 Q1014 NOSIG', 'DGTK 081100Z 32002KT 4000 HZ FEW013 31/26 Q1014 NOSIG', 'DGTK 081000Z 27002KT 4000 HZ HZ SCT012 SCT012 30/26 Q1015', 'DGTK 080700Z 00000KT 2500 BR NSC 26/25 Q1014 NOSIG', 'DGTK 080600Z 00000KT 1500 BR NSC 26/25 Q1013 NOSIG', 'DGTK 080500Z 00000KT 2500 BR FEW011 26/25 Q1013 NOSIG', 'DGTK 080000Z 00000KT 3000 BR NSC 28/26 Q1013 NOSIG', 'DGTK 072100Z 00000KT 3000 BR NSC 28/26 Q1014 NOSIG', 'DGTK 072000Z 00000KT 3000 BR NSC 29/26 Q1012 NOSIG', 'DGTK 071800Z 00000KT 2500 BR NSC 30/26 Q1011', 'DGTK 071700Z 00000KT 2500 HZ NSC 31/26 Q1010 NOSIG', 'DGTK 071600Z 18004KT 2500 HZ NSC 32/25 Q1010', 'DGTK 071400Z 18006KT 2500 HZ NSC 33/23 Q1011', 'DGTK 071300Z 18005KT 2500 HZ NSC 33/24 Q1012 NOSIG', 'DGTK 071200Z 18004KT 2500 HZ NSC 32/24 Q1013', 'DGTK 070800Z 36003KT 2000 BR BKN090 26/23 Q1014', 'DGTK 061900Z 00000KT 4000 BR NSC 30/27 Q1011', 'DGTK 061800Z 00000KT 4000 BR NSC 30/27 Q1011 NOSIG', 'DGTK 061700Z 00000KT 5000 HZ NSC 31/27 Q1011 NOSIG', 'DGTK 061600Z 00000KT 5000 HZ NSC 31/26 Q1011', 'DGTK 061500Z 00000KT 5000 HZ NSC 32/27 Q1011', 'DGTK 061300Z 00000KT 5000 HZ NSC 32/24 Q1012', 'DGTK 061200Z 14002KT 5000 HZ NSC 32/25 Q1013', 'DGTK 061100Z 00000KT 5000 HZ FEW013 31/25 Q1015', 'DGTK 061000Z 00000KT 4000 BR SCT012 30/27 Q1015', 'DGTK 060900Z 00000KT 4000 BR BKN011 29/27 Q1015', 'DGTK 060600Z 00000KT 3000 BR FEW011 27/26 Q1013 NOSIG', 'DGTK 060000Z 00000KT 3000 BR FEW011 29/27 Q1015 NOSIG', 'DGTK 052100Z 00000KT 3000 BR FEW011 29/28 Q1014 NOSIG']","['2024-02-08 20:00:00', '2024-02-08 18:00:00', '2024-02-08 15:00:00', '2024-02-08 14:00:00', '2024-02-08 13:00:00', '2024-02-08 12:00:00', '2024-02-08 11:00:00', '2024-02-08 10:00:00', '2024-02-08 07:00:00', '2024-02-08 06:00:00', '2024-02-08 05:00:00', '2024-02-08 00:00:00', '2024-02-07 21:00:00', '2024-02-07 20:00:00', '2024-02-07 18:00:00', '2024-02-07 17:00:00', '2024-02-07 16:00:00', '2024-02-07 14:00:00', '2024-02-07 13:00:00', '2024-02-07 12:00:00', '2024-02-07 08:00:00', '2024-02-06 19:00:00', '2024-02-06 18:00:00', '2024-02-06 17:00:00', '2024-02-06 16:00:00', '2024-02-06 15:00:00', '2024-02-06 13:00:00', '2024-02-06 12:00:00', '2024-02-06 11:00:00', '2024-02-06 10:00:00', '2024-02-06 09:00:00', '2024-02-06 06:00:00', '2024-02-06 00:00:00', '2024-02-05 21:00:00']"
Ghana, Tamale Airport (TML/DGLE) ,"['DGLE 081800Z 05003KT 3000 HZ NSC 34/20 Q1010 NOSIG', 'DGLE 081600Z 05002KT 2000 HZ NSC 37/21 Q1009 NOSIG', 'DGLE 081500Z 05003KT 2000 HZ NSC 37/18 Q1010 NOSIG', 'DGLE 081400Z 05004KT 2000 HZ NSC 37/16 Q1011 NOSIG', 'DGLE 081300Z 05003KT 2000 HZ NSC 35/15 Q1012 NOSIG', 'DGLE 081200Z 05004KT 2000 HZ NSC 34/15 Q1014 NOSIG', 'DGLE 081100Z 05005KT 2000 HZ NSC 33/13 Q1015 NOSIG', 'DGLE 081000Z 05004KT 2500 HZ NSC 30/14 Q1019 NOSIG', 'DGLE 080700Z 00000KT 2500 HZ NSC 21/09 Q1015 NOSIG', 'DGLE 080600Z 00000KT 3000 HZ NSC 22/08 Q1014 NOSIG', 'DGLE 080500Z 00000KT 3000 HZ NSC 22/09 Q1014 NOSIG', 'DGLE 080000Z 05003KT 3000 HZ NSC 28/11 Q1013 NOSIG', 'DGLE 072200Z 05003KT 2000 HZ NSC 28/11 Q1014 NOSIG', 'DGLE 072100Z 05003KT 8000 HZ NSC 29/12 Q1013 NOSIG', 'DGLE 072000Z 00000KT 8000 HZ NSC 30/13 Q1013 NOSIG', 'DGLE 071800Z 05003KT 0800 HZ NSC 34/12 Q1011 NOSIG', 'DGLE 071700Z 05004KT 0800 HZ NSC 36/12 Q1010 NOSIG', 'DGLE 071600Z 05005KT 0600 HZ NSC 36/11 Q1010 NOSIG', 'DGLE 071400Z 05005KT 0600 HZ NSC 36/11 Q1011 NOSIG', 'DGLE 071300Z 05008KT 0600 HZ NSC 35/11 Q1012 NOSIG', 'DGLE 071200Z 05006KT 0600 HZ NSC 34/10 Q1014 NOSIG', 'DGLE 071100Z 05006KT 1000 HZ NSC 33/09 Q1015 NOSIG', 'DGLE 071000Z 05008KT 1000 HZ NSC 30/07 Q1016 NOSIG', 'DGLE 070800Z 36002KT 3000 HZ NSC 24/07 Q1015 NOSIG', 'DGLE 061800Z 36001KT 3500 HZ NSC 34/11 Q1012 NOSIG', 'DGLE 060600Z 05002KT 5000 HZ NSC 21/06 Q1016 NOSIG', 'DGLE 060000Z 05002KT 4000 HZ NSC 27/10 Q1015 NOSIG', 'DGLE 052100Z 05003KT 4000 HZ NSC 30/09 Q1015 NOSIG']","['2024-02-08 18:00:00', '2024-02-08 16:00:00', '2024-02-08 15:00:00', '2024-02-08 14:00:00', '2024-02-08 13:00:00', '2024-02-08 12:00:00', '2024-02-08 11:00:00', '2024-02-08 10:00:00', '2024-02-08 07:00:00', '2024-02-08 06:00:00', '2024-02-08 05:00:00', '2024-02-08 00:00:00', '2024-02-07 22:00:00', '2024-02-07 21:00:00', '2024-02-07 20:00:00', '2024-02-07 18:00:00', '2024-02-07 17:00:00', '2024-02-07 16:00:00', '2024-02-07 14:00:00', '2024-02-07 13:00:00', '2024-02-07 12:00:00', '2024-02-07 11:00:00', '2024-02-07 10:00:00', '2024-02-07 08:00:00', '2024-02-06 18:00:00', '2024-02-06 06:00:00', '2024-02-06 00:00:00', '2024-02-05 21:00:00']"
Gibraltar, Gibraltar Airport (GIB/LXGB) ,"['LXGB 082020Z AUTO 23021KT 9999 -RA BKN063/// 18/10 Q1011', 'LXGB 081950Z 25018G28KT 9999 -RA OVC060 17/10 Q1012 TEMPO 24025G35KT 7000 RA', 'LXGB 081920Z 25019G33KT 9999 -RA FEW050 OVC060 18/10 Q1012 TEMPO 24025G35KT 7000 RA', 'LXGB 081850Z 24014G28KT 9999 -RA FEW060 OVC080 20/08 Q1011 NOSIG', 'LXGB 081820Z 24014G24KT CAVOK 20/06 Q1012 TEMPO 22015G25KT', 'LXGB 081750Z 23011G21KT CAVOK 20/04 Q1011 TEMPO 22015G25KT', 'LXGB 081720Z 22010KT CAVOK 20/05 Q1011 TEMPO 22015G25KT', 'LXGB 081650Z 22010KT CAVOK 20/05 Q1012 TEMPO 22015G25KT', 'LXGB 081620Z 22010KT CAVOK 20/05 Q1012 TEMPO 22015G25KT', 'LXGB 081550Z 23011KT CAVOK 20/05 Q1012 TEMPO 22015G25KT', 'LXGB 081520Z 23011KT CAVOK 20/04 Q1013 BECMG 23015KT', 'LXGB 081450Z 24008G18KT CAVOK 20/05 Q1014 BECMG 23015KT', 'LXGB 081420Z 12003KT CAVOK 18/08 Q1014 TEMPO VRB05KT', 'LXGB 081350Z 09004KT CAVOK 17/10 Q1014 TEMPO VRB05KT', 'LXGB 081320Z 09004KT CAVOK 16/12 Q1015 TEMPO VRB05KT', 'LXGB 081250Z 08005KT CAVOK 16/12 Q1015 TEMPO VRB05KT', 'LXGB 081220Z 08005KT CAVOK 16/11 Q1016 NOSIG', 'LXGB 081150Z 08002KT CAVOK 16/11 Q1017 NOSIG', 'LXGB 081120Z 10004KT CAVOK 16/11 Q1017 NOSIG', 'LXGB 081050Z 09004KT CAVOK 15/12 Q1017 NOSIG', 'LXGB 081020Z 25002KT CAVOK 14/09 Q1017 NOSIG', 'LXGB 080950Z 26002KT CAVOK 13/09 Q1018 NOSIG', 'LXGB 080920Z 25005KT CAVOK 13/09 Q1018 NOSIG', 'LXGB 080850Z 26005KT CAVOK 12/09 Q1018 NOSIG', 'LXGB 080820Z 26005KT CAVOK 12/09 Q1018 NOSIG', 'LXGB 080750Z 24005KT CAVOK 12/09 Q1018 NOSIG', 'LXGB 080650Z 25005KT CAVOK 12/10 Q1018', 'LXGB 080550Z 25005KT CAVOK 12/11 Q1018', 'LXGB 080450Z 26005KT CAVOK 12/11 Q1019', 'LXGB 080420Z AUTO 25006KT 9999 NCD 13/11 Q1019', 'LXGB 080320Z AUTO 23007KT 9999 NCD 13/12 Q1019', 'LXGB 080250Z AUTO 26006KT 9999 NCD 14/12 Q1020', 'LXGB 080220Z AUTO 25006KT 9999 NCD 14/12 Q1020', 'LXGB 080120Z AUTO 25010KT 9999 NCD 14/12 Q1021', 'LXGB 080050Z AUTO 24007KT 9999 NCD 14/12 Q1022', 'LXGB 080020Z AUTO 24007KT 9999 BKN210/// 14/12 Q1022', 'LXGB 072320Z AUTO 27008KT 9999 NCD 15/12 Q1022', 'LXGB 072250Z AUTO 26009KT 9999 NCD 15/13 Q1023', 'LXGB 072220Z AUTO 27008KT 9999 NCD 15/13 Q1023', 'LXGB 072150Z AUTO 27007KT 9999 NCD 15/13 Q1023', 'LXGB 072120Z AUTO 26008KT 9999 NCD 15/13 Q1023', 'LXGB 072050Z AUTO 24009KT 9999 NCD 15/12 Q1024', 'LXGB 072020Z 27010KT CAVOK 16/13 Q1024 NOSIG', 'LXGB 071950Z 28009KT CAVOK 16/13 Q1024 NOSIG', 'LXGB 071920Z 27010KT 9999 FEW027 16/13 Q1024 NOSIG', 'LXGB 071850Z 27010KT 9999 FEW027 17/12 Q1024 NOSIG', 'LXGB 071820Z 26010KT 9999 FEW027 17/13 Q1023 NOSIG', 'LXGB 071750Z 25009KT 9999 FEW027 18/13 Q1023 NOSIG', 'LXGB 071720Z 25008KT 9999 FEW027 18/12 Q1023 NOSIG', 'LXGB 071650Z 24008KT 9999 FEW027 19/12 Q1024 NOSIG', 'LXGB 071620Z 25011KT 9999 FEW027 19/12 Q1024 NOSIG', 'LXGB 071550Z 25011KT 9999 FEW035 19/12 Q1024 NOSIG', 'LXGB 071520Z 27011KT 9999 FEW030 19/13 Q1024 NOSIG', 'LXGB 071450Z 27012KT 9999 FEW030 SCT230 18/12 Q1024 NOSIG', 'LXGB 071420Z 27012KT 9999 FEW030 SCT200 19/12 Q1024 NOSIG', 'LXGB 071350Z 27013KT 9999 FEW030 SCT230 19/11 Q1025 NOSIG', 'LXGB 071320Z 27011KT 9999 FEW030 SCT170 SCT240 19/12 Q1025 NOSIG', 'LXGB 071250Z 28012KT 9999 FEW027 SCT180 18/12 Q1026 NOSIG', 'LXGB 071150Z 26012KT 9999 FEW025 BKN180 18/12 Q1027 NOSIG', 'LXGB 071120Z 27010KT 9999 FEW025 BKN180 18/13 Q1027 NOSIG', 'LXGB 071050Z 27008KT 9999 FEW025 BKN180 18/12 Q1027 NOSIG', 'LXGB 071020Z 25006KT 9999 FEW025 SCT180 17/12 Q1027 NOSIG', 'LXGB 070950Z 25006KT 9999 FEW025 SCT180 16/12 Q1027 NOSIG', 'LXGB 070920Z 27006KT 9999 FEW020 SCT180 15/12 Q1027 NOSIG', 'LXGB 070820Z AUTO 28009KT 9999 NCD 15/12 Q1027', 'LXGB 070750Z 27006KT 9999 FEW020 SCT180 14/11 Q1027 NOSIG', 'LXGB 070650Z 27008KT 9999 FEW020 SCT180 14/11 Q1027', 'LXGB 070550Z 26009KT 9999 FEW020 15/12 Q1027', 'LXGB 070450Z 27010KT 9999 FEW020 15/12 Q1027', 'LXGB 070420Z AUTO 26010KT 9999 NCD 15/12 Q1027', 'LXGB 070320Z AUTO 27013KT 9999 NCD 14/11 Q1027', 'LXGB 070250Z AUTO 28014KT 9999 NCD 15/11 Q1027', 'LXGB 070220Z AUTO 28013KT 9999 NCD 15/11 Q1027', 'LXGB 070150Z AUTO 28014KT 9999 NCD 15/12 Q1027', 'LXGB 070120Z AUTO 28012KT 9999 NCD 15/12 Q1027', 'LXGB 070050Z AUTO 28011KT 9999 NCD 15/12 Q1028', 'LXGB 070020Z AUTO 28009KT 9999 NCD 15/12 Q1028', 'LXGB 062320Z AUTO 28009KT 9999 NCD 15/12 Q1028', 'LXGB 062250Z AUTO 27010KT 9999 NCD 15/12 Q1028', 'LXGB 062220Z AUTO 27011KT 9999 NCD 15/12 Q1028', 'LXGB 062150Z AUTO 28011KT 9999 NCD 16/12 Q1028', 'LXGB 062120Z AUTO 28011KT 9999 NCD 16/12 Q1028', 'LXGB 062050Z AUTO 30012KT 9999 NCD 16/12 Q1028', 'LXGB 062020Z AUTO 27012KT 9999 NCD 16/12 Q1028', 'LXGB 061950Z AUTO 26014KT 9999 NCD 16/13 Q1028', 'LXGB 061920Z AUTO 26015KT 9999 NCD 17/13 Q1028', 'LXGB 061850Z 27011KT 9999 FEW025 17/13 Q1028 NOSIG', 'LXGB 061820Z 27010KT 9999 FEW027 17/12 Q1028 NOSIG', 'LXGB 061750Z 26010KT 9999 FEW027 18/12 Q1027 NOSIG', 'LXGB 061720Z 26010KT 9999 FEW027 18/12 Q1027 NOSIG', 'LXGB 061650Z 26013KT 9999 FEW027 19/12 Q1027 NOSIG', 'LXGB 061620Z 26013KT 9999 FEW027 19/12 Q1027 NOSIG', 'LXGB 061550Z 26013KT 9999 FEW027 19/12 Q1027 NOSIG', 'LXGB 061520Z 26013KT 9999 FEW027 19/12 Q1027 NOSIG', 'LXGB 061450Z 26013KT 9999 FEW028 19/12 Q1027 TEMPO 26015G25KT', 'LXGB 061420Z 26013KT 9999 FEW028 19/12 Q1027 TEMPO 25015G25KT', 'LXGB 061350Z 25015KT 9999 FEW025 19/12 Q1027 TEMPO 25015G25KT', 'LXGB 061320Z 26014KT 9999 FEW020 19/12 Q1027 NOSIG', 'LXGB 061220Z 27012KT 9999 FEW028 19/12 Q1028 NOSIG', 'LXGB 061150Z 28016KT 9999 FEW025 18/12 Q1028 NOSIG', 'LXGB 061120Z 28014G24KT 9999 FEW025 18/12 Q1028 NOSIG', 'LXGB 061050Z 27014KT 9999 FEW024 18/12 Q1028 NOSIG', 'LXGB 061020Z 28010KT 9999 FEW020 17/12 Q1028 NOSIG', 'LXGB 060950Z 24010KT 9999 FEW020 SCT180 17/12 Q1028 NOSIG', 'LXGB 060920Z 26010KT 9999 FEW020 SCT180 16/12 Q1028 NOSIG', 'LXGB 060850Z 27010KT 9999 FEW020 BKN180 15/12 Q1028 NOSIG', 'LXGB 060820Z 27010KT 9999 FEW020 SCT200 15/12 Q1028 NOSIG', 'LXGB 060750Z 26011KT 9999 FEW020 SCT200 14/12 Q1027 NOSIG', 'LXGB 060650Z 27011KT CAVOK 14/11 Q1027', 'LXGB 060550Z 25010KT CAVOK 14/11 Q1027', 'LXGB 060450Z 26012KT CAVOK 15/11 Q1027', 'LXGB 060420Z AUTO 27014KT 9999 OVC170/// 15/11 Q1027', 'LXGB 060320Z AUTO 27011KT 9999 OVC160/// 15/11 Q1027', 'LXGB 060250Z AUTO 26013KT 9999 OVC190/// 14/10 Q1027', 'LXGB 060220Z AUTO 27014KT 9999 OVC170/// 14/10 Q1027', 'LXGB 060150Z AUTO 28013KT 9999 OVC180/// 15/10 Q1027', 'LXGB 060120Z AUTO 23010KT 9999 OVC200/// 15/10 Q1027', 'LXGB 060050Z AUTO 25007KT 9999 OVC190/// 14/10 Q1028', 'LXGB 060020Z AUTO 24007KT 9999 BR OVC180/// 14/11 Q1028', 'LXGB 052320Z AUTO 25007KT 9000 OVC200/// 14/12 Q1028', 'LXGB 052250Z AUTO 26006KT 9999 OVC200/// 15/12 Q1028', 'LXGB 052220Z AUTO 27006KT 9999 OVC210/// 15/12 Q1028', 'LXGB 052150Z AUTO 27006KT 9999 OVC200/// 15/13 Q1028', 'LXGB 052120Z AUTO 27006KT 9999 BKN200/// 15/13 Q1028']","['2024-02-08 20:20:00', '2024-02-08 19:50:00', '2024-02-08 19:20:00', '2024-02-08 18:50:00', '2024-02-08 18:20:00', '2024-02-08 17:50:00', '2024-02-08 17:20:00', '2024-02-08 16:50:00', '2024-02-08 16:20:00', '2024-02-08 15:50:00', '2024-02-08 15:20:00', '2024-02-08 14:50:00', '2024-02-08 14:20:00', '2024-02-08 13:50:00', '2024-02-08 13:20:00', '2024-02-08 12:50:00', '2024-02-08 12:20:00', '2024-02-08 11:50:00', '2024-02-08 11:20:00', '2024-02-08 10:50:00', '2024-02-08 10:20:00', '2024-02-08 09:50:00', '2024-02-08 09:20:00', '2024-02-08 08:50:00', '2024-02-08 08:20:00', '2024-02-08 07:50:00', '2024-02-08 06:50:00', '2024-02-08 05:50:00', '2024-02-08 04:50:00', '2024-02-08 04:20:00', '2024-02-08 03:20:00', '2024-02-08 02:50:00', '2024-02-08 02:20:00', '2024-02-08 01:20:00', '2024-02-08 00:50:00', '2024-02-08 00:20:00', '2024-02-07 23:20:00', '2024-02-07 22:50:00', '2024-02-07 22:20:00', '2024-02-07 21:50:00', '2024-02-07 21:20:00', '2024-02-07 20:50:00', '2024-02-07 20:20:00', '2024-02-07 19:50:00', '2024-02-07 19:20:00', '2024-02-07 18:50:00', '2024-02-07 18:20:00', '2024-02-07 17:50:00', '2024-02-07 17:20:00', '2024-02-07 16:50:00', '2024-02-07 16:20:00', '2024-02-07 15:50:00', '2024-02-07 15:20:00', '2024-02-07 14:50:00', '2024-02-07 14:20:00', '2024-02-07 13:50:00', '2024-02-07 13:20:00', '2024-02-07 12:50:00', '2024-02-07 11:50:00', '2024-02-07 11:20:00', '2024-02-07 10:50:00', '2024-02-07 10:20:00', '2024-02-07 09:50:00', '2024-02-07 09:20:00', '2024-02-07 08:20:00', '2024-02-07 07:50:00', '2024-02-07 06:50:00', '2024-02-07 05:50:00', '2024-02-07 04:50:00', '2024-02-07 04:20:00', '2024-02-07 03:20:00', '2024-02-07 02:50:00', '2024-02-07 02:20:00', '2024-02-07 01:50:00', '2024-02-07 01:20:00', '2024-02-07 00:50:00', '2024-02-07 00:20:00', '2024-02-06 23:20:00', '2024-02-06 22:50:00', '2024-02-06 22:20:00', '2024-02-06 21:50:00', '2024-02-06 21:20:00', '2024-02-06 20:50:00', '2024-02-06 20:20:00', '2024-02-06 19:50:00', '2024-02-06 19:20:00', '2024-02-06 18:50:00', '2024-02-06 18:20:00', '2024-02-06 17:50:00', '2024-02-06 17:20:00', '2024-02-06 16:50:00', '2024-02-06 16:20:00', '2024-02-06 15:50:00', '2024-02-06 15:20:00', '2024-02-06 14:50:00', '2024-02-06 14:20:00', '2024-02-06 13:50:00', '2024-02-06 13:20:00', '2024-02-06 12:20:00', '2024-02-06 11:50:00', '2024-02-06 11:20:00', '2024-02-06 10:50:00', '2024-02-06 10:20:00', '2024-02-06 09:50:00', '2024-02-06 09:20:00', '2024-02-06 08:50:00', '2024-02-06 08:20:00', '2024-02-06 07:50:00', '2024-02-06 06:50:00', '2024-02-06 05:50:00', '2024-02-06 04:50:00', '2024-02-06 04:20:00', '2024-02-06 03:20:00', '2024-02-06 02:50:00', '2024-02-06 02:20:00', '2024-02-06 01:50:00', '2024-02-06 01:20:00', '2024-02-06 00:50:00', '2024-02-06 00:20:00', '2024-02-05 23:20:00', '2024-02-05 22:50:00', '2024-02-05 22:20:00', '2024-02-05 21:50:00', '2024-02-05 21:20:00']"
Greece, Alexandroupolis International Airport (AXD/LGAL) ,"['LGAL 082020Z 00000KT 9999 FEW025 13/12 Q1011', 'LGAL 081950Z 00000KT 9999 FEW025 13/12 Q1011', 'LGAL 081920Z 23008KT 9999 SCT025 14/12 Q1011', 'LGAL 081850Z 21006KT 9999 SCT025 15/13 Q1011', 'LGAL 081820Z 22005KT 9999 SCT025 15/13 Q1011', 'LGAL 081750Z 21009KT 9999 SCT025 15/13 Q1011', 'LGAL 081720Z 20005KT 9999 FEW020 14/12 Q1011', 'LGAL 081650Z 22005KT 9999 FEW020 14/12 Q1011', 'LGAL 081620Z 20008KT 9999 FEW020 15/13 Q1010', 'LGAL 081550Z 21009KT 9999 FEW020 15/13 Q1010', 'LGAL 081520Z 21010KT 9999 FEW020 16/13 Q1010', 'LGAL 081450Z 21010KT 9999 FEW025 SCT035 16/13 Q1011', 'LGAL 081420Z 21015KT 9999 FEW025 SCT035 17/14 Q1011', 'LGAL 081350Z 21015KT 9999 SCT025 17/14 Q1011', 'LGAL 081320Z 21016KT 9999 SCT025 17/14 Q1011', 'LGAL 081250Z 21015KT 9999 SCT025 17/14 Q1011', 'LGAL 081220Z 22014G24KT 9999 SCT025 17/14 Q1011', 'LGAL 081150Z 21015KT 9999 SCT025 17/14 Q1011', 'LGAL 081120Z 21016KT 9999 SCT025 17/13 Q1011', 'LGAL 081050Z 21015KT 9999 FEW015 SCT025 17/13 Q1012', 'LGAL 081020Z 21015KT 9999 FEW015 SCT025 17/14 Q1012', 'LGAL 080950Z 21015KT 9999 FEW015 SCT025 17/14 Q1012', 'LGAL 080920Z 21016KT 9999 FEW015 SCT025 16/14 Q1012', 'LGAL 080850Z 23013KT 9999 FEW015 SCT025 16/14 Q1012', 'LGAL 080820Z 22014KT 9999 FEW015 SCT025 16/14 Q1012', 'LGAL 080750Z 22013KT 9999 FEW015 SCT025 16/14 Q1012', 'LGAL 080720Z 23012KT 9999 FEW010 SCT018 16/13 Q1012', 'LGAL 080650Z 22015G25KT 9999 FEW008 SCT015 16/13 Q1012', 'LGAL 080620Z 22011KT 9999 FEW008 SCT015 15/13 Q1012', 'LGAL 080550Z 21010KT 9999 FEW008 SCT015 15/13 Q1012', 'LGAL 080520Z 22011KT 9999 FEW008 SCT015 15/14 Q1011', 'LGAL 080450Z 22012KT 9999 FEW010 SCT016 15/14 Q1011', 'LGAL 080420Z 21010KT 9999 SCT020 14/13 Q1011', 'LGAL 080350Z 21010KT 9999 SCT020 14/13 Q1011', 'LGAL 080320Z 22010KT 9999 SCT020 14/12 Q1011', 'LGAL 080250Z 22010KT 9999 SCT020 14/12 Q1011', 'LGAL 080050Z 00000KT 9999 SCT020 11/09 Q1012', 'LGAL 080020Z 00000KT 9999 SCT020 11/09 Q1012', 'LGAL 072350Z 00000KT 9999 SCT020 11/09 Q1012', 'LGAL 072320Z 00000KT 9999 SCT020 11/09 Q1013', 'LGAL 072250Z 00000KT 9999 SCT020 11/09 Q1013', 'LGAL 072220Z 00000KT 9999 SCT020 12/09 Q1012', 'LGAL 072150Z 00000KT 9999 SCT020 12/09 Q1012', 'LGAL 072120Z 03004KT 9999 SCT020 12/09 Q1012', 'LGAL 072050Z 03004KT 9999 SCT020 12/09 Q1012', 'LGAL 072020Z 00000KT 9999 SCT020 12/10 Q1013', 'LGAL 071950Z 00000KT 9999 SCT020 12/10 Q1013', 'LGAL 071920Z 00000KT 9999 SCT020 13/11 Q1013', 'LGAL 071850Z 00000KT 9999 SCT020 13/11 Q1013', 'LGAL 071820Z 26004KT 9999 SCT020 14/11 Q1013', 'LGAL 071750Z 26004KT 9999 SCT020 14/11 Q1013', 'LGAL 071720Z 27007KT 9999 FEW020 14/11 Q1013', 'LGAL 071650Z 27007KT 9999 FEW020 14/11 Q1013', 'LGAL 071620Z 25006KT 9999 SCT020 15/12 Q1012', 'LGAL 071550Z 25006KT 9999 SCT020 15/12 Q1012', 'LGAL 071520Z 21009KT 9999 SCT020 15/13 Q1012', 'LGAL 071450Z 21009KT 9999 SCT020 15/13 Q1012', 'LGAL 071420Z 21011KT 9999 SCT020 16/13 Q1013', 'LGAL 071350Z 21011KT 9999 SCT020 16/13 Q1013', 'LGAL 071320Z 20010KT 9999 SCT020 17/13 Q1013', 'LGAL 071250Z 20010KT 9999 SCT020 17/13 Q1013', 'LGAL 071220Z 21014KT 9999 SCT020 17/14 Q1013', 'LGAL 071150Z 21014KT 9999 SCT020 17/14 Q1013', 'LGAL 071120Z 21015KT 9999 SCT020 17/14 Q1014', 'LGAL 071050Z 21015KT 9999 SCT020 17/14 Q1014', 'LGAL 071020Z 21012KT 9999 SCT020 16/14 Q1015', 'LGAL 070950Z 21012KT 9999 SCT020 16/14 Q1015', 'LGAL 070920Z 20012KT 9999 SCT020 15/12 Q1015', 'LGAL 070850Z 20012KT 9999 SCT020 14/12 Q1015', 'LGAL 070820Z 23009KT 9999 BKN018 13/12 Q1015', 'LGAL 070750Z 23009KT 9999 BKN018 13/12 Q1015', 'LGAL 070720Z 25004KT 9999 BKN018 13/12 Q1015', 'LGAL 070650Z 25004KT 9999 BKN018 13/12 Q1015', 'LGAL 070620Z 00000KT 9999 SCT015 12/11 Q1015', 'LGAL 070550Z 00000KT 9999 SCT015 12/11 Q1015', 'LGAL 070520Z 21004KT 9999 FEW010 12/11 Q1015', 'LGAL 070450Z 00000KT 9999 FEW010 SCT020 12/11 Q1015', 'LGAL 070420Z 20003KT 9999 FEW010 11/10 Q1015', 'LGAL 070350Z 22004KT 9999 FEW010 09/09 Q1015', 'LGAL 070320Z 00000KT 9999 FEW010 08/07 Q1015', 'LGAL 070250Z 00000KT 9999 FEW010 08/07 Q1015', 'LGAL 070150Z 00000KT CAVOK 07/06 Q1015', 'LGAL 070050Z 00000KT CAVOK 06/05 Q1016', 'LGAL 062350Z 01003KT CAVOK 06/06 Q1016', 'LGAL 062250Z 00000KT CAVOK 07/07 Q1016', 'LGAL 062150Z 00000KT CAVOK 08/07 Q1017', 'LGAL 062050Z 00000KT CAVOK 08/08 Q1017', 'LGAL 062020Z 01003KT CAVOK 09/08 Q1017', 'LGAL 061950Z 01003KT CAVOK 09/08 Q1017', 'LGAL 061920Z 00000KT CAVOK 09/08 Q1018', 'LGAL 061850Z 36003KT CAVOK 09/08 Q1018', 'LGAL 061820Z 00000KT CAVOK 10/09 Q1018', 'LGAL 061750Z 01003KT CAVOK 10/09 Q1017', 'LGAL 061720Z 00000KT CAVOK 13/11 Q1018', 'LGAL 061650Z 00000KT CAVOK 13/11 Q1018', 'LGAL 061620Z 00000KT CAVOK 13/11 Q1018', 'LGAL 061550Z 00000KT CAVOK 14/11 Q1018', 'LGAL 061520Z 17003KT CAVOK 16/12 Q1018', 'LGAL 061450Z 22004KT CAVOK 17/12 Q1018', 'LGAL 061420Z 23005KT CAVOK 17/11 Q1018', 'LGAL 061350Z 23005KT CAVOK 17/11 Q1018', 'LGAL 061320Z 22006KT CAVOK 17/11 Q1019', 'LGAL 061250Z 22006KT CAVOK 17/11 Q1019', 'LGAL 061220Z 20005KT CAVOK 17/11 Q1019', 'LGAL 061150Z 22005KT CAVOK 17/11 Q1019', 'LGAL 061120Z 22006KT CAVOK 17/11 Q1020', 'LGAL 061050Z 22006KT CAVOK 17/11 Q1020', 'LGAL 061020Z 24003KT CAVOK 17/12 Q1020', 'LGAL 060950Z 25003KT CAVOK 16/12 Q1020', 'LGAL 060850Z 19003KT CAVOK 13/12 Q1021', 'LGAL 060820Z 00000KT CAVOK 12/11 Q1021', 'LGAL 060750Z 00000KT CAVOK 11/10 Q1020', 'LGAL 060720Z 00000KT CAVOK 09/08 Q1020', 'LGAL 060650Z 00000KT 9999 FEW005 07/06 Q1020', 'LGAL 060620Z 00000KT 9999 FEW005 06/05 Q1020', 'LGAL 060550Z 00000KT 4000 BR FEW005 05/04 Q1020', 'LGAL 060520Z 35002KT 6000 FEW008 05/04 Q1019', 'LGAL 060450Z 00000KT 9000 FEW008 05/04 Q1019', 'LGAL 060420Z 32003KT 3000 BR SCT005 04/03 Q1019', 'LGAL 060350Z 36002KT 1000 BR SCT005 05/05 Q1018', 'LGAL 060320Z 36004KT 2000 BR SCT005 05/05 Q1018', 'LGAL 060250Z 36004KT 6000 SCT005 05/04 Q1018', 'LGAL 060150Z 00000KT CAVOK 06/05 Q1018', 'LGAL 060050Z 00000KT CAVOK 06/04 Q1018', 'LGAL 052350Z 00000KT CAVOK 05/03 Q1018', 'LGAL 052250Z 00000KT CAVOK 06/04 Q1018']","['2024-02-08 20:20:00', '2024-02-08 19:50:00', '2024-02-08 19:20:00', '2024-02-08 18:50:00', '2024-02-08 18:20:00', '2024-02-08 17:50:00', '2024-02-08 17:20:00', '2024-02-08 16:50:00', '2024-02-08 16:20:00', '2024-02-08 15:50:00', '2024-02-08 15:20:00', '2024-02-08 14:50:00', '2024-02-08 14:20:00', '2024-02-08 13:50:00', '2024-02-08 13:20:00', '2024-02-08 12:50:00', '2024-02-08 12:20:00', '2024-02-08 11:50:00', '2024-02-08 11:20:00', '2024-02-08 10:50:00', '2024-02-08 10:20:00', '2024-02-08 09:50:00', '2024-02-08 09:20:00', '2024-02-08 08:50:00', '2024-02-08 08:20:00', '2024-02-08 07:50:00', '2024-02-08 07:20:00', '2024-02-08 06:50:00', '2024-02-08 06:20:00', '2024-02-08 05:50:00', '2024-02-08 05:20:00', '2024-02-08 04:50:00', '2024-02-08 04:20:00', '2024-02-08 03:50:00', '2024-02-08 03:20:00', '2024-02-08 02:50:00', '2024-02-08 00:50:00', '2024-02-08 00:20:00', '2024-02-07 23:50:00', '2024-02-07 23:20:00', '2024-02-07 22:50:00', '2024-02-07 22:20:00', '2024-02-07 21:50:00', '2024-02-07 21:20:00', '2024-02-07 20:50:00', '2024-02-07 20:20:00', '2024-02-07 19:50:00', '2024-02-07 19:20:00', '2024-02-07 18:50:00', '2024-02-07 18:20:00', '2024-02-07 17:50:00', '2024-02-07 17:20:00', '2024-02-07 16:50:00', '2024-02-07 16:20:00', '2024-02-07 15:50:00', '2024-02-07 15:20:00', '2024-02-07 14:50:00', '2024-02-07 14:20:00', '2024-02-07 13:50:00', '2024-02-07 13:20:00', '2024-02-07 12:50:00', '2024-02-07 12:20:00', '2024-02-07 11:50:00', '2024-02-07 11:20:00', '2024-02-07 10:50:00', '2024-02-07 10:20:00', '2024-02-07 09:50:00', '2024-02-07 09:20:00', '2024-02-07 08:50:00', '2024-02-07 08:20:00', '2024-02-07 07:50:00', '2024-02-07 07:20:00', '2024-02-07 06:50:00', '2024-02-07 06:20:00', '2024-02-07 05:50:00', '2024-02-07 05:20:00', '2024-02-07 04:50:00', '2024-02-07 04:20:00', '2024-02-07 03:50:00', '2024-02-07 03:20:00', '2024-02-07 02:50:00', '2024-02-07 01:50:00', '2024-02-07 00:50:00', '2024-02-06 23:50:00', '2024-02-06 22:50:00', '2024-02-06 21:50:00', '2024-02-06 20:50:00', '2024-02-06 20:20:00', '2024-02-06 19:50:00', '2024-02-06 19:20:00', '2024-02-06 18:50:00', '2024-02-06 18:20:00', '2024-02-06 17:50:00', '2024-02-06 17:20:00', '2024-02-06 16:50:00', '2024-02-06 16:20:00', '2024-02-06 15:50:00', '2024-02-06 15:20:00', '2024-02-06 14:50:00', '2024-02-06 14:20:00', '2024-02-06 13:50:00', '2024-02-06 13:20:00', '2024-02-06 12:50:00', '2024-02-06 12:20:00', '2024-02-06 11:50:00', '2024-02-06 11:20:00', '2024-02-06 10:50:00', '2024-02-06 10:20:00', '2024-02-06 09:50:00', '2024-02-06 08:50:00', '2024-02-06 08:20:00', '2024-02-06 07:50:00', '2024-02-06 07:20:00', '2024-02-06 06:50:00', '2024-02-06 06:20:00', '2024-02-06 05:50:00', '2024-02-06 05:20:00', '2024-02-06 04:50:00', '2024-02-06 04:20:00', '2024-02-06 03:50:00', '2024-02-06 03:20:00', '2024-02-06 02:50:00', '2024-02-06 01:50:00', '2024-02-06 00:50:00', '2024-02-05 23:50:00', '2024-02-05 22:50:00']"
Greece, Athens Eleftherios Venizelos (ATH/LGAV) ,"['LGAV 082020Z 26004KT 230V310 9999 FEW025 14/07 Q1012 NOSIG', 'LGAV 081950Z 25005KT 9999 FEW025 15/08 Q1012 NOSIG', 'LGAV 081920Z 24009KT 9999 FEW025 13/07 Q1012 NOSIG', 'LGAV 081850Z 23007KT 9999 FEW025 14/07 Q1012 NOSIG', 'LGAV 081820Z 25006KT 9999 FEW025 11/09 Q1012 NOSIG', 'LGAV 081750Z 25006KT 9999 FEW025 12/10 Q1012 NOSIG', 'LGAV 081720Z 21007KT 9999 FEW025 13/10 Q1012 NOSIG', 'LGAV 081650Z 19004KT 9999 FEW025 14/11 Q1012 NOSIG', 'LGAV 081620Z 19005KT 9999 FEW025 15/11 Q1012 NOSIG', 'LGAV 081550Z 19007KT 9999 FEW025 16/11 Q1012 NOSIG', 'LGAV 081520Z 19009KT 9999 FEW025 16/11 Q1012 NOSIG', 'LGAV 081450Z 20010KT 9999 FEW025 16/11 Q1012 NOSIG', 'LGAV 081420Z 20012KT 9999 FEW025 17/11 Q1012 NOSIG', 'LGAV 081350Z 20011KT 9999 FEW025 18/10 Q1012 NOSIG', 'LGAV 081320Z 20011KT 9999 FEW025 18/08 Q1012 NOSIG', 'LGAV 081250Z 20009KT 9999 FEW025 18/07 Q1012 NOSIG', 'LGAV 081220Z 20010KT 9999 FEW025 18/05 Q1013 NOSIG', 'LGAV 081150Z 21011KT 9999 FEW025 18/08 Q1013 NOSIG', 'LGAV 081120Z 21010KT 180V240 9999 FEW025 18/06 Q1013 NOSIG', 'LGAV 081050Z 19011KT 9999 FEW025 18/07 Q1013 NOSIG', 'LGAV 081020Z 20013KT 9999 FEW025 18/08 Q1014 NOSIG', 'LGAV 080950Z 20013KT 9999 FEW025 18/09 Q1014 NOSIG', 'LGAV 080920Z 20010KT 9999 FEW025 18/08 Q1014 NOSIG', 'LGAV 080850Z 21011KT 9999 FEW025 16/08 Q1014 NOSIG', 'LGAV 080820Z VRB03KT 9999 FEW025 16/10 Q1014 NOSIG', 'LGAV 080720Z VRB02KT 9999 FEW025 14/09 Q1014 NOSIG', 'LGAV 080650Z 00000KT 9999 FEW025 10/08 Q1015 NOSIG', 'LGAV 080620Z 16003KT 9999 FEW025 07/05 Q1015 NOSIG', 'LGAV 080550Z VRB01KT 9999 FEW030 06/04 Q1014 NOSIG', 'LGAV 080520Z 19003KT 9999 FEW030 05/03 Q1014 NOSIG', 'LGAV 080450Z 21004KT 9999 FEW030 07/05 Q1014 NOSIG', 'LGAV 080420Z 00000KT 9999 FEW030 06/04 Q1014 NOSIG', 'LGAV 080350Z 20005KT 170V240 9999 FEW030 07/05 Q1014 NOSIG', 'LGAV 080320Z 00000KT 9999 FEW030 07/04 Q1014 NOSIG', 'LGAV 080250Z 16003KT 9999 FEW030 07/05 Q1014 NOSIG', 'LGAV 080220Z VRB02KT 9999 FEW030 07/05 Q1014 NOSIG', 'LGAV 080150Z 16002KT 9999 FEW030 07/04 Q1014 NOSIG', 'LGAV 080120Z 00000KT 9999 FEW030 09/07 Q1015 NOSIG', 'LGAV 080050Z 13002KT 9999 FEW030 08/06 Q1015 NOSIG', 'LGAV 080020Z 14004KT 9999 FEW030 08/05 Q1015 NOSIG', 'LGAV 072350Z 15003KT 9999 FEW030 08/05 Q1015 NOSIG', 'LGAV 072320Z VRB02KT 9999 FEW030 09/07 Q1015 NOSIG', 'LGAV 072250Z 15002KT 9999 FEW030 11/07 Q1015 NOSIG', 'LGAV 072220Z 00000KT 9999 FEW030 12/06 Q1015 NOSIG', 'LGAV 072150Z 00000KT CAVOK 10/06 Q1015 NOSIG', 'LGAV 072120Z 00000KT CAVOK 10/06 Q1015 NOSIG', 'LGAV 072050Z VRB02KT CAVOK 12/06 Q1015 NOSIG', 'LGAV 072020Z VRB01KT CAVOK 11/07 Q1015 NOSIG', 'LGAV 071950Z VRB01KT CAVOK 12/07 Q1015 NOSIG', 'LGAV 071920Z VRB02KT CAVOK 12/06 Q1015 NOSIG', 'LGAV 071850Z 11003KT 9999 FEW030 12/07 Q1016 NOSIG', 'LGAV 071820Z VRB02KT 9999 FEW030 12/08 Q1016 NOSIG', 'LGAV 071720Z VRB03KT 9999 FEW030 15/08 Q1016 NOSIG', 'LGAV 071650Z 17005KT 120V190 9999 FEW030 15/08 Q1015 NOSIG', 'LGAV 071620Z 15005KT 130V190 9999 FEW030 15/08 Q1015 NOSIG', 'LGAV 071550Z 18007KT 160V220 9999 FEW030 15/09 Q1015 NOSIG', 'LGAV 071520Z 19008KT 9999 FEW030 16/09 Q1015 NOSIG', 'LGAV 071450Z 19007KT 160V230 9999 FEW030 17/10 Q1015 NOSIG', 'LGAV 071420Z 19008KT 9999 FEW030 17/09 Q1015 NOSIG', 'LGAV 071350Z 18011KT 9999 FEW030 17/09 Q1015 NOSIG', 'LGAV 071320Z 25010KT 220V290 9999 FEW030 19/07 Q1015 NOSIG', 'LGAV 071250Z 08004KT 9999 FEW030 20/08 Q1015 NOSIG', 'LGAV 071220Z 07006KT 9999 FEW030 19/07 Q1015 NOSIG', 'LGAV 071150Z 07004KT 030V110 9999 FEW030 19/07 Q1015 NOSIG', 'LGAV 071120Z 08005KT 9999 FEW030 19/09 Q1016 NOSIG', 'LGAV 071050Z VRB03KT 9999 FEW030 20/08 Q1016 NOSIG', 'LGAV 071020Z VRB03KT 9999 FEW030 19/07 Q1016 NOSIG', 'LGAV 070950Z VRB03KT 9999 FEW030 19/08 Q1017 NOSIG', 'LGAV 070920Z VRB03KT 9999 FEW030 18/08 Q1017 NOSIG', 'LGAV 070850Z 08004KT 050V140 9999 FEW030 18/08 Q1017 NOSIG', 'LGAV 070820Z 07004KT 030V240 9999 FEW030 17/08 Q1017 NOSIG', 'LGAV 070750Z 00000KT 9999 FEW030 17/07 Q1017 NOSIG', 'LGAV 070720Z 10005KT 050V150 9999 FEW030 15/07 Q1017 NOSIG', 'LGAV 070650Z 07005KT 030V100 CAVOK 14/07 Q1017 NOSIG', 'LGAV 070620Z 09006KT CAVOK 13/06 Q1017 NOSIG', 'LGAV 070550Z VRB02KT 9999 FEW030 12/06 Q1017 NOSIG', 'LGAV 070520Z VRB02KT CAVOK 12/06 Q1017 NOSIG', 'LGAV 070450Z VRB03KT CAVOK 12/06 Q1017 NOSIG', 'LGAV 070420Z VRB02KT CAVOK 09/04 Q1017 NOSIG', 'LGAV 070350Z VRB03KT CAVOK 07/05 Q1017 NOSIG', 'LGAV 070320Z VRB02KT CAVOK 08/06 Q1017 NOSIG', 'LGAV 070250Z 13002KT CAVOK 08/07 Q1017 NOSIG', 'LGAV 070220Z VRB02KT CAVOK 06/05 Q1017 NOSIG', 'LGAV 070150Z 15003KT CAVOK 08/05 Q1017 NOSIG', 'LGAV 070120Z 12002KT CAVOK 07/04 Q1018 NOSIG', 'LGAV 070050Z 12002KT CAVOK 07/04 Q1018 NOSIG', 'LGAV 070020Z 00000KT CAVOK 07/04 Q1018 NOSIG', 'LGAV 062350Z VRB02KT CAVOK 11/07 Q1018 NOSIG', 'LGAV 062320Z 14003KT CAVOK 12/07 Q1019 NOSIG', 'LGAV 062250Z 15003KT CAVOK 12/07 Q1019 NOSIG', 'LGAV 062220Z 13004KT CAVOK 11/08 Q1019 NOSIG', 'LGAV 062150Z VRB02KT CAVOK 10/07 Q1020 NOSIG', 'LGAV 062120Z 00000KT CAVOK 09/06 Q1020 NOSIG', 'LGAV 062050Z 00000KT CAVOK 12/09 Q1020 NOSIG', 'LGAV 062020Z VRB01KT CAVOK 10/06 Q1020 NOSIG', 'LGAV 061950Z 21004KT 170V250 CAVOK 11/07 Q1021 NOSIG', 'LGAV 061920Z VRB03KT CAVOK 12/07 Q1021 NOSIG', 'LGAV 061850Z VRB01KT CAVOK 13/08 Q1021 NOSIG', 'LGAV 061820Z VRB01KT CAVOK 13/08 Q1021 NOSIG', 'LGAV 061750Z 20004KT CAVOK 13/08 Q1021 NOSIG', 'LGAV 061720Z VRB01KT CAVOK 14/09 Q1021 NOSIG', 'LGAV 061650Z VRB02KT CAVOK 14/09 Q1020 NOSIG', 'LGAV 061620Z 00000KT CAVOK 14/09 Q1020 NOSIG', 'LGAV 061550Z 20004KT 160V250 CAVOK 16/08 Q1020 NOSIG', 'LGAV 061520Z 19007KT CAVOK 18/07 Q1020 NOSIG', 'LGAV 061450Z 18006KT 150V220 CAVOK 19/08 Q1020 NOSIG', 'LGAV 061420Z 18005KT CAVOK 19/08 Q1021 NOSIG', 'LGAV 061350Z 19006KT CAVOK 20/08 Q1021 NOSIG', 'LGAV 061320Z 20007KT CAVOK 21/08 Q1021 NOSIG', 'LGAV 061250Z 18006KT 150V210 CAVOK 21/07 Q1021 NOSIG', 'LGAV 061220Z 15005KT 110V210 CAVOK 21/08 Q1021 NOSIG', 'LGAV 061150Z 17005KT 140V230 CAVOK 21/07 Q1022 NOSIG', 'LGAV 061120Z 17004KT 140V230 CAVOK 21/08 Q1022 NOSIG', 'LGAV 061050Z 18005KT 140V220 CAVOK 21/08 Q1022 NOSIG', 'LGAV 061020Z 18006KT CAVOK 21/06 Q1023 NOSIG', 'LGAV 060950Z 18006KT 160V220 CAVOK 20/08 Q1023 NOSIG', 'LGAV 060920Z VRB03KT CAVOK 19/06 Q1023 NOSIG', 'LGAV 060850Z VRB02KT CAVOK 18/05 Q1023 NOSIG', 'LGAV 060820Z VRB01KT CAVOK 16/05 Q1023 NOSIG', 'LGAV 060750Z 17003KT CAVOK 14/07 Q1023 NOSIG', 'LGAV 060720Z VRB02KT CAVOK 12/07 Q1023', 'LGAV 060650Z VRB01KT CAVOK 10/06 Q1023 NOSIG', 'LGAV 060620Z 01001KT CAVOK 06/04 Q1023 NOSIG', 'LGAV 060550Z 27003KT CAVOK 04/01 Q1023 NOSIG', 'LGAV 060520Z VRB02KT CAVOK 06/03 Q1022 NOSIG', 'LGAV 060450Z 26005KT CAVOK 05/02 Q1022 NOSIG', 'LGAV 060420Z VRB01KT CAVOK 07/03 Q1022 NOSIG', 'LGAV 060350Z VRB02KT CAVOK 07/01 Q1022 NOSIG', 'LGAV 060320Z VRB01KT CAVOK 09/04 Q1022 NOSIG', 'LGAV 060250Z 18004KT CAVOK 09/05 Q1022 NOSIG', 'LGAV 060220Z VRB03KT CAVOK 08/05 Q1021 NOSIG', 'LGAV 060150Z VRB03KT CAVOK 09/05 Q1021 NOSIG', 'LGAV 060120Z 26004KT CAVOK 10/05 Q1022 NOSIG', 'LGAV 060050Z VRB02KT CAVOK 12/04 Q1021 NOSIG', 'LGAV 060020Z VRB02KT CAVOK 10/06 Q1022 NOSIG', 'LGAV 052350Z VRB01KT CAVOK 11/04 Q1022 NOSIG', 'LGAV 052320Z VRB01KT CAVOK 12/05 Q1022 NOSIG', 'LGAV 052250Z 13002KT CAVOK 11/05 Q1022 NOSIG', 'LGAV 052220Z VRB02KT CAVOK 14/04 Q1022 NOSIG', 'LGAV 052150Z 12004KT CAVOK 14/04 Q1021 NOSIG', 'LGAV 052120Z VRB03KT CAVOK 15/04 Q1021 NOSIG']","['2024-02-08 20:20:00', '2024-02-08 19:50:00', '2024-02-08 19:20:00', '2024-02-08 18:50:00', '2024-02-08 18:20:00', '2024-02-08 17:50:00', '2024-02-08 17:20:00', '2024-02-08 16:50:00', '2024-02-08 16:20:00', '2024-02-08 15:50:00', '2024-02-08 15:20:00', '2024-02-08 14:50:00', '2024-02-08 14:20:00', '2024-02-08 13:50:00', '2024-02-08 13:20:00', '2024-02-08 12:50:00', '2024-02-08 12:20:00', '2024-02-08 11:50:00', '2024-02-08 11:20:00', '2024-02-08 10:50:00', '2024-02-08 10:20:00', '2024-02-08 09:50:00', '2024-02-08 09:20:00', '2024-02-08 08:50:00', '2024-02-08 08:20:00', '2024-02-08 07:20:00', '2024-02-08 06:50:00', '2024-02-08 06:20:00', '2024-02-08 05:50:00', '2024-02-08 05:20:00', '2024-02-08 04:50:00', '2024-02-08 04:20:00', '2024-02-08 03:50:00', '2024-02-08 03:20:00', '2024-02-08 02:50:00', '2024-02-08 02:20:00', '2024-02-08 01:50:00', '2024-02-08 01:20:00', '2024-02-08 00:50:00', '2024-02-08 00:20:00', '2024-02-07 23:50:00', '2024-02-07 23:20:00', '2024-02-07 22:50:00', '2024-02-07 22:20:00', '2024-02-07 21:50:00', '2024-02-07 21:20:00', '2024-02-07 20:50:00', '2024-02-07 20:20:00', '2024-02-07 19:50:00', '2024-02-07 19:20:00', '2024-02-07 18:50:00', '2024-02-07 18:20:00', '2024-02-07 17:20:00', '2024-02-07 16:50:00', '2024-02-07 16:20:00', '2024-02-07 15:50:00', '2024-02-07 15:20:00', '2024-02-07 14:50:00', '2024-02-07 14:20:00', '2024-02-07 13:50:00', '2024-02-07 13:20:00', '2024-02-07 12:50:00', '2024-02-07 12:20:00', '2024-02-07 11:50:00', '2024-02-07 11:20:00', '2024-02-07 10:50:00', '2024-02-07 10:20:00', '2024-02-07 09:50:00', '2024-02-07 09:20:00', '2024-02-07 08:50:00', '2024-02-07 08:20:00', '2024-02-07 07:50:00', '2024-02-07 07:20:00', '2024-02-07 06:50:00', '2024-02-07 06:20:00', '2024-02-07 05:50:00', '2024-02-07 05:20:00', '2024-02-07 04:50:00', '2024-02-07 04:20:00', '2024-02-07 03:50:00', '2024-02-07 03:20:00', '2024-02-07 02:50:00', '2024-02-07 02:20:00', '2024-02-07 01:50:00', '2024-02-07 01:20:00', '2024-02-07 00:50:00', '2024-02-07 00:20:00', '2024-02-06 23:50:00', '2024-02-06 23:20:00', '2024-02-06 22:50:00', '2024-02-06 22:20:00', '2024-02-06 21:50:00', '2024-02-06 21:20:00', '2024-02-06 20:50:00', '2024-02-06 20:20:00', '2024-02-06 19:50:00', '2024-02-06 19:20:00', '2024-02-06 18:50:00', '2024-02-06 18:20:00', '2024-02-06 17:50:00', '2024-02-06 17:20:00', '2024-02-06 16:50:00', '2024-02-06 16:20:00', '2024-02-06 15:50:00', '2024-02-06 15:20:00', '2024-02-06 14:50:00', '2024-02-06 14:20:00', '2024-02-06 13:50:00', '2024-02-06 13:20:00', '2024-02-06 12:50:00', '2024-02-06 12:20:00', '2024-02-06 11:50:00', '2024-02-06 11:20:00', '2024-02-06 10:50:00', '2024-02-06 10:20:00', '2024-02-06 09:50:00', '2024-02-06 09:20:00', '2024-02-06 08:50:00', '2024-02-06 08:20:00', '2024-02-06 07:50:00', '2024-02-06 07:20:00', '2024-02-06 06:50:00', '2024-02-06 06:20:00', '2024-02-06 05:50:00', '2024-02-06 05:20:00', '2024-02-06 04:50:00', '2024-02-06 04:20:00', '2024-02-06 03:50:00', '2024-02-06 03:20:00', '2024-02-06 02:50:00', '2024-02-06 02:20:00', '2024-02-06 01:50:00', '2024-02-06 01:20:00', '2024-02-06 00:50:00', '2024-02-06 00:20:00', '2024-02-05 23:50:00', '2024-02-05 23:20:00', '2024-02-05 22:50:00', '2024-02-05 22:20:00', '2024-02-05 21:50:00', '2024-02-05 21:20:00']"
Greece, Chania International Airport (CHQ/LGSA) ,"['LGSA 082020Z 23005KT 9999 FEW025 14/10 Q1014', 'LGSA 081950Z VRB03KT 9999 FEW025 14/10 Q1014', 'LGSA 081920Z 25006KT 9999 FEW025 15/08 Q1014', 'LGSA 081850Z 26007KT 9999 FEW025 15/08 Q1014', 'LGSA 081820Z 26012KT 9999 FEW025 15/08 Q1014', 'LGSA 081750Z 26012KT 9999 FEW025 15/08 Q1014', 'LGSA 081720Z 25010KT 9999 FEW025 14/08 Q1014', 'LGSA 081650Z 26010KT 9999 FEW025 15/08 Q1014', 'LGSA 081620Z 26007KT 9999 FEW025 15/08 Q1014', 'LGSA 081550Z 25010KT 9999 FEW010 SCT020 16/08 Q1014', 'LGSA 081520Z 26010G20KT 9999 FEW010 SCT020 17/08 Q1014', 'LGSA 081450Z 26017G27KT 9999 FEW020 BKN100 18/07 Q1014', 'LGSA 081420Z 28014G24KT 9999 FEW020 18/07 Q1014', 'LGSA 081350Z 27010G20KT 9999 FEW020 19/08 Q1014', 'LGSA 081320Z 25009KT 9999 FEW020 19/10 Q1014', 'LGSA 081250Z 25012KT 9999 FEW020 20/09 Q1014', 'LGSA 081220Z 24007KT 9999 FEW020 20/09 Q1014', 'LGSA 081150Z 21010G21KT 9999 FEW020 20/09 Q1014', 'LGSA 081120Z 26010G20KT 9999 FEW020 20/08 Q1015', 'LGSA 081050Z 23010G20KT 9999 FEW020 20/08 Q1015', 'LGSA 081020Z 23009KT 9999 FEW020 SCT100 19/06 Q1016', 'LGSA 080950Z 20005KT 9999 FEW020 BKN100 18/07 Q1016', 'LGSA 080920Z 28010KT 9999 FEW020 BKN100 18/06 Q1016', 'LGSA 080850Z VRB03KT 9999 FEW020 SCT100 18/09 Q1016', 'LGSA 080820Z 19004KT 9999 FEW020 SCT100 18/09 Q1016', 'LGSA 080750Z VRB03KT 9999 FEW020 SCT100 17/10 Q1016', 'LGSA 080720Z VRB03KT 9999 FEW020 16/10 Q1016', 'LGSA 080650Z VRB03KT 9999 FEW020 14/10 Q1016', 'LGSA 080620Z VRB03KT 9999 FEW020 12/08 Q1016', 'LGSA 080550Z VRB03KT 9999 FEW020 SCT100 10/08 Q1016', 'LGSA 080520Z 00000KT 9999 FEW020 10/08 Q1016', 'LGSA 080450Z 00000KT 9999 FEW020 10/08 Q1016', 'LGSA 080420Z 00000KT 9999 FEW020 11/09 Q1016', 'LGSA 080350Z 00000KT 9999 FEW020 10/07 Q1016', 'LGSA 080320Z 00000KT 9999 FEW020 10/08 Q1016', 'LGSA 080250Z 00000KT 9999 FEW020 11/09 Q1016', 'LGSA 080220Z 00000KT 9999 FEW020 12/10 Q1016', 'LGSA 080150Z 00000KT 9999 FEW020 12/10 Q1016', 'LGSA 080120Z 00000KT 9999 FEW020 12/10 Q1016', 'LGSA 080050Z 00000KT 9999 FEW020 11/10 Q1016', 'LGSA 080020Z VRB03KT 9999 FEW020 11/10 Q1017', 'LGSA 072350Z 00000KT 9999 FEW020 11/09 Q1017', 'LGSA 072320Z 00000KT 9999 FEW020 11/09 Q1017', 'LGSA 072250Z 00000KT 9999 FEW020 12/10 Q1017', 'LGSA 072220Z VRB03KT 9999 FEW020 12/10 Q1017', 'LGSA 072150Z 00000KT 9999 FEW020 11/09 Q1017', 'LGSA 072120Z 00000KT 9999 FEW020 12/08 Q1017', 'LGSA 072050Z 00000KT 9999 FEW020 12/09 Q1017', 'LGSA 072020Z 00000KT 9999 FEW020 12/08 Q1017', 'LGSA 071950Z VRB03KT 9999 FEW020 13/09 Q1017', 'LGSA 071920Z 00000KT 9999 FEW020 14/10 Q1017', 'LGSA 071850Z 25007KT 9999 FEW020 14/10 Q1017', 'LGSA 071820Z 24005KT 9999 FEW020 14/10 Q1017', 'LGSA 071750Z 26004KT 9999 FEW020 14/10 Q1017', 'LGSA 071720Z VRB03KT 9999 FEW020 14/11 Q1017', 'LGSA 071650Z 32007KT 9999 FEW020 14/11 Q1017', 'LGSA 071620Z 30005KT 9999 FEW020 15/12 Q1017', 'LGSA 071550Z 00000KT 9999 FEW020 16/12 Q1017', 'LGSA 071520Z VRB03KT 9999 FEW020 18/11 Q1017', 'LGSA 071450Z 08005KT 9999 FEW020 18/11 Q1017', 'LGSA 071420Z 28010KT 9999 FEW020 19/10 Q1017', 'LGSA 071350Z 30009KT 9999 FEW020 19/10 Q1017', 'LGSA 071320Z 33008KT 9999 FEW020 19/10 Q1017', 'LGSA 071250Z 36006KT 9999 FEW020 19/10 Q1017', 'LGSA 071220Z 34006KT 9999 FEW020 18/12 Q1018', 'LGSA 071150Z 31007KT 9999 FEW020 18/12 Q1018', 'LGSA 071120Z 28011KT 9999 FEW020 18/11 Q1018', 'LGSA 071050Z 30009KT 9999 FEW020 19/12 Q1018', 'LGSA 071020Z 28005KT 9999 FEW020 19/12 Q1019', 'LGSA 070950Z 27008KT 9999 FEW020 19/11 Q1019', 'LGSA 070920Z 28007KT 9999 FEW020 18/11 Q1019', 'LGSA 070850Z 27005KT 9999 FEW020 17/11 Q1019', 'LGSA 070820Z 00000KT 9999 FEW020 16/10 Q1019', 'LGSA 070750Z 00000KT 9999 FEW020 15/10 Q1020', 'LGSA 070720Z 00000KT 9999 FEW020 14/11 Q1020', 'LGSA 070650Z 00000KT 9999 FEW020 11/10 Q1020', 'LGSA 070620Z 00000KT 9999 FEW020 10/08 Q1020', 'LGSA 070550Z 00000KT 9999 FEW020 09/08 Q1020', 'LGSA 070520Z 00000KT 9999 FEW020 09/08 Q1020', 'LGSA 070450Z 00000KT 9999 FEW020 09/08 Q1019', 'LGSA 070420Z 00000KT 9999 FEW020 09/08 Q1019', 'LGSA 070350Z 00000KT 9999 FEW020 09/08 Q1019', 'LGSA 070320Z 00000KT 9999 FEW020 09/08 Q1019', 'LGSA 070250Z 00000KT 9999 FEW020 09/08 Q1019', 'LGSA 070220Z 28004KT 9999 FEW020 11/09 Q1020', 'LGSA 070150Z 28004KT 9999 FEW020 11/09 Q1020', 'LGSA 070120Z VRB03KT 9999 FEW020 11/09 Q1021', 'LGSA 070050Z VRB03KT 9999 FEW020 11/09 Q1021', 'LGSA 070020Z 30004KT 9999 FEW020 11/09 Q1021', 'LGSA 062350Z 29004KT 9999 FEW020 11/09 Q1021', 'LGSA 062320Z 28010KT 9999 FEW020 12/10 Q1022', 'LGSA 062250Z 28010KT 9999 FEW020 12/10 Q1022', 'LGSA 062220Z 29008KT 9999 FEW020 12/09 Q1022', 'LGSA 062150Z 29008KT 9999 FEW020 12/09 Q1022', 'LGSA 062120Z 30006KT 9999 FEW020 11/09 Q1022', 'LGSA 062050Z 30006KT 9999 FEW020 11/09 Q1022', 'LGSA 062020Z 28008KT 9999 FEW020 12/09 Q1022', 'LGSA 061950Z 28008KT 9999 FEW020 12/09 Q1022', 'LGSA 061920Z 29008KT 9999 FEW020 12/11 Q1022', 'LGSA 061850Z 29010KT 9999 FEW020 12/11 Q1022', 'LGSA 061820Z 29011KT 9999 FEW020 12/11 Q1022', 'LGSA 061750Z 28009KT 9999 FEW020 12/11 Q1022', 'LGSA 061720Z 30010KT 9999 FEW020 13/10 Q1022', 'LGSA 061650Z 31010KT 9999 FEW020 13/10 Q1022', 'LGSA 061620Z 30009KT 9999 FEW020 14/11 Q1022', 'LGSA 061550Z 29010KT 9999 FEW020 14/11 Q1022', 'LGSA 061520Z 27013KT 9999 FEW020 15/11 Q1022', 'LGSA 061450Z 27017KT 9999 FEW020 16/11 Q1022', 'LGSA 061420Z 27017KT 9999 FEW020 16/11 Q1022', 'LGSA 061350Z 27015G25KT 9999 FEW020 17/12 Q1022', 'LGSA 061320Z 27017KT 9999 FEW020 17/11 Q1022', 'LGSA 061250Z 27016G26KT 9999 FEW020 18/11 Q1022', 'LGSA 061220Z 27015G25KT 9999 FEW020 18/11 Q1022', 'LGSA 061150Z 27015KT 9999 FEW020 18/12 Q1022', 'LGSA 061120Z 27019KT 9999 FEW020 18/12 Q1023', 'LGSA 061050Z 27015G25KT 9999 FEW020 18/12 Q1023', 'LGSA 061020Z 27015G25KT 9999 FEW020 18/11 Q1023', 'LGSA 060950Z 28019KT 9999 FEW020 18/11 Q1024', 'LGSA 060920Z 27017KT 9999 FEW020 18/11 Q1024', 'LGSA 060850Z 28018KT 9999 FEW020 17/11 Q1024', 'LGSA 060820Z 28015KT 9999 FEW020 17/10 Q1023', 'LGSA 060750Z 28017KT 9999 FEW020 16/10 Q1023', 'LGSA 060720Z 28018KT 9999 FEW020 16/10 Q1023', 'LGSA 060650Z 27018KT 9999 FEW020 15/10 Q1023', 'LGSA 060620Z 28018KT 9999 FEW020 14/08 Q1023', 'LGSA 060550Z 27017KT 9999 FEW020 14/08 Q1023', 'LGSA 060520Z 28016KT 9999 FEW020 14/08 Q1022', 'LGSA 060450Z 28016KT 9999 FEW020 14/08 Q1022', 'LGSA 060420Z 29016KT 9999 FEW020 13/09 Q1022', 'LGSA 060350Z 28016KT 9999 FEW020 13/09 Q1022', 'LGSA 060320Z 30016KT 9999 FEW020 15/09 Q1022', 'LGSA 060250Z 29014G24KT 9999 FEW020 14/10 Q1022', 'LGSA 060220Z 28016KT 9999 FEW020 14/08 Q1022', 'LGSA 060120Z 28016KT 9999 FEW020 14/08 Q1022', 'LGSA 060050Z 28014KT 9999 FEW020 14/08 Q1022', 'LGSA 060020Z 28012G22KT 9999 FEW020 14/08 Q1022', 'LGSA 052350Z 28014G24KT 9999 FEW020 14/08 Q1022', 'LGSA 052320Z 28012G22KT 9999 FEW020 14/09 Q1023', 'LGSA 052250Z 28014G24KT 9999 FEW020 14/09 Q1023', 'LGSA 052220Z 31016KT 9999 FEW020 14/08 Q1023', 'LGSA 052150Z 30016KT 9999 FEW020 14/08 Q1023', 'LGSA 052120Z 31014KT 9999 FEW020 14/08 Q1023']","['2024-02-08 20:20:00', '2024-02-08 19:50:00', '2024-02-08 19:20:00', '2024-02-08 18:50:00', '2024-02-08 18:20:00', '2024-02-08 17:50:00', '2024-02-08 17:20:00', '2024-02-08 16:50:00', '2024-02-08 16:20:00', '2024-02-08 15:50:00', '2024-02-08 15:20:00', '2024-02-08 14:50:00', '2024-02-08 14:20:00', '2024-02-08 13:50:00', '2024-02-08 13:20:00', '2024-02-08 12:50:00', '2024-02-08 12:20:00', '2024-02-08 11:50:00', '2024-02-08 11:20:00', '2024-02-08 10:50:00', '2024-02-08 10:20:00', '2024-02-08 09:50:00', '2024-02-08 09:20:00', '2024-02-08 08:50:00', '2024-02-08 08:20:00', '2024-02-08 07:50:00', '2024-02-08 07:20:00', '2024-02-08 06:50:00', '2024-02-08 06:20:00', '2024-02-08 05:50:00', '2024-02-08 05:20:00', '2024-02-08 04:50:00', '2024-02-08 04:20:00', '2024-02-08 03:50:00', '2024-02-08 03:20:00', '2024-02-08 02:50:00', '2024-02-08 02:20:00', '2024-02-08 01:50:00', '2024-02-08 01:20:00', '2024-02-08 00:50:00', '2024-02-08 00:20:00', '2024-02-07 23:50:00', '2024-02-07 23:20:00', '2024-02-07 22:50:00', '2024-02-07 22:20:00', '2024-02-07 21:50:00', '2024-02-07 21:20:00', '2024-02-07 20:50:00', '2024-02-07 20:20:00', '2024-02-07 19:50:00', '2024-02-07 19:20:00', '2024-02-07 18:50:00', '2024-02-07 18:20:00', '2024-02-07 17:50:00', '2024-02-07 17:20:00', '2024-02-07 16:50:00', '2024-02-07 16:20:00', '2024-02-07 15:50:00', '2024-02-07 15:20:00', '2024-02-07 14:50:00', '2024-02-07 14:20:00', '2024-02-07 13:50:00', '2024-02-07 13:20:00', '2024-02-07 12:50:00', '2024-02-07 12:20:00', '2024-02-07 11:50:00', '2024-02-07 11:20:00', '2024-02-07 10:50:00', '2024-02-07 10:20:00', '2024-02-07 09:50:00', '2024-02-07 09:20:00', '2024-02-07 08:50:00', '2024-02-07 08:20:00', '2024-02-07 07:50:00', '2024-02-07 07:20:00', '2024-02-07 06:50:00', '2024-02-07 06:20:00', '2024-02-07 05:50:00', '2024-02-07 05:20:00', '2024-02-07 04:50:00', '2024-02-07 04:20:00', '2024-02-07 03:50:00', '2024-02-07 03:20:00', '2024-02-07 02:50:00', '2024-02-07 02:20:00', '2024-02-07 01:50:00', '2024-02-07 01:20:00', '2024-02-07 00:50:00', '2024-02-07 00:20:00', '2024-02-06 23:50:00', '2024-02-06 23:20:00', '2024-02-06 22:50:00', '2024-02-06 22:20:00', '2024-02-06 21:50:00', '2024-02-06 21:20:00', '2024-02-06 20:50:00', '2024-02-06 20:20:00', '2024-02-06 19:50:00', '2024-02-06 19:20:00', '2024-02-06 18:50:00', '2024-02-06 18:20:00', '2024-02-06 17:50:00', '2024-02-06 17:20:00', '2024-02-06 16:50:00', '2024-02-06 16:20:00', '2024-02-06 15:50:00', '2024-02-06 15:20:00', '2024-02-06 14:50:00', '2024-02-06 14:20:00', '2024-02-06 13:50:00', '2024-02-06 13:20:00', '2024-02-06 12:50:00', '2024-02-06 12:20:00', '2024-02-06 11:50:00', '2024-02-06 11:20:00', '2024-02-06 10:50:00', '2024-02-06 10:20:00', '2024-02-06 09:50:00', '2024-02-06 09:20:00', '2024-02-06 08:50:00', '2024-02-06 08:20:00', '2024-02-06 07:50:00', '2024-02-06 07:20:00', '2024-02-06 06:50:00', '2024-02-06 06:20:00', '2024-02-06 05:50:00', '2024-02-06 05:20:00', '2024-02-06 04:50:00', '2024-02-06 04:20:00', '2024-02-06 03:50:00', '2024-02-06 03:20:00', '2024-02-06 02:50:00', '2024-02-06 02:20:00', '2024-02-06 01:20:00', '2024-02-06 00:50:00', '2024-02-06 00:20:00', '2024-02-05 23:50:00', '2024-02-05 23:20:00', '2024-02-05 22:50:00', '2024-02-05 22:20:00', '2024-02-05 21:50:00', '2024-02-05 21:20:00']"
Greece, Chios Island National Airport (JKH/LGHI) ,"['LGHI 081950Z 16009G19KT 5000 +TSRA SCT018CB BKN020 13/12 Q1012', 'LGHI 081850Z 22005KT 9999 TS SCT018CB BKN025 13/11 Q1012', 'LGHI 081750Z 24005KT 7000 +TSRA SCT018CB BKN025 15/13 Q1012', 'LGHI 081650Z 21005KT 9999 VCTS FEW020CB SCT025 15/13 Q1012', 'LGHI 081550Z 02010KT 9999 FEW020TCU SCT025 17/12 Q1012', 'LGHI 081450Z 19012KT 9999 FEW020 SCT025 17/12 Q1012', 'LGHI 081350Z 19013G23KT 9999 FEW020 SCT025 18/12 Q1013', 'LGHI 081250Z 20013G23KT 9999 SCT025 19/11 Q1013', 'LGHI 081150Z 20013G23KT 9999 FEW025 19/12 Q1013', 'LGHI 081050Z 20015KT 9999 FEW025 19/16 Q1014', 'LGHI 080950Z 22012KT 9999 FEW025 19/15 Q1014', 'LGHI 080850Z 21012KT 9999 FEW025 19/14 Q1015', 'LGHI 080750Z 22010KT 9999 FEW025 17/12 Q1015', 'LGHI 080650Z 21011KT 9999 FEW025 17/13 Q1015', 'LGHI 080550Z 19002KT 9999 FEW025 15/11 Q1014', 'LGHI 080450Z 22006KT 9999 FEW025 15/11 Q1014', 'LGHI 080350Z 21006KT 9999 FEW025 15/12 Q1015', 'LGHI 080250Z 21007KT 9999 FEW025 14/10 Q1015', 'LGHI 072350Z 20006KT 9999 FEW025 14/10 Q1015', 'LGHI 072150Z 21006KT 9999 FEW025 15/12 Q1015', 'LGHI 072050Z 22006KT 9999 FEW025 15/09 Q1015', 'LGHI 071950Z 22006KT 9999 FEW025 16/12 Q1016', 'LGHI 071850Z 22009KT 9999 FEW025 16/12 Q1016', 'LGHI 071750Z 21011KT 9999 SCT030 16/14 Q1016', 'LGHI 071650Z 21007KT 9999 FEW020 16/12 Q1016', 'LGHI 071550Z 20008KT 9999 FEW020 16/12 Q1015', 'LGHI 071450Z 20010KT 9999 FEW025 17/12 Q1015', 'LGHI 071350Z 21013KT 9999 FEW025 18/12 Q1015', 'LGHI 071250Z 21013KT 9999 FEW020 SCT030 18/12 Q1016', 'LGHI 071150Z 20013KT 9999 FEW020 SCT030 19/11 Q1016', 'LGHI 071050Z 21013KT 9999 FEW020 SCT025 18/12 Q1016', 'LGHI 070950Z 19012KT 9999 FEW020 BKN025 18/12 Q1017', 'LGHI 070850Z 20011KT 9999 FEW020 BKN025 18/12 Q1017', 'LGHI 070750Z 19009KT 9999 FEW020 SCT025 17/13 Q1017', 'LGHI 070650Z 21008KT 9999 BKN020 16/13 Q1017', 'LGHI 070550Z 20003KT 9999 BKN020 15/13 Q1017', 'LGHI 070350Z 20004KT 9999 SCT025 13/12 Q1016', 'LGHI 070250Z 22007KT 9999 SCT025 14/13 Q1017', 'LGHI 070150Z 20003KT 9999 FEW025 12/11 Q1017', 'LGHI 070050Z 21004KT 9999 FEW025 11/10 Q1018', 'LGHI 062350Z 20005KT 9999 FEW025 11/11 Q1018', 'LGHI 062250Z 17004KT 9999 FEW025 12/11 Q1019', 'LGHI 062150Z 20004KT 9999 FEW025 10/10 Q1019', 'LGHI 062050Z 20004KT 9999 FEW025 11/10 Q1019', 'LGHI 061950Z VRB03KT CAVOK 11/11 Q1020', 'LGHI 061850Z 20004KT 9999 FEW025 13/13 Q1020', 'LGHI 061750Z 17002KT CAVOK 14/13 Q1020', 'LGHI 061650Z VRB03KT CAVOK 14/13 Q1020', 'LGHI 061550Z VRB03KT CAVOK 15/13 Q1020', 'LGHI 061450Z 19007KT CAVOK 18/13 Q1020', 'LGHI 061350Z 18008KT 9999 FEW025 18/13 Q1020', 'LGHI 061250Z 18008KT 9999 FEW025 18/13 Q1020', 'LGHI 061150Z 16009KT 9999 FEW020 18/15 Q1021', 'LGHI 061050Z 16010KT 9999 FEW020 18/15 Q1021', 'LGHI 060950Z 17008KT 9999 FEW020 19/15 Q1022', 'LGHI 060850Z 18008KT 9999 FEW020 18/15 Q1022', 'LGHI 060750Z 17005KT 9999 FEW018 17/15 Q1022', 'LGHI 060650Z 21004KT 9999 FEW018 15/13 Q1022', 'LGHI 060550Z 20003KT 9999 FEW015 09/08 Q1021', 'LGHI 060450Z 22004KT 9999 FEW015 09/08 Q1021', 'LGHI 060350Z VRB03KT 9999 FEW020 09/09 Q1020', 'LGHI 060250Z 00000KT CAVOK 10/10 Q1020', 'LGHI 052350Z 00000KT CAVOK 12/11 Q1020']","['2024-02-08 19:50:00', '2024-02-08 18:50:00', '2024-02-08 17:50:00', '2024-02-08 16:50:00', '2024-02-08 15:50:00', '2024-02-08 14:50:00', '2024-02-08 13:50:00', '2024-02-08 12:50:00', '2024-02-08 11:50:00', '2024-02-08 10:50:00', '2024-02-08 09:50:00', '2024-02-08 08:50:00', '2024-02-08 07:50:00', '2024-02-08 06:50:00', '2024-02-08 05:50:00', '2024-02-08 04:50:00', '2024-02-08 03:50:00', '2024-02-08 02:50:00', '2024-02-07 23:50:00', '2024-02-07 21:50:00', '2024-02-07 20:50:00', '2024-02-07 19:50:00', '2024-02-07 18:50:00', '2024-02-07 17:50:00', '2024-02-07 16:50:00', '2024-02-07 15:50:00', '2024-02-07 14:50:00', '2024-02-07 13:50:00', '2024-02-07 12:50:00', '2024-02-07 11:50:00', '2024-02-07 10:50:00', '2024-02-07 09:50:00', '2024-02-07 08:50:00', '2024-02-07 07:50:00', '2024-02-07 06:50:00', '2024-02-07 05:50:00', '2024-02-07 03:50:00', '2024-02-07 02:50:00', '2024-02-07 01:50:00', '2024-02-07 00:50:00', '2024-02-06 23:50:00', '2024-02-06 22:50:00', '2024-02-06 21:50:00', '2024-02-06 20:50:00', '2024-02-06 19:50:00', '2024-02-06 18:50:00', '2024-02-06 17:50:00', '2024-02-06 16:50:00', '2024-02-06 15:50:00', '2024-02-06 14:50:00', '2024-02-06 13:50:00', '2024-02-06 12:50:00', '2024-02-06 11:50:00', '2024-02-06 10:50:00', '2024-02-06 09:50:00', '2024-02-06 08:50:00', '2024-02-06 07:50:00', '2024-02-06 06:50:00', '2024-02-06 05:50:00', '2024-02-06 04:50:00', '2024-02-06 03:50:00', '2024-02-06 02:50:00', '2024-02-05 23:50:00']"
Greece, Corfu International Airport (CFU/LGKR) ,"['LGKR 082020Z 00000KT 9999 FEW020 12/10 Q1013 NOSIG', 'LGKR 081950Z 00000KT 9999 FEW020 12/10 Q1013 NOSIG', 'LGKR 081920Z 00000KT 9999 FEW020 12/10 Q1012 NOSIG', 'LGKR 081850Z 00000KT 9999 FEW020 12/10 Q1012 NOSIG', 'LGKR 081820Z 00000KT 9999 FEW020 13/11 Q1013 NOSIG', 'LGKR 081750Z VRB02KT 9999 FEW020 14/12 Q1013 NOSIG', 'LGKR 081720Z 00000KT 9999 FEW025 14/12 Q1013 NOSIG', 'LGKR 081650Z 00000KT 9999 FEW025 14/12 Q1013 NOSIG', 'LGKR 081620Z 25003KT 9999 FEW025 15/12 Q1013 NOSIG', 'LGKR 081550Z 23003KT 9999 FEW025 16/12 Q1013 NOSIG', 'LGKR 081520Z 25004KT 9999 FEW025 17/11 Q1013 NOSIG', 'LGKR 081450Z 27003KT 9999 FEW025 17/11 Q1013 NOSIG', 'LGKR 081420Z 25003KT 9999 FEW025 18/11 Q1013 NOSIG', 'LGKR 081350Z 21004KT 9999 FEW025 18/11 Q1013 NOSIG', 'LGKR 081320Z 10004KT 9999 FEW025 17/11 Q1013 NOSIG', 'LGKR 081250Z 12003KT 9999 FEW025 17/11 Q1013 NOSIG', 'LGKR 081220Z 10004KT 9999 SCT025 SCT080 16/11 Q1013 NOSIG', 'LGKR 081150Z 10003KT 9999 SCT025 SCT080 16/10 Q1013 NOSIG', 'LGKR 081120Z 11005KT 9999 FEW018 SCT025 17/10 Q1014 NOSIG', 'LGKR 081050Z 12006KT 9999 FEW018 SCT025 17/10 Q1014 NOSIG', 'LGKR 080950Z 10006KT 9999 FEW018 SCT025 17/11 Q1014 NOSIG', 'LGKR 080920Z 10005KT 9999 FEW015 SCT025 16/10 Q1014 NOSIG', 'LGKR 080850Z 10004KT 9999 FEW015 SCT025 BKN080 15/09 Q1014 NOSIG', 'LGKR 080820Z 10003KT 9999 FEW015 SCT025 BKN080 15/10 Q1014 NOSIG', 'LGKR 080720Z 08003KT 9999 FEW015 SCT025 BKN080 15/09 Q1014 NOSIG', 'LGKR 080650Z 10005KT 9999 FEW015 SCT025 BKN080 15/09 Q1014 NOSIG', 'LGKR 080620Z 11007KT 9999 SCT015 BKN025 BKN080 14/09 Q1013 NOSIG', 'LGKR 080550Z 14007KT 9999 SCT015 BKN025 BKN080 14/09 Q1013 NOSIG', 'LGKR 080520Z 10007KT 9999 SCT015 BKN020 BKN080 14/09 Q1013 NOSIG', 'LGKR 080450Z 15004KT 9999 SCT015 BKN020 BKN080 14/10 Q1013 NOSIG', 'LGKR 080420Z 17006KT 9999 SCT015 SCT025 BKN080 14/09 Q1013 NOSIG', 'LGKR 080350Z 11007KT 9999 SCT015 SCT025 BKN080 14/09 Q1013 NOSIG', 'LGKR 080320Z 09006KT 9999 SCT015 SCT025 BKN080 14/09 Q1014 NOSIG', 'LGKR 080220Z 10008KT 9999 SCT015 SCT025 BKN080 14/10 Q1015 NOSIG', 'LGKR 080150Z 10008KT 9999 SCT015 SCT025 BKN080 14/10 Q1015 NOSIG', 'LGKR 080120Z 05007KT 9999 SCT015 SCT025 BKN080 14/09 Q1015 NOSIG', 'LGKR 080050Z 05007KT 9999 SCT015 SCT025 BKN080 14/10 Q1015 NOSIG', 'LGKR 080020Z 06007KT 9999 SCT015 14/10 Q1016 NOSIG', 'LGKR 072350Z 09006KT 9999 SCT015 14/10 Q1016 NOSIG', 'LGKR 072320Z 12007KT 9999 SCT015 14/10 Q1016 NOSIG', 'LGKR 072250Z 11005KT 9999 SCT015 14/10 Q1016 NOSIG', 'LGKR 072220Z 10005KT 9999 SCT015 14/10 Q1016 NOSIG', 'LGKR 072150Z 10005KT 9999 SCT015 14/10 Q1016 NOSIG', 'LGKR 072120Z 10005KT 9999 SCT015 14/10 Q1016 NOSIG', 'LGKR 072050Z 10005KT 9999 SCT015 14/10 Q1016 NOSIG', 'LGKR 072020Z 10005KT 9999 SCT015 14/10 Q1016 NOSIG', 'LGKR 071950Z 00000KT 9999 SCT015 13/10 Q1016 NOSIG', 'LGKR 071920Z 00000KT 9999 SCT015 13/10 Q1016 NOSIG', 'LGKR 071850Z 00000KT 9999 SCT015 13/10 Q1016 NOSIG', 'LGKR 071820Z 00000KT 9999 SCT015 12/10 Q1016 NOSIG', 'LGKR 071720Z 18004KT 9999 FEW018 14/11 Q1016 NOSIG', 'LGKR 071650Z 16004KT 9999 FEW018 14/11 Q1016 NOSIG', 'LGKR 071620Z 16006KT 9999 FEW018 14/11 Q1016 NOSIG', 'LGKR 071550Z 17008KT 9999 SCT018 15/11 Q1016 NOSIG', 'LGKR 071520Z 16008KT 9999 SCT018 16/11 Q1017 NOSIG', 'LGKR 071450Z 16008KT 9999 SCT018 16/11 Q1017 NOSIG', 'LGKR 071420Z 16007KT 9999 SCT018 16/11 Q1017 NOSIG', 'LGKR 071350Z 16007KT 9999 SCT018 16/11 Q1017 NOSIG', 'LGKR 071320Z 14006KT 9999 SCT018 16/12 Q1017 NOSIG', 'LGKR 071250Z 13008KT 9999 FEW013 SCT018 16/12 Q1017 NOSIG', 'LGKR 071220Z 12008KT 9999 FEW013 SCT018 16/12 Q1018 NOSIG', 'LGKR 071150Z 12007KT 9999 FEW013 SCT018 16/12 Q1018 NOSIG', 'LGKR 071120Z 11006KT 9999 FEW013 SCT018 16/12 Q1019 NOSIG', 'LGKR 071050Z 08005KT 9999 FEW013 BKN018 15/12 Q1020 NOSIG', 'LGKR 071020Z 08005KT 9999 FEW013 BKN018 15/12 Q1020 NOSIG', 'LGKR 070950Z 10004KT 9999 FEW013 BKN018 15/12 Q1020 NOSIG', 'LGKR 070920Z 00000KT 9999 FEW013 BKN018 14/10 Q1020 NOSIG', 'LGKR 070850Z 00000KT 9999 FEW013 BKN018 12/10 Q1020 NOSIG', 'LGKR 070820Z 00000KT 9999 SCT013 SCT018 10/08 Q1020 NOSIG', 'LGKR 070750Z 00000KT 9999 SCT013 SCT018 09/08 Q1020 NOSIG', 'LGKR 070720Z 00000KT 9999 SCT013 SCT018 09/08 Q1020 NOSIG', 'LGKR 070650Z 00000KT 9999 SCT013 SCT018 08/07 Q1020 NOSIG', 'LGKR 070620Z 00000KT 9999 SCT013 SCT018 07/07 Q1020 NOSIG', 'LGKR 070550Z 00000KT 9999 SCT013 07/07 Q1020 NOSIG', 'LGKR 070520Z 00000KT 1000 BR BKN005 07/07 Q1020 TEMPO 5000 SCT008', 'LGKR 070450Z 00000KT 2000 BR BKN005 07/07 Q1020 NOSIG', 'LGKR 070420Z 00000KT 2500 BR BKN006 07/07 Q1020 NOSIG', 'LGKR 070350Z 00000KT 5000 BR SCT008 07/07 Q1020 TEMPO 3000 BR SCT005', 'LGKR 070320Z 00000KT 7000 SCT010 08/07 Q1021 NOSIG', 'LGKR 070250Z 00000KT 7000 SCT012 08/07 Q1021 NOSIG', 'LGKR 070220Z 00000KT 7000 SCT012 09/08 Q1022 NOSIG', 'LGKR 070150Z 00000KT 7000 SCT012 09/08 Q1022 NOSIG', 'LGKR 070120Z 00000KT 7000 SCT012 09/08 Q1022 NOSIG', 'LGKR 070050Z 00000KT 7000 SCT012 09/08 Q1022 NOSIG', 'LGKR 070020Z 00000KT 7000 SCT012 09/08 Q1022 NOSIG', 'LGKR 062350Z 00000KT 7000 SCT013 09/08 Q1022 NOSIG', 'LGKR 062320Z 00000KT 7000 SCT013 09/08 Q1023 NOSIG', 'LGKR 062250Z 00000KT 7000 SCT013 09/08 Q1023 NOSIG', 'LGKR 062220Z 00000KT 7000 SCT013 09/09 Q1022 NOSIG', 'LGKR 062150Z 00000KT 7000 SCT013 09/09 Q1022 NOSIG', 'LGKR 062120Z 00000KT 8000 FEW013 10/09 Q1022 NOSIG', 'LGKR 062050Z 00000KT 8000 FEW013 10/09 Q1022 NOSIG', 'LGKR 062020Z 00000KT 8000 FEW013 10/09 Q1022 NOSIG', 'LGKR 061950Z 00000KT 8000 FEW013 10/09 Q1022 NOSIG', 'LGKR 061920Z 00000KT 9999 FEW015 10/09 Q1022 NOSIG', 'LGKR 061850Z 00000KT 9999 FEW015 10/09 Q1022 NOSIG', 'LGKR 061820Z 00000KT 9999 FEW015 11/10 Q1022 NOSIG', 'LGKR 061750Z 00000KT 9999 FEW016 12/11 Q1022 NOSIG', 'LGKR 061720Z 15003KT 9999 FEW016 13/10 Q1022 NOSIG', 'LGKR 061650Z 14003KT 9999 FEW016 14/10 Q1022 NOSIG', 'LGKR 061620Z 15006KT 9999 FEW016 14/10 Q1022 NOSIG', 'LGKR 061550Z 16004KT 9999 SCT020 15/10 Q1022 NOSIG', 'LGKR 061520Z 13005KT 9999 SCT020 15/11 Q1022 NOSIG', 'LGKR 061450Z 13005KT 9999 SCT020 16/11 Q1022 NOSIG', 'LGKR 061420Z 12004KT 9999 FEW016 SCT030 16/10 Q1022 NOSIG', 'LGKR 061350Z 12004KT 9999 FEW016 SCT030 16/10 Q1022 NOSIG', 'LGKR 061320Z 10005KT 9999 FEW016 SCT030 16/10 Q1023 NOSIG', 'LGKR 061250Z 12005KT 9999 FEW016 SCT030 16/10 Q1023 NOSIG', 'LGKR 061220Z 13006KT 9999 FEW016 SCT030 16/11 Q1024 NOSIG', 'LGKR 061150Z 13006KT 9999 FEW016 SCT030 16/11 Q1024 NOSIG', 'LGKR 061120Z 12005KT 9999 SCT016 15/11 Q1024 NOSIG', 'LGKR 061050Z 13005KT 9999 SCT016 16/10 Q1024 NOSIG', 'LGKR 061020Z 10004KT 9999 SCT016 16/11 Q1024 NOSIG', 'LGKR 060950Z VRB03KT 9999 SCT016 15/10 Q1024 NOSIG', 'LGKR 060920Z VRB02KT 9999 SCT010 13/11 Q1025 NOSIG', 'LGKR 060850Z 00000KT 9999 SCT010 13/11 Q1025 NOSIG', 'LGKR 060820Z 00000KT 9999 SCT010 12/10 Q1024 NOSIG', 'LGKR 060750Z 00000KT 8000 SCT008 10/09 Q1024 NOSIG', 'LGKR 060720Z 00000KT 0800 FG SCT002 09/07 Q1024 NOSIG', 'LGKR 060650Z 00000KT 0100 FG BKN002 08/07 Q1024 NOSIG', 'LGKR 060620Z 00000KT 0500 FG BKN002 09/08 Q1024 NOSIG', 'LGKR 060550Z 00000KT 3000 BR SCT003 09/08 Q1024 NOSIG', 'LGKR 060520Z 00000KT 9999 FEW005 SCT018 09/08 Q1025 NOSIG', 'LGKR 060450Z 00000KT 9000 FEW005 SCT018 09/08 Q1025 NOSIG', 'LGKR 060420Z 00000KT 9000 FEW005 SCT018 09/08 Q1025 NOSIG', 'LGKR 060350Z 00000KT 7000 FEW005 SCT018 09/08 Q1025 NOSIG', 'LGKR 060250Z 00000KT 1300 BR SCT005 SCT018 08/07 Q1026 NOSIG', 'LGKR 060220Z 00000KT 0600 FG SCT005 SCT018 08/07 Q1026 NOSIG', 'LGKR 060120Z 00000KT 1500 BR FEW005 SCT018 08/07 Q1026 NOSIG', 'LGKR 060050Z 00000KT 5000 BR FEW005 SCT018 08/07 Q1026 NOSIG', 'LGKR 052350Z 00000KT 9999 FEW018 08/07 Q1026 NOSIG', 'LGKR 052320Z 00000KT 9999 FEW018 08/07 Q1025 NOSIG', 'LGKR 052250Z 00000KT 9999 FEW018 08/07 Q1025 NOSIG', 'LGKR 052220Z 00000KT 9999 FEW018 08/07 Q1025 NOSIG', 'LGKR 052150Z 00000KT 9999 FEW018 08/07 Q1025 NOSIG', 'LGKR 052120Z VRB02KT 9999 FEW018 08/07 Q1025 NOSIG']","['2024-02-08 20:20:00', '2024-02-08 19:50:00', '2024-02-08 19:20:00', '2024-02-08 18:50:00', '2024-02-08 18:20:00', '2024-02-08 17:50:00', '2024-02-08 17:20:00', '2024-02-08 16:50:00', '2024-02-08 16:20:00', '2024-02-08 15:50:00', '2024-02-08 15:20:00', '2024-02-08 14:50:00', '2024-02-08 14:20:00', '2024-02-08 13:50:00', '2024-02-08 13:20:00', '2024-02-08 12:50:00', '2024-02-08 12:20:00', '2024-02-08 11:50:00', '2024-02-08 11:20:00', '2024-02-08 10:50:00', '2024-02-08 09:50:00', '2024-02-08 09:20:00', '2024-02-08 08:50:00', '2024-02-08 08:20:00', '2024-02-08 07:20:00', '2024-02-08 06:50:00', '2024-02-08 06:20:00', '2024-02-08 05:50:00', '2024-02-08 05:20:00', '2024-02-08 04:50:00', '2024-02-08 04:20:00', '2024-02-08 03:50:00', '2024-02-08 03:20:00', '2024-02-08 02:20:00', '2024-02-08 01:50:00', '2024-02-08 01:20:00', '2024-02-08 00:50:00', '2024-02-08 00:20:00', '2024-02-07 23:50:00', '2024-02-07 23:20:00', '2024-02-07 22:50:00', '2024-02-07 22:20:00', '2024-02-07 21:50:00', '2024-02-07 21:20:00', '2024-02-07 20:50:00', '2024-02-07 20:20:00', '2024-02-07 19:50:00', '2024-02-07 19:20:00', '2024-02-07 18:50:00', '2024-02-07 18:20:00', '2024-02-07 17:20:00', '2024-02-07 16:50:00', '2024-02-07 16:20:00', '2024-02-07 15:50:00', '2024-02-07 15:20:00', '2024-02-07 14:50:00', '2024-02-07 14:20:00', '2024-02-07 13:50:00', '2024-02-07 13:20:00', '2024-02-07 12:50:00', '2024-02-07 12:20:00', '2024-02-07 11:50:00', '2024-02-07 11:20:00', '2024-02-07 10:50:00', '2024-02-07 10:20:00', '2024-02-07 09:50:00', '2024-02-07 09:20:00', '2024-02-07 08:50:00', '2024-02-07 08:20:00', '2024-02-07 07:50:00', '2024-02-07 07:20:00', '2024-02-07 06:50:00', '2024-02-07 06:20:00', '2024-02-07 05:50:00', '2024-02-07 05:20:00', '2024-02-07 04:50:00', '2024-02-07 04:20:00', '2024-02-07 03:50:00', '2024-02-07 03:20:00', '2024-02-07 02:50:00', '2024-02-07 02:20:00', '2024-02-07 01:50:00', '2024-02-07 01:20:00', '2024-02-07 00:50:00', '2024-02-07 00:20:00', '2024-02-06 23:50:00', '2024-02-06 23:20:00', '2024-02-06 22:50:00', '2024-02-06 22:20:00', '2024-02-06 21:50:00', '2024-02-06 21:20:00', '2024-02-06 20:50:00', '2024-02-06 20:20:00', '2024-02-06 19:50:00', '2024-02-06 19:20:00', '2024-02-06 18:50:00', '2024-02-06 18:20:00', '2024-02-06 17:50:00', '2024-02-06 17:20:00', '2024-02-06 16:50:00', '2024-02-06 16:20:00', '2024-02-06 15:50:00', '2024-02-06 15:20:00', '2024-02-06 14:50:00', '2024-02-06 14:20:00', '2024-02-06 13:50:00', '2024-02-06 13:20:00', '2024-02-06 12:50:00', '2024-02-06 12:20:00', '2024-02-06 11:50:00', '2024-02-06 11:20:00', '2024-02-06 10:50:00', '2024-02-06 10:20:00', '2024-02-06 09:50:00', '2024-02-06 09:20:00', '2024-02-06 08:50:00', '2024-02-06 08:20:00', '2024-02-06 07:50:00', '2024-02-06 07:20:00', '2024-02-06 06:50:00', '2024-02-06 06:20:00', '2024-02-06 05:50:00', '2024-02-06 05:20:00', '2024-02-06 04:50:00', '2024-02-06 04:20:00', '2024-02-06 03:50:00', '2024-02-06 02:50:00', '2024-02-06 02:20:00', '2024-02-06 01:20:00', '2024-02-06 00:50:00', '2024-02-05 23:50:00', '2024-02-05 23:20:00', '2024-02-05 22:50:00', '2024-02-05 22:20:00', '2024-02-05 21:50:00', '2024-02-05 21:20:00']"
Greece, Heraklion International Airport (HER/LGIR) ,"['LGIR 082020Z 19007KT 9999 FEW020TCU 16/06 Q1015 NOSIG', 'LGIR 081950Z 21010KT 9999 FEW020TCU 16/06 Q1015 NOSIG', 'LGIR 081920Z 18007KT 9999 FEW020TCU 16/06 Q1015 NOSIG', 'LGIR 081850Z 19009KT 9999 FEW020TCU 16/06 Q1015 NOSIG', 'LGIR 081820Z 19009KT 9999 FEW020TCU 16/06 Q1015 NOSIG', 'LGIR 081750Z 18012KT 9999 FEW020TCU 16/06 Q1015 NOSIG', 'LGIR 081720Z 17010KT 9999 FEW020TCU 16/07 Q1015 NOSIG', 'LGIR 081650Z 17012KT 9999 FEW020TCU 16/07 Q1015 NOSIG', 'LGIR 081620Z 20013KT 9999 FEW020TCU SCT080 16/07 Q1015 RETS NOSIG', 'LGIR 081550Z 20010KT 9999 VCTS FEW018CB SCT020 17/10 Q1015 NOSIG', 'LGIR 081520Z 19010KT 9999 SCT020 SCT090 18/09 Q1015 NOSIG', 'LGIR 081450Z 18011KT 9999 FEW020 SCT025 18/09 Q1015 NOSIG', 'LGIR 081420Z 20009KT 9999 FEW020 BKN025 19/07 Q1015 NOSIG', 'LGIR 081350Z 21012KT 9999 FEW020 BKN025 19/07 Q1015 NOSIG', 'LGIR 081320Z 20011KT 9999 SCT020 21/08 Q1015 NOSIG', 'LGIR 081250Z 20011KT 9999 FEW020 21/08 Q1015 NOSIG', 'LGIR 081220Z 20014KT 9999 FEW020 21/09 Q1015 NOSIG', 'LGIR 081150Z 20012KT 9999 FEW020 21/09 Q1016 NOSIG', 'LGIR 081120Z 20009KT 9999 FEW020 BKN090 20/08 Q1016 NOSIG', 'LGIR 081050Z 20007KT 9999 FEW020 BKN090 20/08 Q1016 NOSIG', 'LGIR 081020Z 15007KT 9999 FEW020 20/10 Q1017 NOSIG', 'LGIR 080950Z 15009KT 9999 FEW020 20/10 Q1017 NOSIG', 'LGIR 080920Z 15010KT 9999 FEW020 20/11 Q1017 NOSIG', 'LGIR 080850Z 15010KT 9999 FEW020 19/11 Q1018 NOSIG', 'LGIR 080820Z 15010KT 9999 FEW020 18/11 Q1018 NOSIG', 'LGIR 080720Z 16011KT 9999 FEW020 SCT090 17/11 Q1018 NOSIG', 'LGIR 080650Z 16013KT 9999 FEW020 SCT090 15/11 Q1018 NOSIG', 'LGIR 080620Z 16012KT 9999 FEW020 15/10 Q1018 NOSIG', 'LGIR 080550Z 17015KT 9999 FEW020 14/10 Q1017 NOSIG', 'LGIR 080520Z 17015KT 9999 FEW020 14/10 Q1017 NOSIG', 'LGIR 080450Z 17014KT 9999 FEW020 14/11 Q1017 NOSIG', 'LGIR 080420Z 17014KT 9999 FEW020 14/11 Q1017 NOSIG', 'LGIR 080350Z 16016KT 9999 FEW020 14/11 Q1017 NOSIG', 'LGIR 080320Z 16016KT 9999 FEW020 14/11 Q1016 NOSIG', 'LGIR 080250Z 17014KT 9999 FEW020 14/11 Q1017 NOSIG', 'LGIR 080220Z 17012KT 9999 FEW020 13/10 Q1017 NOSIG', 'LGIR 080150Z 17013KT 9999 FEW020 13/10 Q1017 NOSIG', 'LGIR 080120Z 16010KT 9999 FEW020 13/10 Q1018 NOSIG', 'LGIR 080050Z 16008KT 9999 FEW020 13/10 Q1018 NOSIG', 'LGIR 080020Z 17010KT 9999 FEW020 13/10 Q1018 NOSIG', 'LGIR 072350Z 17010KT 9999 FEW020 13/10 Q1018 NOSIG', 'LGIR 072320Z 17011KT 9999 FEW020 13/09 Q1018 NOSIG', 'LGIR 072250Z 17010KT 9999 FEW020 13/09 Q1018 NOSIG', 'LGIR 072220Z 17011KT 9999 FEW020 13/09 Q1018 NOSIG', 'LGIR 072150Z 17014KT 9999 FEW020 13/09 Q1018 NOSIG', 'LGIR 072120Z 17013KT 9999 FEW020 13/09 Q1018 NOSIG', 'LGIR 072050Z 17013KT 9999 FEW020 13/09 Q1018 NOSIG', 'LGIR 072020Z 16014KT 9999 FEW020 14/10 Q1018 NOSIG', 'LGIR 071950Z 16014KT 9999 FEW020 14/10 Q1018 NOSIG', 'LGIR 071920Z 16016KT 9999 FEW020 14/10 Q1018 NOSIG', 'LGIR 071850Z 17017KT 9999 FEW080 14/10 Q1018 NOSIG', 'LGIR 071820Z 17016KT 9999 FEW080 14/10 Q1018 NOSIG', 'LGIR 071720Z 18012KT 9999 FEW080 15/13 Q1018 NOSIG', 'LGIR 071650Z 19005KT 9999 FEW080 15/13 Q1018 NOSIG', 'LGIR 071620Z 18003KT 9999 FEW080 15/13 Q1018 NOSIG', 'LGIR 071550Z 03004KT 9999 FEW025 16/13 Q1018 NOSIG', 'LGIR 071520Z 07005KT 9999 FEW025 17/14 Q1018 NOSIG', 'LGIR 071450Z 08006KT 9999 FEW025 17/14 Q1018 NOSIG', 'LGIR 071420Z 08006KT 9999 FEW025 18/13 Q1018 NOSIG', 'LGIR 071350Z 07007KT 9999 FEW025 18/13 Q1018 NOSIG', 'LGIR 071320Z 07007KT 9999 FEW025 18/13 Q1018 NOSIG', 'LGIR 071250Z 05007KT 9999 FEW025 18/13 Q1018 NOSIG', 'LGIR 071220Z 04007KT 9999 FEW025 18/13 Q1018 NOSIG', 'LGIR 071150Z 05010KT 9999 FEW025 18/13 Q1018 NOSIG', 'LGIR 071120Z 03009KT 9999 FEW025 18/11 Q1019 NOSIG', 'LGIR 071050Z 02010KT 9999 FEW025 18/11 Q1019 NOSIG', 'LGIR 071020Z 01010KT 9999 FEW025 18/11 Q1019 NOSIG', 'LGIR 070950Z 02009KT 9999 FEW025 18/11 Q1020 NOSIG', 'LGIR 070920Z 01010KT 9999 FEW025 17/11 Q1020 NOSIG', 'LGIR 070850Z 35006KT 9999 FEW025 17/11 Q1020 NOSIG', 'LGIR 070820Z 33005KT 9999 FEW025 16/11 Q1020 NOSIG', 'LGIR 070750Z VRB02KT 9999 FEW025 16/11 Q1021 NOSIG', 'LGIR 070720Z 27004KT 9999 FEW025 14/11 Q1021 NOSIG', 'LGIR 070650Z VRB03KT 9999 FEW025 14/09 Q1021 NOSIG', 'LGIR 070620Z 16003KT 9999 FEW025 12/09 Q1021 NOSIG', 'LGIR 070550Z 20006KT 9999 FEW025 10/08 Q1021 NOSIG', 'LGIR 070520Z 17005KT 9999 FEW025 10/09 Q1021 NOSIG', 'LGIR 070450Z VRB02KT 9999 FEW025 12/09 Q1021 NOSIG', 'LGIR 070420Z 20006KT 9999 FEW025 12/09 Q1022 NOSIG', 'LGIR 070350Z 18009KT 9999 FEW025 12/09 Q1018 NOSIG', 'LGIR 070320Z 16008KT 9999 FEW025 12/09 Q1022 NOSIG', 'LGIR 070250Z 18009KT 9999 FEW025 12/09 Q1023 NOSIG', 'LGIR 070220Z 16008KT 9999 FEW025 12/09 Q1022 NOSIG', 'LGIR 070150Z 16008KT 9999 FEW025 12/09 Q1022 NOSIG', 'LGIR 070120Z 17008KT 9999 FEW025 12/09 Q1022 NOSIG', 'LGIR 070050Z 17009KT 9999 FEW025 12/09 Q1023 NOSIG', 'LGIR 070020Z 20006KT 9999 FEW025 12/09 Q1022 NOSIG', 'LGIR 062350Z 18004KT 9999 FEW025 12/09 Q1022 NOSIG', 'LGIR 062320Z 19009KT 9999 FEW025 12/09 Q1022 NOSIG', 'LGIR 062250Z 17010KT 9999 FEW025 12/09 Q1022 NOSIG', 'LGIR 062220Z 17009KT 9999 FEW025 12/09 Q1022 NOSIG', 'LGIR 062150Z 17011KT 9999 FEW025 12/09 Q1023 NOSIG', 'LGIR 062120Z 17008KT 9999 FEW025 12/10 Q1023 NOSIG', 'LGIR 062050Z 18008KT 9999 FEW025 12/10 Q1023 NOSIG', 'LGIR 062020Z 17007KT 9999 FEW025 13/11 Q1023 NOSIG', 'LGIR 061950Z 17007KT 9999 FEW025 13/11 Q1023 NOSIG', 'LGIR 061920Z 17008KT 9999 FEW025 13/11 Q1023 NOSIG', 'LGIR 061850Z 17009KT 9999 FEW025 13/11 Q1023 NOSIG', 'LGIR 061820Z 16007KT 9999 FEW025 13/11 Q1023 NOSIG', 'LGIR 061750Z 17007KT 9999 FEW025 13/11 Q1023 NOSIG', 'LGIR 061720Z 16007KT 9999 FEW025 14/12 Q1023 NOSIG', 'LGIR 061650Z VRB03KT 9999 FEW025 14/12 Q1023 NOSIG', 'LGIR 061620Z VRB01KT 9999 FEW025 15/13 Q1023 NOSIG', 'LGIR 061550Z VRB02KT 9999 FEW025 16/13 Q1023 NOSIG', 'LGIR 061520Z 32006KT CAVOK 17/13 Q1023 NOSIG', 'LGIR 061450Z 32006KT CAVOK 17/13 Q1023 NOSIG', 'LGIR 061420Z 33006KT CAVOK 18/13 Q1023 NOSIG', 'LGIR 061350Z 33009KT CAVOK 18/13 Q1023 NOSIG', 'LGIR 061320Z 33008KT CAVOK 18/13 Q1023 NOSIG', 'LGIR 061250Z 33006KT CAVOK 18/13 Q1023 NOSIG', 'LGIR 061220Z 35004KT CAVOK 18/14 Q1023 NOSIG', 'LGIR 061150Z 36003KT CAVOK 19/13 Q1024 NOSIG', 'LGIR 061120Z 35005KT CAVOK 18/12 Q1024 NOSIG', 'LGIR 061050Z 33007KT CAVOK 18/12 Q1024 NOSIG', 'LGIR 061020Z 31008KT CAVOK 18/09 Q1025 NOSIG', 'LGIR 060950Z 35004KT CAVOK 18/09 Q1025 NOSIG', 'LGIR 060920Z VRB03KT CAVOK 18/10 Q1025 NOSIG', 'LGIR 060850Z VRB03KT CAVOK 17/08 Q1025 NOSIG', 'LGIR 060820Z 16004KT CAVOK 17/08 Q1025 NOSIG', 'LGIR 060750Z 16007KT CAVOK 16/10 Q1025 NOSIG', 'LGIR 060720Z 16009KT CAVOK 15/09 Q1025 NOSIG', 'LGIR 060650Z 17008KT CAVOK 14/09 Q1025 NOSIG', 'LGIR 060620Z 16011KT CAVOK 12/09 Q1024 NOSIG', 'LGIR 060550Z 16011KT CAVOK 11/09 Q1024 NOSIG', 'LGIR 060520Z 17009KT CAVOK 11/08 Q1024 NOSIG', 'LGIR 060450Z 16009KT CAVOK 11/08 Q1024 NOSIG', 'LGIR 060420Z 17007KT 9999 FEW020 11/08 Q1023 NOSIG', 'LGIR 060350Z 17009KT 9999 FEW020 11/08 Q1023 NOSIG', 'LGIR 060320Z 16010KT 9999 FEW020 11/08 Q1023 NOSIG', 'LGIR 060250Z 16010KT 9999 FEW020 11/08 Q1023 NOSIG', 'LGIR 060220Z 17009KT 9999 FEW020 12/08 Q1023 NOSIG', 'LGIR 060150Z 19006KT 9999 FEW020 12/08 Q1023 NOSIG', 'LGIR 060120Z 17008KT 9999 FEW020 12/08 Q1023 NOSIG', 'LGIR 060050Z 17006KT 9999 FEW020 12/08 Q1023 NOSIG', 'LGIR 060020Z 17006KT 9999 FEW020 12/08 Q1023 NOSIG', 'LGIR 052350Z 16010KT 9999 FEW020 12/08 Q1023 NOSIG', 'LGIR 052320Z 16010KT 9999 FEW020 13/09 Q1024 NOSIG', 'LGIR 052250Z 17009KT 9999 FEW020 13/09 Q1024 NOSIG', 'LGIR 052220Z 17009KT 9999 FEW020 13/09 Q1024 NOSIG', 'LGIR 052150Z 17011KT 9999 FEW020 13/09 Q1024 NOSIG', 'LGIR 052120Z 17009KT 9999 FEW020 13/09 Q1024 NOSIG']","['2024-02-08 20:20:00', '2024-02-08 19:50:00', '2024-02-08 19:20:00', '2024-02-08 18:50:00', '2024-02-08 18:20:00', '2024-02-08 17:50:00', '2024-02-08 17:20:00', '2024-02-08 16:50:00', '2024-02-08 16:20:00', '2024-02-08 15:50:00', '2024-02-08 15:20:00', '2024-02-08 14:50:00', '2024-02-08 14:20:00', '2024-02-08 13:50:00', '2024-02-08 13:20:00', '2024-02-08 12:50:00', '2024-02-08 12:20:00', '2024-02-08 11:50:00', '2024-02-08 11:20:00', '2024-02-08 10:50:00', '2024-02-08 10:20:00', '2024-02-08 09:50:00', '2024-02-08 09:20:00', '2024-02-08 08:50:00', '2024-02-08 08:20:00', '2024-02-08 07:20:00', '2024-02-08 06:50:00', '2024-02-08 06:20:00', '2024-02-08 05:50:00', '2024-02-08 05:20:00', '2024-02-08 04:50:00', '2024-02-08 04:20:00', '2024-02-08 03:50:00', '2024-02-08 03:20:00', '2024-02-08 02:50:00', '2024-02-08 02:20:00', '2024-02-08 01:50:00', '2024-02-08 01:20:00', '2024-02-08 00:50:00', '2024-02-08 00:20:00', '2024-02-07 23:50:00', '2024-02-07 23:20:00', '2024-02-07 22:50:00', '2024-02-07 22:20:00', '2024-02-07 21:50:00', '2024-02-07 21:20:00', '2024-02-07 20:50:00', '2024-02-07 20:20:00', '2024-02-07 19:50:00', '2024-02-07 19:20:00', '2024-02-07 18:50:00', '2024-02-07 18:20:00', '2024-02-07 17:20:00', '2024-02-07 16:50:00', '2024-02-07 16:20:00', '2024-02-07 15:50:00', '2024-02-07 15:20:00', '2024-02-07 14:50:00', '2024-02-07 14:20:00', '2024-02-07 13:50:00', '2024-02-07 13:20:00', '2024-02-07 12:50:00', '2024-02-07 12:20:00', '2024-02-07 11:50:00', '2024-02-07 11:20:00', '2024-02-07 10:50:00', '2024-02-07 10:20:00', '2024-02-07 09:50:00', '2024-02-07 09:20:00', '2024-02-07 08:50:00', '2024-02-07 08:20:00', '2024-02-07 07:50:00', '2024-02-07 07:20:00', '2024-02-07 06:50:00', '2024-02-07 06:20:00', '2024-02-07 05:50:00', '2024-02-07 05:20:00', '2024-02-07 04:50:00', '2024-02-07 04:20:00', '2024-02-07 03:50:00', '2024-02-07 03:20:00', '2024-02-07 02:50:00', '2024-02-07 02:20:00', '2024-02-07 01:50:00', '2024-02-07 01:20:00', '2024-02-07 00:50:00', '2024-02-07 00:20:00', '2024-02-06 23:50:00', '2024-02-06 23:20:00', '2024-02-06 22:50:00', '2024-02-06 22:20:00', '2024-02-06 21:50:00', '2024-02-06 21:20:00', '2024-02-06 20:50:00', '2024-02-06 20:20:00', '2024-02-06 19:50:00', '2024-02-06 19:20:00', '2024-02-06 18:50:00', '2024-02-06 18:20:00', '2024-02-06 17:50:00', '2024-02-06 17:20:00', '2024-02-06 16:50:00', '2024-02-06 16:20:00', '2024-02-06 15:50:00', '2024-02-06 15:20:00', '2024-02-06 14:50:00', '2024-02-06 14:20:00', '2024-02-06 13:50:00', '2024-02-06 13:20:00', '2024-02-06 12:50:00', '2024-02-06 12:20:00', '2024-02-06 11:50:00', '2024-02-06 11:20:00', '2024-02-06 10:50:00', '2024-02-06 10:20:00', '2024-02-06 09:50:00', '2024-02-06 09:20:00', '2024-02-06 08:50:00', '2024-02-06 08:20:00', '2024-02-06 07:50:00', '2024-02-06 07:20:00', '2024-02-06 06:50:00', '2024-02-06 06:20:00', '2024-02-06 05:50:00', '2024-02-06 05:20:00', '2024-02-06 04:50:00', '2024-02-06 04:20:00', '2024-02-06 03:50:00', '2024-02-06 03:20:00', '2024-02-06 02:50:00', '2024-02-06 02:20:00', '2024-02-06 01:50:00', '2024-02-06 01:20:00', '2024-02-06 00:50:00', '2024-02-06 00:20:00', '2024-02-05 23:50:00', '2024-02-05 23:20:00', '2024-02-05 22:50:00', '2024-02-05 22:20:00', '2024-02-05 21:50:00', '2024-02-05 21:20:00']"
Greece, Ioannina National Airport (IOA/LGIO) ,"['LGIO 082020Z AUTO 00000KT //// // ////// 09/08 Q1015 RE//', 'LGIO 081950Z AUTO 00000KT //// // ////// 08/07 Q1014 RE//', 'LGIO 081920Z AUTO 00000KT //// // ////// 08/06 Q1014 RE//', 'LGIO 081850Z AUTO 00000KT //// // ////// 07/06 Q1014 RE//', 'LGIO 081820Z AUTO 00000KT //// // ////// 09/07 Q1014 RE//', 'LGIO 081750Z 00000KT 9999 FEW035 09/07 Q1014', 'LGIO 081720Z 00000KT 9999 FEW035 10/07 Q1013', 'LGIO 081650Z 00000KT 9999 FEW035 11/07 Q1013', 'LGIO 081620Z 00000KT 9999 FEW035 12/07 Q1013', 'LGIO 081550Z AUTO 00000KT //// // ////// 12/07 Q1013 RE//', 'LGIO 081520Z AUTO 00000KT //// // ////// 14/07 Q1013 RE//', 'LGIO 081450Z AUTO 00000KT //// // ////// 15/06 Q1013 RE//', 'LGIO 081420Z AUTO 00000KT //// // ////// 16/05 Q1013 RE//', 'LGIO 081350Z AUTO 00000KT //// // ////// 16/05 Q1012 RE//', 'LGIO 081320Z AUTO 00000KT //// // ////// 16/05 Q1013 RE//', 'LGIO 081250Z AUTO 00000KT //// // ////// 16/05 Q1013 RE//', 'LGIO 081220Z AUTO 00000KT //// // ////// 16/06 Q1013 RE//', 'LGIO 081150Z 00000KT 9999 FEW040 15/06 Q1013', 'LGIO 081120Z 00000KT 9999 FEW040 15/05 Q1014', 'LGIO 081050Z 00000KT 9999 FEW040 14/05 Q1014', 'LGIO 081020Z 00000KT 9999 FEW040 13/06 Q1014', 'LGIO 080950Z 00000KT 9999 FEW040 SCT080 13/07 Q1015', 'LGIO 080920Z 00000KT 9999 FEW040 SCT080 10/06 Q1015', 'LGIO 080850Z 00000KT 9999 FEW035 SCT080 08/06 Q1015', 'LGIO 080820Z 00000KT 9999 FEW035 BKN045 07/06 Q1015', 'LGIO 080750Z 00000KT 9999 FEW035 BKN045 06/06 Q1016', 'LGIO 080720Z 00000KT 9999 BKN030 SCT070 06/06 Q1016', 'LGIO 080650Z 00000KT 9999 BKN030 SCT070 04/04 Q1016', 'LGIO 080620Z 00000KT 9999 BKN030 SCT070 03/03 Q1015', 'LGIO 080550Z AUTO 00000KT //// // ////// 02/02 Q1015 RE//', 'LGIO 080520Z AUTO 00000KT //// // ////// 01/01 Q1015 RE//', 'LGIO 080450Z AUTO 00000KT //// // ////// 01/01 Q1015 RE//', 'LGIO 080420Z AUTO 00000KT //// // ////// 02/02 Q1015 RE//', 'LGIO 080350Z AUTO 00000KT //// // ////// 02/02 Q1015 RE//', 'LGIO 080320Z AUTO 00000KT //// // ////// 02/02 Q1015 RE//', 'LGIO 080250Z AUTO 00000KT //// // ////// 01/01 Q1015 RE//', 'LGIO 080220Z AUTO 00000KT //// // ////// 01/01 Q1015 RE//', 'LGIO 080150Z AUTO 00000KT //// // ////// 00/00 Q1015 RE//', 'LGIO 080120Z AUTO 00000KT //// // ////// 01/01 Q1016 RE//', 'LGIO 080050Z AUTO 00000KT //// // ////// 00/00 Q1016 RE//', 'LGIO 080020Z AUTO 00000KT //// // ////// 01/01 Q1016 RE//', 'LGIO 072350Z AUTO 00000KT //// // ////// 00/00 Q1016 RE//', 'LGIO 072320Z AUTO 00000KT //// // ////// 01/01 Q1017 RE//', 'LGIO 072250Z AUTO 00000KT //// // ////// 01/01 Q1017 RE//', 'LGIO 072220Z AUTO 00000KT //// // ////// 02/02 Q1017 RE//', 'LGIO 072150Z AUTO 00000KT //// // ////// 04/04 Q1017 RE//', 'LGIO 072120Z AUTO 00000KT //// // ////// 06/06 Q1016 RE//', 'LGIO 072050Z AUTO 00000KT //// // ////// 06/06 Q1017 RE//', 'LGIO 072020Z AUTO 00000KT //// // ////// 06/05 Q1017 RE//', 'LGIO 071950Z AUTO 00000KT //// // ////// 07/07 Q1017 RE//', 'LGIO 071920Z AUTO 00000KT //// // ////// 08/08 Q1017 RE//', 'LGIO 071850Z 00000KT 9999 FEW040 SCT080 08/07 Q1017', 'LGIO 071820Z 00000KT 9999 FEW040 SCT080 09/08 Q1017', 'LGIO 071750Z VRB02KT 9999 SCT040 BKN080 10/08 Q1017', 'LGIO 071720Z 00000KT 9999 SCT040 BKN080 10/08 Q1017', 'LGIO 071650Z 00000KT 9999 SCT040 BKN080 11/08 Q1017', 'LGIO 071620Z 00000KT 9999 SCT040 BKN080 11/07 Q1016', 'LGIO 071550Z AUTO 00000KT //// // ////// 12/06 Q1016 RE//', 'LGIO 071520Z AUTO 00000KT //// // ////// 14/06 Q1017 RE//', 'LGIO 071450Z AUTO 00000KT //// // ////// 14/06 Q1017 RE//', 'LGIO 071420Z AUTO 00000KT //// // ////// 15/06 Q1017 RE//', 'LGIO 071350Z AUTO 00000KT //// // ////// 15/06 Q1017 RE//', 'LGIO 071320Z AUTO 00000KT //// // ////// 15/06 Q1017 RE//', 'LGIO 071250Z AUTO 00000KT //// // ////// 15/05 Q1018 RE//', 'LGIO 071220Z 00000KT 9999 FEW035 BKN080 15/05 Q1018', 'LGIO 071120Z VRB02KT 9999 FEW035 BKN070 13/05 Q1019', 'LGIO 071050Z VRB03KT 9999 FEW035 BKN070 13/05 Q1019', 'LGIO 071020Z VRB02KT 9999 FEW035 BKN070 11/05 Q1020', 'LGIO 070950Z VRB02KT 9999 FEW035 BKN070 11/05 Q1020', 'LGIO 070920Z VRB03KT 9999 FEW035 BKN070 10/05 Q1020', 'LGIO 070850Z VRB02KT 9999 FEW030 BKN070 10/05 Q1020', 'LGIO 070820Z 00000KT 9999 FEW030 BKN070 09/06 Q1021', 'LGIO 070750Z 00000KT 9999 FEW030 BKN070 08/06 Q1021', 'LGIO 070720Z 00000KT 9999 FEW030 BKN070 07/06 Q1021', 'LGIO 070650Z 00000KT 9999 FEW030 BKN070 07/05 Q1021', 'LGIO 070620Z AUTO 00000KT //// // ////// 07/06 Q1021 RE//', 'LGIO 070550Z AUTO 00000KT //// // ////// 06/05 Q1021 RE//', 'LGIO 070520Z AUTO 00000KT //// // ////// 06/06 Q1021 RE//', 'LGIO 070450Z AUTO 00000KT //// // ////// 06/06 Q1021 RE//', 'LGIO 070420Z AUTO 00000KT //// // ////// 06/06 Q1021 RE//', 'LGIO 070350Z AUTO 00000KT //// // ////// 06/06 Q1021 RE//', 'LGIO 070320Z AUTO 00000KT //// // ////// 06/06 Q1021 RE//', 'LGIO 070250Z AUTO 00000KT //// // ////// 05/05 Q1022 RE//', 'LGIO 070220Z AUTO 00000KT //// // ////// 06/06 Q1022 RE//', 'LGIO 070150Z AUTO 00000KT //// // ////// 05/05 Q1022 RE//', 'LGIO 070120Z AUTO 00000KT //// // ////// 05/05 Q1022 RE//', 'LGIO 070050Z AUTO 00000KT //// // ////// 05/05 Q1022 RE//', 'LGIO 070020Z AUTO 00000KT //// // ////// 04/04 Q1022 RE//', 'LGIO 062350Z AUTO 00000KT //// // ////// 04/04 Q1023 RE//', 'LGIO 062320Z AUTO 00000KT //// // ////// 03/03 Q1022 RE//', 'LGIO 062250Z AUTO 00000KT //// // ////// 03/03 Q1023 RE//', 'LGIO 062220Z AUTO 00000KT //// // ////// 02/02 Q1023 RE//', 'LGIO 062150Z AUTO 00000KT //// // ////// 02/02 Q1023 RE//', 'LGIO 062120Z AUTO 00000KT //// // ////// 03/03 Q1023 RE//', 'LGIO 062050Z AUTO 00000KT //// // ////// 04/04 Q1023 RE//', 'LGIO 062020Z AUTO 00000KT //// // ////// 04/03 Q1023 RE//', 'LGIO 061950Z AUTO 00000KT //// // ////// 05/05 Q1023 RE//', 'LGIO 061920Z AUTO 00000KT //// // ////// 06/06 Q1023 RE//', 'LGIO 061850Z 00000KT CAVOK 07/07 Q1023', 'LGIO 061820Z 00000KT CAVOK 07/05 Q1023', 'LGIO 061750Z VRB02KT CAVOK 09/08 Q1023', 'LGIO 061720Z VRB02KT CAVOK 09/07 Q1023', 'LGIO 061650Z VRB02KT CAVOK 11/07 Q1022', 'LGIO 061620Z VRB02KT CAVOK 12/07 Q1022', 'LGIO 061550Z AUTO 00000KT //// // ////// 13/06 Q1022 RE//', 'LGIO 061520Z AUTO 00000KT //// // ////// 15/06 Q1021 RE//', 'LGIO 061450Z AUTO 00000KT //// // ////// 17/05 Q1022 RE//', 'LGIO 061420Z AUTO 00000KT //// // ////// 17/05 Q1022 RE//', 'LGIO 061350Z AUTO 00000KT //// // ////// 18/05 Q1022 RE//', 'LGIO 061320Z AUTO 00000KT //// // ////// 17/05 Q1022 RE//', 'LGIO 061250Z AUTO 00000KT //// // ////// 16/04 Q1023 RE//', 'LGIO 061220Z VRB03KT CAVOK 17/04 Q1023', 'LGIO 061150Z VRB03KT CAVOK 17/03 Q1023', 'LGIO 061120Z VRB03KT CAVOK 15/04 Q1024', 'LGIO 061050Z VRB03KT CAVOK 13/04 Q1024', 'LGIO 061020Z VRB03KT CAVOK 11/04 Q1025', 'LGIO 060950Z VRB03KT CAVOK 10/04 Q1025', 'LGIO 060920Z VRB03KT 9999 FEW002 07/04 Q1025', 'LGIO 060850Z VRB02KT 9999 FEW002 04/04 Q1026', 'LGIO 060820Z 00000KT 6000 SCT002 02/02 Q1026', 'LGIO 060750Z 00000KT 1000 BR BKN001 M00/M00 Q1026', 'LGIO 060720Z 00000KT 0200 FG BKN001 M01/M01 Q1026', 'LGIO 060650Z 00000KT 0200 FG BKN001 M02/M02 Q1026', 'LGIO 060620Z AUTO 00000KT //// // ////// M02/M02 Q1026 RE//', 'LGIO 060550Z AUTO 00000KT //// // ////// M03/M03 Q1026 RE//', 'LGIO 060520Z AUTO 00000KT //// // ////// M03/M03 Q1026 RE//', 'LGIO 060450Z AUTO 00000KT //// // ////// M03/M03 Q1026 RE//', 'LGIO 060420Z AUTO 00000KT //// // ////// M03/M03 Q1025 RESN', 'LGIO 060350Z AUTO 00000KT //// // ////// M02/M02 Q1025 RE//', 'LGIO 060320Z AUTO 00000KT //// // ////// M03/M03 Q1026 RE//', 'LGIO 060250Z AUTO 00000KT //// // ////// M02/M02 Q1026 RE//', 'LGIO 060220Z AUTO 00000KT //// // ////// M02/M02 Q1026 RE//', 'LGIO 060150Z AUTO 00000KT //// // ////// 00/M00 Q1026 RE//', 'LGIO 060120Z AUTO 00000KT //// // ////// M02/M02 Q1026 RE//', 'LGIO 060050Z AUTO 00000KT //// // ////// M01/M01 Q1026 RE//', 'LGIO 060020Z AUTO 00000KT //// // ////// M01/M01 Q1026 RE//', 'LGIO 052350Z AUTO 00000KT //// // ////// M01/M01 Q1026 RE//', 'LGIO 052320Z AUTO 00000KT //// // ////// M00/M00 Q1026 RE//', 'LGIO 052250Z AUTO 00000KT //// // ////// 00/00 Q1027 RE//', 'LGIO 052220Z AUTO 00000KT //// // ////// 02/02 Q1026 RE//', 'LGIO 052150Z AUTO 00000KT //// // ////// 03/02 Q1026 RE//', 'LGIO 052120Z AUTO 00000KT //// // ////// 02/02 Q1026 RE//']","['2024-02-08 20:20:00', '2024-02-08 19:50:00', '2024-02-08 19:20:00', '2024-02-08 18:50:00', '2024-02-08 18:20:00', '2024-02-08 17:50:00', '2024-02-08 17:20:00', '2024-02-08 16:50:00', '2024-02-08 16:20:00', '2024-02-08 15:50:00', '2024-02-08 15:20:00', '2024-02-08 14:50:00', '2024-02-08 14:20:00', '2024-02-08 13:50:00', '2024-02-08 13:20:00', '2024-02-08 12:50:00', '2024-02-08 12:20:00', '2024-02-08 11:50:00', '2024-02-08 11:20:00', '2024-02-08 10:50:00', '2024-02-08 10:20:00', '2024-02-08 09:50:00', '2024-02-08 09:20:00', '2024-02-08 08:50:00', '2024-02-08 08:20:00', '2024-02-08 07:50:00', '2024-02-08 07:20:00', '2024-02-08 06:50:00', '2024-02-08 06:20:00', '2024-02-08 05:50:00', '2024-02-08 05:20:00', '2024-02-08 04:50:00', '2024-02-08 04:20:00', '2024-02-08 03:50:00', '2024-02-08 03:20:00', '2024-02-08 02:50:00', '2024-02-08 02:20:00', '2024-02-08 01:50:00', '2024-02-08 01:20:00', '2024-02-08 00:50:00', '2024-02-08 00:20:00', '2024-02-07 23:50:00', '2024-02-07 23:20:00', '2024-02-07 22:50:00', '2024-02-07 22:20:00', '2024-02-07 21:50:00', '2024-02-07 21:20:00', '2024-02-07 20:50:00', '2024-02-07 20:20:00', '2024-02-07 19:50:00', '2024-02-07 19:20:00', '2024-02-07 18:50:00', '2024-02-07 18:20:00', '2024-02-07 17:50:00', '2024-02-07 17:20:00', '2024-02-07 16:50:00', '2024-02-07 16:20:00', '2024-02-07 15:50:00', '2024-02-07 15:20:00', '2024-02-07 14:50:00', '2024-02-07 14:20:00', '2024-02-07 13:50:00', '2024-02-07 13:20:00', '2024-02-07 12:50:00', '2024-02-07 12:20:00', '2024-02-07 11:20:00', '2024-02-07 10:50:00', '2024-02-07 10:20:00', '2024-02-07 09:50:00', '2024-02-07 09:20:00', '2024-02-07 08:50:00', '2024-02-07 08:20:00', '2024-02-07 07:50:00', '2024-02-07 07:20:00', '2024-02-07 06:50:00', '2024-02-07 06:20:00', '2024-02-07 05:50:00', '2024-02-07 05:20:00', '2024-02-07 04:50:00', '2024-02-07 04:20:00', '2024-02-07 03:50:00', '2024-02-07 03:20:00', '2024-02-07 02:50:00', '2024-02-07 02:20:00', '2024-02-07 01:50:00', '2024-02-07 01:20:00', '2024-02-07 00:50:00', '2024-02-07 00:20:00', '2024-02-06 23:50:00', '2024-02-06 23:20:00', '2024-02-06 22:50:00', '2024-02-06 22:20:00', '2024-02-06 21:50:00', '2024-02-06 21:20:00', '2024-02-06 20:50:00', '2024-02-06 20:20:00', '2024-02-06 19:50:00', '2024-02-06 19:20:00', '2024-02-06 18:50:00', '2024-02-06 18:20:00', '2024-02-06 17:50:00', '2024-02-06 17:20:00', '2024-02-06 16:50:00', '2024-02-06 16:20:00', '2024-02-06 15:50:00', '2024-02-06 15:20:00', '2024-02-06 14:50:00', '2024-02-06 14:20:00', '2024-02-06 13:50:00', '2024-02-06 13:20:00', '2024-02-06 12:50:00', '2024-02-06 12:20:00', '2024-02-06 11:50:00', '2024-02-06 11:20:00', '2024-02-06 10:50:00', '2024-02-06 10:20:00', '2024-02-06 09:50:00', '2024-02-06 09:20:00', '2024-02-06 08:50:00', '2024-02-06 08:20:00', '2024-02-06 07:50:00', '2024-02-06 07:20:00', '2024-02-06 06:50:00', '2024-02-06 06:20:00', '2024-02-06 05:50:00', '2024-02-06 05:20:00', '2024-02-06 04:50:00', '2024-02-06 04:20:00', '2024-02-06 03:50:00', '2024-02-06 03:20:00', '2024-02-06 02:50:00', '2024-02-06 02:20:00', '2024-02-06 01:50:00', '2024-02-06 01:20:00', '2024-02-06 00:50:00', '2024-02-06 00:20:00', '2024-02-05 23:50:00', '2024-02-05 23:20:00', '2024-02-05 22:50:00', '2024-02-05 22:20:00', '2024-02-05 21:50:00', '2024-02-05 21:20:00']"
Greece, Kalamata International Airport (KLX/LGKL) ,"['LGKL 082020Z 00000KT 9999 FEW025 09/08 Q1015', 'LGKL 081950Z 00000KT 9999 FEW025 09/08 Q1015', 'LGKL 081920Z 01004KT 9999 FEW025 10/09 Q1015', 'LGKL 081850Z 00000KT 9999 SCT025 10/09 Q1015', 'LGKL 081820Z 30003KT 9999 SCT025 11/10 Q1014', 'LGKL 081750Z 00000KT 9999 SCT025 11/09 Q1014', 'LGKL 081720Z 00000KT 9999 SCT025 12/10 Q1014', 'LGKL 081650Z 00000KT 9999 SCT025 14/10 Q1013', 'LGKL 081620Z 00000KT 9999 SCT025 15/11 Q1013', 'LGKL 081550Z 00000KT 9999 SCT025 15/11 Q1013', 'LGKL 081520Z 14005KT 9999 SCT025 16/11 Q1013', 'LGKL 081450Z 16006KT 9999 SCT025 17/11 Q1013', 'LGKL 081420Z 17006KT 9999 SCT025 17/11 Q1013', 'LGKL 081350Z 16007KT 9999 SCT025 17/10 Q1013', 'LGKL 081320Z 17007KT 9999 SCT025 18/11 Q1013', 'LGKL 081250Z 16006KT 9999 SCT025 18/11 Q1013', 'LGKL 081220Z 16006KT 9999 SCT025 17/10 Q1013', 'LGKL 081150Z 15004KT 9999 SCT025 18/11 Q1014', 'LGKL 081120Z VRB02KT 8000 FEW025 SCT030 16/11 Q1014', 'LGKL 081050Z VRB03KT 8000 -DZ FEW020TCU SCT030 BKN080 15/12 Q1014', 'LGKL 081020Z 20004KT 8000 4000W -DZ FU FEW020TCU SCT030 BKN080 15/11 Q1015', 'LGKL 080950Z 17004KT 8000 4000W FU FEW020TCU SCT030 BKN080 16/11 Q1015', 'LGKL 080920Z 17004KT 8000 4000W FU FEW025 SCT030 16/11 Q1015', 'LGKL 080850Z 00000KT 6000 3000SE HZ FEW025 16/11 Q1015', 'LGKL 080820Z 00000KT 5000 2000SE FU FEW025 14/11 Q1016', 'LGKL 080750Z 35004KT 4000 1000SE FU FEW025 12/10 Q1016', 'LGKL 080720Z 01004KT 4000 1000SE FU FEW025 11/09 Q1016', 'LGKL 080650Z 02004KT 4000 1000SE FU FEW025 08/07 Q1017', 'LGKL 080620Z VRB02KT 4000 1000NE FU FEW025 07/06 Q1016', 'LGKL 080550Z VRB02KT 5000 2000SE HZ FEW025 SCT080 07/06 Q1016', 'LGKL 080520Z VRB02KT 5000 2000SE BR FEW025 SCT080 07/07 Q1016', 'LGKL 080450Z VRB03KT 5000 2000S FU FEW025 SCT080 06/06 Q1016', 'LGKL 080420Z 34004KT 5000 2500S FU FEW025 08/07 Q1016', 'LGKL 080350Z VRB03KT 6000 3000N FU FEW025 07/06 Q1016', 'LGKL 080320Z 30004KT 6000 FEW035 07/07 Q1016', 'LGKL 080250Z VRB03KT 8000 SCT035 07/07 Q1016', 'LGKL 080220Z 33004KT 8000 SCT035 07/06 Q1017', 'LGKL 080150Z VRB03KT 8000 SCT035 07/06 Q1017', 'LGKL 080120Z VRB03KT 8000 SCT035 07/06 Q1017', 'LGKL 080050Z 00000KT 8000 SCT035 08/07 Q1018', 'LGKL 080020Z 00000KT 8000 SCT035 07/07 Q1018', 'LGKL 072350Z 00000KT 9999 FEW030 07/06 Q1018', 'LGKL 072320Z 00000KT 9999 FEW030 07/06 Q1018', 'LGKL 072250Z VRB03KT 9999 FEW030 08/07 Q1018', 'LGKL 072150Z VRB03KT 9999 FEW030 08/07 Q1018', 'LGKL 072120Z VRB03KT 9999 FEW030 08/08 Q1018', 'LGKL 072050Z 35004KT 9999 FEW030 09/08 Q1018', 'LGKL 072020Z 02004KT 9999 FEW030 09/08 Q1018', 'LGKL 071950Z 33004KT 9999 FEW030 09/08 Q1019', 'LGKL 071920Z VRB03KT 9999 FEW030 09/08 Q1018', 'LGKL 071850Z VRB03KT 9999 FEW030 10/09 Q1018', 'LGKL 071820Z 00000KT 9999 FEW030 10/09 Q1018', 'LGKL 071750Z 00000KT 9999 FEW030 12/10 Q1018', 'LGKL 071720Z 00000KT 9999 FEW030 11/10 Q1018', 'LGKL 071650Z 00000KT 9999 FEW080 12/10 Q1018', 'LGKL 071620Z 00000KT 9999 FEW080 14/11 Q1017', 'LGKL 071550Z 00000KT 9999 FEW030 16/11 Q1017', 'LGKL 071520Z 00000KT 9999 FEW030 17/11 Q1017', 'LGKL 071450Z 00000KT 9999 FEW035 18/10 Q1018', 'LGKL 071420Z VRB03KT 9999 FEW035 18/10 Q1018', 'LGKL 071350Z 15004KT 9999 FEW030 18/11 Q1018', 'LGKL 071320Z 16005KT 9999 FEW030 18/10 Q1018', 'LGKL 071250Z 16006KT 9999 FEW080 18/11 Q1019', 'LGKL 071220Z 16006KT 9999 FEW080 18/10 Q1019', 'LGKL 071150Z 15004KT 9999 FEW080 18/10 Q1019', 'LGKL 071120Z 17005KT 9999 FEW080 18/10 Q1019', 'LGKL 071050Z 18006KT 9999 FEW080 18/11 Q1019', 'LGKL 071020Z VRB02KT 9999 FEW080 19/08 Q1020', 'LGKL 070950Z VRB02KT 9999 FEW080 18/09 Q1020', 'LGKL 070920Z 30004KT 9999 FEW080 17/10 Q1020', 'LGKL 070850Z 32004KT 9999 FEW080 16/10 Q1021', 'LGKL 070820Z 32004KT 9999 FEW080 15/10 Q1021', 'LGKL 070750Z 36004KT 9999 FEW080 13/09 Q1021', 'LGKL 070720Z 32006KT 9999 FEW080 11/09 Q1021', 'LGKL 070650Z 33006KT 9999 FEW080 09/08 Q1021', 'LGKL 070620Z 33005KT 9999 FEW080 08/07 Q1021', 'LGKL 070550Z 33005KT 9999 FEW080 06/05 Q1021', 'LGKL 070520Z 32005KT 9999 FEW080 07/06 Q1021', 'LGKL 070450Z 34005KT 9999 FEW025 07/06 Q1021', 'LGKL 070420Z 00000KT 9000 FEW030 07/06 Q1021', 'LGKL 070350Z 00000KT 9000 FEW030 07/07 Q1021', 'LGKL 070320Z VRB03KT 8000 SCT030 08/07 Q1021', 'LGKL 070250Z VRB03KT 9999 SCT030 09/08 Q1021', 'LGKL 070220Z VRB03KT 9999 SCT030 09/08 Q1021', 'LGKL 070150Z VRB03KT 9999 SCT030 10/09 Q1022', 'LGKL 070120Z VRB03KT 9999 SCT030 10/09 Q1022', 'LGKL 070050Z VRB03KT 9999 SCT030 10/09 Q1022', 'LGKL 070020Z 00000KT 9999 SCT030 10/09 Q1023', 'LGKL 062350Z VRB03KT 9999 SCT030 10/09 Q1023', 'LGKL 062320Z 00000KT 9999 SCT030 10/09 Q1023', 'LGKL 062250Z 36004KT 9999 SCT030 10/09 Q1023', 'LGKL 062220Z 00000KT 9999 SCT030 09/09 Q1023', 'LGKL 062150Z 00000KT 9999 SCT030 09/08 Q1023', 'LGKL 062120Z VRB03KT 9999 SCT030 09/08 Q1023', 'LGKL 062050Z 00000KT 9999 SCT030 09/08 Q1024', 'LGKL 062020Z 00000KT 9999 SCT030 08/07 Q1024', 'LGKL 061950Z 34004KT 9999 FEW030 08/07 Q1024', 'LGKL 061920Z VRB03KT 9999 FEW030 09/08 Q1024', 'LGKL 061850Z VRB03KT 9999 FEW030 09/08 Q1024', 'LGKL 061820Z VRB03KT 9999 FEW030 10/09 Q1023', 'LGKL 061750Z 30004KT 9999 FEW030 11/09 Q1023', 'LGKL 061720Z 33005KT 9999 FEW012 12/10 Q1023', 'LGKL 061650Z 36005KT 9999 FEW012 14/10 Q1023', 'LGKL 061620Z VRB03KT 9999 FEW012 15/10 Q1023', 'LGKL 061550Z VRB03KT 9999 FEW030 16/11 Q1022', 'LGKL 061520Z 11004KT 9999 FEW030 17/12 Q1022', 'LGKL 061450Z 14005KT CAVOK 18/12 Q1022', 'LGKL 061420Z 14005KT CAVOK 18/12 Q1022', 'LGKL 061350Z 15006KT CAVOK 19/12 Q1023', 'LGKL 061320Z 15007KT CAVOK 19/12 Q1023', 'LGKL 061250Z 16005KT CAVOK 20/11 Q1023', 'LGKL 061220Z 14004KT CAVOK 20/11 Q1023', 'LGKL 061150Z 16005KT CAVOK 20/10 Q1023', 'LGKL 061120Z 15006KT CAVOK 19/10 Q1024', 'LGKL 061050Z 19004KT CAVOK 19/10 Q1024', 'LGKL 061020Z 34006KT CAVOK 19/10 Q1025', 'LGKL 060950Z 36004KT CAVOK 19/08 Q1025', 'LGKL 060920Z 34006KT CAVOK 19/10 Q1025', 'LGKL 060850Z 34008KT CAVOK 17/09 Q1025', 'LGKL 060820Z 30005KT CAVOK 16/10 Q1025', 'LGKL 060750Z 33009KT CAVOK 14/09 Q1025', 'LGKL 060720Z 33006KT CAVOK 13/09 Q1025', 'LGKL 060650Z 33006KT CAVOK 10/08 Q1025', 'LGKL 060620Z 33009KT CAVOK 09/07 Q1025', 'LGKL 060550Z 35005KT CAVOK 09/07 Q1024', 'LGKL 060520Z 33008KT CAVOK 10/07 Q1025', 'LGKL 060450Z 33009KT CAVOK 08/06 Q1024', 'LGKL 060420Z 33008KT CAVOK 08/06 Q1024', 'LGKL 060350Z 33009KT CAVOK 08/07 Q1024', 'LGKL 060250Z 34009KT CAVOK 09/07 Q1024', 'LGKL 060220Z 33008KT CAVOK 08/07 Q1024', 'LGKL 060150Z 32008KT CAVOK 08/07 Q1025', 'LGKL 060120Z 33009KT CAVOK 09/07 Q1025', 'LGKL 060050Z 33009KT CAVOK 08/07 Q1025', 'LGKL 060020Z 33009KT CAVOK 09/07 Q1025', 'LGKL 052350Z 34009KT CAVOK 09/08 Q1025', 'LGKL 052320Z 35008KT CAVOK 09/08 Q1025', 'LGKL 052250Z 33006KT CAVOK 09/08 Q1026', 'LGKL 052220Z 33008KT CAVOK 10/08 Q1026', 'LGKL 052150Z 33007KT CAVOK 10/09 Q1026', 'LGKL 052120Z 36006KT CAVOK 11/10 Q1026']","['2024-02-08 20:20:00', '2024-02-08 19:50:00', '2024-02-08 19:20:00', '2024-02-08 18:50:00', '2024-02-08 18:20:00', '2024-02-08 17:50:00', '2024-02-08 17:20:00', '2024-02-08 16:50:00', '2024-02-08 16:20:00', '2024-02-08 15:50:00', '2024-02-08 15:20:00', '2024-02-08 14:50:00', '2024-02-08 14:20:00', '2024-02-08 13:50:00', '2024-02-08 13:20:00', '2024-02-08 12:50:00', '2024-02-08 12:20:00', '2024-02-08 11:50:00', '2024-02-08 11:20:00', '2024-02-08 10:50:00', '2024-02-08 10:20:00', '2024-02-08 09:50:00', '2024-02-08 09:20:00', '2024-02-08 08:50:00', '2024-02-08 08:20:00', '2024-02-08 07:50:00', '2024-02-08 07:20:00', '2024-02-08 06:50:00', '2024-02-08 06:20:00', '2024-02-08 05:50:00', '2024-02-08 05:20:00', '2024-02-08 04:50:00', '2024-02-08 04:20:00', '2024-02-08 03:50:00', '2024-02-08 03:20:00', '2024-02-08 02:50:00', '2024-02-08 02:20:00', '2024-02-08 01:50:00', '2024-02-08 01:20:00', '2024-02-08 00:50:00', '2024-02-08 00:20:00', '2024-02-07 23:50:00', '2024-02-07 23:20:00', '2024-02-07 22:50:00', '2024-02-07 21:50:00', '2024-02-07 21:20:00', '2024-02-07 20:50:00', '2024-02-07 20:20:00', '2024-02-07 19:50:00', '2024-02-07 19:20:00', '2024-02-07 18:50:00', '2024-02-07 18:20:00', '2024-02-07 17:50:00', '2024-02-07 17:20:00', '2024-02-07 16:50:00', '2024-02-07 16:20:00', '2024-02-07 15:50:00', '2024-02-07 15:20:00', '2024-02-07 14:50:00', '2024-02-07 14:20:00', '2024-02-07 13:50:00', '2024-02-07 13:20:00', '2024-02-07 12:50:00', '2024-02-07 12:20:00', '2024-02-07 11:50:00', '2024-02-07 11:20:00', '2024-02-07 10:50:00', '2024-02-07 10:20:00', '2024-02-07 09:50:00', '2024-02-07 09:20:00', '2024-02-07 08:50:00', '2024-02-07 08:20:00', '2024-02-07 07:50:00', '2024-02-07 07:20:00', '2024-02-07 06:50:00', '2024-02-07 06:20:00', '2024-02-07 05:50:00', '2024-02-07 05:20:00', '2024-02-07 04:50:00', '2024-02-07 04:20:00', '2024-02-07 03:50:00', '2024-02-07 03:20:00', '2024-02-07 02:50:00', '2024-02-07 02:20:00', '2024-02-07 01:50:00', '2024-02-07 01:20:00', '2024-02-07 00:50:00', '2024-02-07 00:20:00', '2024-02-06 23:50:00', '2024-02-06 23:20:00', '2024-02-06 22:50:00', '2024-02-06 22:20:00', '2024-02-06 21:50:00', '2024-02-06 21:20:00', '2024-02-06 20:50:00', '2024-02-06 20:20:00', '2024-02-06 19:50:00', '2024-02-06 19:20:00', '2024-02-06 18:50:00', '2024-02-06 18:20:00', '2024-02-06 17:50:00', '2024-02-06 17:20:00', '2024-02-06 16:50:00', '2024-02-06 16:20:00', '2024-02-06 15:50:00', '2024-02-06 15:20:00', '2024-02-06 14:50:00', '2024-02-06 14:20:00', '2024-02-06 13:50:00', '2024-02-06 13:20:00', '2024-02-06 12:50:00', '2024-02-06 12:20:00', '2024-02-06 11:50:00', '2024-02-06 11:20:00', '2024-02-06 10:50:00', '2024-02-06 10:20:00', '2024-02-06 09:50:00', '2024-02-06 09:20:00', '2024-02-06 08:50:00', '2024-02-06 08:20:00', '2024-02-06 07:50:00', '2024-02-06 07:20:00', '2024-02-06 06:50:00', '2024-02-06 06:20:00', '2024-02-06 05:50:00', '2024-02-06 05:20:00', '2024-02-06 04:50:00', '2024-02-06 04:20:00', '2024-02-06 03:50:00', '2024-02-06 02:50:00', '2024-02-06 02:20:00', '2024-02-06 01:50:00', '2024-02-06 01:20:00', '2024-02-06 00:50:00', '2024-02-06 00:20:00', '2024-02-05 23:50:00', '2024-02-05 23:20:00', '2024-02-05 22:50:00', '2024-02-05 22:20:00', '2024-02-05 21:50:00', '2024-02-05 21:20:00']"
Greece, Karpathos Island National Airport (AOK/LGKP) ,"['LGKP 082030Z AUTO 23013KT //// -RA ////// 17/14 Q1015 RE//', 'LGKP 082000Z AUTO 22014KT //// -RA ////// 17/14 Q1015 RE//', 'LGKP 081930Z AUTO 23014KT //// -RA ////// 17/14 Q1015 RE//', 'LGKP 081900Z AUTO 22011KT //// -RA ////// 17/14 Q1015 RE//', 'LGKP 081820Z 22012KT 9999 SCT020 17/14 Q1015', 'LGKP 081750Z 22012KT 9999 SCT020 17/14 Q1016', 'LGKP 081720Z 22011KT 9999 SCT020 17/14 Q1016', 'LGKP 081650Z 22010KT 9999 SCT020 17/14 Q1015', 'LGKP 081620Z 23009KT CAVOK 17/14 Q1015', 'LGKP 081550Z 23010KT CAVOK 17/14 Q1016', 'LGKP 081520Z 24014KT 9999 SCT020 18/14 Q1016', 'LGKP 081450Z 22012KT 9999 SCT020 18/13 Q1016', 'LGKP 081420Z 22013KT 9999 SCT020 19/13 Q1016', 'LGKP 081350Z 21013KT 9999 SCT020 18/13 Q1016', 'LGKP 081320Z 21013KT 9999 SCT020 19/13 Q1016', 'LGKP 081250Z 21014KT 9999 SCT020 19/13 Q1016', 'LGKP 081220Z 22013KT 9999 SCT020 19/13 Q1016', 'LGKP 081150Z 22013KT 9999 SCT020 18/13 Q1017', 'LGKP 081120Z 20013KT 9999 SCT020 19/13 Q1017', 'LGKP 081050Z 22014KT 9999 SCT020 19/13 Q1018', 'LGKP 081020Z 22014KT 9999 SCT018 19/13 Q1018', 'LGKP 080950Z 20014KT 9999 SCT018 19/13 Q1018', 'LGKP 080920Z 20013KT 9999 SCT018 19/14 Q1018', 'LGKP 080850Z 20014KT 9999 SCT018 18/13 Q1019', 'LGKP 080820Z 20015KT 9999 SCT018 18/13 Q1019', 'LGKP 080750Z 21011KT 9999 SCT018 18/13 Q1019', 'LGKP 080720Z 21012KT 9999 SCT018 18/13 Q1019', 'LGKP 080650Z 20011KT 9999 SCT018 17/13 Q1019', 'LGKP 080620Z 20012KT 9999 SCT018 17/13 Q1018', 'LGKP 080550Z 20013KT 9999 SCT018 17/13 Q1018', 'LGKP 080520Z 20012KT 9999 SCT018 17/13 Q1018', 'LGKP 080450Z 20011KT 9999 BKN020 17/13 Q1018', 'LGKP 080420Z 21010KT 9999 SCT020 17/13 Q1018', 'LGKP 080350Z 20011KT 9999 SCT020 17/13 Q1018', 'LGKP 080320Z 19012KT 9999 SCT020 17/13 Q1018', 'LGKP 080300Z AUTO 20011KT //// // ////// 16/12 Q1018 RERA', 'LGKP 080230Z AUTO 19012KT //// -RA ////// 17/13 Q1018 RE//', 'LGKP 080130Z AUTO 19010KT //// // ////// 16/12 Q1019 RERA', 'LGKP 080100Z AUTO 19010KT //// // ////// 16/12 Q1019 RERA', 'LGKP 080030Z AUTO 19010KT //// // ////// 16/13 Q1019 RERA', 'LGKP 080000Z AUTO 20009KT //// // ////// 16/13 Q1019 RERA', 'LGKP 072330Z AUTO 21009KT //// // ////// 16/13 Q1019 RE//', 'LGKP 072300Z AUTO 21010KT //// // ////// 16/12 Q1019 RE//', 'LGKP 072230Z AUTO 21009KT //// -RA ////// 16/13 Q1019 RE//', 'LGKP 072200Z AUTO 20011KT //// // ////// 16/13 Q1019 RE//', 'LGKP 072130Z AUTO 21012KT //// // ////// 16/13 Q1019 RE//', 'LGKP 072100Z AUTO 19009KT //// // ////// 16/13 Q1019 RE//', 'LGKP 072030Z AUTO 21010KT //// // ////// 16/13 Q1019 RE//', 'LGKP 072000Z AUTO 21010KT //// // ////// 16/13 Q1019 RERA', 'LGKP 071930Z AUTO 21009KT //// // ////// 16/13 Q1019 RERA', 'LGKP 071900Z AUTO 21009KT //// -RA ////// 16/13 Q1020 RE//', 'LGKP 071830Z AUTO 19009KT //// // ////// 16/13 Q1019 RERA', 'LGKP 071750Z 21011KT 9999 SCT020 16/13 Q1020', 'LGKP 071720Z 22011KT 9999 SCT020 16/13 Q1019', 'LGKP 071650Z 21011KT 9999 SCT020 16/13 Q1019', 'LGKP 071620Z 22011KT 9999 SCT020 17/13 Q1019', 'LGKP 071550Z 22013KT 9999 SCT020 17/13 Q1019', 'LGKP 071520Z 22014KT 9999 SCT020 17/14 Q1019', 'LGKP 071450Z 22014KT 9999 SCT020 18/13 Q1019', 'LGKP 071420Z 22015KT 9999 SCT018 18/13 Q1019', 'LGKP 071350Z 21016KT 9999 FEW020 SCT025 18/13 Q1019', 'LGKP 071320Z 22015KT 9999 SCT020 19/13 Q1019', 'LGKP 071250Z 22015KT 9999 SCT020 18/13 Q1019', 'LGKP 071220Z 22017KT 9999 SCT020 18/12 Q1019', 'LGKP 071150Z 23016KT 9999 SCT020 19/12 Q1019', 'LGKP 071120Z 22017KT 9999 SCT020 18/12 Q1019', 'LGKP 071050Z 22017KT 9999 BKN020 18/12 Q1020', 'LGKP 071020Z 22016KT 9999 BKN020 18/13 Q1020', 'LGKP 070950Z 23014KT 9999 BKN020 18/13 Q1021', 'LGKP 070920Z 24016KT 9999 SCT018 19/14 Q1021', 'LGKP 070850Z 24015KT 9999 SCT016 18/14 Q1021', 'LGKP 070820Z 22008KT 9999 SCT016 18/13 Q1020', 'LGKP 070750Z 20012KT 9999 SCT016 17/13 Q1021', 'LGKP 070720Z 23011KT 9999 SCT016 17/14 Q1021', 'LGKP 070650Z 25010KT 9999 SCT016 16/14 Q1021', 'LGKP 070620Z 26007KT 9999 SCT016 16/14 Q1020', 'LGKP 070550Z 21005KT 9999 SCT020 15/13 Q1020', 'LGKP 070520Z 20007KT 9999 SCT020 15/13 Q1020', 'LGKP 070500Z AUTO 22008KT //// // ////// 15/13 Q1020 RE//', 'LGKP 070430Z AUTO 20009KT //// // ////// 16/14 Q1020 RERA', 'LGKP 070400Z AUTO 22008KT //// // ////// 15/13 Q1021 RE//', 'LGKP 070330Z AUTO 21009KT //// // ////// 16/14 Q1021 RE//', 'LGKP 070300Z AUTO 22009KT //// // ////// 16/14 Q1021 RE//', 'LGKP 070230Z AUTO 21009KT //// // ////// 16/13 Q1021 RE//', 'LGKP 070200Z AUTO 21008KT //// // ////// 16/13 Q1021 RE//', 'LGKP 070130Z AUTO 21008KT //// // ////// 15/13 Q1021 RE//', 'LGKP 070100Z AUTO 21008KT //// // ////// 15/13 Q1022 RE//', 'LGKP 070030Z AUTO 21009KT //// // ////// 16/13 Q1022 RE//', 'LGKP 070000Z AUTO 21009KT //// -RA ////// 15/13 Q1022 RE//', 'LGKP 062330Z AUTO 20007KT //// // ////// 15/13 Q1022 RE//', 'LGKP 062300Z AUTO 22006KT //// // ////// 14/13 Q1023 RERA', 'LGKP 062230Z AUTO 23005KT //// // ////// 14/12 Q1023 RERA', 'LGKP 062200Z AUTO 28005KT 240V300 //// // ////// 13/12 Q1023 RE//', 'LGKP 062130Z AUTO 29006KT //// // ////// 12/11 Q1023 RE//', 'LGKP 062100Z AUTO 31005KT //// // ////// 13/12 Q1023 RERA', 'LGKP 062030Z AUTO 30007KT //// -RA ////// 13/12 Q1023 RE//', 'LGKP 062000Z AUTO 29007KT //// // ////// 13/11 Q1023 RE//', 'LGKP 061930Z AUTO 29006KT //// // ////// 13/12 Q1023 RE//', 'LGKP 061900Z AUTO 29005KT //// // ////// 14/12 Q1023 RE//', 'LGKP 061830Z AUTO 29006KT //// // ////// 14/12 Q1023 RE//', 'LGKP 061750Z 30006KT CAVOK 14/12 Q1023', 'LGKP 061720Z 30008KT CAVOK 15/12 Q1023', 'LGKP 061650Z 30007KT 9999 FEW018 15/13 Q1023', 'LGKP 061620Z 29008KT 9999 FEW018 15/13 Q1023', 'LGKP 061550Z 29011KT 9999 FEW018 16/13 Q1023', 'LGKP 061520Z 29012KT 9999 FEW018 17/13 Q1023', 'LGKP 061450Z 29013KT 9999 FEW018 18/13 Q1023', 'LGKP 061420Z 29012KT 9999 FEW018 18/14 Q1023', 'LGKP 061350Z 29013KT 9999 FEW018 18/14 Q1023', 'LGKP 061320Z 30014KT 9999 FEW018 19/14 Q1022', 'LGKP 061250Z 30017KT 9999 FEW018 19/14 Q1022', 'LGKP 061220Z 30020KT 9999 FEW018 19/14 Q1023', 'LGKP 061150Z 30018KT CAVOK 19/14 Q1023', 'LGKP 061120Z 30016KT 9999 FEW018 19/14 Q1023', 'LGKP 061050Z 30014KT 9999 FEW018 19/14 Q1024', 'LGKP 061020Z 29015KT CAVOK 19/13 Q1024', 'LGKP 060950Z 29014KT CAVOK 19/13 Q1024', 'LGKP 060920Z 29014KT CAVOK 19/14 Q1024', 'LGKP 060850Z 30017KT CAVOK 18/13 Q1024', 'LGKP 060820Z 29015KT CAVOK 18/14 Q1024', 'LGKP 060750Z 29015KT CAVOK 18/13 Q1024', 'LGKP 060720Z 29016KT CAVOK 18/13 Q1024', 'LGKP 060650Z 29016KT CAVOK 17/13 Q1023', 'LGKP 060620Z 30013KT CAVOK 16/13 Q1023', 'LGKP 060550Z 29010KT CAVOK 15/13 Q1023', 'LGKP 060450Z 28007KT CAVOK 14/12 Q1023', 'LGKP 060420Z 28007KT 9999 FEW020 15/12 Q1023', 'LGKP 060350Z 30009KT 9999 FEW020 15/12 Q1023', 'LGKP 060320Z 28007KT 9999 FEW020 15/12 Q1023', 'LGKP 060300Z AUTO 29007KT //// // ////// 14/12 Q1023 RE//', 'LGKP 060230Z AUTO 31008KT //// // ////// 14/12 Q1023 RE//', 'LGKP 060200Z AUTO VRB02KT //// // ////// 14/12 Q1023 RE//', 'LGKP 060130Z AUTO 30005KT //// // ////// 14/12 Q1023 RE//', 'LGKP 060100Z AUTO 28004KT //// // ////// 14/12 Q1023 RE//', 'LGKP 060030Z AUTO 30007KT //// // ////// 14/12 Q1023 RE//', 'LGKP 060000Z AUTO 29008KT //// // ////// 15/12 Q1023 RE//', 'LGKP 052330Z AUTO 28009KT //// // ////// 15/13 Q1023 RE//', 'LGKP 052300Z AUTO 29008KT //// // ////// 15/12 Q1023 RE//', 'LGKP 052230Z AUTO 29010KT //// // ////// 14/12 Q1023 RE//', 'LGKP 052200Z AUTO 28006KT //// // ////// 15/12 Q1023 RE//', 'LGKP 052130Z AUTO 32014KT //// // ////// 16/13 Q1023 RE//']","['2024-02-08 20:30:00', '2024-02-08 20:00:00', '2024-02-08 19:30:00', '2024-02-08 19:00:00', '2024-02-08 18:20:00', '2024-02-08 17:50:00', '2024-02-08 17:20:00', '2024-02-08 16:50:00', '2024-02-08 16:20:00', '2024-02-08 15:50:00', '2024-02-08 15:20:00', '2024-02-08 14:50:00', '2024-02-08 14:20:00', '2024-02-08 13:50:00', '2024-02-08 13:20:00', '2024-02-08 12:50:00', '2024-02-08 12:20:00', '2024-02-08 11:50:00', '2024-02-08 11:20:00', '2024-02-08 10:50:00', '2024-02-08 10:20:00', '2024-02-08 09:50:00', '2024-02-08 09:20:00', '2024-02-08 08:50:00', '2024-02-08 08:20:00', '2024-02-08 07:50:00', '2024-02-08 07:20:00', '2024-02-08 06:50:00', '2024-02-08 06:20:00', '2024-02-08 05:50:00', '2024-02-08 05:20:00', '2024-02-08 04:50:00', '2024-02-08 04:20:00', '2024-02-08 03:50:00', '2024-02-08 03:20:00', '2024-02-08 03:00:00', '2024-02-08 02:30:00', '2024-02-08 01:30:00', '2024-02-08 01:00:00', '2024-02-08 00:30:00', '2024-02-08 00:00:00', '2024-02-07 23:30:00', '2024-02-07 23:00:00', '2024-02-07 22:30:00', '2024-02-07 22:00:00', '2024-02-07 21:30:00', '2024-02-07 21:00:00', '2024-02-07 20:30:00', '2024-02-07 20:00:00', '2024-02-07 19:30:00', '2024-02-07 19:00:00', '2024-02-07 18:30:00', '2024-02-07 17:50:00', '2024-02-07 17:20:00', '2024-02-07 16:50:00', '2024-02-07 16:20:00', '2024-02-07 15:50:00', '2024-02-07 15:20:00', '2024-02-07 14:50:00', '2024-02-07 14:20:00', '2024-02-07 13:50:00', '2024-02-07 13:20:00', '2024-02-07 12:50:00', '2024-02-07 12:20:00', '2024-02-07 11:50:00', '2024-02-07 11:20:00', '2024-02-07 10:50:00', '2024-02-07 10:20:00', '2024-02-07 09:50:00', '2024-02-07 09:20:00', '2024-02-07 08:50:00', '2024-02-07 08:20:00', '2024-02-07 07:50:00', '2024-02-07 07:20:00', '2024-02-07 06:50:00', '2024-02-07 06:20:00', '2024-02-07 05:50:00', '2024-02-07 05:20:00', '2024-02-07 05:00:00', '2024-02-07 04:30:00', '2024-02-07 04:00:00', '2024-02-07 03:30:00', '2024-02-07 03:00:00', '2024-02-07 02:30:00', '2024-02-07 02:00:00', '2024-02-07 01:30:00', '2024-02-07 01:00:00', '2024-02-07 00:30:00', '2024-02-07 00:00:00', '2024-02-06 23:30:00', '2024-02-06 23:00:00', '2024-02-06 22:30:00', '2024-02-06 22:00:00', '2024-02-06 21:30:00', '2024-02-06 21:00:00', '2024-02-06 20:30:00', '2024-02-06 20:00:00', '2024-02-06 19:30:00', '2024-02-06 19:00:00', '2024-02-06 18:30:00', '2024-02-06 17:50:00', '2024-02-06 17:20:00', '2024-02-06 16:50:00', '2024-02-06 16:20:00', '2024-02-06 15:50:00', '2024-02-06 15:20:00', '2024-02-06 14:50:00', '2024-02-06 14:20:00', '2024-02-06 13:50:00', '2024-02-06 13:20:00', '2024-02-06 12:50:00', '2024-02-06 12:20:00', '2024-02-06 11:50:00', '2024-02-06 11:20:00', '2024-02-06 10:50:00', '2024-02-06 10:20:00', '2024-02-06 09:50:00', '2024-02-06 09:20:00', '2024-02-06 08:50:00', '2024-02-06 08:20:00', '2024-02-06 07:50:00', '2024-02-06 07:20:00', '2024-02-06 06:50:00', '2024-02-06 06:20:00', '2024-02-06 05:50:00', '2024-02-06 04:50:00', '2024-02-06 04:20:00', '2024-02-06 03:50:00', '2024-02-06 03:20:00', '2024-02-06 03:00:00', '2024-02-06 02:30:00', '2024-02-06 02:00:00', '2024-02-06 01:30:00', '2024-02-06 01:00:00', '2024-02-06 00:30:00', '2024-02-06 00:00:00', '2024-02-05 23:30:00', '2024-02-05 23:00:00', '2024-02-05 22:30:00', '2024-02-05 22:00:00', '2024-02-05 21:30:00']"
Greece, Kavala International Airport (KVA/LGKV) ,"['LGKV 081820Z 01005KT 9999 FEW018 11/09 Q1010', 'LGKV 081750Z 00000KT 9999 FEW018 10/08 Q1010', 'LGKV 081720Z 00000KT 9999 FEW018 10/09 Q1010', 'LGKV 081650Z 00000KT 9999 FEW018 10/09 Q1010', 'LGKV 081620Z 00000KT 9999 FEW018 11/09 Q1010', 'LGKV 081550Z 00000KT 9999 FEW018 13/11 Q1010', 'LGKV 081520Z 10004KT 9999 FEW020 16/10 Q1010', 'LGKV 081450Z 00000KT 9999 FEW020 17/11 Q1010', 'LGKV 081420Z 00000KT 9999 FEW020 17/11 Q1010', 'LGKV 081350Z 10004KT 9999 FEW020 17/11 Q1010', 'LGKV 081320Z 13005KT 9999 FEW020 17/12 Q1010', 'LGKV 081250Z 17004KT 9999 FEW020 17/12 Q1010', 'LGKV 081220Z 00000KT 9999 FEW020 18/11 Q1010', 'LGKV 081150Z 00000KT 9999 FEW020 16/11 Q1011', 'LGKV 081120Z 19003KT 9999 FEW020 15/09 Q1011', 'LGKV 081050Z 19004KT 9999 FEW020 16/09 Q1011', 'LGKV 081020Z 02003KT 9999 FEW020 17/08 Q1011', 'LGKV 080950Z 02003KT 9999 FEW020 16/08 Q1012', 'LGKV 080920Z VRB03KT 9999 FEW020 15/10 Q1012', 'LGKV 080850Z 00000KT 9999 FEW015 14/10 Q1012', 'LGKV 080820Z 00000KT 9999 FEW015 13/08 Q1012', 'LGKV 080750Z 00000KT 9999 FEW008 11/08 Q1012', 'LGKV 080720Z 11003KT 9999 FEW008 10/08 Q1012', 'LGKV 080650Z 00000KT 9999 FEW008 SCT018 07/06 Q1012', 'LGKV 080620Z 00000KT 9999 FEW008 SCT018 05/04 Q1012', 'LGKV 080550Z 02004KT 9999 FEW008 SCT018 05/04 Q1012', 'LGKV 080520Z 00000KT 9999 FEW008 SCT018 05/04 Q1012', 'LGKV 080450Z 00000KT 9999 FEW018 05/04 Q1012', 'LGKV 071750Z 00000KT 9999 FEW015 11/08 Q1013', 'LGKV 071720Z VRB03KT 9999 FEW015 10/07 Q1013', 'LGKV 071650Z 33006KT 9999 FEW015 11/08 Q1013', 'LGKV 071620Z 00000KT 9999 FEW015 11/08 Q1012', 'LGKV 071550Z 00000KT 9999 FEW015 12/09 Q1012', 'LGKV 071520Z 23005KT 9999 FEW015 13/09 Q1012', 'LGKV 071450Z 23005KT 9999 FEW015 13/09 Q1012', 'LGKV 071420Z 22006KT 9999 FEW015 14/09 Q1012', 'LGKV 071350Z 22006KT 9999 FEW015 15/09 Q1012', 'LGKV 071320Z 21005KT 9999 FEW015 15/09 Q1012', 'LGKV 071250Z 21005KT 9999 FEW015 16/10 Q1012', 'LGKV 071220Z 22007KT 9999 FEW015 16/09 Q1013', 'LGKV 071150Z 22007KT 9999 FEW015 16/09 Q1013', 'LGKV 071120Z 20006KT 9999 FEW015 16/10 Q1013', 'LGKV 071050Z 22005KT 9999 FEW018 16/10 Q1013', 'LGKV 071020Z 20003KT 9999 FEW018 17/10 Q1014', 'LGKV 070950Z 10002KT 9999 FEW018 17/10 Q1014', 'LGKV 070920Z 07004KT 9999 FEW018 16/10 Q1014', 'LGKV 070850Z 03005KT 9999 FEW018 16/10 Q1014', 'LGKV 070820Z 03005KT 9999 FEW018 15/09 Q1015', 'LGKV 070750Z VRB03KT 9999 FEW012 15/09 Q1015', 'LGKV 070720Z VRB02KT 9999 FEW012 13/08 Q1015', 'LGKV 070650Z 36004KT 9999 FEW012 SCT025 11/06 Q1015', 'LGKV 070620Z 01004KT 9999 FEW012 SCT025 09/06 Q1015', 'LGKV 070550Z 01005KT 9999 FEW012 SCT025 08/06 Q1015', 'LGKV 070520Z 02005KT 9999 FEW012 SCT025 06/04 Q1014', 'LGKV 070450Z 03005KT 9999 FEW012 SCT025 06/04 Q1014', 'LGKV 070420Z 02006KT 9999 FEW012 07/04 Q1014', 'LGKV 070350Z 02006KT 9999 FEW012 07/04 Q1014', 'LGKV 061820Z 00000KT 9999 FEW012 09/07 Q1018', 'LGKV 061750Z 00000KT 9999 FEW012 09/07 Q1018', 'LGKV 061720Z 00000KT 9999 FEW010 09/07 Q1018', 'LGKV 061650Z 02004KT CAVOK 11/09 Q1018', 'LGKV 061620Z 00000KT CAVOK 12/09 Q1017', 'LGKV 061550Z 00000KT CAVOK 13/08 Q1017', 'LGKV 061520Z 00000KT CAVOK 16/09 Q1018', 'LGKV 061450Z 13004KT CAVOK 16/09 Q1018', 'LGKV 061420Z 14004KT CAVOK 18/09 Q1018', 'LGKV 061350Z 13005KT CAVOK 18/09 Q1018', 'LGKV 061320Z 00000KT CAVOK 20/04 Q1018', 'LGKV 061250Z 00000KT CAVOK 20/04 Q1018', 'LGKV 061220Z 00000KT CAVOK 20/03 Q1019', 'LGKV 061150Z 14005KT CAVOK 19/05 Q1019', 'LGKV 061120Z 16005KT CAVOK 20/04 Q1020', 'LGKV 061050Z 24003KT CAVOK 19/03 Q1020', 'LGKV 061020Z 24005KT CAVOK 18/05 Q1020', 'LGKV 060950Z 22005KT CAVOK 18/06 Q1021', 'LGKV 060920Z 15003KT CAVOK 17/06 Q1021', 'LGKV 060850Z 00000KT CAVOK 15/05 Q1021', 'LGKV 060820Z 00000KT CAVOK 13/04 Q1020', 'LGKV 060750Z 11002KT CAVOK 11/05 Q1020', 'LGKV 060720Z 12002KT CAVOK 09/04 Q1020', 'LGKV 060650Z 00000KT CAVOK 07/04 Q1020', 'LGKV 060620Z 01006KT CAVOK 05/02 Q1020', 'LGKV 060550Z 00000KT CAVOK 03/01 Q1020', 'LGKV 060520Z 04002KT CAVOK 03/01 Q1020', 'LGKV 060450Z 05002KT CAVOK 03/01 Q1019']","['2024-02-08 18:20:00', '2024-02-08 17:50:00', '2024-02-08 17:20:00', '2024-02-08 16:50:00', '2024-02-08 16:20:00', '2024-02-08 15:50:00', '2024-02-08 15:20:00', '2024-02-08 14:50:00', '2024-02-08 14:20:00', '2024-02-08 13:50:00', '2024-02-08 13:20:00', '2024-02-08 12:50:00', '2024-02-08 12:20:00', '2024-02-08 11:50:00', '2024-02-08 11:20:00', '2024-02-08 10:50:00', '2024-02-08 10:20:00', '2024-02-08 09:50:00', '2024-02-08 09:20:00', '2024-02-08 08:50:00', '2024-02-08 08:20:00', '2024-02-08 07:50:00', '2024-02-08 07:20:00', '2024-02-08 06:50:00', '2024-02-08 06:20:00', '2024-02-08 05:50:00', '2024-02-08 05:20:00', '2024-02-08 04:50:00', '2024-02-07 17:50:00', '2024-02-07 17:20:00', '2024-02-07 16:50:00', '2024-02-07 16:20:00', '2024-02-07 15:50:00', '2024-02-07 15:20:00', '2024-02-07 14:50:00', '2024-02-07 14:20:00', '2024-02-07 13:50:00', '2024-02-07 13:20:00', '2024-02-07 12:50:00', '2024-02-07 12:20:00', '2024-02-07 11:50:00', '2024-02-07 11:20:00', '2024-02-07 10:50:00', '2024-02-07 10:20:00', '2024-02-07 09:50:00', '2024-02-07 09:20:00', '2024-02-07 08:50:00', '2024-02-07 08:20:00', '2024-02-07 07:50:00', '2024-02-07 07:20:00', '2024-02-07 06:50:00', '2024-02-07 06:20:00', '2024-02-07 05:50:00', '2024-02-07 05:20:00', '2024-02-07 04:50:00', '2024-02-07 04:20:00', '2024-02-07 03:50:00', '2024-02-06 18:20:00', '2024-02-06 17:50:00', '2024-02-06 17:20:00', '2024-02-06 16:50:00', '2024-02-06 16:20:00', '2024-02-06 15:50:00', '2024-02-06 15:20:00', '2024-02-06 14:50:00', '2024-02-06 14:20:00', '2024-02-06 13:50:00', '2024-02-06 13:20:00', '2024-02-06 12:50:00', '2024-02-06 12:20:00', '2024-02-06 11:50:00', '2024-02-06 11:20:00', '2024-02-06 10:50:00', '2024-02-06 10:20:00', '2024-02-06 09:50:00', '2024-02-06 09:20:00', '2024-02-06 08:50:00', '2024-02-06 08:20:00', '2024-02-06 07:50:00', '2024-02-06 07:20:00', '2024-02-06 06:50:00', '2024-02-06 06:20:00', '2024-02-06 05:50:00', '2024-02-06 05:20:00', '2024-02-06 04:50:00']"
Greece, Kefalonia Cephalonia International Airport (EFL/LGKF) ,"['LGKF 081750Z 00000KT 9999 FEW016 13/13 Q1014', 'LGKF 081650Z 00000KT 9999 FEW016 14/12 Q1013', 'LGKF 081550Z 29005KT 9999 FEW018 16/12 Q1013', 'LGKF 081520Z 29004KT 9999 FEW018 17/14 Q1013', 'LGKF 081450Z 29004KT 9999 FEW018 17/14 Q1013', 'LGKF 081420Z 27004KT 9999 FEW018 17/14 Q1013', 'LGKF 081350Z 27004KT 9999 FEW018 17/14 Q1013', 'LGKF 081320Z 00000KT 9999 FEW016 18/14 Q1013', 'LGKF 081250Z 00000KT 9999 FEW016TCU SCT020 18/13 Q1013', 'LGKF 081220Z 00000KT 9999 FEW016TCU SCT020 17/14 Q1013', 'LGKF 081150Z 00000KT 9999 FEW016TCU SCT020 17/14 Q1013', 'LGKF 081120Z 00000KT 9999 -DZ FEW016TCU SCT020 16/15 Q1014', 'LGKF 081050Z 00000KT 9999 DZ FEW016TCU BKN020 16/15 Q1014', 'LGKF 080950Z 12004KT 9999 DZ FEW016TCU SCT020 16/14 Q1014', 'LGKF 080850Z 15005KT 9999 FEW016TCU SCT020 16/13 Q1014', 'LGKF 080750Z 15004KT 9999 FEW016TCU SCT020 14/13 Q1014', 'LGKF 080650Z 00000KT 9999 FEW015 SCT020 13/12 Q1014', 'LGKF 080550Z 19005KT 9999 FEW015 SCT020 14/12 Q1014', 'LGKF 071750Z 00000KT 9999 SCT018 14/13 Q1017', 'LGKF 071650Z 17004KT 9999 SCT018 14/13 Q1017', 'LGKF 071550Z 16004KT 9999 FEW016 15/13 Q1017', 'LGKF 071450Z 17004KT 9999 FEW016 16/13 Q1018', 'LGKF 071350Z 17005KT 9999 FEW016 16/12 Q1018', 'LGKF 071320Z 17007KT 9999 FEW016 16/12 Q1018', 'LGKF 071250Z 18008KT 9999 FEW016 16/12 Q1018', 'LGKF 071220Z 16007KT 9999 FEW016 16/12 Q1019', 'LGKF 071150Z 16007KT 9999 FEW016 16/12 Q1019', 'LGKF 071120Z 18008KT 9999 FEW016 16/11 Q1020', 'LGKF 071050Z 16007KT 9999 FEW016 16/11 Q1020', 'LGKF 071020Z 18005KT 9999 FEW016 16/12 Q1020', 'LGKF 070950Z 17004KT 9999 FEW016 16/11 Q1020', 'LGKF 070920Z 18004KT 9999 FEW016 16/12 Q1021', 'LGKF 070850Z 00000KT 9999 FEW016 16/12 Q1021', 'LGKF 070820Z 00000KT 9999 FEW016 14/12 Q1021', 'LGKF 070650Z 00000KT 9999 FEW016 12/11 Q1021', 'LGKF 070550Z 00000KT 9999 FEW016 09/09 Q1021', 'LGKF 061750Z 00000KT 9999 FEW018 SCT025 12/11 Q1023', 'LGKF 061650Z 00000KT 9999 FEW018 SCT025 14/10 Q1023', 'LGKF 061550Z 21004KT 9999 FEW018 SCT025 15/11 Q1023', 'LGKF 061450Z 00000KT 9999 FEW018 SCT025 16/12 Q1023', 'LGKF 061350Z 00000KT 9999 SCT018 SCT025 16/11 Q1024', 'LGKF 061320Z 20005KT 9999 FEW018 SCT025 17/11 Q1024', 'LGKF 061250Z 20004KT 9999 FEW018 17/11 Q1024', 'LGKF 061220Z 21004KT 9999 FEW018 17/11 Q1024', 'LGKF 061150Z 22004KT 9999 FEW018 17/11 Q1024', 'LGKF 061120Z 00000KT 9999 FEW015 SCT020 17/12 Q1025', 'LGKF 061050Z 23005KT 9999 FEW015 SCT020 17/12 Q1025', 'LGKF 061020Z 00000KT 9999 SCT018 17/12 Q1025', 'LGKF 060950Z 21004KT 9999 SCT018 16/12 Q1025', 'LGKF 060920Z 00000KT 9999 FEW015 SCT018 16/12 Q1025', 'LGKF 060850Z 00000KT 9999 FEW016 16/13 Q1025', 'LGKF 060750Z 00000KT 9999 FEW016 14/13 Q1025', 'LGKF 060650Z 00000KT 9999 FEW016 10/10 Q1025', 'LGKF 060550Z 00000KT 9999 FEW016 09/09 Q1025']","['2024-02-08 17:50:00', '2024-02-08 16:50:00', '2024-02-08 15:50:00', '2024-02-08 15:20:00', '2024-02-08 14:50:00', '2024-02-08 14:20:00', '2024-02-08 13:50:00', '2024-02-08 13:20:00', '2024-02-08 12:50:00', '2024-02-08 12:20:00', '2024-02-08 11:50:00', '2024-02-08 11:20:00', '2024-02-08 10:50:00', '2024-02-08 09:50:00', '2024-02-08 08:50:00', '2024-02-08 07:50:00', '2024-02-08 06:50:00', '2024-02-08 05:50:00', '2024-02-07 17:50:00', '2024-02-07 16:50:00', '2024-02-07 15:50:00', '2024-02-07 14:50:00', '2024-02-07 13:50:00', '2024-02-07 13:20:00', '2024-02-07 12:50:00', '2024-02-07 12:20:00', '2024-02-07 11:50:00', '2024-02-07 11:20:00', '2024-02-07 10:50:00', '2024-02-07 10:20:00', '2024-02-07 09:50:00', '2024-02-07 09:20:00', '2024-02-07 08:50:00', '2024-02-07 08:20:00', '2024-02-07 06:50:00', '2024-02-07 05:50:00', '2024-02-06 17:50:00', '2024-02-06 16:50:00', '2024-02-06 15:50:00', '2024-02-06 14:50:00', '2024-02-06 13:50:00', '2024-02-06 13:20:00', '2024-02-06 12:50:00', '2024-02-06 12:20:00', '2024-02-06 11:50:00', '2024-02-06 11:20:00', '2024-02-06 10:50:00', '2024-02-06 10:20:00', '2024-02-06 09:50:00', '2024-02-06 09:20:00', '2024-02-06 08:50:00', '2024-02-06 07:50:00', '2024-02-06 06:50:00', '2024-02-06 05:50:00']"
Greece, Kithira Island National Airport (KIT/LGKC) ,"['LGKC 081550Z 26012KT 9999 FEW008 FEW016TCU BKN018 14/11 Q1014', 'LGKC 081450Z 26014G24KT 9999 FEW008 FEW016TCU BKN018 14/11 Q1014', 'LGKC 081350Z 26012G22KT 9999 FEW008 FEW016TCU BKN018 14/11 Q1014', 'LGKC 081250Z 25015G25KT 9999 FEW008 FEW016TCU BKN018 15/13 Q1014', 'LGKC 081150Z 25013G23KT 9999 FEW008 FEW016TCU BKN018 15/12 Q1014', 'LGKC 081050Z 22014KT 9999 FEW008 BKN018 15/13 Q1015', 'LGKC 080950Z 23012KT 9999 FEW008 BKN018 16/13 Q1016', 'LGKC 071750Z 26010KT 9999 FEW008 SCT016 13/12 Q1018', 'LGKC 071650Z 26014KT 9999 FEW008 SCT016 13/12 Q1017', 'LGKC 071550Z 26014G24KT 9999 FEW008 SCT016 13/11 Q1017', 'LGKC 071450Z 25013G23KT 9999 FEW008 SCT016 14/12 Q1017', 'LGKC 071350Z 26015G25KT 9999 FEW008 SCT016 14/12 Q1018', 'LGKC 071250Z 25015G25KT 9999 FEW008 SCT016 14/11 Q1018', 'LGKC 071150Z 26018G28KT 9999 FEW007 SCT015 14/12 Q1018', 'LGKC 061150Z 27016G26KT 9999 FEW010 15/12 Q1023', 'LGKC 061050Z 27015G25KT 9999 FEW010 15/11 Q1024', 'LGKC 060950Z 27015KT 9999 FEW010 15/12 Q1025', 'LGKC 060850Z 27014KT 9999 FEW010 15/12 Q1025', 'LGKC 060750Z 27014KT 9999 FEW007 14/12 Q1024', 'LGKC 060650Z 27011G21KT 9999 FEW007 13/12 Q1024']","['2024-02-08 15:50:00', '2024-02-08 14:50:00', '2024-02-08 13:50:00', '2024-02-08 12:50:00', '2024-02-08 11:50:00', '2024-02-08 10:50:00', '2024-02-08 09:50:00', '2024-02-07 17:50:00', '2024-02-07 16:50:00', '2024-02-07 15:50:00', '2024-02-07 14:50:00', '2024-02-07 13:50:00', '2024-02-07 12:50:00', '2024-02-07 11:50:00', '2024-02-06 11:50:00', '2024-02-06 10:50:00', '2024-02-06 09:50:00', '2024-02-06 08:50:00', '2024-02-06 07:50:00', '2024-02-06 06:50:00']"
Greece, Kos Island International Airport (KGS/LGKO) ,"['LGKO 082020Z 20006KT 9999 FEW016TCU SCT020 15/11 Q1015', 'LGKO 081950Z 19005KT 9999 FEW016TCU SCT020 15/11 Q1015', 'LGKO 081920Z 18007KT 9999 SCT018 15/11 Q1014', 'LGKO 081850Z 17005KT 9999 SCT018 15/11 Q1014', 'LGKO 081820Z 19006KT 9999 FEW018 16/11 Q1015', 'LGKO 081750Z 14005KT 9999 FEW018 16/11 Q1015', 'LGKO 081720Z 14004KT 9999 FEW018 16/11 Q1015', 'LGKO 081650Z 14004KT 9999 FEW018 16/11 Q1015', 'LGKO 081620Z 18005KT 9999 FEW018 16/12 Q1015', 'LGKO 081550Z 20005KT 9999 FEW018 16/12 Q1015', 'LGKO 081520Z 18007KT 9999 FEW018 17/12 Q1016', 'LGKO 081450Z 17008KT 9999 FEW018 17/12 Q1016', 'LGKO 081420Z 19009KT 9999 FEW018 18/12 Q1016', 'LGKO 081350Z 19010KT 9999 SCT018 18/12 Q1016', 'LGKO 081320Z 19011KT 9999 FEW018 18/13 Q1016', 'LGKO 081250Z 16012KT 9999 FEW018 18/13 Q1016', 'LGKO 081220Z 16014KT 9999 FEW018 18/13 Q1016', 'LGKO 081150Z 19011KT 9999 FEW018 18/13 Q1016', 'LGKO 081120Z 17015KT 9999 SCT018 18/13 Q1017', 'LGKO 081050Z 18011KT 9999 SCT018 18/13 Q1017', 'LGKO 081020Z 19012KT 9999 SCT018 18/13 Q1018', 'LGKO 080950Z 18013KT 9999 SCT018 18/13 Q1018', 'LGKO 080920Z 16015KT 9999 SCT018 17/13 Q1018', 'LGKO 080850Z 16013KT 9999 SCT018 17/13 Q1018', 'LGKO 080820Z 18010KT 9999 SCT018 17/13 Q1018', 'LGKO 080750Z 15016KT 9999 SCT018 17/13 Q1018', 'LGKO 080720Z 15017KT 9999 SCT018 17/12 Q1018', 'LGKO 080650Z 17013KT 9999 SCT018 16/12 Q1018', 'LGKO 080620Z 17011KT 9999 SCT018 15/12 Q1017', 'LGKO 080550Z 15010KT 9999 SCT018 15/12 Q1017', 'LGKO 080520Z 16011KT 9999 SCT018 15/12 Q1017', 'LGKO 080450Z 17014KT 9999 SCT018 15/12 Q1017', 'LGKO 080420Z 16011KT 9999 SCT018 15/12 Q1017', 'LGKO 080350Z 17009KT 9999 SCT018 15/12 Q1017', 'LGKO 080320Z 18008KT 9999 SCT018 15/12 Q1018', 'LGKO 080250Z 16008KT 9999 SCT018 15/12 Q1018', 'LGKO 080220Z 16011KT 9999 SCT018 15/12 Q1018', 'LGKO 080150Z 16008KT 9999 SCT018 15/12 Q1018', 'LGKO 080120Z 15011KT 9999 SCT018 15/12 Q1018', 'LGKO 080050Z 15011KT 9999 SCT018 15/12 Q1018', 'LGKO 080020Z 15010KT 9999 SCT018 15/12 Q1018', 'LGKO 072350Z 16011KT 9999 SCT018 15/12 Q1018', 'LGKO 072320Z 17007KT 9999 SCT018 15/12 Q1018', 'LGKO 072250Z 17007KT 9999 SCT018 15/12 Q1018', 'LGKO 072220Z 17010KT 9999 SCT018 16/12 Q1018', 'LGKO 072150Z 17010KT 9999 SCT018 16/12 Q1018', 'LGKO 072120Z 18009KT 9999 SCT018 16/12 Q1018', 'LGKO 072050Z 18008KT 9999 SCT018 16/12 Q1018', 'LGKO 072020Z 17007KT 9999 SCT018 15/12 Q1018', 'LGKO 071950Z 17006KT 9999 SCT018 15/12 Q1018', 'LGKO 071920Z 17007KT 9999 SCT018 15/11 Q1018', 'LGKO 071850Z 17011KT 9999 SCT018 15/11 Q1018', 'LGKO 071820Z 17008KT 9999 SCT018 16/12 Q1018', 'LGKO 071750Z 16009KT 9999 SCT018 16/12 Q1018', 'LGKO 071720Z 15010KT 9999 SCT018 16/12 Q1018', 'LGKO 071650Z 16008KT 9999 SCT018 16/12 Q1018', 'LGKO 071620Z 17010KT 9999 SCT018 16/11 Q1018', 'LGKO 071550Z 18010KT 9999 SCT018 16/11 Q1018', 'LGKO 071520Z 17010KT 9999 SCT018 18/12 Q1018', 'LGKO 071450Z 17012KT 9999 SCT018 18/12 Q1018', 'LGKO 071420Z 13012KT 9999 SCT018 19/12 Q1018', 'LGKO 071350Z 15011KT 9999 SCT018 19/12 Q1018', 'LGKO 071320Z 15011KT 9999 SCT018 19/12 Q1019', 'LGKO 071250Z 14011KT 9999 SCT018 19/12 Q1019', 'LGKO 071220Z 14012KT 9999 SCT018 18/12 Q1019', 'LGKO 071150Z 15011KT 9999 SCT018 18/12 Q1019', 'LGKO 071120Z 15011KT 9999 SCT018 18/12 Q1019', 'LGKO 071050Z 15013KT 9999 SCT018 18/12 Q1019', 'LGKO 071020Z 14012KT 9999 SCT018 18/12 Q1020', 'LGKO 070950Z 15012KT 9999 SCT018 18/12 Q1020', 'LGKO 070920Z 16011KT 9999 SCT018 19/12 Q1020', 'LGKO 070850Z 15008KT 120V180 9999 SCT018 19/12 Q1020', 'LGKO 070820Z 17008KT 9999 SCT018 18/11 Q1021', 'LGKO 070750Z 18008KT 9999 SCT018 18/11 Q1021', 'LGKO 070720Z 16010KT 9999 FEW020 17/12 Q1021', 'LGKO 070650Z 16011KT 9999 SCT020 17/12 Q1021', 'LGKO 070620Z 17005KT 9999 FEW016 BKN025 15/11 Q1021', 'LGKO 070550Z 17005KT 9999 FEW016 BKN025 15/11 Q1021', 'LGKO 070520Z 20006KT 9999 FEW016 BKN025 15/11 Q1021', 'LGKO 070450Z 20006KT 9999 FEW016 BKN025 15/11 Q1021', 'LGKO 070420Z 20005KT 9999 FEW014 BKN020 15/11 Q1021', 'LGKO 070350Z 19005KT 9999 FEW014 BKN020 15/11 Q1021', 'LGKO 070320Z 19006KT 9999 FEW014 BKN020 15/11 Q1021', 'LGKO 070250Z 19006KT 9999 FEW014 BKN020 15/11 Q1021', 'LGKO 070220Z 19004KT 9999 FEW014 BKN020 15/12 Q1023', 'LGKO 070150Z 16004KT 9999 FEW014 BKN020 15/12 Q1023', 'LGKO 070120Z 17004KT 9999 FEW014 BKN020 15/12 Q1021', 'LGKO 070050Z 18005KT 9999 FEW014 BKN020 15/12 Q1021', 'LGKO 062320Z 18005KT 9999 FEW014 SCT020 14/12 Q1022', 'LGKO 062250Z 18005KT 9999 FEW014 SCT020 14/12 Q1022', 'LGKO 062220Z 18005KT 9999 FEW014 SCT020 14/11 Q1022', 'LGKO 062150Z 19005KT 9999 FEW014 SCT020 14/11 Q1022', 'LGKO 062120Z 15005KT 9999 FEW014 SCT020 14/12 Q1022', 'LGKO 062050Z 16005KT 9999 FEW014 SCT020 14/12 Q1022', 'LGKO 062020Z 16005KT 9999 FEW014 SCT020 14/12 Q1023', 'LGKO 061950Z 16004KT 9999 FEW014 SCT020 14/12 Q1023', 'LGKO 061920Z 14004KT 9999 FEW014 SCT020 15/12 Q1022', 'LGKO 061850Z 17003KT 9999 FEW014 SCT020 15/12 Q1022', 'LGKO 061820Z 17003KT 9999 FEW014 SCT020 15/12 Q1022', 'LGKO 061750Z 14003KT 9999 FEW014 SCT020 15/12 Q1022', 'LGKO 061720Z 16003KT 9999 FEW014 SCT020 15/12 Q1022', 'LGKO 061650Z 16004KT 9999 FEW014 SCT020 16/13 Q1022', 'LGKO 061620Z 19005KT 9999 FEW016 16/12 Q1022', 'LGKO 061550Z 18005KT 9999 FEW016 17/13 Q1022', 'LGKO 061520Z 18005KT 9999 FEW018 18/12 Q1022', 'LGKO 061450Z 18007KT 9999 FEW025 18/12 Q1022', 'LGKO 061420Z 18007KT 9999 FEW025 18/12 Q1022', 'LGKO 061350Z 14005KT 9999 FEW025 18/12 Q1022', 'LGKO 061320Z 19004KT 9999 FEW020 18/12 Q1023', 'LGKO 061250Z 18005KT 9999 FEW020 18/12 Q1023', 'LGKO 061220Z 14005KT 9999 SCT020 19/13 Q1023', 'LGKO 061150Z 14005KT 9999 FEW018 19/13 Q1023', 'LGKO 061120Z 15008KT 9999 FEW018 19/13 Q1024', 'LGKO 061050Z 18005KT 9999 FEW018 19/13 Q1024', 'LGKO 061020Z 18007KT 9999 SCT018 19/13 Q1024', 'LGKO 060950Z 20006KT 9999 SCT018 19/13 Q1024', 'LGKO 060920Z 20008KT 9999 SCT018 18/13 Q1024', 'LGKO 060850Z 19008KT 9999 SCT018 17/13 Q1024', 'LGKO 060820Z 15007KT 9999 SCT018 16/12 Q1023', 'LGKO 060750Z 14008KT 9999 SCT018 15/11 Q1023', 'LGKO 060720Z 16003KT 9999 SCT018 14/12 Q1023', 'LGKO 060650Z 16003KT 9999 SCT018 14/12 Q1023', 'LGKO 060620Z 19004KT 9999 FEW018 14/12 Q1022', 'LGKO 060550Z 15004KT 9999 FEW018 14/12 Q1022', 'LGKO 060520Z VRB02KT 9999 FEW018 14/12 Q1022', 'LGKO 060450Z VRB02KT 9999 FEW018 14/12 Q1022', 'LGKO 060420Z VRB02KT 9999 FEW018 14/12 Q1022', 'LGKO 060350Z VRB02KT 9999 FEW018 14/12 Q1022', 'LGKO 060320Z VRB02KT 9999 FEW018 14/12 Q1022', 'LGKO 060250Z VRB02KT 9999 FEW018 14/12 Q1022', 'LGKO 060220Z VRB02KT 9999 FEW018 14/11 Q1022', 'LGKO 060150Z VRB02KT 9999 FEW018 14/11 Q1022', 'LGKO 060120Z VRB02KT 9999 FEW018 14/11 Q1022', 'LGKO 060050Z VRB02KT 9999 FEW018 14/11 Q1022', 'LGKO 060020Z VRB02KT 9999 FEW018 14/11 Q1022', 'LGKO 052320Z VRB02KT 9999 FEW018 14/11 Q1022', 'LGKO 052250Z VRB02KT 9999 FEW018 14/11 Q1022', 'LGKO 052220Z VRB02KT 9999 FEW018 14/11 Q1022', 'LGKO 052150Z VRB02KT 9999 FEW018 14/11 Q1022', 'LGKO 052120Z VRB02KT 9999 FEW018 14/11 Q1022']","['2024-02-08 20:20:00', '2024-02-08 19:50:00', '2024-02-08 19:20:00', '2024-02-08 18:50:00', '2024-02-08 18:20:00', '2024-02-08 17:50:00', '2024-02-08 17:20:00', '2024-02-08 16:50:00', '2024-02-08 16:20:00', '2024-02-08 15:50:00', '2024-02-08 15:20:00', '2024-02-08 14:50:00', '2024-02-08 14:20:00', '2024-02-08 13:50:00', '2024-02-08 13:20:00', '2024-02-08 12:50:00', '2024-02-08 12:20:00', '2024-02-08 11:50:00', '2024-02-08 11:20:00', '2024-02-08 10:50:00', '2024-02-08 10:20:00', '2024-02-08 09:50:00', '2024-02-08 09:20:00', '2024-02-08 08:50:00', '2024-02-08 08:20:00', '2024-02-08 07:50:00', '2024-02-08 07:20:00', '2024-02-08 06:50:00', '2024-02-08 06:20:00', '2024-02-08 05:50:00', '2024-02-08 05:20:00', '2024-02-08 04:50:00', '2024-02-08 04:20:00', '2024-02-08 03:50:00', '2024-02-08 03:20:00', '2024-02-08 02:50:00', '2024-02-08 02:20:00', '2024-02-08 01:50:00', '2024-02-08 01:20:00', '2024-02-08 00:50:00', '2024-02-08 00:20:00', '2024-02-07 23:50:00', '2024-02-07 23:20:00', '2024-02-07 22:50:00', '2024-02-07 22:20:00', '2024-02-07 21:50:00', '2024-02-07 21:20:00', '2024-02-07 20:50:00', '2024-02-07 20:20:00', '2024-02-07 19:50:00', '2024-02-07 19:20:00', '2024-02-07 18:50:00', '2024-02-07 18:20:00', '2024-02-07 17:50:00', '2024-02-07 17:20:00', '2024-02-07 16:50:00', '2024-02-07 16:20:00', '2024-02-07 15:50:00', '2024-02-07 15:20:00', '2024-02-07 14:50:00', '2024-02-07 14:20:00', '2024-02-07 13:50:00', '2024-02-07 13:20:00', '2024-02-07 12:50:00', '2024-02-07 12:20:00', '2024-02-07 11:50:00', '2024-02-07 11:20:00', '2024-02-07 10:50:00', '2024-02-07 10:20:00', '2024-02-07 09:50:00', '2024-02-07 09:20:00', '2024-02-07 08:50:00', '2024-02-07 08:20:00', '2024-02-07 07:50:00', '2024-02-07 07:20:00', '2024-02-07 06:50:00', '2024-02-07 06:20:00', '2024-02-07 05:50:00', '2024-02-07 05:20:00', '2024-02-07 04:50:00', '2024-02-07 04:20:00', '2024-02-07 03:50:00', '2024-02-07 03:20:00', '2024-02-07 02:50:00', '2024-02-07 02:20:00', '2024-02-07 01:50:00', '2024-02-07 01:20:00', '2024-02-07 00:50:00', '2024-02-06 23:20:00', '2024-02-06 22:50:00', '2024-02-06 22:20:00', '2024-02-06 21:50:00', '2024-02-06 21:20:00', '2024-02-06 20:50:00', '2024-02-06 20:20:00', '2024-02-06 19:50:00', '2024-02-06 19:20:00', '2024-02-06 18:50:00', '2024-02-06 18:20:00', '2024-02-06 17:50:00', '2024-02-06 17:20:00', '2024-02-06 16:50:00', '2024-02-06 16:20:00', '2024-02-06 15:50:00', '2024-02-06 15:20:00', '2024-02-06 14:50:00', '2024-02-06 14:20:00', '2024-02-06 13:50:00', '2024-02-06 13:20:00', '2024-02-06 12:50:00', '2024-02-06 12:20:00', '2024-02-06 11:50:00', '2024-02-06 11:20:00', '2024-02-06 10:50:00', '2024-02-06 10:20:00', '2024-02-06 09:50:00', '2024-02-06 09:20:00', '2024-02-06 08:50:00', '2024-02-06 08:20:00', '2024-02-06 07:50:00', '2024-02-06 07:20:00', '2024-02-06 06:50:00', '2024-02-06 06:20:00', '2024-02-06 05:50:00', '2024-02-06 05:20:00', '2024-02-06 04:50:00', '2024-02-06 04:20:00', '2024-02-06 03:50:00', '2024-02-06 03:20:00', '2024-02-06 02:50:00', '2024-02-06 02:20:00', '2024-02-06 01:50:00', '2024-02-06 01:20:00', '2024-02-06 00:50:00', '2024-02-06 00:20:00', '2024-02-05 23:20:00', '2024-02-05 22:50:00', '2024-02-05 22:20:00', '2024-02-05 21:50:00', '2024-02-05 21:20:00']"
Greece, Kozani National Airport (KZI/LGKZ) ,"['LGKZ 082020Z AUTO VRB03KT //// // ////// 09/M03 Q1012 RE//', 'LGKZ 081950Z AUTO 01004KT //// // ////// 08/M03 Q1012 RE//', 'LGKZ 081920Z AUTO VRB03KT //// // ////// 10/M03 Q1012 RE//', 'LGKZ 081850Z AUTO 34006KT //// // ////// 10/M03 Q1012 RE//', 'LGKZ 081820Z AUTO 34005KT 300V010 //// // ////// 11/M04 Q1012 RE//', 'LGKZ 081750Z AUTO 34005KT //// // ////// 10/M03 Q1012 RE//', 'LGKZ 081720Z AUTO 32004KT 300V360 //// // ////// 10/M03 Q1012 RE//', 'LGKZ 081650Z AUTO VRB03KT //// // ////// 11/M03 Q1011 RE//', 'LGKZ 081620Z AUTO 29004KT 270V340 //// // ////// 12/M03 Q1011 RE//', 'LGKZ 081550Z AUTO 27005KT //// // ////// 14/M04 Q1011 RE//', 'LGKZ 081520Z AUTO 27007KT //// // ////// 16/M04 Q1011 RE//', 'LGKZ 081450Z AUTO 25005KT 140V300 //// // ////// 16/M04 Q1011 RE//', 'LGKZ 081420Z AUTO VRB03KT //// // ////// 16/M04 Q1011 RE//', 'LGKZ 081350Z AUTO VRB03KT //// // ////// 16/M04 Q1011 RE//', 'LGKZ 081320Z AUTO 14004KT 100V300 //// // ////// 16/M04 Q1011 RE//', 'LGKZ 081250Z 00000KT 9999 FEW070 16/M04 Q1011', 'LGKZ 081150Z 15005KT 9999 FEW070 15/M03 Q1012', 'LGKZ 081050Z 00000KT 9999 FEW025 SCT070 14/M04 Q1013', 'LGKZ 080950Z 14004KT 9999 FEW025 SCT070 12/M04 Q1013', 'LGKZ 080850Z 00000KT 9999 SCT025 SCT070 10/M03 Q1014', 'LGKZ 080750Z 00000KT 9999 SCT025 SCT070 09/M03 Q1013', 'LGKZ 080650Z 00000KT 9999 SCT025 SCT070 07/M04 Q1013', 'LGKZ 080550Z 00000KT 9999 FEW025 SCT070 05/M04 Q1013', 'LGKZ 080520Z 00000KT 9999 FEW025 SCT070 07/M04 Q1012', 'LGKZ 080450Z AUTO VRB03KT //// // ////// 06/M04 Q1012 RE//', 'LGKZ 080420Z AUTO VRB03KT //// // ////// 07/M04 Q1012 RE//', 'LGKZ 080350Z AUTO 02004KT //// // ////// 06/M04 Q1012 RE//', 'LGKZ 080320Z AUTO 01004KT //// // ////// 07/M04 Q1012 RE//', 'LGKZ 080250Z AUTO VRB03KT //// // ////// 07/M04 Q1013 RE//', 'LGKZ 080220Z AUTO 02005KT //// // ////// 07/M04 Q1013 RE//', 'LGKZ 080150Z AUTO 01004KT //// // ////// 07/M04 Q1013 RE//', 'LGKZ 080120Z AUTO VRB03KT //// // ////// 07/M04 Q1013 RE//', 'LGKZ 080050Z AUTO VRB03KT //// // ////// 08/M04 Q1013 RE//', 'LGKZ 080020Z AUTO 01004KT //// // ////// 08/M04 Q1014 RE//', 'LGKZ 072350Z AUTO VRB03KT //// // ////// 08/M04 Q1014 RE//', 'LGKZ 072320Z AUTO VRB03KT //// // ////// 08/M04 Q1014 RE//', 'LGKZ 072250Z AUTO VRB03KT //// // ////// 07/M04 Q1014 RE//', 'LGKZ 072220Z AUTO VRB03KT //// // ////// 07/M04 Q1014 RE//', 'LGKZ 072150Z AUTO VRB02KT //// // ////// 07/M04 Q1014 RE//', 'LGKZ 072120Z AUTO VRB02KT //// // ////// 08/M04 Q1014 RE//', 'LGKZ 072050Z AUTO VRB03KT //// // ////// 08/M04 Q1014 RE//', 'LGKZ 072020Z AUTO VRB01KT //// // ////// 08/M04 Q1014 RE//', 'LGKZ 071950Z AUTO VRB02KT //// // ////// 10/M04 Q1014 RE//', 'LGKZ 071920Z AUTO VRB01KT //// // ////// 10/M04 Q1014 RE//', 'LGKZ 071850Z AUTO VRB03KT //// // ////// 11/M05 Q1014 RE//', 'LGKZ 071820Z AUTO VRB03KT //// // ////// 11/M05 Q1014 RE//', 'LGKZ 071750Z AUTO 36005KT //// // ////// 10/M04 Q1014 RE//', 'LGKZ 071720Z AUTO VRB03KT //// // ////// 10/M04 Q1014 RE//', 'LGKZ 071650Z AUTO VRB01KT //// // ////// 10/M04 Q1014 RE//', 'LGKZ 071620Z AUTO VRB02KT //// // ////// 11/M03 Q1014 RE//', 'LGKZ 071550Z AUTO VRB03KT //// // ////// 13/M03 Q1014 RE//', 'LGKZ 071520Z AUTO VRB02KT //// // ////// 14/M02 Q1014 RE//', 'LGKZ 071450Z AUTO 24005KT //// // ////// 17/M05 Q1014 RE//', 'LGKZ 071420Z AUTO VRB02KT //// // ////// 17/M04 Q1014 RE//', 'LGKZ 071350Z AUTO VRB03KT //// // ////// 16/M03 Q1014 RE//', 'LGKZ 071320Z AUTO VRB03KT //// // ////// 16/M05 Q1014 RE//', 'LGKZ 071250Z 00000KT 9999 SCT070 16/M05 Q1015', 'LGKZ 071150Z 14005KT 9999 SCT070 17/M04 Q1015', 'LGKZ 071050Z 00000KT 9999 SCT070 16/M04 Q1016', 'LGKZ 070950Z 00000KT 9999 SCT070 15/M03 Q1017', 'LGKZ 070850Z 00000KT 9999 SCT070 13/M04 Q1017', 'LGKZ 070750Z 00000KT 9999 FEW070 11/M03 Q1017', 'LGKZ 070650Z 00000KT 9999 FEW070 09/M03 Q1018', 'LGKZ 070550Z 35005KT 9999 FEW070 05/M05 Q1017', 'LGKZ 070520Z AUTO 03005KT //// // ////// 03/M05 Q1017 RE//', 'LGKZ 070450Z AUTO 01005KT //// // ////// 05/M05 Q1017 RE//', 'LGKZ 070420Z AUTO 01004KT //// // ////// 05/M05 Q1017 RE//', 'LGKZ 070350Z AUTO 35005KT //// // ////// 05/M05 Q1017 RE//', 'LGKZ 070320Z AUTO 35004KT //// // ////// 04/M05 Q1017 RE//', 'LGKZ 070250Z AUTO 36005KT //// // ////// 06/M05 Q1017 RE//', 'LGKZ 070220Z AUTO 01005KT //// // ////// 05/M05 Q1018 RE//', 'LGKZ 070150Z AUTO 36004KT //// // ////// 04/M05 Q1018 RE//', 'LGKZ 070120Z AUTO 35005KT //// // ////// 04/M05 Q1018 RE//', 'LGKZ 070050Z AUTO 03004KT //// // ////// 06/M05 Q1018 RE//', 'LGKZ 070020Z AUTO 01005KT //// // ////// 06/M05 Q1018 RE//', 'LGKZ 062350Z AUTO 36004KT //// // ////// 06/M05 Q1018 RE//', 'LGKZ 062320Z AUTO 36006KT //// // ////// 07/M06 Q1018 RE//', 'LGKZ 062250Z AUTO 36004KT //// // ////// 06/M06 Q1019 RE//', 'LGKZ 062220Z AUTO VRB02KT //// // ////// 06/M06 Q1019 RE//', 'LGKZ 062150Z AUTO VRB01KT //// // ////// 08/M06 Q1019 RE//', 'LGKZ 062120Z AUTO 30006KT 230V320 //// // ////// 12/M06 Q1019 RE//', 'LGKZ 062050Z AUTO VRB02KT //// // ////// 10/M07 Q1019 RE//', 'LGKZ 062020Z AUTO 26006KT //// // ////// 10/M07 Q1019 RE//', 'LGKZ 061950Z AUTO 31004KT 290V350 //// // ////// 09/M08 Q1019 RE//', 'LGKZ 061920Z AUTO VRB03KT //// // ////// 08/M07 Q1019 RE//', 'LGKZ 061850Z AUTO VRB02KT //// // ////// 10/M07 Q1019 RE//', 'LGKZ 061820Z AUTO VRB03KT //// // ////// 10/M05 Q1019 RE//', 'LGKZ 061750Z AUTO 02004KT //// // ////// 10/M06 Q1019 RE//', 'LGKZ 061720Z AUTO VRB02KT //// // ////// 12/M05 Q1019 RE//', 'LGKZ 061650Z AUTO 01004KT //// // ////// 11/M06 Q1019 RE//', 'LGKZ 061620Z AUTO VRB03KT //// // ////// 14/M05 Q1019 RE//', 'LGKZ 061550Z AUTO 00000KT //// // ////// 15/M05 Q1018 RE//', 'LGKZ 061520Z AUTO 00000KT //// // ////// 18/M05 Q1019 RE//', 'LGKZ 061450Z AUTO VRB02KT //// // ////// 19/M07 Q1019 RE//', 'LGKZ 061420Z AUTO VRB02KT //// // ////// 19/M06 Q1019 RE//', 'LGKZ 061350Z AUTO VRB03KT //// // ////// 19/M06 Q1020 RE//', 'LGKZ 061320Z AUTO 17004KT 100V200 //// // ////// 19/M06 Q1020 RE//', 'LGKZ 061250Z 00000KT CAVOK 19/M05 Q1020', 'LGKZ 061150Z 00000KT CAVOK 18/M04 Q1021', 'LGKZ 061050Z 00000KT CAVOK 17/M05 Q1022', 'LGKZ 060950Z 00000KT CAVOK 15/M04 Q1023', 'LGKZ 060850Z 00000KT CAVOK 13/M04 Q1023', 'LGKZ 060750Z 00000KT CAVOK 13/M05 Q1023', 'LGKZ 060650Z 00000KT CAVOK 07/M04 Q1023', 'LGKZ 060550Z 34004KT CAVOK 04/M06 Q1024', 'LGKZ 060450Z 35004KT CAVOK 06/M06 Q1023', 'LGKZ 060350Z 35006KT CAVOK 06/M06 Q1023', 'LGKZ 060320Z AUTO 35006KT //// // ////// 06/M06 Q1023 RE//', 'LGKZ 060250Z AUTO 35005KT //// // ////// 05/M06 Q1023 RE//', 'LGKZ 060220Z AUTO VRB03KT //// // ////// 04/M06 Q1023 RE//', 'LGKZ 060150Z AUTO 36006KT //// // ////// 06/M06 Q1023 RE//', 'LGKZ 060120Z AUTO 34006KT //// // ////// 06/M06 Q1024 RE//', 'LGKZ 060050Z AUTO VRB03KT //// // ////// 06/M06 Q1024 RE//', 'LGKZ 060020Z AUTO 32004KT //// // ////// 06/M06 Q1024 RE//', 'LGKZ 052350Z AUTO 32005KT 300V360 //// // ////// 07/M06 Q1024 RE//', 'LGKZ 052320Z AUTO 32004KT //// // ////// 06/M06 Q1024 RE//', 'LGKZ 052250Z AUTO VRB03KT //// // ////// 07/M06 Q1024 RE//', 'LGKZ 052220Z AUTO 31004KT 230V020 //// // ////// 08/M07 Q1023 RE//', 'LGKZ 052150Z AUTO 35005KT //// // ////// 10/M07 Q1023 RE//', 'LGKZ 052120Z AUTO 35004KT //// // ////// 10/M07 Q1023 RE//']","['2024-02-08 20:20:00', '2024-02-08 19:50:00', '2024-02-08 19:20:00', '2024-02-08 18:50:00', '2024-02-08 18:20:00', '2024-02-08 17:50:00', '2024-02-08 17:20:00', '2024-02-08 16:50:00', '2024-02-08 16:20:00', '2024-02-08 15:50:00', '2024-02-08 15:20:00', '2024-02-08 14:50:00', '2024-02-08 14:20:00', '2024-02-08 13:50:00', '2024-02-08 13:20:00', '2024-02-08 12:50:00', '2024-02-08 11:50:00', '2024-02-08 10:50:00', '2024-02-08 09:50:00', '2024-02-08 08:50:00', '2024-02-08 07:50:00', '2024-02-08 06:50:00', '2024-02-08 05:50:00', '2024-02-08 05:20:00', '2024-02-08 04:50:00', '2024-02-08 04:20:00', '2024-02-08 03:50:00', '2024-02-08 03:20:00', '2024-02-08 02:50:00', '2024-02-08 02:20:00', '2024-02-08 01:50:00', '2024-02-08 01:20:00', '2024-02-08 00:50:00', '2024-02-08 00:20:00', '2024-02-07 23:50:00', '2024-02-07 23:20:00', '2024-02-07 22:50:00', '2024-02-07 22:20:00', '2024-02-07 21:50:00', '2024-02-07 21:20:00', '2024-02-07 20:50:00', '2024-02-07 20:20:00', '2024-02-07 19:50:00', '2024-02-07 19:20:00', '2024-02-07 18:50:00', '2024-02-07 18:20:00', '2024-02-07 17:50:00', '2024-02-07 17:20:00', '2024-02-07 16:50:00', '2024-02-07 16:20:00', '2024-02-07 15:50:00', '2024-02-07 15:20:00', '2024-02-07 14:50:00', '2024-02-07 14:20:00', '2024-02-07 13:50:00', '2024-02-07 13:20:00', '2024-02-07 12:50:00', '2024-02-07 11:50:00', '2024-02-07 10:50:00', '2024-02-07 09:50:00', '2024-02-07 08:50:00', '2024-02-07 07:50:00', '2024-02-07 06:50:00', '2024-02-07 05:50:00', '2024-02-07 05:20:00', '2024-02-07 04:50:00', '2024-02-07 04:20:00', '2024-02-07 03:50:00', '2024-02-07 03:20:00', '2024-02-07 02:50:00', '2024-02-07 02:20:00', '2024-02-07 01:50:00', '2024-02-07 01:20:00', '2024-02-07 00:50:00', '2024-02-07 00:20:00', '2024-02-06 23:50:00', '2024-02-06 23:20:00', '2024-02-06 22:50:00', '2024-02-06 22:20:00', '2024-02-06 21:50:00', '2024-02-06 21:20:00', '2024-02-06 20:50:00', '2024-02-06 20:20:00', '2024-02-06 19:50:00', '2024-02-06 19:20:00', '2024-02-06 18:50:00', '2024-02-06 18:20:00', '2024-02-06 17:50:00', '2024-02-06 17:20:00', '2024-02-06 16:50:00', '2024-02-06 16:20:00', '2024-02-06 15:50:00', '2024-02-06 15:20:00', '2024-02-06 14:50:00', '2024-02-06 14:20:00', '2024-02-06 13:50:00', '2024-02-06 13:20:00', '2024-02-06 12:50:00', '2024-02-06 11:50:00', '2024-02-06 10:50:00', '2024-02-06 09:50:00', '2024-02-06 08:50:00', '2024-02-06 07:50:00', '2024-02-06 06:50:00', '2024-02-06 05:50:00', '2024-02-06 04:50:00', '2024-02-06 03:50:00', '2024-02-06 03:20:00', '2024-02-06 02:50:00', '2024-02-06 02:20:00', '2024-02-06 01:50:00', '2024-02-06 01:20:00', '2024-02-06 00:50:00', '2024-02-06 00:20:00', '2024-02-05 23:50:00', '2024-02-05 23:20:00', '2024-02-05 22:50:00', '2024-02-05 22:20:00', '2024-02-05 21:50:00', '2024-02-05 21:20:00']"
Greece, Lemnos International Airport (LXS/LGLM) ,"['LGLM 081950Z 20006KT CAVOK 15/13 Q1011', 'LGLM 081920Z 19009KT CAVOK 15/13 Q1011', 'LGLM 081850Z 19008KT CAVOK 15/13 Q1011', 'LGLM 081820Z 18009KT CAVOK 15/13 Q1011', 'LGLM 081750Z 18011KT CAVOK 15/13 Q1011', 'LGLM 081720Z 18012KT CAVOK 15/13 Q1010', 'LGLM 081650Z 19012KT CAVOK 15/13 Q1010', 'LGLM 081620Z 19010KT 9999 FEW008 16/14 Q1010', 'LGLM 081550Z 19009KT 9999 FEW008 16/14 Q1010', 'LGLM 081520Z 18010KT 9999 FEW008 17/13 Q1010', 'LGLM 081450Z 18010KT 9999 FEW008 17/13 Q1010', 'LGLM 081420Z 19010KT 9999 FEW008 18/13 Q1010', 'LGLM 081350Z 19010KT 9999 FEW008 18/13 Q1010', 'LGLM 081320Z 17011KT 9999 FEW008 18/13 Q1011', 'LGLM 081250Z 17012KT 9999 FEW008 18/13 Q1011', 'LGLM 081220Z 18012KT 9999 FEW008 17/13 Q1012', 'LGLM 081150Z 18012G22KT 9999 FEW008 17/13 Q1012', 'LGLM 081120Z 19013G26KT 9999 FEW008 18/13 Q1013', 'LGLM 081050Z 19013G26KT 9999 FEW008 18/13 Q1013', 'LGLM 081020Z 19015G25KT 9999 FEW008 17/14 Q1012', 'LGLM 080950Z 18010G20KT 9999 FEW008 17/14 Q1012', 'LGLM 080920Z 18015G25KT 9999 FEW008 17/14 Q1012', 'LGLM 080850Z 18012G22KT 9999 FEW008 17/14 Q1012', 'LGLM 080820Z 19013G23KT 9999 FEW008 17/14 Q1012', 'LGLM 080750Z 19011G21KT 9999 FEW008 17/14 Q1012', 'LGLM 080720Z 18014G24KT 9999 FEW008 16/14 Q1012', 'LGLM 080650Z 18016KT 9999 FEW008 16/14 Q1012', 'LGLM 080620Z 18015KT 9999 FEW008 15/13 Q1012', 'LGLM 080550Z 18014KT 9999 FEW008 15/13 Q1012', 'LGLM 080520Z 19014KT 9999 FEW008 14/13 Q1012', 'LGLM 080450Z 18015KT 9999 FEW008 14/13 Q1012', 'LGLM 080420Z 19016KT 9999 FEW015 14/13 Q1012', 'LGLM 080350Z 19016KT 9999 FEW015 13/11 Q1012', 'LGLM 080320Z 19014KT 9999 FEW015 12/11 Q1012', 'LGLM 080250Z 19014KT 9999 FEW015 12/11 Q1012', 'LGLM 080150Z 19014KT 9999 FEW015 13/12 Q1013', 'LGLM 080050Z 19014KT 9999 FEW015 13/12 Q1013', 'LGLM 072350Z 19015KT 9999 FEW015 14/12 Q1013', 'LGLM 072250Z 19015KT 9999 FEW015 14/12 Q1013', 'LGLM 072150Z 19015KT 9999 FEW015 14/12 Q1013', 'LGLM 072050Z 19009KT 9999 FEW015 14/13 Q1013', 'LGLM 071950Z 20008KT 9999 FEW015 15/13 Q1013', 'LGLM 071850Z 20008KT 9999 FEW015 15/13 Q1013', 'LGLM 071820Z 19009KT 9999 FEW015 15/13 Q1013', 'LGLM 071750Z 19009KT 9999 FEW015 15/13 Q1013', 'LGLM 071720Z 19009KT 9999 FEW015 15/12 Q1013', 'LGLM 071650Z 20008KT 9999 FEW015 15/12 Q1013', 'LGLM 071620Z 19008KT 9999 FEW015 15/13 Q1013', 'LGLM 071550Z 19008KT 9999 FEW015 15/13 Q1013', 'LGLM 071520Z 19008KT 9999 FEW015 15/11 Q1014', 'LGLM 071450Z 19008KT 9999 FEW015 16/12 Q1014', 'LGLM 071420Z 19010KT 9999 FEW015 17/12 Q1014', 'LGLM 071350Z 19010KT 9999 FEW015 18/12 Q1014', 'LGLM 071320Z 20009KT 9999 FEW015 18/11 Q1013', 'LGLM 071250Z 21009KT 9999 FEW015 18/11 Q1013', 'LGLM 071220Z 21010KT 9999 FEW015 18/11 Q1014', 'LGLM 071150Z 21010KT 9999 FEW015 18/11 Q1014', 'LGLM 071120Z 20011KT 9999 FEW015 18/13 Q1014', 'LGLM 071050Z 20010KT 9999 FEW015 18/13 Q1014', 'LGLM 071020Z 19011KT 9999 FEW010 17/15 Q1015', 'LGLM 070950Z 19010KT 9999 FEW015 17/13 Q1015', 'LGLM 070850Z 19011KT 9999 FEW010 17/15 Q1015', 'LGLM 070820Z 19010KT 9999 FEW010 16/14 Q1015', 'LGLM 070750Z 18010KT 9999 FEW010 16/14 Q1015', 'LGLM 070720Z 19010KT 9999 FEW010 15/14 Q1015', 'LGLM 070650Z 18010KT 9999 FEW010 15/14 Q1015', 'LGLM 070620Z 18011KT 9999 FEW010 15/14 Q1015', 'LGLM 070550Z 19011KT 9999 FEW010 15/14 Q1015', 'LGLM 070520Z 19012KT 9999 FEW010 14/11 Q1015', 'LGLM 070450Z 19012KT CAVOK 15/10 Q1015', 'LGLM 070350Z 18012KT CAVOK 14/09 Q1015', 'LGLM 070250Z 20006KT CAVOK 14/08 Q1015', 'LGLM 070150Z 18010KT CAVOK 15/08 Q1015', 'LGLM 070050Z 18007KT CAVOK 15/08 Q1016', 'LGLM 062350Z 19007KT CAVOK 15/08 Q1016', 'LGLM 062250Z 19009KT CAVOK 15/09 Q1016', 'LGLM 062150Z 20009KT CAVOK 15/09 Q1017', 'LGLM 062050Z 20006KT CAVOK 15/09 Q1018', 'LGLM 061950Z 00000KT CAVOK 14/11 Q1018', 'LGLM 061850Z 00000KT CAVOK 14/11 Q1018', 'LGLM 061820Z 00000KT CAVOK 14/12 Q1018', 'LGLM 061750Z VRB03KT CAVOK 14/12 Q1018', 'LGLM 061720Z VRB04KT CAVOK 14/12 Q1018', 'LGLM 061650Z 18007KT CAVOK 14/12 Q1018', 'LGLM 061620Z VRB05KT CAVOK 15/11 Q1018', 'LGLM 061550Z VRB04KT CAVOK 15/11 Q1018', 'LGLM 061520Z 20006KT CAVOK 17/13 Q1018', 'LGLM 061450Z 20007KT CAVOK 17/13 Q1019', 'LGLM 061420Z 19008KT CAVOK 17/13 Q1019', 'LGLM 061350Z 17006KT CAVOK 17/13 Q1019', 'LGLM 061320Z 17005KT CAVOK 17/12 Q1019', 'LGLM 061250Z VRB05KT CAVOK 17/12 Q1019', 'LGLM 061220Z 17007KT CAVOK 19/12 Q1020', 'LGLM 061150Z 21007KT CAVOK 19/12 Q1020', 'LGLM 061120Z 21007KT CAVOK 19/10 Q1020', 'LGLM 061050Z 21008KT CAVOK 19/10 Q1020', 'LGLM 061020Z 21006KT CAVOK 18/10 Q1021', 'LGLM 060950Z VRB05KT CAVOK 18/10 Q1021', 'LGLM 060920Z VRB05KT CAVOK 17/12 Q1023', 'LGLM 060850Z VRB02KT CAVOK 17/12 Q1021', 'LGLM 060820Z 00000KT CAVOK 14/11 Q1021', 'LGLM 060750Z 00000KT CAVOK 14/11 Q1021', 'LGLM 060720Z 00000KT CAVOK 09/07 Q1021', 'LGLM 060650Z 00000KT CAVOK 09/07 Q1021', 'LGLM 060620Z 00000KT CAVOK 05/04 Q1021', 'LGLM 060550Z 00000KT CAVOK 05/04 Q1020', 'LGLM 060520Z 00000KT CAVOK 07/04 Q1020', 'LGLM 060450Z 00000KT CAVOK 07/04 Q1019', 'LGLM 060420Z 00000KT CAVOK 06/04 Q1019', 'LGLM 060350Z 00000KT CAVOK 06/04 Q1019', 'LGLM 060250Z 00000KT CAVOK 09/06 Q1019', 'LGLM 060150Z 00000KT CAVOK 10/06 Q1020', 'LGLM 060050Z 00000KT CAVOK 10/06 Q1019', 'LGLM 052350Z 00000KT CAVOK 10/06 Q1019', 'LGLM 052250Z 22004KT CAVOK 12/08 Q1019', 'LGLM 052150Z 22004KT CAVOK 12/08 Q1019']","['2024-02-08 19:50:00', '2024-02-08 19:20:00', '2024-02-08 18:50:00', '2024-02-08 18:20:00', '2024-02-08 17:50:00', '2024-02-08 17:20:00', '2024-02-08 16:50:00', '2024-02-08 16:20:00', '2024-02-08 15:50:00', '2024-02-08 15:20:00', '2024-02-08 14:50:00', '2024-02-08 14:20:00', '2024-02-08 13:50:00', '2024-02-08 13:20:00', '2024-02-08 12:50:00', '2024-02-08 12:20:00', '2024-02-08 11:50:00', '2024-02-08 11:20:00', '2024-02-08 10:50:00', '2024-02-08 10:20:00', '2024-02-08 09:50:00', '2024-02-08 09:20:00', '2024-02-08 08:50:00', '2024-02-08 08:20:00', '2024-02-08 07:50:00', '2024-02-08 07:20:00', '2024-02-08 06:50:00', '2024-02-08 06:20:00', '2024-02-08 05:50:00', '2024-02-08 05:20:00', '2024-02-08 04:50:00', '2024-02-08 04:20:00', '2024-02-08 03:50:00', '2024-02-08 03:20:00', '2024-02-08 02:50:00', '2024-02-08 01:50:00', '2024-02-08 00:50:00', '2024-02-07 23:50:00', '2024-02-07 22:50:00', '2024-02-07 21:50:00', '2024-02-07 20:50:00', '2024-02-07 19:50:00', '2024-02-07 18:50:00', '2024-02-07 18:20:00', '2024-02-07 17:50:00', '2024-02-07 17:20:00', '2024-02-07 16:50:00', '2024-02-07 16:20:00', '2024-02-07 15:50:00', '2024-02-07 15:20:00', '2024-02-07 14:50:00', '2024-02-07 14:20:00', '2024-02-07 13:50:00', '2024-02-07 13:20:00', '2024-02-07 12:50:00', '2024-02-07 12:20:00', '2024-02-07 11:50:00', '2024-02-07 11:20:00', '2024-02-07 10:50:00', '2024-02-07 10:20:00', '2024-02-07 09:50:00', '2024-02-07 08:50:00', '2024-02-07 08:20:00', '2024-02-07 07:50:00', '2024-02-07 07:20:00', '2024-02-07 06:50:00', '2024-02-07 06:20:00', '2024-02-07 05:50:00', '2024-02-07 05:20:00', '2024-02-07 04:50:00', '2024-02-07 03:50:00', '2024-02-07 02:50:00', '2024-02-07 01:50:00', '2024-02-07 00:50:00', '2024-02-06 23:50:00', '2024-02-06 22:50:00', '2024-02-06 21:50:00', '2024-02-06 20:50:00', '2024-02-06 19:50:00', '2024-02-06 18:50:00', '2024-02-06 18:20:00', '2024-02-06 17:50:00', '2024-02-06 17:20:00', '2024-02-06 16:50:00', '2024-02-06 16:20:00', '2024-02-06 15:50:00', '2024-02-06 15:20:00', '2024-02-06 14:50:00', '2024-02-06 14:20:00', '2024-02-06 13:50:00', '2024-02-06 13:20:00', '2024-02-06 12:50:00', '2024-02-06 12:20:00', '2024-02-06 11:50:00', '2024-02-06 11:20:00', '2024-02-06 10:50:00', '2024-02-06 10:20:00', '2024-02-06 09:50:00', '2024-02-06 09:20:00', '2024-02-06 08:50:00', '2024-02-06 08:20:00', '2024-02-06 07:50:00', '2024-02-06 07:20:00', '2024-02-06 06:50:00', '2024-02-06 06:20:00', '2024-02-06 05:50:00', '2024-02-06 05:20:00', '2024-02-06 04:50:00', '2024-02-06 04:20:00', '2024-02-06 03:50:00', '2024-02-06 02:50:00', '2024-02-06 01:50:00', '2024-02-06 00:50:00', '2024-02-05 23:50:00', '2024-02-05 22:50:00', '2024-02-05 21:50:00']"
Greenland, Ilulissat Airport (JAV/BGJN) ,"['BGJN 082050Z AUTO 15009KT 9999NDV BKN043/// M15/M20 Q1015', 'BGJN 081950Z 16010KT 9999 SCT018 BKN030 M16/M19 Q1014', 'BGJN 081850Z 18011KT 9999 SCT022 BKN030 M14/M17 Q1014', 'BGJN 081750Z 18010KT 9999 3000NE -SHSN BKN025 M13/M17 Q1014', 'BGJN 081650Z 19011KT 9999 BKN030 M13/M18 Q1013', 'BGJN 081550Z 16010KT 9999 VCSH BKN028 M13/M18 Q1013', 'BGJN 081350Z 12010KT 9999 FEW030 BKN120 M13/M20 Q1012', 'BGJN 081250Z 11008KT 9999 FEW040 BKN110 M13/M20 Q1012', 'BGJN 081050Z 13011KT 9999 FEW040 BKN100 M12/M18 Q1012', 'BGJN 080950Z 13012KT 9999 DRSN SCT040 BKN090 M12/M17 Q1011', 'BGJN 080850Z AUTO 13012KT 9999NDV -SHSN OVC070/// M12/M17 Q1011', 'BGJN 080750Z AUTO 12011KT 9999NDV OVC054/// M12/M17 Q1012', 'BGJN 080650Z AUTO 11013KT 9999NDV OVC066/// M12/M17 Q1012', 'BGJN 080550Z AUTO 13008KT 9999NDV FEW046/// OVC076/// M13/M17 Q1012', 'BGJN 080450Z AUTO 15008KT 9999NDV -IC BKN033/// OVC050/// M12/M16 Q1013', 'BGJN 080350Z AUTO 21012KT 9999NDV BKN030/// BKN078/// M12/M17 Q1013', 'BGJN 080250Z AUTO 21015KT 9999NDV -IC OVC027/// M12/M17 Q1012', 'BGJN 080150Z AUTO 21014KT 3000NDV -SN OVC022/// M11/M15 Q1011', 'BGJN 080050Z AUTO 21021KT 0700NDV SN OVC016/// M11/M13 Q1010', 'BGJN 072350Z AUTO 21017KT 0650NDV SN OVC011/// M10/M12 Q1008', 'BGJN 072250Z AUTO 22017KT 1000NDV SN OVC008/// M09/M11 Q1007', 'BGJN 072150Z AUTO 21013KT 3900NDV -SN OVC012/// M08/M10 Q1006', 'BGJN 072050Z AUTO 23008KT 9999NDV -SHSN OVC012/// M06/M09 Q1005', 'BGJN 071950Z AUTO 20013KT 150V250 9999NDV BKN031/// OVC120/// M04/M07 Q1005', 'BGJN 071850Z 15016KT 9999 DRSN SCT035 BKN045 M04/M08 Q1005', 'BGJN 071750Z 16016KT 9999 DRSN SCT035 BKN045 M03/M09 Q1005', 'BGJN 071650Z 15013KT 9999 -SHSN DRSN FEW014 SCT035 BKN045 M03/M09 Q1006', 'BGJN 071550Z 16018KT 6000 VCSH DRSN FEW014 SCT035 OVC045 M04/M07 Q1007', 'BGJN 071450Z 16015KT 6000 VCSH DRSN FEW014 SCT031 OVC045 M04/M08 Q1007', 'BGJN 071350Z 15013KT 6000 -SHSN DRSN FEW014 SCT025 BKN035 M04/M07 Q1008', 'BGJN 071250Z 14012KT 2000 -SHSN DRSN SCT014 BKN018 BKN025 M05/M07 Q1008', 'BGJN 071150Z 15012KT 1800 -SHSN DRSN OVC012 M05/M07 Q1008', 'BGJN 071050Z 14011KT 2500 -SHSN DRSN BKN012 M05/M07 Q1009', 'BGJN 070950Z 11015KT 2200 -SHSN DRSN BKN015 M05/M07 Q1009', 'BGJN 070850Z AUTO 10023KT //// OVC035/// M05/M07 Q1009', 'BGJN 070750Z AUTO 10024KT //// OVC033/// M05/M07 Q1009', 'BGJN 070650Z AUTO 10024KT 0350NDV +SN OVC028/// M05/M08 Q1010', 'BGJN 070550Z AUTO 11027KT 0600NDV SN OVC033/// M05/M09 Q1010', 'BGJN 070450Z AUTO 10027KT 0600NDV SN OVC050/// M06/M10 Q1009', 'BGJN 070350Z AUTO 11021KT 4400NDV -SHSN OVC050/// M06/M14 Q1011', 'BGJN 070250Z AUTO 10018KT 9999NDV -SHSN OVC053/// M07/M15 Q1011', 'BGJN 070150Z AUTO 10022KT 2400NDV -SHSN OVC060/// M07/M16 Q1012', 'BGJN 070050Z AUTO 10021KT 3900NDV -SHSN BR OVC062/// M08/M16 Q1012', 'BGJN 062350Z AUTO 09020KT 6000NDV OVC074/// M09/M18 Q1013', 'BGJN 062250Z AUTO 10020KT 6000NDV -SHSN OVC094/// M10/M19 Q1013', 'BGJN 062150Z AUTO 10019G29KT 2900NDV -IC OVC100/// M11/M19 Q1014', 'BGJN 062050Z 10019KT 9999 DRSN BKN120 M11/M21 Q1015', 'BGJN 061950Z 10019KT 9999 DRSN BKN140 M12/M21 Q1016', 'BGJN 061850Z 10016KT 9999 DRSN BKN140 M13/M23 Q1017', 'BGJN 061750Z 10021KT 9999 DRSN BKN180 M13/M22 Q1017', 'BGJN 061650Z 10017KT 9999 DRSN BKN240 M14/M23 Q1018', 'BGJN 061550Z 10017KT 9999 DRSN FEW030 BKN240 M15/M23 Q1019', 'BGJN 061450Z 09020KT 9999 DRSN FEW030 BKN240 M15/M23 Q1019', 'BGJN 061350Z 10016KT 9999 DRSN FEW030 SCT240 M15/M24 Q1020', 'BGJN 061250Z VRB09KT 9999 FEW030 SCT240 M15/M26 Q1021', 'BGJN 061150Z 09016KT 9999 DRSN FEW030 SCT240 M16/M25 Q1021', 'BGJN 061050Z 06012KT 010V090 9999 FEW030 M16/M26 Q1022', 'BGJN 060950Z VRB06G18KT 9999 SKC M17/M25 Q1022', 'BGJN 060850Z AUTO VRB04KT 9999NDV NCD M17/M26 Q1022', 'BGJN 060750Z AUTO 09012KT 9999NDV NCD M18/M27 Q1023', 'BGJN 060650Z AUTO 10011KT 9999NDV NCD M18/M27 Q1023', 'BGJN 060550Z AUTO VRB04KT 9999NDV NCD M19/M28 Q1023', 'BGJN 060450Z AUTO VRB04KT 9999NDV NCD M19/M28 Q1023', 'BGJN 060350Z AUTO VRB03KT 9999NDV NCD M20/M28 Q1023', 'BGJN 060250Z AUTO 35003KT 9999NDV NCD M20/M29 Q1024', 'BGJN 060150Z AUTO 31003KT 9999NDV NCD M20/M28 Q1024', 'BGJN 060050Z AUTO 15005KT 100V180 9999NDV NCD M22/M29 Q1025', 'BGJN 052350Z AUTO 12004KT 100V170 9999NDV NCD M21/M28 Q1025', 'BGJN 052250Z AUTO 06001KT 9999NDV SCT022/// M21/M25 Q1025', 'BGJN 052150Z AUTO 06001KT 9999NDV OVC023/// M20/M24 Q1025']","['2024-02-08 20:50:00', '2024-02-08 19:50:00', '2024-02-08 18:50:00', '2024-02-08 17:50:00', '2024-02-08 16:50:00', '2024-02-08 15:50:00', '2024-02-08 13:50:00', '2024-02-08 12:50:00', '2024-02-08 10:50:00', '2024-02-08 09:50:00', '2024-02-08 08:50:00', '2024-02-08 07:50:00', '2024-02-08 06:50:00', '2024-02-08 05:50:00', '2024-02-08 04:50:00', '2024-02-08 03:50:00', '2024-02-08 02:50:00', '2024-02-08 01:50:00', '2024-02-08 00:50:00', '2024-02-07 23:50:00', '2024-02-07 22:50:00', '2024-02-07 21:50:00', '2024-02-07 20:50:00', '2024-02-07 19:50:00', '2024-02-07 18:50:00', '2024-02-07 17:50:00', '2024-02-07 16:50:00', '2024-02-07 15:50:00', '2024-02-07 14:50:00', '2024-02-07 13:50:00', '2024-02-07 12:50:00', '2024-02-07 11:50:00', '2024-02-07 10:50:00', '2024-02-07 09:50:00', '2024-02-07 08:50:00', '2024-02-07 07:50:00', '2024-02-07 06:50:00', '2024-02-07 05:50:00', '2024-02-07 04:50:00', '2024-02-07 03:50:00', '2024-02-07 02:50:00', '2024-02-07 01:50:00', '2024-02-07 00:50:00', '2024-02-06 23:50:00', '2024-02-06 22:50:00', '2024-02-06 21:50:00', '2024-02-06 20:50:00', '2024-02-06 19:50:00', '2024-02-06 18:50:00', '2024-02-06 17:50:00', '2024-02-06 16:50:00', '2024-02-06 15:50:00', '2024-02-06 14:50:00', '2024-02-06 13:50:00', '2024-02-06 12:50:00', '2024-02-06 11:50:00', '2024-02-06 10:50:00', '2024-02-06 09:50:00', '2024-02-06 08:50:00', '2024-02-06 07:50:00', '2024-02-06 06:50:00', '2024-02-06 05:50:00', '2024-02-06 04:50:00', '2024-02-06 03:50:00', '2024-02-06 02:50:00', '2024-02-06 01:50:00', '2024-02-06 00:50:00', '2024-02-05 23:50:00', '2024-02-05 22:50:00', '2024-02-05 21:50:00']"
Greenland, Kangerlussuaq Airport (SFJ/BGSF) ,"['BGSF 082050Z AUTO 03004KT 9999NDV NCD M21/M23 Q1015', 'BGSF 081950Z AUTO 34002KT 9999NDV NCD M18/M20 Q1015', 'BGSF 081850Z AUTO 36003KT 9999NDV NCD M17/M20 Q1015', 'BGSF 081750Z AUTO 08002KT 9999NDV NCD M16/M20 Q1014', 'BGSF 081650Z AUTO 24008KT 9999NDV FEW033/// SCT040/// BKN055/// M15/M19 Q1014', 'BGSF 081550Z AUTO 24008KT 9999NDV FEW040/// BKN060/// BKN110/// M15/M20 Q1014', 'BGSF 081450Z AUTO 23007KT 9999NDV SCT036/// BKN060/// M15/M20 Q1014', 'BGSF 081350Z AUTO 24004KT 9999NDV BKN130/// M16/M21 Q1013', 'BGSF 081250Z AUTO 05007KT 9999NDV SCT055/// BKN130/// M17/M22 Q1013', 'BGSF 081150Z AUTO 03004KT 360V080 9999NDV NCD M17/M23 Q1013', 'BGSF 081050Z VRB03KT 9999 SCT110 M14/M21 Q1012', 'BGSF 080950Z AUTO 05006KT 9999NDV FEW050/// BKN110/// M14/M21 Q1012', 'BGSF 080850Z AUTO 27003KT 9999NDV FEW050/// SCT065/// BKN100/// M13/M21 Q1012', 'BGSF 080750Z AUTO 05006KT 020V080 9999NDV FEW060/// SCT100/// BKN130/// M13/M21 Q1012', 'BGSF 080650Z AUTO 06006KT 020V090 9999NDV FEW130/// M12/M22 Q1012', 'BGSF 080550Z AUTO 04007KT 9999NDV FEW140/// M14/M21 Q1013', 'BGSF 080450Z AUTO 04007KT 9999NDV FEW120/// SCT140/// M13/M21 Q1013', 'BGSF 080350Z AUTO VRB03KT 9999NDV BKN150/// M13/M20 Q1014', 'BGSF 080250Z AUTO VRB04KT 9999NDV FEW042/// SCT055/// BKN160/// M12/M18 Q1014', 'BGSF 080150Z AUTO 26003KT 9000NDV -SHSN BKN028/// OVC039/// M12/M16 Q1014', 'BGSF 080050Z AUTO 28011KT 9999NDV -IC BKN046/// M12/M16 Q1013', 'BGSF 072350Z AUTO 27015KT 9999NDV -SHSN BKN042/// OVC049/// M12/M15 Q1012', 'BGSF 072250Z AUTO 28019KT 3000NDV -SHSN BR FEW017/// OVC020/// M11/M15 Q1011', 'BGSF 072150Z AUTO 27025KT 0650NDV SHSN VV007/// M11/M13 Q1009 RESHSN', 'BGSF 072050Z AUTO 27025KT 0500NDV SHSN VV006/// M10/M12 Q1007', 'BGSF 071950Z AUTO 16013KT 9999NDV BKN065/// M02/M09 Q1005', 'BGSF 071850Z AUTO 13013KT 9999NDV BKN220/// M02/M10 Q1006', 'BGSF 071750Z AUTO 13011KT 100V160 9999NDV BKN160/// M02/M10 Q1006', 'BGSF 071650Z AUTO 13014KT 9999NDV BKN120/// BKN160/// M02/M10 Q1007', 'BGSF 071550Z AUTO 06010G20KT 030V120 9999NDV SCT055/// BKN100/// M03/M10 Q1009', 'BGSF 071450Z AUTO 12014KT 090V150 9999NDV BKN170/// M02/M12 Q1010', 'BGSF 071350Z AUTO 12016KT 9999NDV BKN140/// M03/M12 Q1010', 'BGSF 071250Z AUTO 11007KT 050V150 9999NDV BKN055/// BKN130/// M03/M13 Q1011', 'BGSF 071150Z AUTO 13012KT 080V150 9999NDV FEW070/// BKN120/// M04/M12 Q1012', 'BGSF 071050Z AUTO 11012KT 9999NDV BKN060/// OVC110/// M04/M13 Q1012', 'BGSF 070950Z AUTO 09015KT 060V120 9999NDV BKN065/// M04/M13 Q1012', 'BGSF 070850Z AUTO 08009KT 040V110 9999NDV BKN095/// BKN110/// M05/M14 Q1012', 'BGSF 070750Z AUTO 11008KT 9999NDV BKN100/// M04/M15 Q1012', 'BGSF 070650Z AUTO 10010KT 9999NDV SCT050/// BKN100/// M04/M12 Q1013', 'BGSF 070550Z AUTO 06011KT 9999NDV -SN FEW065/// BKN080/// M06/M11 Q1013', 'BGSF 070450Z AUTO 05014KT 9999NDV -SN FEW040/// BKN055/// M06/M10 Q1013', 'BGSF 070350Z AUTO 06012KT 8000NDV -SN FEW025/// BKN035/// BKN040/// M06/M12 Q1014', 'BGSF 070250Z AUTO 05010KT 020V080 9999NDV -SN BKN042/// BKN050/// M07/M12 Q1014', 'BGSF 070150Z AUTO 03012KT 9999NDV FEW039/// BKN045/// M07/M14 Q1014', 'BGSF 070050Z AUTO 05013KT 9999NDV BKN050/// BKN065/// M12/M17 Q1015', 'BGSF 062350Z AUTO 05008KT 9999NDV FEW050/// SCT090/// BKN110/// M11/M17 Q1015', 'BGSF 062250Z AUTO VRB03KT 9999NDV SCT170/// M15/M21 Q1015', 'BGSF 062150Z AUTO 04013KT 9999NDV BKN140/// M19/M23 Q1015', 'BGSF 062050Z AUTO 04010KT 9999NDV SCT100/// BKN120/// M25/M28 Q1016', 'BGSF 061950Z AUTO 06006KT 020V080 9999NDV SCT110/// BKN150/// M27/M31 Q1017', 'BGSF 061850Z AUTO 04003KT 9999NDV BKN130/// BKN150/// M28/M31 Q1018', 'BGSF 061750Z AUTO 03005KT 330V050 9999NDV SCT140/// BKN170/// M29/M32 Q1018', 'BGSF 061650Z AUTO 03006KT 350V060 9999NDV NCD M31/M34 Q1019', 'BGSF 061550Z AUTO 05007KT 030V100 9999NDV FEW210/// M31/M35 Q1020', 'BGSF 061450Z AUTO 06003KT 9999NDV NCD M31/M35 Q1021', 'BGSF 061350Z AUTO 04005KT 350V090 9999NDV NCD M32/M36 Q1022', 'BGSF 061250Z AUTO 04010KT 9999NDV NCD M33/M37 Q1022', 'BGSF 061150Z AUTO 04006KT 9999NDV NCD M32/M35 Q1023', 'BGSF 061050Z AUTO 02008KT 9999NDV NCD M32/M36 Q1024', 'BGSF 060950Z AUTO 03008KT 9999NDV NCD M32/M36 Q1024', 'BGSF 060850Z AUTO 04008KT 9999NDV NCD M33/M37 Q1025', 'BGSF 060750Z AUTO 04007KT 9999NDV NCD M32/M35 Q1025', 'BGSF 060650Z AUTO 04006KT 9999NDV NCD M33/M37 Q1025', 'BGSF 060550Z AUTO 04007KT 9999NDV NCD M34/M37 Q1025', 'BGSF 060450Z AUTO 04010KT 9999NDV NCD M34/M37 Q1025', 'BGSF 060350Z AUTO 04007KT 9999NDV NCD M34/M38 Q1025', 'BGSF 060250Z AUTO 04006KT 9999NDV NCD M34/M37 Q1025', 'BGSF 060150Z AUTO 04008KT 9999NDV NCD M33/M36 Q1026', 'BGSF 060050Z AUTO 04009KT 9999NDV NCD M33/M36 Q1026', 'BGSF 052350Z AUTO 04007KT 9999NDV NCD M34/M38 Q1026', 'BGSF 052250Z AUTO 04005KT 9999NDV NCD M30/M33 Q1026', 'BGSF 052150Z AUTO 04008KT 9999NDV NCD M32/M35 Q1026']","['2024-02-08 20:50:00', '2024-02-08 19:50:00', '2024-02-08 18:50:00', '2024-02-08 17:50:00', '2024-02-08 16:50:00', '2024-02-08 15:50:00', '2024-02-08 14:50:00', '2024-02-08 13:50:00', '2024-02-08 12:50:00', '2024-02-08 11:50:00', '2024-02-08 10:50:00', '2024-02-08 09:50:00', '2024-02-08 08:50:00', '2024-02-08 07:50:00', '2024-02-08 06:50:00', '2024-02-08 05:50:00', '2024-02-08 04:50:00', '2024-02-08 03:50:00', '2024-02-08 02:50:00', '2024-02-08 01:50:00', '2024-02-08 00:50:00', '2024-02-07 23:50:00', '2024-02-07 22:50:00', '2024-02-07 21:50:00', '2024-02-07 20:50:00', '2024-02-07 19:50:00', '2024-02-07 18:50:00', '2024-02-07 17:50:00', '2024-02-07 16:50:00', '2024-02-07 15:50:00', '2024-02-07 14:50:00', '2024-02-07 13:50:00', '2024-02-07 12:50:00', '2024-02-07 11:50:00', '2024-02-07 10:50:00', '2024-02-07 09:50:00', '2024-02-07 08:50:00', '2024-02-07 07:50:00', '2024-02-07 06:50:00', '2024-02-07 05:50:00', '2024-02-07 04:50:00', '2024-02-07 03:50:00', '2024-02-07 02:50:00', '2024-02-07 01:50:00', '2024-02-07 00:50:00', '2024-02-06 23:50:00', '2024-02-06 22:50:00', '2024-02-06 21:50:00', '2024-02-06 20:50:00', '2024-02-06 19:50:00', '2024-02-06 18:50:00', '2024-02-06 17:50:00', '2024-02-06 16:50:00', '2024-02-06 15:50:00', '2024-02-06 14:50:00', '2024-02-06 13:50:00', '2024-02-06 12:50:00', '2024-02-06 11:50:00', '2024-02-06 10:50:00', '2024-02-06 09:50:00', '2024-02-06 08:50:00', '2024-02-06 07:50:00', '2024-02-06 06:50:00', '2024-02-06 05:50:00', '2024-02-06 04:50:00', '2024-02-06 03:50:00', '2024-02-06 02:50:00', '2024-02-06 01:50:00', '2024-02-06 00:50:00', '2024-02-05 23:50:00', '2024-02-05 22:50:00', '2024-02-05 21:50:00']"
Greenland, Kulusuk Airport (KUS/BGKK) ,"['BGKK 082050Z AUTO 10027KT 6000NDV -SN BKN079/// M11/M15 Q1006', 'BGKK 081950Z AUTO 10031KT 2300NDV -SN NCD M11/M16 Q1006', 'BGKK 081850Z 09029KT 9999 DRSN SCT088 M11/M17 Q1006', 'BGKK 081750Z 08022KT 9999 DRSN BKN088 M11/M16 Q1006', 'BGKK 081650Z 08022KT 9999 DRSN BKN100 M10/M17 Q1005', 'BGKK 081550Z 09022KT 9999 DRSN BKN110 M09/M16 Q1006', 'BGKK 081450Z 24005KT 180V290 9999 BKN110 M09/M17 Q1006', 'BGKK 081350Z VRB02KT 9999 BKN110 M13/M16 Q1007', 'BGKK 081250Z VRB02KT 9999 BKN110 M13/M16 Q1007', 'BGKK 081150Z 15001KT 9999 BKN150 M12/M14 Q1008', 'BGKK 080950Z 27005KT 9999 SCT100 BKN120 M12/M14 Q1009', 'BGKK 080850Z 18005KT 160V220 9999 BKN130 M10/M14 Q1009', 'BGKK 080750Z 27005KT 9999 FEW110 SCT160 M12/M15 Q1010', 'BGKK 080650Z AUTO 22005KT 9999NDV ///110/// M11/M15 Q1011', 'BGKK 080550Z AUTO 26005KT 220V290 9999NDV BKN100/// M11/M15 Q1012', 'BGKK 080450Z AUTO 24005KT 9999NDV ///160/// M12/M16 Q1013', 'BGKK 080350Z AUTO 23004KT 9999NDV FEW190/// M12/M16 Q1014', 'BGKK 080250Z AUTO 24005KT 9999NDV BKN190/// M12/M17 Q1015', 'BGKK 080150Z AUTO 23007KT 9999NDV NCD M11/M16 Q1016', 'BGKK 080050Z AUTO 21008KT 9999NDV NCD M11/M17 Q1017', 'BGKK 072350Z AUTO 21009KT 9999NDV NCD M10/M17 Q1018', 'BGKK 072250Z AUTO 24007KT 9999NDV BKN180/// M12/M17 Q1018', 'BGKK 072150Z AUTO 26008KT 9999NDV ///200/// M13/M17 Q1019', 'BGKK 072050Z AUTO 24010KT 9999NDV NCD M12/M17 Q1019', 'BGKK 071950Z AUTO 23008KT 9999NDV NCD M11/M17 Q1020', 'BGKK 071850Z 23003KT 9999 SCT200 M10/M19 Q1020', 'BGKK 071750Z 23010KT 9999 SCT200 M11/M17 Q1021', 'BGKK 071650Z 22006KT 9999 SCT200 M09/M19 Q1021', 'BGKK 071550Z 24007KT 9999 FEW200 M09/M19 Q1022', 'BGKK 071450Z 24008KT 9999 FEW200 M08/M19 Q1023', 'BGKK 071350Z 25005KT 9999 FEW200 M10/M20 Q1023', 'BGKK 071250Z 24002KT 9999 FEW200 M09/M20 Q1024', 'BGKK 071150Z 24003KT 9999 FEW200 M09/M21 Q1024', 'BGKK 071050Z 13003KT 9999 SKC M10/M21 Q1024', 'BGKK 070950Z AUTO 25003KT 9999NDV NCD M10/M21 Q1025', 'BGKK 070350Z AUTO 13003KT 9999NDV NCD M09/M22 Q1025', 'BGKK 070250Z AUTO 00000KT 9999NDV NCD M09/M22 Q1025', 'BGKK 070150Z AUTO 16003KT 9999NDV NCD M10/M22 Q1025', 'BGKK 070050Z AUTO VRB02KT 9999NDV NCD M09/M23 Q1025', 'BGKK 062350Z AUTO VRB02KT 9999NDV NCD M09/M23 Q1025', 'BGKK 062250Z AUTO 16003KT 9999NDV NCD M10/M23 Q1024', 'BGKK 062150Z AUTO 16002KT 9999NDV NCD M10/M24 Q1024', 'BGKK 062050Z AUTO 06002KT 9999NDV NCD M11/M24 Q1024', 'BGKK 061950Z AUTO VRB01KT 9999NDV NCD M10/M24 Q1023', 'BGKK 061850Z AUTO VRB01KT 9999NDV NCD M12/M24 Q1022', 'BGKK 061750Z VRB02KT 9999 SKC M12/M24 Q1022', 'BGKK 061650Z 13004KT 9999 SKC M12/M24 Q1021', 'BGKK 061550Z 14001KT 9999 SKC M12/M24 Q1021', 'BGKK 061450Z 03001KT 9999 SKC M12/M25 Q1021', 'BGKK 061250Z 27001KT 9999 SKC M15/M25 Q1020', 'BGKK 061150Z 18004KT 160V330 9999 SKC M15/M25 Q1020', 'BGKK 061050Z 24003KT 9999 SKC M15/M25 Q1019', 'BGKK 060950Z 23002KT 9999 SKC M14/M24 Q1019', 'BGKK 060850Z AUTO 17004KT 140V230 9999NDV NCD M15/M24 Q1018', 'BGKK 060750Z AUTO 34001KT 9999NDV NCD M17/M24 Q1018', 'BGKK 060650Z AUTO 11002KT 9999NDV NCD M15/M24 Q1018', 'BGKK 060550Z AUTO 15002KT 9999NDV NCD M16/M25 Q1018', 'BGKK 060450Z AUTO 26003KT 9999NDV NCD M17/M25 Q1018', 'BGKK 060350Z AUTO 29001KT 9999NDV NCD M17/M24 Q1018', 'BGKK 060250Z AUTO VRB01KT 9999NDV NCD M18/M25 Q1018', 'BGKK 060150Z AUTO 00000KT 9999NDV NCD M17/M24 Q1018', 'BGKK 060050Z AUTO 26002KT 9999NDV NCD M17/M24 Q1017', 'BGKK 052350Z AUTO 00000KT 9999NDV NCD M18/M24 Q1017', 'BGKK 052250Z AUTO 23001KT 9999NDV NCD M16/M23 Q1017', 'BGKK 052150Z AUTO 22002KT 9999NDV NCD M17/M23 Q1017']","['2024-02-08 20:50:00', '2024-02-08 19:50:00', '2024-02-08 18:50:00', '2024-02-08 17:50:00', '2024-02-08 16:50:00', '2024-02-08 15:50:00', '2024-02-08 14:50:00', '2024-02-08 13:50:00', '2024-02-08 12:50:00', '2024-02-08 11:50:00', '2024-02-08 09:50:00', '2024-02-08 08:50:00', '2024-02-08 07:50:00', '2024-02-08 06:50:00', '2024-02-08 05:50:00', '2024-02-08 04:50:00', '2024-02-08 03:50:00', '2024-02-08 02:50:00', '2024-02-08 01:50:00', '2024-02-08 00:50:00', '2024-02-07 23:50:00', '2024-02-07 22:50:00', '2024-02-07 21:50:00', '2024-02-07 20:50:00', '2024-02-07 19:50:00', '2024-02-07 18:50:00', '2024-02-07 17:50:00', '2024-02-07 16:50:00', '2024-02-07 15:50:00', '2024-02-07 14:50:00', '2024-02-07 13:50:00', '2024-02-07 12:50:00', '2024-02-07 11:50:00', '2024-02-07 10:50:00', '2024-02-07 09:50:00', '2024-02-07 03:50:00', '2024-02-07 02:50:00', '2024-02-07 01:50:00', '2024-02-07 00:50:00', '2024-02-06 23:50:00', '2024-02-06 22:50:00', '2024-02-06 21:50:00', '2024-02-06 20:50:00', '2024-02-06 19:50:00', '2024-02-06 18:50:00', '2024-02-06 17:50:00', '2024-02-06 16:50:00', '2024-02-06 15:50:00', '2024-02-06 14:50:00', '2024-02-06 12:50:00', '2024-02-06 11:50:00', '2024-02-06 10:50:00', '2024-02-06 09:50:00', '2024-02-06 08:50:00', '2024-02-06 07:50:00', '2024-02-06 06:50:00', '2024-02-06 05:50:00', '2024-02-06 04:50:00', '2024-02-06 03:50:00', '2024-02-06 02:50:00', '2024-02-06 01:50:00', '2024-02-06 00:50:00', '2024-02-05 23:50:00', '2024-02-05 22:50:00', '2024-02-05 21:50:00']"
Greenland, Narsarsuaq Airport (UAK/BGBW) ,"['BGBW 082050Z AUTO 16004KT 110V220 9999NDV NCD M08/M16 Q1012', 'BGBW 081950Z 19007KT 150V230 9999 FEW025 M07/M15 Q1011', 'BGBW 081850Z VRB02KT 9999 FEW025 BKN036 M06/M12 Q1011', 'BGBW 081750Z 14002KT 9999 4000E FEW015 SCT021 BKN030 M06/M11 Q1011', 'BGBW 081650Z 21007KT 9999 SCT009 BKN015 BKN023 M06/M08 Q1011', 'BGBW 081550Z 28001KT 9999 FEW009 BKN016 BKN023 M06/M08 Q1012', 'BGBW 081450Z 07002KT 9999 SCT015 BKN024 M06/M08 Q1013', 'BGBW 081350Z 00000KT 9999 FEW009 SCT017 BKN024 M05/M09 Q1013', 'BGBW 081250Z 22004KT 9999 -SN SCT008 SCT029 BKN043 M06/M08 Q1014', 'BGBW 081150Z 24002KT 9999 -SN FEW019 BKN036 BKN041 M06/M08 Q1014', 'BGBW 081050Z 11001KT 4000 -SN SCT014 BKN031 OVC041 M07/M08 Q1014', 'BGBW 080950Z VRB02KT 9999 -SN BKN014 OVC031 M06/M09 Q1014', 'BGBW 080850Z AUTO 06002KT 9999NDV OVC048/// M07/M12 Q1015', 'BGBW 080750Z AUTO 08005KT 060V120 9999NDV OVC050/// M06/M14 Q1016', 'BGBW 080650Z AUTO 20004KT 140V250 9999NDV BKN055/// OVC075/// M07/M13 Q1017', 'BGBW 080550Z AUTO 05004KT 9999NDV BKN060/// BKN075/// M09/M14 Q1017', 'BGBW 080450Z AUTO 09002KT 9999NDV BKN070/// M07/M14 Q1018', 'BGBW 080350Z AUTO 05002KT 9999NDV SCT050/// BKN100/// BKN120/// M09/M15 Q1018', 'BGBW 080250Z AUTO 06002KT 9999NDV FEW065/// BKN130/// M08/M15 Q1019', 'BGBW 080150Z AUTO 00000KT 9999NDV BKN060/// OVC075/// M07/M15 Q1020', 'BGBW 080050Z AUTO 06002KT 9999NDV SCT070/// OVC085/// M08/M15 Q1020', 'BGBW 072350Z AUTO 00000KT 9999NDV OVC065/// M08/M15 Q1021', 'BGBW 072250Z AUTO 00000KT 9999NDV SCT070/// BKN120/// M08/M15 Q1021', 'BGBW 072150Z AUTO 00000KT 9999NDV FEW120/// BKN130/// M07/M16 Q1021', 'BGBW 072050Z AUTO 00000KT 9999NDV SCT065/// BKN120/// BKN140/// M08/M16 Q1022', 'BGBW 071950Z AUTO VRB02KT 9999NDV BKN140/// OVC160/// M09/M16 Q1022', 'BGBW 071850Z 08001KT 9999 SCT130 BKN150 BKN180 M08/M17 Q1022', 'BGBW 071750Z 04001KT 9999 FEW130 BKN150 BKN180 M07/M16 Q1022', 'BGBW 071650Z 29003KT 9999 FEW130 BKN150 BKN180 M08/M16 Q1023', 'BGBW 071550Z 26002KT 9999 BKN150 BKN180 M07/M18 Q1023', 'BGBW 071450Z 06005KT 9999 SCT160 BKN180 M08/M18 Q1023', 'BGBW 071350Z VRB01KT 9999 SCT170 BKN220 M08/M17 Q1024', 'BGBW 071250Z 24003KT 9999 SCT170 BKN200 M09/M18 Q1024', 'BGBW 071150Z 23004KT 170V280 9999 SCT220 BKN240 M09/M19 Q1024', 'BGBW 071050Z 07005KT 030V100 9999 FEW220 SCT240 M11/M20 Q1024', 'BGBW 070950Z 19003KT 9999 FEW240 M10/M18 Q1024', 'BGBW 070850Z AUTO VRB05KT 9999NDV FEW240/// M09/M18 Q1024', 'BGBW 070750Z AUTO 05011KT 9999NDV SCT240/// M08/M18 Q1023', 'BGBW 070650Z AUTO 03007KT 9999NDV NCD M10/M19 Q1023', 'BGBW 070550Z AUTO 06009KT 9999NDV NCD M08/M18 Q1024', 'BGBW 070450Z AUTO 25004KT 180V350 9999NDV NCD M09/M19 Q1024', 'BGBW 070350Z AUTO VRB04KT 9999NDV NCD M12/M20 Q1024', 'BGBW 070250Z AUTO VRB03KT 9999NDV NCD M13/M20 Q1024', 'BGBW 070150Z AUTO VRB02KT 9999NDV NCD M12/M20 Q1024', 'BGBW 070050Z AUTO 22003KT 9999NDV NCD M13/M21 Q1024', 'BGBW 062350Z AUTO VRB03KT 9999NDV FEW120/// M14/M23 Q1024', 'BGBW 062250Z AUTO VRB02KT 9999NDV NCD M15/M22 Q1023', 'BGBW 062150Z AUTO 06003KT 9999NDV NCD M15/M23 Q1023', 'BGBW 062050Z 06004KT 9999 FEW200 M16/M23 Q1023', 'BGBW 061950Z 09002KT 9999 FEW200 M15/M23 Q1023', 'BGBW 061850Z 05003KT 9999 SKC M16/M23 Q1022', 'BGBW 061750Z 06003KT 9999 SKC M16/M23 Q1022', 'BGBW 061650Z 07002KT 9999 SKC M14/M23 Q1022', 'BGBW 061550Z 04004KT 9999 SKC M17/M25 Q1022', 'BGBW 061450Z 06005KT 9999 SKC M17/M25 Q1022', 'BGBW 061350Z 05004KT 9999 SKC M18/M27 Q1021', 'BGBW 061250Z 05005KT 020V080 9999 SKC M19/M26 Q1021', 'BGBW 061150Z 07002KT 9999 SKC M19/M27 Q1020', 'BGBW 061050Z 05003KT 9999 SKC M19/M26 Q1019', 'BGBW 060950Z 08002KT 9999 SKC M18/M27 Q1019', 'BGBW 060850Z AUTO 05004KT 9999NDV ///110/// ///120/// M17/M26 Q1019', 'BGBW 060750Z AUTO 07004KT 9999NDV NCD M16/M25 Q1019', 'BGBW 060650Z AUTO 23004KT 9999NDV NCD M18/M27 Q1019', 'BGBW 060550Z AUTO 06003KT 9999NDV NCD M18/M27 Q1019', 'BGBW 060450Z AUTO 08001KT 9999NDV NCD M18/M26 Q1018', 'BGBW 060350Z AUTO 08002KT 9999NDV NCD M17/M26 Q1019', 'BGBW 060250Z AUTO 24002KT 9999NDV NCD M17/M26 Q1019', 'BGBW 060150Z AUTO 05003KT 9999NDV NCD M19/M27 Q1019', 'BGBW 060050Z AUTO 06003KT 9999NDV FEW120/// M18/M27 Q1019', 'BGBW 052350Z AUTO 09001KT 9999NDV NCD M17/M27 Q1020', 'BGBW 052250Z AUTO 11001KT 9999NDV NCD M17/M26 Q1019', 'BGBW 052150Z AUTO 05003KT 9999NDV NCD M18/M26 Q1019']","['2024-02-08 20:50:00', '2024-02-08 19:50:00', '2024-02-08 18:50:00', '2024-02-08 17:50:00', '2024-02-08 16:50:00', '2024-02-08 15:50:00', '2024-02-08 14:50:00', '2024-02-08 13:50:00', '2024-02-08 12:50:00', '2024-02-08 11:50:00', '2024-02-08 10:50:00', '2024-02-08 09:50:00', '2024-02-08 08:50:00', '2024-02-08 07:50:00', '2024-02-08 06:50:00', '2024-02-08 05:50:00', '2024-02-08 04:50:00', '2024-02-08 03:50:00', '2024-02-08 02:50:00', '2024-02-08 01:50:00', '2024-02-08 00:50:00', '2024-02-07 23:50:00', '2024-02-07 22:50:00', '2024-02-07 21:50:00', '2024-02-07 20:50:00', '2024-02-07 19:50:00', '2024-02-07 18:50:00', '2024-02-07 17:50:00', '2024-02-07 16:50:00', '2024-02-07 15:50:00', '2024-02-07 14:50:00', '2024-02-07 13:50:00', '2024-02-07 12:50:00', '2024-02-07 11:50:00', '2024-02-07 10:50:00', '2024-02-07 09:50:00', '2024-02-07 08:50:00', '2024-02-07 07:50:00', '2024-02-07 06:50:00', '2024-02-07 05:50:00', '2024-02-07 04:50:00', '2024-02-07 03:50:00', '2024-02-07 02:50:00', '2024-02-07 01:50:00', '2024-02-07 00:50:00', '2024-02-06 23:50:00', '2024-02-06 22:50:00', '2024-02-06 21:50:00', '2024-02-06 20:50:00', '2024-02-06 19:50:00', '2024-02-06 18:50:00', '2024-02-06 17:50:00', '2024-02-06 16:50:00', '2024-02-06 15:50:00', '2024-02-06 14:50:00', '2024-02-06 13:50:00', '2024-02-06 12:50:00', '2024-02-06 11:50:00', '2024-02-06 10:50:00', '2024-02-06 09:50:00', '2024-02-06 08:50:00', '2024-02-06 07:50:00', '2024-02-06 06:50:00', '2024-02-06 05:50:00', '2024-02-06 04:50:00', '2024-02-06 03:50:00', '2024-02-06 02:50:00', '2024-02-06 01:50:00', '2024-02-06 00:50:00', '2024-02-05 23:50:00', '2024-02-05 22:50:00', '2024-02-05 21:50:00']"
Grenada, Grenada Maurice Bishop International Airport (GND/TGPY) ,"['TGPY 082000Z 14017KT 9999 FEW021 29/24 Q1011 NOSIG', 'TGPY 081900Z 14015KT 9999 FEW021 29/24 Q1011 NOSIG', 'TGPY 081600Z 16015KT 9999 FEW018 30/24 Q1014 NOSIG', 'TGPY 081400Z 15014KT 9999 FEW018 29/24 Q1015 NOSIG', 'TGPY 081300Z 14014KT 9999 FEW018 29/24 Q1015 NOSIG', 'TGPY 081200Z 15014KT 9999 SCT018 28/24 Q1014 NOSIG', 'TGPY 081100Z 14013KT 9999 SCT018 28/24 Q1013 NOSIG', 'TGPY 081000Z 14016KT 9999 BKN019 28/24 Q1012 NOSIG', 'TGPY 080900Z 14016KT 9999 SCT019 28/24 Q1011 NOSIG', 'TGPY 080800Z 13017KT 9999 SCT019 28/24 Q1011 NOSIG', 'TGPY 080700Z 14019KT 9999 SCT019 28/25 Q1011 NOSIG', 'TGPY 080600Z 13019KT 9999 SCT019 28/25 Q1011 NOSIG', 'TGPY 080500Z 13017KT 9999 SCT019 28/25 Q1012 NOSIG', 'TGPY 080400Z 13018KT 9999 SCT020 28/25 Q1012 NOSIG', 'TGPY 080300Z 13016KT 9999 BKN020 28/25 Q1013 NOSIG', 'TGPY 080200Z 12012KT 9999 FEW020 28/26 Q1013 NOSIG', 'TGPY 080100Z 12013KT 9999 FEW020 28/25 Q1013 NOSIG', 'TGPY 080000Z 12014KT 9999 FEW019 28/26 Q1013 NOSIG', 'TGPY 072300Z 13014KT 9999 FEW019 28/26 Q1012 NOSIG', 'TGPY 072200Z 14013KT 9999 FEW019 SCT040 28/26 Q1012 NOSIG', 'TGPY 072100Z 14013KT 9999 FEW019 29/26 Q1011 NOSIG', 'TGPY 072000Z 14014KT 9999 FEW019 30/26 Q1011 NOSIG', 'TGPY 071900Z 14016KT 9999 SCT018 29/26 Q1012 NOSIG', 'TGPY 071800Z 14015KT 9999 SCT018 30/26 Q1012 NOSIG', 'TGPY 071700Z 14014KT 9999 SCT018 30/27 Q1013 NOSIG', 'TGPY 071600Z 14015KT 9999 SCT018 30/26 Q1014 NOSIG', 'TGPY 071500Z 14017KT 9999 FEW018 30/26 Q1014 NOSIG', 'TGPY 071400Z 14016KT 9999 SCT018 29/26 Q1014 NOSIG', 'TGPY 071300Z 14016KT 9999 FEW018 29/26 Q1014 NOSIG', 'TGPY 071200Z 14017KT 9999 FEW018 29/26 Q1013 NOSIG', 'TGPY 071100Z 14015KT 9999 FEW018 28/25 Q1013 NOSIG', 'TGPY 071000Z 15015KT 9999 FEW018 28/26 Q1012 NOSIG', 'TGPY 070900Z 15016KT 9999 FEW019 28/26 Q1011 NOSIG', 'TGPY 070800Z 15015KT 9999 FEW019 28/26 Q1011 NOSIG', 'TGPY 070700Z 14017KT 9999 FEW019 28/26 Q1011 NOSIG', 'TGPY 070600Z 15014KT 9999 FEW019 28/26 Q1011 NOSIG', 'TGPY 070500Z 14017KT 9999 FEW019 28/26 Q1012 NOSIG', 'TGPY 070400Z 13015KT 9999 FEW019 28/26 Q1012 NOSIG', 'TGPY 070300Z 13016KT 9999 FEW019 28/26 Q1012 NOSIG', 'TGPY 070200Z 13015KT 9999 FEW019 28/26 Q1012 NOSIG', 'TGPY 070100Z 13014KT 9999 FEW019 28/26 Q1012 NOSIG', 'TGPY 070000Z 13013KT 9999 FEW019 28/26 Q1011 NOSIG', 'TGPY 062300Z 13014KT 9999 FEW019 28/26 Q1011 NOSIG', 'TGPY 062200Z 14015KT 9999 FEW020 29/25 Q1011 NOSIG', 'TGPY 062100Z 15016KT 9999 FEW021 29/25 Q1011 NOSIG', 'TGPY 062000Z 14018KT 9999 FEW021 30/25 Q1010 NOSIG', 'TGPY 061900Z 14016KT 9999 FEW020 30/26 Q1011 NOSIG', 'TGPY 061800Z 15016KT 9999 FEW020 30/26 Q1011 NOSIG', 'TGPY 061700Z 14017KT 9999 FEW020 30/26 Q1012 NOSIG', 'TGPY 061600Z 15018KT 9999 FEW020 30/25 Q1013 NOSIG', 'TGPY 061500Z 15016KT 9999 SCT019 30/25 Q1013 NOSIG', 'TGPY 061400Z 15017KT 9999 FEW019 30/26 Q1013 NOSIG', 'TGPY 061300Z 14015KT 9999 FEW019 29/26 Q1013 NOSIG', 'TGPY 061200Z 13019KT 9999 FEW019 29/25 Q1012 NOSIG', 'TGPY 061100Z 14016KT 9999 FEW019 28/26 Q1011 NOSIG', 'TGPY 061000Z 14015KT 9999 FEW018 28/25 Q1010 NOSIG', 'TGPY 060900Z 14015KT 9999 FEW018 28/25 Q1010 NOSIG', 'TGPY 060800Z 14015KT 9999 FEW018 28/25 Q1009 NOSIG', 'TGPY 060700Z 14019KT 9999 FEW018 28/26 Q1009 NOSIG', 'TGPY 060600Z 14018KT 9999 FEW018 28/26 Q1010 NOSIG', 'TGPY 060500Z 14019KT 9999 FEW018 28/25 Q1010 NOSIG', 'TGPY 060400Z 14018KT 9999 FEW018 28/25 Q1011 NOSIG', 'TGPY 060300Z 15017KT 9999 FEW018 28/25 Q1011 NOSIG', 'TGPY 060200Z 15020KT 9999 FEW019 28/26 Q1011 NOSIG', 'TGPY 060100Z 14018KT 9999 FEW019 28/25 Q1010 NOSIG', 'TGPY 060000Z 14020KT 9999 FEW019 28/25 Q1009 NOSIG', 'TGPY 052300Z 13019KT 9999 FEW019 28/25 Q1009 NOSIG', 'TGPY 052200Z 15018KT 9999 FEW019 29/25 Q1009 NOSIG']","['2024-02-08 20:00:00', '2024-02-08 19:00:00', '2024-02-08 16:00:00', '2024-02-08 14:00:00', '2024-02-08 13:00:00', '2024-02-08 12:00:00', '2024-02-08 11:00:00', '2024-02-08 10:00:00', '2024-02-08 09:00:00', '2024-02-08 08:00:00', '2024-02-08 07:00:00', '2024-02-08 06:00:00', '2024-02-08 05:00:00', '2024-02-08 04:00:00', '2024-02-08 03:00:00', '2024-02-08 02:00:00', '2024-02-08 01:00:00', '2024-02-08 00:00:00', '2024-02-07 23:00:00', '2024-02-07 22:00:00', '2024-02-07 21:00:00', '2024-02-07 20:00:00', '2024-02-07 19:00:00', '2024-02-07 18:00:00', '2024-02-07 17:00:00', '2024-02-07 16:00:00', '2024-02-07 15:00:00', '2024-02-07 14:00:00', '2024-02-07 13:00:00', '2024-02-07 12:00:00', '2024-02-07 11:00:00', '2024-02-07 10:00:00', '2024-02-07 09:00:00', '2024-02-07 08:00:00', '2024-02-07 07:00:00', '2024-02-07 06:00:00', '2024-02-07 05:00:00', '2024-02-07 04:00:00', '2024-02-07 03:00:00', '2024-02-07 02:00:00', '2024-02-07 01:00:00', '2024-02-07 00:00:00', '2024-02-06 23:00:00', '2024-02-06 22:00:00', '2024-02-06 21:00:00', '2024-02-06 20:00:00', '2024-02-06 19:00:00', '2024-02-06 18:00:00', '2024-02-06 17:00:00', '2024-02-06 16:00:00', '2024-02-06 15:00:00', '2024-02-06 14:00:00', '2024-02-06 13:00:00', '2024-02-06 12:00:00', '2024-02-06 11:00:00', '2024-02-06 10:00:00', '2024-02-06 09:00:00', '2024-02-06 08:00:00', '2024-02-06 07:00:00', '2024-02-06 06:00:00', '2024-02-06 05:00:00', '2024-02-06 04:00:00', '2024-02-06 03:00:00', '2024-02-06 02:00:00', '2024-02-06 01:00:00', '2024-02-06 00:00:00', '2024-02-05 23:00:00', '2024-02-05 22:00:00']"
Guadeloupe, Pointe-a-Pitre International Airport (PTP/TFFR) ,"['TFFR 082100Z AUTO 03012KT 360V060 9999 BKN013/// BKN019/// BKN025/// ///CB 24/21 Q1014 TEMPO 34020G30KT 1400 TSRA', 'TFFR 082030Z AUTO 04010KT 9999 FEW015/// BKN026/// OVC032/// ///TCU 25/21 Q1014 TEMPO 34020G30KT 1400 TSRA SCT008 BKN012CB', 'TFFR 082000Z AUTO 03010KT 9999 OVC021 25/21 Q1014 TEMPO 34020G30KT 1400 TSRA SCT008 BKN012CB', 'TFFR 081930Z AUTO 03011KT 9999 OVC022 25/21 Q1014 TEMPO 34020G30KT 1400 TSRA SCT008 BKN012CB', 'TFFR 081900Z AUTO 02008KT 340V040 9999 BKN020 BKN028 BKN098 26/21 Q1014 TEMPO 34020G30KT 1400 TSRA SCT008 BKN012CB', 'TFFR 081830Z AUTO 35009KT 9999 BKN018 BKN024 OVC110 25/21 Q1014 TEMPO 34020G30KT 1400 TSRA SCT008 BKN012CB', 'TFFR 081800Z AUTO 34009KT 9999 BKN016 BKN025 OVC031 25/22 Q1014 TEMPO 34020G30KT 1400 TSRA SCT008 BKN012CB', 'TFFR 081730Z AUTO 36008KT 320V040 9999 SCT016 BKN023 OVC031 26/21 Q1014 TEMPO 34020G30KT 1400 TSRA SCT008 BKN012CB', 'TFFR 081700Z AUTO 36009KT 330V030 9999 BKN017 BKN024 OVC030 25/21 Q1014 TEMPO 34015G25KT 1400 TSRA SCT008 BKN012CB', 'TFFR 081630Z AUTO 35006KT 9999 OVC015 25/21 Q1015 TEMPO 34015G25KT 1400 TSRA SCT008 BKN012CB', 'TFFR 081600Z AUTO 34008KT 9999 BKN015 BKN023 OVC031 24/21 Q1016 TEMPO 34015G25KT 1400 TSRA SCT008 BKN012CB', 'TFFR 081530Z AUTO 34011KT 9999 BKN019 BKN028 BKN120 25/21 Q1016 TEMPO 34015G25KT 1400 TSRA SCT008 BKN012CB', 'TFFR 081500Z AUTO 35010KT 310V010 9999 BKN018 BKN027 OVC033 25/21 Q1016 TEMPO 34015G25KT 1400 TSRA SCT008 BKN012CB', 'TFFR 081430Z AUTO 34009KT 9999 BKN020/// BKN027/// OVC034/// ///TCU 25/21 Q1016 TEMPO 34015G25KT 1400 TSRA SCT008 BKN012CB', 'TFFR 081400Z AUTO 34009KT 9999 BKN015 OVC020 25/21 Q1016 TEMPO 34015G25KT 1400 TSRA SCT008 BKN012CB', 'TFFR 081330Z AUTO 33010KT 9999 FEW015/// BKN028/// BKN040/// ///CB 25/21 Q1016 TEMPO 34015G25KT 1400 TSRA SCT008 BKN012CB', 'TFFR 081300Z AUTO 32010KT 280V340 9999 BKN027/// BKN034/// OVC052/// ///CB 24/21 Q1015 TEMPO 34015G25KT 1400 TSRA SCT008 BKN012CB', 'TFFR 081230Z AUTO 30011KT 270V330 9999 FEW012/// BKN025/// OVC041/// ///CB 24/21 Q1015 TEMPO 34015G25KT 1400 TSRA SCT008 BKN012CB', 'TFFR 081200Z AUTO 31017KT 9999 OVC014/// ///CB 24/21 Q1015 TEMPO 2500 SHRA BECMG VRB03KT', 'TFFR 081130Z AUTO 32009KT 290V360 9999 FEW010/// BKN016/// OVC026/// ///TCU 25/23 Q1014 TEMPO 2500 SHRA SCT008 BKN014TCU', 'TFFR 081100Z AUTO 17006KT 130V210 9999 BKN027/// OVC066/// ///CB 27/24 Q1013 TEMPO 2500 SHRA SCT008 BKN014TCU', 'TFFR 081030Z AUTO 16009KT 9999 FEW030/// BKN066/// BKN220/// ///TCU 27/24 Q1013 TEMPO 2500 SHRA SCT008 BKN014TCU', 'TFFR 081000Z AUTO 16008KT CAVOK 27/24 Q1012 TEMPO 2500 SHRA SCT008 BKN014TCU', 'TFFR 080930Z AUTO 16009KT 9999 FEW018 SCT140 BKN250 27/24 Q1012 TEMPO 2500 SHRA SCT008 BKN014TCU', 'TFFR 080900Z AUTO 17009KT 140V200 9999 FEW017 SCT025 BKN150 27/24 Q1012 TEMPO 2500 SHRA SCT008 BKN014TCU', 'TFFR 080830Z AUTO 16011KT 9999 FEW020 SCT025 BKN250 27/24 Q1011 TEMPO 2500 SHRA SCT008 BKN014TCU', 'TFFR 080800Z AUTO 17011KT 140V200 9999 FEW021 SCT250 27/24 Q1011 TEMPO 3000 SHRA BKN020TCU', 'TFFR 080730Z AUTO 17012KT 9999 FEW014 27/24 Q1011 TEMPO 3000 SHRA BKN020TCU', 'TFFR 080700Z AUTO 16013KT 9999 SCT016 SCT023 27/24 Q1012 TEMPO 3000 SHRA BKN020TCU', 'TFFR 080630Z AUTO 16012KT 9999 SCT015 SCT020 27/25 Q1012 TEMPO 3000 SHRA BKN020TCU', 'TFFR 080600Z AUTO 16012KT 9999 FEW014 27/25 Q1012 TEMPO 3000 SHRA BKN020TCU', 'TFFR 080530Z AUTO 16012KT 9999 FEW013 27/24 Q1012 TEMPO 3000 SHRA BKN020TCU', 'TFFR 080500Z AUTO 16011KT CAVOK 27/24 Q1012 TEMPO 3000 SHRA BKN020TCU', 'TFFR 080430Z AUTO 16011KT CAVOK 27/25 Q1013 TEMPO 3000 SHRA BKN020TCU', 'TFFR 080400Z AUTO 16012KT CAVOK 27/25 Q1013 TEMPO 3000 SHRA BKN020TCU', 'TFFR 080330Z AUTO 16012KT 9999 FEW014 27/25 Q1013 TEMPO 3000 SHRA BKN020TCU', 'TFFR 080300Z AUTO 16013KT 9999 FEW014 27/24 Q1013 TEMPO 3000 SHRA BKN020TCU', 'TFFR 080230Z AUTO 16012KT 9999 BKN014 BKN029 27/25 Q1014 TEMPO 3000 SHRA BKN020TCU', 'TFFR 080130Z AUTO 16011KT 9999 BKN014 BKN025 OVC032 27/25 Q1013 BECMG SCT030', 'TFFR 080100Z AUTO 16010KT 120V190 9999 BKN015 OVC028 27/24 Q1013 NOSIG', 'TFFR 080030Z AUTO 15012KT 9999 SCT015 BKN028 27/25 Q1013 NOSIG', 'TFFR 080000Z AUTO 15013KT 9999 FEW014 27/25 Q1012 TEMPO 1500 TSRA SCT015CB', 'TFFR 072330Z AUTO 15016KT CAVOK 27/25 Q1012 TEMPO 1500 TSRA SCT015CB', 'TFFR 072300Z AUTO 15012KT 9999 BKN029 28/25 Q1012 TEMPO 1500 TSRA SCT015CB', 'TFFR 072230Z AUTO 15013KT 9999 OVC026 27/25 Q1012 TEMPO 1500 TSRA SCT015CB', 'TFFR 072200Z AUTO 16013KT 9999 SCT028 28/24 Q1012 TEMPO 3000 SHRA BKN020TCU BKN150', 'TFFR 072130Z AUTO 15015KT CAVOK 28/24 Q1011 TEMPO 3000 SHRA BKN020TCU BKN150', 'TFFR 072100Z AUTO 15018KT CAVOK 28/24 Q1011 TEMPO 3000 SHRA BKN020TCU BKN150', 'TFFR 072030Z AUTO 16013KT 120V180 9999 FEW016 29/24 Q1011 TEMPO 3000 SHRA BKN020TCU BKN150', 'TFFR 072000Z AUTO 15015KT 9999 FEW038 29/25 Q1011 TEMPO 3000 SHRA BKN020TCU BKN150', 'TFFR 071930Z AUTO 16014G25KT 130V190 CAVOK 29/25 Q1011 TEMPO 3000 SHRA BKN020TCU BKN150', 'TFFR 071900Z AUTO 16017KT 9999 FEW034 30/25 Q1011 TEMPO 18018G30KT', 'TFFR 071830Z AUTO 16015KT 9999 SCT038 30/25 Q1012 TEMPO 18018G30KT', 'TFFR 071800Z AUTO 16015KT 130V190 9999 BKN038 29/24 Q1012 TEMPO 18018G30KT', 'TFFR 071730Z AUTO 17017KT 130V190 9999 FEW023 30/25 Q1012 TEMPO 18018G30KT', 'TFFR 071700Z AUTO 16018KT 130V190 CAVOK 30/25 Q1012 TEMPO 18018G30KT', 'TFFR 071630Z AUTO 17018KT 140V200 9999 FEW020 BKN230 30/24 Q1013 TEMPO 18018G30KT', 'TFFR 071600Z AUTO 16019KT CAVOK 30/25 Q1013 TEMPO 18018G30KT', 'TFFR 071530Z AUTO 16017KT 9999 FEW020 30/25 Q1013 TEMPO 18018G30KT', 'TFFR 071500Z AUTO 17017KT 9999 FEW020 30/25 Q1014 TEMPO 18018G30KT', 'TFFR 071430Z AUTO 16015KT 9999 FEW019 30/25 Q1014 TEMPO 18018G30KT', 'TFFR 071400Z AUTO 17014KT 140V200 9999 FEW017 30/25 Q1014 TEMPO 18018G30KT', 'TFFR 071330Z AUTO 16016KT 130V190 9999 SCT016 29/25 Q1014 TEMPO 18018G30KT', 'TFFR 071300Z AUTO 16017KT 9999 FEW016 29/25 Q1014 TEMPO 16015G25KT', 'TFFR 071230Z AUTO 16015KT 130V190 CAVOK 28/25 Q1013 TEMPO 16015G25KT', 'TFFR 071200Z AUTO 15011KT 9999 FEW014 28/25 Q1013 TEMPO 16015G25KT', 'TFFR 071130Z AUTO 15013KT CAVOK 27/25 Q1013 TEMPO 16015G25KT', 'TFFR 071100Z AUTO 15011KT 120V180 CAVOK 27/25 Q1012 TEMPO 16015G25KT', 'TFFR 071030Z AUTO 15011KT 9999 FEW014 26/24 Q1012 TEMPO 16015G25KT', 'TFFR 071000Z AUTO 16011KT CAVOK 27/24 Q1012 TEMPO 16015G25KT', 'TFFR 070930Z AUTO 16011KT CAVOK 27/24 Q1011 TEMPO 16015G25KT', 'TFFR 070900Z AUTO 16009KT CAVOK 27/24 Q1011 TEMPO 16015G25KT', 'TFFR 070830Z AUTO 15011KT CAVOK 27/24 Q1011 TEMPO 16015G25KT', 'TFFR 070800Z AUTO 16011KT 9999 FEW015 27/25 Q1011 TEMPO 16015G25KT', 'TFFR 070730Z AUTO 16013KT 9999 FEW013 27/24 Q1011 TEMPO 16015G25KT', 'TFFR 070700Z AUTO 17013KT 9999 FEW011 27/25 Q1011 TEMPO 16015G25KT', 'TFFR 070630Z AUTO 16014KT CAVOK 27/25 Q1011 TEMPO 16015G25KT', 'TFFR 070600Z AUTO 15013KT CAVOK 27/25 Q1012 TEMPO 16015G25KT', 'TFFR 070530Z AUTO 16012KT 9999 FEW011 27/25 Q1012 TEMPO 16015G25KT', 'TFFR 070500Z AUTO 16012KT CAVOK 27/25 Q1012 TEMPO 16015G25KT', 'TFFR 070430Z AUTO 16013KT CAVOK 27/24 Q1012 TEMPO 16015G25KT', 'TFFR 070400Z AUTO 16012KT CAVOK 27/25 Q1013 TEMPO 16015G25KT', 'TFFR 070330Z AUTO 16011KT CAVOK 27/24 Q1013 TEMPO 16015G25KT', 'TFFR 070300Z AUTO 16011KT CAVOK 27/24 Q1013 TEMPO 16015G25KT', 'TFFR 070230Z AUTO 16011KT CAVOK 27/24 Q1013 TEMPO 16015G25KT', 'TFFR 070200Z AUTO 16010G26KT 020V190 CAVOK 27/24 Q1012 NOSIG', 'TFFR 070130Z AUTO 16013G29KT 110V180 CAVOK 27/25 Q1012 NOSIG', 'TFFR 070100Z AUTO 16017KT 9999 FEW025 27/25 Q1011 TEMPO 16015G25KT', 'TFFR 070030Z AUTO 16017KT CAVOK 27/24 Q1011 TEMPO 16015G25KT', 'TFFR 070000Z AUTO 16014KT 9999 FEW025 27/25 Q1011 BECMG 16015G25KT', 'TFFR 062330Z AUTO 16016KT 120V180 9999 BKN027 27/24 Q1011 BECMG 16015G25KT', 'TFFR 062300Z AUTO 16015KT 9999 SCT029 BKN036 BKN045 27/24 Q1011 BECMG 16015G25KT', 'TFFR 062230Z AUTO 16017KT 9999 FEW026 27/24 Q1010 BECMG 16015G25KT', 'TFFR 062200Z AUTO 17015KT 9999 SCT025 SCT030 BKN037 28/24 Q1010 BECMG 16015G25KT', 'TFFR 062130Z AUTO 17016KT 9999 SCT025 BKN032 BKN039 28/24 Q1010 BECMG 16015G25KT', 'TFFR 062100Z AUTO 16017KT 9999 BKN028 BKN038 28/24 Q1010 BECMG 16015G25KT', 'TFFR 062030Z AUTO 17018KT 9999 FEW019 BKN027 BKN035 28/24 Q1010 BECMG 16015G25KT', 'TFFR 062000Z AUTO 16019G30KT 9999 SCT034 29/24 Q1010 NOSIG', 'TFFR 061930Z AUTO 16018KT 9999 OVC032 29/24 Q1010 TEMPO 18018G35KT', 'TFFR 061900Z AUTO 17018KT 9999 BKN031 29/24 Q1010 TEMPO 18018G35KT', 'TFFR 061830Z AUTO 17017KT 9999 FEW030 30/24 Q1010 TEMPO 18018G35KT', 'TFFR 061800Z AUTO 16021G32KT CAVOK 30/25 Q1010 NOSIG', 'TFFR 061730Z AUTO 17020KT CAVOK 30/24 Q1011 TEMPO 18018G35KT', 'TFFR 061700Z AUTO 16019KT CAVOK 30/24 Q1011 TEMPO 18018G35KT', 'TFFR 061630Z AUTO 16020KT 9999 FEW016 30/24 Q1012 TEMPO 18018G35KT', 'TFFR 061600Z AUTO 16019KT CAVOK 30/25 Q1012 TEMPO 18018G35KT', 'TFFR 061530Z AUTO 16021KT CAVOK 30/25 Q1012 TEMPO 18018G35KT', 'TFFR 061500Z AUTO 16019KT CAVOK 30/24 Q1012 TEMPO 18018G35KT', 'TFFR 061430Z AUTO 16022KT CAVOK 30/24 Q1012 TEMPO 18018G35KT', 'TFFR 061400Z AUTO 16021KT 9999 FEW017 29/25 Q1012 TEMPO 18018G35KT', 'TFFR 061330Z AUTO 16021G33KT 9999 FEW017 29/25 Q1012 NOSIG', 'TFFR 061300Z AUTO 16019KT CAVOK 29/25 Q1012 BECMG 16015G25KT', 'TFFR 061230Z AUTO 16018KT 130V190 9999 FEW016 28/24 Q1012 BECMG 16015G25KT', 'TFFR 061200Z AUTO 16017KT 9999 FEW016 28/24 Q1012 BECMG 16015G25KT', 'TFFR 061130Z AUTO 16014G25KT 9999 SCT017 27/24 Q1011 BECMG 18018G35KT', 'TFFR 061100Z AUTO 16013KT 9999 BKN017 BKN023 27/24 Q1011 BECMG 18018G35KT', 'TFFR 061030Z AUTO 16012KT 9999 FEW018 27/24 Q1011 BECMG 18018G35KT', 'TFFR 061000Z AUTO 16013KT 9999 FEW017 27/24 Q1010 BECMG 18018G35KT', 'TFFR 060930Z AUTO 16013KT 9999 BKN017 27/24 Q1010 BECMG 18018G35KT', 'TFFR 060900Z AUTO 16011KT 9999 FEW016 27/24 Q1009 NOSIG', 'TFFR 060830Z AUTO 16011KT 9999 FEW014 27/24 Q1009 NOSIG', 'TFFR 060800Z AUTO 16013KT 9999 FEW018 27/24 Q1009 NOSIG', 'TFFR 060730Z AUTO 16013KT 9999 FEW019 27/24 Q1009 NOSIG', 'TFFR 060700Z AUTO 16012KT 9999 SCT018 27/24 Q1009 NOSIG', 'TFFR 060630Z AUTO 15013KT 9999 FEW018 27/24 Q1009 NOSIG', 'TFFR 060600Z AUTO 15013KT 9999 FEW018 27/24 Q1010 NOSIG', 'TFFR 060530Z AUTO 15011KT 110V180 9999 SCT018 27/24 Q1010 NOSIG', 'TFFR 060500Z AUTO 15010KT 9999 FEW019 27/24 Q1010 NOSIG', 'TFFR 060430Z AUTO 15011KT CAVOK 27/24 Q1010 NOSIG', 'TFFR 060400Z AUTO 15011KT 9999 FEW016 27/24 Q1011 NOSIG', 'TFFR 060330Z AUTO 16011KT 130V190 9999 FEW015 27/24 Q1011 NOSIG', 'TFFR 060300Z AUTO 15009KT 120V180 9999 FEW015 27/24 Q1011 NOSIG', 'TFFR 060230Z AUTO 15010KT 120V190 CAVOK 27/24 Q1011 NOSIG', 'TFFR 060200Z AUTO 16011KT 9999 FEW017 27/24 Q1011 NOSIG', 'TFFR 060130Z AUTO 16010KT 9999 SCT029 27/24 Q1011 NOSIG', 'TFFR 060100Z AUTO 15010KT 130V190 9999 FEW016 OVC027 27/24 Q1011 NOSIG', 'TFFR 060030Z AUTO 15010KT 9999 OVC027 27/24 Q1010 NOSIG', 'TFFR 060000Z AUTO 15011KT 9999 BKN027 27/24 Q1010 NOSIG', 'TFFR 052330Z AUTO 15010KT 9999 FEW025 27/23 Q1010 NOSIG', 'TFFR 052300Z AUTO 15011KT 130V190 CAVOK 27/23 Q1009 NOSIG', 'TFFR 052230Z AUTO 16011KT 120V200 CAVOK 27/23 Q1009 NOSIG', 'TFFR 052200Z AUTO 16011KT CAVOK 27/23 Q1009 TEMPO 16020G30KT', 'TFFR 052130Z AUTO 16012KT CAVOK 28/24 Q1009 TEMPO 16020G30KT']","['2024-02-08 21:00:00', '2024-02-08 20:30:00', '2024-02-08 20:00:00', '2024-02-08 19:30:00', '2024-02-08 19:00:00', '2024-02-08 18:30:00', '2024-02-08 18:00:00', '2024-02-08 17:30:00', '2024-02-08 17:00:00', '2024-02-08 16:30:00', '2024-02-08 16:00:00', '2024-02-08 15:30:00', '2024-02-08 15:00:00', '2024-02-08 14:30:00', '2024-02-08 14:00:00', '2024-02-08 13:30:00', '2024-02-08 13:00:00', '2024-02-08 12:30:00', '2024-02-08 12:00:00', '2024-02-08 11:30:00', '2024-02-08 11:00:00', '2024-02-08 10:30:00', '2024-02-08 10:00:00', '2024-02-08 09:30:00', '2024-02-08 09:00:00', '2024-02-08 08:30:00', '2024-02-08 08:00:00', '2024-02-08 07:30:00', '2024-02-08 07:00:00', '2024-02-08 06:30:00', '2024-02-08 06:00:00', '2024-02-08 05:30:00', '2024-02-08 05:00:00', '2024-02-08 04:30:00', '2024-02-08 04:00:00', '2024-02-08 03:30:00', '2024-02-08 03:00:00', '2024-02-08 02:30:00', '2024-02-08 01:30:00', '2024-02-08 01:00:00', '2024-02-08 00:30:00', '2024-02-08 00:00:00', '2024-02-07 23:30:00', '2024-02-07 23:00:00', '2024-02-07 22:30:00', '2024-02-07 22:00:00', '2024-02-07 21:30:00', '2024-02-07 21:00:00', '2024-02-07 20:30:00', '2024-02-07 20:00:00', '2024-02-07 19:30:00', '2024-02-07 19:00:00', '2024-02-07 18:30:00', '2024-02-07 18:00:00', '2024-02-07 17:30:00', '2024-02-07 17:00:00', '2024-02-07 16:30:00', '2024-02-07 16:00:00', '2024-02-07 15:30:00', '2024-02-07 15:00:00', '2024-02-07 14:30:00', '2024-02-07 14:00:00', '2024-02-07 13:30:00', '2024-02-07 13:00:00', '2024-02-07 12:30:00', '2024-02-07 12:00:00', '2024-02-07 11:30:00', '2024-02-07 11:00:00', '2024-02-07 10:30:00', '2024-02-07 10:00:00', '2024-02-07 09:30:00', '2024-02-07 09:00:00', '2024-02-07 08:30:00', '2024-02-07 08:00:00', '2024-02-07 07:30:00', '2024-02-07 07:00:00', '2024-02-07 06:30:00', '2024-02-07 06:00:00', '2024-02-07 05:30:00', '2024-02-07 05:00:00', '2024-02-07 04:30:00', '2024-02-07 04:00:00', '2024-02-07 03:30:00', '2024-02-07 03:00:00', '2024-02-07 02:30:00', '2024-02-07 02:00:00', '2024-02-07 01:30:00', '2024-02-07 01:00:00', '2024-02-07 00:30:00', '2024-02-07 00:00:00', '2024-02-06 23:30:00', '2024-02-06 23:00:00', '2024-02-06 22:30:00', '2024-02-06 22:00:00', '2024-02-06 21:30:00', '2024-02-06 21:00:00', '2024-02-06 20:30:00', '2024-02-06 20:00:00', '2024-02-06 19:30:00', '2024-02-06 19:00:00', '2024-02-06 18:30:00', '2024-02-06 18:00:00', '2024-02-06 17:30:00', '2024-02-06 17:00:00', '2024-02-06 16:30:00', '2024-02-06 16:00:00', '2024-02-06 15:30:00', '2024-02-06 15:00:00', '2024-02-06 14:30:00', '2024-02-06 14:00:00', '2024-02-06 13:30:00', '2024-02-06 13:00:00', '2024-02-06 12:30:00', '2024-02-06 12:00:00', '2024-02-06 11:30:00', '2024-02-06 11:00:00', '2024-02-06 10:30:00', '2024-02-06 10:00:00', '2024-02-06 09:30:00', '2024-02-06 09:00:00', '2024-02-06 08:30:00', '2024-02-06 08:00:00', '2024-02-06 07:30:00', '2024-02-06 07:00:00', '2024-02-06 06:30:00', '2024-02-06 06:00:00', '2024-02-06 05:30:00', '2024-02-06 05:00:00', '2024-02-06 04:30:00', '2024-02-06 04:00:00', '2024-02-06 03:30:00', '2024-02-06 03:00:00', '2024-02-06 02:30:00', '2024-02-06 02:00:00', '2024-02-06 01:30:00', '2024-02-06 01:00:00', '2024-02-06 00:30:00', '2024-02-06 00:00:00', '2024-02-05 23:30:00', '2024-02-05 23:00:00', '2024-02-05 22:30:00', '2024-02-05 22:00:00', '2024-02-05 21:30:00']"
Guam, Guam Antonio B. Won Pat International Airport (GUM/PGUM) ,"['PGUM 082054Z 08009KT 10SM CLR 26/20 A3002 RMK AO2 SLP159 T02560200 53017 \x03', 'PGUM 081954Z 07009KT 10SM CLR 26/19 A2999 RMK AO2 SLP149 T02560194 \x03', 'PGUM 081854Z 08010KT 10SM FEW028 FEW034 SCT045 26/20 A2998 RMK AO2 SLP143 T02610200 \x03', 'PGUM 081754Z COR 07009KT 10SM FEW028 26/20 A2997 RMK AO2 SLP141 T02560200 10261 20256 58010 \x03', 'PGUM 081654Z 07014KT 10SM FEW042 26/19 A2998 RMK AO2 SLP144 T02610194 \x03', 'PGUM 081554Z 06011KT 10SM SCT037 BKN044 26/19 A2999 RMK AO2 SLP149 T02560194 \x03', 'PGUM 081454Z 07009KT 10SM SCT042 26/19 A3000 RMK AO2 SLP151 T02610194 50002 \x03', 'PGUM 081354Z 07010KT 10SM BKN034 26/19 A3001 RMK AO2 SLP155 T02610194 403110217 \x03', 'PGUM 081254Z 06010KT 10SM FEW035 26/19 A3000 RMK AO2 SLP152 T02610194 \x03', 'PGUM 081154Z 06009KT 10SM FEW031 26/19 A3000 RMK AO2 SLP149 T02610194 10294 20261 51015 \x03', 'PGUM 081054Z 07010KT 10SM FEW033 26/19 A2999 RMK AO2 SLP146 T02610194 \x03', 'PGUM 080954Z 07011KT 10SM FEW035 27/19 A2997 RMK AO2 SLP142 T02670194 \x03', 'PGUM 080854Z 06008KT 10SM FEW021 27/19 A2995 RMK AO2 SLP135 T02670194 53013 \x03', 'PGUM 080754Z 08012KT 10SM FEW025 28/20 A2994 RMK AO2 SLP130 T02780200 \x03', 'PGUM 080654Z COR 07012G21KT 10SM FEW025 29/20 A2992 RMK AO2 SLP125 T02890200 \x03', 'PGUM 080554Z 07015KT 10SM FEW033 SCT045 29/20 A2991 RMK AO2 SLP122 T02890200 10311 20289 56010 \x03', 'PGUM 080454Z 08014KT 10SM FEW035 SCT043 30/19 A2991 RMK AO2 SLP121 T03000189 \x03', 'PGUM 080354Z 07013KT 10SM FEW041 29/18 A2993 RMK AO2 SLP126 T02940183 \x03', 'PGUM 080254Z 07015G23KT 10SM FEW040 31/18 A2995 RMK AO2 SLP132 T03060183 58018 \x03', 'PGUM 080154Z 06013KT 10SM SCT038 SCT047 31/19 A2997 RMK AO2 SLP139 T03110194 \x03', 'PGUM 080054Z 05015G20KT 10SM CLR 29/19 A2999 RMK AO2 SLP146 T02940189 \x03', 'PGUM 072354Z COR 05014G20KT 10SM FEW028 29/18 A3000 RMK AO2 SLP150 T02940178 10294 20217 51012 \x03', 'PGUM 072254Z 05014KT 10SM FEW028 28/19 A2999 RMK AO2 SLP149 T02780194 \x03', 'PGUM 072154Z 05006KT 10SM FEW028 26/19 A2998 RMK AO2 SLP144 T02560189 \x03', 'PGUM 072054Z 06006KT 10SM FEW028 23/19 A2996 RMK AO2 SLP139 T02330189 53011 \x03', 'PGUM 071954Z 05007KT 10SM CLR 22/18 A2995 RMK AO2 SLP134 T02220183 \x03', 'PGUM 071854Z 04008KT 10SM CLR 23/18 A2993 RMK AO2 SLP129 T02280183 \x03', 'PGUM 071754Z 05008KT 10SM CLR 22/19 A2993 RMK AO2 SLP128 T02220189 10256 20222 58010 \x03', 'PGUM 071654Z 05007KT 10SM CLR 23/19 A2994 RMK AO2 SLP133 T02330189 \x03', 'PGUM 071554Z 05006KT 10SM FEW036 FEW049 24/19 A2996 RMK AO2 SLP136 T02390189 \x03', 'PGUM 071454Z 06008KT 10SM FEW045 26/19 A2996 RMK AO2 SLP138 T02560189 50002 \x03', 'PGUM 071354Z 07010KT 10SM FEW031 BKN044 26/19 A2996 RMK AO2 SLP138 T02560194 403000228 \x03', 'PGUM 071254Z 06007KT 10SM CLR 25/19 A2997 RMK AO2 SLP139 T02500194 \x03', 'PGUM 071154Z 06008KT 10SM SCT045 26/20 A2996 RMK AO2 SLP136 T02560200 10278 20256 53019 \x03', 'PGUM 071129Z 06008KT 10SM SCT027 BKN035 BKN046 26/21 A2995 RMK AO2 T02610206 \x03', 'PGUM 071054Z 05008KT 10SM FEW025 SCT043 26/21 A2993 RMK AO2 SLP128 T02610206 \x03', 'PGUM 070954Z 05009KT 10SM CLR 26/19 A2991 RMK AO2 SLP122 T02560194 \x03', 'PGUM 070854Z 04010KT 10SM CLR 26/19 A2990 RMK AO2 SLP118 T02610189 51009 \x03', 'PGUM 070754Z 04013G19KT 10SM FEW045 27/19 A2989 RMK AO2 SLP116 T02670194 \x03', 'PGUM 070654Z 05016G23KT 10SM FEW029 FEW036 BKN045 27/20 A2988 RMK AO2 SLP112 T02720200 \x03', 'PGUM 070554Z 04017KT 10SM SCT032 SCT049 28/20 A2987 RMK AO2 SLP108 T02780200 10300 20278 56019 \x03', 'PGUM 070454Z 05014KT 10SM SCT028 SCT034 29/20 A2988 RMK AO2 SLP112 T02890200 \x03', 'PGUM 070354Z COR 05011G20KT 10SM SCT037 29/19 A2991 RMK AO2 SLP118 T02890194 \x03', 'PGUM 070254Z 05014G20KT 10SM FEW030 FEW040 29/19 A2993 RMK AO2 SLP126 T02940194 58023 \x03', 'PGUM 070154Z 06015KT 10SM FEW032 FEW039 SCT055 29/21 A2995 RMK AO2 SLP135 T02940206 \x03', 'PGUM 070054Z 06016G22KT 10SM SCT032 29/20 A2998 RMK AO2 SLP143 T02940200 \x03', 'PGUM 062354Z 04015KT 10SM BKN055 28/21 A3000 RMK AO2 SLP150 T02830206 10283 20233 51013 \x03', 'PGUM 062254Z 04009KT 10SM FEW050 27/21 A2999 RMK AO2 SLP149 T02720211 \x03', 'PGUM 062154Z 04006KT 10SM FEW050 25/21 A2998 RMK AO2 SLP145 T02500206 \x03', 'PGUM 062054Z 04005KT 10SM CLR 23/20 A2996 RMK AO2 SLP138 T02330200 53017 \x03', 'PGUM 061954Z 05006KT 10SM CLR 23/20 A2993 RMK AO2 SLP129 T02330200 \x03', 'PGUM 061854Z 05004KT 10SM SCT048 23/21 A2991 RMK AO2 SLP122 T02330206 \x03', 'PGUM 061754Z 03008KT 10SM CLR 24/21 A2991 RMK AO2 SLP119 T02390211 10244 20228 56018 \x03', 'PGUM 061654Z 05006KT 10SM CLR 23/20 A2992 RMK AO2 SLP124 T02330200 \x03', 'PGUM 061554Z 05004KT 10SM CLR 24/21 A2994 RMK AO2 SLP130 T02390206 \x03', 'PGUM 061454Z 05006KT 10SM CLR 24/20 A2996 RMK AO2 SLP138 T02390200 58005 \x03', 'PGUM 061354Z 06007KT 10SM CLR 24/21 A2997 RMK AO2 SLP141 T02390206 403060233 \x03', 'PGUM 061254Z 05005KT 10SM CLR 23/20 A2997 RMK AO2 SLP141 T02330200 \x03', 'PGUM 061154Z 05005KT 10SM CLR 24/20 A2998 RMK AO2 SLP143 T02390200 10300 20239 51010 \x03', 'PGUM 061054Z 05006KT 10SM CLR 24/20 A2998 RMK AO2 SLP143 T02440200 \x03', 'PGUM 060954Z 05007KT 10SM CLR 25/20 A2996 RMK AO2 SLP140 T02500200 \x03', 'PGUM 060854Z 06007KT 10SM CLR 26/19 A2995 RMK AO2 SLP133 T02610194 51010 \x03', 'PGUM 060754Z 06009KT 10SM CLR 27/20 A2994 RMK AO2 SLP129 T02720200 \x03', 'PGUM 060654Z 07011KT 10SM CLR 28/21 A2993 RMK AO2 SLP126 T02830206 \x03', 'PGUM 060554Z 05013KT 10SM SCT034 SCT043 29/20 A2992 RMK AO2 SLP122 T02940200 10306 20283 56018 \x03', 'PGUM 060454Z COR 05013G19KT 10SM SCT032 BKN045 29/20 A2992 RMK AO2 SLP123 T02940200 \x03', 'PGUM 060354Z 05012KT 10SM SCT034 BKN045 31/21 A2994 RMK AO2 SLP131 T03060206 \x03', 'PGUM 060254Z COR 05013G19KT 10SM SCT040 BKN049 OVC055 29/19 A2997 RMK AO2 SLP140 T02940194 58018 \x03', 'PGUM 060154Z 08013KT 10SM BKN039 29/20 A2999 RMK AO2 SLP147 T02940200 \x03', 'PGUM 060054Z 07018KT 10SM SCT034 28/20 A3002 RMK AO2 SLP156 T02830200 \x03', 'PGUM 052354Z 06017G23KT 10SM FEW032 28/20 A3002 RMK AO2 SLP158 T02830200 10289 20244 51013 \x03', 'PGUM 052254Z 07014G23KT 10SM FEW024 FEW029 SCT050 28/21 A3002 RMK AO2 SLP157 T02830211 \x03', 'PGUM 052154Z 04011KT 10SM BKN050 27/22 A3000 RMK AO2 SLP152 T02670217 \x03']","['2024-02-08 20:54:00', '2024-02-08 19:54:00', '2024-02-08 18:54:00', '2024-02-08 17:54:00', '2024-02-08 16:54:00', '2024-02-08 15:54:00', '2024-02-08 14:54:00', '2024-02-08 13:54:00', '2024-02-08 12:54:00', '2024-02-08 11:54:00', '2024-02-08 10:54:00', '2024-02-08 09:54:00', '2024-02-08 08:54:00', '2024-02-08 07:54:00', '2024-02-08 06:54:00', '2024-02-08 05:54:00', '2024-02-08 04:54:00', '2024-02-08 03:54:00', '2024-02-08 02:54:00', '2024-02-08 01:54:00', '2024-02-08 00:54:00', '2024-02-07 23:54:00', '2024-02-07 22:54:00', '2024-02-07 21:54:00', '2024-02-07 20:54:00', '2024-02-07 19:54:00', '2024-02-07 18:54:00', '2024-02-07 17:54:00', '2024-02-07 16:54:00', '2024-02-07 15:54:00', '2024-02-07 14:54:00', '2024-02-07 13:54:00', '2024-02-07 12:54:00', '2024-02-07 11:54:00', '2024-02-07 11:29:00', '2024-02-07 10:54:00', '2024-02-07 09:54:00', '2024-02-07 08:54:00', '2024-02-07 07:54:00', '2024-02-07 06:54:00', '2024-02-07 05:54:00', '2024-02-07 04:54:00', '2024-02-07 03:54:00', '2024-02-07 02:54:00', '2024-02-07 01:54:00', '2024-02-07 00:54:00', '2024-02-06 23:54:00', '2024-02-06 22:54:00', '2024-02-06 21:54:00', '2024-02-06 20:54:00', '2024-02-06 19:54:00', '2024-02-06 18:54:00', '2024-02-06 17:54:00', '2024-02-06 16:54:00', '2024-02-06 15:54:00', '2024-02-06 14:54:00', '2024-02-06 13:54:00', '2024-02-06 12:54:00', '2024-02-06 11:54:00', '2024-02-06 10:54:00', '2024-02-06 09:54:00', '2024-02-06 08:54:00', '2024-02-06 07:54:00', '2024-02-06 06:54:00', '2024-02-06 05:54:00', '2024-02-06 04:54:00', '2024-02-06 03:54:00', '2024-02-06 02:54:00', '2024-02-06 01:54:00', '2024-02-06 00:54:00', '2024-02-05 23:54:00', '2024-02-05 22:54:00', '2024-02-05 21:54:00']"
Guatemala, Flores Mundo Maya International Airport (FRS/MGMM) ,"['MGMM 082100Z 09010KT 9999 SCT020 28/20 Q1015 A2997', 'MGMM 082000Z 08008KT 9999 SCT020 28/20 Q1015 A2997', 'MGMM 081900Z 13006KT 9999 FEW020 30/20 Q1016 A3000', 'MGMM 081800Z 08008KT 9999 FEW020 28/19 Q1017 A3003', 'MGMM 081700Z 13006KT CAVOK 27/18 Q1018 A3006', 'MGMM 081600Z 07006KT CAVOK 25/19 Q1018 A3006', 'MGMM 081500Z 10004KT CAVOK 21/18 Q1018 A3006', 'MGMM 081400Z 00000KT CAVOK 17/15 Q1018 A3006', 'MGMM 081300Z 00000KT CAVOK 12/12 Q1018 A3006', 'MGMM 081300Z 00000KT CAVOK 12/12 Q1018 A3006', 'MGMM 081200Z 00000KT CAVOK 12/12 Q1017 A3003', 'MGMM 081200Z 00000KT CAVOK 12/12 Q1017 A3003', 'MGMM 081100Z 00000KT CAVOK 13/12 Q1017 A3003', 'MGMM 081000Z 00000KT CAVOK 13/12 Q1017 A3003', 'MGMM 080900Z 00000KT CAVOK 19/12 Q1017 A3003', 'MGMM 080700Z 00000KT CAVOK 14/12 Q1018 A3006', 'MGMM 080600Z 00000KT CAVOK 14/12 Q1018 A3006', 'MGMM 080500Z 00000KT CAVOK 15/14 Q1019 A3009', 'MGMM 080400Z 00000KT CAVOK 15/14 Q1019 A3009', 'MGMM 080300Z 00000KT CAVOK 16/15 Q1019 A3009', 'MGMM 080200Z 00000KT CAVOK 17/15 Q1018 A3006', 'MGMM 080100Z 00000KT CAVOK 19/17 Q1017 A3003', 'MGMM 080000Z 00000KT CAVOK 26/18 Q1017 A3003', 'MGMM 080000Z 00000KT CAVOK 26/18 Q1017 A3003', 'MGMM 072300Z 00000KT CAVOK 27/16 Q1017 A3003', 'MGMM 072200Z 33004KT 9999 FEW020 27/16 Q1017 A3003', 'MGMM 072100Z 00000KT 9999 SCT020 27/16 Q1018 A3006', 'MGMM 072100Z 00000KT 9999 SCT020 27/16 Q1018 A3006', 'MGMM 072000Z 32004KT 9999 SCT020 27/16 Q1019 A3009', 'MGMM 072000Z 32004KT 9999 SCT020 27/16 Q1019 A3009', 'MGMM 071900Z 32004KT 9999 BKN020 26/15 Q1019 A3009', 'MGMM 071900Z 32004KT 9999 BKN020 26/15 Q1019 A3009', 'MGMM 071800Z 00000KT 9999 SCT018 26/15 Q1021 A3015', 'MGMM 071800Z 00000KT 9999 SCT018 26/15 Q1021 A3015', 'MGMM 071700Z 03004KT 9999 FEW016 24/15 Q1022 A3018', 'MGMM 071700Z 03004KT 9999 FEW016 24/15 Q1022 A3018', 'MGMM 071600Z 08006KT CAVOK 23/16 Q1022 A3018', 'MGMM 071500Z 10004KT CAVOK 20/15 Q1022 A3018', 'MGMM 071400Z 00000KT 9999 FEW004 17/15 Q1021 A3015', 'MGMM 071400Z 00000KT 9999 FEW004 17/15 Q1021 A3015', 'MGMM 071300Z 00000KT 9999 FEW004 13/13 Q1021 A3015 RE MTN N CUB/CL', 'MGMM 071205Z 14004KT 1000 E BR BKN002 SCT090', 'MGMM 071200Z 00000KT CAVOK 13/13 Q1020 A3012 FEW090', 'MGMM 071100Z 00000KT CAVOK 21/21 Q1020 A3012', 'MGMM 071000Z 00000KT CAVOK 15/15 Q1020 A3012', 'MGMM 070900Z 00000KT CAVOK 16/15 Q1020 A3012', 'MGMM 070800Z 00000KT 9999 SCT020 16/15 Q1020 A3012', 'MGMM 070700Z 00000KT 9999 SCT020 16/15 Q1020 A3012', 'MGMM 070600Z 00000KT CAVOK 16/15 Q1020 A3012', 'MGMM 070500Z 00000KT CAVOK 18/16 Q1020 A3012', 'MGMM 070400Z 00000KT CAVOK 20/16 Q1020 A3012', 'MGMM 070300Z 30006KT 9999 BKN020 19/16 Q1020 A3012', 'MGMM 070200Z 00000KT 9999 BKN020 18/17 Q1019 A3009', 'MGMM 070100Z 00000KT CAVOK 18/17 Q1019 A3009 SCT090', 'MGMM 070000Z 32004KT CAVOK 21/17 Q1018 A3006 FEW090', 'MGMM 062300Z 28006KT CAVOK 22/17 Q1017 A3003 SCT090', 'MGMM 062200Z 27008KT CAVOK 23/17 Q1017 A3003 BKN070', 'MGMM 062100Z 32006KT CAVOK 23/17 Q1017 A3006 BKN070', 'MGMM 062000Z 34004KT 9999 FEW026 BKN080 23/16 Q1018 A3006', 'MGMM 061900Z 32004KT CAVOK 22/17 Q1019 A3009 BKN080', 'MGMM 061800Z 00000KT 9999 FEW030 BKN070 20/17 Q1020 A3012 RERA', 'MGMM 061725Z 04004KT 9999 SCT026 BKN040', 'MGMM 061700Z 28008KT 9999 STC028 OVC040 21/15 Q1021 A3015', 'MGMM 061600Z 28006KT 9999 SCT024 BKN070 21/15 Q1021 A3015', 'MGMM 061525Z 29010KT 9999 BKN024 SCT070', 'MGMM 061500Z 32006KT CAVOK 21/15 Q1021 A3015 BKN070 SCT200', 'MGMM 061400Z 00000KT 9999 BKN012 18/15 Q1020 A3012', 'MGMM 061400Z 00000KT 9999 BKN012 18/15 Q1020 A3012', 'MGMM 061300Z 27006KT 9000 BKN012 18/15 Q1020 A3012 BR', 'MGMM 061225Z 27006KT 9000 BKN012 SCT090 BR', 'MGMM 061200Z 27006KT 9999 SCT012 BKN100 17/15 Q1019 A3009', 'MGMM 061100Z 27004KT 9999 BKN012 17/15 Q1018 A3006', 'MGMM 061000Z 27010KT CAVOK 18/15 Q1017 A3003', 'MGMM 060900Z 27010KT CAVOK 18/15 Q1017 A3003', 'MGMM 060800Z 30010KT CAVOK 18/15 Q1017 A3003', 'MGMM 060700Z 30010KT CAVOK 18/15 Q1017 A3003', 'MGMM 060600Z 30006KT CAVOK 20/17 Q1017 A3003', 'MGMM 060500Z 30006KT CAVOK 20/17 Q1017 A3003', 'MGMM 060400Z 30006KT CAVOK 23/17 Q1017 A3003', 'MGMM 060300Z 30010KT CAVOK 23/17 Q1017 A3003', 'MGMM 060200Z 30010KT CAVOK 23/17 Q1016 A3000', 'MGMM 060100Z 30010KT CAVOK 24/18 Q1015 A2997', 'MGMM 060000Z 30010KT CAVOK 25/15 Q1013 A2991', 'MGMM 052300Z 30010KT CAVOK 27/14 Q1013 A2991', 'MGMM 052200Z 36010KT 9999 SCT020 26/15 Q1013 A2991', 'MGMM 052112Z 32012G24KT 9999 SCT020']","['2024-02-08 21:00:00', '2024-02-08 20:00:00', '2024-02-08 19:00:00', '2024-02-08 18:00:00', '2024-02-08 17:00:00', '2024-02-08 16:00:00', '2024-02-08 15:00:00', '2024-02-08 14:00:00', '2024-02-08 13:00:00', '2024-02-08 12:56:00', '2024-02-08 12:00:00', '2024-02-08 11:58:00', '2024-02-08 11:00:00', '2024-02-08 10:00:00', '2024-02-08 09:00:00', '2024-02-08 07:00:00', '2024-02-08 06:00:00', '2024-02-08 05:00:00', '2024-02-08 04:00:00', '2024-02-08 03:00:00', '2024-02-08 01:59:00', '2024-02-08 01:00:00', '2024-02-08 00:00:00', '2024-02-07 23:51:00', '2024-02-07 23:00:00', '2024-02-07 22:00:00', '2024-02-07 21:00:00', '2024-02-07 20:52:00', '2024-02-07 20:00:00', '2024-02-07 19:57:00', '2024-02-07 19:00:00', '2024-02-07 18:54:00', '2024-02-07 18:00:00', '2024-02-07 17:53:00', '2024-02-07 17:00:00', '2024-02-07 16:57:00', '2024-02-07 16:00:00', '2024-02-07 15:00:00', '2024-02-07 14:00:00', '2024-02-07 13:56:00', '2024-02-07 13:00:00', '2024-02-07 12:05:00', '2024-02-07 11:54:00', '2024-02-07 11:00:00', '2024-02-07 10:00:00', '2024-02-07 09:00:00', '2024-02-07 08:00:00', '2024-02-07 07:00:00', '2024-02-07 06:00:00', '2024-02-07 05:00:00', '2024-02-07 04:00:00', '2024-02-07 03:00:00', '2024-02-07 02:00:00', '2024-02-07 01:00:00', '2024-02-07 00:00:00', '2024-02-06 23:00:00', '2024-02-06 22:00:00', '2024-02-06 21:00:00', '2024-02-06 20:00:00', '2024-02-06 19:00:00', '2024-02-06 18:00:00', '2024-02-06 17:25:00', '2024-02-06 17:00:00', '2024-02-06 16:00:00', '2024-02-06 15:25:00', '2024-02-06 15:00:00', '2024-02-06 14:00:00', '2024-02-06 13:57:00', '2024-02-06 13:00:00', '2024-02-06 12:25:00', '2024-02-06 12:00:00', '2024-02-06 11:00:00', '2024-02-06 09:59:00', '2024-02-06 08:56:00', '2024-02-06 08:00:00', '2024-02-06 07:00:00', '2024-02-06 06:00:00', '2024-02-06 05:00:00', '2024-02-06 04:00:00', '2024-02-06 03:00:00', '2024-02-06 01:57:00', '2024-02-06 01:00:00', '2024-02-06 00:00:00', '2024-02-05 23:00:00', '2024-02-05 22:00:00', '2024-02-05 21:12:00']"
Guatemala, Guatemala City La Aurora International Airport (GUA/MGGT) ,"['MGGT 082100Z 20008KT CAVOK 26/12 Q1019 A3009', 'MGGT 082000Z 20006KT CAVOK 27/11 Q1019 A3009', 'MGGT 081900Z 18004KT CAVOK 27/10 Q1020 A3012', 'MGGT 081800Z 20004KT CAVOK 25/09 Q1021 A3015', 'MGGT 081700Z 22006KT CAVOK 22/07 Q1022 A3018', 'MGGT 081600Z 18004KT CAVOK 20/09 Q1023 A3021', 'MGGT 081500Z 00000KT CAVOK 17/10 Q1022 A3018', 'MGGT 081400Z 00000KT CAVOK 13/09 Q1022 A3018', 'MGGT 081300Z 00000KT CAVOK 09/07 Q1021 A3015', 'MGGT 081200Z 00000KT CAVOK 09/08 Q1021 A3015', 'MGGT 081100Z 03006KT CAVOK 10/07 Q1021 A3015', 'MGGT 081000Z 03006KT CAVOK 10/08 Q1021 A3015', 'MGGT 080900Z 02006KT CAVOK 11/08 Q1021 A3015', 'MGGT 080800Z 03008KT CAVOK 11/08 Q1022 A3018', 'MGGT 080700Z 03010KT CAVOK 11/08 Q1022 A3018', 'MGGT 080600Z 03010KT CAVOK 12/08 Q1023 A3021', 'MGGT 080500Z 03010KT CAVOK 13/08 Q1023 A3021', 'MGGT 080400Z 03010KT CAVOK 13/08 Q1023 A3021', 'MGGT 080300Z 03010KT CAVOK 14/08 Q1023 A3021 SCT200', 'MGGT 080200Z 03010KT CAVOK 16/09 Q1022 A3018', 'MGGT 080100Z 03008KT CAVOK 17/09 Q1021 A3015', 'MGGT 080000Z 04008KT 9999 FEW018 20/08 Q1020 A3012', 'MGGT 072300Z 03008KT 9999 FEW020 22/08 Q1019 A3009', 'MGGT 072200Z 03008KT 9999 FEW020 23/08 Q1019 A3009', 'MGGT 072100Z 03008KT 9999 FEW020 24/09 Q1020 A3012', 'MGGT 072000Z 04006KT 9999 FEW020 23/09 Q1020 A3012', 'MGGT 071900Z 01008KT 9999 FEW020 22/09 Q1021 A3015', 'MGGT 071800Z 02010KT 9999 FEW020 20/08 Q1023 A3021', 'MGGT 071700Z 05010KT 9999 FEW018 18/07 Q1024 A3024', 'MGGT 071600Z 03014KT 9999 FEW018 16/07 Q1024 A3024', 'MGGT 071500Z 02016KT 9999 FEW018 15/06 Q1024 A3024', 'MGGT 071400Z 03014KT 99999 FEW016 13/07 Q1023 A3021', 'MGGT 071300Z 03010KT CAVOK 10/06 Q1022 A3018', 'MGGT 071200Z 02012KT CAVOK 10/07 Q1022 A3018', 'MGGT 071100Z 02012KT CAVOK 10/06 Q1021 A3015', 'MGGT 071000Z 02014KT CAVOK 11/06 Q1021 A3015', 'MGGT 070900Z 02014KT CAVOK 11/06 Q1021 A3015', 'MGGT 070800Z 02014KT CAVOK 11/06 Q1021 A3015', 'MGGT 070700Z 03012KT CAVOK 11/06 Q1022 A3018', 'MGGT 070600Z 02012KT CAVOK 12/07 Q1022 A3018', 'MGGT 070500Z 02014KT CAVOK 12/07 Q1023 A3021', 'MGGT 070400Z 02016KT CAVOK 13/07 Q1023 A3021', 'MGGT 070300Z 02016KT CAVOK 13/07 Q1022 A3018', 'MGGT 070200Z 02018KT CAVOK 14/07 Q1021 A3015', 'MGGT 070100Z 02006KT CAVOK 16/06 Q1020 A3012', 'MGGT 070000Z 03014KT CAVOK 19/04 Q1019 A3009', 'MGGT 062300Z 02016KT CAVOK 21/05 Q1018 A3006', 'MGGT 062200Z 04014KT 9999 FEW022 22/03 Q1018 A3006', 'MGGT 062100Z 02014KT CAVOK 23/03 Q1019 A3009', 'MGGT 062000Z 02014KT CAVOK 26/03 Q1020 A3012', 'MGGT 061900Z 02014KT CAVOK 22/04 Q1020 A3012', 'MGGT 061800Z 02018KT CAVOK 20/06 Q1021 A3015', 'MGGT 061700Z 02012KT 9999 FEW020 19/10 Q1023 A3021', 'MGGT 061600Z 02014KT 9999 SCT018 18/08 Q1023 A3021', 'MGGT 061500Z 02012KT 9999 SCT017 16/09 Q1023 A3021', 'MGGT 061400Z 03016KT 9999 FEW016 14/10 Q1022 A3018', 'MGGT 061300Z 03014KT 9999 FEW016 13/10 Q1021 A3015', 'MGGT 061200Z 02012KT 9999 FEW016 13/11 Q1020 A3012', 'MGGT 061100Z 02014KT 9999 FEW016 13/11 Q1020 A3012', 'MGGT 061000Z 03010KT CAVOK 14/11 Q1019 A3009', 'MGGT 060900Z 03010KT 9999 FEW016 15/11 Q1019 A3009', 'MGGT 060800Z 03010KT 9999 SCT016 15/12 Q1019 A3009', 'MGGT 060700Z 03010KT 9999 SCT016 15/12 Q1019 A3009', 'MGGT 060600Z 02012KT 9999 SCT016 16/11 Q1019 A3009', 'MGGT 060500Z 02012KT 9999 BKN016 17/11 Q1020 A3012', 'MGGT 060400Z 36014KT 8000 BKN016 17/11 Q1020 A3012 HZ', 'MGGT 060300Z 01018KT 8000 BKN016 17/12 Q1019 A3009 HZ', 'MGGT 060200Z 03010KT 6000 -DZ BKN018 18/13 Q1019 A3009', 'MGGT 060100Z 01016KT 6000 -DZ BKN018 19/14 Q1018 A3006', 'MGGT 060000Z 03008KT 5000 -DZ BKN018 22/17 Q1017 Q3003', 'MGGT 052300Z 20012KT 7000 BKN020 23/17 Q1016 A3000 HZ', 'MGGT 052200Z 20012KT 7000 BKN020 25/17 Q1015 A2997 HZ']","['2024-02-08 21:00:00', '2024-02-08 20:00:00', '2024-02-08 19:00:00', '2024-02-08 18:00:00', '2024-02-08 17:00:00', '2024-02-08 16:00:00', '2024-02-08 15:00:00', '2024-02-08 14:00:00', '2024-02-08 13:00:00', '2024-02-08 12:00:00', '2024-02-08 11:00:00', '2024-02-08 10:00:00', '2024-02-08 09:00:00', '2024-02-08 08:00:00', '2024-02-08 07:00:00', '2024-02-08 06:00:00', '2024-02-08 05:00:00', '2024-02-08 04:00:00', '2024-02-08 03:00:00', '2024-02-08 02:00:00', '2024-02-08 01:00:00', '2024-02-08 00:00:00', '2024-02-07 23:00:00', '2024-02-07 22:00:00', '2024-02-07 21:00:00', '2024-02-07 20:00:00', '2024-02-07 19:00:00', '2024-02-07 18:00:00', '2024-02-07 17:00:00', '2024-02-07 16:00:00', '2024-02-07 15:00:00', '2024-02-07 14:00:00', '2024-02-07 13:00:00', '2024-02-07 12:00:00', '2024-02-07 11:00:00', '2024-02-07 10:00:00', '2024-02-07 09:00:00', '2024-02-07 08:00:00', '2024-02-07 07:00:00', '2024-02-07 06:00:00', '2024-02-07 05:00:00', '2024-02-07 04:00:00', '2024-02-07 03:00:00', '2024-02-07 02:00:00', '2024-02-07 01:00:00', '2024-02-07 00:00:00', '2024-02-06 23:00:00', '2024-02-06 22:00:00', '2024-02-06 21:00:00', '2024-02-06 20:00:00', '2024-02-06 19:00:00', '2024-02-06 18:00:00', '2024-02-06 17:00:00', '2024-02-06 16:00:00', '2024-02-06 15:00:00', '2024-02-06 14:00:00', '2024-02-06 13:00:00', '2024-02-06 12:00:00', '2024-02-06 11:00:00', '2024-02-06 10:00:00', '2024-02-06 09:00:00', '2024-02-06 08:00:00', '2024-02-06 07:00:00', '2024-02-06 06:00:00', '2024-02-06 05:00:00', '2024-02-06 04:00:00', '2024-02-06 03:00:00', '2024-02-06 02:00:00', '2024-02-06 01:00:00', '2024-02-06 00:00:00', '2024-02-05 23:00:00', '2024-02-05 22:00:00']"
Guatemala, Puerto Barrios Airport (PBR/MGPB) ,"['MGPB 082100Z 36010KT 9999 SCT018 28/19 Q1013 A2991', 'MGPB 082000Z 36008KT 9999 FEW018 28/20 Q1014 A2994', 'MGPB 081900Z 36008KT 9999 FEW018 27/19 Q1015 A2997', 'MGPB 081800Z 36008KT 9999 FEW018 26/19 Q1015 A2997', 'MGPB 081700Z 33008KT 9999 FEW018 26/19 Q1016 A3000', 'MGPB 081600Z 30006KT 9999 FEW018 26/19 Q1017 A3003', 'MGPB 081500Z 00000KT CAVOK 25/18 Q1016 A3000', 'MGPB 081400Z 00000KT 8000 SKC 20/18 Q1016 A3000 BR', 'MGPB 081300Z 00000KT 8000 SKC 18/17 Q1015 A2997 BR', 'MGPB 081200Z 00000KT CAVOK 18/17 Q1015 A2997', 'MGPB 081100Z 00000KT CAVOK 19/18 Q1014 A2994', 'MGPB 081000Z 00000KT 9999 SCT016 19/18 Q1014 A2994', 'MGPB 080900Z 00000KT 9999 FEW018 Q1014 A2994', 'MGPB 080800Z 00000KT CAVOK 19/18 Q1015 A2997 SCT080', 'MGPB 080700Z 00000KT CAVOK 19/18 Q1015 A2997 SCT080', 'MGPB 080600Z 00000KT CAVOK 19/18 Q1016 A3000 SCT090', 'MGPB 080500Z 00000KT CAVOK 18/17 Q1017 A3003', 'MGPB 080400Z 00000KT CAVOK 19/17 Q1017 A3003', 'MGPB 080300Z 00000KT CAVOK 20/18 Q1017 A3003 SCT090', 'MGPB 080200Z 00000KT CAVOK 21/16 Q1018 A3006', 'MGPB 080100Z 00000KT CAVOK 22/16 Q1016 A3000', 'MGPB 080000Z 00000KT CAVOK 23/16 Q1015 A2997', 'MGPB 072300Z 00000KT CAVOK 25/16 Q1015 A2997', 'MGPB 072200Z 00000KT 9999 FEW020 27/17 Q1015 A2997', 'MGPB 072100Z 00000KT 9999 FEW020 26/17 Q1015 A2997', 'MGPB 072000Z 00000KT 9999 SCT020 26/17 Q1016 A3000', 'MGPB 071900Z 00000KT 9999 FEW020 25/18 Q1017 A3003 FEW090', 'MGPB 071800Z 00000KT 9999 SCT020 25/17 Q1018 A3006', 'MGPB 071700Z 00000KT 9999 SCT018 25/16 Q1019 A3009', 'MGPB 071600Z 00000KT CAVOK 23/17 Q1020 A3012 BKN090', 'MGPB 071500Z 00000KT 9999 FEW018 BKN080 22/17 Q1019 A3009', 'MGPB 071400Z 00000KT 9999 FEW018 BKN080 21/16 Q1018 A3006', 'MGPB 071300Z 27006KT 9999 FEW018 BKN080 21/17 Q1018 A3006', 'MGPB 071200Z 27006KT 9999 SCT018 BKN080 21/17 Q1017 A3003', 'MGPB 071100Z 27008KT 9999 SCT016 BKN090 19/16 Q1016 A3000', 'MGPB 071000Z 27006KT 9999 SCT016 BKN080 19/16 Q1016 A3000', 'MGPB 070900Z 00000KT 9999 FEW018 SCT080 18/16 Q1016 A3000', 'MGPB 070800Z 00000KT CAVOK 17/16 Q1016 A3000 FEW090', 'MGPB 070700Z 00000KT CAVOK 17/16 Q1016 A3000 SCT090', 'MGPB 070600Z 00000KT CAVOK 17/16 Q1017 A3003 SCT090', 'MGPB 070500Z 00000KT CAVOK 17/16 Q1017 A3003 FEW090', 'MGPB 070400Z 00000KT CAVOK 17/16 Q1017 A3003 SCT090', 'MGPB 070300Z 00000KT CAVOK 18/16 Q1017 A3003', 'MGPB 070200Z 00000KT CAVOK 19/16 Q1017 A3003', 'MGPB 070100Z 00000KT CAVOK 21/15 Q1016 A3000', 'MGPB 070000Z 27004KT 9999 FEW018 SCT090 24/14 Q1016 A3000', 'MGPB 062300Z 27006KT 9999 FEW018 BKN080 25/15 Q1015 A2997', 'MGPB 062200Z 27008KT 9999 FEW020 BKN090 26/15 Q1015 A2997', 'MGPB 062100Z 27010KT 9999 FEW020 BKN090 27/15 Q1015 A2997', 'MGPB 062000Z 27008KT 9999 FEW020 BKN090 27/16 Q1016 A3000', 'MGPB 061900Z 27010KT 9999 FEW020 BKN090 26/14 Q1017 A3003', 'MGPB 061800Z 27012KT 9999 SCT020 BKN080 25/13 Q1018 A3006 PCPN DIST W', 'MGPB 061700Z 30012KT 9999 FEW018 BKN090 25/14 Q1019 A3009', 'MGPB 061600Z 36008KT 9999 FEW018 BKN090 24/14 Q1019 A3009', 'MGPB 061500Z 36006KT 9999 FEW018 SCT080 22/14 Q1019 A3009', 'MGPB 061400Z 00000KT CAVOK 22/14 Q1018 A3006', 'MGPB 061300Z 00000KT CAVOK 21/14 Q1017 A3003', 'MGPB 061200Z 27004KT CAVOK 21/13 Q1016 A3000', 'MGPB 061100Z 30006KT CAVOK 22/15 Q1015 A2997', 'MGPB 061000Z 27008KT 9999 FEW018 22/14 Q1014 A2994', 'MGPB 060900Z 00000KT 9999 FEW018 23/14 Q1014 A2994', 'MGPB 060800Z 00000KT 9999 BKN016 23/14 Q1014 A2994', 'MGPB 060700Z 00000KT 9999 BKN016 24/13 Q1014 A2994', 'MGPB 060600Z 27004KT 9999 SCT018 24/14 Q1014 A2994', 'MGPB 060500Z 30004KT 9999 FEW018 25/17 Q1014 A2994', 'MGPB 060400Z 28008KT CAVOK 26/16 Q1013 A2991', 'MGPB 060300Z 27008KT 9999 FEW018 26/17 Q1013 A2991', 'MGPB 060200Z 00000KT CAVOK 25/18 Q1012 A2988', 'MGPB 060100Z 00000KT CAVOK 26/17 Q1011 A2985 FEW090', 'MGPB 060000Z 27004KT CAVOK 28/15 Q1010 A2983 SCT090', 'MGPB 052300Z 30006KT CAVOK 30/15 Q1009 A2980 BKN090', 'MGPB 052200Z 28004KT CAVOK 31/17 Q1008 A2977 SCT090']","['2024-02-08 21:00:00', '2024-02-08 20:00:00', '2024-02-08 19:00:00', '2024-02-08 18:00:00', '2024-02-08 17:00:00', '2024-02-08 16:00:00', '2024-02-08 15:00:00', '2024-02-08 14:00:00', '2024-02-08 13:00:00', '2024-02-08 12:00:00', '2024-02-08 11:00:00', '2024-02-08 10:00:00', '2024-02-08 09:00:00', '2024-02-08 08:00:00', '2024-02-08 07:00:00', '2024-02-08 06:00:00', '2024-02-08 05:00:00', '2024-02-08 04:00:00', '2024-02-08 03:00:00', '2024-02-08 02:00:00', '2024-02-08 01:00:00', '2024-02-08 00:00:00', '2024-02-07 23:00:00', '2024-02-07 22:00:00', '2024-02-07 21:00:00', '2024-02-07 20:00:00', '2024-02-07 19:00:00', '2024-02-07 18:00:00', '2024-02-07 17:00:00', '2024-02-07 16:00:00', '2024-02-07 15:00:00', '2024-02-07 14:00:00', '2024-02-07 13:00:00', '2024-02-07 12:00:00', '2024-02-07 11:00:00', '2024-02-07 10:00:00', '2024-02-07 09:00:00', '2024-02-07 08:00:00', '2024-02-07 07:00:00', '2024-02-07 06:00:00', '2024-02-07 05:00:00', '2024-02-07 04:00:00', '2024-02-07 03:00:00', '2024-02-07 02:00:00', '2024-02-07 01:00:00', '2024-02-07 00:00:00', '2024-02-06 23:00:00', '2024-02-06 22:00:00', '2024-02-06 21:00:00', '2024-02-06 20:00:00', '2024-02-06 19:00:00', '2024-02-06 18:00:00', '2024-02-06 17:00:00', '2024-02-06 16:00:00', '2024-02-06 15:00:00', '2024-02-06 14:00:00', '2024-02-06 13:00:00', '2024-02-06 12:00:00', '2024-02-06 11:00:00', '2024-02-06 10:00:00', '2024-02-06 09:00:00', '2024-02-06 08:00:00', '2024-02-06 07:00:00', '2024-02-06 06:00:00', '2024-02-06 05:00:00', '2024-02-06 04:00:00', '2024-02-06 03:00:00', '2024-02-06 02:00:00', '2024-02-06 01:00:00', '2024-02-06 00:00:00', '2024-02-05 23:00:00', '2024-02-05 22:00:00']"
Guatemala, Quetzaltenango Airport (AAZ/MGQZ) ,"['MGQZ 082100Z 14010KT CAVOK 25/09 QFE771/1', 'MGQZ 082000Z 14008KT CAVOK 26/08 QFE771.5', 'MGQZ 081900Z 14006KT CAVOK 26/09 QFE 772.4', 'MGQZ 081800Z 00000KT CAVOK 26/08 QFE 772.9', 'MGQZ 081700Z 00000KT 8000 SKC 20/09 QFE 773.9 HZ', 'MGQZ 081600Z 00000KT 8000 SKC 15/09 QFE 774.6 HZ', 'MGQZ 081500Z 00000KT 7000 SCT200 09/05 QFE 774.5 HZ', 'MGQZ 081400Z 00000KT 3000 BR OVC010 07/07 QFE 774.4', 'MGQZ 081300Z 00000KT 5000 BR OVC010 07/07 QFE 774.0', 'MGQZ 081200Z 00000KT 6000 BKN020 07/07 QFE 773.2 BR', 'MGQZ 080000Z 00000KT CAVOK 16/12 QFE 772.0', 'MGQZ 072300Z 00000KT CAVOK 18/09 QFE 771.7', 'MGQZ 072200Z 00000KT CAVOK 20/12 QFE 771.2', 'MGQZ 072100Z 14004KT CAVOK 22/12 QFE 771.4', 'MGQZ 072000Z 14006KT CAVOK 22/10 QFE 771.6', 'MGQZ 071900Z 14004KT CAVOK 23/09 QFE 772.2', 'MGQZ 071800Z 23004KT CAVOK 23/09 QFE 772.7', 'MGQZ 071700Z 00000KT CAVOK 19/10 QFE 773.7', 'MGQZ 071600Z 00000KT CAVOK 14/09 QFE 774.4', 'MGQZ 071500Z 00000KT CAVOK 08/02 QFE774.4', 'MGQZ 071400Z 00000KT CAVOK 04/03 QFE 773.7', 'MGQZ 071300Z 00000KT CAVOK M01/M01 QFE 773.3', 'MGQZ 071200Z 00000KT CAVOK M01/M01 QFE772.8', 'MGQZ 070000Z 00000KT CAVOK 17/11 QFE770.7', 'MGQZ 062300Z 00000KT CAVOK 18/13 QFE770.6', 'MGQZ 062200Z 14008KT CAVOK 20/10 QFE 770.3', 'MGQZ 062100Z 14008KT CAVOK 23/08 QFE770.0', 'MGQZ 062000Z 14006KT CAVOK 23/08 QFE770.2', 'MGQZ 061900Z 14006KT CAVOK 22/08 QFE 771.2', 'MGQZ 061800Z 00000KT CAVOK 20/09 QFE 772.0', 'MGQZ 061700Z 30006KT 9999 17/10 QFE 772.6', 'MGQZ 061600Z 00000KT 14/04 QFE773.3', 'MGQZ 061500Z 00000KT CAVOK 09/02 QFE773.1', 'MGQZ 061400Z 00000KT CAVOK 05/04 QFE772.7', 'MGQZ 061300Z 00000KT CAVOK 00/00 QFE 772.4', 'MGQZ 061200Z 00000KT CAVOK -01/-01 QFE 771.8', 'MGQZ 060000Z 00000KT CAVOK 17/12 QFE 869.9 FEW200', 'MGQZ 052300Z 2708KT CAVOK 18/11 QFE 769.2', 'MGQZ 052200Z 14006KT CAVOK 20/10 QFE 768.7']","['2024-02-08 21:00:00', '2024-02-08 20:00:00', '2024-02-08 19:00:00', '2024-02-08 18:00:00', '2024-02-08 17:00:00', '2024-02-08 16:00:00', '2024-02-08 15:00:00', '2024-02-08 14:00:00', '2024-02-08 13:00:00', '2024-02-08 12:00:00', '2024-02-08 00:00:00', '2024-02-07 23:00:00', '2024-02-07 22:00:00', '2024-02-07 21:00:00', '2024-02-07 20:00:00', '2024-02-07 19:00:00', '2024-02-07 18:00:00', '2024-02-07 17:00:00', '2024-02-07 16:00:00', '2024-02-07 15:00:00', '2024-02-07 14:00:00', '2024-02-07 13:00:00', '2024-02-07 12:00:00', '2024-02-07 00:00:00', '2024-02-06 23:00:00', '2024-02-06 22:00:00', '2024-02-06 21:00:00', '2024-02-06 20:00:00', '2024-02-06 19:00:00', '2024-02-06 18:00:00', '2024-02-06 17:00:00', '2024-02-06 16:00:00', '2024-02-06 15:00:00', '2024-02-06 14:00:00', '2024-02-06 13:00:00', '2024-02-06 12:00:00', '2024-02-06 00:00:00', '2024-02-05 23:00:00', '2024-02-05 22:00:00']"
Guatemala, Retalhuleu Airport (RER/MGRT) ,"['MGRT 082100Z 25014KT 8000 SCT020 32/18 Q1012 A2988 HZ VOLC STA MARIA Y SANTGO EN ACTV. MGQZ 082100Z 14010KT CAVOK 25/09 QFE771.1', 'MGRT 082000Z 23006KT 8000 SCT020 33/18 Q1013 A2991 HZ VOLC STA MARIA Y SANTGO EN ACTV', 'MGRT 081900Z 23006KT 8000 SCT020 33/18 Q1014 A2994 HZ VOLC STA MARIA Y SANTGO EN ACTV.', 'MGRT 081800Z 25006KT 8000 SCT020 31/19 Q1015 A2997 HZ VOLC STA MARIA Y SANTGO EN ACTV.', 'MGRT 081700Z 00000 8000 SCT020 30/19 Q1016 A3000 HZ VOLC STA MARIA Y SANTGO EN ACTV.', 'MGRT 081600Z 36004KT 8000 SKC 29/20 Q1017 A3003 HZ VOLC STA MARIA Y SANTGO EN ACTV.', 'MGRT 081500Z 05006KT CAVOK 27/19 Q1016 A3000 VOLC STA MARIA Y SANTGO EN ACTV.', 'MGRT 081400Z 00000KT CAVOK 22/17 Q1015 A2997 VOLC STA MARIA Y SANTGO EN ACTV.', 'MGRT 081300Z 05004KT CAVOK 21/16 Q1015 A2997 FEW200 VOL. STA MARIA Y SANTIAGUITO EN ACTIVIDAD', 'MGRT 081200Z 05006KT CAVOK 22/17 Q1014 A2994 VOL. STA MARIA Y SANTIAGUITO EN ACTIVIDAD', 'MGRT 080000Z 25006KT 7000 BKN018 28/18 Q1014 A2994 HZ VOL. STA MARIA Y SANTIAGUITO EN ACTIVIDAD', 'MGRT 072300Z 24008KT 7000 BKN018 28/19 Q1013 A2991 HZ VOL. STA MARIA Y SANTIAGUITO EN ACTIVIDAD', 'MGRT 072200Z 23010KT 7000 BKN018 29/19 Q1013 A2991 HZ VOL. STA MARIA Y SANTIAGUITO EN ACTIVIDAD', 'MGRT 072100Z 25008KT 7000 SCT018 SCT020 31/21 Q1013 A2991 HZ VOL. STA MARIA Y SANTIAGUITO EN ACTIVIDAD', 'MGRT 072000Z 23010KT 7000 FEW018 SCT020 32/19 Q1013 A2991 HZ VOL. STA MARIA Y SANTIAGUITO EN ACTIVIDAD', 'MGRT 071900Z 23008KT 7000 FEW018 SCT020 32/19 Q1015 A2997 HZ VOL. STA MARIA Y SANTIAGUITO EN ACTIVIDAD', 'MGRT 071800Z 23006KT 7000 SCT020 31/20 Q1015 A2997 HZ VOL. STA MARIA Y SANTIAGUITO EN ACTIVIDAD', 'MGRT 071700Z 23008KT 7000 SCT020 30/20 Q1016 A3000 HZ VOL. STA MARIA Y SANTIAGUITO EN ACTIVIDAD', 'MGRT 071600Z 00000KT 7000 FEW020 29/20 Q1017 A3003 HZ VOL. STA MARIA Y SANTIAGUITO EN ACTIVIDAD', 'MGRT 071500Z VOL. STA MARIA Y SANTIAGUITO EN ACTIVIDAD', 'MGRT 071400Z 00000KT 7000 FEW200 23/18 Q1016 A3000 HZ VOL. STA MARIA Y SANTIAGUITO EN ACTIVIDAD', 'MGRT 071300Z 00000KT CAVOK 22/18 Q1015 A2997 FEW200 VOL. STA MARIA Y SANTIAGUITO EN ACTIVIDAD', 'MGRT 071200Z 02004KT CAVOK 22/19 Q1014 A2994 FEW080 VOL. STA MARIA Y SANTIAGUITO EN ACTIVIDAD', 'MGRT 070000Z 20008KT 9999 SCT018 30/17 Q1012 A2988 VOL. STA MARIA Y SANTIAGUITO EN ACTIVIDAD', 'MGRT 062300Z 24006KT 9999 SCT018 31/18 Q1011 A2985 VOL. STA MARIA Y SANTIAGUITO EN ACTIVIDAD', 'MGRT 062200Z 23008KT 9999 SCT018 31/20 Q1010 A2983 VOL. STA MARIA Y SANTIAGUITO EN ACTIVIDAD', 'MGRT 062100Z 24006KT 99999 SCT018 SCT020 32/22 Q1010 A2983 PCPN SW VOL. STA MARIA Y SANTIAGUITO EN ACTIVIDAD', 'MGRT 062000Z 22008KT 9999 SCT020 33/22 Q1011 A2985 VOL. STA MARIA Y SANTIAGUITO EN ACTIVIDAD', 'MGRT 061900Z 24006KT 9999 SCT020 33/19 Q1012 A2988 VOL. STA MARIA Y SANTIAGUITO EN ACTIVIDAD', 'MGRT 061800Z 18006KT 9999 SCT020 32/19 Q1013 A2991 VOL. STA MARIA Y SANTIAGUITO EN ACTIVIDAD', 'MGRT 061700Z 18004KT 9999 FEW020 30/20 Q1013 A2991 VOL. STA MARIA Y SANTIAGUITO EN ACTIVIDAD', 'MGRT 061600Z 18006KT CAVOK 30/19 Q1014 A2994 VOL. STA MARIA Y SANTIAGUITO EN ACTIVIDAD', 'MGRT 061500Z 09008KT CAVOK 28/20 Q1014 A2994 VOL. STA MARIA Y SANTIAGUITO EN ACTIVIDAD', 'MGRT 061400Z 00000KT CAVOK 24/17 Q1013 A2991 VOL. STA MARIA Y SANTIAGUITO EN ACTIVIDAD', 'MGRT 061300Z 00000KT CAVOK 22/18 Q1013 A2991 FEW200 VOLC STA MARIA Y SANTGO EN ACTV', 'MGRT 061200Z 09004KT CAVOK 23/20 Q1012 A2988 FEW080 VOLC STA MARIA Y SANTGO EN ACTV', 'MGRT 060000Z 25008KT 8000 SCT018 29/22 Q1009 A2980 HZ VOLC STA MARIA Y SANTGO EN ACTV', 'MGRT 052300Z 25010KT 8000 SCT020 31/23 Q1008 A2977 HZ VOLC STA MARIA Y SANTGO EN ACTV', 'MGRT 052200Z 25010KT 8000 SCT020 32/22 Q1008 A2977 HZ VOLC STA MARIA Y SANTGO EN ACTV']","['2024-02-08 21:00:00', '2024-02-08 20:00:00', '2024-02-08 19:00:00', '2024-02-08 18:00:00', '2024-02-08 17:00:00', '2024-02-08 16:00:00', '2024-02-08 15:00:00', '2024-02-08 14:00:00', '2024-02-08 13:00:00', '2024-02-08 12:00:00', '2024-02-08 00:00:00', '2024-02-07 23:00:00', '2024-02-07 22:00:00', '2024-02-07 21:00:00', '2024-02-07 20:00:00', '2024-02-07 19:00:00', '2024-02-07 18:00:00', '2024-02-07 17:00:00', '2024-02-07 16:00:00', '2024-02-07 15:00:00', '2024-02-07 14:00:00', '2024-02-07 13:00:00', '2024-02-07 12:00:00', '2024-02-07 00:00:00', '2024-02-06 23:00:00', '2024-02-06 22:00:00', '2024-02-06 21:00:00', '2024-02-06 20:00:00', '2024-02-06 19:00:00', '2024-02-06 18:00:00', '2024-02-06 17:00:00', '2024-02-06 16:00:00', '2024-02-06 15:00:00', '2024-02-06 14:00:00', '2024-02-06 13:00:00', '2024-02-06 12:00:00', '2024-02-06 00:00:00', '2024-02-05 23:00:00', '2024-02-05 22:00:00']"
Guernsey, Alderney Airport (ACI/EGJA) ,"['EGJA 081820Z 18027G38KT 9999 VCSH FEW008 BKN013 10/09 Q0982', 'EGJA 081750Z 17028KT 9999 VCSH FEW008 BKN013 10/09 Q0982', 'EGJA 081720Z 17027KT 9999 -RADZ SCT008 BKN015 10/09 Q0983', 'EGJA 081650Z 18025G37KT 9999 -RADZ FEW008 BKN015 10/09 Q0984', 'EGJA 081620Z 19028KT 9999 -RADZ FEW008 SCT028 10/09 Q0985', 'EGJA 081550Z 19026KT 7000 -RADZ FEW008 BKN030 10/10 Q0986', 'EGJA 081520Z 19024KT 9999 -RADZ FEW005 BKN026 10/10 Q0986', 'EGJA 081450Z 19020KT 9999 -RADZ FEW012 BKN030 11/10 Q0987', 'EGJA 081420Z 21020KT 4000 -RADZ BR SCT003 11/11 Q0988', 'EGJA 081350Z 20014KT 5000 -RADZ FEW005 SCT013 11/11 Q0988', 'EGJA 081320Z 21020KT 5000 -RADZ SCT003 SCT013 11/11 Q0989', 'EGJA 081250Z 21019KT 4000 -RADZ BR SCT003 SCT013 11/11 Q0989', 'EGJA 081220Z 21019KT 4000 -RADZ BR SCT003 SCT020 11/11 Q0990', 'EGJA 081150Z 19019KT 0100 R26/0450 -RADZ FG BKN000 11/11 Q0990', 'EGJA 081050Z 20017KT 0300 R26/0450 -DZ FG BKN000 11/11 Q0991', 'EGJA 081020Z 19018KT 6000 BKN003 11/11 Q0991', 'EGJA 080950Z 20016KT 9999 SCT004 SCT020 11/11 Q0992', 'EGJA 080920Z 20015KT 8000 -RA BKN004 11/11 Q0992', 'EGJA 080850Z 21020KT 8000 -RA BKN004 11/11 Q0992', 'EGJA 080820Z 20021KT 6000 -RA BKN013 11/11 Q0992', 'EGJA 080750Z 19026KT 6000 -RA BKN013 11/10 Q0992', 'EGJA 080720Z 19026KT 4000 -RA BR BKN006 11/10 Q0992', 'EGJA 071820Z 09004KT 0200 R26/0250 -DZ FG BKN000 09/09 Q1004', 'EGJA 071750Z 07004KT 0200 R26/0250 -DZ FG BKN000 09/09 Q1004', 'EGJA 071720Z 05004KT 0200 R26/0250 -DZ FG BKN000 09/09 Q1004', 'EGJA 071650Z 02005KT 0200 R26/0250 -DZ FG BKN000 09/09 Q1004', 'EGJA 071620Z 01005KT 0100 R26/0250 -DZ FG BKN000 09/09 Q1004', 'EGJA 071550Z 35004KT 320V020 0100 R26/0250 -DZ FG BKN000 10/10 Q1004', 'EGJA 071520Z 34006KT 0250 R26/0250 -DZ FG BKN000 10/10 Q1004', 'EGJA 071450Z 31007KT 0250 R26/0250 -DZ FG BKN000 11/10 Q1004', 'EGJA 071420Z 28009KT 0250 R26/0250 -DZ FG BKN000 11/11 Q1004', 'EGJA 071350Z 27010KT 0250 R26/0250 -DZ FG BKN000 11/11 Q1004', 'EGJA 071320Z 27011KT 0250 R26/0250 -DZ FG BKN000 11/11 Q1004', 'EGJA 071250Z 27011KT 0250 R26/0250 -DZ FG BKN000 11/11 Q1004', 'EGJA 071220Z 27012KT 0250 R26/0250 -DZ FG BKN000 11/11 Q1004', 'EGJA 071150Z 27013KT 0250 R26/0250 -DZ FG BKN000 11/11 Q1004', 'EGJA 071120Z 27013KT 0250 R26/0250 -DZ FG BKN000 11/11 Q1004', 'EGJA 071050Z 26013KT 0250 R26/0250 -DZ FG BKN000 11/11 Q1004 RERA REDZ', 'EGJA 071020Z 25012KT 0250 R26/0250 -RADZ FG BKN000 11/11 Q1004', 'EGJA 070950Z 24018KT 0450 R26/0250 -RADZ FG BKN000 11/11 Q1004', 'EGJA 070920Z 24019KT 0450 R26/0250 -RADZ FG BKN000 11/11 Q1005', 'EGJA 070850Z 24019KT 2000 -RADZ VCFG BR SCT000 BKN001 11/11 Q1005', 'EGJA 070820Z 23015KT 2500 -RADZ VCFG BR SCT000 BKN001 11/11 Q1005', 'EGJA 070750Z 24018KT 0500 R26/0600 RADZ FG BKN000 11/11 Q1005', 'EGJA 070720Z 24021KT 2500 DZ BKN001 11/11 Q1005', 'EGJA 070650Z 24021KT 4000 -DZ BKN001 11/11 Q1005', 'EGJA 061820Z 24028KT 6000 SCT007 BKN034 11/10 Q1013', 'EGJA 061720Z 24031KT 5000 HZ BKN007 12/10 Q1013', 'EGJA 061650Z 24024KT 6000 BKN007 11/10 Q1013', 'EGJA 061620Z 24026KT 5000 BR BKN007 11/10 Q1013', 'EGJA 061550Z 24022KT 4000 BR BKN006 11/10 Q1014', 'EGJA 061520Z 24025KT 4000 BR BKN006 11/10 Q1014', 'EGJA 061450Z 24023KT 5000 BR BKN006 11/10 Q1014', 'EGJA 061420Z 24023KT 4000 BR BKN005 11/10 Q1015', 'EGJA 061350Z 24026G36KT 4000 BR FEW004 BKN006 11/10 Q1015', 'EGJA 061320Z 24025KT 5000 BR FEW004 BKN007 11/10 Q1015', 'EGJA 061250Z 24026KT 5000 BR FEW004 BKN007 11/10 Q1015', 'EGJA 061220Z 24024G34KT 5000 BR FEW004 BKN007 11/10 Q1016', 'EGJA 061150Z 24023KT 5000 BR FEW004 BKN008 11/10 Q1016', 'EGJA 061120Z 24022G33KT 5000 BR FEW004 BKN008 11/10 Q1016', 'EGJA 061050Z 24021G31KT 5000 BR FEW004 BKN008 11/10 Q1016', 'EGJA 061020Z 24022KT 5000 BR FEW004 SCT007 BKN040 11/10 Q1016', 'EGJA 060950Z 24022KT 6000 FEW004 BKN006 11/10 Q1016', 'EGJA 060850Z 24019KT 8000 FEW004 BKN006 11/10 Q1017', 'EGJA 060820Z 24021KT 8000 FEW004 BKN006 11/10 Q1017', 'EGJA 060750Z 24025KT 9999 BKN007 BKN030 11/10 Q1017', 'EGJA 060650Z 24022G33KT 9999 BKN005 11/10 Q1017']","['2024-02-08 18:20:00', '2024-02-08 17:50:00', '2024-02-08 17:20:00', '2024-02-08 16:50:00', '2024-02-08 16:20:00', '2024-02-08 15:50:00', '2024-02-08 15:20:00', '2024-02-08 14:50:00', '2024-02-08 14:20:00', '2024-02-08 13:50:00', '2024-02-08 13:20:00', '2024-02-08 12:50:00', '2024-02-08 12:20:00', '2024-02-08 11:50:00', '2024-02-08 10:50:00', '2024-02-08 10:20:00', '2024-02-08 09:50:00', '2024-02-08 09:20:00', '2024-02-08 08:50:00', '2024-02-08 08:20:00', '2024-02-08 07:50:00', '2024-02-08 07:20:00', '2024-02-07 18:20:00', '2024-02-07 17:50:00', '2024-02-07 17:20:00', '2024-02-07 16:50:00', '2024-02-07 16:20:00', '2024-02-07 15:50:00', '2024-02-07 15:20:00', '2024-02-07 14:50:00', '2024-02-07 14:20:00', '2024-02-07 13:50:00', '2024-02-07 13:20:00', '2024-02-07 12:50:00', '2024-02-07 12:20:00', '2024-02-07 11:50:00', '2024-02-07 11:20:00', '2024-02-07 10:50:00', '2024-02-07 10:20:00', '2024-02-07 09:50:00', '2024-02-07 09:20:00', '2024-02-07 08:50:00', '2024-02-07 08:20:00', '2024-02-07 07:50:00', '2024-02-07 07:20:00', '2024-02-07 06:50:00', '2024-02-06 18:20:00', '2024-02-06 17:20:00', '2024-02-06 16:50:00', '2024-02-06 16:20:00', '2024-02-06 15:50:00', '2024-02-06 15:20:00', '2024-02-06 14:50:00', '2024-02-06 14:20:00', '2024-02-06 13:50:00', '2024-02-06 13:20:00', '2024-02-06 12:50:00', '2024-02-06 12:20:00', '2024-02-06 11:50:00', '2024-02-06 11:20:00', '2024-02-06 10:50:00', '2024-02-06 10:20:00', '2024-02-06 09:50:00', '2024-02-06 08:50:00', '2024-02-06 08:20:00', '2024-02-06 07:50:00', '2024-02-06 06:50:00']"
Guernsey, Guernsey Airport (GCI/EGJB) ,"['EGJB 082050Z 18019KT 9999 FEW012 BKN014 11/10 Q0980', 'EGJB 082020Z 17016KT 9999 -RA FEW012 BKN016 11/09 Q0980', 'EGJB 081950Z 17017G27KT 9999 FEW012 BKN018 11/09 Q0980', 'EGJB 081920Z 17022G32KT 9999 FEW012 BKN018 11/09 Q0981', 'EGJB 081850Z 18022KT 9999 FEW012 BKN019 11/09 Q0981', 'EGJB 081820Z 18023KT 9999 FEW004 BKN019 11/09 Q0982', 'EGJB 081750Z 18022G33KT 9999 FEW004 SCT012 BKN020 10/09 Q0982', 'EGJB 081720Z 17021KT 9999 FEW004 SCT008 BKN013 10/09 Q0983', 'EGJB 081650Z 16022KT 9999 -RA FEW004 SCT008 BKN012 10/09 Q0984', 'EGJB 081620Z 17018G29KT 6000 -RA FEW004 SCT009 BKN018 10/09 Q0984 RERA', 'EGJB 081550Z 18020KT 7000 RA FEW004 SCT023 BKN048 10/09 Q0986', 'EGJB 081520Z 18019KT 7000 RA FEW004 BKN018 10/10 Q0986', 'EGJB 081450Z 17015KT 9999 -RA FEW004 BKN019 11/10 Q0987', 'EGJB 081420Z 19013KT 9999 -RA FEW004 BKN021 11/10 Q0988 RERA', 'EGJB 081350Z 20016KT 8000 RA FEW001 SCT002 BKN020 11/11 Q0989 REDZ', 'EGJB 081320Z 20014KT 8000 -RA FEW004 BKN015 11/11 Q0989 RERA', 'EGJB 081250Z 20015KT 8000 RA FEW001 BKN010 11/11 Q0990', 'EGJB 081220Z 20014KT 9000 -RA SCT001 BKN015 11/11 Q0990', 'EGJB 081150Z 20014KT 8000 -RA SCT001 BKN002 11/11 Q0991 RERA', 'EGJB 081120Z 19013KT 0200 R27/0225D -RA FG OVC000 11/11 Q0991 RERA', 'EGJB 081050Z 18013KT 0200 R27/0250N -RA FG OVC000 11/11 Q0991', 'EGJB 081020Z 19013KT 0500 R27/P1500N -DZ FG BKN000 12/11 Q0992', 'EGJB 080950Z 20013KT 9999 SCT003 BKN008 11/11 Q0992', 'EGJB 080920Z 20015KT 8000 FEW001 BKN003 11/11 Q0992', 'EGJB 080850Z 20015KT 9999 SCT001 BKN002 11/11 Q0993', 'EGJB 080820Z 20016KT 1800 R27/1400D -DZ VCFG FEW000 BKN001 BKN002 11/11 Q0993', 'EGJB 080750Z 20019KT 9999 FEW006 BKN010 11/11 Q0993', 'EGJB 080720Z 20019KT 9999 FEW004 BKN010 11/11 Q0993', 'EGJB 080650Z 19018KT 9999 -RA FEW004 BKN011 11/11 Q0993 RERA', 'EGJB 080620Z 18016KT 3500 -RADZ BR SCT004 BKN008 11/11 Q0994 RERA', 'EGJB 080550Z 17014KT 6000 RA FEW010 BKN014 11/11 Q0994', 'EGJB 080520Z 18014KT 9999 -RA FEW015 BKN023 11/10 Q0995', 'EGJB 080450Z 18011KT 9999 VCSH FEW012 BKN022 11/11 Q0996', 'EGJB 080420Z 19010KT 9999 FEW012 SCT017 BKN044 11/11 Q0997', 'EGJB 080350Z 20013KT 9999 SCT012 BKN017 11/11 Q0998', 'EGJB 080250Z 22015KT 8000 VCSH FEW002 SCT025 11/11 Q0999', 'EGJB 080150Z 22015KT 1600 -RADZ VCFG BR SCT000 BKN001 11/11 Q1000 RERA', 'EGJB 080050Z 19009KT 0100 -RADZ FG OVC000 11/11 Q1000 RERA', 'EGJB 072350Z 19009KT 0100 -DZ FG OVC000 11/11 Q1001', 'EGJB 072250Z 21010KT 0150 FG OVC000 11/11 Q1002', 'EGJB 072150Z 22010KT 0150 FG OVC000 11/11 Q1003', 'EGJB 072120Z 22009KT 0150 R27/0250N FG OVC000 11/11 Q1003', 'EGJB 072050Z 23010KT 0200 R27/0325N -DZ FG OVC000 11/11 Q1003', 'EGJB 072020Z 24009KT 0300 R27/0375N FG OVC000 11/11 Q1003', 'EGJB 071950Z 24010KT 0300 R27/0325N -DZ FG OVC000 11/11 Q1003', 'EGJB 071920Z 25009KT 0800 R27/0800N -DZ FG BKN000 11/11 Q1004 REDZ', 'EGJB 071850Z 24009KT 1000 R27/1200U DZ VCFG SCT000 OVC001 11/11 Q1004', 'EGJB 071820Z 25007KT 0800 R27/1000N DZ FG BKN000 11/11 Q1004', 'EGJB 071750Z 26009KT 0200 R27/0375N -DZ FG OVC000 11/11 Q1004', 'EGJB 071720Z 27009KT 0300 R27/0375N -DZ FG OVC000 11/11 Q1004', 'EGJB 071650Z 27009KT 0300 R27/0350N -DZ FG OVC000 11/11 Q1004', 'EGJB 071620Z 26010KT 0300 R27/0350N -DZ FG OVC000 11/11 Q1004', 'EGJB 071550Z 26011KT 0500 R27/0450N -DZ FG BKN000 11/11 Q1004', 'EGJB 071520Z 26012KT 0500 R27/0650U -DZ FG BKN000 11/11 Q1004', 'EGJB 071450Z 26013KT 0500 R27/0400N -DZ FG BKN000 11/11 Q1004', 'EGJB 071420Z 26012KT 0200 R27/0250N FG OVC000 11/11 Q1004', 'EGJB 071350Z 26014KT 0200 R27/0275N FG OVC000 11/11 Q1004', 'EGJB 071320Z 26012KT 0200 R27/0250N FG OVC000 11/11 Q1004', 'EGJB 071250Z 26012KT 0200 R27/0300N FG OVC000 11/11 Q1004', 'EGJB 071220Z 26013KT 0150 R27/0275N -DZ FG OVC000 12/12 Q1005', 'EGJB 071150Z 26014KT 0100 R27/0225N -DZ FG OVC000 12/12 Q1005', 'EGJB 071120Z 26014KT 0150 R27/0275N -DZ FG OVC000 12/12 Q1005', 'EGJB 071050Z 25016KT 0100 R27/0250N -DZ FG OVC000 11/11 Q1005', 'EGJB 071020Z 25015KT 0100 R27/0225N -DZ FG OVC000 11/11 Q1005', 'EGJB 070950Z 24014KT 0100 R27/0250N -DZ FG OVC000 11/11 Q1005', 'EGJB 070920Z 23014KT 0100 R27/0200N -DZ FG OVC000 11/11 Q1005', 'EGJB 070850Z 23015KT 0200 R27/0375N -DZ FG OVC000 11/11 Q1005', 'EGJB 070820Z 22014KT 0100 R27/0275N -DZ FG OVC000 11/11 Q1005', 'EGJB 070750Z 22015KT 0300 R27/0700D -DZ FG BKN000 11/11 Q1005 REDZ', 'EGJB 070720Z 22016KT 1200 DZRA BR FEW000 SCT001 BKN002 11/11 Q1006', 'EGJB 070650Z 22015KT 2300 DZRA BR FEW001 BKN002 BKN003 11/11 Q1006', 'EGJB 070620Z 23019KT 2500 -RADZ BR BKN002 11/11 Q1006', 'EGJB 070550Z 23019KT 4000 -RADZ BKN003 11/11 Q1006', 'EGJB 070520Z 23020KT 4000 -RADZ SCT003 BKN005 11/10 Q1007', 'EGJB 070450Z 23020G30KT 8000 -RADZ SCT005 BKN007 11/10 Q1007', 'EGJB 070420Z 23019KT 8000 -DZ SCT005 BKN007 11/10 Q1007', 'EGJB 070350Z 23020KT 9999 SCT006 BKN008 11/10 Q1008', 'EGJB 070250Z 24022KT 9999 -RA SCT006 BKN009 11/10 Q1008', 'EGJB 070150Z 23022KT 9999 VCSH SCT007 BKN012 11/10 Q1009', 'EGJB 070050Z 23022KT 9999 -RA SCT008 BKN012 11/10 Q1010', 'EGJB 062350Z 23021G31KT 9999 SCT008 BKN012 11/10 Q1010', 'EGJB 062250Z 23020KT 9999 FEW008 BKN012 11/10 Q1011', 'EGJB 062150Z 23020KT 9999 FEW008 BKN012 BKN020 11/10 Q1012', 'EGJB 062050Z 23023KT 9999 FEW008 BKN012 BKN024 11/10 Q1012', 'EGJB 062020Z 23021KT 9999 FEW008 BKN013 BKN024 11/10 Q1012', 'EGJB 061950Z 23022KT 9999 FEW008 BKN025 11/10 Q1012', 'EGJB 061920Z 23020KT 9999 FEW007 BKN027 11/10 Q1013', 'EGJB 061850Z 23019KT 9999 FEW007 SCT009 BKN032 11/10 Q1013', 'EGJB 061820Z 23019KT 9999 FEW007 SCT009 BKN032 11/10 Q1013', 'EGJB 061750Z 24020KT 9999 FEW007 BKN010 BKN035 11/10 Q1014', 'EGJB 061720Z 23020KT 9999 FEW007 BKN010 BKN048 11/10 Q1014', 'EGJB 061650Z 24021KT 9999 FEW008 BKN048 12/10 Q1014', 'EGJB 061620Z 23021G33KT 9999 FEW005 BKN010 11/10 Q1014', 'EGJB 061550Z 23019KT 9999 FEW004 BKN008 11/10 Q1014', 'EGJB 061520Z 23020KT 9999 FEW006 BKN008 12/10 Q1015', 'EGJB 061450Z 23020KT 9999 FEW007 BKN009 11/10 Q1015', 'EGJB 061420Z 24023KT 9999 FEW009 BKN048 12/10 Q1015', 'EGJB 061350Z 24020KT 9999 FEW006 BKN008 12/10 Q1016', 'EGJB 061320Z 24023KT 9999 FEW006 BKN008 12/10 Q1016', 'EGJB 061250Z 23019KT 9999 FEW006 11/10 Q1016', 'EGJB 061220Z 23019KT 9999 FEW006 11/10 Q1017', 'EGJB 061150Z 23019KT 9999 SCT007 11/10 Q1017', 'EGJB 061120Z 23018KT 9999 BKN007 11/10 Q1017', 'EGJB 061050Z 24019KT 9999 BKN007 11/10 Q1017', 'EGJB 061020Z 23018KT 9999 BKN006 11/10 Q1017', 'EGJB 060950Z 24018KT 9999 SCT005 11/10 Q1017', 'EGJB 060920Z 23018KT 9999 BKN005 11/10 Q1017', 'EGJB 060850Z 23017KT 9999 BKN005 BKN045 11/10 Q1017', 'EGJB 060820Z 23017KT 9999 SCT005 BKN007 11/10 Q1017', 'EGJB 060750Z 23017KT 9999 SCT005 BKN007 11/10 Q1018', 'EGJB 060720Z 24019KT 9999 BKN005 11/10 Q1018', 'EGJB 060650Z 23017KT 9999 FEW004 BKN007 11/10 Q1018', 'EGJB 060620Z 24017KT 9999 -DZ FEW004 BKN007 11/10 Q1018', 'EGJB 060550Z 23018KT 9999 BKN009 11/10 Q1018', 'EGJB 060520Z 23018KT 9999 BKN008 11/09 Q1018', 'EGJB 060450Z 23017KT 9999 BKN010 11/09 Q1018', 'EGJB 060420Z 23019KT 9999 BKN010 11/09 Q1018', 'EGJB 060350Z 23017KT 9999 BKN011 11/09 Q1019', 'EGJB 060250Z 24017KT 9999 SCT015 BKN035 11/09 Q1019', 'EGJB 060150Z 24016KT 9999 BKN045 11/08 Q1020', 'EGJB 060050Z 23018KT 9999 BKN044 11/08 Q1021', 'EGJB 052350Z 23017KT 9999 BKN043 11/08 Q1021', 'EGJB 052250Z 23017KT 9999 BKN040 11/08 Q1021', 'EGJB 052150Z 23017KT 9999 BKN040 11/08 Q1021']","['2024-02-08 20:50:00', '2024-02-08 20:20:00', '2024-02-08 19:50:00', '2024-02-08 19:20:00', '2024-02-08 18:50:00', '2024-02-08 18:20:00', '2024-02-08 17:50:00', '2024-02-08 17:20:00', '2024-02-08 16:50:00', '2024-02-08 16:20:00', '2024-02-08 15:50:00', '2024-02-08 15:20:00', '2024-02-08 14:50:00', '2024-02-08 14:20:00', '2024-02-08 13:50:00', '2024-02-08 13:20:00', '2024-02-08 12:50:00', '2024-02-08 12:20:00', '2024-02-08 11:50:00', '2024-02-08 11:20:00', '2024-02-08 10:50:00', '2024-02-08 10:20:00', '2024-02-08 09:50:00', '2024-02-08 09:20:00', '2024-02-08 08:50:00', '2024-02-08 08:20:00', '2024-02-08 07:50:00', '2024-02-08 07:20:00', '2024-02-08 06:50:00', '2024-02-08 06:20:00', '2024-02-08 05:50:00', '2024-02-08 05:20:00', '2024-02-08 04:50:00', '2024-02-08 04:20:00', '2024-02-08 03:50:00', '2024-02-08 02:50:00', '2024-02-08 01:50:00', '2024-02-08 00:50:00', '2024-02-07 23:50:00', '2024-02-07 22:50:00', '2024-02-07 21:50:00', '2024-02-07 21:20:00', '2024-02-07 20:50:00', '2024-02-07 20:20:00', '2024-02-07 19:50:00', '2024-02-07 19:20:00', '2024-02-07 18:50:00', '2024-02-07 18:20:00', '2024-02-07 17:50:00', '2024-02-07 17:20:00', '2024-02-07 16:50:00', '2024-02-07 16:20:00', '2024-02-07 15:50:00', '2024-02-07 15:20:00', '2024-02-07 14:50:00', '2024-02-07 14:20:00', '2024-02-07 13:50:00', '2024-02-07 13:20:00', '2024-02-07 12:50:00', '2024-02-07 12:20:00', '2024-02-07 11:50:00', '2024-02-07 11:20:00', '2024-02-07 10:50:00', '2024-02-07 10:20:00', '2024-02-07 09:50:00', '2024-02-07 09:20:00', '2024-02-07 08:50:00', '2024-02-07 08:20:00', '2024-02-07 07:50:00', '2024-02-07 07:20:00', '2024-02-07 06:50:00', '2024-02-07 06:20:00', '2024-02-07 05:50:00', '2024-02-07 05:20:00', '2024-02-07 04:50:00', '2024-02-07 04:20:00', '2024-02-07 03:50:00', '2024-02-07 02:50:00', '2024-02-07 01:50:00', '2024-02-07 00:50:00', '2024-02-06 23:50:00', '2024-02-06 22:50:00', '2024-02-06 21:50:00', '2024-02-06 20:50:00', '2024-02-06 20:20:00', '2024-02-06 19:50:00', '2024-02-06 19:20:00', '2024-02-06 18:50:00', '2024-02-06 18:20:00', '2024-02-06 17:50:00', '2024-02-06 17:20:00', '2024-02-06 16:50:00', '2024-02-06 16:20:00', '2024-02-06 15:50:00', '2024-02-06 15:20:00', '2024-02-06 14:50:00', '2024-02-06 14:20:00', '2024-02-06 13:50:00', '2024-02-06 13:20:00', '2024-02-06 12:50:00', '2024-02-06 12:20:00', '2024-02-06 11:50:00', '2024-02-06 11:20:00', '2024-02-06 10:50:00', '2024-02-06 10:20:00', '2024-02-06 09:50:00', '2024-02-06 09:20:00', '2024-02-06 08:50:00', '2024-02-06 08:20:00', '2024-02-06 07:50:00', '2024-02-06 07:20:00', '2024-02-06 06:50:00', '2024-02-06 06:20:00', '2024-02-06 05:50:00', '2024-02-06 05:20:00', '2024-02-06 04:50:00', '2024-02-06 04:20:00', '2024-02-06 03:50:00', '2024-02-06 02:50:00', '2024-02-06 01:50:00', '2024-02-06 00:50:00', '2024-02-05 23:50:00', '2024-02-05 22:50:00', '2024-02-05 21:50:00']"
Guinea, Conakry International Airport (CKY/GUCY) ,"['GUCY 082000Z 28006KT 4000 HZ NSC 29/24 Q1010 NOSIG', 'GUCY 081900Z 29008KT 4000 HZ NSC 30/23 Q1009 NOSIG', 'GUCY 081800Z 28008KT 4000 HZ NSC 30/24 Q1009 NOSIG', 'GUCY 081700Z 27010KT 4000 HZ NSC 33/20 Q1008 NOSIG', 'GUCY 081600Z 27012KT 4000 HZ NSC 33/20 Q1009 NOSIG', 'GUCY 081500Z 20008KT 4000 HZ NSC 34/18 Q1010 NOSIG', 'GUCY 081300Z 19006KT 4000 HZ NSC 33/18 Q1012 NOSIG', 'GUCY 081200Z 17004KT 4000 HZ NSC 32/18 Q1013 NOSIG', 'GUCY 081100Z 12004KT 4000 HZ NSC 30/22 Q1014 NOSIG', 'GUCY 081000Z 09004KT 4000 HZ SCT110 30/23 Q1014 NOSIG', 'GUCY 080900Z 00000KT 4000 HZ SCT110 28/23 Q1014 NOSIG', 'GUCY 080800Z 36004KT 9999 BKN110 27/22 Q1013 NOSIG', 'GUCY 080700Z VRB02KT 4000 BR BKN110 27/23 Q1013 NOSIG', 'GUCY 080600Z VRB02KT 4000 BR NSC 27/23 Q1012 NOSIG', 'GUCY 080300Z 34008KT 4000 BR NSC 28/23 Q1012 NOSIG', 'GUCY 080200Z 34008KT 4000 BR NSC 28/24 Q1012 NOSIG', 'GUCY 080100Z 35012KT 4000 BR NSC 28/24 Q1013 NOSIG', 'GUCY 080000Z 34010KT 4000 BR NSC 28/24 Q1013 NOSIG', 'GUCY 072300Z 34008KT 5000 HZ NSC 29/24 Q1013 NOSIG', 'GUCY 072200Z 32008KT 5000 HZ SCT110 29/23 Q1013 NOSIG', 'GUCY 072100Z 33008KT 4000 HZ SCT110 29/23 Q1012 NOSIG', 'GUCY 072000Z 32006KT 4000 BR SCT110 29/25 Q1011 NOSIG', 'GUCY 071900Z 29008KT 4000 HZ SCT110 29/24 Q1011 NOSIG', 'GUCY 071800Z 28010KT 4000 HZ SCT110 30/24 Q1010 NOSIG', 'GUCY 071700Z 28010KT 4000 HZ SCT110 32/23 Q1010 NOSIG', 'GUCY 071600Z 27008KT 4000 HZ SCT110 33/21 Q1010 NOSIG', 'GUCY 071500Z 29008KT 4000 HZ SCT110 33/21 Q1011 NOSIG', 'GUCY 071400Z 20008KT 5000 HZ SCT110 33/22 Q1012 NOSIG', 'GUCY 071300Z 20004KT 5000 HZ FEW015 SCT110 32/21 Q1013 NOSIG', 'GUCY 071200Z VRB02KT 5000 HZ SCT110 32/23 Q1014 NOSIG', 'GUCY 071100Z 36006KT 5000 HZ NSC 30/24 Q1015 NOSIG', 'GUCY 071000Z 36008KT 4000 BR NSC 28/24 Q1015 NOSIG', 'GUCY 070900Z 07004KT 3500 BR NSC 26/24 Q1015 NOSIG', 'GUCY 070800Z 08004KT 4000 BR NSC 27/25 Q1014 NOSIG', 'GUCY 070700Z 08004KT 4000 BR NSC 27/25 Q1014 NOSIG', 'GUCY 070600Z VRB02KT 4000 BR NSC 27/25 Q1014 NOSIG', 'GUCY 070500Z VRB02KT 4000 BR NSC 27/25 Q1013 NOSIG', 'GUCY 070400Z 08004KT 4000 BR NSC 27/25 Q1013 NOSIG', 'GUCY 070200Z VRB02KT 4000 BR NSC 27/25 Q1014 NOSIG', 'GUCY 070100Z 35004KT 4000 BR NSC 27/25 Q1014 NOSIG', 'GUCY 070000Z 30006KT 4000 BR NSC 28/26 Q1015 NOSIG', 'GUCY 062300Z 30006KT 4000 BR NSC 27/24 Q1015 NOSIG', 'GUCY 062200Z 30004KT 4000 BR NSC 28/24 Q1014 NOSIG', 'GUCY 062100Z 29006KT 4000 HZ NSC 28/24 Q1013 NOSIG', 'GUCY 062000Z 29008KT 4000 HZ NSC 29/24 Q1012 NOSIG', 'GUCY 061900Z 27006KT 4000 HZ NSC 29/23 Q1011 NOSIG', 'GUCY 061800Z 28008KT 4000 HZ NSC 31/23 Q1011 NOSIG', 'GUCY 061700Z 24010KT 4000 HZ NSC 31/23 Q1010 NOSIG', 'GUCY 061600Z 23010KT 4000 HZ NSC 32/21 Q1010 NOSIG', 'GUCY 061500Z 23008KT 4000 HZ NSC 32/19 Q1011 NOSIG', 'GUCY 061400Z 22008KT 4000 HZ NSC 31/23 Q1012 NOSIG', 'GUCY 061300Z 19008KT 4000 HZ NSC 30/23 Q1013 NOSIG', 'GUCY 061200Z 19006KT 4000 HZ NSC 31/21 Q1014 NOSIG', 'GUCY 061100Z 12008KT 5000 HZ NSC 30/22 Q1014 NOSIG', 'GUCY 061000Z 36004KT 4000 HZ NSC 28/24 Q1014 NOSIG', 'GUCY 060900Z VRB02KT 4000 HZ NSC 25/20 Q1014 NOSIG', 'GUCY 060800Z 00000KT 3000 BR NSC 24/20 Q1014 NOSIG', 'GUCY 060700Z 00000KT 4000 BR NSC 24/19 Q1013 NOSIG', 'GUCY 060600Z 00000KT 4000 BR NSC 25/23 Q1012 NOSIG', 'GUCY 060500Z 00000KT 4000 BR NSC 25/24 Q1012 NOSIG', 'GUCY 060200Z 00000KT 3000 BR NSC 26/23 Q1012 NOSIG', 'GUCY 060100Z 00000KT 3000 BR NSC 26/23 Q1013 NOSIG', 'GUCY 060000Z 00000KT 3000 BR NSC 26/24 Q1013 NOSIG', 'GUCY 052300Z 00000KT 3000 BR NSC 27/24 Q1014 NOSIG', 'GUCY 052200Z 00000KT 5000 HZ NSC 28/23 Q1013 NOSIG']","['2024-02-08 20:00:00', '2024-02-08 19:00:00', '2024-02-08 18:00:00', '2024-02-08 17:00:00', '2024-02-08 16:00:00', '2024-02-08 15:00:00', '2024-02-08 13:00:00', '2024-02-08 12:00:00', '2024-02-08 11:00:00', '2024-02-08 10:00:00', '2024-02-08 09:00:00', '2024-02-08 08:00:00', '2024-02-08 07:00:00', '2024-02-08 06:00:00', '2024-02-08 03:00:00', '2024-02-08 02:00:00', '2024-02-08 01:00:00', '2024-02-08 00:00:00', '2024-02-07 23:00:00', '2024-02-07 22:00:00', '2024-02-07 21:00:00', '2024-02-07 20:00:00', '2024-02-07 19:00:00', '2024-02-07 18:00:00', '2024-02-07 17:00:00', '2024-02-07 16:00:00', '2024-02-07 15:00:00', '2024-02-07 14:00:00', '2024-02-07 13:00:00', '2024-02-07 12:00:00', '2024-02-07 11:00:00', '2024-02-07 10:00:00', '2024-02-07 09:00:00', '2024-02-07 08:00:00', '2024-02-07 07:00:00', '2024-02-07 06:00:00', '2024-02-07 05:00:00', '2024-02-07 04:00:00', '2024-02-07 02:00:00', '2024-02-07 01:00:00', '2024-02-07 00:00:00', '2024-02-06 23:00:00', '2024-02-06 22:00:00', '2024-02-06 21:00:00', '2024-02-06 20:00:00', '2024-02-06 19:00:00', '2024-02-06 18:00:00', '2024-02-06 17:00:00', '2024-02-06 16:00:00', '2024-02-06 15:00:00', '2024-02-06 14:00:00', '2024-02-06 13:00:00', '2024-02-06 12:00:00', '2024-02-06 11:00:00', '2024-02-06 10:00:00', '2024-02-06 09:00:00', '2024-02-06 08:00:00', '2024-02-06 07:00:00', '2024-02-06 06:00:00', '2024-02-06 05:00:00', '2024-02-06 02:00:00', '2024-02-06 01:00:00', '2024-02-06 00:00:00', '2024-02-05 23:00:00', '2024-02-05 22:00:00']"
Guinea-bissau, Bissau Osvaldo Vieira International Airport (OXB/GGOV) ,"['GGOV 082000Z 22003KT 6000 NSC 30/14 Q1010 NOSIG', 'GGOV 081900Z VRB03KT 6000 NSC 33/13 Q1009 NOSIG', 'GGOV 081800Z VRB02KT 7000 NSC 37/05 Q1009 NOSIG', 'GGOV 081700Z 08005KT 050V140 7000 NSC 38/04 Q1009 NOSIG', 'GGOV 081600Z 11007KT 060V150 8000 NSC 38/04 Q1009 NOSIG', 'GGOV 081500Z 09009KT 060V120 6000 NSC 38/00 Q1010 NOSIG', 'GGOV 081400Z 07008KT 040V130 6000 NSC 37/04 Q1011 NOSIG', 'GGOV 081300Z 10007KT 060V130 6000 NSC 34/08 Q1012 NOSIG', 'GGOV 081200Z 08006KT 030V100 6000 NSC 33/08 Q1013 NOSIG', 'GGOV 081100Z 06008KT 6000 NSC 31/07 Q1013 NOSIG', 'GGOV 081000Z 05006KT 020V080 6000 NSC 30/08 Q1014 NOSIG', 'GGOV 080900Z VRB01KT 6000 NSC 26/09 Q1013 NOSIG', 'GGOV 080800Z 02003KT 6000 NSC 22/14 Q1013 NOSIG', 'GGOV 080600Z 01003KT 6000 NSC 22/18 Q1012 NOSIG', 'GGOV 080500Z 36003KT 6000 NSC 23/19 Q1012 NOSIG', 'GGOV 080400Z VRB02KT 6000 NSC 22/20 Q1012 NOSIG', 'GGOV 080300Z 34002KT 6000 NSC 23/21 Q1012 NOSIG', 'GGOV 080200Z VRB02KT 6000 NSC 23/21 Q1013 NOSIG', 'GGOV 080100Z VRB02KT 6000 NSC 23/21 Q1013 NOSIG', 'GGOV 072300Z 33004KT 270V020 6000 NSC 24/20 Q1014 NOSIG', 'GGOV 072200Z VRB03KT 6000 NSC 26/18 Q1013 NOSIG', 'GGOV 072100Z 27002KT 6000 NSC 26/17 Q1012 NOSIG', 'GGOV 072000Z 24003KT 210V280 6000 NSC 28/16 Q1011 NOSIG', 'GGOV 071900Z 23004KT 210V280 6000 NSC 29/18 Q1011 NOSIG', 'GGOV 071800Z 20005KT 8000 NSC 33/18 Q1011 NOSIG', 'GGOV 071700Z 21004KT 150V270 8000 NSC 34/16 Q1011 NOSIG', 'GGOV 071600Z 18005KT 120V230 8000 NSC 35/15 Q1011 NOSIG', 'GGOV 071500Z 14004KT 080V220 8000 NSC 35/12 Q1011 NOSIG', 'GGOV 071300Z 09005KT 040V170 8000 NSC 34/12 Q1013 NOSIG', 'GGOV 071200Z 08004KT 010V180 8000 NSC 33/13 Q1014 NOSIG', 'GGOV 071100Z VRB02KT 8000 NSC 30/17 Q1015 NOSIG', 'GGOV 071000Z VRB02KT 8000 NSC 26/20 Q1015 NOSIG', 'GGOV 070900Z VRB01KT 8000 NSC 22/20 Q1014 NOSIG', 'GGOV 070800Z VRB01KT 8000 NSC 20/19 Q1014 NOSIG', 'GGOV 070700Z 00000KT 6000 NSC 20/18 Q1014 NOSIG', 'GGOV 070400Z 01002KT 6000 NSC 21/19 Q1013 NOSIG', 'GGOV 070300Z 34002KT 6000 NSC 22/20 Q1014 NOSIG', 'GGOV 070200Z 34002KT 6000 NSC 22/20 Q1014 NOSIG', 'GGOV 062300Z VRB02KT 8000 NSC 24/20 Q1014 NOSIG', 'GGOV 062200Z 27003KT 8000 NSC 25/20 Q1014 NOSIG', 'GGOV 062100Z VRB03KT 8000 NSC 26/20 Q1013 NOSIG', 'GGOV 062000Z VRB01KT 8000 NSC 27/20 Q1012 NOSIG', 'GGOV 061900Z VRB02KT 8000 NSC 30/20 Q1011 NOSIG', 'GGOV 061800Z VRB03KT 8000 NSC 32/21 Q1011 NOSIG', 'GGOV 061700Z 20007KT 160V240 8000 NSC 33/20 Q1011 NOSIG', 'GGOV 061600Z 19008KT 160V220 8000 NSC 33/19 Q1011 NOSIG', 'GGOV 061500Z 18006KT 110V220 8000 NSC 34/11 Q1011 NOSIG', 'GGOV 061400Z 14005KT 080V170 8000 NSC 34/14 Q1012 NOSIG', 'GGOV 061300Z 11006KT 060V170 8000 NSC 33/12 Q1012 NOSIG', 'GGOV 061200Z 09005KT 040V130 8000 NSC 32/10 Q1013 NOSIG', 'GGOV 061100Z 06008KT 040V100 8000 NSC 30/11 Q1013 NOSIG', 'GGOV 061000Z 05005KT 8000 NSC 28/14 Q1014 NOSIG', 'GGOV 060900Z 00000KT 6000 NSC 22/19 Q1013 NOSIG', 'GGOV 060800Z 13003KT 6000 NSC 19/18 Q1013 NOSIG', 'GGOV 060700Z 00000KT 6000 NSC 19/17 Q1012 NOSIG', 'GGOV 060600Z 00000KT 6000 NSC 19/18 Q1012 NOSIG', 'GGOV 060500Z 00000KT 6000 NSC 21/18 Q1012 NOSIG', 'GGOV 060400Z 01002KT 6000 NSC 21/18 Q1012 NOSIG', 'GGOV 060300Z 29002KT 6000 NSC 21/18 Q1012 NOSIG', 'GGOV 060200Z 26002KT 6000 NSC 22/20 Q1013 NOSIG', 'GGOV 060100Z 29002KT 6000 NSC 22/21 Q1013 NOSIG', 'GGOV 052300Z 26002KT 6000 NSC 24/22 Q1013 NOSIG', 'GGOV 052200Z VRB02KT 6000 NSC 25/21 Q1013 NOSIG']","['2024-02-08 20:00:00', '2024-02-08 19:00:00', '2024-02-08 18:00:00', '2024-02-08 17:00:00', '2024-02-08 16:00:00', '2024-02-08 15:00:00', '2024-02-08 14:00:00', '2024-02-08 13:00:00', '2024-02-08 12:00:00', '2024-02-08 11:00:00', '2024-02-08 10:00:00', '2024-02-08 09:00:00', '2024-02-08 08:00:00', '2024-02-08 06:00:00', '2024-02-08 05:00:00', '2024-02-08 04:00:00', '2024-02-08 03:00:00', '2024-02-08 02:00:00', '2024-02-08 01:00:00', '2024-02-07 23:00:00', '2024-02-07 22:00:00', '2024-02-07 21:00:00', '2024-02-07 20:00:00', '2024-02-07 19:00:00', '2024-02-07 18:00:00', '2024-02-07 17:00:00', '2024-02-07 16:00:00', '2024-02-07 15:00:00', '2024-02-07 13:00:00', '2024-02-07 12:00:00', '2024-02-07 11:00:00', '2024-02-07 10:00:00', '2024-02-07 09:00:00', '2024-02-07 08:00:00', '2024-02-07 07:00:00', '2024-02-07 04:00:00', '2024-02-07 03:00:00', '2024-02-07 02:00:00', '2024-02-06 23:00:00', '2024-02-06 22:00:00', '2024-02-06 21:00:00', '2024-02-06 20:00:00', '2024-02-06 19:00:00', '2024-02-06 18:00:00', '2024-02-06 17:00:00', '2024-02-06 16:00:00', '2024-02-06 15:00:00', '2024-02-06 14:00:00', '2024-02-06 13:00:00', '2024-02-06 12:00:00', '2024-02-06 11:00:00', '2024-02-06 10:00:00', '2024-02-06 09:00:00', '2024-02-06 08:00:00', '2024-02-06 07:00:00', '2024-02-06 06:00:00', '2024-02-06 05:00:00', '2024-02-06 04:00:00', '2024-02-06 03:00:00', '2024-02-06 02:00:00', '2024-02-06 01:00:00', '2024-02-05 23:00:00', '2024-02-05 22:00:00']"
Guyana, Georgetown Eugene F. Correira International Airport (OGL/SYEC) ,"['SYEC 082100Z 07008KT 9999 FEW018 29/24 Q1011 NOSIG', 'SYEC 081800Z 07010KT 9999 FEW018 30/24 Q1012 NOSIG', 'SYEC 081500Z 08010KT 9999 SCT018 30/23 Q1014 NOSIG', 'SYEC 081200Z 08008KT 9999 FEW016 29/24 Q1014 RESHRA NOSIG', 'SYEC 071500Z 08010KT 9999 BKN020 30/24 Q1014 NOSIG', 'SYEC 071200Z 11004KT 9999 BKN016 SCT038 28/26 Q1014 NOSIG', 'SYEC 062200Z 07008KT 9999 FEW018CB SCT019 28/25 Q1010 NOSIG RMK CB SE-SW', 'SYEC 062100Z 08010KT 9000 -SHRA FEW020CB SCT021 BKN037 29/26 Q1010 NOSIG RMK CB WNW', 'SYEC 062000Z 07010KT 9999 SCT022 SCT040 30/25 Q1010 NOSIG', 'SYEC 061800Z 08012KT 9999 SCT022 31/25 Q1011 NOSIG', 'SYEC 061500Z 10010KT 9999 BKN020 31/25 Q1014 NOSIG', 'SYEC 061200Z 10008KT 9999 BKN017 29/25 Q1013 NOSIG', 'SYEC 061000Z 00000KT 9999 BKN015 25/24 Q1011 NOSIG', 'SYEC 052200Z 06006KT 9999 FEW017CB 28/24 Q1009 NOSIG RMK CB NNE & W']","['2024-02-08 21:00:00', '2024-02-08 18:00:00', '2024-02-08 15:00:00', '2024-02-08 12:00:00', '2024-02-07 15:00:00', '2024-02-07 12:00:00', '2024-02-06 22:00:00', '2024-02-06 21:00:00', '2024-02-06 20:00:00', '2024-02-06 18:00:00', '2024-02-06 15:00:00', '2024-02-06 12:00:00', '2024-02-06 10:00:00', '2024-02-05 22:00:00']"
Guyana, Georgetown Cheddi Jagan International Airport (GEO/SYCJ) ,"['SYCJ 082100Z 06014KT 9999 SCT020 30/24 Q1010 NOSIG', 'SYCJ 082000Z 07016KT 9999 SCT021 31/23 Q1010 NOSIG', 'SYCJ 081900Z 06016KT 9999 SCT021 31/23 Q1010 NOSIG', 'SYCJ 081800Z 06018KT 030V090 9999 SCT022 32/24 Q1011 NOSIG', 'SYCJ 081700Z 08016KT 050V120 9999 SCT022 32/23 Q1012 NOSIG', 'SYCJ 081600Z 10014KT 050V140 9999 SCT023 33/23 Q1013 NOSIG', 'SYCJ 081500Z 09014KT 9999 SCT022 32/23 Q1014 NOSIG', 'SYCJ 081400Z 07016KT 9999 SCT022 31/23 Q1014 NOSIG', 'SYCJ 081300Z 09014KT 9999 SCT020 30/24 Q1015 NOSIG', 'SYCJ 081200Z 10006KT 9999 FEW018 27/24 Q1014 NOSIG', 'SYCJ 081100Z 09004KT CAVOK 24/23 Q1013 NOSIG', 'SYCJ 081000Z 07004KT 9999 FEW018 24/23 Q1013 NOSIG', 'SYCJ 080900Z 05004KT 9999 BKN090 24/24 Q1012 NOSIG', 'SYCJ 080800Z 00000KT 9999 SKC 24/24 Q1012 NOSIG', 'SYCJ 080700Z 00000KT CAVOK 25/24 Q1012 NOSIG', 'SYCJ 080600Z 00000KT 9999 SKC 25/24 Q1013 NOSIG', 'SYCJ 080500Z 00000KT 9999 SKC 24/24 Q1013 NOSIG', 'SYCJ 080400Z 04004KT 9999 NSC 25/24 Q1014 NOSIG', 'SYCJ 080300Z 05004KT CAVOK 26/24 Q1014 NOSIG', 'SYCJ 080200Z 06006KT 9999 FEW018 26/25 Q1013 NOSIG', 'SYCJ 080100Z 05006KT CAVOK 26/25 Q1012 NOSIG', 'SYCJ 080000Z 06006KT CAVOK 27/25 Q1011 NOSIG', 'SYCJ 072300Z 06008KT CAVOK 28/24 Q1010 NOSIG', 'SYCJ 072200Z 07010KT CAVOK 29/24 Q1010 NOSIG', 'SYCJ 072100Z 07012KT 9999 FEW025 30/23 Q1010 NOSIG', 'SYCJ 072000Z 07014KT 9999 FEW025 32/23 Q1010 NOSIG', 'SYCJ 071900Z 06016KT 9999 FEW025 32/24 Q1011 NOSIG', 'SYCJ 071800Z 07016KT 9999 BKN024 33/24 Q1012 NOSIG', 'SYCJ 071700Z 09014KT 9999 BKN022 32/24 Q1012 NOSIG', 'SYCJ 071600Z 08014KT 9999 BKN022 32/24 Q1013 NOSIG', 'SYCJ 071500Z 10010KT 070V130 9999 BKN021 30/25 Q1014 NOSIG', 'SYCJ 071400Z 11008KT 9999 BKN019 30/25 Q1014 NOSIG', 'SYCJ 071300Z 13008KT 9999 BKN018 28/25 Q1014 NOSIG', 'SYCJ 071200Z 00000KT 9999 FEW016 27/25 Q1014 NOSIG', 'SYCJ 071100Z 00000KT 9999 FEW015 SCT038 25/24 Q1013 NOSIG', 'SYCJ 071000Z VRB02KT 9999 FEW015 SCT038 25/24 Q1012 RESHRA NOSIG', 'SYCJ 070900Z 00000KT 9999 -SHRA FEW015 SCT038 24/24 Q1012 NOSIG', 'SYCJ 070800Z 00000KT 9999 FEW015 24/24 Q1011 NOSIG', 'SYCJ 070700Z 00000KT 9999 FEW015 24/24 Q1011 NOSIG', 'SYCJ 070600Z 00000KT 9999 FEW015 24/24 Q1012 NOSIG', 'SYCJ 070500Z 00000KT 9999 FEW015 25/24 Q1012 NOSIG', 'SYCJ 070400Z 00000KT 9999 FEW015 25/24 Q1013 NOSIG', 'SYCJ 070300Z 00000KT 9999 FEW015 25/24 Q1013 NOSIG', 'SYCJ 070200Z 00000KT 9999 FEW017 26/24 Q1013 NOSIG', 'SYCJ 070100Z VRB02KT 9999 FEW017 26/25 Q1013 NOSIG', 'SYCJ 070000Z 09004KT 9999 FEW017 27/25 Q1012 NOSIG', 'SYCJ 062300Z 07008KT 9999 FEW018CB 28/25 Q1011 NOSIG RMK CB SE-W', 'SYCJ 062200Z 08010KT 9999 FEW021CB 29/24 Q1010 NOSIG RMK CB SE-W', 'SYCJ 062100Z 07016KT 9999 FEW021CB SCT100 30/25 Q1010 NOSIG RMK CB E-SE', 'SYCJ 062000Z 07016KT 9999 FEW021 SCT022 32/25 Q1009 NOSIG', 'SYCJ 061900Z 08012KT 9999 SCT022 34/25 Q1009 NOSIG', 'SYCJ 061800Z 09010KT 9999 BKN022 33/25 Q1010 NOSIG', 'SYCJ 061700Z 08010KT 9999 BKN022 34/25 Q1012 NOSIG', 'SYCJ 061600Z 09010KT 9999 BKN021 33/25 Q1013 NOSIG', 'SYCJ 061500Z 10010KT 9999 BKN019 33/25 Q1013 NOSIG', 'SYCJ 061400Z 10010KT 9999 BKN018 31/25 Q1014 NOSIG', 'SYCJ 061300Z 11010KT 9999 BKN018 29/25 Q1014 NOSIG', 'SYCJ 061200Z 10006KT 9999 BKN016 28/25 Q1013 NOSIG', 'SYCJ 061100Z VRB02KT 9999 FEW016 26/25 Q1012 NOSIG', 'SYCJ 061000Z VRB02KT 9999 FEW016 24/24 Q1011 NOSIG', 'SYCJ 060900Z VRB02KT 9999 FEW017 24/24 Q1011 NOSIG', 'SYCJ 060800Z VRB02KT 9999 FEW017 25/24 Q1010 NOSIG', 'SYCJ 060700Z VRB02KT 9999 FEW017 25/24 Q1010 NOSIG', 'SYCJ 060600Z 11004KT 9999 FEW017 26/25 Q1010 NOSIG', 'SYCJ 060500Z 08004KT 9999 FEW017 26/25 Q1011 NOSIG', 'SYCJ 060400Z 08004KT 9999 FEW017 26/25 Q1011 NOSIG', 'SYCJ 060300Z 08004KT 9999 FEW017 26/25 Q1011 NOSIG', 'SYCJ 060200Z 07004KT 9999 FEW017 27/25 Q1011 NOSIG', 'SYCJ 060100Z 07006KT 9999 FEW017 27/25 Q1011 NOSIG', 'SYCJ 060000Z 07006KT 9999 FEW018 27/25 Q1010 NOSIG', 'SYCJ 052300Z 06008KT 9999 FEW018CB 27/25 Q1010 NOSIG RMK CB S', 'SYCJ 052200Z 06012KT 9999 FEW020CB 29/25 Q1009 NOSIG RMK CB S']","['2024-02-08 20:57:00', '2024-02-08 20:00:00', '2024-02-08 19:00:00', '2024-02-08 18:00:00', '2024-02-08 17:00:00', '2024-02-08 16:00:00', '2024-02-08 15:00:00', '2024-02-08 14:00:00', '2024-02-08 13:00:00', '2024-02-08 12:00:00', '2024-02-08 11:00:00', '2024-02-08 10:00:00', '2024-02-08 09:00:00', '2024-02-08 08:00:00', '2024-02-08 07:00:00', '2024-02-08 06:00:00', '2024-02-08 05:00:00', '2024-02-08 04:00:00', '2024-02-08 03:00:00', '2024-02-08 02:00:00', '2024-02-08 01:00:00', '2024-02-08 00:00:00', '2024-02-07 23:00:00', '2024-02-07 22:00:00', '2024-02-07 21:00:00', '2024-02-07 20:00:00', '2024-02-07 19:00:00', '2024-02-07 18:00:00', '2024-02-07 17:00:00', '2024-02-07 16:00:00', '2024-02-07 15:00:00', '2024-02-07 14:00:00', '2024-02-07 13:00:00', '2024-02-07 12:00:00', '2024-02-07 11:00:00', '2024-02-07 10:00:00', '2024-02-07 09:00:00', '2024-02-07 08:00:00', '2024-02-07 07:00:00', '2024-02-07 06:00:00', '2024-02-07 05:00:00', '2024-02-07 04:00:00', '2024-02-07 03:00:00', '2024-02-07 02:00:00', '2024-02-07 01:00:00', '2024-02-07 00:00:00', '2024-02-06 23:00:00', '2024-02-06 22:00:00', '2024-02-06 21:00:00', '2024-02-06 20:00:00', '2024-02-06 19:00:00', '2024-02-06 18:00:00', '2024-02-06 17:00:00', '2024-02-06 16:00:00', '2024-02-06 15:00:00', '2024-02-06 14:00:00', '2024-02-06 13:00:00', '2024-02-06 12:00:00', '2024-02-06 11:00:00', '2024-02-06 10:00:00', '2024-02-06 09:00:00', '2024-02-06 08:00:00', '2024-02-06 07:00:00', '2024-02-06 06:00:00', '2024-02-06 05:00:00', '2024-02-06 04:00:00', '2024-02-06 03:00:00', '2024-02-06 02:00:00', '2024-02-06 01:00:00', '2024-02-06 00:00:00', '2024-02-05 23:00:00', '2024-02-05 22:00:00']"
Guyana, Lethem Airport (LTM/SYLT) ,"['SYLT 072100Z 08010KT 9999 SCT028 30/23 Q//// NOSIG', 'SYLT 071800Z 02010KT 9999 SCT028 30/24 Q//// NOSIG', 'SYLT 071200Z 08012KT 9999 FEW022 28/24 Q//// NOSIG', 'SYLT 061800Z 09010KT 9999 FEW024CB SCT028 36/23 Q//// NOSIG', 'SYLT 061500Z 07012KT 9999 SCT026 33/24 Q//// NOSIG', 'SYLT 061200Z 09012KT 9999 FEW022 BKN100 28/25 Q//// NOSIG']","['2024-02-07 21:00:00', '2024-02-07 18:00:00', '2024-02-07 12:00:00', '2024-02-06 18:00:00', '2024-02-06 15:00:00', '2024-02-06 12:00:00']"
Haiti, Cap-Haitien International Airport (CAP/MTCH) ,"['MTCH 062052Z 22012KT 9000 SCT024CB 29/17 Q1005 RMK: CB/SE/SW', 'MTCH 061957Z 24008KT 9000 SCT022CB BKN060 28/18 Q1005 RMK/ CB/ALLQDS', 'MTCH 061857Z 27011KT 9000 SCT024CB BKN060 28/19 Q1005 RMK: CB/SE/SW/NW', 'MTCH 061802Z 25016KT 9000 SCT022CB BKN060 28/18 Q1006 RMK: CB/SW/NE', 'MTCH 061704Z 23008KT 9000 SCT028CB BKN060 28/18 Q1007 RMK: CB/SSE/SW', 'MTCH 061557Z 20006KT 9000 SCT022CB BKN200 27/19 Q1008 RMK: CB/SE/SW/NE', 'MTCH 061503Z 20004KT 9000 SCT022CB BKN060 26/22 Q1008 RMK: CB/ALLQDS', 'MTCH 061404Z 20003KT 9000 SCT022CB BKN060 25/19 Q1008 RMK: CB/SW/NNW']","['2024-02-06 20:52:00', '2024-02-06 19:57:00', '2024-02-06 18:57:00', '2024-02-06 18:02:00', '2024-02-06 17:04:00', '2024-02-06 15:57:00', '2024-02-06 15:03:00', '2024-02-06 14:04:00']"
Honduras, La Ceiba Goloson International Airport (LCE/MHLC) ,"['MHLC 082100Z 07010KT 9999 FEW040 27/20 Q1014 A2995 NOSIG', 'MHLC 082000Z 05015KT 9999 FEW040 27/20 Q1015 A2997 NOSIG', 'MHLC 081900Z 05012KT 9999 SCT040 27/19 Q1015 A2997 NOSIG', 'MHLC 081800Z 05011KT 9999 FEW040 27/19 Q1016 A3000 NOSIG', 'MHLC 081700Z 07007KT 9999 FEW035 26/19 Q1017 A3003 NOSIG', 'MHLC 081600Z 06009KT 9999 FEW035 26/19 Q1017 A3003 NOSIG', 'MHLC 081500Z 00000KT 9999 FEW040 25/17 Q1017 A3003 NOSIG', 'MHLC 081400Z 00000KT 9999 FEW040 21/17 Q1017 A3003 NOSIG', 'MHLC 081300Z 00000KT 9999 FEW040 16/16 Q1016 A3000 NOSIG', 'MHLC 081200Z 00000KT 9999 FEW040 17/15 Q1016 A3000 NOSIG', 'MHLC 080600Z VRB02KT CAVOK 18/17 Q1017 A3003 NOSIG', 'MHLC 080500Z VRB02KT 9999 FEW030 19/17 Q1018 A3006 NOSIG', 'MHLC 080400Z VRB02KT 9999 FEW030 19/18 Q1018 A3006 NOSIG', 'MHLC 080300Z 00000KT 9999 FEW045 20/19 Q1018 A3006 NOSIG', 'MHLC 080200Z VRB02KT 9999 SCT045 21/19 Q1018 A3006 NOSIG', 'MHLC 080100Z 00000KT 9999 SCT040 21/19 Q1017 A3003 NOSIG', 'MHLC 080000Z VRB02KT 9999 FEW040CB BKN050 22/19 Q1017 A3003 NOSIG', 'MHLC 072300Z 17003KT 9999 FEW040CB BKN050 23/19 Q1017 A3003 NOSIG', 'MHLC 072200Z 20003KT 9999 FEW040CB BKN050 29/19 Q1016 A3000 NOSIG', 'MHLC 072100Z 30004KT 260V330 9999 FEW035TCU SCT050 24/19 Q1017 A3003 NOSIG', 'MHLC 072000Z 32006KT 9999 SCT040 25/18 Q1017 A3003 NOSIG', 'MHLC 071900Z 31009KT 290V350 9999 FEW040 25/18 Q1018 A3006 NOSIG', 'MHLC 071800Z 32004KT 9999 SCT040 25/18 Q1019 A3009 NOSIG', 'MHLC 071700Z 18003KT 150V220 9999 SCT040 25/18 Q1020 A3012 NOSIG', 'MHLC 071600Z 22005KT 190V260 9999 SCT040 23/18 Q1020 A3012 NOSIG', 'MHLC 071500Z 21004KT 9999 FEW035 BKN070 21/18 Q1015 A3012 NOSIG', 'MHLC 071400Z 19003KT 160V230 9999 SCT035 BKN070 20/17 Q1019 A3009 NOSIG', 'MHLC 071300Z 15003KT 110V180 9999 SCT035 OVC070 19/17 Q1019 A3009 NOSIG', 'MHLC 071200Z 04007KT 2000 RA SCT018 OVC060 20/18 Q1018 A3006 BECMG 5000 RA', 'MHLC 070600Z 22003KT 9999 FEW035 SCT080 20/17 Q1017 A3003 NOSIG', 'MHLC 070500Z 20004KT 9999 FEW035 SCT080 20/17 Q1018 A3006 NOSIG', 'MHLC 070400Z VRB02KT 9999 FEW040 21/15 Q1018 A3006 NOSIG', 'MHLC 070300Z 21005KT 9999 FEW040 SCT080 22/14 Q1018 A3006 NOSIG', 'MHLC 070200Z 20005KT 9999 FEW045 SCT080 22/15 Q1017 A3003 NOSIG', 'MHLC 070100Z 21006KT 9999 FEW045 22/15 Q1017 A3003 NOSIG', 'MHLC 070000Z 22006KT 9999 FEW045 SCT080 23/15 Q1016 A3000 NOSIG', 'MHLC 062300Z 27007KT 9999 FEW045 BKN080 24/15 Q1016 A3000 NOSIG', 'MHLC 062200Z 28011KT 250V310 9999 FEW045 SCT080 25/16 Q1015 A2997 NOSIG', 'MHLC 062100Z 29009KT 9999 FEW040 BKN080 25/15 Q1015 A2997 NOSIG', 'MHLC 062000Z NOSIG', 'MHLC 061800Z 12013KT 9999 SCT040TCU SCT080 ///// Q1017 A3003 NOSIG', 'MHLC 061700Z 26012KT 9999 FEW040 26/15 Q1018 A3006 NOSIG', 'MHLC 061600Z 23012KT 9999 SCT040TCU SCT080 24/14 Q1019 A3009 NOSIG', 'MHLC 061600Z 23012KT 9999 SCT040TCU SCT080 24/14 Q1019 A3009 NOSIG', 'MHLC 061500Z 24011KT 9999 SCT040TCU 22/15 Q1018 A3006 NOSIG', 'MHLC 061400Z 24008KT 9999 SCT040 SCT070 22/14 Q1018 A3006 NOSIG', 'MHLC 061300Z 25011KT 9999 SCT040 SCT070 23/14 Q1017 A3003 NOSIG', 'MHLC 061200Z 24008KT 9999 FEW040 BKN070 23/13 Q1016 A3000 NOSIG', 'MHLC 060600Z 23003KT 9999 FEW040 23/18 Q1013 A2992 NOSIG', 'MHLC 060500Z 21004KT 9999 FEW045 21/18 Q1013 A2992 NOSIG', 'MHLC 060400Z 19004KT 9999 FEW045 21/17 Q1013 A2992 NOSIG', 'MHLC 060300Z VRB02KT 9999 FEW040 20/18 Q1013 A2992 NOSIG', 'MHLC 060200Z VRB02KT 9999 FEW045 21/18 Q1012 A2989 NOSIG', 'MHLC 060100Z VRB02KT 9999 FEW040 21/18 Q1012 A2989 NOSIG', 'MHLC 060000Z 21004KT 9999 FEW040 24/18 Q1011 A2986 NOSIG', 'MHLC 052300Z 30003KT 9999 FEW040 27/18 Q1010 A2983 NOSIG', 'MHLC 052200Z 32004KT 9999 FEW040 27/17 Q1010 A2983 NOSIG']","['2024-02-08 21:00:00', '2024-02-08 20:00:00', '2024-02-08 19:00:00', '2024-02-08 18:00:00', '2024-02-08 17:00:00', '2024-02-08 16:00:00', '2024-02-08 15:00:00', '2024-02-08 14:00:00', '2024-02-08 13:00:00', '2024-02-08 12:00:00', '2024-02-08 06:00:00', '2024-02-08 05:00:00', '2024-02-08 04:00:00', '2024-02-08 03:00:00', '2024-02-08 02:00:00', '2024-02-08 01:00:00', '2024-02-08 00:00:00', '2024-02-07 23:00:00', '2024-02-07 22:00:00', '2024-02-07 21:00:00', '2024-02-07 20:00:00', '2024-02-07 19:00:00', '2024-02-07 18:00:00', '2024-02-07 17:00:00', '2024-02-07 16:00:00', '2024-02-07 15:00:00', '2024-02-07 14:00:00', '2024-02-07 13:00:00', '2024-02-07 12:00:00', '2024-02-07 06:00:00', '2024-02-07 05:00:00', '2024-02-07 04:00:00', '2024-02-07 03:00:00', '2024-02-07 02:00:00', '2024-02-07 01:00:00', '2024-02-07 00:00:00', '2024-02-06 23:00:00', '2024-02-06 22:00:00', '2024-02-06 21:00:00', '2024-02-06 20:00:00', '2024-02-06 18:00:00', '2024-02-06 17:00:00', '2024-02-06 16:00:00', '2024-02-06 15:59:00', '2024-02-06 15:00:00', '2024-02-06 14:00:00', '2024-02-06 13:00:00', '2024-02-06 12:00:00', '2024-02-06 06:00:00', '2024-02-06 05:00:00', '2024-02-06 04:00:00', '2024-02-06 03:00:00', '2024-02-06 02:00:00', '2024-02-06 01:00:00', '2024-02-06 00:00:00', '2024-02-05 23:00:00', '2024-02-05 22:00:00']"
Honduras, Roatan International Airport (RTB/MHRO) ,"['MHRO 082100Z 11011KT CAVOK 27/19 Q1015 A2997 NOSIG', 'MHRO 082000Z 11013KT 9999 FEW020 26/19 Q1016 A3000 NOSIG', 'MHRO 081900Z 12014KT 9999 SCT020 26/21 Q1017 A3003 NOSIG', 'MHRO 081800Z 12014KT 9999 BKN020 26/21 Q1017 A3003 NOSIG', 'MHRO 081700Z 11014KT 9999 BKN020 26/21 Q1018 A3006 NOSIG', 'MHRO 081600Z 10017KT 9999 SCT020 24/19 Q1018 A3006 NOSIG', 'MHRO 081500Z 11010KT 9999 SCT015 BKN070 24/20 Q1018 A3006 RERA NOSIG', 'MHRO 081400Z 10011KT 9999 SCT020 BKN070 23/19 Q1017 A3003 NOSIG', 'MHRO 081300Z 09010KT 040V130 9999 FEW020 FEW022CB 23/20 Q1017 A3003 RERA NOSIG', 'MHRO 081200Z 05005KT 020V110 9999 SCT020CB BKN070 22/20 Q1016 A3000 NOSIG', 'MHRO 080600Z 05006KT 9999 FEW022 22/18 Q1017 A3003 NOSIG', 'MHRO 080600Z 05006KT 9999 FEW022 22/18 Q1017 A3003 NOSIG', 'MHRO 080500Z 05004KT 9999 SCT022 22/18 Q1018 A3006 NOSIG', 'MHRO 080400Z 07004KT 9999 SCT022 SCT080 22/19 Q1018 A3006 NOSIG', 'MHRO 080400Z 07004KT 9999 SCT022 SCT080 22/19 Q1018 A3006 NOSIG', 'MHRO 080300Z 12004KT 9999 FEW022 SCT080 21/17 Q1018 A3006 NOSIG', 'MHRO 080200Z 01004KT 9999 FEW022 BKN070 22/17 Q1018 A3006 NOSIG', 'MHRO 080100Z VRB02KT 9999 FEW022 BKN070 24/17 Q1017 A3003 NOSIG', 'MHRO 080000Z 01003KT 9999 FEW022 BKN080 24/16 Q1017 A3003 NOSIG', 'MHRO 072300Z 36005KT 330V040 9999 FEW020 BKN070 25/16 Q1017 A3003 NOSIG', 'MHRO 072200Z 36005KT 320V040 9999 FEW020 BKN070 26/17 Q1016 A3000 NOSIG', 'MHRO 072100Z 01007KT 320V060 9999 FEW020 BKN070 25/17 Q1017 A3003 NOSIG', 'MHRO 072000Z 01007KT 330V050 9999 FEW020 BKN070 25/17 Q1017 A3003 NOSIG', 'MHRO 071900Z VRB05KT 9999 FEW020 BKN070 26/17 Q1018 A3006 NOSIG', 'MHRO 071800Z 29005KT 240V340 9999 FEW020 FEW022CB BKN070 24/17 Q1019 A3009 NOSIG', 'MHRO 071700Z 30004KT 240V350 9999 FEW020 FEW022CB BKN070 25/17 Q1019 A3009 NOSIG', 'MHRO 071600Z VRB04KT 9999 FEW020 FEW022CB BKN080 25/17 Q1019 A3009 NOSIG', 'MHRO 071500Z 31005KT 240V350 9999 FEW020 SCT080 25/17 Q1019 A3009 NOSIG', 'MHRO 071400Z 29003KT 210V350 9999 FEW020 25/17 Q1019 A3009 NOSIG', 'MHRO 071300Z 30004KT 260V330 9999 FEW020 FEW022CB 23/16 Q1018 A3006 NOSIG', 'MHRO 071200Z 31006KT 230V350 9999 FEW020 FEW022CB 23/17 Q1017 A3003 NOSIG', 'MHRO 070600Z 30003KT 9999 FEW025 21/16 Q1017 A3007 NOSIG', 'MHRO 070500Z VRB02KT 9999 FEW025 21/16 Q1018 A3006 NOSIG', 'MHRO 070400Z 17004KT 230V320 9999 FEW025 23/15 Q1018 A3006 NOSIG', 'MHRO 070300Z 27006KT 9999 FEW025 23/15 Q1018 A3006 NOSIG', 'MHRO 070200Z 27007KT 9999 FEW025 23/15 Q1017 A3003 NOSIG', 'MHRO 070100Z 26010KT 9999 FEW025 23/15 Q1016 A3000 NOSIG', 'MHRO 070100Z 26010KT 9999 FEW025 23/15 Q1016 A3000 NOSIG', 'MHRO 070000Z 26010KT 9999 SCT025 23/15 Q1016 A3000 NOSIG', 'MHRO 070000Z 26010KT 9999 SCT025 23/15 Q1016 A3000 NOSIG', 'MHRO 062300Z 27010KT 220V330 9999 FEW025 24/16 Q1015 A2997 NOSIG', 'MHRO 062200Z 26013KT 240V310 9999 FEW025 24/16 Q1015 A2997 NOSIG', 'MHRO 062100Z 26014KT 220V310 9999 FEW025 24/15 Q1016 A3000 NOSIG', 'MHRO 062000Z 27012G26KT 230V340 9999 SCT025TCU 24/16 Q1016 A3000 NOSIG', 'MHRO 061900Z 26013G23KT 220V310 9999 SCT025TCU 25/16 Q1017 A3003 NOSIG', 'MHRO 061800Z 26013G23KT 230V300 9999 SCT020 FEW022TCU BKN070 24/15 Q1017 A3003 NOSIG', 'MHRO 061700Z 27011KT 230V310 9999 SCT020 FEW022TCU BKN070 26/23 Q1018 A3006 NOSIG', 'MHRO 061600Z 27015G38KT 230V310 9999 SCT020 BKN070 23/15 Q1018 A3006 NOSIG', 'MHRO 061600Z 27015G38KT 230V310 9999 SCT020 BKN070 23/15 Q1018 A3006 NOSIG', 'MHRO 061500Z 25015G47KT 180V310 9999 SCT020 24/14 Q1018 A3006 NOSIG', 'MHRO 061400Z 27012KT 230V310 9999 SCT020 24/15 Q1017 A3003 NOSIG', 'MHRO 061300Z 27012G26KT 240V320 9999 SCT020 24/14 Q1016 A3000 NOSIG', 'MHRO 061200Z 26013G25KT 230V320 9999 SCT020 24/15 Q1015 A2997 NOSIG', 'MHRO 060600Z 28020KT 9999 SCT025 26/20 Q1013 A2992 NOSIG', 'MHRO 060500Z 26014KT 9999 SCT030 26/18 Q1013 A2992 NOSIG', 'MHRO 060500Z 26014KT 9999 SCT030 26/18 Q1013 A2992 NOSIG', 'MHRO 060400Z 26010KT CAVOK 26/17 Q1013 A2991 NOSIG', 'MHRO 060300Z 28005KT CAVOK 25/21 Q1012 A2989 NOSIG', 'MHRO 060200Z 29008KT CAVOK 24/21 Q1012 A2989 NOSIG', 'MHRO 060100Z VRB02KT CAVOK 24/21 Q1011 A2986 NOSIG', 'MHRO 060000Z 33008KT CAVOK 25/21 Q1010 A2983 NOSIG', 'MHRO 052300Z 28010KT CAVOK 26/20 Q1010 A2983 NOSIG', 'MHRO 052200Z 27008KT 220V020 CAVOK 26/19 Q1010 A2983 NOSIG']","['2024-02-08 21:00:00', '2024-02-08 20:00:00', '2024-02-08 19:00:00', '2024-02-08 18:00:00', '2024-02-08 17:00:00', '2024-02-08 16:00:00', '2024-02-08 15:00:00', '2024-02-08 14:00:00', '2024-02-08 13:00:00', '2024-02-08 12:00:00', '2024-02-08 06:00:00', '2024-02-08 05:59:00', '2024-02-08 05:00:00', '2024-02-08 04:00:00', '2024-02-08 03:59:00', '2024-02-08 03:00:00', '2024-02-08 02:00:00', '2024-02-08 01:00:00', '2024-02-08 00:00:00', '2024-02-07 23:00:00', '2024-02-07 22:00:00', '2024-02-07 21:00:00', '2024-02-07 20:00:00', '2024-02-07 19:00:00', '2024-02-07 18:00:00', '2024-02-07 17:00:00', '2024-02-07 16:00:00', '2024-02-07 15:00:00', '2024-02-07 14:00:00', '2024-02-07 13:00:00', '2024-02-07 12:00:00', '2024-02-07 06:00:00', '2024-02-07 05:00:00', '2024-02-07 04:00:00', '2024-02-07 03:00:00', '2024-02-07 02:00:00', '2024-02-07 01:00:00', '2024-02-07 00:59:00', '2024-02-07 00:00:00', '2024-02-06 23:59:00', '2024-02-06 23:00:00', '2024-02-06 22:00:00', '2024-02-06 21:00:00', '2024-02-06 20:00:00', '2024-02-06 19:00:00', '2024-02-06 18:00:00', '2024-02-06 17:00:00', '2024-02-06 16:00:00', '2024-02-06 15:59:00', '2024-02-06 15:00:00', '2024-02-06 14:00:00', '2024-02-06 13:00:00', '2024-02-06 12:00:00', '2024-02-06 06:00:00', '2024-02-06 05:00:00', '2024-02-06 04:59:00', '2024-02-06 04:00:00', '2024-02-06 03:00:00', '2024-02-06 02:00:00', '2024-02-06 01:00:00', '2024-02-06 00:00:00', '2024-02-05 23:00:00', '2024-02-05 22:00:00']"
Honduras, San Pedro Sula La Mesa International Airport (SAP/MHLM) ,"['MHLM 082100Z 04013KT 9999 FEW028 28/19 Q1013 A2992 NOSIG', 'MHLM 082000Z 06007KT 9999 FEW028 28/17 Q1014 A2995 NOSIG', 'MHLM 081900Z 05008KT 9999 SCT028 27/17 Q1015 A2997 NOSIG', 'MHLM 081800Z 07005KT 9999 FEW028 27/17 Q1016 A3000 NOSIG', 'MHLM 081700Z VRB03KT 9999 FEW025 27/17 Q1017 A3003 NOSIG', 'MHLM 081600Z 04008KT 170V330 9999 FEW025 25/17 Q1018 A3006 NOSIG', 'MHLM 081500Z 24005KT 200V280 9999 FEW025 23/18 Q1018 A3006 NOSIG', 'MHLM 081400Z 24004KT 9999 FEW020 20/18 Q1017 A3003 NOSIG', 'MHLM 081300Z 00000KT 9999 FEW020 17/17 Q1017 A3003 NOSIG', 'MHLM 081200Z 23002KT 9999 FEW020 17/16 Q1016 A3000 NOSIG', 'MHLM 081100Z 00000KT 9999 5000NE BR FEW005 17/17 Q1016 A3000 NOSIG', 'MHLM 081000Z 00000KT 8000 FEW025 17/17 Q1015 A2997 NOSIG', 'MHLM 080900Z 00000KT 9999 FEW025 18/17 Q1016 A3000 NOSIG', 'MHLM 080800Z 00000KT 9999 FEW025 SCT080 19/18 Q1016 A3000 NOSIG', 'MHLM 080700Z VRB02KT 9999 FEW030 SCT070 20/18 Q1017 A3003 NOSIG', 'MHLM 080600Z 00000KT 9999 FEW025 BKN070 21/19 Q1017 A3003 NOSIG', 'MHLM 080600Z 00000KT 9999 FEW025 BKN070 21/19 Q1017 A3003 NOSIG', 'MHLM 080500Z 07002KT 9999 FEW025 BKN070 21/18 Q1018 A3006 NOSIG', 'MHLM 080400Z VRB02KT 9999 FEW025 SCT070 21/18 Q1018 A3006 NOSIG', 'MHLM 080400Z VRB02KT 9999 FEW025 SCT070 21/18 Q1018 A3006 NOSIG', 'MHLM 080300Z 03004KT 9999 FEW025 SCT070 22/18 Q1018 A3006 NOSIG', 'MHLM 080200Z 01005KT 9999 FEW025 21/17 Q1017 A3003 NOSIG', 'MHLM 080100Z 01005KT 9999 FEW025 21/17 Q1017 A3003 NOSIG', 'MHLM 080000Z 03008KT 9999 FEW028 23/17 Q1016 A3000 NOSIG', 'MHLM 072300Z 03011KT 9999 FEW030 25/17 Q1016 A3000 NOSIG', 'MHLM 072200Z 04013KT 9999 FEW030 26/17 Q1016 A3000 NOSIG', 'MHLM 072100Z 03011KT 9999 FEW030 27/17 Q1016 A3000 NOSIG', 'MHLM 072000Z 03006KT 9999 FEW030 26/16 Q1017 A3003 NOSIG', 'MHLM 071900Z 04004KT 9999 FEW030 SCT080 26/16 Q1018 A3006 NOSIG', 'MHLM 071800Z VRB02KT 9999 FEW030 25/16 Q1019 A3009 NOSIG', 'MHLM 071700Z VRB02KT 9999 FEW030 23/17 Q1020 A3012 NOSIG', 'MHLM 071600Z 23002KT 9999 SCT030 BKN070 20/17 Q1021 A3015 NOSIG', 'MHLM 071500Z 25005KT 9999 SCT030 BKN070 20/17 Q1021 A3015 NOSIG', 'MHLM 071400Z 00000KT 9999 FEW030 BKN070 19/17 Q1020 A3012 NOSIG', 'MHLM 071300Z VRB02KT 9999 FEW025 BKN070 19/17 Q1019 A 3009 NOSIG', 'MHLM 071200Z 00000KT 9999 FEW026 BKN080 18/16 Q1018 A3006 NOSIG', 'MHLM 071100Z 22002KT 9999 FEW026 BKN080 18/ Q1018 A3006 NOSIG', 'MHLM 071000Z 24004KT 9999 FEW026 BKN080 19/15 Q1017 A3003 NOSIG', 'MHLM 070900Z 00000KT 9999 FEW026 BKN080 19/16 Q1017 A3003 NOSIG', 'MHLM 070800Z 22004KT 9999 FEW026 BKN080 19/15 Q1017 A3003 NOSIG', 'MHLM 070700Z 20004KT 9999 FEW026 BKN070 18/15 Q1017 A3003 NOSIG', 'MHLM 070600Z 23005KT 9999 FEW026 BKN080 18/15 Q1018 A3006 NOSIG', 'MHLM 070500Z 00000KT 9999 FEW026 BKN080 18/15 Q1018 A3006 NOSIG', 'MHLM 070400Z 00000KT 9999 FEW026 SCT080 18/15 Q1018 A3006 NOSIG', 'MHLM 070300Z 00000KT 9999 FEW026 SCT080 19/16 Q1018 A3006 NOSIG', 'MHLM 070200Z 19002KT 9999 FEW026 BKN070 20/16 Q1017 A3003 NOSIG', 'MHLM 070100Z 16004KT 9999 FEW026 BKN070 21/15 Q1017 A3003 NOSIG', 'MHLM 070100Z 16004KT 9999 FEW026 BKN070 21/15 Q1017 A3003 NOSIG', 'MHLM 070000Z 02003KT 9999 FEW030 23/13 Q1016 A3000 NOSIG', 'MHLM 070000Z 02003KT 9999 FEW030 23/13 Q1016 A3000 NOSIG', 'MHLM 062300Z 03004KT 9999 FEW032 SCT080 25/13 Q1015 A2997 NOSIG', 'MHLM 062200Z 02010KT 9999 FEW032 SCT080 25/12 Q1015 A2997 NOSIG', 'MHLM 062100Z 04012KT 9999 FEW034 BKN080 26/11 Q1015 A2997 NOSIG', 'MHLM 062000Z 01012KT 9999 FEW034 BKN080 27/11 Q1016 A3000 NOSIG', 'MHLM 061900Z 32006KT 9999 FEW032 SCT080 27/11 Q1017 A3003 NOSIG', 'MHLM 061800Z VRB03KT 9999 FEW032 SCT070 26/11 Q1018 A3006 NOSIG', 'MHLM 061700Z 09005KT 060V150 9999 SCT032 26/11 Q1019 A3009 NOSIG', 'MHLM 061600Z VRB03KT 9999 FEW030 26/12 Q1019 A3009 NOSIG', 'MHLM 061600Z VRB03KT 9999 FEW030 26/12 Q1019 A3009 NOSIG', 'MHLM 061500Z VRB03KT 9999 FEW030 24/14 Q1019 A3009 NOSIG', 'MHLM 061400Z 16004KT 9999 FEW028 22/14 Q1019 A3009 NOSIG', 'MHLM 061300Z 16004KT 9999 FEW026 20/14 Q1018 A3006 NOSIG', 'MHLM 061200Z 00000KT 9999 FEW025 19/15 Q1016 A3000 NOSIG', 'MHLM 061100Z 00000KT 9999 FEW025 BKN080 20/16 Q1015 A2997 NOSIG', 'MHLM 061000Z 18009KT 9999 FEW025 BKN080 24/11 Q1014 A2995 NOSIG', 'MHLM 060900Z 18009KT 9999 FEW025 BKN080 24/11 Q1014 A2995 NOSIG', 'MHLM 060700Z 00000KT 9999 FEW025 22/18 Q1014 A2995 NOSIG', 'MHLM 060600Z 00000KT 9999 FEW025 22/18 Q1014 A2995 NOSIG', 'MHLM 060500Z 00000KT 9999 FEW024 21/19 Q1014 A2995 NOSIG', 'MHLM 060500Z 00000KT 9999 FEW024 21/19 Q1014 A2995 NOSIG', 'MHLM 060400Z 00000KT 9999 FEW024 21/19 Q1014 A2995 NOSIG', 'MHLM 060300Z 00000KT 9999 FEW024 24/20 Q1013 A2992 NOSIG', 'MHLM 060200Z 09005KT 9999 FEW025 24/20 Q1012 A2989 NOSIG', 'MHLM 060100Z 07006KT 9999 FEW025 SCT080 24/19 Q1011 A2986 NOSIG', 'MHLM 060000Z 06010KT 9999 FEW026 BKN080 26/19 Q1010 A2983 NOSIG', 'MHLM 052300Z 06010KT 9999 FEW028 BKN080 28/18 Q1009 A2980 NOSIG', 'MHLM 052200Z 07008KT 9999 FEW028 SCT080 29/19 Q1008 A2977 NOSIG']","['2024-02-08 21:00:00', '2024-02-08 20:00:00', '2024-02-08 19:00:00', '2024-02-08 18:00:00', '2024-02-08 17:00:00', '2024-02-08 16:00:00', '2024-02-08 15:00:00', '2024-02-08 14:00:00', '2024-02-08 13:00:00', '2024-02-08 12:00:00', '2024-02-08 11:00:00', '2024-02-08 10:00:00', '2024-02-08 09:00:00', '2024-02-08 08:00:00', '2024-02-08 07:00:00', '2024-02-08 06:00:00', '2024-02-08 05:59:00', '2024-02-08 05:00:00', '2024-02-08 04:00:00', '2024-02-08 03:59:00', '2024-02-08 03:00:00', '2024-02-08 02:00:00', '2024-02-08 01:00:00', '2024-02-08 00:00:00', '2024-02-07 23:00:00', '2024-02-07 22:00:00', '2024-02-07 21:00:00', '2024-02-07 20:00:00', '2024-02-07 19:00:00', '2024-02-07 18:00:00', '2024-02-07 17:00:00', '2024-02-07 16:00:00', '2024-02-07 15:00:00', '2024-02-07 14:00:00', '2024-02-07 13:00:00', '2024-02-07 12:00:00', '2024-02-07 11:00:00', '2024-02-07 10:00:00', '2024-02-07 09:00:00', '2024-02-07 08:00:00', '2024-02-07 07:00:00', '2024-02-07 06:00:00', '2024-02-07 05:00:00', '2024-02-07 04:00:00', '2024-02-07 03:00:00', '2024-02-07 02:00:00', '2024-02-07 01:00:00', '2024-02-07 00:59:00', '2024-02-07 00:00:00', '2024-02-06 23:59:00', '2024-02-06 23:00:00', '2024-02-06 22:00:00', '2024-02-06 21:00:00', '2024-02-06 20:00:00', '2024-02-06 19:00:00', '2024-02-06 18:00:00', '2024-02-06 17:00:00', '2024-02-06 16:00:00', '2024-02-06 15:59:00', '2024-02-06 15:00:00', '2024-02-06 14:00:00', '2024-02-06 13:00:00', '2024-02-06 12:00:00', '2024-02-06 11:00:00', '2024-02-06 10:00:00', '2024-02-06 09:00:00', '2024-02-06 07:00:00', '2024-02-06 06:00:00', '2024-02-06 05:00:00', '2024-02-06 04:59:00', '2024-02-06 04:00:00', '2024-02-06 03:00:00', '2024-02-06 02:00:00', '2024-02-06 01:00:00', '2024-02-06 00:00:00', '2024-02-05 23:00:00', '2024-02-05 22:00:00']"
Honduras, Tegucigalpa Toncontin International Airport (TGU/MHTG) ,"['MHTG 082100Z 31008KT CAVOK 27/11 Q1017 A3003 NOSIG', 'MHTG 082001Z 30005KT 200V350 CAVOK 26/11 Q1018 A3006 NOSIG', 'MHTG 081900Z 28006KT 9999 FEW036 25/11 Q1019 A3009 NOSIG', 'MHTG 081800Z VRB03KT 9999 FEW034 23/11 Q1021 A3015 NOSIG', 'MHTG 081700Z VRB03KT 9999 FEW032 21/11 Q1022 A3018 NOSIG', 'MHTG 081600Z 32006KT 9999 SCT030 19/11 Q1022 A3018 NOSIG', 'MHTG 081500Z 04003KT 9999 BKN028 17/12 Q1022 A3018 NOSIG', 'MHTG 081400Z 00000KT 9999 BKN024 14/11 Q1022 A3018 NOSIG', 'MHTG 081300Z VRB02KT 9999 FEW010 SCT020 12/10 Q1021 A3015 NOSIG', 'MHTG 081200Z VRB02KT 7000 FEW010 SCT019 12/10 Q1020 A3012 NOSIG', 'MHTG 081100Z 00000KT 9999 FEW010 11/10 Q1020 A3012 NOSIG', 'MHTG 081000Z 00000KT 9999 FEW025 11/10 Q1020 A3012 NOSIG', 'MHTG 080900Z 11004KT 9999 FEW025 11/10 Q1020 A3012 NOSIG', 'MHTG 080800Z VRB02KT CAVOK 12/10 Q1020 A3012 NOSIG', 'MHTG 080700Z 00000KT CAVOK 13/10 Q1021 A3015 NOSIG', 'MHTG 080600Z VRB02KT CAVOK 14/10 Q1021 A3015 NOSIG', 'MHTG 080600Z VRB02KT CAVOK 14/10 Q1021 A3015 NOSIG', 'MHTG 080500Z VRB02KT CAVOK 15/10 Q1021 A3015 NOSIG', 'MHTG 080400Z 22004KT 190V300 CAVOK 17/10 Q1021 A3015 NOSIG', 'MHTG 080400Z 22004KT 190V300 CAVOK 17/10 Q1021 A3015 NOSIG', 'MHTG 080300Z 34006KT 310V030 CAVOK 19/11 Q1021 A3015 NOSIG', 'MHTG 080200Z 03004KT CAVOK 20/09 Q1020 A3012 NOSIG', 'MHTG 080100Z 02003KT 9999 FEW034 21/09 Q1019 A3009 NOSIG', 'MHTG 080000Z 34013KT 9999 FEW036 23/10 Q1018 A3006 NOSIG', 'MHTG 072300Z 35013KT 9999 FEW034 25/09 Q1018 A3006 NOSIG', 'MHTG 072200Z 36005KT 9999 FEW034 26/09 Q1018 A3006 NOSIG', 'MHTG 072100Z 32008KT 9999 FEW034 26/09 Q1018 A3006 NOSIG', 'MHTG 072000Z 34007KT 9999 FEW034 26/08 Q1019 A3009 NOSIG', 'MHTG 071900Z 31008KT 9999 FEW034 25/09 Q1020 A3012 NOSIG', 'MHTG 071800Z 34013KT 9999 FEW034 24/09 Q1021 A3015 NOSIG', 'MHTG 071700Z 35012KT 9999 FEW034 22/09 Q1022 A3018 NOSIG', 'MHTG 071600Z 34012KT 9999 FEW034 20/10 Q1023 A3021 NOSIG', 'MHTG 071500Z 01008KT 9999 FEW032 18/10 Q1024 A3024 NOSIG', 'MHTG 140200Z 00000KT 9999 FEW032 15/08 Q1023 A3021 NOSIG', 'MHTG 071300Z 00000KT CAVOK 10/07 Q1023 A3021 NOSIG', 'MHTG 071200Z 00000KT 9999 FEW034 09/07 Q1022 A3018 NOSIG', 'MHTG 071100Z 20003KT CAVOK 10/07 Q1021 A3015 NOSIG', 'MHTG 071000Z 20005KT CAVOK 11/07 Q1021 A3015 NOSIG', 'MHTG 070900Z 21003KT CAVOK 11/07 Q1021 A3015 NOSIG', 'MHTG 070800Z 33005KT CAVOK 13/08 Q1021 A3015 NOSIG', 'MHTG 070700Z 34006KT CAVOK 14/08 Q1021 A3015 NOSIG', 'MHTG 070600Z 35006KT CAVOK 15/08 Q1022 A3018 NOSIG', 'MHTG 070500Z 35008KT CAVOK 15/08 Q1022 A3018 NOSIG', 'MHTG 070400Z 36006KT CAVOK 15/08 Q1022 A3018 NOSIG', 'MHTG 070300Z 36010KT CAVOK 16/08 Q1021 A3015 NOSIG', 'MHTG 070200Z 36010KT CAVOK 16/08 Q1021 A3015 NOSIG', 'MHTG 070100Z 36010KT CAVOK 18/08 Q1019 A3009 NOSIG', 'MHTG 070100Z 36010KT CAVOK 18/08 Q1019 A3009 NOSIG', 'MHTG 070000Z 36010KT 320V030 CAVOK 19/07 Q1018 A3006 NOSIG', 'MHTG 070000Z 36010KT 320V030 CAVOK 19/07 Q1018 A3006 NOSIG', 'MHTG 062300Z 01010KT 330V040 CAVOK 22/06 Q1017 A3003 NOSIG', 'MHTG 062200Z 35014KT 320V030 CAVOK 24/06 Q1017 A3003 NOSIG', 'MHTG 062100Z 36011G22KT 330V030 CAVOK 24/06 Q1017 A3003 NOSIG', 'MHTG 062000Z 35011KT 320V030 CAVOK 25/06 Q1017 A3003 NOSIG', 'MHTG 061900Z 01012KT 330V040 9999 FEW030 25/06 Q1018 A3006 NOSIG', 'MHTG 061800Z 36011G22KT 330V040 9999 FEW030 23/06 Q1019 A3009 NOSIG', 'MHTG 061700Z 36011G22KT 320V040 9999 FEW030 22/06 Q1020 A3012 NOSIG', 'MHTG 061600Z 36011G22KT 330V040 9999 FEW030 20/07 Q1021 A3015 NOSIG', 'MHTG 061600Z 36011G22KT 330V040 9999 FEW030 20/07 Q1021 A3015 NOSIG', 'MHTG 061500Z 35011G22KT 320V030 9999 SCT030 18/07 Q1021 A3015 NOSIG', 'MHTG 061400Z 35010KT 320V040 9999 BKN030 18/08 Q1021 A3015 NOSIG', 'MHTG 061300Z 34005KT 9999 BKN028 17/09 Q1020 A3012 NOSIG', 'MHTG 061200Z 32010KT 9999 BKN028 17/11 Q1019 A3009 NOSIG', 'MHTG 061100Z 35008KT 9999 BKN028 17/11 Q1018 A3006 NOSIG', 'MHTG 061000Z 32009KT 9999 SCT028 18/11 Q1018 A3006 NOSIG', 'MHTG 060900Z 33010KT 9999 FEW028 17/10 Q1017 A3003 NOSIG', 'MHTG 060800Z 34008KT 9999 SCT028 18/10 Q1017 A3003 NOSIG', 'MHTG 060700Z 35008KT 9999 FEW028 18/11 Q1018 A3006 NOSIG', 'MHTG 060600Z 34008KT 9999 FEW028 18/11 Q1018 A3006 NOSIG', 'MHTG 060500Z 35006KT 9999 FEW030 19/11 Q1018 A3006 NOSIG', 'MHTG 060500Z 35006KT 9999 FEW030 19/11 Q1018 A3006 NOSIG', 'MHTG 060400Z 35006KT 9999 FEW030 20/11 Q1018 A3006 NOSIG', 'MHTG 060300Z 35008KT 9999 FEW032 21/13 Q1017 A3003 NOSIG', 'MHTG 060200Z 36010KT 9999 FEW032 22/13 Q1016 A3000 NOSIG', 'MHTG 060100Z 36008KT 9999 FEW034TCU 24/12 Q1015 A2997 NOSIG', 'MHTG 060000Z 36012KT 9999 FEW034TCU FEW036CB 26/13 Q1013 A2992 NOSIG', 'MHTG 052300Z 02008KT 9999 BKN034TCU 27/14 Q1012 A2989 NOSIG', 'MHTG 052200Z 36006KT 9999 FEW036 29/14 Q1012 A2989 NOSIG']","['2024-02-08 21:00:00', '2024-02-08 20:01:00', '2024-02-08 19:00:00', '2024-02-08 18:00:00', '2024-02-08 17:00:00', '2024-02-08 16:00:00', '2024-02-08 15:00:00', '2024-02-08 14:00:00', '2024-02-08 13:00:00', '2024-02-08 12:00:00', '2024-02-08 11:00:00', '2024-02-08 10:00:00', '2024-02-08 09:00:00', '2024-02-08 08:00:00', '2024-02-08 07:00:00', '2024-02-08 06:00:00', '2024-02-08 05:59:00', '2024-02-08 05:00:00', '2024-02-08 04:00:00', '2024-02-08 03:59:00', '2024-02-08 03:00:00', '2024-02-08 02:00:00', '2024-02-08 01:00:00', '2024-02-08 00:00:00', '2024-02-07 23:00:00', '2024-02-07 22:00:00', '2024-02-07 21:00:00', '2024-02-07 20:00:00', '2024-02-07 19:00:00', '2024-02-07 18:00:00', '2024-02-07 17:00:00', '2024-02-07 16:00:00', '2024-02-07 15:00:00', '2024-02-07 13:59:00', '2024-02-07 13:00:00', '2024-02-07 12:00:00', '2024-02-07 11:00:00', '2024-02-07 10:00:00', '2024-02-07 09:00:00', '2024-02-07 08:00:00', '2024-02-07 07:00:00', '2024-02-07 06:00:00', '2024-02-07 05:00:00', '2024-02-07 04:00:00', '2024-02-07 03:00:00', '2024-02-07 02:00:00', '2024-02-07 01:00:00', '2024-02-07 00:59:00', '2024-02-07 00:00:00', '2024-02-06 23:59:00', '2024-02-06 23:00:00', '2024-02-06 22:00:00', '2024-02-06 21:00:00', '2024-02-06 20:00:00', '2024-02-06 19:00:00', '2024-02-06 18:00:00', '2024-02-06 17:00:00', '2024-02-06 16:00:00', '2024-02-06 15:59:00', '2024-02-06 15:00:00', '2024-02-06 14:00:00', '2024-02-06 13:00:00', '2024-02-06 12:00:00', '2024-02-06 11:00:00', '2024-02-06 10:00:00', '2024-02-06 09:00:00', '2024-02-06 08:00:00', '2024-02-06 07:00:00', '2024-02-06 06:00:00', '2024-02-06 05:00:00', '2024-02-06 04:59:00', '2024-02-06 04:00:00', '2024-02-06 03:00:00', '2024-02-06 02:00:00', '2024-02-06 01:00:00', '2024-02-06 00:00:00', '2024-02-05 23:00:00', '2024-02-05 22:00:00']"
Honduras, Tegucigalpa Palmerola International Airport (XPL/MHPR) ,"['MHPR 082100Z 34014KT 9999 FEW050 29/11 Q1015 A3000 NOSIG', 'MHPR 082000Z 32010KT 9999 FEW050 29/11 Q1016 A3002 NOSIG', 'MHPR 081900Z 34010KT 9999 FEW048 29/12 Q1018 A3006 NOSIG', 'MHPR 081700Z 33010KT 9999 FEW048 26/14 Q1020 A3013 NOSIG', 'MHPR 081500Z 32006KT 9999 FEW046 21/14 Q1021 A3016 NOSIG', 'MHPR 081400Z 00000KT 9999 FEW046 16/15 Q1021 A3015 NOSIG', 'MHPR 072100Z 35018KT 9999 FEW050 27/12 Q1017 A3005 NOSIG', 'MHPR 071800Z 35010KT 9999 FEW050 26/12 Q1021 A3015 NOSIG', 'MHPR 071700Z 33012KT 9999 FEW048 24/12 Q1022 A3019 NOSIG', 'MHPR 071600Z 33014KT 9999 FEW048 23/12 Q1023 A3021 NOSIG', 'MHPR 071500Z 32003KT 9999 FEW048 19/11 Q1023 A3022 NOSIG', 'MHPR 071300Z 00000KT 9999 FEW044 11/09 Q1022 A3020 NOSIG', 'MHPR 062300Z 36020G30KT 9999 FEW048 23/09 Q1017 A3003 NOSIG', 'MHPR 061900Z 36022KT 9999 FEW046 25/08 Q1018 A3007 NOSIG']","['2024-02-08 21:00:00', '2024-02-08 20:00:00', '2024-02-08 19:00:00', '2024-02-08 17:00:00', '2024-02-08 15:00:00', '2024-02-08 14:00:00', '2024-02-07 21:00:00', '2024-02-07 18:00:00', '2024-02-07 17:00:00', '2024-02-07 16:00:00', '2024-02-07 15:00:00', '2024-02-07 13:00:00', '2024-02-06 23:00:00', '2024-02-06 19:00:00']"
Hong-kong, Hong Kong International Airport (HKG/VHHH) ,"['VHHH 082100Z 03009KT 9999 -RA FEW010 SCT022 10/07 Q1022 RERA NOSIG', 'VHHH 082030Z 03009KT 9999 FEW010 SCT022 10/07 Q1022 NOSIG', 'VHHH 082000Z 02010KT 9999 -RA FEW010 SCT022 10/07 Q1022 NOSIG', 'VHHH 081930Z 02011KT 350V060 9999 FEW012 SCT030 10/07 Q1022 NOSIG', 'VHHH 081900Z 02012KT 9999 -RA FEW012 SCT020 10/07 Q1022 NOSIG', 'VHHH 081830Z 03010KT 9999 FEW011 SCT018 10/07 Q1022 NOSIG', 'VHHH 081800Z 03011KT 9999 FEW011 SCT018 10/07 Q1022 NOSIG', 'VHHH 081730Z 02010KT 9999 -RA FEW011 SCT018 11/07 Q1023 NOSIG', 'VHHH 081700Z 03011KT 9999 FEW011 SCT018 10/07 Q1022 NOSIG', 'VHHH 081630Z 02011KT 9999 FEW011 SCT018 11/07 Q1022 NOSIG', 'VHHH 081600Z 02013KT 9999 FEW011 SCT018 11/07 Q1022 NOSIG', 'VHHH 081530Z 01009KT 9999 FEW011 SCT018 11/07 Q1022 NOSIG', 'VHHH 081500Z 02011KT 9999 FEW009 SCT015 11/08 Q1022 NOSIG', 'VHHH 081430Z 01009KT 9999 -RA FEW009 SCT015 11/08 Q1022 NOSIG', 'VHHH 081400Z 02011KT 9999 FEW009 SCT015 11/07 Q1022 NOSIG', 'VHHH 081330Z 02010KT 350V050 9999 FEW010 SCT015 11/07 Q1022 NOSIG', 'VHHH 081300Z 03011KT 9999 FEW010 SCT015 11/08 Q1021 NOSIG', 'VHHH 081230Z 02010KT 9999 FEW010 SCT015 11/08 Q1020 NOSIG', 'VHHH 081200Z 02011KT 9999 FEW010 SCT015 11/08 Q1020 NOSIG', 'VHHH 081130Z 03010KT 360V070 9999 FEW010 SCT015 11/08 Q1020 NOSIG', 'VHHH 081100Z 03011KT 9999 FEW008 SCT015 11/08 Q1019 NOSIG', 'VHHH 081030Z 02011KT 9999 FEW008 SCT015 11/08 Q1019 NOSIG', 'VHHH 081000Z 02011KT 9999 FEW008 SCT015 11/08 Q1019 NOSIG', 'VHHH 080930Z 01011KT 9999 FEW009 SCT015 11/08 Q1019 NOSIG', 'VHHH 080900Z 02011KT 9999 FEW009 SCT015 11/08 Q1018 NOSIG', 'VHHH 080830Z 02010KT 9999 FEW009 SCT015 11/08 Q1018 NOSIG', 'VHHH 080800Z 02011KT 9999 FEW009 SCT015 11/09 Q1018 NOSIG', 'VHHH 080730Z 02009KT 9999 -RA FEW009 SCT015 11/09 Q1018 NOSIG', 'VHHH 080700Z 02010KT 360V060 9999 -RA FEW009 SCT015 11/09 Q1018 NOSIG', 'VHHH 080630Z 01008KT 9999 FEW009 SCT015 12/08 Q1018 NOSIG', 'VHHH 080600Z 03010KT 9999 -RA FEW009 SCT015 12/08 Q1018 NOSIG', 'VHHH 080530Z 02009KT 9999 FEW009 SCT015 12/08 Q1019 NOSIG', 'VHHH 080500Z 01010KT 340V050 9999 FEW010 SCT015 12/08 Q1019 NOSIG', 'VHHH 080430Z 02012KT 360V060 9999 FEW010 SCT016 12/09 Q1019 NOSIG', 'VHHH 080400Z 36010KT 9999 FEW010 SCT018 11/08 Q1020 NOSIG', 'VHHH 080330Z 02008KT 350V050 9999 FEW010 SCT018 12/08 Q1020 NOSIG', 'VHHH 080300Z 02010KT 9999 FEW010 SCT018 11/08 Q1020 NOSIG', 'VHHH 080230Z 01009KT 9999 FEW009 SCT018 11/08 Q1020 NOSIG', 'VHHH 080130Z 36010KT 9999 -RA FEW009 SCT015 11/09 Q1020 NOSIG', 'VHHH 080100Z 02010KT 9999 -RA FEW009 SCT015 11/08 Q1020 NOSIG', 'VHHH 080030Z 03011KT 9999 -RA FEW009 SCT015 11/08 Q1019 NOSIG', 'VHHH 080000Z 01010KT 9999 FEW010 SCT015 11/08 Q1020 NOSIG', 'VHHH 072330Z 02010KT 9999 FEW010 SCT015 11/08 Q1019 NOSIG', 'VHHH 072300Z 02009KT 9999 FEW010 SCT015 11/08 Q1019 NOSIG', 'VHHH 072230Z 02011KT 9999 -RA FEW010 SCT015 11/09 Q1018 RERA NOSIG', 'VHHH 072200Z 02011KT 9999 -RA FEW010 SCT015 12/08 Q1018 NOSIG', 'VHHH 072130Z 02011KT 9999 -RA FEW010 SCT018 12/08 Q1018 NOSIG', 'VHHH 072100Z 03010KT 9999 -RA FEW010 SCT018 12/08 Q1018 NOSIG', 'VHHH 072030Z 01012KT 9999 -RA FEW012 SCT018 12/08 Q1018 NOSIG', 'VHHH 072000Z 01010KT 9999 FEW012 SCT018 12/08 Q1017 NOSIG', 'VHHH 071930Z 02011KT 9999 FEW012 SCT018 12/07 Q1017 NOSIG', 'VHHH 071900Z 03011KT 360V060 9999 FEW012 SCT018 12/08 Q1017 NOSIG', 'VHHH 071830Z 01012KT 9999 FEW012 SCT018 12/08 Q1018 NOSIG', 'VHHH 071800Z 01010KT 9999 -RA FEW012 SCT018 12/08 Q1018 NOSIG', 'VHHH 071730Z 02011KT 9999 FEW012 SCT018 13/09 Q1018 NOSIG', 'VHHH 071700Z 01010KT 9999 FEW012 SCT018 13/09 Q1019 NOSIG', 'VHHH 071630Z 36011KT 9999 FEW012 SCT018 13/09 Q1019 NOSIG', 'VHHH 071600Z 36013KT 9999 -RA FEW012 SCT018 13/09 Q1019 NOSIG', 'VHHH 071530Z 36012KT 9999 FEW012 SCT018 13/09 Q1019 NOSIG', 'VHHH 071500Z 35012KT 9999 -RA FEW012 SCT018 13/10 Q1018 NOSIG', 'VHHH 071430Z 35011KT 320V030 9999 -RA FEW012 SCT018 13/10 Q1018 NOSIG', 'VHHH 071400Z 01011KT 9999 -RA FEW012 SCT018 13/10 Q1018 NOSIG', 'VHHH 071330Z 01012KT 9999 FEW012 SCT018 14/10 Q1018 NOSIG', 'VHHH 071300Z 01011KT 9999 -RA FEW010 SCT018 13/10 Q1018 NOSIG', 'VHHH 071230Z 35013KT 9999 -RA FEW009 SCT018 13/10 Q1018 NOSIG', 'VHHH 071200Z 35013KT 9999 FEW009 SCT018 13/11 Q1017 NOSIG', 'VHHH 071130Z 35011KT 9999 -RA FEW008 SCT015 14/11 Q1017 NOSIG', 'VHHH 071100Z 36011KT 9999 -RA FEW007 SCT015 14/12 Q1016 NOSIG', 'VHHH 071030Z 34012KT 9999 -RA FEW006 SCT015 14/12 Q1016 NOSIG', 'VHHH 071000Z 34012KT 9000 -RA FEW006 SCT015 14/12 Q1016 NOSIG', 'VHHH 070930Z 34013KT 9999 -RA FEW006 SCT015 14/12 Q1016 NOSIG', 'VHHH 070900Z 34013KT 9999 -RA FEW006 SCT015 14/12 Q1015 NOSIG', 'VHHH 070830Z 33012KT 9999 -RA FEW005 SCT015 14/13 Q1015 NOSIG', 'VHHH 070800Z 34013KT 8000 -RA FEW004 SCT015 14/13 Q1015 NOSIG', 'VHHH 070730Z 33015KT 7000 -RA FEW004 SCT015 14/12 Q1016 NOSIG', 'VHHH 070700Z 33018KT 6000 -RA FEW004 SCT015 14/13 Q1016 NOSIG', 'VHHH 070630Z 32017KT 4200 -RA BR FEW003 SCT015 14/13 Q1016 NOSIG', 'VHHH 070600Z 33015KT 4100 -RA BR FEW003 SCT015 14/13 Q1017 NOSIG', 'VHHH 070530Z 32016KT 3700 -RA BR FEW003 SCT015 14/13 Q1017 NOSIG', 'VHHH 070500Z 32017KT 3700 -RA BR FEW003 SCT015 14/13 Q1017 NOSIG', 'VHHH 070430Z 32016KT 4400 -RA BR FEW003 SCT015 15/14 Q1018 NOSIG', 'VHHH 070400Z 33014KT 3700 -RA BR FEW003 SCT015 15/14 Q1018 NOSIG', 'VHHH 070330Z 33015KT 3200 -RA BR FEW004 SCT015 15/14 Q1019 NOSIG', 'VHHH 070300Z 33015KT 3100 -RA BR FEW003 SCT015 15/14 Q1019 NOSIG', 'VHHH 070230Z 33011KT 4200 -RA BR FEW003 SCT015 15/14 Q1019 NOSIG', 'VHHH 070130Z 34011KT 2200 -RA BR FEW003 SCT015 15/14 Q1019 NOSIG', 'VHHH 070100Z 34013KT 3400 -RA BR FEW004 SCT015 15/14 Q1019 NOSIG', 'VHHH 070000Z 34009KT 4800 -RA BR FEW004 SCT015 15/14 Q1018 NOSIG', 'VHHH 062330Z 33012KT 7000 -RA FEW006 SCT015 16/14 Q1018 NOSIG', 'VHHH 062300Z 34012KT 8000 -RA FEW007 SCT015 16/14 Q1018 NOSIG', 'VHHH 062230Z 33015KT 9999 FEW008 SCT015 16/14 Q1018 NOSIG', 'VHHH 062200Z 34010KT 9000 FEW007 SCT015 17/15 Q1017 NOSIG', 'VHHH 062130Z 35011KT 8000 FEW006 SCT015 17/15 Q1017 NOSIG', 'VHHH 062100Z 34008KT 8000 FEW006 SCT015 17/15 Q1017 NOSIG', 'VHHH 062030Z 33010KT 7000 -RA FEW005 SCT015 17/16 Q1017 NOSIG', 'VHHH 062000Z 34009KT 8000 -RA FEW006 SCT015 18/17 Q1017 NOSIG', 'VHHH 061930Z VRB03KT 8000 -RA FEW006 SCT015 18/16 Q1017 NOSIG', 'VHHH 061900Z VRB03KT 6000 -RA FEW004 SCT012 17/16 Q1017 NOSIG', 'VHHH 061830Z 34011KT 5000 -RA FEW004 SCT012 17/16 Q1018 NOSIG', 'VHHH 061800Z 34014KT 5000 -RA FEW004 SCT012 17/16 Q1018 NOSIG', 'VHHH 061730Z 33015KT 8000 -RA FEW005 SCT012 18/16 Q1019 NOSIG', 'VHHH 061700Z 06008KT 9999 FEW008 SCT018 19/17 Q1018 NOSIG', 'VHHH 061630Z 10008KT 9999 FEW007 SCT018 19/17 Q1018 NOSIG', 'VHHH 061600Z 09008KT 9999 FEW007 SCT018 20/18 Q1018 NOSIG', 'VHHH 061530Z 09008KT 9999 -RA FEW007 SCT015 19/18 Q1019 NOSIG', 'VHHH 061500Z 09008KT 9999 -RA FEW005 SCT015 19/18 Q1019 NOSIG', 'VHHH 061400Z 09009KT 9999 -RA FEW006 SCT015 19/18 Q1019 NOSIG', 'VHHH 061330Z 08010KT 9999 -RA FEW006 SCT015 20/18 Q1018 NOSIG', 'VHHH 061300Z 08009KT 9999 -RA FEW006 SCT015 19/18 Q1018 NOSIG', 'VHHH 061230Z 08008KT 9999 -RA FEW006 SCT015 19/18 Q1018 NOSIG', 'VHHH 061200Z 09008KT 9999 -RA FEW007 SCT015 20/17 Q1018 NOSIG', 'VHHH 061130Z 09008KT 9999 -RA FEW008 SCT015 20/17 Q1018 NOSIG', 'VHHH 061100Z 09008KT 9999 FEW008 SCT015 20/17 Q1017 NOSIG', 'VHHH 061030Z 08010KT 9999 FEW009 SCT015 20/16 Q1017 NOSIG', 'VHHH 061000Z 09008KT 9999 FEW009 SCT015 20/16 Q1017 NOSIG', 'VHHH 060930Z 09010KT 9999 FEW009 SCT015 20/16 Q1017 NOSIG', 'VHHH 060900Z 10011KT 9999 FEW009 SCT015 21/16 Q1017 NOSIG', 'VHHH 060830Z 09011KT 9999 FEW010 SCT015 21/16 Q1016 NOSIG', 'VHHH 060800Z 10012KT 9999 FEW012 SCT020 22/16 Q1016 NOSIG', 'VHHH 060730Z 10010KT 9999 FEW015 SCT020 22/16 Q1017 NOSIG', 'VHHH 060700Z 09010KT 9999 FEW015 SCT030 23/16 Q1017 NOSIG', 'VHHH 060630Z 09010KT 9999 FEW015 SCT030 22/16 Q1017 WS R07L NOSIG', 'VHHH 060600Z 09011KT 9999 FEW015 23/16 Q1018 NOSIG', 'VHHH 060530Z 09011KT 9999 FEW015 23/15 Q1018 NOSIG', 'VHHH 060500Z 09011KT 9999 FEW015 22/15 Q1019 NOSIG', 'VHHH 060430Z 08013KT 9999 FEW015 22/15 Q1019 NOSIG', 'VHHH 060400Z 09012KT 9999 FEW015 23/15 Q1020 NOSIG', 'VHHH 060330Z 09012KT 9999 FEW015 22/15 Q1020 NOSIG', 'VHHH 060300Z 08012KT 9999 FEW015 SCT025 22/15 Q1021 NOSIG', 'VHHH 060230Z 08013KT 9999 FEW012 SCT025 21/15 Q1021 NOSIG', 'VHHH 060200Z 08013KT 9999 FEW012 21/15 Q1021 NOSIG', 'VHHH 060130Z 09010KT 9999 FEW012 20/15 Q1021 NOSIG', 'VHHH 060100Z 09011KT 9999 FEW012 20/15 Q1021 WS R07R NOSIG', 'VHHH 060030Z 08015KT 9999 FEW012 SCT025 20/15 Q1021 NOSIG', 'VHHH 060000Z 10014KT 9999 FEW010 SCT025 19/15 Q1020 NOSIG', 'VHHH 052330Z 10013KT 9999 FEW012 19/15 Q1020 NOSIG', 'VHHH 052300Z 10010KT 9999 FEW012 SCT020 19/16 Q1020 NOSIG', 'VHHH 052230Z 04004KT 360V080 9999 FEW010 SCT015 18/15 Q1020 NOSIG', 'VHHH 052200Z 35009KT 9999 FEW010 SCT015 18/14 Q1020 NOSIG', 'VHHH 052130Z 34010KT 9999 FEW010 SCT015 18/15 Q1020 NOSIG']","['2024-02-08 21:00:00', '2024-02-08 20:30:00', '2024-02-08 20:00:00', '2024-02-08 19:30:00', '2024-02-08 19:00:00', '2024-02-08 18:30:00', '2024-02-08 18:00:00', '2024-02-08 17:30:00', '2024-02-08 17:00:00', '2024-02-08 16:30:00', '2024-02-08 16:00:00', '2024-02-08 15:30:00', '2024-02-08 15:00:00', '2024-02-08 14:30:00', '2024-02-08 14:00:00', '2024-02-08 13:30:00', '2024-02-08 13:00:00', '2024-02-08 12:30:00', '2024-02-08 12:00:00', '2024-02-08 11:30:00', '2024-02-08 11:00:00', '2024-02-08 10:30:00', '2024-02-08 10:00:00', '2024-02-08 09:30:00', '2024-02-08 09:00:00', '2024-02-08 08:30:00', '2024-02-08 08:00:00', '2024-02-08 07:30:00', '2024-02-08 07:00:00', '2024-02-08 06:30:00', '2024-02-08 06:00:00', '2024-02-08 05:30:00', '2024-02-08 05:00:00', '2024-02-08 04:30:00', '2024-02-08 04:00:00', '2024-02-08 03:30:00', '2024-02-08 03:00:00', '2024-02-08 02:30:00', '2024-02-08 01:30:00', '2024-02-08 01:00:00', '2024-02-08 00:30:00', '2024-02-08 00:00:00', '2024-02-07 23:30:00', '2024-02-07 23:00:00', '2024-02-07 22:30:00', '2024-02-07 22:00:00', '2024-02-07 21:30:00', '2024-02-07 21:00:00', '2024-02-07 20:30:00', '2024-02-07 20:00:00', '2024-02-07 19:30:00', '2024-02-07 19:00:00', '2024-02-07 18:30:00', '2024-02-07 18:00:00', '2024-02-07 17:30:00', '2024-02-07 17:00:00', '2024-02-07 16:30:00', '2024-02-07 16:00:00', '2024-02-07 15:30:00', '2024-02-07 15:00:00', '2024-02-07 14:30:00', '2024-02-07 14:00:00', '2024-02-07 13:30:00', '2024-02-07 13:00:00', '2024-02-07 12:30:00', '2024-02-07 12:00:00', '2024-02-07 11:30:00', '2024-02-07 11:00:00', '2024-02-07 10:30:00', '2024-02-07 10:00:00', '2024-02-07 09:30:00', '2024-02-07 09:00:00', '2024-02-07 08:30:00', '2024-02-07 08:00:00', '2024-02-07 07:30:00', '2024-02-07 07:00:00', '2024-02-07 06:30:00', '2024-02-07 06:00:00', '2024-02-07 05:30:00', '2024-02-07 05:00:00', '2024-02-07 04:30:00', '2024-02-07 04:00:00', '2024-02-07 03:30:00', '2024-02-07 03:00:00', '2024-02-07 02:30:00', '2024-02-07 01:30:00', '2024-02-07 01:00:00', '2024-02-07 00:00:00', '2024-02-06 23:30:00', '2024-02-06 23:00:00', '2024-02-06 22:30:00', '2024-02-06 22:00:00', '2024-02-06 21:30:00', '2024-02-06 21:00:00', '2024-02-06 20:30:00', '2024-02-06 20:00:00', '2024-02-06 19:30:00', '2024-02-06 19:00:00', '2024-02-06 18:30:00', '2024-02-06 18:00:00', '2024-02-06 17:30:00', '2024-02-06 17:00:00', '2024-02-06 16:30:00', '2024-02-06 16:00:00', '2024-02-06 15:30:00', '2024-02-06 15:00:00', '2024-02-06 14:00:00', '2024-02-06 13:30:00', '2024-02-06 13:00:00', '2024-02-06 12:30:00', '2024-02-06 12:00:00', '2024-02-06 11:30:00', '2024-02-06 11:00:00', '2024-02-06 10:30:00', '2024-02-06 10:00:00', '2024-02-06 09:30:00', '2024-02-06 09:00:00', '2024-02-06 08:30:00', '2024-02-06 08:00:00', '2024-02-06 07:30:00', '2024-02-06 07:00:00', '2024-02-06 06:30:00', '2024-02-06 06:00:00', '2024-02-06 05:30:00', '2024-02-06 05:00:00', '2024-02-06 04:30:00', '2024-02-06 04:00:00', '2024-02-06 03:30:00', '2024-02-06 03:00:00', '2024-02-06 02:30:00', '2024-02-06 02:00:00', '2024-02-06 01:30:00', '2024-02-06 01:00:00', '2024-02-06 00:30:00', '2024-02-06 00:00:00', '2024-02-05 23:30:00', '2024-02-05 23:00:00', '2024-02-05 22:30:00', '2024-02-05 22:00:00', '2024-02-05 21:30:00']"
Hungary, Budapest Ferenc Liszt International Airport (BUD/LHBP) ,"['LHBP 082100Z 19005KT 160V230 CAVOK 10/04 Q1002 NOSIG', 'LHBP 082030Z 19007KT 160V220 CAVOK 10/04 Q1002 NOSIG', 'LHBP 082000Z 19006KT CAVOK 11/04 Q1002 NOSIG', 'LHBP 081930Z 18003KT 140V220 CAVOK 10/04 Q1003 NOSIG', 'LHBP 081900Z 19006KT 160V220 CAVOK 11/04 Q1003 NOSIG', 'LHBP 081830Z 20006KT CAVOK 11/04 Q1003 NOSIG', 'LHBP 081800Z 19006KT CAVOK 12/04 Q1003 NOSIG', 'LHBP 081730Z 17005KT CAVOK 11/04 Q1003 NOSIG', 'LHBP 081700Z 15004KT CAVOK 10/03 Q1003 NOSIG', 'LHBP 081630Z 17003KT CAVOK 11/03 Q1004 NOSIG', 'LHBP 081600Z 20005KT CAVOK 13/03 Q1004 NOSIG', 'LHBP 081530Z 20007KT CAVOK 13/03 Q1004 NOSIG', 'LHBP 081500Z 19006KT 160V220 CAVOK 14/03 Q1004 NOSIG', 'LHBP 081430Z 22009KT 180V240 CAVOK 14/04 Q1005 NOSIG', 'LHBP 081400Z 22010KT CAVOK 14/04 Q1004 NOSIG', 'LHBP 081330Z 23011KT 9999 FEW041 SCT059 14/03 Q1005 NOSIG', 'LHBP 081300Z 21010KT 9999 FEW040 SCT058 14/04 Q1005 NOSIG', 'LHBP 081230Z 25011KT 9999 FEW040 14/04 Q1005 NOSIG', 'LHBP 081200Z 24010KT 210V280 9999 FEW040 SCT060 14/04 Q1005 NOSIG', 'LHBP 081130Z 24010KT 9999 FEW040 BKN060 14/04 Q1005 NOSIG', 'LHBP 081100Z 25009KT 210V280 9999 FEW036 13/04 Q1005 NOSIG', 'LHBP 081030Z 25008KT 230V290 9999 FEW035 13/04 Q1006 NOSIG', 'LHBP 081000Z 24005KT 200V270 CAVOK 12/05 Q1006 NOSIG', 'LHBP 080930Z 22003KT 190V250 CAVOK 10/05 Q1006 NOSIG', 'LHBP 080900Z VRB02KT CAVOK 08/05 Q1006 NOSIG', 'LHBP 080830Z VRB02KT CAVOK 08/05 Q1006 NOSIG', 'LHBP 080800Z VRB02KT CAVOK 07/05 Q1006 NOSIG', 'LHBP 080730Z VRB02KT CAVOK 06/05 Q1006 NOSIG', 'LHBP 080700Z 14003KT CAVOK 05/05 Q1006 NOSIG', 'LHBP 080630Z 15003KT 130V190 CAVOK 05/04 Q1005 NOSIG', 'LHBP 080600Z 24004KT CAVOK 05/03 Q1005 NOSIG', 'LHBP 080530Z VRB02KT CAVOK 05/04 Q1005 NOSIG', 'LHBP 080500Z VRB02KT CAVOK 06/04 Q1005 NOSIG', 'LHBP 080430Z 16003KT CAVOK 05/04 Q1005 NOSIG', 'LHBP 080400Z VRB02KT CAVOK 05/04 Q1005 NOSIG', 'LHBP 080330Z VRB02KT CAVOK 05/03 Q1005 NOSIG', 'LHBP 080300Z 13004KT CAVOK 04/04 Q1005 NOSIG', 'LHBP 080230Z 14003KT 110V190 CAVOK 04/03 Q1005 NOSIG', 'LHBP 080130Z 13003KT 100V170 CAVOK 07/04 Q1005 NOSIG', 'LHBP 080100Z VRB01KT CAVOK 06/03 Q1005 NOSIG', 'LHBP 080030Z 16004KT CAVOK 06/03 Q1005 NOSIG', 'LHBP 080000Z VRB02KT CAVOK 06/03 Q1006 NOSIG', 'LHBP 072330Z 22005KT CAVOK 08/03 Q1006 NOSIG', 'LHBP 072300Z 21006KT 170V240 CAVOK 09/04 Q1005 NOSIG', 'LHBP 072230Z 24009KT CAVOK 09/04 Q1006 NOSIG', 'LHBP 072200Z 24008KT CAVOK 08/04 Q1006 NOSIG', 'LHBP 072130Z 30005KT 240V340 CAVOK 07/03 Q1006 NOSIG', 'LHBP 072100Z 27008KT 240V300 CAVOK 09/04 Q1006 WS ALL RWY NOSIG', 'LHBP 072030Z 23006KT CAVOK 08/04 Q1006 NOSIG', 'LHBP 072000Z 22007KT CAVOK 08/03 Q1006 NOSIG', 'LHBP 071930Z 21006KT CAVOK 09/04 Q1006 NOSIG', 'LHBP 071900Z 21007KT CAVOK 09/04 Q1006 NOSIG', 'LHBP 071830Z 20004KT CAVOK 09/03 Q1006 NOSIG', 'LHBP 071800Z 22007KT CAVOK 09/03 Q1006 NOSIG', 'LHBP 071730Z 22007KT CAVOK 09/03 Q1006 NOSIG', 'LHBP 071700Z 22008KT CAVOK 10/03 Q1006 NOSIG', 'LHBP 071630Z 22006KT CAVOK 10/02 Q1006 NOSIG', 'LHBP 071600Z 23009KT CAVOK 12/02 Q1006 NOSIG', 'LHBP 071530Z 22010KT CAVOK 13/03 Q1006 NOSIG', 'LHBP 071500Z 23011KT CAVOK 14/03 Q1007 NOSIG', 'LHBP 071430Z 23013KT CAVOK 14/03 Q1007 NOSIG', 'LHBP 071400Z 23013KT 9999 FEW043 14/03 Q1007 NOSIG', 'LHBP 071330Z 22012KT 9999 FEW040 14/03 Q1007 NOSIG', 'LHBP 071300Z 23010KT 9999 FEW038 SCT220 13/04 Q1008 NOSIG', 'LHBP 071230Z 21007KT 9999 FEW038 BKN220 13/04 Q1008 NOSIG', 'LHBP 071200Z 21007KT 9999 FEW035 SCT240 13/04 Q1008 NOSIG', 'LHBP 071130Z 20008KT 160V250 9999 FEW032 12/04 Q1008 NOSIG', 'LHBP 071100Z 20010KT CAVOK 11/04 Q1009 NOSIG', 'LHBP 071030Z 21009KT CAVOK 11/04 Q1009 NOSIG', 'LHBP 071000Z 22009KT 190V250 CAVOK 10/04 Q1010 NOSIG', 'LHBP 070930Z 22008KT CAVOK 08/04 Q1010 NOSIG', 'LHBP 070900Z 22007KT CAVOK 07/03 Q1010 NOSIG', 'LHBP 070830Z 23004KT 170V300 CAVOK 06/03 Q1011 NOSIG', 'LHBP 070800Z 17004KT 140V200 CAVOK 04/02 Q1011 NOSIG', 'LHBP 070730Z VRB02KT CAVOK 03/01 Q1011 NOSIG', 'LHBP 070700Z 13003KT 9999 FEW026 02/00 Q1011 NOSIG', 'LHBP 070630Z 18005KT CAVOK 02/00 Q1011 NOSIG', 'LHBP 070600Z 16005KT CAVOK 01/M01 Q1011 NOSIG', 'LHBP 070530Z 00000KT CAVOK 02/00 Q1011 NOSIG', 'LHBP 070500Z 00000KT CAVOK M01/M01 Q1011 NOSIG', 'LHBP 070430Z VRB02KT CAVOK 01/M01 Q1011 NOSIG', 'LHBP 070400Z 14003KT CAVOK 01/M01 Q1011 NOSIG', 'LHBP 070330Z 19002KT CAVOK 03/M00 Q1011 NOSIG', 'LHBP 070300Z 00000KT CAVOK 02/M02 Q1012 NOSIG', 'LHBP 070230Z 22005KT CAVOK 04/00 Q1012 NOSIG', 'LHBP 070200Z 22008KT CAVOK 05/01 Q1012 NOSIG', 'LHBP 070130Z 23008KT CAVOK 05/01 Q1012 NOSIG', 'LHBP 070100Z 25008KT CAVOK 05/00 Q1012 NOSIG', 'LHBP 070030Z 22007KT CAVOK 06/00 Q1013 NOSIG', 'LHBP 070000Z 28011KT CAVOK 10/01 Q1013 NOSIG', 'LHBP 062330Z 28011KT CAVOK 10/01 Q1013 NOSIG', 'LHBP 062300Z 29009KT CAVOK 09/01 Q1013 NOSIG', 'LHBP 062230Z 30011KT CAVOK 09/01 Q1013 BECMG 24006KT', 'LHBP 062200Z 30013KT CAVOK 09/01 Q1013 BECMG 24006KT', 'LHBP 062130Z 30015KT CAVOK 10/01 Q1013 BECMG 24006KT', 'LHBP 062100Z 30018KT CAVOK 10/M00 Q1014 BECMG 24006KT', 'LHBP 062030Z 30015KT CAVOK 11/00 Q1014 BECMG 24006KT', 'LHBP 062000Z 31013KT CAVOK 10/M00 Q1013 BECMG 24006KT', 'LHBP 061930Z 30020KT CAVOK 11/M00 Q1013 BECMG FM2000 26008KT', 'LHBP 061900Z 30018KT CAVOK 12/M01 Q1013 NOSIG', 'LHBP 061830Z 29010KT 260V320 CAVOK 12/M01 Q1014 NOSIG', 'LHBP 061800Z 26010G20KT CAVOK 12/M01 Q1013 NOSIG', 'LHBP 061730Z 26012KT CAVOK 12/M01 Q1013 NOSIG', 'LHBP 061700Z 27010G20KT CAVOK 13/M01 Q1013 NOSIG', 'LHBP 061630Z 28014G25KT CAVOK 14/M01 Q1013 NOSIG', 'LHBP 061600Z 27017KT CAVOK 14/M00 Q1013 NOSIG', 'LHBP 061530Z 26018G29KT CAVOK 14/01 Q1013 NOSIG', 'LHBP 061500Z 27013G23KT CAVOK 16/01 Q1013 NOSIG', 'LHBP 061430Z 25011KT CAVOK 16/03 Q1013 NOSIG', 'LHBP 061400Z 26013KT CAVOK 17/00 Q1013 NOSIG', 'LHBP 061330Z 26012KT CAVOK 17/01 Q1013 NOSIG', 'LHBP 061300Z 26012KT CAVOK 17/02 Q1013 NOSIG', 'LHBP 061230Z 25012KT CAVOK 17/02 Q1014 NOSIG', 'LHBP 061200Z 24007KT 200V260 CAVOK 15/04 Q1014 NOSIG', 'LHBP 061130Z 23007KT 200V260 CAVOK 15/04 Q1014 NOSIG', 'LHBP 061100Z 23006KT 200V260 CAVOK 14/04 Q1015 NOSIG', 'LHBP 061030Z 24008KT 200V270 CAVOK 12/04 Q1015 NOSIG', 'LHBP 061000Z 23008KT CAVOK 11/04 Q1015 NOSIG', 'LHBP 060930Z 25009KT CAVOK 10/04 Q1015 NOSIG', 'LHBP 060900Z 23007KT 180V280 CAVOK 09/04 Q1015 NOSIG', 'LHBP 060830Z 21006KT CAVOK 08/04 Q1015 NOSIG', 'LHBP 060800Z 18003KT 140V240 CAVOK 07/04 Q1015 NOSIG', 'LHBP 060730Z 17003KT 140V200 CAVOK 05/03 Q1015 NOSIG', 'LHBP 060700Z 14003KT CAVOK 03/02 Q1015 NOSIG', 'LHBP 060630Z 15003KT 110V200 CAVOK 03/01 Q1015 NOSIG', 'LHBP 060600Z VRB02KT CAVOK 03/02 Q1015 NOSIG', 'LHBP 060530Z 19004KT CAVOK 04/02 Q1015 NOSIG', 'LHBP 060500Z 21005KT CAVOK 04/01 Q1015 NOSIG', 'LHBP 060430Z 20006KT CAVOK 05/02 Q1015 NOSIG', 'LHBP 060400Z 20006KT CAVOK 05/02 Q1015 NOSIG', 'LHBP 060330Z 18003KT 160V220 CAVOK 01/00 Q1015 NOSIG', 'LHBP 060300Z VRB02KT CAVOK 01/M01 Q1015 NOSIG', 'LHBP 060230Z 21002KT CAVOK 01/M00 Q1016 NOSIG', 'LHBP 060200Z 17003KT 140V210 CAVOK 02/01 Q1016 NOSIG', 'LHBP 060130Z 15003KT 130V190 CAVOK 02/M01 Q1016 NOSIG', 'LHBP 060100Z 19004KT CAVOK 06/01 Q1016 NOSIG', 'LHBP 060030Z 18005KT CAVOK 07/02 Q1016 NOSIG', 'LHBP 060000Z 15005KT 120V180 CAVOK 05/01 Q1016 NOSIG', 'LHBP 052330Z VRB02KT CAVOK 04/M01 Q1016 NOSIG', 'LHBP 052300Z 20003KT 160V230 CAVOK 07/00 Q1016 NOSIG', 'LHBP 052230Z 26003KT CAVOK 08/01 Q1016 NOSIG', 'LHBP 052200Z VRB02KT CAVOK 08/01 Q1016 NOSIG', 'LHBP 052130Z VRB02KT CAVOK 07/00 Q1016 NOSIG']","['2024-02-08 21:00:00', '2024-02-08 20:30:00', '2024-02-08 20:00:00', '2024-02-08 19:30:00', '2024-02-08 19:00:00', '2024-02-08 18:30:00', '2024-02-08 18:00:00', '2024-02-08 17:30:00', '2024-02-08 17:00:00', '2024-02-08 16:30:00', '2024-02-08 16:00:00', '2024-02-08 15:30:00', '2024-02-08 15:00:00', '2024-02-08 14:30:00', '2024-02-08 14:00:00', '2024-02-08 13:30:00', '2024-02-08 13:00:00', '2024-02-08 12:30:00', '2024-02-08 12:00:00', '2024-02-08 11:30:00', '2024-02-08 11:00:00', '2024-02-08 10:30:00', '2024-02-08 10:00:00', '2024-02-08 09:30:00', '2024-02-08 09:00:00', '2024-02-08 08:30:00', '2024-02-08 08:00:00', '2024-02-08 07:30:00', '2024-02-08 07:00:00', '2024-02-08 06:30:00', '2024-02-08 06:00:00', '2024-02-08 05:30:00', '2024-02-08 05:00:00', '2024-02-08 04:30:00', '2024-02-08 04:00:00', '2024-02-08 03:30:00', '2024-02-08 03:00:00', '2024-02-08 02:30:00', '2024-02-08 01:30:00', '2024-02-08 01:00:00', '2024-02-08 00:30:00', '2024-02-08 00:00:00', '2024-02-07 23:30:00', '2024-02-07 23:00:00', '2024-02-07 22:30:00', '2024-02-07 22:00:00', '2024-02-07 21:30:00', '2024-02-07 21:00:00', '2024-02-07 20:30:00', '2024-02-07 20:00:00', '2024-02-07 19:30:00', '2024-02-07 19:00:00', '2024-02-07 18:30:00', '2024-02-07 18:00:00', '2024-02-07 17:30:00', '2024-02-07 17:00:00', '2024-02-07 16:30:00', '2024-02-07 16:00:00', '2024-02-07 15:30:00', '2024-02-07 15:00:00', '2024-02-07 14:30:00', '2024-02-07 14:00:00', '2024-02-07 13:30:00', '2024-02-07 13:00:00', '2024-02-07 12:30:00', '2024-02-07 12:00:00', '2024-02-07 11:30:00', '2024-02-07 11:00:00', '2024-02-07 10:30:00', '2024-02-07 10:00:00', '2024-02-07 09:30:00', '2024-02-07 09:00:00', '2024-02-07 08:30:00', '2024-02-07 08:00:00', '2024-02-07 07:30:00', '2024-02-07 07:00:00', '2024-02-07 06:30:00', '2024-02-07 06:00:00', '2024-02-07 05:30:00', '2024-02-07 05:00:00', '2024-02-07 04:30:00', '2024-02-07 04:00:00', '2024-02-07 03:30:00', '2024-02-07 03:00:00', '2024-02-07 02:30:00', '2024-02-07 02:00:00', '2024-02-07 01:30:00', '2024-02-07 01:00:00', '2024-02-07 00:30:00', '2024-02-07 00:00:00', '2024-02-06 23:30:00', '2024-02-06 23:00:00', '2024-02-06 22:30:00', '2024-02-06 22:00:00', '2024-02-06 21:30:00', '2024-02-06 21:00:00', '2024-02-06 20:30:00', '2024-02-06 20:00:00', '2024-02-06 19:30:00', '2024-02-06 19:00:00', '2024-02-06 18:30:00', '2024-02-06 18:00:00', '2024-02-06 17:30:00', '2024-02-06 17:00:00', '2024-02-06 16:30:00', '2024-02-06 16:00:00', '2024-02-06 15:30:00', '2024-02-06 15:00:00', '2024-02-06 14:30:00', '2024-02-06 14:00:00', '2024-02-06 13:30:00', '2024-02-06 13:00:00', '2024-02-06 12:30:00', '2024-02-06 12:00:00', '2024-02-06 11:30:00', '2024-02-06 11:00:00', '2024-02-06 10:30:00', '2024-02-06 10:00:00', '2024-02-06 09:30:00', '2024-02-06 09:00:00', '2024-02-06 08:30:00', '2024-02-06 08:00:00', '2024-02-06 07:30:00', '2024-02-06 07:00:00', '2024-02-06 06:30:00', '2024-02-06 06:00:00', '2024-02-06 05:30:00', '2024-02-06 05:00:00', '2024-02-06 04:30:00', '2024-02-06 04:00:00', '2024-02-06 03:30:00', '2024-02-06 03:00:00', '2024-02-06 02:30:00', '2024-02-06 02:00:00', '2024-02-06 01:30:00', '2024-02-06 01:00:00', '2024-02-06 00:30:00', '2024-02-06 00:00:00', '2024-02-05 23:30:00', '2024-02-05 23:00:00', '2024-02-05 22:30:00', '2024-02-05 22:00:00', '2024-02-05 21:30:00']"
Hungary, Debrecen International Airport (DEB/LHDC) ,"['LHDC 082045Z AUTO 18011KT CAVOK 09/06 Q1003 NOSIG', 'LHDC 082015Z AUTO 17008KT 140V200 CAVOK 09/06 Q1004 NOSIG', 'LHDC 081945Z AUTO 18008KT CAVOK 09/05 Q1004 NOSIG', 'LHDC 081915Z AUTO 18007KT CAVOK 09/05 Q1004 NOSIG', 'LHDC 081845Z AUTO 19008KT CAVOK 09/05 Q1004 NOSIG', 'LHDC 081815Z AUTO 19008KT CAVOK 09/05 Q1004 NOSIG', 'LHDC 081745Z AUTO 18007KT CAVOK 10/05 Q1004 NOSIG', 'LHDC 081715Z AUTO 19008KT CAVOK 10/05 Q1004 NOSIG', 'LHDC 081645Z AUTO 19008KT CAVOK 10/05 Q1005 NOSIG', 'LHDC 081615Z AUTO 20010KT CAVOK 11/06 Q1005 NOSIG', 'LHDC 081545Z AUTO 21010KT CAVOK 11/05 Q1005 NOSIG', 'LHDC 081515Z AUTO 23011KT CAVOK 13/05 Q1005 NOSIG', 'LHDC 081445Z AUTO 23012KT CAVOK 13/05 Q1005 NOSIG', 'LHDC 081415Z AUTO 23011KT CAVOK 13/05 Q1005 NOSIG', 'LHDC 081345Z AUTO 23011KT 200V260 CAVOK 13/06 Q1005 NOSIG', 'LHDC 081315Z AUTO 21013KT CAVOK 14/06 Q1005 NOSIG', 'LHDC 081245Z AUTO 23012KT 200V260 CAVOK 13/06 Q1005 NOSIG', 'LHDC 081215Z AUTO 21009KT 170V250 CAVOK 13/06 Q1005 NOSIG', 'LHDC 081145Z AUTO 20010KT 160V230 CAVOK 12/06 Q1005 NOSIG', 'LHDC 081115Z AUTO 20011KT 170V230 CAVOK 12/06 Q1006 NOSIG', 'LHDC 081045Z AUTO 20009KT 170V230 CAVOK 11/06 Q1005 NOSIG', 'LHDC 081015Z AUTO 20009KT 170V230 CAVOK 10/06 Q1006 NOSIG', 'LHDC 080945Z AUTO 21009KT 180V240 CAVOK 10/05 Q1006 NOSIG', 'LHDC 080915Z AUTO 22008KT 170V250 CAVOK 10/05 Q1006 NOSIG', 'LHDC 080845Z AUTO 22010KT CAVOK 09/05 Q1007 NOSIG', 'LHDC 080815Z AUTO 19009KT CAVOK 09/05 Q1006 NOSIG', 'LHDC 080745Z AUTO 19007KT 160V220 CAVOK 07/05 Q1006 NOSIG', 'LHDC 080715Z AUTO 18006KT CAVOK 07/05 Q1006 NOSIG', 'LHDC 080645Z AUTO 19004KT CAVOK 07/05 Q1006 NOSIG', 'LHDC 080615Z AUTO 22007KT CAVOK 07/04 Q1006 NOSIG', 'LHDC 080545Z AUTO 22008KT CAVOK 07/04 Q1006 NOSIG', 'LHDC 080515Z AUTO 22006KT CAVOK 07/04 Q1005 NOSIG', 'LHDC 080445Z AUTO 20008KT 170V230 CAVOK 06/04 Q1005 NOSIG', 'LHDC 080415Z AUTO 19007KT CAVOK 06/04 Q1005 NOSIG', 'LHDC 080345Z AUTO 20007KT CAVOK 06/04 Q1005 NOSIG', 'LHDC 080315Z AUTO 18005KT 150V210 CAVOK 06/04 Q1005 NOSIG', 'LHDC 080245Z AUTO 20006KT CAVOK 06/04 Q1005 NOSIG', 'LHDC 080145Z AUTO 20008KT CAVOK 06/04 Q1005 NOSIG', 'LHDC 080115Z AUTO 20009KT CAVOK 07/04 Q1005 NOSIG', 'LHDC 080045Z AUTO 21008KT CAVOK 07/04 Q1005 NOSIG', 'LHDC 080015Z AUTO 22008KT CAVOK 07/04 Q1005 NOSIG', 'LHDC 072345Z AUTO 22008KT CAVOK 07/04 Q1005 NOSIG', 'LHDC 072315Z AUTO 21010KT CAVOK 07/04 Q1005 NOSIG', 'LHDC 072245Z AUTO 23010KT CAVOK 08/04 Q1005 NOSIG', 'LHDC 072215Z AUTO 25010KT CAVOK 09/05 Q1005 NOSIG', 'LHDC 072145Z AUTO 23011KT CAVOK 09/05 Q1005 NOSIG', 'LHDC 072115Z AUTO 22008KT CAVOK 08/05 Q1006 NOSIG', 'LHDC 072045Z AUTO 20009KT CAVOK 07/05 Q1006 NOSIG', 'LHDC 072015Z AUTO 21009KT CAVOK 08/05 Q1006 NOSIG', 'LHDC 071945Z AUTO 21010KT CAVOK 08/05 Q1006 NOSIG', 'LHDC 071915Z AUTO 21008KT CAVOK 08/05 Q1006 NOSIG', 'LHDC 071845Z AUTO 21011KT CAVOK 09/05 Q1006 NOSIG', 'LHDC 071815Z AUTO 21010KT CAVOK 09/05 Q1006 NOSIG', 'LHDC 071745Z AUTO 21011KT CAVOK 09/05 Q1006 NOSIG', 'LHDC 071715Z AUTO 21011KT CAVOK 10/05 Q1006 NOSIG', 'LHDC 071645Z AUTO 22009KT CAVOK 10/05 Q1006 NOSIG', 'LHDC 071615Z AUTO 21010KT CAVOK 10/05 Q1006 NOSIG', 'LHDC 071545Z AUTO 21013KT CAVOK 12/05 Q1006 NOSIG', 'LHDC 071515Z AUTO 22013KT CAVOK 13/04 Q1006 NOSIG', 'LHDC 071445Z AUTO 22013KT CAVOK 13/05 Q1006 NOSIG', 'LHDC 071415Z AUTO 23015KT CAVOK 14/05 Q1007 NOSIG', 'LHDC 071345Z AUTO 23016KT CAVOK 14/04 Q1007 NOSIG', 'LHDC 071315Z AUTO 23018KT CAVOK 15/04 Q1007 NOSIG', 'LHDC 071245Z AUTO 23018KT 200V260 CAVOK 15/04 Q1007 NOSIG', 'LHDC 071215Z AUTO 22018KT 9999 FEW040 14/05 Q1007 NOSIG', 'LHDC 071145Z AUTO 22018KT 9999 FEW042 14/05 Q1008 NOSIG', 'LHDC 071115Z AUTO 21018KT CAVOK 13/05 Q1008 NOSIG', 'LHDC 071045Z AUTO 21019KT CAVOK 12/06 Q1009 NOSIG', 'LHDC 071015Z AUTO 21020KT CAVOK 11/05 Q1009 NOSIG', 'LHDC 070945Z AUTO 21019KT CAVOK 11/05 Q1009 NOSIG', 'LHDC 070915Z AUTO 23018KT CAVOK 10/05 Q1010 NOSIG', 'LHDC 070845Z AUTO 22017KT CAVOK 10/05 Q1010 NOSIG', 'LHDC 070815Z AUTO 22016KT CAVOK 09/04 Q1010 NOSIG', 'LHDC 070745Z AUTO 22015KT CAVOK 07/03 Q1010 NOSIG', 'LHDC 070715Z AUTO 22017KT CAVOK 07/02 Q1010 NOSIG', 'LHDC 070645Z AUTO 22015KT CAVOK 06/02 Q1010 NOSIG', 'LHDC 070615Z AUTO 22012KT CAVOK 05/02 Q1010 NOSIG', 'LHDC 070545Z AUTO 22013KT CAVOK 05/01 Q1010 NOSIG', 'LHDC 070515Z AUTO 21011KT CAVOK 04/01 Q1010 NOSIG', 'LHDC 070445Z AUTO 22014KT CAVOK 04/01 Q1010 NOSIG', 'LHDC 070415Z AUTO 21010KT CAVOK 04/01 Q1010 NOSIG', 'LHDC 070345Z AUTO 22009KT CAVOK 04/01 Q1011 NOSIG', 'LHDC 070315Z AUTO 21009KT CAVOK 04/01 Q1011 NOSIG', 'LHDC 070245Z AUTO 21009KT CAVOK 04/01 Q1011 NOSIG', 'LHDC 070215Z AUTO 21011KT CAVOK 04/01 Q1011 NOSIG', 'LHDC 070145Z AUTO 21011KT CAVOK 05/01 Q1011 NOSIG', 'LHDC 070115Z AUTO 22011KT CAVOK 05/01 Q1011 NOSIG', 'LHDC 070045Z AUTO 24010KT CAVOK 07/02 Q1011 NOSIG', 'LHDC 070015Z AUTO 25012KT CAVOK 08/02 Q1011 NOSIG', 'LHDC 062345Z AUTO 24009KT CAVOK 07/02 Q1011 NOSIG', 'LHDC 062315Z AUTO 23007KT CAVOK 06/02 Q1012 NOSIG', 'LHDC 062245Z AUTO 22008KT CAVOK 05/02 Q1012 NOSIG', 'LHDC 062215Z AUTO 25008KT 220V280 CAVOK 08/02 Q1012 NOSIG', 'LHDC 062145Z AUTO 26008KT CAVOK 08/02 Q1012 NOSIG', 'LHDC 062115Z AUTO 26009KT CAVOK 08/02 Q1012 NOSIG', 'LHDC 062045Z AUTO 26010KT CAVOK 09/02 Q1012 NOSIG', 'LHDC 062015Z AUTO 25010KT CAVOK 09/02 Q1012 NOSIG', 'LHDC 061945Z AUTO 26008KT 230V290 CAVOK 10/02 Q1012 NOSIG', 'LHDC 061915Z AUTO 25011KT CAVOK 11/03 Q1012 NOSIG', 'LHDC 061845Z AUTO 23007KT 200V260 CAVOK 09/04 Q1012 NOSIG', 'LHDC 061815Z AUTO 20008KT CAVOK 08/05 Q1012 NOSIG', 'LHDC 061745Z AUTO 20008KT CAVOK 09/05 Q1012 NOSIG', 'LHDC 061715Z AUTO 19009KT CAVOK 10/05 Q1011 NOSIG', 'LHDC 061645Z AUTO 21010KT CAVOK 10/05 Q1011 NOSIG', 'LHDC 061615Z AUTO 20010KT CAVOK 11/06 Q1011 NOSIG', 'LHDC 061545Z AUTO 21011KT CAVOK 13/06 Q1011 NOSIG', 'LHDC 061515Z AUTO 23014KT CAVOK 15/05 Q1011 NOSIG', 'LHDC 061445Z AUTO 24015KT CAVOK 16/04 Q1011 NOSIG', 'LHDC 061415Z AUTO 24015KT 220V280 CAVOK 17/03 Q1011 NOSIG', 'LHDC 061345Z AUTO 24014KT CAVOK 16/03 Q1012 NOSIG', 'LHDC 061315Z AUTO 24015KT CAVOK 16/04 Q1012 NOSIG', 'LHDC 061245Z AUTO 24017KT CAVOK 16/04 Q1012 NOSIG', 'LHDC 061215Z AUTO 24017KT CAVOK 15/04 Q1012 NOSIG', 'LHDC 061145Z AUTO 24018KT CAVOK 16/03 Q1013 NOSIG', 'LHDC 061115Z AUTO 24018KT 210V270 CAVOK 16/04 Q1013 NOSIG', 'LHDC 061045Z AUTO 25018KT 220V280 CAVOK 16/03 Q1013 NOSIG', 'LHDC 061015Z AUTO 25018KT CAVOK 15/02 Q1013 NOSIG', 'LHDC 060945Z AUTO 24016KT CAVOK 14/03 Q1013 NOSIG', 'LHDC 060915Z AUTO 23015KT CAVOK 13/04 Q1013 NOSIG', 'LHDC 060845Z AUTO 24015KT CAVOK 11/03 Q1013 NOSIG', 'LHDC 060815Z AUTO 24015KT CAVOK 10/04 Q1013 NOSIG', 'LHDC 060745Z AUTO 24015KT CAVOK 09/03 Q1013 NOSIG', 'LHDC 060715Z AUTO 23015KT CAVOK 07/02 Q1013 NOSIG', 'LHDC 060645Z AUTO 22010KT CAVOK 07/02 Q1013 NOSIG', 'LHDC 060615Z AUTO 22011KT CAVOK 06/02 Q1014 NOSIG', 'LHDC 060545Z AUTO 23010KT CAVOK 06/02 Q1013 NOSIG', 'LHDC 060515Z AUTO 20008KT 160V250 CAVOK 06/02 Q1014 NOSIG', 'LHDC 060445Z AUTO 20009KT 170V230 CAVOK 07/02 Q1014 NOSIG', 'LHDC 060415Z AUTO 22010KT CAVOK 06/02 Q1014 NOSIG', 'LHDC 060345Z AUTO 23011KT CAVOK 07/02 Q1014 NOSIG', 'LHDC 060315Z AUTO 24016KT CAVOK 08/02 Q1014 NOSIG', 'LHDC 060245Z AUTO 24010KT 160V260 CAVOK 08/02 Q1014 NOSIG', 'LHDC 060215Z AUTO 22008KT CAVOK 07/03 Q1014 NOSIG', 'LHDC 060145Z AUTO 24012KT CAVOK 09/03 Q1014 NOSIG', 'LHDC 060115Z AUTO 24011KT CAVOK 08/03 Q1014 NOSIG', 'LHDC 060045Z AUTO 24013KT CAVOK 08/03 Q1014 NOSIG', 'LHDC 060015Z AUTO 24014KT CAVOK 08/03 Q1014 NOSIG', 'LHDC 052345Z AUTO 24014KT CAVOK 09/03 Q1014 NOSIG', 'LHDC 052315Z AUTO 24011KT CAVOK 09/03 Q1014 NOSIG', 'LHDC 052245Z AUTO 24013KT CAVOK 09/03 Q1014 NOSIG', 'LHDC 052215Z AUTO 24015KT CAVOK 09/03 Q1014 NOSIG', 'LHDC 052145Z AUTO 24013KT CAVOK 09/04 Q1014 NOSIG', 'LHDC 052115Z AUTO 24017KT CAVOK 10/04 Q1014 NOSIG']","['2024-02-08 20:45:00', '2024-02-08 20:15:00', '2024-02-08 19:45:00', '2024-02-08 19:15:00', '2024-02-08 18:45:00', '2024-02-08 18:15:00', '2024-02-08 17:45:00', '2024-02-08 17:15:00', '2024-02-08 16:45:00', '2024-02-08 16:15:00', '2024-02-08 15:45:00', '2024-02-08 15:15:00', '2024-02-08 14:45:00', '2024-02-08 14:15:00', '2024-02-08 13:45:00', '2024-02-08 13:15:00', '2024-02-08 12:45:00', '2024-02-08 12:15:00', '2024-02-08 11:45:00', '2024-02-08 11:15:00', '2024-02-08 10:45:00', '2024-02-08 10:15:00', '2024-02-08 09:45:00', '2024-02-08 09:15:00', '2024-02-08 08:45:00', '2024-02-08 08:15:00', '2024-02-08 07:45:00', '2024-02-08 07:15:00', '2024-02-08 06:45:00', '2024-02-08 06:15:00', '2024-02-08 05:45:00', '2024-02-08 05:15:00', '2024-02-08 04:45:00', '2024-02-08 04:15:00', '2024-02-08 03:45:00', '2024-02-08 03:15:00', '2024-02-08 02:45:00', '2024-02-08 01:45:00', '2024-02-08 01:15:00', '2024-02-08 00:45:00', '2024-02-08 00:15:00', '2024-02-07 23:45:00', '2024-02-07 23:15:00', '2024-02-07 22:45:00', '2024-02-07 22:15:00', '2024-02-07 21:45:00', '2024-02-07 21:15:00', '2024-02-07 20:45:00', '2024-02-07 20:15:00', '2024-02-07 19:45:00', '2024-02-07 19:15:00', '2024-02-07 18:45:00', '2024-02-07 18:15:00', '2024-02-07 17:45:00', '2024-02-07 17:15:00', '2024-02-07 16:45:00', '2024-02-07 16:15:00', '2024-02-07 15:45:00', '2024-02-07 15:15:00', '2024-02-07 14:45:00', '2024-02-07 14:15:00', '2024-02-07 13:45:00', '2024-02-07 13:15:00', '2024-02-07 12:45:00', '2024-02-07 12:15:00', '2024-02-07 11:45:00', '2024-02-07 11:15:00', '2024-02-07 10:45:00', '2024-02-07 10:15:00', '2024-02-07 09:45:00', '2024-02-07 09:15:00', '2024-02-07 08:45:00', '2024-02-07 08:15:00', '2024-02-07 07:45:00', '2024-02-07 07:15:00', '2024-02-07 06:45:00', '2024-02-07 06:15:00', '2024-02-07 05:45:00', '2024-02-07 05:15:00', '2024-02-07 04:45:00', '2024-02-07 04:15:00', '2024-02-07 03:45:00', '2024-02-07 03:15:00', '2024-02-07 02:45:00', '2024-02-07 02:15:00', '2024-02-07 01:45:00', '2024-02-07 01:15:00', '2024-02-07 00:45:00', '2024-02-07 00:15:00', '2024-02-06 23:45:00', '2024-02-06 23:15:00', '2024-02-06 22:45:00', '2024-02-06 22:15:00', '2024-02-06 21:45:00', '2024-02-06 21:15:00', '2024-02-06 20:45:00', '2024-02-06 20:15:00', '2024-02-06 19:45:00', '2024-02-06 19:15:00', '2024-02-06 18:45:00', '2024-02-06 18:15:00', '2024-02-06 17:45:00', '2024-02-06 17:15:00', '2024-02-06 16:45:00', '2024-02-06 16:15:00', '2024-02-06 15:45:00', '2024-02-06 15:15:00', '2024-02-06 14:45:00', '2024-02-06 14:15:00', '2024-02-06 13:45:00', '2024-02-06 13:15:00', '2024-02-06 12:45:00', '2024-02-06 12:15:00', '2024-02-06 11:45:00', '2024-02-06 11:15:00', '2024-02-06 10:45:00', '2024-02-06 10:15:00', '2024-02-06 09:45:00', '2024-02-06 09:15:00', '2024-02-06 08:45:00', '2024-02-06 08:15:00', '2024-02-06 07:45:00', '2024-02-06 07:15:00', '2024-02-06 06:45:00', '2024-02-06 06:15:00', '2024-02-06 05:45:00', '2024-02-06 05:15:00', '2024-02-06 04:45:00', '2024-02-06 04:15:00', '2024-02-06 03:45:00', '2024-02-06 03:15:00', '2024-02-06 02:45:00', '2024-02-06 02:15:00', '2024-02-06 01:45:00', '2024-02-06 01:15:00', '2024-02-06 00:45:00', '2024-02-06 00:15:00', '2024-02-05 23:45:00', '2024-02-05 23:15:00', '2024-02-05 22:45:00', '2024-02-05 22:15:00', '2024-02-05 21:45:00', '2024-02-05 21:15:00']"
Hungary, Gyor Per Airport (QGY/LHPR) ,"['LHPR 082045Z AUTO 24015KT CAVOK 12/04 Q1002', 'LHPR 082015Z AUTO 24014KT CAVOK 12/04 Q1002', 'LHPR 081945Z AUTO 23013KT 200V260 CAVOK 12/04 Q1001', 'LHPR 081915Z AUTO 23012KT CAVOK 12/04 Q1001', 'LHPR 081845Z AUTO 23012KT CAVOK 13/04 Q1002', 'LHPR 081815Z AUTO 22011KT CAVOK 13/04 Q1002', 'LHPR 081745Z AUTO 21010KT 180V240 CAVOK 13/04 Q1002 NOSIG', 'LHPR 081715Z AUTO 22007KT CAVOK 13/04 Q1002 NOSIG', 'LHPR 081645Z AUTO 22007KT CAVOK 14/04 Q1002 NOSIG', 'LHPR 081615Z AUTO 21009KT CAVOK 14/04 Q1002 NOSIG', 'LHPR 081545Z AUTO 21007KT CAVOK 14/04 Q1003 NOSIG', 'LHPR 081515Z AUTO 21007KT CAVOK 14/03 Q1003 NOSIG', 'LHPR 081445Z AUTO 22011KT CAVOK 15/04 Q1003 NOSIG', 'LHPR 081415Z AUTO 21011KT CAVOK 15/04 Q1003 NOSIG', 'LHPR 081345Z AUTO 22008KT CAVOK 16/04 Q1003 NOSIG', 'LHPR 081315Z AUTO 21008KT 170V240 CAVOK 15/03 Q1004 NOSIG', 'LHPR 081245Z AUTO 22008KT CAVOK 16/03 Q1004 NOSIG', 'LHPR 081215Z AUTO 22007KT 150V250 CAVOK 16/03 Q1004 NOSIG', 'LHPR 081145Z AUTO 20004KT 140V290 CAVOK 15/04 Q1005 NOSIG', 'LHPR 081115Z AUTO 25004KT 220V290 CAVOK 14/04 Q1005 NOSIG', 'LHPR 081045Z AUTO 24006KT 210V270 CAVOK 14/04 Q1005 NOSIG', 'LHPR 081015Z AUTO 22006KT 190V260 CAVOK 13/04 Q1005 NOSIG', 'LHPR 080945Z AUTO 22005KT 190V250 CAVOK 13/04 Q1006 NOSIG', 'LHPR 080915Z AUTO 18005KT CAVOK 13/05 Q1005 NOSIG', 'LHPR 080845Z AUTO 18005KT CAVOK 12/04 Q1005 NOSIG', 'LHPR 080815Z AUTO 18004KT 150V220 CAVOK 11/05 Q1006 NOSIG', 'LHPR 080745Z AUTO 20005KT CAVOK 10/04 Q1006 NOSIG', 'LHPR 080715Z AUTO 21005KT CAVOK 08/04 Q1006 NOSIG', 'LHPR 080645Z AUTO 20005KT CAVOK 08/04 Q1005 NOSIG', 'LHPR 080615Z AUTO VRB01KT CAVOK 07/04 Q1005 NOSIG', 'LHPR 080545Z AUTO 22005KT CAVOK 08/04 Q1005 NOSIG', 'LHPR 080515Z AUTO 22004KT 200V280 CAVOK 07/04 Q1005 NOSIG', 'LHPR 080445Z AUTO 22006KT CAVOK 08/04 Q1005', 'LHPR 080415Z AUTO 22005KT 190V250 CAVOK 08/04 Q1005', 'LHPR 080345Z AUTO VRB03KT CAVOK 07/04 Q1005', 'LHPR 080315Z AUTO 23006KT CAVOK 09/04 Q1005', 'LHPR 080245Z AUTO 23005KT CAVOK 08/04 Q1004', 'LHPR 080145Z AUTO 23004KT 210V270 CAVOK 08/04 Q1005', 'LHPR 080115Z AUTO 20003KT 150V260 CAVOK 09/04 Q1005', 'LHPR 080045Z AUTO 22005KT CAVOK 09/04 Q1005', 'LHPR 080015Z AUTO 23007KT CAVOK 09/04 Q1005', 'LHPR 072345Z AUTO 22008KT CAVOK 09/04 Q1005', 'LHPR 072315Z AUTO 22010KT CAVOK 09/04 Q1005', 'LHPR 072245Z AUTO 22010KT CAVOK 10/04 Q1005', 'LHPR 072215Z AUTO 22012KT CAVOK 10/04 Q1005', 'LHPR 072145Z AUTO 22012KT 200V260 CAVOK 10/04 Q1005', 'LHPR 072115Z AUTO 23010KT CAVOK 11/04 Q1006', 'LHPR 072045Z AUTO 23010KT 200V260 CAVOK 11/04 Q1006', 'LHPR 072015Z AUTO 23010KT 190V270 CAVOK 11/04 Q1006', 'LHPR 071945Z AUTO 23009KT CAVOK 11/04 Q1006', 'LHPR 071915Z AUTO 24008KT CAVOK 11/04 Q1006', 'LHPR 071845Z AUTO 25008KT CAVOK 11/04 Q1006', 'LHPR 071815Z AUTO 28009KT 260V320 CAVOK 11/04 Q1006', 'LHPR 071745Z AUTO 26006KT 200V310 CAVOK 11/03 Q1006 NOSIG', 'LHPR 071715Z AUTO 20010KT CAVOK 12/03 Q1006 NOSIG', 'LHPR 071645Z AUTO 21008KT CAVOK 11/03 Q1006 NOSIG', 'LHPR 071615Z AUTO 21009KT CAVOK 11/04 Q1006 NOSIG', 'LHPR 071545Z AUTO 21008KT CAVOK 12/04 Q1006 NOSIG', 'LHPR 071515Z AUTO 22008KT CAVOK 13/04 Q1007 NOSIG', 'LHPR 071445Z AUTO 22010KT CAVOK 14/04 Q1007 NOSIG', 'LHPR 071415Z AUTO 22012KT CAVOK 14/04 Q1007 NOSIG', 'LHPR 071345Z AUTO 22013KT CAVOK 15/04 Q1007 NOSIG', 'LHPR 071315Z AUTO 22011KT 190V260 CAVOK 15/03 Q1007 NOSIG', 'LHPR 071245Z AUTO 24012KT 200V280 CAVOK 15/04 Q1007 NOSIG', 'LHPR 071215Z AUTO 22011KT CAVOK 14/05 Q1008 NOSIG', 'LHPR 071145Z AUTO 23010KT CAVOK 14/05 Q1008 NOSIG', 'LHPR 071115Z AUTO 22010KT 190V270 CAVOK 14/03 Q1008 NOSIG', 'LHPR 071045Z AUTO 22011KT 190V250 CAVOK 14/04 Q1009 NOSIG', 'LHPR 071015Z AUTO 20009KT 170V230 CAVOK 13/05 Q1009 NOSIG', 'LHPR 070945Z AUTO 20006KT 140V250 CAVOK 12/05 Q1010 NOSIG', 'LHPR 070915Z AUTO VRB04KT CAVOK 10/05 Q1010 NOSIG', 'LHPR 070845Z AUTO 21005KT CAVOK 07/05 Q1010 NOSIG', 'LHPR 070815Z AUTO 24005KT 220V280 9000 NCD 07/05 Q1010 NOSIG', 'LHPR 070745Z AUTO 20004KT 150V220 CAVOK 03/02 Q1010 NOSIG', 'LHPR 070715Z AUTO 08006KT 350V110 CAVOK 01/01 Q1010 NOSIG', 'LHPR 070645Z AUTO 10004KT 080V140 CAVOK M00/M01 Q1010 NOSIG', 'LHPR 070615Z AUTO VRB02KT CAVOK M00/M01 Q1011 NOSIG', 'LHPR 070545Z AUTO 10003KT 020V160 CAVOK M00/M01 Q1011 NOSIG', 'LHPR 070515Z AUTO 08005KT 330V120 CAVOK M00/M00 Q1011 NOSIG', 'LHPR 070445Z AUTO 00000KT CAVOK M00/M01 Q1011', 'LHPR 070415Z AUTO 11003KT 350V160 CAVOK 00/M00 Q1011', 'LHPR 070345Z AUTO VRB01KT CAVOK M00/M02 Q1011', 'LHPR 070315Z AUTO VRB03KT CAVOK M01/M02 Q1011', 'LHPR 070245Z AUTO VRB01KT CAVOK 01/M00 Q1012', 'LHPR 070215Z AUTO VRB02KT CAVOK 01/M00 Q1012', 'LHPR 070145Z AUTO 18004KT 120V240 CAVOK 02/01 Q1012', 'LHPR 070115Z AUTO 17005KT CAVOK 02/00 Q1012', 'LHPR 070045Z AUTO 17004KT CAVOK 02/00 Q1013', 'LHPR 070015Z AUTO 18004KT 150V310 CAVOK 01/M00 Q1013', 'LHPR 062345Z AUTO 16003KT 120V190 CAVOK 01/M00 Q1013', 'LHPR 062315Z AUTO 18003KT 150V290 CAVOK 02/00 Q1014', 'LHPR 062245Z AUTO 17004KT CAVOK 02/01 Q1014', 'LHPR 062215Z AUTO 16005KT CAVOK 03/01 Q1014', 'LHPR 062145Z AUTO VRB02KT CAVOK 04/01 Q1014', 'LHPR 062115Z AUTO 27004KT 230V310 CAVOK 08/02 Q1014', 'LHPR 062045Z AUTO 28005KT 230V320 CAVOK 08/02 Q1014', 'LHPR 062015Z AUTO 29007KT 250V330 CAVOK 08/02 Q1014', 'LHPR 061945Z AUTO 29005KT 220V320 CAVOK 09/02 Q1014', 'LHPR 061915Z AUTO 28006KT 240V320 CAVOK 09/02 Q1014', 'LHPR 061845Z AUTO 31010KT CAVOK 09/02 Q1014', 'LHPR 061815Z AUTO 31012KT CAVOK 09/02 Q1014', 'LHPR 061745Z AUTO 30010KT CAVOK 09/02 Q1014 NOSIG', 'LHPR 061715Z AUTO 29010KT CAVOK 09/02 Q1015 NOSIG', 'LHPR 061645Z AUTO 28012KT CAVOK 10/02 Q1014 NOSIG', 'LHPR 061615Z AUTO 29014KT CAVOK 11/02 Q1014 NOSIG', 'LHPR 061545Z AUTO 29013KT CAVOK 11/02 Q1014 NOSIG', 'LHPR 061515Z AUTO 29016KT CAVOK 13/01 Q1014 NOSIG', 'LHPR 061445Z AUTO 30014KT CAVOK 14/02 Q1014 NOSIG', 'LHPR 061415Z AUTO 31016KT CAVOK 15/02 Q1014 NOSIG', 'LHPR 061345Z AUTO 30016KT CAVOK 16/01 Q1014 NOSIG', 'LHPR 061315Z AUTO 27011KT CAVOK 16/03 Q1014 NOSIG', 'LHPR 061245Z AUTO 27010KT CAVOK 16/03 Q1014 NOSIG', 'LHPR 061215Z AUTO 27009KT CAVOK 16/02 Q1014 NOSIG', 'LHPR 061145Z AUTO 27009KT CAVOK 16/03 Q1015 NOSIG', 'LHPR 061115Z AUTO 27009KT 230V290 CAVOK 15/03 Q1015 NOSIG', 'LHPR 061045Z AUTO 25009KT 230V290 CAVOK 15/04 Q1015 NOSIG', 'LHPR 061015Z AUTO 25011KT CAVOK 14/04 Q1015 NOSIG', 'LHPR 060945Z AUTO 28011KT CAVOK 13/04 Q1015 NOSIG', 'LHPR 060915Z AUTO 24012KT 220V290 CAVOK 12/04 Q1015 NOSIG', 'LHPR 060845Z AUTO 24012KT CAVOK 12/04 Q1015 NOSIG', 'LHPR 060815Z AUTO 22015KT CAVOK 11/03 Q1015 NOSIG', 'LHPR 060745Z AUTO 22016KT CAVOK 10/03 Q1014 NOSIG', 'LHPR 060715Z AUTO 22016KT CAVOK 09/03 Q1014 NOSIG', 'LHPR 060645Z AUTO 22015KT CAVOK 09/03 Q1014 NOSIG', 'LHPR 060615Z AUTO 22014KT CAVOK 09/02 Q1015 NOSIG', 'LHPR 060545Z AUTO 23010KT CAVOK 09/02 Q1015 NOSIG', 'LHPR 060515Z AUTO 23010KT CAVOK 09/02 Q1015 NOSIG', 'LHPR 060445Z AUTO 23009KT CAVOK 08/01 Q1015', 'LHPR 060415Z AUTO 23009KT CAVOK 08/02 Q1015', 'LHPR 060345Z AUTO 23010KT CAVOK 08/01 Q1016', 'LHPR 060315Z AUTO 23009KT 200V260 CAVOK 08/01 Q1016', 'LHPR 060245Z AUTO 25004KT 210V280 CAVOK 06/M01 Q1016', 'LHPR 060215Z AUTO 25005KT 230V290 CAVOK 05/M01 Q1016', 'LHPR 060145Z AUTO 25004KT 210V290 CAVOK 04/M02 Q1016', 'LHPR 060115Z AUTO VRB02KT CAVOK 07/M01 Q1016', 'LHPR 060045Z AUTO 25005KT CAVOK 07/M01 Q1017', 'LHPR 060015Z AUTO 25004KT CAVOK 06/M01 Q1017', 'LHPR 052345Z AUTO 25006KT CAVOK 07/M01 Q1017', 'LHPR 052315Z AUTO 24007KT CAVOK 07/M01 Q1017', 'LHPR 052245Z AUTO 24008KT CAVOK 08/M00 Q1017', 'LHPR 052215Z AUTO 24005KT CAVOK 08/M00 Q1017', 'LHPR 052145Z AUTO 26006KT CAVOK 08/00 Q1017', 'LHPR 052115Z AUTO 27007KT 250V340 CAVOK 08/01 Q1017']","['2024-02-08 20:45:00', '2024-02-08 20:15:00', '2024-02-08 19:45:00', '2024-02-08 19:15:00', '2024-02-08 18:45:00', '2024-02-08 18:15:00', '2024-02-08 17:45:00', '2024-02-08 17:15:00', '2024-02-08 16:45:00', '2024-02-08 16:15:00', '2024-02-08 15:45:00', '2024-02-08 15:15:00', '2024-02-08 14:45:00', '2024-02-08 14:15:00', '2024-02-08 13:45:00', '2024-02-08 13:15:00', '2024-02-08 12:45:00', '2024-02-08 12:15:00', '2024-02-08 11:45:00', '2024-02-08 11:15:00', '2024-02-08 10:45:00', '2024-02-08 10:15:00', '2024-02-08 09:45:00', '2024-02-08 09:15:00', '2024-02-08 08:45:00', '2024-02-08 08:15:00', '2024-02-08 07:45:00', '2024-02-08 07:15:00', '2024-02-08 06:45:00', '2024-02-08 06:15:00', '2024-02-08 05:45:00', '2024-02-08 05:15:00', '2024-02-08 04:45:00', '2024-02-08 04:15:00', '2024-02-08 03:45:00', '2024-02-08 03:15:00', '2024-02-08 02:45:00', '2024-02-08 01:45:00', '2024-02-08 01:15:00', '2024-02-08 00:45:00', '2024-02-08 00:15:00', '2024-02-07 23:45:00', '2024-02-07 23:15:00', '2024-02-07 22:45:00', '2024-02-07 22:15:00', '2024-02-07 21:45:00', '2024-02-07 21:15:00', '2024-02-07 20:45:00', '2024-02-07 20:15:00', '2024-02-07 19:45:00', '2024-02-07 19:15:00', '2024-02-07 18:45:00', '2024-02-07 18:15:00', '2024-02-07 17:45:00', '2024-02-07 17:15:00', '2024-02-07 16:45:00', '2024-02-07 16:15:00', '2024-02-07 15:45:00', '2024-02-07 15:15:00', '2024-02-07 14:45:00', '2024-02-07 14:15:00', '2024-02-07 13:45:00', '2024-02-07 13:15:00', '2024-02-07 12:45:00', '2024-02-07 12:15:00', '2024-02-07 11:45:00', '2024-02-07 11:15:00', '2024-02-07 10:45:00', '2024-02-07 10:15:00', '2024-02-07 09:45:00', '2024-02-07 09:15:00', '2024-02-07 08:45:00', '2024-02-07 08:15:00', '2024-02-07 07:45:00', '2024-02-07 07:15:00', '2024-02-07 06:45:00', '2024-02-07 06:15:00', '2024-02-07 05:45:00', '2024-02-07 05:15:00', '2024-02-07 04:45:00', '2024-02-07 04:15:00', '2024-02-07 03:45:00', '2024-02-07 03:15:00', '2024-02-07 02:45:00', '2024-02-07 02:15:00', '2024-02-07 01:45:00', '2024-02-07 01:15:00', '2024-02-07 00:45:00', '2024-02-07 00:15:00', '2024-02-06 23:45:00', '2024-02-06 23:15:00', '2024-02-06 22:45:00', '2024-02-06 22:15:00', '2024-02-06 21:45:00', '2024-02-06 21:15:00', '2024-02-06 20:45:00', '2024-02-06 20:15:00', '2024-02-06 19:45:00', '2024-02-06 19:15:00', '2024-02-06 18:45:00', '2024-02-06 18:15:00', '2024-02-06 17:45:00', '2024-02-06 17:15:00', '2024-02-06 16:45:00', '2024-02-06 16:15:00', '2024-02-06 15:45:00', '2024-02-06 15:15:00', '2024-02-06 14:45:00', '2024-02-06 14:15:00', '2024-02-06 13:45:00', '2024-02-06 13:15:00', '2024-02-06 12:45:00', '2024-02-06 12:15:00', '2024-02-06 11:45:00', '2024-02-06 11:15:00', '2024-02-06 10:45:00', '2024-02-06 10:15:00', '2024-02-06 09:45:00', '2024-02-06 09:15:00', '2024-02-06 08:45:00', '2024-02-06 08:15:00', '2024-02-06 07:45:00', '2024-02-06 07:15:00', '2024-02-06 06:45:00', '2024-02-06 06:15:00', '2024-02-06 05:45:00', '2024-02-06 05:15:00', '2024-02-06 04:45:00', '2024-02-06 04:15:00', '2024-02-06 03:45:00', '2024-02-06 03:15:00', '2024-02-06 02:45:00', '2024-02-06 02:15:00', '2024-02-06 01:45:00', '2024-02-06 01:15:00', '2024-02-06 00:45:00', '2024-02-06 00:15:00', '2024-02-05 23:45:00', '2024-02-05 23:15:00', '2024-02-05 22:45:00', '2024-02-05 22:15:00', '2024-02-05 21:45:00', '2024-02-05 21:15:00']"
Hungary, Heviz Balaton Airport (SOB/LHSM) ,"['LHSM 082045Z AUTO 21011KT 180V240 CAVOK 12/04 Q1003', 'LHSM 082015Z AUTO 20012KT 170V240 CAVOK 12/04 Q1003', 'LHSM 081945Z AUTO 21012KT 160V260 CAVOK 12/04 Q1003', 'LHSM 081915Z AUTO 22011G25KT 180V280 CAVOK 12/04 Q1003', 'LHSM 081845Z AUTO 20008KT 160V240 CAVOK 11/04 Q1004', 'LHSM 081815Z AUTO 19007KT 170V230 CAVOK 11/04 Q1004', 'LHSM 081745Z AUTO 21007KT CAVOK 12/04 Q1004', 'LHSM 081715Z AUTO 23007KT 170V280 CAVOK 13/04 Q1004', 'LHSM 081645Z AUTO 22009KT 190V250 CAVOK 13/05 Q1004', 'LHSM 081615Z AUTO 22010KT 180V250 CAVOK 14/05 Q1004', 'LHSM 081545Z AUTO 22009KT 190V250 CAVOK 15/05 Q1004', 'LHSM 081515Z AUTO 21011KT CAVOK 15/05 Q1004', 'LHSM 081445Z AUTO 22012KT CAVOK 16/05 Q1005 NOSIG', 'LHSM 081415Z AUTO 21010KT 180V240 CAVOK 16/05 Q1005 NOSIG', 'LHSM 081345Z AUTO 21011KT 180V240 CAVOK 16/05 Q1005 NOSIG', 'LHSM 081315Z AUTO 24010KT 200V280 CAVOK 17/05 Q1005 NOSIG', 'LHSM 081245Z AUTO 23008KT 200V280 CAVOK 17/04 Q1005 NOSIG', 'LHSM 081215Z AUTO 23009KT 200V280 CAVOK 16/04 Q1005 NOSIG', 'LHSM 081145Z AUTO 23009KT 190V270 CAVOK 16/05 Q1005 NOSIG', 'LHSM 081115Z AUTO 24007KT 200V290 CAVOK 16/03 Q1006 NOSIG', 'LHSM 081045Z AUTO 25006KT 210V290 CAVOK 15/03 Q1006 NOSIG', 'LHSM 081015Z AUTO VRB02KT CAVOK 14/05 Q1006 NOSIG', 'LHSM 080945Z AUTO VRB01KT CAVOK 12/06 Q1007 NOSIG', 'LHSM 080915Z AUTO VRB01KT CAVOK 11/06 Q1006 NOSIG', 'LHSM 080845Z AUTO VRB02KT CAVOK 09/06 Q1006 NOSIG', 'LHSM 080815Z AUTO 00000KT CAVOK 07/05 Q1006 NOSIG', 'LHSM 080745Z AUTO 00000KT CAVOK 06/05 Q1006 NOSIG', 'LHSM 080715Z AUTO VRB03KT CAVOK 06/05 Q1006 NOSIG', 'LHSM 080645Z AUTO 05004KT CAVOK 05/04 Q1006 NOSIG', 'LHSM 080615Z AUTO 06004KT CAVOK 05/04 Q1006 NOSIG', 'LHSM 080545Z AUTO 06003KT CAVOK 05/04 Q1006', 'LHSM 080515Z AUTO VRB01KT CAVOK 05/04 Q1005', 'LHSM 080445Z AUTO 12003KT 080V170 CAVOK 04/04 Q1005', 'LHSM 080415Z AUTO VRB02KT CAVOK 04/03 Q1005', 'LHSM 080345Z AUTO 06003KT CAVOK 04/04 Q1005', 'LHSM 080315Z AUTO 05003KT CAVOK 04/04 Q1005', 'LHSM 080245Z AUTO VRB03KT CAVOK 04/03 Q1005', 'LHSM 080215Z AUTO 18004KT 090V220 CAVOK 04/03 Q1005', 'LHSM 080115Z AUTO 18005KT CAVOK 05/04 Q1006', 'LHSM 080045Z AUTO 18004KT CAVOK 05/04 Q1006', 'LHSM 080015Z AUTO 17005KT CAVOK 05/03 Q1006', 'LHSM 072345Z AUTO 18006KT CAVOK 04/02 Q1006', 'LHSM 072315Z AUTO 19005KT CAVOK 06/04 Q1006', 'LHSM 072245Z AUTO 18006KT CAVOK 05/03 Q1006', 'LHSM 072215Z AUTO 17005KT 120V210 CAVOK 07/03 Q1007', 'LHSM 072145Z AUTO 19005KT 140V250 CAVOK 08/04 Q1007', 'LHSM 072115Z AUTO 19005KT 120V260 CAVOK 08/04 Q1007', 'LHSM 072045Z AUTO 20006KT 170V240 CAVOK 10/05 Q1007', 'LHSM 072015Z AUTO 21008KT 190V250 CAVOK 10/05 Q1007', 'LHSM 071945Z AUTO 21011KT CAVOK 11/05 Q1007', 'LHSM 071915Z AUTO 20008KT 160V240 CAVOK 10/05 Q1007', 'LHSM 071845Z AUTO 22008KT 190V260 CAVOK 11/05 Q1007', 'LHSM 071815Z AUTO 20006KT 170V270 CAVOK 12/05 Q1008', 'LHSM 071745Z AUTO 19006KT 160V230 CAVOK 12/05 Q1008', 'LHSM 071715Z AUTO 21007KT 190V250 CAVOK 12/04 Q1008', 'LHSM 071645Z AUTO 22008KT CAVOK 12/04 Q1008', 'LHSM 071615Z AUTO 22007KT CAVOK 13/05 Q1008', 'LHSM 071545Z AUTO 22005KT CAVOK 13/04 Q1008', 'LHSM 071515Z AUTO 23006KT CAVOK 14/04 Q1008', 'LHSM 071445Z AUTO 24008KT 210V280 CAVOK 15/05 Q1008 NOSIG', 'LHSM 071415Z AUTO 24007KT 200V270 CAVOK 15/05 Q1008 NOSIG', 'LHSM 071345Z AUTO 24011KT CAVOK 16/04 Q1008 NOSIG', 'LHSM 071315Z AUTO 25010KT 200V280 CAVOK 16/04 Q1008 NOSIG', 'LHSM 071245Z AUTO 24010KT 210V280 CAVOK 16/04 Q1009 NOSIG', 'LHSM 071215Z AUTO 25010KT 200V290 CAVOK 15/04 Q1009 NOSIG', 'LHSM 071145Z AUTO 25007KT 210V330 CAVOK 15/05 Q1010 NOSIG', 'LHSM 071115Z AUTO VRB02KT CAVOK 12/05 Q1010 NOSIG', 'LHSM 071045Z AUTO VRB02KT CAVOK 11/06 Q1010 NOSIG', 'LHSM 071015Z AUTO VRB01KT CAVOK 10/05 Q1011 NOSIG', 'LHSM 070945Z AUTO 00000KT CAVOK 09/05 Q1011 NOSIG', 'LHSM 070915Z AUTO VRB02KT 9000 NCD 06/05 Q1011 NOSIG', 'LHSM 070845Z AUTO 00000KT 5000 BR NCD 03/03 Q1011 BECMG 8000 NSW', 'LHSM 070815Z AUTO VRB02KT 3500 BR NCD 02/02 Q1012 BECMG 3000 BR', 'LHSM 070745Z AUTO VRB03KT 0450 R16/0650D FG VV004 00/00 Q1012 BECMG 3000 BR', 'LHSM 070715Z AUTO VRB02KT 2600 BR FEW003 M00/M00 Q1012 BECMG 3000 BR', 'LHSM 070645Z AUTO 04003KT 1900 BR FEW006 01/01 Q1012 TEMPO 1400', 'LHSM 070615Z AUTO VRB02KT 2200 BR VV005 M00/M00 Q1012 TEMPO 0600 FZFG VV002', 'LHSM 070545Z AUTO 00000KT 0800 R16/1900D -SHRA BCFG VV006 00/00 Q1011', 'LHSM 070515Z AUTO 00000KT 2000 BR NCD 01/01 Q1012', 'LHSM 070445Z AUTO VRB01KT 1100 R16/1900U BR NCD 00/00 Q1011', 'LHSM 070415Z AUTO 00000KT 5000 BR FEW007 00/00 Q1012', 'LHSM 070345Z AUTO 00000KT 0900 R16/1000U BCFG FEW004 01/01 Q1012', 'LHSM 070315Z AUTO 18003KT 3700 BR VV005 02/02 Q1012', 'LHSM 070245Z AUTO VRB03KT 3600 BR NCD 02/02 Q1012', 'LHSM 070215Z AUTO 17001KT 0500 R16/1200N FG FEW005 02/02 Q1012', 'LHSM 070145Z AUTO VRB02KT 3100 BR NCD 02/02 Q1013', 'LHSM 070115Z AUTO 16003KT 6000 NCD 03/03 Q1013', 'LHSM 070045Z AUTO 16002KT 6000 NCD 03/03 Q1013', 'LHSM 070015Z AUTO VRB02KT 6000 NCD 03/03 Q1013', 'LHSM 062345Z AUTO VRB03KT 6000 NCD 03/03 Q1014', 'LHSM 062315Z AUTO 14003KT 8000 NCD 04/03 Q1014', 'LHSM 062245Z AUTO VRB02KT CAVOK 04/03 Q1014', 'LHSM 062215Z AUTO 18004KT CAVOK 06/04 Q1014', 'LHSM 062145Z AUTO 17004KT 160V220 CAVOK 07/04 Q1014', 'LHSM 062115Z AUTO 20003KT CAVOK 08/04 Q1014', 'LHSM 062045Z AUTO 20004KT 160V230 CAVOK 07/04 Q1014', 'LHSM 062015Z AUTO VRB02KT CAVOK 06/04 Q1014', 'LHSM 061945Z AUTO VRB02KT CAVOK 08/04 Q1014', 'LHSM 061915Z AUTO VRB02KT CAVOK 11/04 Q1014', 'LHSM 061845Z AUTO 21004KT 160V260 CAVOK 10/04 Q1014', 'LHSM 061815Z AUTO 21004KT 110V270 CAVOK 11/05 Q1014', 'LHSM 061745Z AUTO VRB03KT CAVOK 11/05 Q1014', 'LHSM 061715Z AUTO 22007KT 190V250 CAVOK 13/05 Q1014', 'LHSM 061645Z AUTO 21006KT 170V240 CAVOK 13/06 Q1014', 'LHSM 061615Z AUTO 18004KT 150V230 CAVOK 12/05 Q1014', 'LHSM 061545Z AUTO 22005KT 190V250 CAVOK 14/06 Q1014', 'LHSM 061515Z AUTO 22006KT 190V260 CAVOK 15/06 Q1014', 'LHSM 061445Z AUTO 22008KT CAVOK 16/06 Q1014 NOSIG', 'LHSM 061415Z AUTO 22007KT 190V260 CAVOK 17/06 Q1014 NOSIG', 'LHSM 061345Z AUTO 21007KT 170V240 CAVOK 17/06 Q1014 NOSIG', 'LHSM 061315Z AUTO 24010KT 210V270 CAVOK 17/06 Q1015 NOSIG', 'LHSM 061245Z AUTO 24009KT 190V280 CAVOK 17/06 Q1015 NOSIG', 'LHSM 061215Z AUTO 24008KT 200V290 CAVOK 17/06 Q1015 NOSIG', 'LHSM 061145Z AUTO 24009KT 190V280 CAVOK 16/05 Q1016 NOSIG', 'LHSM 061115Z AUTO 21008KT 170V240 CAVOK 16/06 Q1016 NOSIG', 'LHSM 061045Z AUTO 21007KT 150V260 CAVOK 15/06 Q1016 NOSIG', 'LHSM 061015Z AUTO 22005KT 160V270 CAVOK 14/06 Q1017 TEMPO 4700', 'LHSM 060945Z AUTO 19003KT 130V240 CAVOK 13/06 Q1017 TEMPO 4700', 'LHSM 060915Z AUTO VRB02KT CAVOK 10/07 Q1017 TEMPO 4700', 'LHSM 060845Z AUTO 00000KT CAVOK 08/06 Q1017 TEMPO 4700', 'LHSM 060815Z AUTO VRB01KT CAVOK 07/05 Q1017 TEMPO 4700', 'LHSM 060745Z AUTO VRB01KT 5000 BR NCD 04/04 Q1017 TEMPO 4700', 'LHSM 060715Z AUTO VRB02KT 5000 BR NCD 03/03 Q1017 TEMPO 4700', 'LHSM 060645Z AUTO VRB01KT 2400 BR NCD 01/01 Q1017 NOSIG', 'LHSM 060615Z AUTO 15005KT 7000 NCD 03/03 Q1017 NOSIG', 'LHSM 060545Z AUTO 14005KT 6000 NCD 02/02 Q1017', 'LHSM 060515Z AUTO 16005KT 5000 BR NCD 02/02 Q1017', 'LHSM 060445Z AUTO VRB03KT 6000 FEW003 02/02 Q1018', 'LHSM 060415Z AUTO 17004KT 4300 BR FEW004 01/01 Q1018', 'LHSM 060345Z AUTO VRB02KT 0700 R16/1600D FG NCD 01/01 Q1018', 'LHSM 060315Z AUTO VRB01KT 1400 R16/P2000 BR NCD 02/02 Q1018', 'LHSM 060245Z AUTO VRB01KT 2000 BR NCD 02/02 Q1018', 'LHSM 060215Z AUTO VRB01KT 2400 BR NCD 02/02 Q1018', 'LHSM 060145Z AUTO VRB01KT 4500 BR NCD 02/02 Q1018', 'LHSM 060115Z AUTO 09001KT 3900 BR NCD 03/03 Q1018', 'LHSM 060045Z AUTO 07004KT 030V090 6000 NCD 02/02 Q1018', 'LHSM 060015Z AUTO 00000KT 9000 NCD 04/02 Q1019', 'LHSM 052345Z AUTO VRB03KT 6000 NCD 03/03 Q1019', 'LHSM 052315Z AUTO VRB02KT 7000 NCD 03/02 Q1019', 'LHSM 052245Z AUTO VRB02KT CAVOK 05/03 Q1019', 'LHSM 052215Z AUTO VRB02KT CAVOK 05/04 Q1019', 'LHSM 052145Z AUTO VRB01KT 7000 NCD 04/04 Q1018']","['2024-02-08 20:45:00', '2024-02-08 20:15:00', '2024-02-08 19:45:00', '2024-02-08 19:15:00', '2024-02-08 18:45:00', '2024-02-08 18:15:00', '2024-02-08 17:45:00', '2024-02-08 17:15:00', '2024-02-08 16:45:00', '2024-02-08 16:15:00', '2024-02-08 15:45:00', '2024-02-08 15:15:00', '2024-02-08 14:45:00', '2024-02-08 14:15:00', '2024-02-08 13:45:00', '2024-02-08 13:15:00', '2024-02-08 12:45:00', '2024-02-08 12:15:00', '2024-02-08 11:45:00', '2024-02-08 11:15:00', '2024-02-08 10:45:00', '2024-02-08 10:15:00', '2024-02-08 09:45:00', '2024-02-08 09:15:00', '2024-02-08 08:45:00', '2024-02-08 08:15:00', '2024-02-08 07:45:00', '2024-02-08 07:15:00', '2024-02-08 06:45:00', '2024-02-08 06:15:00', '2024-02-08 05:45:00', '2024-02-08 05:15:00', '2024-02-08 04:45:00', '2024-02-08 04:15:00', '2024-02-08 03:45:00', '2024-02-08 03:15:00', '2024-02-08 02:45:00', '2024-02-08 02:15:00', '2024-02-08 01:15:00', '2024-02-08 00:45:00', '2024-02-08 00:15:00', '2024-02-07 23:45:00', '2024-02-07 23:15:00', '2024-02-07 22:45:00', '2024-02-07 22:15:00', '2024-02-07 21:45:00', '2024-02-07 21:15:00', '2024-02-07 20:45:00', '2024-02-07 20:15:00', '2024-02-07 19:45:00', '2024-02-07 19:15:00', '2024-02-07 18:45:00', '2024-02-07 18:15:00', '2024-02-07 17:45:00', '2024-02-07 17:15:00', '2024-02-07 16:45:00', '2024-02-07 16:15:00', '2024-02-07 15:45:00', '2024-02-07 15:15:00', '2024-02-07 14:45:00', '2024-02-07 14:15:00', '2024-02-07 13:45:00', '2024-02-07 13:15:00', '2024-02-07 12:45:00', '2024-02-07 12:15:00', '2024-02-07 11:45:00', '2024-02-07 11:15:00', '2024-02-07 10:45:00', '2024-02-07 10:15:00', '2024-02-07 09:45:00', '2024-02-07 09:15:00', '2024-02-07 08:45:00', '2024-02-07 08:15:00', '2024-02-07 07:45:00', '2024-02-07 07:15:00', '2024-02-07 06:45:00', '2024-02-07 06:15:00', '2024-02-07 05:45:00', '2024-02-07 05:15:00', '2024-02-07 04:45:00', '2024-02-07 04:15:00', '2024-02-07 03:45:00', '2024-02-07 03:15:00', '2024-02-07 02:45:00', '2024-02-07 02:15:00', '2024-02-07 01:45:00', '2024-02-07 01:15:00', '2024-02-07 00:45:00', '2024-02-07 00:15:00', '2024-02-06 23:45:00', '2024-02-06 23:15:00', '2024-02-06 22:45:00', '2024-02-06 22:15:00', '2024-02-06 21:45:00', '2024-02-06 21:15:00', '2024-02-06 20:45:00', '2024-02-06 20:15:00', '2024-02-06 19:45:00', '2024-02-06 19:15:00', '2024-02-06 18:45:00', '2024-02-06 18:15:00', '2024-02-06 17:45:00', '2024-02-06 17:15:00', '2024-02-06 16:45:00', '2024-02-06 16:15:00', '2024-02-06 15:45:00', '2024-02-06 15:15:00', '2024-02-06 14:45:00', '2024-02-06 14:15:00', '2024-02-06 13:45:00', '2024-02-06 13:15:00', '2024-02-06 12:45:00', '2024-02-06 12:15:00', '2024-02-06 11:45:00', '2024-02-06 11:15:00', '2024-02-06 10:45:00', '2024-02-06 10:15:00', '2024-02-06 09:45:00', '2024-02-06 09:15:00', '2024-02-06 08:45:00', '2024-02-06 08:15:00', '2024-02-06 07:45:00', '2024-02-06 07:15:00', '2024-02-06 06:45:00', '2024-02-06 06:15:00', '2024-02-06 05:45:00', '2024-02-06 05:15:00', '2024-02-06 04:45:00', '2024-02-06 04:15:00', '2024-02-06 03:45:00', '2024-02-06 03:15:00', '2024-02-06 02:45:00', '2024-02-06 02:15:00', '2024-02-06 01:45:00', '2024-02-06 01:15:00', '2024-02-06 00:45:00', '2024-02-06 00:15:00', '2024-02-05 23:45:00', '2024-02-05 23:15:00', '2024-02-05 22:45:00', '2024-02-05 22:15:00', '2024-02-05 21:45:00']"
Hungary, Kecskemet Air Base (QHK/LHKE) ,"['LHKE 082045Z 20005KT CAVOK 09/04 Q1004 NOSIG RMK BLU', 'LHKE 082015Z 20006KT CAVOK 09/04 Q1004 NOSIG RMK BLU', 'LHKE 081945Z 20006KT CAVOK 09/04 Q1004 NOSIG RMK BLU', 'LHKE 081915Z 19005KT CAVOK 09/04 Q1004 NOSIG RMK BLU', 'LHKE 081845Z 19004KT CAVOK 09/04 Q1005 NOSIG RMK BLU', 'LHKE 081815Z 19005KT 160V220 CAVOK 09/04 Q1004 NOSIG RMK BLU', 'LHKE 081745Z 19005KT CAVOK 10/04 Q1005 NOSIG RMK BLU', 'LHKE 081715Z 17005KT CAVOK 10/04 Q1004 NOSIG RMK BLU', 'LHKE 081645Z 20004KT CAVOK 11/04 Q1005 NOSIG RMK BLU', 'LHKE 081615Z 20003KT CAVOK 12/04 Q1005 NOSIG RMK BLU', 'LHKE 081545Z 22004KT CAVOK 13/05 Q1005 NOSIG RMK BLU', 'LHKE 081515Z 23008KT 200V260 CAVOK 14/05 Q1005 NOSIG RMK BLU', 'LHKE 081445Z 24007KT CAVOK 14/04 Q1005 NOSIG RMK BLU', 'LHKE 081415Z 23010KT 200V260 CAVOK 14/04 Q1005 NOSIG RMK BLU', 'LHKE 081345Z 23010KT 200V260 9999 FEW044 SCT200 15/04 Q1005 BECMG CAVOK RMK BLU', 'LHKE 081315Z 23006KT 9999 FEW041 SCT200 15/05 Q1005 NOSIG RMK BLU', 'LHKE 081215Z 25007KT 210V290 9999 FEW039 BKN200 14/04 Q1006 NOSIG RMK BLU', 'LHKE 081145Z 26006KT 230V300 9999 FEW039 BKN200 14/04 Q1006 NOSIG RMK BLU', 'LHKE 081121Z 26006KT 200V320 9999 FEW039 BKN200 14/05 Q1006 NOSIG RMK BLU', 'LHKE 081045Z 25008KT 210V280 CAVOK 13/05 Q1006 NOSIG RMK BLACK1', 'LHKE 081015Z 25006KT 220V280 CAVOK 12/05 Q1007 NOSIG RMK BLU', 'LHKE 080945Z 27008KT CAVOK 11/05 Q1007 NOSIG RMK BLU', 'LHKE 080915Z 26008KT CAVOK 10/05 Q1007 NOSIG RMK BLU', 'LHKE 080845Z 27009KT CAVOK 09/05 Q1007 NOSIG RMK BLU', 'LHKE 080815Z 25006KT CAVOK 08/05 Q1007 NOSIG RMK BLU', 'LHKE 080745Z 24005KT CAVOK 07/04 Q1007 NOSIG RMK BLU', 'LHKE 080715Z 23004KT CAVOK 06/04 Q1007 NOSIG RMK BLU', 'LHKE 080645Z 21003KT CAVOK 05/04 Q1007 NOSIG RMK BLU', 'LHKE 080615Z 18003KT CAVOK 05/03 Q1006 NOSIG RMK BLU', 'LHKE 080545Z 18003KT CAVOK 05/03 Q1006 NOSIG RMK BLU', 'LHKE 080515Z 18003KT CAVOK 05/04 Q1006 NOSIG RMK BLU', 'LHKE 080445Z 21003KT CAVOK 06/04 Q1006 NOSIG RMK BLU', 'LHKE 080415Z 22002KT CAVOK 06/04 Q1006 NOSIG RMK BLU', 'LHKE 080345Z 22003KT 180V240 CAVOK 06/04 Q1006 NOSIG RMK BLU', 'LHKE 080315Z 22005KT CAVOK 06/04 Q1006 NOSIG RMK BLU', 'LHKE 080245Z 23005KT CAVOK 07/04 Q1006 NOSIG RMK BLU', 'LHKE 080145Z 24007KT 200V270 CAVOK 08/04 Q1006 NOSIG RMK BLU', 'LHKE 080115Z 24008KT CAVOK 08/04 Q1006 NOSIG RMK BLU', 'LHKE 080045Z 24008KT CAVOK 08/04 Q1006 NOSIG RMK BLU', 'LHKE 080015Z 24007KT CAVOK 08/04 Q1006 NOSIG RMK BLU', 'LHKE 072345Z 24006KT CAVOK 08/04 Q1006 NOSIG RMK BLU', 'LHKE 072315Z 24006KT 220V280 CAVOK 08/04 Q1007 NOSIG RMK BLU', 'LHKE 072245Z 26006KT CAVOK 09/04 Q1007 NOSIG RMK BLU', 'LHKE 072215Z 24006KT CAVOK 09/04 Q1007 NOSIG RMK BLU', 'LHKE 072145Z 24007KT CAVOK 09/04 Q1007 NOSIG RMK BLU', 'LHKE 072115Z 23007KT CAVOK 09/04 Q1007 NOSIG RMK BLU', 'LHKE 072045Z 24008KT CAVOK 09/04 Q1007 NOSIG RMK BLU', 'LHKE 072015Z 23007KT CAVOK 09/04 Q1007 NOSIG RMK BLU', 'LHKE 071945Z 24007KT CAVOK 10/05 Q1007 NOSIG RMK BLU', 'LHKE 071915Z 24007KT CAVOK 10/05 Q1007 NOSIG RMK BLU', 'LHKE 071845Z 24007KT CAVOK 11/05 Q1008 NOSIG RMK BLU', 'LHKE 071815Z 24006KT CAVOK 11/05 Q1007 NOSIG RMK BLU', 'LHKE 071745Z 24006KT CAVOK 11/05 Q1008 NOSIG RMK BLU', 'LHKE 071715Z 23005KT CAVOK 11/05 Q1008 NOSIG RMK BLU', 'LHKE 071645Z 23006KT CAVOK 11/05 Q1007 NOSIG RMK BLU', 'LHKE 071615Z 23003KT CAVOK 12/05 Q1007 NOSIG RMK BLU', 'LHKE 071545Z 24005KT CAVOK 13/05 Q1007 NOSIG RMK BLU', 'LHKE 071515Z 25008KT CAVOK 13/05 Q1007 NOSIG RMK BLU', 'LHKE 071445Z 25010KT 220V280 CAVOK 14/04 Q1008 NOSIG RMK BLU', 'LHKE 071415Z 24011KT CAVOK 15/04 Q1008 NOSIG RMK BLU', 'LHKE 071345Z 23012KT CAVOK 15/05 Q1008 NOSIG RMK BLU', 'LHKE 071315Z 23010KT 190V250 CAVOK 15/05 Q1008 NOSIG RMK BLU', 'LHKE 071245Z 23010KT 200V260 CAVOK 14/05 Q1008 NOSIG RMK BLU', 'LHKE 071215Z 23010KT 200V260 CAVOK 14/05 Q1009 NOSIG RMK BLU', 'LHKE 071145Z 22011KT CAVOK 13/05 Q1009 NOSIG RMK BLU', 'LHKE 071115Z 24009KT 210V290 CAVOK 13/05 Q1010 NOSIG RMK BLU', 'LHKE 071045Z 24010KT 210V270 CAVOK 12/05 Q1010 NOSIG RMK BLU', 'LHKE 071015Z 24008KT 200V270 CAVOK 11/05 Q1011 NOSIG RMK BLU', 'LHKE 070945Z 24009KT 210V280 CAVOK 11/05 Q1011 NOSIG RMK BLU', 'LHKE 070915Z 24009KT 210V280 CAVOK 10/05 Q1011 NOSIG RMK BLU', 'LHKE 070845Z 23009KT CAVOK 09/05 Q1011 NOSIG RMK BLU', 'LHKE 070815Z 23007KT CAVOK 08/04 Q1012 NOSIG RMK BLU', 'LHKE 070750Z 24007KT CAVOK 07/04 Q1012 NOSIG RMK BLU', 'LHKE 070715Z 23003KT 8000 NSC 05/03 Q1012 BECMG CAVOK RMK BLACK', 'LHKE 070645Z 24003KT 8000 NSC 04/03 Q1012 BECMG CAVOK RMK BLACK', 'LHKE 070615Z 22006KT 7000 NSC 03/02 Q1012 BECMG CAVOK RMK WHT', 'LHKE 070545Z 20003KT 160V220 7000 NSC 02/00 Q1012 NOSIG RMK WHT', 'LHKE 070515Z 00000KT CAVOK 02/01 Q1012 NOSIG RMK BLU', 'LHKE 070445Z 21003KT CAVOK 03/02 Q1012 NOSIG RMK BLU', 'LHKE 070415Z 21004KT CAVOK 04/02 Q1012 NOSIG RMK BLU', 'LHKE 070345Z 22005KT CAVOK 05/02 Q1013 NOSIG RMK BLU', 'LHKE 070315Z 23006KT CAVOK 05/02 Q1012 NOSIG RMK BLU', 'LHKE 070245Z 24006KT CAVOK 05/01 Q1013 NOSIG RMK BLU', 'LHKE 070215Z 24005KT CAVOK 05/01 Q1013 NOSIG RMK BLU', 'LHKE 070145Z 22004KT CAVOK 05/01 Q1013 NOSIG RMK BLU', 'LHKE 070115Z 25005KT CAVOK 06/02 Q1013 NOSIG RMK BLU', 'LHKE 070045Z 24004KT 220V280 CAVOK 06/01 Q1013 NOSIG RMK BLU', 'LHKE 070015Z 24004KT CAVOK 06/02 Q1014 NOSIG RMK BLU', 'LHKE 062345Z 24005KT 210V280 CAVOK 07/02 Q1014 NOSIG RMK BLU', 'LHKE 062315Z 27006KT CAVOK 07/02 Q1014 NOSIG RMK BLU', 'LHKE 062245Z 26006KT CAVOK 08/02 Q1014 NOSIG RMK BLU', 'LHKE 062215Z 28005KT CAVOK 08/01 Q1014 NOSIG RMK BLU', 'LHKE 062145Z 27005KT 240V300 CAVOK 08/02 Q1014 NOSIG RMK BLU', 'LHKE 062115Z 27006KT CAVOK 09/02 Q1014 NOSIG RMK BLU', 'LHKE 062045Z 28007KT CAVOK 09/02 Q1014 NOSIG RMK BLU', 'LHKE 062015Z 28008KT CAVOK 10/02 Q1014 NOSIG RMK BLU', 'LHKE 061945Z 28008KT CAVOK 10/02 Q1014 NOSIG RMK BLU', 'LHKE 061915Z 28008KT CAVOK 11/03 Q1014 NOSIG RMK BLU', 'LHKE 061845Z 28009KT CAVOK 11/05 Q1014 NOSIG RMK BLU', 'LHKE 061815Z 27007KT CAVOK 11/06 Q1014 NOSIG RMK BLU', 'LHKE 061745Z 26005KT CAVOK 12/06 Q1014 NOSIG RMK BLU', 'LHKE 061715Z 23004KT CAVOK 12/06 Q1014 NOSIG RMK BLU', 'LHKE 061645Z 26005KT CAVOK 13/06 Q1014 NOSIG RMK BLU', 'LHKE 061615Z 25005KT CAVOK 13/06 Q1013 NOSIG RMK BLU', 'LHKE 061545Z 25005KT CAVOK 14/06 Q1013 NOSIG RMK BLU', 'LHKE 061515Z 26008KT CAVOK 15/06 Q1013 NOSIG RMK BLU', 'LHKE 061445Z 28009KT CAVOK 16/06 Q1013 NOSIG RMK BLU', 'LHKE 061415Z 28010KT CAVOK 16/06 Q1014 NOSIG RMK BLU', 'LHKE 061345Z 26010KT 230V290 CAVOK 16/06 Q1014 NOSIG RMK BLU', 'LHKE 061315Z 26011KT 230V290 CAVOK 16/06 Q1014 NOSIG RMK BLU', 'LHKE 061245Z 25011KT 220V290 CAVOK 16/06 Q1014 NOSIG RMK BLU', 'LHKE 061215Z 27012KT CAVOK 16/06 Q1014 NOSIG RMK BLU', 'LHKE 061145Z 27012KT CAVOK 15/06 Q1015 NOSIG RMK BLU', 'LHKE 061115Z 26011KT 230V290 CAVOK 15/06 Q1015 NOSIG RMK BLU', 'LHKE 061045Z 25010KT 210V290 CAVOK 15/06 Q1015 NOSIG RMK BLU', 'LHKE 061015Z 25011KT 230V290 CAVOK 14/06 Q1015 NOSIG RMK BLU', 'LHKE 060945Z 26012KT 220V280 CAVOK 13/06 Q1016 NOSIG RMK BLU', 'LHKE 060915Z 25011KT CAVOK 11/05 Q1016 NOSIG RMK BLU', 'LHKE 060845Z 24010KT 220V280 CAVOK 11/05 Q1016 NOSIG RMK BLU', 'LHKE 060815Z 25010KT 220V280 CAVOK 10/05 Q1016 NOSIG RMK BLU', 'LHKE 060745Z 25010KT CAVOK 09/04 Q1016 NOSIG RMK BLU', 'LHKE 060715Z 25009KT CAVOK 08/04 Q1016 NOSIG RMK BLU', 'LHKE 060645Z 25011KT 230V300 CAVOK 07/04 Q1016 NOSIG RMK BLU', 'LHKE 060615Z 25010KT CAVOK 07/04 Q1016 NOSIG RMK BLU', 'LHKE 060545Z 24010KT 210V270 CAVOK 07/04 Q1016 NOSIG RMK BLU', 'LHKE 060515Z 24009KT CAVOK 07/04 Q1016 NOSIG RMK BLU', 'LHKE 060445Z 25010KT CAVOK 08/04 Q1016 NOSIG RMK BLU', 'LHKE 060415Z 25011KT CAVOK 08/04 Q1016 NOSIG RMK BLU', 'LHKE 060345Z 25011KT CAVOK 08/04 Q1016 NOSIG RMK BLU', 'LHKE 060315Z 25011KT 220V280 CAVOK 08/03 Q1016 NOSIG RMK BLU', 'LHKE 060245Z 25008KT CAVOK 07/03 Q1016 NOSIG RMK BLU', 'LHKE 060215Z 24004KT 210V280 CAVOK 07/03 Q1016 NOSIG RMK BLU', 'LHKE 060145Z 24008KT CAVOK 07/03 Q1017 NOSIG RMK BLU', 'LHKE 060115Z 24006KT CAVOK 07/03 Q1017 NOSIG RMK BLU', 'LHKE 060045Z 24003KT 220V280 CAVOK 06/03 Q1017 NOSIG RMK BLU', 'LHKE 060015Z 19003KT CAVOK 05/03 Q1017 NOSIG RMK BLU', 'LHKE 052345Z VRB02KT CAVOK 05/03 Q1017 NOSIG RMK BLU', 'LHKE 052315Z 21003KT 180V240 CAVOK 06/03 Q1017 NOSIG RMK BLU', 'LHKE 052245Z 22006KT CAVOK 07/04 Q1018 NOSIG RMK BLU', 'LHKE 052215Z 23003KT CAVOK 08/04 Q1018 NOSIG RMK BLU', 'LHKE 052145Z 23006KT CAVOK 08/04 Q1017 NOSIG RMK BLU']","['2024-02-08 20:45:00', '2024-02-08 20:15:00', '2024-02-08 19:45:00', '2024-02-08 19:15:00', '2024-02-08 18:45:00', '2024-02-08 18:15:00', '2024-02-08 17:45:00', '2024-02-08 17:15:00', '2024-02-08 16:45:00', '2024-02-08 16:15:00', '2024-02-08 15:45:00', '2024-02-08 15:15:00', '2024-02-08 14:45:00', '2024-02-08 14:15:00', '2024-02-08 13:45:00', '2024-02-08 13:15:00', '2024-02-08 12:15:00', '2024-02-08 11:45:00', '2024-02-08 11:21:00', '2024-02-08 10:45:00', '2024-02-08 10:15:00', '2024-02-08 09:45:00', '2024-02-08 09:15:00', '2024-02-08 08:45:00', '2024-02-08 08:15:00', '2024-02-08 07:45:00', '2024-02-08 07:15:00', '2024-02-08 06:45:00', '2024-02-08 06:15:00', '2024-02-08 05:45:00', '2024-02-08 05:15:00', '2024-02-08 04:45:00', '2024-02-08 04:15:00', '2024-02-08 03:45:00', '2024-02-08 03:15:00', '2024-02-08 02:45:00', '2024-02-08 01:45:00', '2024-02-08 01:15:00', '2024-02-08 00:45:00', '2024-02-08 00:15:00', '2024-02-07 23:45:00', '2024-02-07 23:15:00', '2024-02-07 22:45:00', '2024-02-07 22:15:00', '2024-02-07 21:45:00', '2024-02-07 21:15:00', '2024-02-07 20:45:00', '2024-02-07 20:15:00', '2024-02-07 19:45:00', '2024-02-07 19:15:00', '2024-02-07 18:45:00', '2024-02-07 18:15:00', '2024-02-07 17:45:00', '2024-02-07 17:15:00', '2024-02-07 16:45:00', '2024-02-07 16:15:00', '2024-02-07 15:45:00', '2024-02-07 15:15:00', '2024-02-07 14:45:00', '2024-02-07 14:15:00', '2024-02-07 13:45:00', '2024-02-07 13:15:00', '2024-02-07 12:45:00', '2024-02-07 12:15:00', '2024-02-07 11:45:00', '2024-02-07 11:15:00', '2024-02-07 10:45:00', '2024-02-07 10:15:00', '2024-02-07 09:45:00', '2024-02-07 09:15:00', '2024-02-07 08:45:00', '2024-02-07 08:15:00', '2024-02-07 07:50:00', '2024-02-07 07:15:00', '2024-02-07 06:45:00', '2024-02-07 06:15:00', '2024-02-07 05:45:00', '2024-02-07 05:15:00', '2024-02-07 04:45:00', '2024-02-07 04:15:00', '2024-02-07 03:45:00', '2024-02-07 03:15:00', '2024-02-07 02:45:00', '2024-02-07 02:15:00', '2024-02-07 01:45:00', '2024-02-07 01:15:00', '2024-02-07 00:45:00', '2024-02-07 00:15:00', '2024-02-06 23:45:00', '2024-02-06 23:15:00', '2024-02-06 22:45:00', '2024-02-06 22:15:00', '2024-02-06 21:45:00', '2024-02-06 21:15:00', '2024-02-06 20:45:00', '2024-02-06 20:15:00', '2024-02-06 19:45:00', '2024-02-06 19:15:00', '2024-02-06 18:45:00', '2024-02-06 18:15:00', '2024-02-06 17:45:00', '2024-02-06 17:15:00', '2024-02-06 16:45:00', '2024-02-06 16:15:00', '2024-02-06 15:45:00', '2024-02-06 15:15:00', '2024-02-06 14:45:00', '2024-02-06 14:15:00', '2024-02-06 13:45:00', '2024-02-06 13:15:00', '2024-02-06 12:45:00', '2024-02-06 12:15:00', '2024-02-06 11:45:00', '2024-02-06 11:15:00', '2024-02-06 10:45:00', '2024-02-06 10:15:00', '2024-02-06 09:45:00', '2024-02-06 09:15:00', '2024-02-06 08:45:00', '2024-02-06 08:15:00', '2024-02-06 07:45:00', '2024-02-06 07:15:00', '2024-02-06 06:45:00', '2024-02-06 06:15:00', '2024-02-06 05:45:00', '2024-02-06 05:15:00', '2024-02-06 04:45:00', '2024-02-06 04:15:00', '2024-02-06 03:45:00', '2024-02-06 03:15:00', '2024-02-06 02:45:00', '2024-02-06 02:15:00', '2024-02-06 01:45:00', '2024-02-06 01:15:00', '2024-02-06 00:45:00', '2024-02-06 00:15:00', '2024-02-05 23:45:00', '2024-02-05 23:15:00', '2024-02-05 22:45:00', '2024-02-05 22:15:00', '2024-02-05 21:45:00']"
Iceland, Akureyri Airport (AEY/BIAR) ,"['BIAR 082100Z 00000KT 9999 OVC044 M09/M13 Q1009', 'BIAR 082000Z 16003KT 9999 OVC046 M10/M13 Q1010', 'BIAR 081900Z 16006KT 9999 OVC045 M10/M13 Q1010', 'BIAR 081800Z 17005KT 9999 OVC045 M10/M13 Q1010', 'BIAR 081709Z VRB03KT 9999 BKN047 M10/M14 Q1010', 'BIAR 081605Z 21004KT 9999 BKN046 M10/M14 Q1011', 'BIAR 081500Z 19004KT 9999 BKN047 M11/M14 Q1011', 'BIAR 081400Z 16004KT 120V200 9999 BKN048 M13/M15 Q1012', 'BIAR 081300Z 15002KT 9999 BKN050 M15/M17 Q1013', 'BIAR 081200Z 19005KT 9999 SCT047 M17/M19 Q1013', 'BIAR 081100Z 21006KT 9999 FEW046 M16/M19 Q1013', 'BIAR 081000Z 00000KT 9999 FEW045 M19/M21 Q1013', 'BIAR 080900Z 16003KT 9999 FEW043 M16/M18 Q1013', 'BIAR 080805Z VRB03KT 9999 BKN043 M13/M15 Q1013', 'BIAR 080700Z 21003KT 9999 BKN043 M11/M14 Q1014', 'BIAR 080600Z 19003KT 9999 OVC048 M10/M13 Q1014', 'BIAR 080500Z 17007KT 9999 OVC047 M10/M13 Q1014', 'BIAR 080400Z VRB02KT 9999 OVC046 M11/M13 Q1015', 'BIAR 080300Z 20002KT 9999 BKN049 M09/M11 Q1015', 'BIAR 080200Z 17003KT 130V190 9999 SCT040 BKN050 M07/M11 Q1015', 'BIAR 080100Z 16003KT 9999 -SN BKN040 OVC049 M05/M10 Q1015', 'BIAR 080000Z 28004KT 9999 OVC050 M05/M10 Q1015', 'BIAR 072300Z 33006KT 300V030 9999 -SHSN FEW028 SCT034 BKN040 M04/M10 Q1016', 'BIAR 072200Z 32005KT 9999 -SHSN BKN036 M05/M10 Q1016', 'BIAR 072100Z 34006G16KT 310V010 9999 SCT035 BKN045 M05/M10 Q1016', 'BIAR 072000Z 33005G15KT 9999 FEW030 SCT045 M04/M10 Q1016', 'BIAR 071900Z 33011G21KT 9999 -SHSN FEW033 BKN043 M03/M08 Q1016', 'BIAR 071800Z 00007G17KT 9999 SCT030 BKN040 M04/M07 Q1016', 'BIAR 071700Z VRB02KT 9999 FEW025 SCT035 BKN050 M08/M09 Q1016', 'BIAR 071600Z 16002KT 9999 SCT025 SCT040 BKN060 M08/M09 Q1016', 'BIAR 071500Z 13005KT 090V150 9999 SCT031 BKN066 M07/M08 Q1017', 'BIAR 071405Z VRB03KT 9999 SCT032 BKN066 M06/M07 Q1017', 'BIAR 071300Z VRB02KT 9999 -SHSN SCT034 BKN048 M06/M07 Q1017', 'BIAR 071200Z VRB03KT 9999 FEW012 BKN043 M06/M07 Q1017', 'BIAR 071104Z VRB01KT 9999 SCT035 BKN066 M07/M08 Q1017', 'BIAR 071000Z 19001KT 9999 -SN BKN017 BKN040 OVC093 M05/M06 Q1017', 'BIAR 070914Z VRB02KT 0900 +SN VV005 M05/M06 Q1017', 'BIAR 070900Z 00000KT 1200 +SHSN VV006 M05/M06 Q1016', 'BIAR 070829Z 00000KT 1600 -SN VV019 M05/M08 Q1016', 'BIAR 070800Z 00000KT 9999 BKN044 M06/M08 Q1016', 'BIAR 070700Z 00000KT 9999 BKN049 M05/M07 Q1015', 'BIAR 070600Z 22003KT 9999 OVC046 M04/M06 Q1015', 'BIAR 070500Z 04003KT 300V070 9999 OVC047 M03/M06 Q1014', 'BIAR 070400Z 32005KT 9999 -SN FEW040 OVC046 M03/M05 Q1014', 'BIAR 070300Z 30006KT 9999 -SN FEW031 BKN038 OVC047 M03/M04 Q1014', 'BIAR 070200Z 32004KT 270V360 9999 FEW033 BKN038 OVC045 M02/M06 Q1013', 'BIAR 070100Z 34003KT 290V020 9999 FEW033 BKN038 M02/M06 Q1013', 'BIAR 070000Z 29008KT 9999 BKN036 OVC059 M02/M04 Q1012', 'BIAR 062300Z 32005KT 1900 -SN SCT010 BKN015 M04/M05 Q1011 RESN', 'BIAR 062200Z 20004KT 5000 -SHSN FEW015 SCT019 BKN035 M06/M07 Q1010', 'BIAR 062100Z 20002KT 9999 -SN BKN040 M06/M07 Q1009', 'BIAR 062000Z 00000KT 9999 BKN044 M05/M06 Q1008', 'BIAR 061900Z 00000KT 9999 -SN FEW022 BKN040 M06/M06 Q1007', 'BIAR 061800Z 27002KT 4000 -SHSN SCT015 BKN030 M05/M06 Q1006', 'BIAR 061700Z 23002KT 9999 -SN BKN045 M05/M06 Q1005 RESN', 'BIAR 061600Z 17002KT 1500 -SN VV009 M04/M08 Q1005', 'BIAR 061500Z 18006KT 9999 FEW035 BKN059 M05/M08 Q1005', 'BIAR 061400Z 00000KT 9999 -SHSN FEW022 BKN040 OVC055 M03/M08 Q1005', 'BIAR 061300Z 18007KT 9999 FEW035 SCT050 BKN060 M04/M09 Q1005', 'BIAR 061200Z 18004KT 150V230 9999 FEW025 SCT045 BKN055 M05/M09 Q1005', 'BIAR 061100Z 12004KT 080V160 9999 FEW020 BKN057 M06/M10 Q1005', 'BIAR 061000Z 18005KT 9999 FEW040 BKN049 M07/M09 Q1005', 'BIAR 060900Z 32008G18KT 9999 -SHSN FEW020 BKN049 M04/M09 Q1005', 'BIAR 060800Z 33008KT 9999 FEW025 SCT045 BKN060 M05/M10 Q1005', 'BIAR 060700Z 34012KT 9999 -SHSN FEW020 OVC040 M05/M09 Q1005', 'BIAR 060600Z VRB02KT 9999 FEW036 OVC050 M09/M13 Q1005', 'BIAR 060500Z 19003KT 150V260 9999 FEW058 OVC068 M11/M15 Q1006', 'BIAR 060400Z 22004KT 160V270 9999 SCT052 OVC067 M11/M14 Q1006', 'BIAR 060300Z 00000KT 9999 SCT060 M11/M15 Q1006', 'BIAR 060200Z 19004KT 140V230 9999 SCT059 BKN070 M10/M14 Q1007', 'BIAR 060100Z 18004KT 140V240 9999 BKN054 M10/M13 Q1007', 'BIAR 060000Z 14009KT 9999 FEW030 BKN066 M12/M14 Q1007', 'BIAR 052300Z 31004KT 9999 FEW033 BKN058 M09/M14 Q1007', 'BIAR 052200Z 33008KT 1000 -SN VV010 M08/M10 Q1008']","['2024-02-08 21:00:00', '2024-02-08 20:00:00', '2024-02-08 19:00:00', '2024-02-08 18:00:00', '2024-02-08 17:09:00', '2024-02-08 16:05:00', '2024-02-08 15:00:00', '2024-02-08 14:00:00', '2024-02-08 13:00:00', '2024-02-08 12:00:00', '2024-02-08 11:00:00', '2024-02-08 10:00:00', '2024-02-08 09:00:00', '2024-02-08 08:05:00', '2024-02-08 07:00:00', '2024-02-08 06:00:00', '2024-02-08 05:00:00', '2024-02-08 04:00:00', '2024-02-08 03:00:00', '2024-02-08 02:00:00', '2024-02-08 01:00:00', '2024-02-08 00:00:00', '2024-02-07 23:00:00', '2024-02-07 22:00:00', '2024-02-07 21:00:00', '2024-02-07 20:00:00', '2024-02-07 19:00:00', '2024-02-07 18:00:00', '2024-02-07 17:00:00', '2024-02-07 16:00:00', '2024-02-07 15:00:00', '2024-02-07 14:05:00', '2024-02-07 13:00:00', '2024-02-07 12:00:00', '2024-02-07 11:04:00', '2024-02-07 10:00:00', '2024-02-07 09:14:00', '2024-02-07 09:00:00', '2024-02-07 08:29:00', '2024-02-07 08:00:00', '2024-02-07 07:00:00', '2024-02-07 06:00:00', '2024-02-07 05:00:00', '2024-02-07 04:00:00', '2024-02-07 03:00:00', '2024-02-07 02:00:00', '2024-02-07 01:00:00', '2024-02-07 00:00:00', '2024-02-06 23:00:00', '2024-02-06 22:00:00', '2024-02-06 21:00:00', '2024-02-06 20:00:00', '2024-02-06 19:00:00', '2024-02-06 18:00:00', '2024-02-06 17:00:00', '2024-02-06 16:00:00', '2024-02-06 15:00:00', '2024-02-06 14:00:00', '2024-02-06 13:00:00', '2024-02-06 12:00:00', '2024-02-06 11:00:00', '2024-02-06 10:00:00', '2024-02-06 09:00:00', '2024-02-06 08:00:00', '2024-02-06 07:00:00', '2024-02-06 06:00:00', '2024-02-06 05:00:00', '2024-02-06 04:00:00', '2024-02-06 03:00:00', '2024-02-06 02:00:00', '2024-02-06 01:00:00', '2024-02-06 00:00:00', '2024-02-05 23:00:00', '2024-02-05 22:00:00']"
Iceland, Bildudalur Airport (BIU/BIBD) ,"['BIBD 081700Z 23003KT 9999 VCSH SCT019 BKN028 M04/M06 Q1008', 'BIBD 081600Z 24003KT 9999 SHSN SCT017 BKN020 M03/M06 Q1009', 'BIBD 081500Z 24004KT 9999 VCSH SCT018 BKN028 M04/M08 Q1009', 'BIBD 081400Z 36002KT 9999 SCT025 BKN035 M03/M08 Q1010', 'BIBD 081100Z 25002KT 9999 FEW040 M05/M09 Q1011', 'BIBD 081000Z 23005KT 9999 FEW025 M05/M09 Q1011', 'BIBD 080900Z 23008KT 9999 VCSH SCT020 BKN030 M04/M09 Q1011', 'BIBD 080800Z 24006KT 9999 SCT022 M04/M09 Q1012', 'BIBD 080700Z 24003KT 9999 VCSH SCT020 M04/M09 Q1012', 'BIBD 071400Z 02005KT 9999 FEW020 SCT030 M02/M07 Q1019', 'BIBD 071200Z 05009KT 9999 SCT020 SCT030 M01/M06 Q1019', 'BIBD 071100Z 04012KT 9999 SCT020 SCT030 M01/M06 Q1018', 'BIBD 071000Z 05013KT 9999 SCT018 BKN025 M00/M04 Q1018', 'BIBD 070900Z 02010KT 9999 VCSH SCT018 BKN025 M01/M04 Q1017 RESHSN', 'BIBD 070800Z 21003KT 9999 VCSH SCT018 OVC022 M02/M05 Q1017 RESHSN', 'BIBD 061100Z VRB05KT 9999 SCT025 BKN040 M04/M10 Q1013', 'BIBD 061000Z VRB06KT 9999 -DZ BKN030 M04/M10 Q1013', 'BIBD 060900Z VRB06KT 9999 BKN035 M05/M10 Q1013', 'BIBD 060816Z VRB05KT 9999 SCT035 M05/M12 Q1013']","['2024-02-08 17:00:00', '2024-02-08 16:00:00', '2024-02-08 15:00:00', '2024-02-08 13:59:00', '2024-02-08 11:00:00', '2024-02-08 10:00:00', '2024-02-08 08:57:00', '2024-02-08 08:00:00', '2024-02-08 07:00:00', '2024-02-07 14:00:00', '2024-02-07 12:00:00', '2024-02-07 11:00:00', '2024-02-07 09:56:00', '2024-02-07 08:57:00', '2024-02-07 08:00:00', '2024-02-06 11:00:00', '2024-02-06 10:00:00', '2024-02-06 09:00:00', '2024-02-06 08:16:00']"
Iceland, Egilsstadir Airport (EGS/BIEG) ,"['BIEG 082100Z 18005KT 9999 SCT039 M14/M17 Q1009', 'BIEG 082000Z 18004KT CAVOK M15/M18 Q1009', 'BIEG 081900Z 21005KT 9999 SCT038 M12/M15 Q1009', 'BIEG 081800Z 20006KT CAVOK M12/M15 Q1009', 'BIEG 081709Z 14005KT CAVOK M11/M15 Q1009', 'BIEG 081600Z 16006KT CAVOK M09/M14 Q1009', 'BIEG 081505Z 14003KT CAVOK M09/M13 Q1009', 'BIEG 081400Z VRB01KT CAVOK M08/M13 Q1010', 'BIEG 081303Z 18005KT CAVOK M09/M14 Q1010', 'BIEG 081200Z 16003KT CAVOK M11/M14 Q1010', 'BIEG 081109Z 18004KT CAVOK M09/M12 Q1010', 'BIEG 081000Z 17006KT CAVOK M11/M14 Q1010', 'BIEG 080900Z VRB02KT 9999 BKN032 M09/M12 Q1011', 'BIEG 080800Z VRB02KT 9999 BKN042 M05/M11 Q1010', 'BIEG 080700Z 24003KT 9999 BKN047 M05/M10 Q1011', 'BIEG 080600Z 16005KT 9999 BKN044 M05/M10 Q1011', 'BIEG 080500Z 21004KT 9999 BKN040 M05/M10 Q1011', 'BIEG 080400Z 15005KT 9999 BKN041 M06/M10 Q1011', 'BIEG 080300Z 14004KT 9999 BKN040 M05/M11 Q1012', 'BIEG 080200Z VRB03KT 9999 BKN045 M05/M11 Q1012', 'BIEG 080100Z VRB03KT 9999 BKN043 M05/M10 Q1012', 'BIEG 080000Z 02004KT 330V070 9999 BKN042 M05/M10 Q1012', 'BIEG 072300Z 04008KT 350V070 9999 BKN043 M05/M10 Q1012', 'BIEG 072200Z 02009KT 350V050 9999 SCT040 BKN058 M06/M10 Q1013', 'BIEG 072100Z 02006KT 320V060 9999 BKN046 M05/M09 Q1013', 'BIEG 072000Z 33014KT 9999 BKN045 M05/M09 Q1012', 'BIEG 071900Z 35012KT 9999 -SN OVC037 M04/M08 Q1013', 'BIEG 071800Z 35006KT 320V030 9999 -SN BKN038 M06/M08 Q1013', 'BIEG 071700Z 36005KT 9999 BKN031 M06/M08 Q1012', 'BIEG 071600Z 36004KT 320V030 9999 -SN FEW034 BKN065 M05/M07 Q1013', 'BIEG 071500Z 02007KT 310V070 9999 FEW015 SCT043 BKN084 M04/M06 Q1013', 'BIEG 071400Z 35009KT 9999 BKN041 M04/M05 Q1013', 'BIEG 071300Z 02011KT 360V060 8000 -SN OVC012 M03/M04 Q1013', 'BIEG 071200Z 36010KT 9999 FEW010 BKN017 M04/M04 Q1013', 'BIEG 071100Z 01011KT 9999 FEW008 BKN050 M03/M04 Q1013', 'BIEG 071000Z 02009KT 340V060 1200 SHSN OVC010 M04/M05 Q1013', 'BIEG 070900Z 17003KT 090V230 6000 -SN SCT015 BKN053 M04/M05 Q1012', 'BIEG 070800Z 14003KT 2500 -SHSN OVC010 M04/M04 Q1012', 'BIEG 070700Z 16005KT 9999 -SHSN OVC008 M04/M05 Q1011', 'BIEG 070600Z 22003KT 9999 VCSH SCT020 OVC036 M05/M06 Q1011', 'BIEG 070500Z 19005KT 9999 OVC036 M06/M07 Q1011', 'BIEG 070400Z 15003KT 9999 BKN037 M07/M08 Q1011', 'BIEG 070300Z 18003KT 9999 OVC040 M07/M08 Q1011', 'BIEG 070200Z 12003KT 9999 FEW033 BKN045 M07/M08 Q1011', 'BIEG 070100Z 00000KT 9999 -SHSN OVC045 M06/M07 Q1010', 'BIEG 070000Z 00000KT 9999 -SHSN FEW010 OVC040 M06/M07 Q1009', 'BIEG 062300Z VRB02KT 9999 -SHSN SCT007 OVC045 M06/M07 Q1009', 'BIEG 062200Z VRB02KT 2300 -SN BKN010 OVC020 M05/M06 Q1008', 'BIEG 062100Z 18005KT 9999 -SHSN OVC025 M05/M06 Q1007', 'BIEG 062000Z 16003KT 0600 SHSN VV007 M06/M07 Q1006', 'BIEG 061900Z 18004KT 9999 FEW041 SCT048 BKN100 M06/M09 Q1005', 'BIEG 061800Z 18006KT 9999 SCT050 BKN110 M05/M09 Q1004', 'BIEG 061700Z 16005KT 9999 FEW040 BKN100 M05/M09 Q1004', 'BIEG 061600Z 20008KT 170V260 9999 SCT035 BKN074 BKN110 M04/M09 Q1003', 'BIEG 061500Z 23005KT 190V270 9999 BKN038 BKN050 M03/M09 Q1003', 'BIEG 061400Z 26010G20KT 210V310 9999 SCT030 BKN045 M03/M09 Q1003', 'BIEG 061300Z 20006KT 170V240 9999 BKN028 M04/M09 Q1003', 'BIEG 061200Z 17008KT 140V220 9999 -SN OVC024 M04/M09 Q1002', 'BIEG 061100Z 19011KT 150V230 8000 -SN DRSN OVC023 M04/M09 Q1002', 'BIEG 061000Z 21012KT 190V250 8000 -SN DRSN OVC023 M05/M09 Q1001', 'BIEG 060900Z 21013KT 9000 -SN OVC025 M06/M09 Q1001', 'BIEG 060800Z 21016KT 9999 -SN OVC025 M06/M10 Q1002', 'BIEG 060700Z 22014G26KT 4600 -SN OVC025 M07/M09 Q1001', 'BIEG 060600Z 21013KT 9999 -SN BKN030 BKN050 M07/M11 Q1001', 'BIEG 060500Z 20008KT 170V240 9999 BKN030 BKN050 M07/M12 Q1002', 'BIEG 060400Z 18006KT 9999 BKN030 BKN050 M07/M13 Q1002', 'BIEG 060300Z 21011KT 180V240 9999 BKN030 BKN050 M08/M13 Q1003', 'BIEG 060200Z 23006KT 190V280 9999 SCT050 M08/M13 Q1003', 'BIEG 060100Z VRB06KT CAVOK M08/M14 Q1003', 'BIEG 060000Z 06004KT CAVOK M10/M14 Q1004', 'BIEG 052300Z 17007KT CAVOK M10/M14 Q1004', 'BIEG 052200Z 33011KT CAVOK M09/M14 Q1004']","['2024-02-08 21:00:00', '2024-02-08 20:00:00', '2024-02-08 19:00:00', '2024-02-08 18:00:00', '2024-02-08 17:09:00', '2024-02-08 16:00:00', '2024-02-08 15:05:00', '2024-02-08 14:00:00', '2024-02-08 13:03:00', '2024-02-08 12:00:00', '2024-02-08 11:09:00', '2024-02-08 10:00:00', '2024-02-08 09:00:00', '2024-02-08 08:00:00', '2024-02-08 07:00:00', '2024-02-08 06:00:00', '2024-02-08 05:00:00', '2024-02-08 04:00:00', '2024-02-08 03:00:00', '2024-02-08 02:00:00', '2024-02-08 01:00:00', '2024-02-08 00:00:00', '2024-02-07 23:00:00', '2024-02-07 22:00:00', '2024-02-07 21:00:00', '2024-02-07 20:00:00', '2024-02-07 19:00:00', '2024-02-07 18:00:00', '2024-02-07 17:00:00', '2024-02-07 16:00:00', '2024-02-07 15:00:00', '2024-02-07 14:00:00', '2024-02-07 13:00:00', '2024-02-07 12:00:00', '2024-02-07 11:00:00', '2024-02-07 10:00:00', '2024-02-07 09:00:00', '2024-02-07 08:00:00', '2024-02-07 07:00:00', '2024-02-07 06:00:00', '2024-02-07 05:00:00', '2024-02-07 04:00:00', '2024-02-07 03:00:00', '2024-02-07 02:00:00', '2024-02-07 01:00:00', '2024-02-07 00:00:00', '2024-02-06 23:00:00', '2024-02-06 22:00:00', '2024-02-06 21:00:00', '2024-02-06 20:00:00', '2024-02-06 19:00:00', '2024-02-06 18:00:00', '2024-02-06 17:00:00', '2024-02-06 16:00:00', '2024-02-06 15:00:00', '2024-02-06 14:00:00', '2024-02-06 13:00:00', '2024-02-06 12:00:00', '2024-02-06 11:00:00', '2024-02-06 10:00:00', '2024-02-06 09:00:00', '2024-02-06 08:00:00', '2024-02-06 07:00:00', '2024-02-06 06:00:00', '2024-02-06 05:00:00', '2024-02-06 04:00:00', '2024-02-06 03:00:00', '2024-02-06 02:00:00', '2024-02-06 01:00:00', '2024-02-06 00:00:00', '2024-02-05 23:00:00', '2024-02-05 22:00:00']"
Iceland, Grimsey Airport (GRY/BIGR) ,"['BIGR 081600Z 01007KT 9999 OVC032 M04/M10 Q1010', 'BIGR 081200Z 01005KT 9999 BKN037 M05/M12 Q1012', 'BIGR 081000Z 03004KT CAVOK M06/M13 Q1012', 'BIGR 080800Z 35003KT CAVOK M04/M12 Q1012', 'BIGR 071600Z 35021KT 9999 FEW033 M03/M10 Q1017', 'BIGR 071200Z 36013KT 9999 SCT020 BKN085 M01/M05 Q1017', 'BIGR 071000Z 36015KT 9999 SCT026 BKN088 M00/M05 Q1017', 'BIGR 070800Z 02017KT 9999 SCT025 M00/M07 Q1016', 'BIGR 061600Z 01028G39KT 3000 -SN BLSN OVC010 M01/M03 Q1004', 'BIGR 061400Z 01026G36KT 1000 SN BLSN OVC005 M01/M01 Q1002', 'BIGR 061300Z 33025KT 0800 SN BLSN OVC007 M01/M02 Q1002', 'BIGR 061200Z 34028KT 0800 SN BLSN OVC011 M02/M03 Q1003', 'BIGR 061000Z 33026KT 0800 SN BLSN OVC006 M03/M03 Q1002', 'BIGR 060900Z 33025G35KT 1000 SN BLSN OVC008 M03/M04 Q1002', 'BIGR 060800Z 33027KT 0500 SN BLSN OVC008 M03/M04 Q1002']","['2024-02-08 16:00:00', '2024-02-08 11:59:00', '2024-02-08 09:59:00', '2024-02-08 07:58:00', '2024-02-07 15:58:00', '2024-02-07 12:00:00', '2024-02-07 10:00:00', '2024-02-07 07:58:00', '2024-02-06 15:58:00', '2024-02-06 13:58:00', '2024-02-06 12:59:00', '2024-02-06 11:58:00', '2024-02-06 10:00:00', '2024-02-06 08:58:00', '2024-02-06 08:00:00']"
Iceland, Hofn Hornafjordur Airport (HFN/BIHN) ,"['BIHN 081700Z 33014KT CAVOK M05/M12 Q1007', 'BIHN 081600Z 33013KT CAVOK M05/M12 Q1007', 'BIHN 081500Z 34014KT CAVOK M04/M12 Q1008', 'BIHN 081400Z 33014KT CAVOK M04/M11 Q1009', 'BIHN 081300Z 34014KT CAVOK M04/M12 Q1009', 'BIHN 081200Z 34015KT CAVOK M05/M12 Q1009', 'BIHN 081100Z 33014KT CAVOK M05/M12 Q1009', 'BIHN 081000Z 34016KT CAVOK M06/M12 Q1010', 'BIHN 080900Z 33015KT CAVOK M06/M12 Q1010', 'BIHN 080800Z 32014KT CAVOK M06/M12 Q1010', 'BIHN 071800Z 36012G23KT CAVOK M03/M10 Q1012', 'BIHN 071700Z 33018KT 9999 FEW045 M02/M10 Q1012', 'BIHN 071600Z 36017KT 9999 FEW040 M01/M09 Q1012', 'BIHN 071500Z 36017G28KT CAVOK M01/M09 Q1013', 'BIHN 071400Z 33012KT 9999 FEW055 M02/M08 Q1013', 'BIHN 071300Z 33016KT 9999 FEW055 M01/M08 Q1013', 'BIHN 071200Z 34019KT CAVOK M01/M08 Q1012', 'BIHN 071100Z VRB07KT 290V020 9999 FEW050 M02/M09 Q1012', 'BIHN 071000Z VRB07KT 240V000 9999 FEW045 M03/M09 Q1012', 'BIHN 070900Z 35017KT 9999 FEW055 M01/M09 Q1011', 'BIHN 070800Z 35013KT 9999 FEW055 M02/M09 Q1010', 'BIHN 061300Z 33023KT 9999 SCT037 BKN055 M03/M11 Q1004', 'BIHN 061200Z 32021KT 9999 SCT040 BKN055 M03/M12 Q1003', 'BIHN 052238Z 33022G32KT CAVOK M08/M14 Q1003']","['2024-02-08 16:59:00', '2024-02-08 16:00:00', '2024-02-08 14:56:00', '2024-02-08 13:57:00', '2024-02-08 13:00:00', '2024-02-08 11:59:00', '2024-02-08 10:58:00', '2024-02-08 09:57:00', '2024-02-08 09:00:00', '2024-02-08 08:00:00', '2024-02-07 17:58:00', '2024-02-07 17:00:00', '2024-02-07 16:00:00', '2024-02-07 15:00:00', '2024-02-07 14:00:00', '2024-02-07 12:57:00', '2024-02-07 12:00:00', '2024-02-07 10:57:00', '2024-02-07 10:00:00', '2024-02-07 08:59:00', '2024-02-07 08:00:00', '2024-02-06 13:00:00', '2024-02-06 12:00:00', '2024-02-05 22:38:00']"
Iceland, Husavik Airport (HZK/BIHU) ,"['BIHU 081800Z 17007KT 9999 BKN037 M07/M11 Q1010', 'BIHU 081700Z 17008KT 9999 -SN OVC034 M07/M11 Q1010', 'BIHU 081600Z 18007KT 9999 OVC040 M07/M12 Q1010', 'BIHU 081500Z 18008KT 9999 FEW019 BKN040 M07/M12 Q1011', 'BIHU 081400Z 17008KT 9999 OVC044 M07/M12 Q1011', 'BIHU 081200Z 19006KT 9999 SCT034 M07/M13 Q1012', 'BIHU 081000Z 16008KT 9999 SCT036 M08/M13 Q1012', 'BIHU 080911Z 15003KT 9999 BKN039 M09/M13 Q1012', 'BIHU 080800Z 15003KT 9999 BKN039 M09/M13 Q1013', 'BIHU 080700Z 30002KT 9999 BKN041 M06/M12 Q1013']","['2024-02-08 18:00:00', '2024-02-08 17:00:00', '2024-02-08 16:00:00', '2024-02-08 15:00:00', '2024-02-08 14:00:00', '2024-02-08 11:56:00', '2024-02-08 09:58:00', '2024-02-08 09:11:00', '2024-02-08 08:00:00', '2024-02-08 06:58:00']"
Iceland, Isafjordur Airport (IFJ/BIIS) ,"['BIIS 081800Z 19003KT 9999 BKN035 M05/M10 Q1008', 'BIIS 081700Z VRB03KT 9999 BKN035 M06/M11 Q1008', 'BIIS 081600Z VRB03KT 9999 BKN035 M06/M09 Q1008', 'BIIS 081500Z 20003KT 9999 FEW030 M07/M11 Q1009', 'BIIS 081400Z 00000KT CAVOK M07/M12 Q1010', 'BIIS 081200Z 00000KT 9999 FEW050 M08/M12 Q1010', 'BIIS 081100Z 00000KT 9999 FEW050 M07/M11 Q1010', 'BIIS 081000Z 00000KT 9999 FEW050 M07/M11 Q1011', 'BIIS 080900Z 20003KT 9999 FEW050 M07/M11 Q1011', 'BIIS 080800Z 22003KT 9999 BKN050 M06/M09 Q1012', 'BIIS 080700Z 21004KT 9999 BKN050 M05/M09 Q1012', 'BIIS 071648Z 22004KT 9999 BKN025 M03/M08 Q1018', 'BIIS 071550Z 19005KT 9999 BKN025 M02/M07 Q1019', 'BIIS 071449Z 01008KT 9999 SCT025 M01/M06 Q1019', 'BIIS 071400Z 04008KT 9999 BKN025 M01/M06 Q1019', 'BIIS 071300Z 06006KT 9999 FEW020 BKN030 M01/M06 Q1019', 'BIIS 071200Z 03008KT 9999 FEW020 BKN025 M01/M05 Q1019', 'BIIS 071100Z 05008KT 9999 FEW020 BKN025 M01/M05 Q1019', 'BIIS 070947Z 07012KT 9999 FEW020 SCT025 M02/M06 Q1019', 'BIIS 070900Z 05012KT 9999 BKN015 OVC025 M00/M04 Q1018', 'BIIS 070800Z 03012KT 9999 BKN015 OVC020 M01/M03 Q1018', 'BIIS 070700Z 04020KT 9999 BKN015 OVC020 M00/M02 Q1017', 'BIIS 061650Z 04017G27KT 9999 SHSN SCT012 BKN020 M02/M06 Q1013', 'BIIS 061600Z 05013G23KT 2500 SHSN SCT010 BKN020 M02/M06 Q1012', 'BIIS 061500Z 05013G23KT 1500 BLSN OVC020 M03/M06 Q1012', 'BIIS 061400Z 04016G27KT 2000 SN OVC020 M03/M07 Q1013 RMK ARNARNES 330 33G39', 'BIIS 061300Z 04018G38KT 1500 SN BLSN OVC020 M03/M07 Q1013 RMK 026 07018G35 ARNARNES 330 35G44', 'BIIS 061200Z VRB08G21KT 2000 SN OVC025 M03/M07 Q1013 RMK 026 07020G40 ARNARNES 320 35G42', 'BIIS 061000Z 23013G23KT 9999 VCSH BKN030 M04/M09 Q1012 RMK ARNARNES 31026G32', 'BIIS 060900Z 24010KT 3000 SN OVC016 M04/M09 Q1013', 'BIIS 060800Z 23003KT 9999 -SN OVC032 M05/M10 Q1013', 'BIIS 060700Z 23013KT 9999 FEW040 M05/M12 Q1012']","['2024-02-08 17:56:00', '2024-02-08 16:58:00', '2024-02-08 16:00:00', '2024-02-08 15:00:00', '2024-02-08 13:58:00', '2024-02-08 12:00:00', '2024-02-08 11:00:00', '2024-02-08 09:57:00', '2024-02-08 08:58:00', '2024-02-08 07:57:00', '2024-02-08 07:00:00', '2024-02-07 16:48:00', '2024-02-07 15:50:00', '2024-02-07 14:49:00', '2024-02-07 13:57:00', '2024-02-07 13:00:00', '2024-02-07 12:00:00', '2024-02-07 10:58:00', '2024-02-07 09:47:00', '2024-02-07 08:57:00', '2024-02-07 08:00:00', '2024-02-07 07:00:00', '2024-02-06 16:50:00', '2024-02-06 15:59:00', '2024-02-06 15:00:00', '2024-02-06 13:58:00', '2024-02-06 13:00:00', '2024-02-06 11:56:00', '2024-02-06 10:00:00', '2024-02-06 08:59:00', '2024-02-06 07:59:00', '2024-02-06 07:00:00']"
Iceland, Reykjavik Airport (RKV/BIRK) ,"['BIRK 082100Z 13002KT CAVOK M10/M17 Q1006', 'BIRK 082000Z 00000KT CAVOK M11/M17 Q1007', 'BIRK 081900Z 11004KT CAVOK M09/M17 Q1007', 'BIRK 081800Z 11002KT CAVOK M09/M17 Q1007', 'BIRK 081700Z VRB02KT CAVOK M07/M16 Q1007', 'BIRK 081606Z 10005KT CAVOK M06/M17 Q1008', 'BIRK 081500Z 08004KT CAVOK M05/M16 Q1008', 'BIRK 081400Z 09005KT CAVOK M05/M15 Q1009', 'BIRK 081300Z 10007KT CAVOK M06/M15 Q1010', 'BIRK 081200Z 10005KT CAVOK M07/M14 Q1010', 'BIRK 081100Z 13003KT 070V150 CAVOK M07/M13 Q1010', 'BIRK 081000Z 18006KT CAVOK M08/M12 Q1011', 'BIRK 080900Z 16005KT 100V230 CAVOK M07/M11 Q1011', 'BIRK 080800Z VRB02KT CAVOK M08/M13 Q1011', 'BIRK 080700Z 14006KT 090V170 CAVOK M07/M12 Q1012', 'BIRK 080600Z VRB03KT CAVOK M06/M10 Q1012', 'BIRK 080400Z 12004KT 010V140 CAVOK M08/M11 Q1013', 'BIRK 080300Z 05003KT 340V080 CAVOK M07/M11 Q1014', 'BIRK 080200Z 08005KT CAVOK M06/M11 Q1014', 'BIRK 080100Z 04006KT 010V070 CAVOK M04/M10 Q1015', 'BIRK 080000Z VRB03KT 9999 FEW024 M06/M10 Q1015', 'BIRK 072300Z VRB03KT CAVOK M05/M09 Q1015', 'BIRK 072200Z 14004KT 070V170 CAVOK M05/M09 Q1016', 'BIRK 072100Z 14004KT 9999 FEW023 M05/M10 Q1016', 'BIRK 072000Z 01005KT 350V060 CAVOK M03/M08 Q1016', 'BIRK 071900Z VRB03KT CAVOK M06/M11 Q1016', 'BIRK 071800Z VRB01KT CAVOK M04/M11 Q1016', 'BIRK 071700Z VRB04KT CAVOK M03/M09 Q1015', 'BIRK 071600Z 11005KT CAVOK M02/M11 Q1015', 'BIRK 071500Z 12005KT 080V150 9999 FEW026 M01/M11 Q1015', 'BIRK 071400Z 13005KT 9999 FEW025 M03/M11 Q1016', 'BIRK 071300Z 13004KT CAVOK M03/M11 Q1016', 'BIRK 071200Z 13005KT CAVOK M04/M11 Q1015', 'BIRK 071100Z 12005KT CAVOK M04/M10 Q1015', 'BIRK 071000Z 15005KT 140V210 CAVOK M04/M08 Q1014', 'BIRK 070900Z 03007KT 350V090 CAVOK M02/M08 Q1014', 'BIRK 070800Z VRB07KT CAVOK M02/M08 Q1014', 'BIRK 070700Z 11003KT 070V150 9999 FEW038 SCT082 M02/M08 Q1014', 'BIRK 070600Z 03007KT 9999 FEW050 BKN066 M01/M07 Q1014', 'BIRK 070500Z 04010KT 9999 FEW045 SCT088 M01/M06 Q1013', 'BIRK 070400Z 02013KT 360V060 9999 BKN030 M01/M05 Q1013', 'BIRK 070300Z 36014KT 9999 -SN FEW016 BKN020 M01/M04 Q1012', 'BIRK 070200Z 35010KT 320V020 9999 BKN025 M01/M04 Q1013', 'BIRK 070100Z 36013KT 330V030 9999 -SHSN SCT024 BKN032 M01/M04 Q1013', 'BIRK 070000Z 35013KT 9999 SCT023 BKN035 M01/M05 Q1012', 'BIRK 062300Z 36014KT 9999 FEW046 M02/M06 Q1012', 'BIRK 062200Z 34021KT 9999 FEW027 SCT041 M03/M05 Q1011', 'BIRK 062100Z 34014KT 9999 BKN034 M02/M05 Q1012', 'BIRK 062000Z 34016KT 9999 SCT020 M02/M06 Q1011', 'BIRK 061900Z 34018KT 9999 FEW028 SCT055 M02/M07 Q1012', 'BIRK 061800Z 35018KT 9999 SCT033 BKN055 M02/M08 Q1012', 'BIRK 061700Z 35017KT 9999 SCT032 BKN060 M02/M08 Q1012', 'BIRK 061600Z 34019KT 9999 FEW030 SCT050 M02/M09 Q1012', 'BIRK 061500Z 35017KT 9999 VCSH FEW020 SCT038 BKN060 M02/M08 Q1012', 'BIRK 061400Z 35017KT 9999 -SHSN FEW015 SCT032 BKN057 M04/M06 Q1012', 'BIRK 061300Z 35019KT 9999 VCSH FEW015 SCT050 M04/M07 Q1012', 'BIRK 061200Z 35017KT 9999 FEW032 SCT052 M04/M10 Q1012', 'BIRK 061100Z 35015KT 9999 FEW028 SCT057 M05/M10 Q1012', 'BIRK 061000Z 35018KT 9999 FEW028 BKN050 M05/M10 Q1012', 'BIRK 060900Z 35017KT 9999 FEW024 M06/M10 Q1012', 'BIRK 060800Z 35018KT 9999 FEW024 M06/M11 Q1012', 'BIRK 060700Z 36018KT 9999 FEW028 SCT057 M06/M12 Q1011', 'BIRK 060600Z 35017KT 9999 FEW024 SCT046 M06/M11 Q1011', 'BIRK 060500Z 35018KT 9999 FEW027 SCT052 M07/M12 Q1011', 'BIRK 060400Z 36010KT 9999 FEW025 M07/M14 Q1011', 'BIRK 060300Z 36014KT 9999 FEW026 M07/M12 Q1011', 'BIRK 060200Z 01009KT 9999 SCT025 M07/M12 Q1011', 'BIRK 060100Z 01014KT 9999 FEW030 M07/M13 Q1010', 'BIRK 060000Z 01016KT 9999 FEW030 M07/M14 Q1010', 'BIRK 052300Z 36020KT 9999 FEW027 M07/M13 Q1009', 'BIRK 052200Z 01021KT CAVOK M07/M13 Q1008']","['2024-02-08 21:00:00', '2024-02-08 20:00:00', '2024-02-08 19:00:00', '2024-02-08 18:00:00', '2024-02-08 17:00:00', '2024-02-08 16:06:00', '2024-02-08 15:00:00', '2024-02-08 14:00:00', '2024-02-08 13:00:00', '2024-02-08 12:00:00', '2024-02-08 11:00:00', '2024-02-08 10:00:00', '2024-02-08 09:00:00', '2024-02-08 08:00:00', '2024-02-08 07:00:00', '2024-02-08 06:00:00', '2024-02-08 04:00:00', '2024-02-08 03:00:00', '2024-02-08 02:00:00', '2024-02-08 01:00:00', '2024-02-08 00:00:00', '2024-02-07 23:00:00', '2024-02-07 22:00:00', '2024-02-07 21:00:00', '2024-02-07 20:00:00', '2024-02-07 19:00:00', '2024-02-07 18:00:00', '2024-02-07 17:00:00', '2024-02-07 16:00:00', '2024-02-07 15:00:00', '2024-02-07 14:00:00', '2024-02-07 13:00:00', '2024-02-07 12:00:00', '2024-02-07 11:00:00', '2024-02-07 10:00:00', '2024-02-07 09:00:00', '2024-02-07 08:00:00', '2024-02-07 07:00:00', '2024-02-07 06:00:00', '2024-02-07 05:00:00', '2024-02-07 04:00:00', '2024-02-07 03:00:00', '2024-02-07 02:00:00', '2024-02-07 01:00:00', '2024-02-07 00:00:00', '2024-02-06 23:00:00', '2024-02-06 22:00:00', '2024-02-06 21:00:00', '2024-02-06 20:00:00', '2024-02-06 19:00:00', '2024-02-06 18:00:00', '2024-02-06 17:00:00', '2024-02-06 16:00:00', '2024-02-06 15:00:00', '2024-02-06 14:00:00', '2024-02-06 13:00:00', '2024-02-06 12:00:00', '2024-02-06 11:00:00', '2024-02-06 10:00:00', '2024-02-06 09:00:00', '2024-02-06 08:00:00', '2024-02-06 07:00:00', '2024-02-06 06:00:00', '2024-02-06 05:00:00', '2024-02-06 04:00:00', '2024-02-06 03:00:00', '2024-02-06 02:00:00', '2024-02-06 01:00:00', '2024-02-06 00:00:00', '2024-02-05 23:00:00', '2024-02-05 22:00:00']"
Iceland, Keflavik International Airport (KEF/BIKF) ,"['BIKF 082030Z 06005KT CAVOK M07/M12 Q1006', 'BIKF 082000Z 04008KT CAVOK M07/M11 Q1006', 'BIKF 081900Z 04012KT CAVOK M06/M10 Q1006', 'BIKF 081830Z 04011KT CAVOK M06/M11 Q1006', 'BIKF 081800Z 05009KT CAVOK M07/M12 Q1006', 'BIKF 081730Z 05009KT CAVOK M06/M12 Q1007', 'BIKF 081700Z 04014KT CAVOK M05/M12 Q1007', 'BIKF 081630Z 05012KT CAVOK M04/M13 Q1007', 'BIKF 081600Z 04012KT CAVOK M05/M13 Q1007', 'BIKF 081530Z 04010KT CAVOK M05/M12 Q1008', 'BIKF 081500Z 05006KT CAVOK M05/M11 Q1008', 'BIKF 081430Z 06006KT CAVOK M06/M12 Q1008', 'BIKF 081400Z 05006KT CAVOK M05/M12 Q1009', 'BIKF 081330Z 06007KT CAVOK M05/M11 Q1009', 'BIKF 081300Z 07012KT CAVOK M05/M11 Q1009', 'BIKF 081230Z 07011KT CAVOK M05/M10 Q1009', 'BIKF 081200Z 06011KT CAVOK M05/M10 Q1010', 'BIKF 081130Z 04014KT CAVOK M05/M10 Q1010', 'BIKF 081100Z 04013KT CAVOK M05/M09 Q1010', 'BIKF 081030Z 04013KT CAVOK M05/M09 Q1010', 'BIKF 081000Z 03013KT CAVOK M05/M10 Q1011', 'BIKF 080930Z 03013KT 9999 FEW026 M05/M09 Q1011', 'BIKF 080900Z 02008KT CAVOK M05/M10 Q1011', 'BIKF 080830Z 02008KT CAVOK M05/M10 Q1011', 'BIKF 080800Z 02009KT CAVOK M05/M10 Q1011', 'BIKF 080730Z 02011KT CAVOK M05/M10 Q1012', 'BIKF 080700Z 03008KT CAVOK M05/M10 Q1012', 'BIKF 080630Z 03010KT CAVOK M05/M10 Q1012', 'BIKF 080600Z 03011KT CAVOK M05/M10 Q1012', 'BIKF 080530Z 03012KT CAVOK M05/M10 Q1012', 'BIKF 080500Z 03011KT CAVOK M05/M09 Q1013', 'BIKF 080430Z 03012KT CAVOK M05/M09 Q1013', 'BIKF 080400Z 03013KT CAVOK M04/M09 Q1013', 'BIKF 080330Z 04013KT CAVOK M04/M09 Q1013', 'BIKF 080300Z 04013KT CAVOK M04/M08 Q1014', 'BIKF 080230Z 03014KT CAVOK M04/M09 Q1014', 'BIKF 080200Z 03013KT CAVOK M04/M09 Q1014', 'BIKF 080130Z 03012KT CAVOK M03/M08 Q1014', 'BIKF 080100Z 03013KT CAVOK M03/M08 Q1015', 'BIKF 080030Z 03011KT 9999 FEW023 M04/M08 Q1015', 'BIKF 080000Z 03009KT CAVOK M05/M08 Q1015', 'BIKF 072330Z 03008KT CAVOK M05/M08 Q1015', 'BIKF 072300Z 03010KT CAVOK M04/M08 Q1015', 'BIKF 072230Z 04010KT CAVOK M04/M07 Q1016', 'BIKF 072200Z 03011KT CAVOK M03/M07 Q1016', 'BIKF 072130Z 03013KT CAVOK M03/M07 Q1016', 'BIKF 072100Z 03013KT CAVOK M03/M07 Q1016', 'BIKF 072041Z 03014KT CAVOK M03/M07 Q1016', 'BIKF 071930Z 03014KT CAVOK M02/M07 Q1016', 'BIKF 071900Z 03013KT CAVOK M02/M07 Q1016', 'BIKF 071830Z 02016KT CAVOK M02/M07 Q1016', 'BIKF 071800Z 03015KT CAVOK M02/M07 Q1015', 'BIKF 071730Z 03013KT CAVOK M02/M07 Q1016', 'BIKF 071700Z 04005KT CAVOK M03/M08 Q1015', 'BIKF 071630Z 04003KT CAVOK M03/M09 Q1015', 'BIKF 071530Z 03004KT 9999 FEW020 M02/M08 Q1015', 'BIKF 071500Z 05003KT 9999 FEW020 M02/M08 Q1015', 'BIKF 071430Z 06003KT 9999 FEW020 M03/M08 Q1015', 'BIKF 071400Z 05007KT 9999 FEW020 M03/M08 Q1015', 'BIKF 071330Z 05007KT 9999 FEW020 M02/M08 Q1015', 'BIKF 071300Z 04008KT 9999 FEW020 M02/M08 Q1015', 'BIKF 071230Z 05010KT 9999 FEW020 M02/M08 Q1015', 'BIKF 071200Z 03017KT 9999 FEW020 M02/M08 Q1015', 'BIKF 071129Z 03015KT 9999 FEW020 M02/M08 Q1015', 'BIKF 071100Z 02014KT 9999 FEW020 M02/M07 Q1015', 'BIKF 071030Z 01012KT 9999 SCT020 /////// Q1015', 'BIKF 071000Z 01013KT 9999 FEW016 SCT021 M03/M06 Q1015', 'BIKF 070930Z 01010KT 9999 FEW016 SCT021 M03/M06 Q1015', 'BIKF 070900Z 01012KT 9999 FEW017 SCT043 M03/M05 Q1014', 'BIKF 070830Z 01011KT 9999 SCT019 M03/M05 Q1014', 'BIKF 070800Z 02014KT 9999 SCT021 M02/M05 Q1014', 'BIKF 070730Z 02014KT 9999 FEW020 BKN090 M02/M06 Q1014', 'BIKF 070700Z 01016KT 9999 FEW020 BKN070 M01/M05 Q1014', 'BIKF 070629Z 02013KT 9999 FEW020 SCT046 BKN074 M02/M05 Q1014', 'BIKF 070600Z 02013KT 9999 FEW020 BKN060 M01/M05 Q1014', 'BIKF 070529Z 02013KT 9999 SCT017 M02/M05 Q1014', 'BIKF 070500Z 02016KT 9999 SCT015 BKN072 M02/M04 Q1013', 'BIKF 070430Z 02018KT 9999 -SN FEW010 BKN017 M02/M04 Q1013', 'BIKF 070359Z 01022KT 9999 -SN SCT012 BKN029 M02/M04 Q1014', 'BIKF 070330Z 01019KT 9999 BKN022 M01/M05 Q1013', 'BIKF 070300Z 01021KT 9999 BKN024 M01/M05 Q1013', 'BIKF 070230Z 01020KT 9999 BKN024 M02/M05 Q1013', 'BIKF 070159Z 36021KT 9999 BKN023 M02/M05 Q1013', 'BIKF 070130Z 36019KT 9999 BKN020 M02/M05 Q1013', 'BIKF 070100Z 36020KT 9999 BKN021 M02/M05 Q1013', 'BIKF 070030Z 01020KT 9999 FEW020 M02/M06 Q1013', 'BIKF 070000Z 36019KT 9999 FEW021 M02/M06 Q1013', 'BIKF 062330Z 36019KT 9999 SCT020 M02/M06 Q1013', 'BIKF 062300Z 36021KT 9999 SCT020 M02/M05 Q1013', 'BIKF 062230Z 36022KT 9999 SCT021 M03/M06 Q1012', 'BIKF 062200Z 36020KT 9999 FEW021 M03/M06 Q1012', 'BIKF 062130Z 35018KT 9999 SCT022 M03/M07 Q1012', 'BIKF 062100Z 35017KT 9999 SCT024 M02/M07 Q1012', 'BIKF 061959Z 35018KT 9999 BKN031 M02/M07 Q1012', 'BIKF 061930Z 34015KT 9999 SCT030 M03/M07 Q1012', 'BIKF 061900Z 34016KT 9999 BKN032 M03/M08 Q1012', 'BIKF 061800Z 34018KT 9999 BKN035 M03/M08 Q1012', 'BIKF 061730Z 34017KT 9999 BKN035 M02/M08 Q1012', 'BIKF 061700Z 34017KT 9999 BKN032 M02/M08 Q1012', 'BIKF 061630Z 33019KT 9999 DRSN BKN035 M02/M08 Q1012', 'BIKF 061600Z 33021KT 9999 DRSN FEW025 BKN035 M02/M08 Q1012', 'BIKF 061530Z 33020KT 9999 BKN025 M03/M08 Q1012', 'BIKF 061500Z 33020KT 5000 -SHSN SCT015TCU BKN021 M03/M06 Q1013', 'BIKF 061400Z 33018KT 9999 -SN FEW016 BKN033 M03/M08 Q1013', 'BIKF 061330Z 34017KT 9999 BKN036 M03/M09 Q1012', 'BIKF 061300Z 34017KT 9999 BKN034 M03/M09 Q1012', 'BIKF 061230Z 35019KT 9999 SCT034 M03/M09 Q1012', 'BIKF 061200Z 34018KT 9999 BKN034 M04/M09 Q1012', 'BIKF 061130Z 34018KT 9999 BKN035 M04/M09 Q1012', 'BIKF 061100Z 34019KT 9999 BKN035 M04/M10 Q1012', 'BIKF 061030Z 34018KT 9999 VCSH FEW038 BKN050 M05/M11 Q1012', 'BIKF 061000Z 34019KT 9999 BKN036 M05/M10 Q1011', 'BIKF 060930Z 35016KT 9999 SCT035 M05/M11 Q1012', 'BIKF 060900Z 35015KT 9999 SCT037 M06/M12 Q1011', 'BIKF 060830Z 35015KT 9999 SCT034 M06/M11 Q1011', 'BIKF 060800Z 36017KT 9999 SCT035 M06/M12 Q1011', 'BIKF 060730Z 35016KT 9999 SCT035 M06/M11 Q1011', 'BIKF 060700Z 36013KT 9999 SCT035 BKN110 M06/M12 Q1011', 'BIKF 060630Z 35017KT 9999 SCT036 BKN120 M06/M11 Q1011', 'BIKF 060604Z 35017KT 9999 BKN036 M06/M12 Q1011', 'BIKF 060530Z 36015KT 9999 BKN037 M06/M13 Q1011', 'BIKF 060500Z 36014KT 9999 BKN037 M07/M12 Q1011', 'BIKF 060430Z 35018KT 9999 SCT037 M07/M12 Q1011', 'BIKF 060400Z 36015KT 9999 SCT038 M07/M13 Q1011', 'BIKF 060330Z 36014KT 9999 SCT036 M07/M13 Q1011', 'BIKF 060300Z 01016KT 9999 FEW033 M07/M13 Q1011', 'BIKF 060230Z 01016KT 9999 SCT028 M07/M13 Q1011', 'BIKF 060200Z 01018KT 9999 BKN028 M07/M12 Q1011', 'BIKF 060130Z 01016KT 9999 BKN027 M07/M11 Q1010', 'BIKF 060100Z 01018KT 9999 BKN028 M07/M11 Q1010', 'BIKF 060030Z 01018KT 9999 BKN028 M07/M11 Q1010', 'BIKF 060000Z 01019KT 9999 BKN032 M07/M13 Q1009', 'BIKF 052330Z 01018KT 9999 BKN032 M07/M13 Q1009', 'BIKF 052300Z 01018G28KT 9999 SCT033 M07/M13 Q1009', 'BIKF 052230Z 01017KT 9999 FEW033 M07/M14 Q1008', 'BIKF 052200Z 01020KT 9999 SCT030 M07/M13 Q1008', 'BIKF 052130Z 01020KT 9999 FEW026 M07/M12 Q1008']","['2024-02-08 20:30:00', '2024-02-08 20:00:00', '2024-02-08 19:00:00', '2024-02-08 18:30:00', '2024-02-08 18:00:00', '2024-02-08 17:30:00', '2024-02-08 17:00:00', '2024-02-08 16:30:00', '2024-02-08 16:00:00', '2024-02-08 15:30:00', '2024-02-08 15:00:00', '2024-02-08 14:30:00', '2024-02-08 14:00:00', '2024-02-08 13:30:00', '2024-02-08 13:00:00', '2024-02-08 12:30:00', '2024-02-08 12:00:00', '2024-02-08 11:30:00', '2024-02-08 11:00:00', '2024-02-08 10:30:00', '2024-02-08 10:00:00', '2024-02-08 09:30:00', '2024-02-08 09:00:00', '2024-02-08 08:30:00', '2024-02-08 08:00:00', '2024-02-08 07:30:00', '2024-02-08 07:00:00', '2024-02-08 06:30:00', '2024-02-08 06:00:00', '2024-02-08 05:30:00', '2024-02-08 05:00:00', '2024-02-08 04:30:00', '2024-02-08 04:00:00', '2024-02-08 03:30:00', '2024-02-08 03:00:00', '2024-02-08 02:30:00', '2024-02-08 02:00:00', '2024-02-08 01:30:00', '2024-02-08 01:00:00', '2024-02-08 00:30:00', '2024-02-08 00:00:00', '2024-02-07 23:30:00', '2024-02-07 23:00:00', '2024-02-07 22:30:00', '2024-02-07 22:00:00', '2024-02-07 21:30:00', '2024-02-07 21:00:00', '2024-02-07 20:41:00', '2024-02-07 19:30:00', '2024-02-07 19:00:00', '2024-02-07 18:30:00', '2024-02-07 18:00:00', '2024-02-07 17:30:00', '2024-02-07 17:00:00', '2024-02-07 16:30:00', '2024-02-07 15:30:00', '2024-02-07 15:00:00', '2024-02-07 14:30:00', '2024-02-07 14:00:00', '2024-02-07 13:30:00', '2024-02-07 13:00:00', '2024-02-07 12:30:00', '2024-02-07 12:00:00', '2024-02-07 11:29:00', '2024-02-07 11:00:00', '2024-02-07 10:30:00', '2024-02-07 10:00:00', '2024-02-07 09:30:00', '2024-02-07 09:00:00', '2024-02-07 08:30:00', '2024-02-07 08:00:00', '2024-02-07 07:30:00', '2024-02-07 07:00:00', '2024-02-07 06:29:00', '2024-02-07 06:00:00', '2024-02-07 05:29:00', '2024-02-07 05:00:00', '2024-02-07 04:30:00', '2024-02-07 03:59:00', '2024-02-07 03:30:00', '2024-02-07 03:00:00', '2024-02-07 02:30:00', '2024-02-07 01:59:00', '2024-02-07 01:30:00', '2024-02-07 01:00:00', '2024-02-07 00:30:00', '2024-02-07 00:00:00', '2024-02-06 23:30:00', '2024-02-06 23:00:00', '2024-02-06 22:30:00', '2024-02-06 22:00:00', '2024-02-06 21:30:00', '2024-02-06 21:00:00', '2024-02-06 19:59:00', '2024-02-06 19:30:00', '2024-02-06 19:00:00', '2024-02-06 18:00:00', '2024-02-06 17:30:00', '2024-02-06 17:00:00', '2024-02-06 16:30:00', '2024-02-06 16:00:00', '2024-02-06 15:30:00', '2024-02-06 15:00:00', '2024-02-06 14:00:00', '2024-02-06 13:30:00', '2024-02-06 13:00:00', '2024-02-06 12:30:00', '2024-02-06 12:00:00', '2024-02-06 11:30:00', '2024-02-06 11:00:00', '2024-02-06 10:30:00', '2024-02-06 10:00:00', '2024-02-06 09:30:00', '2024-02-06 09:00:00', '2024-02-06 08:30:00', '2024-02-06 08:00:00', '2024-02-06 07:30:00', '2024-02-06 07:00:00', '2024-02-06 06:30:00', '2024-02-06 06:04:00', '2024-02-06 05:30:00', '2024-02-06 05:00:00', '2024-02-06 04:30:00', '2024-02-06 04:00:00', '2024-02-06 03:30:00', '2024-02-06 03:00:00', '2024-02-06 02:30:00', '2024-02-06 02:00:00', '2024-02-06 01:30:00', '2024-02-06 01:00:00', '2024-02-06 00:30:00', '2024-02-06 00:00:00', '2024-02-05 23:30:00', '2024-02-05 23:00:00', '2024-02-05 22:30:00', '2024-02-05 22:00:00', '2024-02-05 21:30:00']"
India, Agartala Airport (IXA/VEAT) ,"['VEAT 081500Z 00000KT 3000 BR NSC 16/14 Q1017 NOSIG', 'VEAT 081430Z 00000KT 3000 BR NSC 17/14 Q1016 NOSIG', 'VEAT 081400Z 00000KT 3000 BR NSC 17/14 Q1016 NOSIG', 'VEAT 081300Z 00000KT 3000 BR NSC 18/16 Q1015 NOSIG', 'VEAT 081200Z 00000KT 3500 HZ NSC 21/14 Q1015 NOSIG', 'VEAT 081130Z 00000KT 4000 HZ NSC 23/13 Q1014 NOSIG', 'VEAT 081100Z 27002KT 4000 HZ NSC 23/12 Q1014 NOSIG', 'VEAT 081030Z 27003KT 4000 HZ NSC 24/11 Q1014 NOSIG', 'VEAT 081000Z 32005KT 4000 HZ NSC 24/11 Q1014 NOSIG', 'VEAT 080930Z 26006KT 4000 HZ NSC 25/09 Q1014 NOSIG', 'VEAT 080900Z 27006KT 4000 HZ NSC 25/08 Q1015 NOSIG', 'VEAT 080830Z 30007KT 4000 HZ NSC 24/09 Q1015 NOSIG', 'VEAT 080800Z 28006KT 4000 HZ NSC 25/08 Q1015 NOSIG', 'VEAT 080730Z 32005KT 4000 HZ NSC 24/08 Q1016 NOSIG', 'VEAT 080700Z 22005KT 4000 HZ NSC 24/09 Q1016 NOSIG', 'VEAT 080630Z 27008KT 4500 HZ NSC 24/09 Q1017 NOSIG', 'VEAT 080600Z 28008KT 4000 HZ NSC 23/09 Q1017 NOSIG', 'VEAT 080530Z 33004KT 4000 HZ NSC 22/13 Q1017 NOSIG', 'VEAT 080500Z 35006KT 3500 HZ NSC 22/13 Q1018 NOSIG', 'VEAT 080400Z 31007KT 2800 HZ NSC 21/13 Q1018 BECMG 3000 HZ', 'VEAT 080330Z 29003KT 2500 HZ NSC 20/13 Q1018 NOSIG', 'VEAT 080230Z 00000KT 1800 BR NSC 16/13 Q1017 NOSIG', 'VEAT 080130Z 00000KT 1800 BR NSC 12/12 Q1016 NOSIG', 'VEAT 080000Z 14003KT 1800 BR NSC 12/12 Q1015 NOSIG', 'VEAT 071500Z 33003KT 3000 BR NSC 17/13 Q1016 NOSIG', 'VEAT 071430Z 30006KT 3500 BR NSC 20/16 Q1016 BECMG 3000 BR', 'VEAT 071330Z 26003KT 3500 HZ NSC 21/16 Q1015 NOSIG', 'VEAT 071300Z 25002KT 3500 HZ NSC 22/16 Q1015 NOSIG', 'VEAT 071230Z 28002KT 4000 HZ NSC 22/16 Q1015 NOSIG', 'VEAT 071130Z 28004KT 4500 HZ NSC 24/14 Q1014 NOSIG', 'VEAT 071100Z 27002KT 5000 HZ NSC 25/13 Q1014 NOSIG', 'VEAT 071030Z 30004KT 5000 HZ NSC 25/12 Q1014 NOSIG', 'VEAT 071000Z 28008KT 5000 HZ NSC 26/11 Q1014 NOSIG', 'VEAT 070930Z 27005KT 4500 HZ NSC 26/11 Q1014 BECMG 5000 HZ', 'VEAT 070830Z 27006KT 4500 HZ FEW018 26/11 Q1015 NOSIG', 'VEAT 070800Z 27005KT 4000 HZ FEW018 26/13 Q1015 NOSIG', 'VEAT 070730Z 29006KT 3500 HZ FEW018 SCT100 25/16 Q1016 NOSIG', 'VEAT 070700Z 29003KT 3500 HZ FEW018 SCT100 25/16 Q1016 NOSIG', 'VEAT 070600Z 00000KT 3500 HZ SCT100 24/16 Q1018 NOSIG', 'VEAT 070530Z 30006KT 3500 HZ SCT100 23/18 Q1018 NOSIG', 'VEAT 070430Z 34007KT 2800 BR SCT018 SCT100 23/18 Q1019 BECMG 3000 BR', 'VEAT 070400Z 30005KT 2200 BR SCT018 SCT100 22/19 Q1018 NOSIG', 'VEAT 070353Z 01004KT 1400 BR SCT018 SCT100 21/19 Q1018 BECMG 1500 BR', 'VEAT 070300Z 28004KT 1000 BR SCT018 SCT100 20/19 Q1018 NOSIG', 'VEAT 070231Z 00000KT 0900 FG SCT018 SCT100 20/19 Q1018 NOSIG', 'VEAT 070200Z 00000KT 0800 FG SCT018 SCT100 20/20 Q1017 NOSIC', 'VEAT 070130Z 00000KT 0800 FG SCT018 SCT100 20/19 Q1017 NOSIC', 'VEAT 070100Z 00000KT 1000 BR SCT018 SCT100 19/19 Q1016 BECMG 0800 FG', 'VEAT 070000Z 00000KT 1200 BR FEW018 SCT100 19/18 Q1016 NOSIG', 'VEAT 061500Z 22003KT 2500 BR FEW018 SCT100 20/18 Q1016 NOSIG', 'VEAT 061430Z 20003KT 2500 BR FEW018 SCT100 21/19 Q1016 NOSIG', 'VEAT 061400Z 18004KT 2500 BR FEW018 SCT100 21/19 Q1016 NOSIG', 'VEAT 061330Z 20004KT 2500 BR FEW018 BKN100 21/19 Q1015 NOSIG', 'VEAT 061300Z 19003KT 2500 BR SCT018 BKN100 22/20 Q1015 NOSIG', 'VEAT 061230Z 18003KT 2500 BR SCT018 BKN100 22/20 Q1015 NOSIG', 'VEAT 061200Z 22003KT 2500 BR SCT018 BKN100 23/20 Q1015 NOSIG', 'VEAT 061130Z 22005KT 2500 BR SCT018 BKN100 23/19 Q1015 NOSIG', 'VEAT 061100Z 22005KT 2500 HZ SCT018 BKN100 24/19 Q1014 NOSIG', 'VEAT 061000Z 18004KT 2800 HZ SCT018 BKN100 24/19 Q1014 NOSIG', 'VEAT 060930Z 21004KT 3000 HZ SCT018 BKN100 24/19 Q1014 NOSIG', 'VEAT 060900Z 21005KT 3000 HZ SCT018 BKN100 24/19 Q1015 NOSIG', 'VEAT 060800Z 28005KT 3000 HZ SCT018 BKN100 24/19 Q1015 NOSIG', 'VEAT 060730Z 25004KT 3000 HZ SCT018 BKN100 24/19 Q1016 NOSIG', 'VEAT 060700Z 28003KT 3000 HZ SCT018 BKN100 25/19 Q1016 NOSIG', 'VEAT 060630Z 27003KT 3000 HZ SCT018 BKN100 25/19 Q1017 NOSIG', 'VEAT 060600Z 24003KT 3000 HZ SCT018 BKN100 24/19 Q1017 NOSIG', 'VEAT 060500Z 29004KT 2800 HZ FEW018 SCT100 24/19 Q1018 BECMG 3000 HZ', 'VEAT 060400Z 00000KT 2200 BR FEW100 22/18 Q1018 NOSIG', 'VEAT 060330Z 18003KT 1800 BR FEW018 SCT100 21/17 Q1018 NOSIG', 'VEAT 060300Z 17004KT 1600 BR FEW018 SCT100 20/17 Q1018 NOSIG', 'VEAT 060200Z 15003KT 1200 BR SCT018 SCT100 17/15 Q1018 NOSIG', 'VEAT 060130Z 15003KT 1400 BR SCT018 SCT100 17/15 Q1017 NOSIG', 'VEAT 060100Z 00000KT 1600 BR SCT018 SCT100 16/15 Q1017 BECMG 1500 BR', 'VEAT 060000Z 13004KT 1800 BR FEW020 SCT100 16/15 Q1015 NOSIG']","['2024-02-08 15:00:00', '2024-02-08 14:30:00', '2024-02-08 14:00:00', '2024-02-08 13:00:00', '2024-02-08 12:00:00', '2024-02-08 11:30:00', '2024-02-08 11:00:00', '2024-02-08 10:30:00', '2024-02-08 10:00:00', '2024-02-08 09:30:00', '2024-02-08 09:00:00', '2024-02-08 08:30:00', '2024-02-08 08:00:00', '2024-02-08 07:30:00', '2024-02-08 07:00:00', '2024-02-08 06:30:00', '2024-02-08 06:00:00', '2024-02-08 05:30:00', '2024-02-08 05:00:00', '2024-02-08 04:00:00', '2024-02-08 03:30:00', '2024-02-08 02:30:00', '2024-02-08 01:30:00', '2024-02-08 00:00:00', '2024-02-07 15:00:00', '2024-02-07 14:30:00', '2024-02-07 13:30:00', '2024-02-07 13:00:00', '2024-02-07 12:30:00', '2024-02-07 11:30:00', '2024-02-07 11:00:00', '2024-02-07 10:30:00', '2024-02-07 10:00:00', '2024-02-07 09:30:00', '2024-02-07 08:30:00', '2024-02-07 08:00:00', '2024-02-07 07:30:00', '2024-02-07 07:00:00', '2024-02-07 06:00:00', '2024-02-07 05:30:00', '2024-02-07 04:30:00', '2024-02-07 04:00:00', '2024-02-07 03:53:00', '2024-02-07 03:00:00', '2024-02-07 02:31:00', '2024-02-07 02:00:00', '2024-02-07 01:30:00', '2024-02-07 01:00:00', '2024-02-07 00:00:00', '2024-02-06 15:00:00', '2024-02-06 14:30:00', '2024-02-06 14:00:00', '2024-02-06 13:30:00', '2024-02-06 13:00:00', '2024-02-06 12:30:00', '2024-02-06 12:00:00', '2024-02-06 11:30:00', '2024-02-06 11:00:00', '2024-02-06 10:00:00', '2024-02-06 09:30:00', '2024-02-06 09:00:00', '2024-02-06 08:00:00', '2024-02-06 07:30:00', '2024-02-06 07:00:00', '2024-02-06 06:30:00', '2024-02-06 06:00:00', '2024-02-06 05:00:00', '2024-02-06 04:00:00', '2024-02-06 03:30:00', '2024-02-06 03:00:00', '2024-02-06 02:00:00', '2024-02-06 01:30:00', '2024-02-06 01:00:00', '2024-02-06 00:00:00']"
India, Agatti Airport (AGX/VOAT) ,"['VOAT 080830Z 34009KT 5000 HZ FEW015 31/25 Q1013 NOSIG', 'VOAT 080700Z 36007KT 5000 HZ FEW015 31/25 Q1014 NOSIG', 'VOAT 080630Z 36006KT 5000 HZ FEW015 30/25 Q1014 NOSIG', 'VOAT 080600Z 01006KT 5000 HZ FEW015 30/25 Q1015 NOSIG', 'VOAT 080500Z 36005KT 5000 HZ FEW015 29/25 Q1015 NOSIG', 'VOAT 080430Z 36005KT 5000 HZ FEW015 29/24 Q1015 NOSIG', 'VOAT 080400Z 04004KT 5000 HZ FEW015 29/25 Q1015 NOSIG', 'VOAT 080300Z 02004KT 5000 HZ FEW015 29/25 Q1014 NOSIG', 'VOAT 080230Z 06006KT 5000 HZ FEW015 28/25 Q1014 NOSIG', 'VOAT 070830Z 35010KT 6000 FEW015 31/25 Q1014 NOSIG', 'VOAT 070730Z 35010KT 6000 FEW015 31/24 Q1015 NOSIG', 'VOAT 070700Z 36009KT 6000 FEW015 31/25 Q1015 NOSIG', 'VOAT 070630Z 33009KT 5000 HZ FEW015 30/25 Q1016 NOSIG', 'VOAT 070600Z 33009KT 5000 HZ FEW015 SCT080 30/25 Q1016 NOSIG', 'VOAT 070530Z 34009KT 5000 HZ FEW015 SCT080 30/24 Q1017 NOSIG', 'VOAT 070500Z 35008KT 5000 HZ FEW015 SCT080 30/24 Q1017 NOSIG', 'VOAT 070430Z 34007KT 5000 HZ FEW015 SCT080 29/24 Q1017 NOSIG', 'VOAT 070400Z 34009KT 5000 HZ FEW015 SCT080 29/24 Q1017 NOSIG', 'VOAT 070300Z 35008KT 5000 HZ FEW015 SCT080 29/24 Q1016 NOSIG', 'VOAT 060800Z 04007KT 5000 HZ FEW015 31/24 Q1013 NOSIG', 'VOAT 060700Z 04007KT 5000 HZ FEW015 SCT080 31/25 Q1014 NOSIG', 'VOAT 060600Z 03008KT 5000 HZ FEW015 SCT080 30/24 Q1015 NOSIG', 'VOAT 060530Z 03008KT 5000 HZ FEW015 SCT080 30/24 Q1016 NOSIG', 'VOAT 060430Z 03007KT 5000 HZ FEW015 SCT080 29/25 Q1016 NOSIG', 'VOAT 060330Z 01008KT 5000 HZ FEW015 SCT080 29/24 Q1016 NOSIG', 'VOAT 060300Z 01009KT 5000 HZ FEW015 SCT080 28/24 Q1015 NOSIG']","['2024-02-08 08:30:00', '2024-02-08 07:00:00', '2024-02-08 06:30:00', '2024-02-08 06:00:00', '2024-02-08 05:00:00', '2024-02-08 04:30:00', '2024-02-08 04:00:00', '2024-02-08 03:00:00', '2024-02-08 02:30:00', '2024-02-07 08:30:00', '2024-02-07 07:30:00', '2024-02-07 07:00:00', '2024-02-07 06:30:00', '2024-02-07 06:00:00', '2024-02-07 05:30:00', '2024-02-07 05:00:00', '2024-02-07 04:30:00', '2024-02-07 04:00:00', '2024-02-07 03:00:00', '2024-02-06 08:00:00', '2024-02-06 07:00:00', '2024-02-06 06:00:00', '2024-02-06 05:30:00', '2024-02-06 04:30:00', '2024-02-06 03:30:00', '2024-02-06 03:00:00']"
India, Agra Airport (AGR/VIAG) ,"['VIAG 081800Z VRB01KT 6000 SKC 09/06 Q1017 NOSIG', 'VIAG 081730Z VRB02KT 6000 SKC 10/06 Q1017 NOSIG', 'VIAG 081500Z 23003KT 6000 SKC 13/07 Q1017 NOSIG', 'VIAG 081330Z 25003KT 6000 FEW120 17/05 Q1017 NOSIG', 'VIAG 081200Z 27006KT 6000 FEW120 21/01 Q1016 NOSIG', 'VIAG 081130Z 27008KT 6000 FEW120 21/01 Q1016 TEMPO 27015G25KT', 'VIAG 081100Z 26010KT 6000 FEW120 21/01 Q1016 TEMPO 27015G25KT', 'VIAG 081030Z 28012KT 6000 FEW120 SCT250 22/02 Q1017 TEMPO 27015G25KT', 'VIAG 080930Z 28012KT 6000 FEW120 SCT250 22/01 Q1017 TEMPO 27015G25KT', 'VIAG 080730Z 28010G20KT 6000 FEW120 21/06 Q1019 TEMPO 29015G25KT', 'VIAG 080700Z 28009G19KT 6000 FEW120 21/07 Q1019 TEMPO 29015G25KT', 'VIAG 080630Z 28011G21KT 6000 FEW120 20/08 Q1020 TEMPO 29015G25KT', 'VIAG 080600Z 29009G19KT 6000 FEW250 19/07 Q1021 TEMPO 29015G25KT', 'VIAG 080530Z 28009KT 6000 FEW250 18/08 Q1021 NOSIG', 'VIAG 080500Z 28009KT 6000 FEW250 17/08 Q1021 NOSIG', 'VIAG 080430Z 28008KT 5000 HZ FEW250 15/08 Q1021 NOSIG', 'VIAG 080400Z 27008KT 5000 HZ FEW250 14/07 Q1021 NOSIG', 'VIAG 080330Z 27006KT 5000 HZ FEW250 12/07 Q1021 NOSIG', 'VIAG 080300Z 27004KT 4000 BR FEW250 10/06 Q1020 BECMG 5000', 'VIAG 080230Z VRB02KT 4000 BR FEW250 08/05 Q1019 NOSIG', 'VIAG 080200Z 21003KT 3500 BR FEW250 07/05 Q1019 NOSIG', 'VIAG 072100Z 25003KT 3500 BR SCT250 10/07 Q1019 NOSIG', 'VIAG 071430Z 29005KT 6000 SCT100 SCT250 16/08 Q1020 NOSIG', 'VIAG 071400Z 30005KT 6000 SCT100 SCT250 17/08 Q1020 NOSIG', 'VIAG 071230Z 32009KT 6000 FEW100 BKN250 19/04 Q1019 NOSIG', 'VIAG 071030Z 29010KT 6000 FEW100 BKN250 21/04 Q1018 NOSIG', 'VIAG 071000Z 28007G17KT 6000 FEW100 BKN250 21/03 Q1018 NOSIG', 'VIAG 070800Z 27008KT 6000 FEW100 BKN250 21/08 Q1020 NOSIG', 'VIAG 070730Z 28009KT 6000 FEW100 SCT250 20/08 Q1020 NOSIG', 'VIAG 070700Z 28007KT 6000 SCT100 SCT250 20/07 Q1021 NOSIG', 'VIAG 070500Z 28004KT 4000 HZ FEW030 BKN100 16/08 Q1022 BECMG 5000', 'VIAG 070430Z 28004KT 3500 HZ FEW030 BKN100 14/08 Q1021 BECMG 5000', 'VIAG 070330Z 23003KT 3000 HZ FEW030 BKN100 13/08 Q1021 NOSIG', 'VIAG 070100Z 30003KT 2500 BR SCT100 BKN250 11/08 Q1019 NOSIG', 'VIAG 062330Z 32003KT 2500 BR SCT100 SCT250 10/08 Q1019 NOSIG', 'VIAG 062130Z VRB02KT 2500 BR FEW090 SCT250 09/08 Q1019 NOSIG', 'VIAG 061530Z 00000KT 5000 BR SCT250 13/09 Q1020 NOSIG', 'VIAG 061430Z VRB01KT 6000 SCT250 13/09 Q1020 NOSIG', 'VIAG 061400Z 00000KT 6000 SCT250 15/09 Q1019 NOSIG', 'VIAG 061330Z 00000KT 6000 SCT250 17/08 Q1019 NOSIG', 'VIAG 061300Z VRB01KT 6000 SCT250 18/08 Q1019 NOSIG', 'VIAG 061230Z 33003KT 6000 SCT250 18/06 Q1019 NOSIG', 'VIAG 061200Z 29005KT 6000 SCT250 19/06 Q1018 NOSIG', 'VIAG 061130Z 32008KT 6000 SCT250 20/04 Q1018 NOSIG', 'VIAG 061100Z 29009KT 6000 BKN250 21/05 Q1018 NOSIG', 'VIAG 061030Z 31007KT 8000 SCT250 21/05 Q1018 NOSIG', 'VIAG 061000Z 30008KT 8000 SCT250 21/04 Q1018 NOSIG', 'VIAG 060900Z 34008KT 8000 SCT250 20/05 Q1019 NOSIG', 'VIAG 060800Z 34005KT 4500 FEW250 19/09 Q1020 BECMG 5000', 'VIAG 060730Z 30004KT 4000 HZ FEW250 18/09 Q1020 NOSIG']","['2024-02-08 18:00:00', '2024-02-08 17:30:00', '2024-02-08 15:00:00', '2024-02-08 13:30:00', '2024-02-08 12:00:00', '2024-02-08 11:30:00', '2024-02-08 11:00:00', '2024-02-08 10:30:00', '2024-02-08 09:30:00', '2024-02-08 07:30:00', '2024-02-08 07:00:00', '2024-02-08 06:30:00', '2024-02-08 06:00:00', '2024-02-08 05:30:00', '2024-02-08 05:00:00', '2024-02-08 04:30:00', '2024-02-08 04:00:00', '2024-02-08 03:30:00', '2024-02-08 03:00:00', '2024-02-08 02:30:00', '2024-02-08 02:00:00', '2024-02-07 21:00:00', '2024-02-07 14:30:00', '2024-02-07 14:00:00', '2024-02-07 12:30:00', '2024-02-07 10:30:00', '2024-02-07 10:00:00', '2024-02-07 08:00:00', '2024-02-07 07:30:00', '2024-02-07 07:00:00', '2024-02-07 05:00:00', '2024-02-07 04:30:00', '2024-02-07 03:30:00', '2024-02-07 01:00:00', '2024-02-06 23:30:00', '2024-02-06 21:30:00', '2024-02-06 15:30:00', '2024-02-06 14:30:00', '2024-02-06 14:00:00', '2024-02-06 13:30:00', '2024-02-06 13:00:00', '2024-02-06 12:30:00', '2024-02-06 12:00:00', '2024-02-06 11:30:00', '2024-02-06 11:00:00', '2024-02-06 10:30:00', '2024-02-06 10:00:00', '2024-02-06 09:00:00', '2024-02-06 08:00:00', '2024-02-06 07:30:00']"
India, Ahmedabad International Airport (AMD/VAAH) ,"['VAAH 082030Z 00000KT 4000 HZ NSC 17/10 Q1016 NOSIG', 'VAAH 081930Z 00000KT 4000 HZ NSC 18/10 Q1017 NOSIG', 'VAAH 081900Z 00000KT 4000 HZ NSC 19/09 Q1017 NOSIG', 'VAAH 081800Z 00000KT 4000 HZ NSC 19/11 Q1017 NOSIG', 'VAAH 081700Z 00000KT 4000 HZ NSC 18/12 Q1017 NOSIG', 'VAAH 081630Z 00000KT 4000 FU NSC 20/09 Q1017 NOSIG', 'VAAH 081600Z 00000KT 4000 FU NSC 20/09 Q1017 NOSIG', 'VAAH 081530Z 00000KT 4000 FU NSC 20/09 Q1017 NOSIG', 'VAAH 081500Z 35003KT 4000 FU NSC 21/08 Q1017 NOSIG', 'VAAH 081430Z 01003KT 4000 FU NSC 22/07 Q1017 NOSIG', 'VAAH 081400Z 00000KT 4000 FU NSC 22/09 Q1016 NOSIG', 'VAAH 081330Z 36004KT 4000 FU NSC 23/08 Q1016 NOSIG', 'VAAH 081300Z 04003KT 4500 FU NSC 24/07 Q1016 BECMG 4000', 'VAAH 081230Z 05008KT 5000 FU NSC 25/07 Q1016 BECMG 4000', 'VAAH 081200Z 07007KT 5000 FU NSC 25/07 Q1016 NOSIG', 'VAAH 081130Z 08007KT 6000 NSC 25/07 Q1016 BECMG 5000 FU', 'VAAH 081100Z 04005G15KT 6000 NSC 26/07 Q1016 NOSIG', 'VAAH 081030Z 04013KT 6000 NSC 26/07 Q1016 NOSIG', 'VAAH 081000Z 02010KT 6000 FEW080 26/07 Q1016 NOSIG', 'VAAH 080900Z 07007G17KT 6000 FEW080 25/07 Q1018 NOSIG', 'VAAH 080830Z 07010KT 5000 FU FEW080 26/07 Q1018 BECMG 6000', 'VAAH 080800Z 04010KT 5000 FU FEW080 25/07 Q1019 NOSIG', 'VAAH 080700Z 05012KT 5000 FU FEW080 24/05 Q1021 NOSIG', 'VAAH 080630Z 06012KT 5000 FU FEW080 23/05 Q1021 NOSIG', 'VAAH 080600Z 06013KT 5000 FU FEW080 23/05 Q1022 NOSIG', 'VAAH 080500Z 04016KT 5000 FU FEW080 21/05 Q1022 NOSIG', 'VAAH 080430Z 04015KT 5000 FU FEW080 21/06 Q1022 NOSIG', 'VAAH 080400Z 04013KT 4000 FU SCT080 20/06 Q1022 BECMG 5000', 'VAAH 080330Z 05014KT 3500 FU SCT080 19/06 Q1021 BECMG 5000', 'VAAH 080300Z 04014KT 3500 FU FEW080 19/07 Q1021 NOSIG', 'VAAH 080230Z 03010KT 3500 FU SCT080 18/08 Q1021 NOSIG', 'VAAH 080130Z 04011KT 4000 FU FEW080 19/09 Q1019 TEMPO 3000', 'VAAH 080100Z 03009KT 4000 FU SCT080 19/10 Q1019 TEMPO 3000', 'VAAH 080030Z 03007KT 4000 FU SCT080 19/10 Q1018 NOSIG', 'VAAH 072330Z 02009KT 4000 FU SCT080 19/11 Q1017 NOSIG', 'VAAH 072300Z 01008KT 4000 FU SCT080 20/11 Q1017 NOSIG', 'VAAH 072200Z 01008KT 4000 FU FEW080 20/11 Q1017 NOSIG', 'VAAH 072130Z 01008KT 4000 FU FEW080 20/11 Q1017 NOSIG', 'VAAH 072100Z 01008KT 4000 FU FEW080 20/11 Q1018 NOSIG', 'VAAH 072030Z 36007KT 4000 FU FEW080 20/10 Q1018 NOSIG', 'VAAH 072000Z 36006KT 4000 FU FEW080 21/10 Q1018 NOSIG', 'VAAH 071930Z 36007KT 4000 FU FEW080 21/11 Q1018 NOSIG', 'VAAH 071900Z 01004KT 4000 FU FEW080 20/12 Q1019 NOSIG', 'VAAH 071830Z 34004KT 4000 FU FEW080 21/12 Q1019 NOSIG', 'VAAH 071800Z 35003KT 4000 FU NSC 21/12 Q1019 NOSIG', 'VAAH 071730Z 31003KT 4000 FU NSC 21/12 Q1019 NOSIG', 'VAAH 071700Z 31003KT 4000 FU NSC 22/12 Q1019 NOSIG', 'VAAH 071630Z 28003KT 4000 FU NSC 22/12 Q1019 NOSIG', 'VAAH 071600Z 30003KT 4000 FU NSC 22/12 Q1019 NOSIG', 'VAAH 071500Z 30004KT 4000 FU NSC 23/13 Q1019 NOSIG', 'VAAH 071430Z 31003KT 4000 FU NSC 23/13 Q1018 NOSIG', 'VAAH 071330Z 33006KT 5000 FU FEW080 24/13 Q1017 NOSIG', 'VAAH 071230Z 33006KT 5000 FU FEW080 26/11 Q1017 NOSIG', 'VAAH 071130Z 34009KT 5000 FU FEW080 27/12 Q1016 NOSIG', 'VAAH 071100Z 31006KT 5000 FU FEW080 28/12 Q1016 NOSIG', 'VAAH 071000Z 30007KT 5000 FU FEW080 28/12 Q1016 NOSIG', 'VAAH 070930Z 35006KT 5000 FU FEW080 28/12 Q1017 NOSIG', 'VAAH 070830Z 31008KT 5000 FU FEW080 28/12 Q1018 NOSIG', 'VAAH 070800Z 34006KT 5000 FU FEW080 27/12 Q1018 NOSIG', 'VAAH 070730Z 01005KT 5000 FU FEW080 27/13 Q1019 NOSIG', 'VAAH 070630Z 02004KT 5000 FU FEW080 26/14 Q1020 NOSIG', 'VAAH 070600Z 07004KT 4000 FU FEW080 25/14 Q1020 BECMG 5000', 'VAAH 070530Z 07003KT 4000 FU FEW080 24/14 Q1021 NOSIG', 'VAAH 070500Z 06004KT 4000 FU FEW080 23/14 Q1021 NOSIG', 'VAAH 070400Z 05006KT 3000 HZ SCT080 21/13 Q1020 NOSIG', 'VAAH 070330Z 06006KT 3000 HZ FEW080 21/13 Q1019 NOSIG', 'VAAH 070300Z 06003KT 2000 HZ FEW080 20/14 Q1018 BECMG 3000', 'VAAH 070200Z 04004KT 2000 HZ SCT080 19/14 Q1018 TEMPO 1500', 'VAAH 070130Z 05004KT 3000 HZ NSC 19/14 Q1017 TEMPO 2000', 'VAAH 070100Z 06004KT 4000 HZ NSC 19/14 Q1017 TEMPO 3000', 'VAAH 070030Z 02002KT 4000 BR NSC 18/14 Q1016 NOSIG', 'VAAH 070000Z 02002KT 4000 BR NSC 18/15 Q1016 NOSIG', 'VAAH 062330Z 00000KT 4000 BR NSC 20/14 Q1016 NOSIG', 'VAAH 062300Z 05003KT 4000 HZ NSC 20/14 Q1016 NOSIG', 'VAAH 062200Z 00000KT 4000 HZ NSC 19/15 Q1016 NOSIG', 'VAAH 062100Z 00000KT 4000 HZ NSC 20/14 Q1016 NOSIG', 'VAAH 062030Z 00000KT 4000 HZ NSC 20/14 Q1016 NOSIG', 'VAAH 061930Z 04002KT 4000 HZ NSC 21/15 Q1017 NOSIG', 'VAAH 061830Z 02002KT 4000 HZ NSC 21/15 Q1017 NOSIG', 'VAAH 061800Z VRB02KT 4000 HZ NSC 22/15 Q1017 NOSIG', 'VAAH 061730Z 00000KT 4000 HZ FEW090 22/15 Q1017 NOSIG', 'VAAH 061630Z 03004KT 4000 FU NSC 23/14 Q1017 NOSIG', 'VAAH 061600Z 04003KT 4000 FU NSC 23/14 Q1017 NOSIG', 'VAAH 061500Z 03002KT 4000 FU NSC 24/15 Q1017 NOSIG', 'VAAH 061430Z 35003KT 4000 FU NSC 25/14 Q1016 NOSIG', 'VAAH 061400Z 35003KT 4000 FU NSC 25/14 Q1016 NOSIG', 'VAAH 061330Z 32004KT 4000 FU NSC 26/14 Q1015 NOSIG', 'VAAH 061230Z 31004KT 5000 FU NSC 27/13 Q1015 BECMG 4000', 'VAAH 061200Z 33003KT 6000 NSC 28/13 Q1014 BECMG 5000', 'VAAH 061130Z 31004KT 6000 FEW080 28/13 Q1014 NOSIG', 'VAAH 061100Z 33003KT 6000 FEW080 28/13 Q1014 NOSIG', 'VAAH 061030Z 32005KT 6000 FEW080 28/14 Q1014 NOSIG', 'VAAH 061000Z 31003KT 6000 FEW080 28/13 Q1014 NOSIG', 'VAAH 060900Z 33004KT 6000 FEW080 28/14 Q1015 NOSIG', 'VAAH 060800Z 31003KT 6000 NSC 27/13 Q1016 NOSIG', 'VAAH 060730Z 22003KT 6000 NSC 27/14 Q1017 NOSIG', 'VAAH 060700Z 02004KT 5000 FU NSC 27/14 Q1018 NOSIG', 'VAAH 060600Z 01005KT 5000 FU NSC 26/13 Q1019 NOSIG', 'VAAH 060530Z 35005KT 5000 FU NSC 25/14 Q1019 NOSIG', 'VAAH 060500Z 07003KT 4000 FU NSC 25/14 Q1019 BECMG 5000', 'VAAH 060430Z 02003KT 4000 FU NSC 24/14 Q1019 NOSIG', 'VAAH 060400Z 09002KT 3000 FU NSC 23/14 Q1018 BECMG 4000', 'VAAH 060330Z 00000KT 3000 HZ FEW080 22/15 Q1018 BECMG 4000', 'VAAH 060300Z 02002KT 2500 BR FEW080 20/16 Q1018 NOSIG', 'VAAH 060230Z 00000KT 2500 BR FEW080 19/17 Q1017 TEMPO 2000', 'VAAH 060200Z 00000KT 3000 HZ FEW080 19/15 Q1017 TEMPO 2000', 'VAAH 060100Z 00000KT 4000 HZ FEW020 SCT080 19/16 Q1016 TEMPO 3000', 'VAAH 060030Z 33004KT 4000 HZ FEW020 SCT080 19/16 Q1015 NOSIG', 'VAAH 052330Z 00000KT 4000 HZ NSC 18/14 Q1015 NOSIG', 'VAAH 052300Z 00000KT 4000 HZ NSC 19/14 Q1015 NOSIG', 'VAAH 052230Z 00000KT 4000 HZ NSC 19/15 Q1015 NOSIG', 'VAAH 052200Z 00000KT 4000 FU NSC 19/15 Q1015 NOSIG']","['2024-02-08 20:30:00', '2024-02-08 19:30:00', '2024-02-08 19:00:00', '2024-02-08 18:00:00', '2024-02-08 17:00:00', '2024-02-08 16:30:00', '2024-02-08 16:00:00', '2024-02-08 15:30:00', '2024-02-08 15:00:00', '2024-02-08 14:30:00', '2024-02-08 14:00:00', '2024-02-08 13:30:00', '2024-02-08 13:00:00', '2024-02-08 12:30:00', '2024-02-08 12:00:00', '2024-02-08 11:30:00', '2024-02-08 11:00:00', '2024-02-08 10:30:00', '2024-02-08 10:00:00', '2024-02-08 09:00:00', '2024-02-08 08:30:00', '2024-02-08 08:00:00', '2024-02-08 07:00:00', '2024-02-08 06:30:00', '2024-02-08 06:00:00', '2024-02-08 05:00:00', '2024-02-08 04:30:00', '2024-02-08 04:00:00', '2024-02-08 03:30:00', '2024-02-08 03:00:00', '2024-02-08 02:30:00', '2024-02-08 01:30:00', '2024-02-08 01:00:00', '2024-02-08 00:30:00', '2024-02-07 23:30:00', '2024-02-07 23:00:00', '2024-02-07 22:00:00', '2024-02-07 21:30:00', '2024-02-07 21:00:00', '2024-02-07 20:30:00', '2024-02-07 20:00:00', '2024-02-07 19:30:00', '2024-02-07 19:00:00', '2024-02-07 18:30:00', '2024-02-07 18:00:00', '2024-02-07 17:30:00', '2024-02-07 17:00:00', '2024-02-07 16:30:00', '2024-02-07 16:00:00', '2024-02-07 15:00:00', '2024-02-07 14:30:00', '2024-02-07 13:30:00', '2024-02-07 12:30:00', '2024-02-07 11:30:00', '2024-02-07 11:00:00', '2024-02-07 10:00:00', '2024-02-07 09:30:00', '2024-02-07 08:30:00', '2024-02-07 08:00:00', '2024-02-07 07:30:00', '2024-02-07 06:30:00', '2024-02-07 06:00:00', '2024-02-07 05:30:00', '2024-02-07 05:00:00', '2024-02-07 04:00:00', '2024-02-07 03:30:00', '2024-02-07 03:00:00', '2024-02-07 02:00:00', '2024-02-07 01:30:00', '2024-02-07 01:00:00', '2024-02-07 00:30:00', '2024-02-07 00:00:00', '2024-02-06 23:30:00', '2024-02-06 23:00:00', '2024-02-06 22:00:00', '2024-02-06 21:00:00', '2024-02-06 20:30:00', '2024-02-06 19:30:00', '2024-02-06 18:30:00', '2024-02-06 18:00:00', '2024-02-06 17:30:00', '2024-02-06 16:30:00', '2024-02-06 16:00:00', '2024-02-06 15:00:00', '2024-02-06 14:30:00', '2024-02-06 14:00:00', '2024-02-06 13:30:00', '2024-02-06 12:30:00', '2024-02-06 12:00:00', '2024-02-06 11:30:00', '2024-02-06 11:00:00', '2024-02-06 10:30:00', '2024-02-06 10:00:00', '2024-02-06 09:00:00', '2024-02-06 08:00:00', '2024-02-06 07:30:00', '2024-02-06 07:00:00', '2024-02-06 06:00:00', '2024-02-06 05:30:00', '2024-02-06 05:00:00', '2024-02-06 04:30:00', '2024-02-06 04:00:00', '2024-02-06 03:30:00', '2024-02-06 03:00:00', '2024-02-06 02:30:00', '2024-02-06 02:00:00', '2024-02-06 01:00:00', '2024-02-06 00:30:00', '2024-02-05 23:30:00', '2024-02-05 23:00:00', '2024-02-05 22:30:00', '2024-02-05 22:00:00']"
India, Aizawl Lengpui Airport (AJL/VELP) ,"['VELP 080900Z 24006KT 5000 HZ NSC 25/09 Q1015 NOSIG', 'VELP 080800Z 20007KT 5000 HZ NSC 24/07 Q1016 NOSIG', 'VELP 080430Z 06002KT 3000 HZ NSC 20/15 Q1018 NOSIG', 'VELP 080330Z 09003KT 1200 BR NSC 19/15 Q1018 BECMG 1500 BR', 'VELP 080300Z 03005KT 1200 BR NSC 17/14 Q1018 NOSIG', 'VELP 080200Z 00000KT 0800 MIFG NSC 16/13 Q1017 BECMG 1500 BR', 'VELP 080130Z 34003KT 0800 MIFG NSC 15/12 Q1017 NOSIG', 'VELP 080100Z 34003KT 0800 MIFG NSC 13/11 Q1016 NOSIG', 'VELP 071100Z 06003KT 2000 HZ FEW018 22/14 Q1015 NOSIG', 'VELP 071030Z 32002KT 2000 HZ FEW018 FEW100 22/15 Q1015 NOSIG', 'VELP 070930Z 32002KT 2000 HZ FEW018 SCT100 24/14 Q1015 NOSIG', 'VELP 070900Z 07002KT 2000 HZ FEW018 SCT100 25/13 Q1016 NOSIG', 'VELP 070830Z 30003KT 2000 HZ FEW018 SCT100 25/14 Q1016 NOSIG', 'VELP 070730Z 13005KT 1700 HZ SCT018 BKN100 24/14 Q1017 BECMG 3000 HZ', 'VELP 070700Z 03006KT 1700 HZ SCT018 BKN100 24/14 Q1017 NOSIG', 'VELP 070630Z 03006KT 1700 HZ SCT018 BKN100 23/16 Q1018 NOSIG', 'VELP 070600Z 02004KT 1700 HZ SCT018 BKN100 23/16 Q1018 NOSIG', 'VELP 070530Z 00000KT 1200 BR SCT018 BKN100 22/17 Q1019 NOSIG', 'VELP 070430Z 00000KT 0900 MIFG SCT018 BKN100 21/16 Q1019 BECMG 1500 BR', 'VELP 070330Z 00000KT 0900 MIFG SCT018 BKN100 20/16 Q1019 NOSIG', 'VELP 070230Z 00000KT 0900 MIFG SCT018 BKN100 18/16 Q1018 NOSIG', 'VELP 070130Z 34002KT 0900 MIFG SCT018 SCT100 18/14 Q1018 NOSIG', 'VELP 070030Z 34002KT 0900 MIFG SCT018 SCT100 16/15 Q1017 NOSIG', 'VELP 061200Z 20005KT 1700 BR SCT018 BKN100 21/16 Q1016 NOSIG', 'VELP 061100Z 20006KT 1700 HZ SCT018 BKN100 22/14 Q1016 NOSIG', 'VELP 061030Z 20006KT 1700 HZ SCT018 BKN100 23/14 Q1016 NOSIG', 'VELP 061000Z 22007KT 1700 HZ SCT018 BKN100 23/14 Q1016 NOSIG', 'VELP 060930Z 22007KT 1700 HZ SCT018 BKN100 24/13 Q1016 NOSIG', 'VELP 060900Z 22006KT 1700 HZ SCT018 BKN100 24/13 Q1016 NOSIG', 'VELP 060830Z 22007KT 1700 HZ SCT018 BKN100 24/13 Q1016 NOSIG', 'VELP 060800Z 23007KT 1700 HZ SCT018 BKN100 24/13 Q1016 NOSIG', 'VELP 060730Z 23008KT 1700 HZ SCT018 BKN100 24/14 Q1017 NOSIG', 'VELP 060700Z 23007KT 2500 HZ SCT018 BKN100 24/14 Q1017 BECMG 1500 HZ', 'VELP 060630Z 02007KT 2500 HZ SCT018 SCT100 25/13 Q1017 NOSIG', 'VELP 060600Z 16006KT 2500 HZ FEW018 SCT100 25/13 Q1018 NOSIG', 'VELP 060530Z 16005KT 2500 HZ SCT018 SCT100 24/13 Q1018 NOSIG', 'VELP 060430Z 16005KT 2500 HZ SCT018 SCT100 22/12 Q1019 NOSIG', 'VELP 060358Z 17006KT 2500 HZ SCT018 SCT100 22/12 Q1019 NOSIG', 'VELP 060300Z 02004KT 2500 HZ SCT018 SCT100 19/13 Q1019 NOSIG', 'VELP 060230Z 02004KT 2000 BR SCT018 SCT100 17/13 Q1019 BECMG 3000 BR-HZ', 'VELP 060200Z 34003KT 1500 BR SCT018 SCT100 16/13 Q1019 BECMG 3000 BR', 'VELP 060100Z 34004KT 1500 BR SCT018 SCT100 15/12 Q1018 NOSIG']","['2024-02-08 09:00:00', '2024-02-08 08:00:00', '2024-02-08 04:30:00', '2024-02-08 03:30:00', '2024-02-08 03:00:00', '2024-02-08 02:00:00', '2024-02-08 01:30:00', '2024-02-08 01:00:00', '2024-02-07 11:00:00', '2024-02-07 10:30:00', '2024-02-07 09:30:00', '2024-02-07 09:00:00', '2024-02-07 08:30:00', '2024-02-07 07:30:00', '2024-02-07 07:00:00', '2024-02-07 06:30:00', '2024-02-07 06:00:00', '2024-02-07 05:30:00', '2024-02-07 04:30:00', '2024-02-07 03:30:00', '2024-02-07 02:30:00', '2024-02-07 01:30:00', '2024-02-07 00:30:00', '2024-02-06 12:00:00', '2024-02-06 11:00:00', '2024-02-06 10:30:00', '2024-02-06 10:00:00', '2024-02-06 09:30:00', '2024-02-06 09:00:00', '2024-02-06 08:30:00', '2024-02-06 08:00:00', '2024-02-06 07:30:00', '2024-02-06 07:00:00', '2024-02-06 06:30:00', '2024-02-06 06:00:00', '2024-02-06 05:30:00', '2024-02-06 04:30:00', '2024-02-06 03:58:00', '2024-02-06 03:00:00', '2024-02-06 02:30:00', '2024-02-06 02:00:00', '2024-02-06 01:00:00']"
India, Allahabad Airport (IXD/VEAB) ,"['VEAB 081230Z VRB02KT 6000 FEW250 17/09 Q1016 NOSIG', 'VEAB 081130Z 29010KT 8000 FEW250 20/07 Q1016 NOSIG', 'VEAB 081030Z 30013KT 8000 FEW250 20/07 Q1016 NOSIG', 'VEAB 080900Z 29010KT 8000 SCT250 21/07 Q1017 NOSIG', 'VEAB 080730Z 31011KT 8000 SCT250 21/07 Q1019 TEMPO 32015G25KT', 'VEAB 080700Z 30012KT 8000 SCT250 20/07 Q1019 TEMPO 32015G25KT', 'VEAB 080630Z 32011KT 8000 FEW100 SCT250 19/06 Q1020 NOSIG', 'VEAB 080600Z 32011KT 8000 FEW100 SCT250 19/07 Q1020 NOSIG', 'VEAB 080500Z 31010KT 6000 FEW100 SCT250 17/08 Q1021 NOSIG', 'VEAB 080430Z 32008KT 5000 HZ FEW100 SCT250 16/09 Q1021 NOSIG', 'VEAB 080400Z 32008KT 4500 HZ FEW100 SCT250 15/10 Q1021 BECMG 5000', 'VEAB 080330Z 31008KT 4000 BR FEW100 SCT250 14/10 Q1021 BECMG 5000', 'VEAB 080300Z 29010KT 4000 BR FEW100 SCT250 13/11 Q1020 BECMG 5000', 'VEAB 080230Z 30006KT 3500 BR FEW100 SCT250 12/10 Q1020 BECMG 4000', 'VEAB 080200Z 30006KT 3000 BR FEW100 SCT250 11/10 Q1019 NOSIG', 'VEAB 080130Z 30005KT 2500 BR FEW100 SCT250 10/10 Q1019 BECMG 3000', 'VEAB 080100Z 30005KT 2500 BR SCT100 11/10 Q1018 BECMG 2000', 'VEAB 071430Z 29003KT 6000 SCT100 15/11 Q1019 NOSIG', 'VEAB 071300Z 29004KT 6000 BKN090 17/11 Q1018 NOSIG', 'VEAB 071130Z 30007KT 8000 SCT090 20/10 Q1017 NOSIG', 'VEAB 071100Z 31008KT 8000 SCT090 21/10 Q1018 NOSIG', 'VEAB 071000Z 29010KT 8000 SCT090 22/08 Q1018 NOSIG', 'VEAB 070730Z 31009KT 6000 FEW250 21/08 Q1019 NOSIG', 'VEAB 070700Z 30009KT 6000 FEW250 21/08 Q1019 NOSIG', 'VEAB 070630Z 31008KT 6000 FEW250 20/08 Q1020 NOSIG', 'VEAB 070530Z 33008KT 4500 HZ FEW100 SCT250 19/11 Q1021 BECMG 5000', 'VEAB 070430Z 33006KT 3500 HZ FEW100 SCT250 17/11 Q1021 BECMG 4000', 'VEAB 070400Z 32005KT 3000 BR SCT250 16/12 Q1021 BECMG 4000', 'VEAB 070300Z 27004KT 2200 BR FEW250 13/13 Q1021 BECMG 3000', 'VEAB 070130Z VRB02KT 1500 R30/1600 BR FEW025 10/10 Q1020 NOSIG', 'VEAB 070100Z 28003KT 2000 R30/1700 BR FEW250 10/10 Q1020 NOSIG', 'VEAB 070030Z VRB01KT 2000 R30/1700 BR SKC 10/10 Q1019 NOSIG', 'VEAB 062330Z 00000KT 1800 R30/1800 BR SKC 10/10 Q1018 NOSIG', 'VEAB 061830Z 33003KT 2200 BR SKC 13/13 Q1020 NOSIG', 'VEAB 061730Z VRB02KT 2500 BR SKC 13/13 Q1020 NOSIG', 'VEAB 061400Z 33003KT 5000 BR FEW100 17/17 Q1019 NOSIG', 'VEAB 061330Z 32003KT 5000 BR SCT100 17/17 Q1019 NOSIG', 'VEAB 061230Z 33004KT 6000 FEW030 SCT100 18/16 Q1018 BECMG 5000', 'VEAB 061200Z 32005KT 6000 FEW030 BKN090 19/15 Q1018 NOSIG', 'VEAB 061130Z 29006KT 6000 SCT030 BKN090 20/15 Q1018 NOSIG', 'VEAB 061100Z 32006KT 6000 SCT030 BKN090 20/15 Q1018 NOSIG', 'VEAB 061030Z 33006KT 6000 SCT030 BKN090 21/14 Q1017 NOSIG', 'VEAB 061000Z 31007KT 6000 SCT030 BKN090 21/14 Q1018 TEMPO -RA', 'VEAB 060900Z 36009KT 6000 SCT030 BKN090 21/15 Q1018 TEMPO -RA', 'VEAB 060830Z 34009KT 6000 SCT025 BKN090 22/14 Q1018 TEMPO -RA', 'VEAB 060730Z 32006KT 4000 BR SCT025 BKN090 21/18 Q1019 NOSIG']","['2024-02-08 12:30:00', '2024-02-08 11:30:00', '2024-02-08 10:30:00', '2024-02-08 09:00:00', '2024-02-08 07:30:00', '2024-02-08 07:00:00', '2024-02-08 06:30:00', '2024-02-08 06:00:00', '2024-02-08 05:00:00', '2024-02-08 04:30:00', '2024-02-08 04:00:00', '2024-02-08 03:30:00', '2024-02-08 03:00:00', '2024-02-08 02:30:00', '2024-02-08 02:00:00', '2024-02-08 01:30:00', '2024-02-08 01:00:00', '2024-02-07 14:30:00', '2024-02-07 13:00:00', '2024-02-07 11:30:00', '2024-02-07 11:00:00', '2024-02-07 10:00:00', '2024-02-07 07:30:00', '2024-02-07 07:00:00', '2024-02-07 06:30:00', '2024-02-07 05:30:00', '2024-02-07 04:30:00', '2024-02-07 04:00:00', '2024-02-07 03:00:00', '2024-02-07 01:30:00', '2024-02-07 01:00:00', '2024-02-07 00:30:00', '2024-02-06 23:30:00', '2024-02-06 18:30:00', '2024-02-06 17:30:00', '2024-02-06 14:00:00', '2024-02-06 13:30:00', '2024-02-06 12:30:00', '2024-02-06 12:00:00', '2024-02-06 11:30:00', '2024-02-06 11:00:00', '2024-02-06 10:30:00', '2024-02-06 10:00:00', '2024-02-06 09:00:00', '2024-02-06 08:30:00', '2024-02-06 07:30:00']"
India, Amritsar International Airport (ATQ/VIAR) ,"['VIAR 082100Z VRB01KT 4000 BR NSC 07/06 Q1016 NOSIG', 'VIAR 082030Z VRB02KT 4000 BR NSC 08/06 Q1016 NOSIG', 'VIAR 082000Z 21004KT 4500 BR NSC 08/06 Q1016 NOSIG', 'VIAR 081930Z 22003KT 4500 BR NSC 08/06 Q1016 NOSIG', 'VIAR 081900Z 22004KT 5000 BR NSC 09/07 Q1016 NOSIG', 'VIAR 081830Z 20003KT 5000 BR NSC 10/07 Q1016 NOSIG', 'VIAR 081800Z 22004KT 5000 BR NSC 10/08 Q1016 NOSIG', 'VIAR 081730Z 20003KT 5000 BR NSC 10/08 Q1016 NOSIG', 'VIAR 081700Z 22003KT 5000 BR NSC 10/08 Q1016 NOSIG', 'VIAR 081630Z 20003KT 5000 BR NSC 11/08 Q1016 NOSIG', 'VIAR 081600Z 19003KT 5000 BR NSC 13/09 Q1016 NOSIG', 'VIAR 081530Z VRB02KT 5000 BR NSC 12/09 Q1016 NOSIG', 'VIAR 081500Z 19003KT 5000 BR NSC 12/09 Q1016 NOSIG', 'VIAR 081430Z 19004KT 5000 BR NSC 14/10 Q1016 NOSIG', 'VIAR 081400Z 22004KT 5000 BR NSC 14/10 Q1016 NOSIG', 'VIAR 081330Z 23004KT 5000 BR NSC 14/10 Q1016 NOSIG', 'VIAR 081300Z 25006KT 5000 HZ NSC 15/10 Q1016 NOSIG', 'VIAR 081230Z 26005KT 5000 HZ NSC 17/11 Q1016 NOSIG', 'VIAR 081200Z 27005KT 5500 NSC 19/12 Q1016 BECMG 5000 HZ', 'VIAR 081130Z 27006KT 6000 NSC 20/10 Q1017 NOSIG', 'VIAR 081100Z 29008KT 6000 NSC 20/10 Q1017 NOSIG', 'VIAR 081030Z 28010KT 6000 NSC 21/09 Q1017 NOSIG', 'VIAR 081000Z 29011KT 6000 NSC 21/08 Q1017 NOSIG', 'VIAR 080930Z 28012KT 6000 NSC 21/08 Q1018 NOSIG', 'VIAR 080900Z 28010KT 6000 NSC 21/08 Q1018 NOSIG', 'VIAR 080830Z 27010KT 6000 NSC 20/08 Q1019 NOSIG', 'VIAR 080800Z 29009KT 6000 NSC 20/07 Q1019 NOSIG', 'VIAR 080730Z 31009KT 6000 NSC 19/08 Q1020 NOSIG', 'VIAR 080700Z 30010KT 6000 NSC 18/09 Q1020 NOSIG', 'VIAR 080530Z 31009KT 6000 NSC 15/09 Q1021 NOSIG', 'VIAR 080500Z 32008KT 5000 HZ NSC 13/08 Q1022 NOSIG', 'VIAR 080430Z 32007KT 5000 HZ NSC 12/08 Q1022 NOSIG', 'VIAR 080400Z 28003KT 4500 BR NSC 10/08 Q1022 BECMG 5000 HZ', 'VIAR 080330Z 24003KT 4000 BR NSC 08/06 Q1021 BECMG 5000 HZ', 'VIAR 080300Z 27003KT 3500 BR NSC 06/05 Q1021 NOSIG', 'VIAR 080230Z VRB02KT 3000 BR NSC 05/03 Q1020 NOSIG', 'VIAR 080200Z VRB02KT 3000 BR NSC 04/03 Q1020 NOSIG', 'VIAR 080130Z 32005KT 3000 BR NSC 05/03 Q1020 NOSIG', 'VIAR 080100Z 31003KT 3000 BR NSC 05/04 Q1020 NOSIG', 'VIAR 080030Z VRB02KT 3000 BR NSC 04/03 Q1020 NOSIG', 'VIAR 080000Z 25004KT 3000 BR NSC 05/04 Q1019 NOSIG', 'VIAR 072330Z 23003KT 3000 BR NSC 06/04 Q1020 NOSIG', 'VIAR 072300Z 26003KT 3000 BR NSC 06/04 Q1019 NOSIG', 'VIAR 072230Z 27004KT 3000 BR NSC 07/05 Q1020 NOSIG', 'VIAR 072130Z VRB02KT 3000 BR NSC 07/05 Q1020 NOSIG', 'VIAR 072100Z 27003KT 3000 BR NSC 07/06 Q1020 NOSIG', 'VIAR 072000Z 26004KT 3000 BR NSC 08/06 Q1021 NOSIG', 'VIAR 071930Z 28007KT 3000 BR NSC 08/06 Q1021 NOSIG', 'VIAR 071900Z 27006KT 3000 BR NSC 09/07 Q1021 NOSIG', 'VIAR 071830Z 27005KT 3000 BR NSC 09/07 Q1021 NOSIG', 'VIAR 071700Z 23004KT 4000 BR NSC 10/08 Q1022 NOSIG', 'VIAR 071630Z 22004KT 4000 BR NSC 10/08 Q1022 NOSIG', 'VIAR 071600Z 24003KT 4500 BR NSC 11/09 Q1021 NOSIG', 'VIAR 071530Z 25004KT 4500 BR NSC 11/09 Q1021 NOSIG', 'VIAR 071500Z 25004KT 4500 BR NSC 12/09 Q1021 NOSIG', 'VIAR 071430Z 26005KT 4500 BR NSC 12/10 Q1021 NOSIG', 'VIAR 071400Z 25003KT 4500 BR NSC 12/10 Q1021 NOSIG', 'VIAR 071330Z 25004KT 4500 BR NSC 13/10 Q1021 NOSIG', 'VIAR 071300Z 25005KT 4500 BR NSC 14/11 Q1020 NOSIG', 'VIAR 071200Z 27006KT 5000 HZ NSC 17/11 Q1020 NOSIG', 'VIAR 071130Z 28007KT 5000 HZ NSC 18/10 Q1020 NOSIG', 'VIAR 071100Z 29008KT 5000 HZ NSC 19/10 Q1020 NOSIG', 'VIAR 071030Z 29010KT 5000 HZ NSC 19/10 Q1021 NOSIG', 'VIAR 071000Z 29010KT 5000 HZ NSC 19/10 Q1021 NOSIG', 'VIAR 070930Z 29008KT 5000 HZ NSC 19/11 Q1021 NOSIG', 'VIAR 070900Z 28008KT 5000 HZ FEW090 19/11 Q1021 NOSIG', 'VIAR 070830Z 29008KT 5000 HZ FEW090 18/11 Q1022 NOSIG', 'VIAR 070800Z 31008KT 5000 HZ FEW090 18/10 Q1022 NOSIG', 'VIAR 070730Z 30006KT 4500 HZ SCT090 17/11 Q1022 BECMG 5000 HZ', 'VIAR 070700Z 30005KT 4500 HZ FEW030 SCT090 16/11 Q1023 NOSIG', 'VIAR 070630Z 29006KT 4000 BR FEW030 SCT090 15/11 Q1023 NOSIG', 'VIAR 070600Z 30007KT 3500 BR FEW030 BKN090 15/11 Q1023 NOSIG', 'VIAR 070530Z 30006KT 3000 BR BKN090 14/11 Q1023 NOSIG', 'VIAR 070500Z 29006KT 2500 BR BKN090 14/11 Q1023 BECMG 3000 BR', 'VIAR 070430Z 25005KT 2000 R34/2000 BR BKN090 13/11 Q1022 BECMG 3000 BR', 'VIAR 070400Z 26004KT 2000 R34/2000 BR BKN090 12/10 Q1022 BECMG 3000 BR', 'VIAR 070300Z 23003KT 1600 R34/1500 BR BKN090 08/06 Q1021 NOSIG', 'VIAR 070230Z 23003KT 1800 R34/1900 BR SCT090 05/04 Q1021 NOSIG', 'VIAR 070130Z 21003KT 3000 BR NSC 05/05 Q1020 NOSIG', 'VIAR 070030Z 23003KT 3000 BR NSC 05/04 Q1020 NOSIG', 'VIAR 070000Z 28003KT 3000 BR NSC 06/05 Q1020 NOSIG', 'VIAR 062300Z 04003KT 3000 BR NSC 06/05 Q1020 NOSIG', 'VIAR 062230Z 06003KT 3000 BR NSC 07/06 Q1020 NOSIG', 'VIAR 062200Z 04003KT 3000 BR NSC 07/06 Q1020 NOSIG', 'VIAR 062130Z 00000KT 3000 BR NSC 07/06 Q1021 NOSIG', 'VIAR 062100Z 00000KT 3000 BR NSC 07/06 Q1021 NOSIG', 'VIAR 062030Z 00000KT 3500 BR NSC 07/06 Q1021 BECMG 3000 BR', 'VIAR 062000Z 00000KT 3500 BR NSC 08/07 Q1021 BECMG 3000 BR', 'VIAR 061930Z 00000KT 4000 BR NSC 08/07 Q1021 BECMG 3000 BR', 'VIAR 061830Z 00000KT 4000 BR NSC 09/08 Q1021 NOSIG', 'VIAR 061800Z 00000KT 4000 BR NSC 09/08 Q1021 NOSIG', 'VIAR 061730Z VRB02KT 4000 BR NSC 09/08 Q1021 NOSIG', 'VIAR 061700Z 00000KT 4000 BR NSC 10/08 Q1021 NOSIG', 'VIAR 061630Z VRB02KT 4000 BR NSC 10/08 Q1021 NOSIG', 'VIAR 061530Z VRB01KT 5000 BR NSC 11/09 Q1021 NOSIG', 'VIAR 061500Z 00000KT 5000 BR NSC 11/09 Q1021 NOSIG', 'VIAR 061430Z 30003KT 5000 BR NSC 12/10 Q1020 NOSIG', 'VIAR 061400Z 29003KT 5000 BR NSC 13/10 Q1020 NOSIG', 'VIAR 061330Z VRB02KT 5000 BR NSC 14/10 Q1020 NOSIG', 'VIAR 061300Z 30004KT 5000 BR NSC 15/11 Q1019 NOSIG', 'VIAR 061230Z 28003KT 6000 NSC 16/11 Q1019 BECMG 5000 BR', 'VIAR 061200Z 28003KT 6000 NSC 17/11 Q1019 NOSIG', 'VIAR 061130Z 28006KT 6000 NSC 18/10 Q1019 NOSIG', 'VIAR 061100Z 29006KT 6000 NSC 19/09 Q1019 NOSIG', 'VIAR 061030Z 30008KT 6000 NSC 19/08 Q1019 NOSIG', 'VIAR 061000Z 30008KT 6000 FEW030 19/09 Q1019 NOSIG', 'VIAR 060930Z 29009KT 6000 FEW030 19/09 Q1020 NOSIG', 'VIAR 060900Z 28009KT 6000 FEW030 19/10 Q1020 NOSIG', 'VIAR 060830Z 28007KT 6000 FEW030 19/10 Q1020 NOSIG', 'VIAR 060800Z 30006KT 6000 NSC 19/11 Q1021 NOSIG', 'VIAR 060730Z 28006KT 6000 NSC 19/12 Q1021 NOSIG', 'VIAR 060700Z 29006KT 6000 NSC 18/21 Q1021 NOSIG', 'VIAR 060630Z 27005KT 6000 NSC 18/12 Q1022 NOSIG', 'VIAR 060600Z 31005KT 5000 HZ NSC 17/11 Q1022 NOSIG', 'VIAR 060530Z 30006KT 4000 BR NSC 16/11 Q1022 BECMG 5000 BR', 'VIAR 060500Z 30005KT 3000 BR NSC 15/12 Q1022 NOSIG', 'VIAR 060430Z 28005KT 2200 BR NSC 14/12 Q1021 NOSIG', 'VIAR 060400Z 27003KT 1500 R34/2000 BR NSC 12/10 Q1021 NOSIG', 'VIAR 060300Z 27003KT 0900 R34/1600 MIFG NSC 08/07 Q1020 NOSIG', 'VIAR 060230Z VRB02KT 1000 R34/2000 R16/2000 BCFG NSC 06/06 Q1020 NOSIG', 'VIAR 060200Z VRB01KT 0800 R34/1000 R16/2000 BCFG NSC 06/06 Q1020 NOSIG', 'VIAR 060130Z VRB01KT 1200 R34/2000 R16/2000 BR NSC 06/05 Q1019 NOSIG', 'VIAR 060100Z VRB01KT 1500 R34/1800 R16/2000 BR NSC 06/06 Q1019 NOSIG', 'VIAR 060030Z 00000KT 1200 R34/2000 R16/2000 BR NSC 06/06 Q1019 BECMG 1500 BR', 'VIAR 060000Z VRB01KT 0800 R34/2000 R16/2000 MIFG NSC 07/06 Q1019 NOSIG', 'VIAR 052330Z VRB02KT 0800 R34/2000 R16/2000 MIFG NSC 07/07 Q1019 NOSIG', 'VIAR 052300Z VRB02KT 0700 R34/2000 R16/1600 MIFG NSC 07/07 Q1019 BECMG 0800 MIFG', 'VIAR 052230Z 27004KT 0700 R34/2000 R16/0750 BCFG NSC 06/06 Q1019 NOSIG', 'VIAR 052200Z VRB02KT 0700 R34/1700 R16/1500 BCFG NSC 07/07 Q1019 BECMG 0600 BCFG']","['2024-02-08 21:00:00', '2024-02-08 20:30:00', '2024-02-08 20:00:00', '2024-02-08 19:30:00', '2024-02-08 19:00:00', '2024-02-08 18:30:00', '2024-02-08 18:00:00', '2024-02-08 17:30:00', '2024-02-08 17:00:00', '2024-02-08 16:30:00', '2024-02-08 16:00:00', '2024-02-08 15:30:00', '2024-02-08 15:00:00', '2024-02-08 14:30:00', '2024-02-08 14:00:00', '2024-02-08 13:30:00', '2024-02-08 13:00:00', '2024-02-08 12:30:00', '2024-02-08 12:00:00', '2024-02-08 11:30:00', '2024-02-08 11:00:00', '2024-02-08 10:30:00', '2024-02-08 10:00:00', '2024-02-08 09:30:00', '2024-02-08 09:00:00', '2024-02-08 08:30:00', '2024-02-08 08:00:00', '2024-02-08 07:30:00', '2024-02-08 07:00:00', '2024-02-08 05:30:00', '2024-02-08 05:00:00', '2024-02-08 04:30:00', '2024-02-08 04:00:00', '2024-02-08 03:30:00', '2024-02-08 03:00:00', '2024-02-08 02:30:00', '2024-02-08 02:00:00', '2024-02-08 01:30:00', '2024-02-08 01:00:00', '2024-02-08 00:30:00', '2024-02-08 00:00:00', '2024-02-07 23:30:00', '2024-02-07 23:00:00', '2024-02-07 22:30:00', '2024-02-07 21:30:00', '2024-02-07 21:00:00', '2024-02-07 20:00:00', '2024-02-07 19:30:00', '2024-02-07 19:00:00', '2024-02-07 18:30:00', '2024-02-07 17:00:00', '2024-02-07 16:30:00', '2024-02-07 16:00:00', '2024-02-07 15:30:00', '2024-02-07 15:00:00', '2024-02-07 14:30:00', '2024-02-07 14:00:00', '2024-02-07 13:30:00', '2024-02-07 13:00:00', '2024-02-07 12:00:00', '2024-02-07 11:30:00', '2024-02-07 11:00:00', '2024-02-07 10:30:00', '2024-02-07 10:00:00', '2024-02-07 09:30:00', '2024-02-07 09:00:00', '2024-02-07 08:30:00', '2024-02-07 08:00:00', '2024-02-07 07:30:00', '2024-02-07 07:00:00', '2024-02-07 06:30:00', '2024-02-07 06:00:00', '2024-02-07 05:30:00', '2024-02-07 05:00:00', '2024-02-07 04:30:00', '2024-02-07 04:00:00', '2024-02-07 03:00:00', '2024-02-07 02:30:00', '2024-02-07 01:30:00', '2024-02-07 00:30:00', '2024-02-07 00:00:00', '2024-02-06 23:00:00', '2024-02-06 22:30:00', '2024-02-06 22:00:00', '2024-02-06 21:30:00', '2024-02-06 21:00:00', '2024-02-06 20:30:00', '2024-02-06 20:00:00', '2024-02-06 19:30:00', '2024-02-06 18:30:00', '2024-02-06 18:00:00', '2024-02-06 17:30:00', '2024-02-06 17:00:00', '2024-02-06 16:30:00', '2024-02-06 15:30:00', '2024-02-06 15:00:00', '2024-02-06 14:30:00', '2024-02-06 14:00:00', '2024-02-06 13:30:00', '2024-02-06 13:00:00', '2024-02-06 12:30:00', '2024-02-06 12:00:00', '2024-02-06 11:30:00', '2024-02-06 11:00:00', '2024-02-06 10:30:00', '2024-02-06 10:00:00', '2024-02-06 09:30:00', '2024-02-06 09:00:00', '2024-02-06 08:30:00', '2024-02-06 08:00:00', '2024-02-06 07:30:00', '2024-02-06 07:00:00', '2024-02-06 06:30:00', '2024-02-06 06:00:00', '2024-02-06 05:30:00', '2024-02-06 05:00:00', '2024-02-06 04:30:00', '2024-02-06 04:00:00', '2024-02-06 03:00:00', '2024-02-06 02:30:00', '2024-02-06 02:00:00', '2024-02-06 01:30:00', '2024-02-06 01:00:00', '2024-02-06 00:30:00', '2024-02-06 00:00:00', '2024-02-05 23:30:00', '2024-02-05 23:00:00', '2024-02-05 22:30:00', '2024-02-05 22:00:00']"
India, Aurangabad Airport (IXU/VAAU) ,"['VAAU 082100Z 00000KT 4000 HZ NSC 17/13 Q1016 NOSIG', 'VAAU 081800Z 00000KT 5000 HZ NSC 19/15 Q1017 NOSIG', 'VAAU 081500Z 34001KT 5000 HZ NSC 24/18 Q1017 NOSIG', 'VAAU 081301Z 00000KT 5000 HZ NSC 27/21 Q1016 NOSIG', 'VAAU 081200Z 07002KT 5000 HZ NSC 29/21 Q1016 NOSIG', 'VAAU 081100Z 05004KT 4000 HZ NSC 30/21 Q1016 NOSIG', 'VAAU 080900Z 20002KT 4000 HZ NSC 30/21 Q1017 NOSIG', 'VAAU 080804Z 11004KT 3000 HZ NSC 28/19 Q1018 NOSIG', 'VAAU 080800Z 11004KT 3000 HZ NSC 28/19 Q1018 NOSIG', 'VAAU 080600Z 02004KT 3000 HZ NSC 26/19 Q1021 NOSIG', 'VAAU 080502Z 06006KT 3000 HZ NSC 25/18 Q1021 NOSIG', 'VAAU 080400Z 05004KT 3000 BR NSC 24/17 Q1021 NOSIG', 'VAAU 080300Z 00000KT 2000 BR NSC 19/16 Q1020 NOSIG', 'VAAU 080200Z 00000KT 2500 BR NSC 17/15 Q1019 NOSIG', 'VAAU 080100Z 00000KT 3000 BR NSC 18/15 Q1018 NOSIG', 'VAAU 080000Z 00000KT 3000 BR NSC 18/15 Q1018 NOSIG', 'VAAU 072100Z 00000KT 3000 HZ NSC 19/15 Q1018 NOSIG', 'VAAU 071800Z 02002KT 3000 HZ NSC 22/17 Q1018 NOSIG', 'VAAU 071500Z 32002KT 3000 HZ NSC 24/18 Q1018 NOSIG', 'VAAU 071305Z 35002KT 5000 HZ NSC 28/23 Q1016 NOSIG', 'VAAU 071200Z 29002KT 5000 HZ NSC 32/23 Q1016 NOSIG', 'VAAU 071100Z 34003KT 5000 HZ NSC 33/23 Q1016 NOSIG', 'VAAU 071000Z 25002KT 5000 HZ NSC 33/22 Q1016 NOSIG', 'VAAU 070900Z 23004KT 5000 HZ NSC 32/21 Q1017 NOSIG', 'VAAU 070806Z 09002KT 5000 HZ NSC 32/20 Q1018 NOSIG', 'VAAU 070700Z 09002KT 4000 HZ NSC 30/19 Q1019 NOSIG', 'VAAU 070600Z 09002KT 3000 HZ NSC 29/19 Q1020 NOSIG', 'VAAU 070500Z 09002KT 3000 HZ NSC 28/18 Q1021 NOSIG', 'VAAU 070359Z 18002KT 2000 HZ NSC 26/17 Q1020 NOSIG', 'VAAU 070300Z 00000KT 1500 BR NSC 20/16 Q1020 NOSIG', 'VAAU 070200Z 00000KT 2500 BR NSC 17/15 Q1019 NOSIG', 'VAAU 070100Z 00000KT 3000 BR NSC 18/16 Q1018 NOSIG', 'VAAU 070000Z 00000KT 3000 HZ NSC 20/16 Q1017 NOSIG', 'VAAU 062100Z 00000KT 3000 HZ NSC 21/16 Q1018 NOSIG', 'VAAU 061800Z 00000KT 3000 HZ NSC 22/17 Q1018 NOSIG', 'VAAU 061500Z 34003KT 3000 HZ NSC 24/16 Q1017 NOSIG', 'VAAU 061400Z 00000KT 4000 HZ NSC 25/17 Q1017 NOSIG', 'VAAU 061300Z 27002KT 6000 NSC 28/19 Q1016 TEMPO 4000 HZ', 'VAAU 061200Z 25003KT 6000 NSC 32/21 Q1015 NOSIG', 'VAAU 061100Z 25003KT 6000 NSC 33/22 Q1015 NOSIG', 'VAAU 061000Z 25003KT 6000 FEW020 33/21 Q1016 NOSIG', 'VAAU 060900Z 25005KT 6000 NSC 32/21 Q1017 NOSIG', 'VAAU 060800Z 25004KT 5000 HZ NSC 32/19 Q1018 BECMG 6000M', 'VAAU 060656Z 21003KT 4000 HZ NSC 31/18 Q1019 NOSIG', 'VAAU 060600Z 18003KT 2500 HZ NSC 29/17 Q1020 NOSIG', 'VAAU 060500Z 09003KT 2000 HZ NSC 27/16 Q1020 NOSIG', 'VAAU 060400Z 00000KT 2000 HZ NSC 25/16 Q1020 NOSIG', 'VAAU 060300Z 00000KT 1500 HZ NSC 19/15 Q1019 NOSIG', 'VAAU 060200Z 00000KT 2000 BR NSC 17/14 Q1018 NOSIG', 'VAAU 060100Z 00000KT 3000 BR NSC 17/15 Q1018 NOSIG', 'VAAU 060000Z 00000KT 4000 BR NSC 19/15 Q1017 NOSIG']","['2024-02-08 21:00:00', '2024-02-08 18:00:00', '2024-02-08 15:00:00', '2024-02-08 13:01:00', '2024-02-08 12:00:00', '2024-02-08 11:00:00', '2024-02-08 09:00:00', '2024-02-08 08:04:00', '2024-02-08 07:45:00', '2024-02-08 06:00:00', '2024-02-08 05:02:00', '2024-02-08 04:00:00', '2024-02-08 03:00:00', '2024-02-08 02:00:00', '2024-02-08 01:00:00', '2024-02-08 00:00:00', '2024-02-07 21:00:00', '2024-02-07 18:00:00', '2024-02-07 15:00:00', '2024-02-07 13:05:00', '2024-02-07 12:00:00', '2024-02-07 11:00:00', '2024-02-07 10:00:00', '2024-02-07 09:00:00', '2024-02-07 08:06:00', '2024-02-07 07:00:00', '2024-02-07 06:00:00', '2024-02-07 05:00:00', '2024-02-07 03:59:00', '2024-02-07 03:00:00', '2024-02-07 02:00:00', '2024-02-07 01:00:00', '2024-02-07 00:00:00', '2024-02-06 21:00:00', '2024-02-06 18:00:00', '2024-02-06 15:00:00', '2024-02-06 14:00:00', '2024-02-06 13:00:00', '2024-02-06 12:00:00', '2024-02-06 11:00:00', '2024-02-06 10:00:00', '2024-02-06 09:00:00', '2024-02-06 08:00:00', '2024-02-06 06:56:00', '2024-02-06 06:00:00', '2024-02-06 05:00:00', '2024-02-06 04:00:00', '2024-02-06 03:00:00', '2024-02-06 02:00:00', '2024-02-06 01:00:00', '2024-02-06 00:00:00']"
India, Bareilly Airport (BEK/VIBY) ,"['VIBY 082100Z 25003KT 6000 SKC 09/07 Q1016 NOSIG', 'VIBY 081800Z 25005KT 6000 SKC 12/07 Q1016 NOSIG', 'VIBY 081700Z 26005KT 6000 FEW250 13/07 Q1016 NOSIG', 'VIBY 081630Z 27006KT 6000 SCT250 13/07 Q1016 NOSIG', 'VIBY 081530Z 26008KT 6000 SCT250 14/07 Q1015 NOSIG', 'VIBY 081500Z 27006KT 6000 SCT250 14/08 Q1015 NOSIG', 'VIBY 081430Z 25006KT 6000 SCT250 15/08 Q1015 NOSIG', 'VIBY 081300Z 25003KT 6000 SCT250 16/07 Q1014 NOSIG', 'VIBY 081200Z 25007KT 6000 BKN250 19/07 Q1014 NOSIG', 'VIBY 081100Z 27010KT 6000 BKN250 20/06 Q1014 TEMPO 27015G25KT', 'VIBY 081030Z 26012KT 6000 BKN250 21/05 Q1014 TEMPO 27015G25KT', 'VIBY 081000Z 28014KT 6000 BKN250 21/04 Q1014 TEMPO 28015G25KT', 'VIBY 080730Z 29010G20KT 6000 SCT250 20/05 Q1016 TEMPO 32015G25KT', 'VIBY 080700Z 31012G22KT 6000 SCT250 20/06 Q1017 TEMPO 32015G25KT', 'VIBY 080630Z 30012KT 6000 SCT250 19/06 Q1017 TEMPO 32015G25KT', 'VIBY 080600Z 29012KT 6000 SCT250 18/06 Q1018 TEMPO 32015G25KT', 'VIBY 080530Z 30012KT 6000 SCT250 17/07 Q1018 TEMPO 32015G25KT', 'VIBY 080500Z 29013KT 6000 SCT250 16/07 Q1018 TEMPO 32015G25KT', 'VIBY 080430Z 31012KT 6000 SCT250 15/07 Q1018 TEMPO 30015G25KT', 'VIBY 080400Z 31012KT 6000 FEW250 13/07 Q1018 TEMPO 30015G25KT', 'VIBY 080330Z 30012KT 5000 HZ FEW250 12/07 Q1018 TEMPO 30015G25KT', 'VIBY 080300Z 29012KT 4000 BR FEW250 11/07 Q1017 BECMG 5000', 'VIBY 080230Z 30009KT 3400 BR FEW250 10/08 Q1017 BECMG 4000', 'VIBY 072130Z 27007KT 3000 BR SCT250 11/07 Q1016 NOSIG', 'VIBY 072100Z 27006KT 4000 BR SCT250 11/08 Q1016 NOSIG', 'VIBY 071900Z 26009KT 5000 BR SCT250 12/08 Q1018 BECMG 4000', 'VIBY 071430Z 28010KT 6000 SCT100 SCT250 16/07 Q1018 NOSIG', 'VIBY 071400Z 28009KT 6000 SCT100 SCT250 16/10 Q1017 NOSIG', 'VIBY 071330Z 27007KT 6000 SCT100 SCT250 17/07 Q1017 NOSIG', 'VIBY 071300Z 27007KT 6000 SCT100 SCT250 17/06 Q1017 NOSIG', 'VIBY 071230Z 27008KT 6000 SCT100 SCT250 17/06 Q1016 NOSIG', 'VIBY 071030Z 27011KT 6000 FEW100 SCT250 21/06 Q1017 NOSIG', 'VIBY 071000Z 28012KT 6000 FEW100 SCT250 22/05 Q1017 NOSIG', 'VIBY 070730Z 29011KT 6000 FEW100 SCT250 21/08 Q1018 NOSIG', 'VIBY 070700Z 30010KT 6000 FEW100 SCT250 20/08 Q1019 NOSIG', 'VIBY 070630Z 30009KT 6000 FEW100 SCT250 20/08 Q1019 NOSIG', 'VIBY 070600Z 29009KT 6000 FEW100 SCT250 18/09 Q1019 NOSIG', 'VIBY 070530Z 28009KT 5000 HZ FEW100 SCT250 17/08 Q1019 NOSIG', 'VIBY 070230Z 26006KT 2500 BR FEW100 SCT250 09/07 Q1018 BECMG 3000', 'VIBY 070130Z 27003KT 2300 BR FEW100 08/07 Q1018 BECMG 2000', 'VIBY 070100Z 29003KT 3000 BR FEW250 08/07 Q1017 NOSIG', 'VIBY 062330Z 24006KT 3000 BR SKC 09/07 Q1017 NOSIG', 'VIBY 062130Z 27004KT 4000 BR SKC 10/07 Q1018 NOSIG', 'VIBY 061800Z 27003KT 5000 BR FEW250 11/07 Q1019 BECMG 4000', 'VIBY 061700Z 30004KT 6000 FEW250 11/06 Q1019 NOSIG', 'VIBY 061430Z 25004KT 6000 FEW250 14/07 Q1019 NOSIG', 'VIBY 061330Z 24004KT 6000 FEW250 15/06 Q1018 NOSIG', 'VIBY 061230Z 27004KT 6000 SKC 15/05 Q1017 NOSIG', 'VIBY 061200Z 29006KT 6000 SKC 17/04 Q1017 NOSIG', 'VIBY 061130Z 29008KT 6000 SKC 19/05 Q1017 NOSIG', 'VIBY 061100Z 29011KT 6000 SKC 19/05 Q1017 NOSIG', 'VIBY 061030Z 30010KT 6000 SKC 20/08 Q1017 NOSIG', 'VIBY 060930Z 30009KT 6000 SKC 21/07 Q1017 NOSIG', 'VIBY 060800Z 32010KT 6000 SKC 19/10 Q1019 NOSIG', 'VIBY 060730Z 28006KT 5000 HZ SKC 18/10 Q1019 NOSIG', 'VIBY 060700Z 30008KT 5000 HZ SKC 17/10 Q1020 NOSIG', 'VIBY 060630Z 28006KT 5000 HZ SKC 17/10 Q1020 NOSIG']","['2024-02-08 21:00:00', '2024-02-08 18:00:00', '2024-02-08 17:00:00', '2024-02-08 16:30:00', '2024-02-08 15:30:00', '2024-02-08 15:00:00', '2024-02-08 14:30:00', '2024-02-08 13:00:00', '2024-02-08 12:00:00', '2024-02-08 11:00:00', '2024-02-08 10:30:00', '2024-02-08 10:00:00', '2024-02-08 07:30:00', '2024-02-08 07:00:00', '2024-02-08 06:30:00', '2024-02-08 06:00:00', '2024-02-08 05:30:00', '2024-02-08 05:00:00', '2024-02-08 04:30:00', '2024-02-08 04:00:00', '2024-02-08 03:30:00', '2024-02-08 03:00:00', '2024-02-08 02:30:00', '2024-02-07 21:30:00', '2024-02-07 21:00:00', '2024-02-07 19:00:00', '2024-02-07 14:30:00', '2024-02-07 14:00:00', '2024-02-07 13:30:00', '2024-02-07 13:00:00', '2024-02-07 12:30:00', '2024-02-07 10:30:00', '2024-02-07 10:00:00', '2024-02-07 07:30:00', '2024-02-07 07:00:00', '2024-02-07 06:30:00', '2024-02-07 06:00:00', '2024-02-07 05:30:00', '2024-02-07 02:30:00', '2024-02-07 01:30:00', '2024-02-07 01:00:00', '2024-02-06 23:30:00', '2024-02-06 21:30:00', '2024-02-06 18:00:00', '2024-02-06 17:00:00', '2024-02-06 14:30:00', '2024-02-06 13:30:00', '2024-02-06 12:30:00', '2024-02-06 12:00:00', '2024-02-06 11:30:00', '2024-02-06 11:00:00', '2024-02-06 10:30:00', '2024-02-06 09:30:00', '2024-02-06 08:00:00', '2024-02-06 07:30:00', '2024-02-06 07:00:00', '2024-02-06 06:30:00']"
India, Bengaluru Kempegowda International Airport (BLR/VOBL) ,"['VOBL 082100Z 07004KT 6000 NSC 18/13 Q1019 NOSIG', 'VOBL 082030Z 05005KT 6000 NSC 19/12 Q1019 NOSIG', 'VOBL 082000Z 05004KT 6000 NSC 19/12 Q1019 NOSIG', 'VOBL 081930Z 09004KT 6000 NSC 19/12 Q1019 NOSIG', 'VOBL 081830Z 11007KT 6000 NSC 21/11 Q1020 NOSIG', 'VOBL 081800Z 11007KT 6000 NSC 22/11 Q1020 NOSIG', 'VOBL 081730Z 11007KT 6000 NSC 22/11 Q1020 NOSIG', 'VOBL 081700Z 11005KT 6000 NSC 23/10 Q1020 NOSIG', 'VOBL 081630Z 11006KT 6000 NSC 23/10 Q1020 NOSIG', 'VOBL 081600Z 11006KT 6000 NSC 24/10 Q1020 NOSIG', 'VOBL 081530Z 10007KT 6000 NSC 25/09 Q1019 NOSIG', 'VOBL 081500Z 09006KT 6000 NSC 25/09 Q1019 NOSIG', 'VOBL 081430Z 07006KT 6000 NSC 25/08 Q1019 NOSIG', 'VOBL 081330Z 07005KT 8000 NSC 27/06 Q1018 NOSIG', 'VOBL 081300Z 08007KT 8000 NSC 28/05 Q1017 NOSIG', 'VOBL 081230Z 06008KT CAVOK 29/05 Q1017 NOSIG', 'VOBL 081200Z 06008KT CAVOK 31/04 Q1016 NOSIG', 'VOBL 081130Z 06009KT CAVOK 31/03 Q1016 NOSIG', 'VOBL 081100Z 05008KT CAVOK 32/02 Q1016 NOSIG', 'VOBL 081030Z 05008KT CAVOK 32/02 Q1016 NOSIG', 'VOBL 081000Z 05008KT CAVOK 32/03 Q1016 NOSIG', 'VOBL 080900Z 07009KT CAVOK 32/03 Q1017 NOSIG', 'VOBL 080830Z 07009KT CAVOK 32/04 Q1018 NOSIG', 'VOBL 080800Z 07009KT CAVOK 32/05 Q1018 NOSIG', 'VOBL 080730Z 09009KT CAVOK 31/06 Q1019 NOSIG', 'VOBL 080700Z 08011KT CAVOK 31/06 Q1019 NOSIG', 'VOBL 080630Z 07008KT CAVOK 31/06 Q1020 NOSIG', 'VOBL 080600Z 05010KT 8000 NSC 30/07 Q1021 NOSIG', 'VOBL 080530Z 07010KT 8000 NSC 29/07 Q1021 NOSIG', 'VOBL 080500Z 09009KT 8000 NSC 28/07 Q1021 NOSIG', 'VOBL 080430Z 09009KT 6000 NSC 27/08 Q1021 NOSIG', 'VOBL 080400Z 05003KT 5000 HZ NSC 25/11 Q1022 BECMG 6000', 'VOBL 080330Z 05003KT 4000 HZ NSC 23/12 Q1021 BECMG 6000', 'VOBL 080300Z 04003KT 3000 BR NSC 21/14 Q1021 BECMG 5000 HZ', 'VOBL 080230Z VRB02KT 3000 BR FEW010 17/15 Q1020 BECMG 5000 HZ', 'VOBL 080130Z VRB02KT 3000 BR SCT010 16/13 Q1020 NOSIG', 'VOBL 080100Z VRB02KT 3000 BR SCT010 15/13 Q1019 TEMPO 2000 BR', 'VOBL 080030Z VRB02KT 3000 BR FEW010 16/14 Q1019 NOSIG', 'VOBL 080000Z VRB02KT 3000 BR FEW010 17/14 Q1018 NOSIG', 'VOBL 072330Z VRB02KT 3000 BR FEW010 17/14 Q1019 NOSIG', 'VOBL 072300Z VRB02KT 3000 BR SCT010 17/14 Q1018 NOSIG', 'VOBL 072230Z 07003KT 3000 BR SCT010 17/14 Q1018 NOSIG', 'VOBL 072200Z 07003KT 4000 BR SCT010 17/14 Q1019 TEMPO 3000 BR', 'VOBL 072130Z 07003KT 4000 BR SCT010 17/14 Q1019 TEMPO 3000 BR', 'VOBL 072100Z 07003KT 4000 HZ SCT010 17/14 Q1019 TEMPO 3000 BR', 'VOBL 072030Z WIND 120/03KT VIS 4KM HZ SCT 1000FT (300M) T19 DP14 QNH 1019HPA 30.11 INCHES QFE 917HPA 27.08 INCHES TEMPO VIS 3000M IN BR', 'VOBL 072000Z 11003KT 6000 SCT010 20/14 Q1020 TEMPO 3000 BR', 'VOBL 071930Z 11003KT 6000 SCT010 20/13 Q1020 NOSIG', 'VOBL 071900Z 11006KT 6000 NSC 21/13 Q1021 NOSIG', 'VOBL 071830Z 11007KT 6000 NSC 21/13 Q1021 NOSIG', 'VOBL 071730Z 10008KT 6000 NSC 22/12 Q1021 NOSIG', 'VOBL 071700Z 12008KT 6000 NSC 23/11 Q1021 NOSIG', 'VOBL 071630Z 12006KT 6000 NSC 24/10 Q1021 NOSIG', 'VOBL 071600Z 11006KT 6000 NSC 24/10 Q1021 NOSIG', 'VOBL 071530Z 11006KT 6000 NSC 25/09 Q1020 NOSIG', 'VOBL 071500Z 09006KT 6000 NSC 24/08 Q1020 NOSIG', 'VOBL 071430Z 07006KT 6000 NSC 25/08 Q1020 NOSIG', 'VOBL 071330Z 09006KT 6000 NSC 27/07 Q1018 NOSIG', 'VOBL 071300Z 09010KT 8000 NSC 28/06 Q1018 NOSIG', 'VOBL 071200Z 09010KT CAVOK 31/05 Q1018 NOSIG', 'VOBL 071130Z 09010KT CAVOK 31/05 Q1018 NOSIG', 'VOBL 071100Z 09010KT CAVOK 32/05 Q1017 NOSIG', 'VOBL 071030Z 09010KT CAVOK 32/05 Q1017 NOSIG', 'VOBL 071000Z 09010KT CAVOK 32/05 Q1017 NOSIG', 'VOBL 070930Z 07006KT CAVOK 32/05 Q1018 NOSIG', 'VOBL 070900Z 07006KT CAVOK 32/05 Q1018 NOSIG', 'VOBL 070830Z 07008KT CAVOK 32/05 Q1019 NOSIG', 'VOBL 070730Z 07008KT CAVOK 31/06 Q1020 NOSIG', 'VOBL 070700Z 07010KT CAVOK 31/07 Q1021 NOSIG', 'VOBL 070630Z 07010KT CAVOK 30/06 Q1022 NOSIG', 'VOBL 070600Z 07010KT CAVOK 30/07 Q1022 NOSIG', 'VOBL 070530Z 09011KT CAVOK 30/07 Q1022 NOSIG', 'VOBL 070500Z 09011KT CAVOK 28/09 Q1023 NOSIG', 'VOBL 070430Z 07007KT 8000 FEW012 27/11 Q1023 NOSIG', 'VOBL 070400Z 09006KT 6000 SCT012 24/12 Q1023 NOSIG', 'VOBL 070330Z VRB03KT 3000 HZ SCT012 22/17 Q1022 BECMG 6000', 'VOBL 070300Z VRB03KT 0800 R09L/2000 R09R/2000 BCFG SCT010 20/16 Q1022 BECMG 1500 HZ', 'VOBL 070230Z VRB02KT 0350 R09L/1700 R09R/2000 BCFG SCT010 17/16 Q1021 BECMG 0800 FG', 'VOBL 070200Z VRB02KT 0150 R09L/1400 R09R/2000 BCFG SCT010 16/16 Q1021 BECMG 0800 FG', 'VOBL 070100Z VRB02KT 0050 R09L/2000 R09R/2000 BCFG SCT006 SCT012 16/16 Q1020 TEMPO BKN005', 'VOBL 070030Z 07003KT 0150 R09L/1200 R09R/2000 BCFG SCT008 SCT012 17/16 Q1020 TEMPO BKN008', 'VOBL 070000Z VRB02KT 0350 R09L/1600 R09R/2000 BCFG SCT008 SCT012 17/17 Q1019 TEMPO 0150 FG BKN008', 'VOBL 062330Z VRB02KT 0800 R09L/2000 R09R/2000 BCFG SCT008 17/17 Q1019 TEMPO 0550 FG', 'VOBL 062300Z VRB01KT 1500 R09L/2000 R09R/2000 BR SCT008 16/16 Q1019 TEMPO 0800 FG', 'VOBL 062230Z VRB02KT 2000 BR SCT008 17/16 Q1019 TEMPO 1500 BR', 'VOBL 062200Z VRB02KT 2000 BR FEW008 17/16 Q1019 TEMPO 1500 BR', 'VOBL 062100Z VRB02KT 3000 BR FEW008 18/16 Q1020 TEMPO 1500 BR', 'VOBL 062030Z VRB02KT 3000 BR FEW008 18/17 Q1020 TEMPO 1500 BR', 'VOBL 061930Z VRB02KT 4000 BR FEW008 19/17 Q1021 TEMPO 3000 BR', 'VOBL 061900Z VRB02KT 5000 BR NSC 19/16 Q1021 TEMPO 3000 BR', 'VOBL 061800Z 11004KT 6000 NSC 21/16 Q1021 NOSIG', 'VOBL 061730Z 11005KT 6000 NSC 21/16 Q1021 NOSIG', 'VOBL 061630Z 11008KT 6000 NSC 23/16 Q1021 NOSIG', 'VOBL 061600Z 11008KT 6000 NSC 23/15 Q1021 NOSIG', 'VOBL 061530Z 12007KT 8000 NSC 24/14 Q1021 NOSIG', 'VOBL 061500Z 11008KT 8000 NSC 25/12 Q1020 NOSIG', 'VOBL 061430Z 11008KT 8000 NSC 26/10 Q1020 NOSIG', 'VOBL 061400Z 09010KT 8000 NSC 27/09 Q1019 NOSIG', 'VOBL 061330Z 10009KT CAVOK 28/09 Q1019 NOSIG', 'VOBL 061300Z 09010KT CAVOK 29/08 Q1018 NOSIG', 'VOBL 061230Z 09010KT CAVOK 30/08 Q1018 NOSIG', 'VOBL 061200Z 09010KT CAVOK 30/07 Q1018 NOSIG', 'VOBL 061130Z 08012KT CAVOK 31/06 Q1017 NOSIG', 'VOBL 061100Z 08012KT CAVOK 31/07 Q1017 NOSIG', 'VOBL 061030Z 07012KT CAVOK 31/07 Q1017 NOSIG', 'VOBL 061000Z 07012KT CAVOK 32/07 Q1017 NOSIG', 'VOBL 060900Z 09010KT CAVOK 31/08 Q1018 NOSIG', 'VOBL 060830Z 08010KT CAVOK 31/09 Q1018 NOSIG', 'VOBL 060800Z 09010KT 8000 NSC 31/10 Q1019 NOSIG', 'VOBL 060730Z 08010KT 8000 NSC 31/10 Q1020 NOSIG', 'VOBL 060700Z 08008KT 8000 NSC 30/10 Q1021 NOSIG', 'VOBL 060630Z 08008KT 8000 NSC 29/09 Q1021 NOSIG', 'VOBL 060600Z 08008KT 8000 NSC 28/09 Q1022 NOSIG', 'VOBL 060530Z 08008KT 8000 NSC 27/09 Q1022 NOSIG', 'VOBL 060500Z 09009KT 8000 NSC 26/11 Q1022 NOSIG', 'VOBL 060430Z 08008KT 050V120 8000 NSC 23/14 Q1023 NOSIG', 'VOBL 060400Z 07005KT 6000 NSC 21/15 Q1023 NOSIG', 'VOBL 060330Z 06003KT 3000 BR FEW012 18/16 Q1023 BECMG 5000 BR', 'VOBL 060300Z VRB02KT 0800 R09R/2000 R09L/2000 BCFG SCT010 17/16 Q1022 BECMG 3000 BR', 'VOBL 060230Z 05005KT 050V120 0200 R09R/0350 R09L/0275 FG SCT006 16/16 Q1022 NOSIG', 'VOBL 060200Z 05005KT 050V120 0050 R09R/0350 R09L/0275 FG SCT004 16/15 Q1021 NOSIG', 'VOBL 060130Z 05005KT 050V120 0050 R09R/0325 R09L/0125 FG SCT004 15/15 Q1021 NOSIG', 'VOBL 060100Z 05005KT 050V120 0050 R09R/0450 R09L/0150 FG SCT004 16/15 Q1021 NOSIG', 'VOBL 060030Z 05005KT 030V120 0050 R09R/0350 R09L/0150 FG SCT004 15/15 Q1020 NOSIG', 'VOBL 052330Z 03003KT 030V120 1500 R09R/2000 R09L/2000 SCT006 16/15 Q1020 TEMPO 0800 FG', 'VOBL 052300Z 10003KT 030V120 2000 BR SCT006 17/15 Q1020 TEMPO 1500 BR', 'VOBL 052230Z 10003KT 3000 BR SCT006 17/15 Q1020 TEMPO 2000 BR']","['2024-02-08 21:00:00', '2024-02-08 20:30:00', '2024-02-08 20:00:00', '2024-02-08 19:30:00', '2024-02-08 18:30:00', '2024-02-08 18:00:00', '2024-02-08 17:30:00', '2024-02-08 17:00:00', '2024-02-08 16:30:00', '2024-02-08 16:00:00', '2024-02-08 15:30:00', '2024-02-08 15:00:00', '2024-02-08 14:30:00', '2024-02-08 13:30:00', '2024-02-08 13:00:00', '2024-02-08 12:30:00', '2024-02-08 12:00:00', '2024-02-08 11:30:00', '2024-02-08 11:00:00', '2024-02-08 10:30:00', '2024-02-08 10:00:00', '2024-02-08 09:00:00', '2024-02-08 08:30:00', '2024-02-08 08:00:00', '2024-02-08 07:30:00', '2024-02-08 07:00:00', '2024-02-08 06:30:00', '2024-02-08 06:00:00', '2024-02-08 05:30:00', '2024-02-08 05:00:00', '2024-02-08 04:30:00', '2024-02-08 04:00:00', '2024-02-08 03:30:00', '2024-02-08 03:00:00', '2024-02-08 02:30:00', '2024-02-08 01:30:00', '2024-02-08 01:00:00', '2024-02-08 00:30:00', '2024-02-08 00:00:00', '2024-02-07 23:30:00', '2024-02-07 23:00:00', '2024-02-07 22:30:00', '2024-02-07 22:00:00', '2024-02-07 21:30:00', '2024-02-07 21:00:00', '2024-02-07 20:30:00', '2024-02-07 20:00:00', '2024-02-07 19:30:00', '2024-02-07 19:00:00', '2024-02-07 18:30:00', '2024-02-07 17:30:00', '2024-02-07 17:00:00', '2024-02-07 16:30:00', '2024-02-07 16:00:00', '2024-02-07 15:30:00', '2024-02-07 15:00:00', '2024-02-07 14:30:00', '2024-02-07 13:30:00', '2024-02-07 13:00:00', '2024-02-07 12:00:00', '2024-02-07 11:30:00', '2024-02-07 11:00:00', '2024-02-07 10:30:00', '2024-02-07 10:00:00', '2024-02-07 09:30:00', '2024-02-07 09:00:00', '2024-02-07 08:30:00', '2024-02-07 07:30:00', '2024-02-07 07:00:00', '2024-02-07 06:30:00', '2024-02-07 06:00:00', '2024-02-07 05:30:00', '2024-02-07 05:00:00', '2024-02-07 04:30:00', '2024-02-07 04:00:00', '2024-02-07 03:30:00', '2024-02-07 03:00:00', '2024-02-07 02:30:00', '2024-02-07 02:00:00', '2024-02-07 01:00:00', '2024-02-07 00:30:00', '2024-02-07 00:00:00', '2024-02-06 23:30:00', '2024-02-06 23:00:00', '2024-02-06 22:30:00', '2024-02-06 22:00:00', '2024-02-06 21:00:00', '2024-02-06 20:30:00', '2024-02-06 19:30:00', '2024-02-06 19:00:00', '2024-02-06 18:00:00', '2024-02-06 17:30:00', '2024-02-06 16:30:00', '2024-02-06 16:00:00', '2024-02-06 15:30:00', '2024-02-06 15:00:00', '2024-02-06 14:30:00', '2024-02-06 14:00:00', '2024-02-06 13:30:00', '2024-02-06 13:00:00', '2024-02-06 12:30:00', '2024-02-06 12:00:00', '2024-02-06 11:30:00', '2024-02-06 11:00:00', '2024-02-06 10:30:00', '2024-02-06 10:00:00', '2024-02-06 09:00:00', '2024-02-06 08:30:00', '2024-02-06 08:00:00', '2024-02-06 07:30:00', '2024-02-06 07:00:00', '2024-02-06 06:30:00', '2024-02-06 06:00:00', '2024-02-06 05:30:00', '2024-02-06 05:00:00', '2024-02-06 04:30:00', '2024-02-06 04:00:00', '2024-02-06 03:30:00', '2024-02-06 03:00:00', '2024-02-06 02:30:00', '2024-02-06 02:00:00', '2024-02-06 01:30:00', '2024-02-06 01:00:00', '2024-02-06 00:30:00', '2024-02-05 23:30:00', '2024-02-05 23:00:00', '2024-02-05 22:30:00']"
India, Bhavnagar Airport (BHU/VABV) ,"['VABV 081230Z 34011KT 6000 NSC 26/14 Q1015', 'VABV 081200Z 34012KT 6000 NSC 26/14 Q1015', 'VABV 081130Z 34009KT 5000 FU NSC 27/15 Q1015', 'VABV 081100Z 35009KT 5000 FU NSC 27/16 Q1015', 'VABV 081030Z 35009KT 4000 FU NSC 27/15 Q1015', 'VABV 081000Z 35009KT 4000 FU NSC 27/15 Q1016', 'VABV 080930Z 35009KT 4000 FU FEW080 29/13 Q1017', 'VABV 080830Z 01007KT 4000 FU FEW080 27/13 Q1017', 'VABV 080800Z 03007KT 4000 FU FEW080 27/12 Q1018', 'VABV 080730Z 02007KT 3000 DU FEW080 27/13 Q1019 NOSIG', 'VABV 080700Z 03009KT 3000 DU NSC 26/12 Q1019 NOSIG', 'VABV 080630Z 04010KT 2500 DRDU NSC 26/12 Q1020 BECMG 3000 DU', 'VABV 080600Z 04012KT 2500 DU NSC 25/11 Q1020 NOSIG', 'VABV 080300Z 35008KT 2500 BR NSC 21/17 Q1020 BECMG 3000 HZ FU', 'VABV 071200Z 02006KT 4000 FU FEW025 28/17 Q1016 NOSIG', 'VABV 071100Z 04007KT 4000 FU NSC 28/16 Q1016 NOSIG', 'VABV 071030Z 02006KT 4000 FU NSC 29/16 Q1016 NOSIG', 'VABV 071000Z 01005KT 4000 FU NSC 29/16 Q1017 NOSIG', 'VABV 070930Z 01006KT 4000 FU NSC 28/15 Q1017 NOSIG', 'VABV 070900Z 01006KT 4000 FU NSC 28/16 Q1017 NOSIG', 'VABV 070830Z 36006KT 4000 FU NSC 28/15 Q1018 NOSIG', 'VABV 070800Z 35005KT 4000 FU NSC 28/15 Q1018 NOSIG', 'VABV 070700Z 36007KT 4000 FU NSC 28/15 Q1019 NOSIG', 'VABV 070630Z 34007KT 4000 FU NSC 27/15 Q1020 NOSIG', 'VABV 070600Z 34007KT 4000 FU NSC 26/15 Q1020 NOSIG', 'VABV 070300Z 29003KT 3000 HZ NSC 21/15 Q1019 BECMG 5000 FU', 'VABV 061200Z 02006KT 6000 NSC 28/16 Q1014', 'VABV 061130Z 04006KT 6000 NSC 28/17 Q1014', 'VABV 061100Z 04006KT 6000 NSC 29/16 Q1014', 'VABV 061030Z 04006KT 6000 NSC 29/17 Q1014', 'VABV 061000Z 04005KT 6000 FEW080 30/16 Q1014', 'VABV 060930Z 35005KT 5000 FU NSC 30/16 Q1015 BECMG 6000', 'VABV 060800Z 05004KT 5000 FU NSC 28/17 Q1016 BECMG 6000', 'VABV 060730Z 35004KT 5000 FU NSC 28/17 Q1017 NOSIG', 'VABV 060700Z 34004KT 5000 FU NSC 28/17 Q1018 NOSIG', 'VABV 060600Z 36004KT 4000 FU NSC 26/17 Q1018 BECMG 5000 FU', 'VABV 060305Z 27003KT 2500 HZ NSC 21/17 Q1018 BECMG 3000 FU']","['2024-02-08 12:30:00', '2024-02-08 12:00:00', '2024-02-08 11:30:00', '2024-02-08 11:00:00', '2024-02-08 10:30:00', '2024-02-08 10:00:00', '2024-02-08 09:30:00', '2024-02-08 08:30:00', '2024-02-08 08:00:00', '2024-02-08 07:30:00', '2024-02-08 07:00:00', '2024-02-08 06:30:00', '2024-02-08 06:00:00', '2024-02-08 03:00:00', '2024-02-07 12:00:00', '2024-02-07 11:00:00', '2024-02-07 10:30:00', '2024-02-07 10:00:00', '2024-02-07 09:30:00', '2024-02-07 09:00:00', '2024-02-07 08:30:00', '2024-02-07 08:00:00', '2024-02-07 07:00:00', '2024-02-07 06:30:00', '2024-02-07 06:00:00', '2024-02-07 03:00:00', '2024-02-06 12:00:00', '2024-02-06 11:30:00', '2024-02-06 11:00:00', '2024-02-06 10:30:00', '2024-02-06 10:00:00', '2024-02-06 09:30:00', '2024-02-06 08:00:00', '2024-02-06 07:30:00', '2024-02-06 07:00:00', '2024-02-06 06:00:00', '2024-02-06 03:05:00']"
India, Bhopal Raja Bhoj Airport (BHO/VABP) ,"['VABP 081800Z 32003KT 5000 HZ NSC 13/16 Q1020 NOSIG', 'VABP 081700Z 33002KT 5000 HZ NSC 14/05 Q1020 NOSIG', 'VABP 081630Z 30002KT 5000 HZ NSC 14/05 Q1020 NOSIG', 'VABP 081600Z 00000KT 5000 HZ NSC 15/04 Q1019 NOSIG', 'VABP 081530Z 00000KT 6000 NSC 15/04 Q1019 NOSIG', 'VABP 081500Z 00000KT 6000 NSC 16/04 Q1019 NOSIG', 'VABP 081430Z 08003KT 6000 NSC 18/05 Q1019 NOSIG', 'VABP 081330Z 04002KT 6000 NSC 18/04 Q1019 NOSIG', 'VABP 081300Z 04002KT 6000 NSC 19/04 Q1019 NOSIG', 'VABP 081230Z 03003KT 6000 NSC 21/02 Q1018 NOSIG', 'VABP 081200Z 04004KT 6000 NSC 22/03 Q1018 NOSIG', 'VABP 081130Z 03004KT 6000 NSC 23/04 Q1018 NOSIG', 'VABP 081030Z 02004KT 6000 NSC 22/04 Q1019 NOSIG', 'VABP 081000Z 04003KT 6000 NSC 22/04 Q1019 NOSIG', 'VABP 080730Z 00000KT 6000 NSC 20/04 Q1021 NOSIG', 'VABP 080700Z 02006KT 6000 FEW020 BKN100 19/03 Q1022 NOSIG', 'VABP 080630Z 06003KT 6000 FEW020 BKN100 19/05 Q1023 NOSIG', 'VABP 080530Z 03004KT 5000 HZ SCT020 BKN100 17/04 Q1023 NOSIG', 'VABP 080500Z 03005KT 5000 HZ SCT020 BKN100 16/04 Q1024 NOSIG', 'VABP 080400Z 03005KT 5000 HZ NSC 16/04 Q1023 NOSIG', 'VABP 080330Z 03006KT 5000 HZ NSC 15/03 Q1022 NOSIG', 'VABP 080300Z 05004KT 5000 HZ NSC 14/05 Q1012 NOSIG', 'VABP 080230Z 04003KT 4000 HZ NSC 13/07 Q1022 NOSIG', 'VABP 080200Z 05004KT 4000 HZ NSC 12/07 Q1022 NOSIG', 'VABP 080130Z 04004KT 4000 HZ NSC 12/08 Q1021 NOSIG', 'VABP 080100Z 04003KT 4000 HZ NSC 12/08 Q1021 NOSIG', 'VABP 080000Z 02007KT 4000 HZ NSC 13/09 Q1020 NOSIG', 'VABP 071800Z 02003KT 5000 HZ NSC 16/13 Q1021 NOSIG', 'VABP 071730Z 02004KT 5000 HZ NSC 16/13 Q1021 NOSIG', 'VABP 071700Z 02006KT 5000 HZ NSC 17/15 Q1021 NOSIG', 'VABP 071630Z 02006KT 5000 HZ NSC 17/15 Q1021 NOSIG', 'VABP 071600Z 02005KT 5000 HZ NSC 18/14 Q1021 NOSIG', 'VABP 071530Z 02003KT 5000 HZ NSC 18/13 Q1021 NOSIG', 'VABP 071500Z 02003KT 5000 HZ NSC 19/13 Q1020 NOSIG', 'VABP 071430Z 03003KT 5000 HZ NSC 19/12 Q1020 NOSIG', 'VABP 071400Z 02004KT 6000 NSC 19/12 Q1020 BECMG 5000 HZ', 'VABP 071330Z 36006KT 6000 NSC 20/13 Q1019 NOSIG', 'VABP 071300Z 36005KT 6000 NSC 21/12 Q1019 NOSIG', 'VABP 071230Z 01006KT 6000 NSC 22/12 Q1019 NOSIG', 'VABP 071130Z 02008KT 6000 SCT030 BKN100 23/13 Q1018 NOSIG', 'VABP 071100Z 32005KT 6000 SCT030 BKN100 24/14 Q1018 NOSIG', 'VABP 071030Z 36008KT 6000 SCT030 24/13 Q1018 NOSIG', 'VABP 071000Z 02008KT 5000 HZ SCT 030 24/14 Q1018 NOSIG', 'VABP 070930Z 34008KT 5000 HZ NSC 25/14 Q1018 NOSIG', 'VABP 070900Z 33006KT 5000 HZ FEW100 25/14 Q1019 NOSIG', 'VABP 070830Z 22004KT 5000 HZ FEW100 25/15 Q1019 NOSIG', 'VABP 070800Z 19002KT 5000 HZ FEW100 25/15 Q1019 NOSIG', 'VABP 070730Z 03001KT 5000 HZ FEW100 24/15 Q1020 NOSIG', 'VABP 070700Z 13004KT 5000 HZ FEW100 23/15 Q1021 NOSIG', 'VABP 070600Z 07004KT 5000 HZ FEW100 21/15 Q1022 NOSIG', 'VABP 070530Z 09004KT 5000 HZ FEW100 21/16 Q1022 NOSIG', 'VABP 070500Z 09007KT 5000 HZ FEW100 20/17 Q1022 NOSIG', 'VABP 070330Z 07004KT 3000 HZ FEW100 17/17 Q1021 NOSIG', 'VABP 070300Z 07004KT 2500 BR FEW100 16/15 Q1020 NOSIG', 'VABP 070200Z 07003KT 2000 BR NSC 14/14 Q1020 NOSIG', 'VABP 070100Z 05002KT 2000 BR NSC 13/13 Q1015 NOSIG', 'VABP 061800Z 02003KT 2000 BR NSC 17/16 Q1020 NOSIG', 'VABP 061500Z 02004KT 2500 BR HZ NSC 19/19 Q1020 NOSIG', 'VABP 061430Z 03004KT 2500 BR HZ NSC 19/19 Q1019 NOSIG', 'VABP 061330Z 02006KT 5000 HZ NSC 20/20 Q1018 NOSIG', 'VABP 061300Z 36008KT 3000 HZ FEW020 21/21 Q1018 NOSIG', 'VABP 061200Z 34010KT 5000 HZ FEW020 25/15 Q1017 NOSIG', 'VABP 061030Z 30006KT 5000 HZ FEW020 25/15 Q1017 NOSIG', 'VABP 061000Z 31009KT 5000 HZ FEW020 25/18 Q1017 NOSIG', 'VABP 060900Z 34006KT 5000 HZ FEW020 24/20 Q1018 NOSIG', 'VABP 060830Z 34007KT 5000 HZ FEW020 24/221 Q1018 NOSIG', 'VABP 060800Z 34004KT 5000 HZ FEW020 23/22 Q1018 NOSIG', 'VABP 060700Z 30003KT 3000 HZ FEW020 23/21 Q1020 NOSIG', 'VABP 060630Z 30002KT 2000 BR SCT020 BKN100 23/22 Q1020 NOSIG', 'VABP 060600Z 33004KT 1500 BR SCT020 BKN100 21/21 Q1020 NOSIG', 'VABP 060300Z 04002KT 0100 R30/0400 FG VV/// 16/16 Q1019 NOSIG', 'VABP 060000Z 02002KT 0300 FG VV/// 16/16 Q1017 NOSIG']","['2024-02-08 18:00:00', '2024-02-08 17:00:00', '2024-02-08 16:30:00', '2024-02-08 16:00:00', '2024-02-08 15:30:00', '2024-02-08 15:00:00', '2024-02-08 14:30:00', '2024-02-08 13:30:00', '2024-02-08 13:00:00', '2024-02-08 12:30:00', '2024-02-08 12:00:00', '2024-02-08 11:30:00', '2024-02-08 10:30:00', '2024-02-08 10:00:00', '2024-02-08 07:30:00', '2024-02-08 07:00:00', '2024-02-08 06:30:00', '2024-02-08 05:30:00', '2024-02-08 05:00:00', '2024-02-08 04:00:00', '2024-02-08 03:30:00', '2024-02-08 03:00:00', '2024-02-08 02:30:00', '2024-02-08 02:00:00', '2024-02-08 01:30:00', '2024-02-08 01:00:00', '2024-02-08 00:00:00', '2024-02-07 18:00:00', '2024-02-07 17:30:00', '2024-02-07 17:00:00', '2024-02-07 16:30:00', '2024-02-07 16:00:00', '2024-02-07 15:30:00', '2024-02-07 15:00:00', '2024-02-07 14:30:00', '2024-02-07 14:00:00', '2024-02-07 13:30:00', '2024-02-07 13:00:00', '2024-02-07 12:30:00', '2024-02-07 11:30:00', '2024-02-07 11:00:00', '2024-02-07 10:30:00', '2024-02-07 10:00:00', '2024-02-07 09:30:00', '2024-02-07 09:00:00', '2024-02-07 08:30:00', '2024-02-07 08:00:00', '2024-02-07 07:30:00', '2024-02-07 07:00:00', '2024-02-07 06:00:00', '2024-02-07 05:30:00', '2024-02-07 05:00:00', '2024-02-07 03:30:00', '2024-02-07 03:00:00', '2024-02-07 02:00:00', '2024-02-07 01:00:00', '2024-02-06 18:00:00', '2024-02-06 15:00:00', '2024-02-06 14:30:00', '2024-02-06 13:30:00', '2024-02-06 13:00:00', '2024-02-06 12:00:00', '2024-02-06 10:30:00', '2024-02-06 10:00:00', '2024-02-06 09:00:00', '2024-02-06 08:30:00', '2024-02-06 08:00:00', '2024-02-06 07:00:00', '2024-02-06 06:30:00', '2024-02-06 06:00:00', '2024-02-06 03:00:00', '2024-02-06 00:00:00']"
India, Bhubaneswar Biju Patnaik International Airport (BBI/VEBS) ,"['VEBS 082130Z 29002KT 2500 BR FEW020 BKN100 18/15 Q1017 NOSIG', 'VEBS 082030Z 00000KT 3000 HZ SCT100 18/15 Q1017 NOSIG', 'VEBS 082000Z 00000KT 3000 HZ SCT100 18/15 Q1017 NOSIG', 'VEBS 081930Z 34001KT 3000 HZ SCT100 18/15 Q1017 NOSIG', 'VEBS 081900Z 00000KT 3000 HZ SCT100 19/15 Q1018 NOSIG', 'VEBS 081800Z 31001KT 3000 HZ SCT100 19/14 Q1018 NOSIG', 'VEBS 081730Z 00000KT 3000 HZ SCT100 19/15 Q1018 NOSIG', 'VEBS 081700Z 03001KT 3000 HZ SCT100 20/14 Q1018 NOSIG', 'VEBS 081630Z 00000KT 3000 HZ FEW020 SCT100 20/14 Q1018 NOSIG', 'VEBS 081600Z 16001KT 3000 HZ FEW020 SCT100 21/13 Q1018 NOSIG', 'VEBS 081530Z 15002KT 3000 HZ FEW020 SCT100 21/13 Q1018 NOSIG', 'VEBS 081500Z 07001KT 3000 HZ FEW020 SCT100 22/13 Q1018 NOSIG', 'VEBS 081430Z 13004KT 3000 HZ FEW020 SCT100 22/13 Q1017 NOSIG', 'VEBS 081330Z 11003KT 3000 HZ SCT018 BKN100 23/13 Q1017 NOSIG', 'VEBS 081300Z 10005KT 3000 HZ SCT018 BKN100 23/13 Q1016 NOSIG', 'VEBS 081230Z 11003KT 3000 HZ SCT018 BKN100 24/23 Q1016 NOSIG', 'VEBS 081200Z 10006KT 3000 HZ SCT018 BKN100 24/13 Q1016 NOSIG', 'VEBS 081130Z 09008KT 3000 HZ SCT016 BKN100 24/14 Q1015 NOSIG', 'VEBS 081100Z 09007KT 3000 HZ SCT018 BKN100 25/16 Q1015 NOSIG', 'VEBS 081030Z 06006KT 3000 HZ SCT018 BKN100 25/17 Q1015 NOSIG', 'VEBS 081000Z 05006KT 3000 HZ SCT018 BKN100 27/19 Q1015 NOSIG', 'VEBS 080930Z 03004KT 3000 HZ SCT018 BKN100 27/19 Q1015 NOSIG', 'VEBS 080900Z 02004KT 3000 HZ SCT018 BKN100 27/19 Q1015 NOSIG', 'VEBS 080830Z 02005KT 3000 HZ SCT018 BKN100 27/19 Q1016 NOSIG', 'VEBS 080800Z 01004KT 3000 HZ SCT018 BKN100 27/19 Q1016 NOSIG', 'VEBS 080730Z 36004KT 3000 HZ SCT018 BKN100 27/19 Q1017 NOSIG', 'VEBS 080630Z 07002KT 3000 HZ SCT018 BKN100 27/19 Q1018 NOSIG', 'VEBS 080600Z 03004KT 3000 HZ SCT018 BKN100 27/19 Q1018 NOSIG', 'VEBS 080530Z 07003KT 3000 HZ SCT018 BKN100 26/19 Q1018 NOSIG', 'VEBS 080500Z 09006KT 3000 HZ SCT018 BKN100 25/19 Q1019 NOSIG', 'VEBS 080430Z 04005KT 3000 HZ BKN018 BKN100 24/19 Q1020 NOSIG', 'VEBS 080400Z 03002KT 3000 HZ BKN020 BKN100 24/19 Q1020 NOSIG', 'VEBS 080330Z 03004KT 2800 BR SCT018 BKN100 23/19 Q1019 BECMG 3000 HZ', 'VEBS 080230Z 02005KT 2500 BR SCT018 BKN100 23/19 Q1018 NOSIG', 'VEBS 080130Z 03005KT 2500 BR SCT018 BKN100 22/19 Q1017 NOSIG', 'VEBS 080100Z 04006KT 2000 BR SCT018 BKN100 22/19 Q1017 NOSIG', 'VEBS 080030Z 04005KT 2000 BR FEW018 SCT100 22/19 Q1016 NOSIG', 'VEBS 072330Z 04005KT 2000 BR FEW018 SCT100 22/19 Q1016 NOSIG', 'VEBS 072300Z 04004KT 2000 BR FEW018 SCT100 22/19 Q1015 NOSIG', 'VEBS 072230Z 04004KT 2000 BR FEW018 SCT100 22/19 Q1015 NOSIG', 'VEBS 072130Z 04004KT 2000 BR FEW018 SCT100 22/19 Q1016 NOSIG', 'VEBS 072100Z 03004KT 2000 BR SCT100 22/19 Q1016 NOSIG', 'VEBS 072030Z 04003KT 2500 BR SCT100 22/18 Q1016 NOSIG', 'VEBS 072000Z 35003KT 2500 BR SCT100 22/18 Q1016 NOSIG', 'VEBS 071930Z 31002KT 2500 BR SCT100 22/19 Q1017 NOSIG', 'VEBS 071900Z 34002KT 2500 BR SCT100 22/19 Q1017 NOSIG', 'VEBS 071800Z 04001KT 2500 BR SCT100 22/19 Q1017 NOSIG', 'VEBS 071700Z 05002KT 2500 BR SCT100 23/19 Q1018 NOSIG', 'VEBS 071630Z 13004KT 2500 HZ SCT100 23/19 Q1018 NOSIG', 'VEBS 071600Z 11003KT 2500 HZ SCT100 23/18 Q1018 NOSIG', 'VEBS 071530Z 12005KT 2500 HZ SCT100 23/18 Q1018 NOSIG', 'VEBS 071500Z 13006KT 2500 HZ SCT100 23/18 Q1018 NOSIG', 'VEBS 071430Z 11005KT 2500 HZ SCT100 24/19 Q1017 NOSIG', 'VEBS 071330Z 13006KT 2500 HZ FEW020 24/19 Q1016 NOSIG', 'VEBS 071300Z 13006KT 2500 HZ NSC 25/19 Q1016 NOSIG', 'VEBS 071230Z 14009KT 2500 HZ NSC 26/20 Q1015 NOSIG', 'VEBS 071200Z 12008KT 2500 HZ NSC 27/20 Q1015 NOSIG', 'VEBS 071100Z 09005KT 3000 HZ FEW020 SCT100 30/19 Q1014 NOSIG', 'VEBS 071030Z 11006KT 3000 HZ FEW020 SCT100 30/19 Q1014 NOSIG', 'VEBS 071000Z 06002KT 3000 HZ FEW020 SCT100 30/19 Q1014 NOSIG', 'VEBS 070930Z 06004KT 3000 HZ FEW020 SCT100 30/19 Q1015 NOSIG', 'VEBS 070900Z 36005KT 3000 HZ NSC 30/19 Q1015 NOSIG', 'VEBS 070830Z 12005KT 3000 HZ NSC 31/19 Q1015 NOSIG', 'VEBS 070800Z 02004KT 3000 HZ NSC 30/19 Q1016 NOSIG', 'VEBS 070730Z 06003KT 3000 HZ NSC 29/19 Q1017 NOSIG', 'VEBS 070700Z 08004KT 3000 HZ NSC 30/19 Q1017 NOSIG', 'VEBS 070630Z 07003KT 3000 HZ NSC 28/19 Q1018 NOSIG', 'VEBS 070600Z 09004KT 3000 HZ NSC 28/19 Q1018 NOSIG', 'VEBS 070500Z 04008KT 3000 HZ NSC 27/19 Q1019 NOSIG', 'VEBS 070430Z 07007KT 3000 HZ NSC 27/19 Q1019 NOSIG', 'VEBS 070400Z 07007KT 2500 HZ NSC 26/19 Q1019 BECMG 3000 HZ', 'VEBS 070330Z 02006KT 2500 HZ NSC 26/19 Q1019 NOSIG', 'VEBS 070300Z 04005KT 2000 BR FEW100 25/19 Q1019 BECMG 3000 HZ', 'VEBS 070230Z 04006KT 2000 BR SCT020 BKN100 25/20 Q1018 NOSIG', 'VEBS 070200Z 05005KT 1600 BR SCT020 BKN100 24/21 Q1018 NOSIG', 'VEBS 070130Z 04006KT 1600 BR SCT020 BKN100 24/21 Q1017 NOSIG', 'VEBS 070100Z 04005KT 1600 BR SCT020 BKN100 24/22 Q1017 NOSIG', 'VEBS 070030Z 03004KT 1600 BR SCT020 BKN100 25/23 Q1016 NOSIG', 'VEBS 070000Z 04003KT 1600 BR SCT020 BKN100 25/23 Q1016 NOSIG', 'VEBS 062330Z 04002KT 1600 BR SCT020 BKN100 25/23 Q1015 NOSIG', 'VEBS 062300Z 04001KT 1600 BR SCT020 BKN100 25/23 Q1015 NOSIG', 'VEBS 062230Z 08001KT 1600 BR SCT020 BKN100 25/23 Q1015 NOSIG', 'VEBS 062130Z 21002KT 1600 BR SCT020 BKN100 24/23 Q1015 NOSIG', 'VEBS 062100Z 20004KT 1600 BR FEW020 BKN100 25/23 Q1015 NOSIG', 'VEBS 061930Z 20003KT 1600 BR FEW020 BKN100 25/23 Q1016 NOSIG', 'VEBS 061830Z 21003KT 1600 BR FEW020 BKN100 25/23 Q1016 NOSIG', 'VEBS 061800Z 19003KT 1600 BR FEW020 BKN100 25/23 Q1017 NOSIG', 'VEBS 061730Z 18003KT 1600 BR FEW020 BKN100 25/23 Q1017 NOSIG', 'VEBS 061700Z 18003KT 1600 BR FEW020 SCT100 24/23 Q1017 NOSIG', 'VEBS 061630Z 17004KT 1600 BR NSC 24/23 Q1017 NOSIG', 'VEBS 061600Z 17003KT 1800 BR NSC 24/23 Q1017 NOSIG', 'VEBS 061500Z 17004KT 2000 BR NSC 25/23 Q1017 NOSIG', 'VEBS 061430Z 14005KT 2200 BR NSC 25/23 Q1017 NOSIG', 'VEBS 061400Z 18005KT 2500 BR NSC 25/22 Q1016 NOSIG', 'VEBS 061330Z 19004KT 3000 HZ NSC 26/22 Q1016 NOSIG', 'VEBS 061300Z 18005KT 3000 HZ NSC 26/22 Q1015 NOSIG', 'VEBS 061230Z 18006KT 3500 HZ NSC 27/22 Q1015 BECMG 3000 HZ', 'VEBS 061200Z 18007KT 4000 HZ NSC 28/22 Q1015 NOSIG', 'VEBS 061130Z 18008KT 4500 HZ NSC 29/22 Q1014 NOSIG', 'VEBS 061100Z 16009KT 4500 HZ NSC 30/22 Q1014 NOSIG', 'VEBS 061030Z 16010KT 4500 HZ NSC 31/22 Q1014 NOSIG', 'VEBS 061000Z 19007KT 4500 HZ NSC 32/21 Q1014 NOSIG', 'VEBS 060930Z 20006KT 4500 HZ NSC 32/21 Q1014 NOSIG', 'VEBS 060900Z 17008KT 4500 HZ NSC 32/21 Q1014 NOSIG', 'VEBS 060830Z 20009KT 4500 HZ NSC 32/21 Q1014 NOSIG', 'VEBS 060800Z 20007KT 4500 HZ NSC 32/20 Q1015 NOSIG', 'VEBS 060730Z 18007KT 4500 HZ NSC 32/20 Q1016 NOSIG', 'VEBS 060700Z 22004KT 4500 HZ NSC 32/20 Q1016 NOSIG', 'VEBS 060630Z 18008KT 4500 HZ NSC 31/20 Q1017 BECMG 5000 HZ', 'VEBS 060600Z 19007KT 4500 HZ NSC 30/21 Q1018 NOSIG', 'VEBS 060530Z 20008KT 4500 HZ NSC 30/21 Q1018 NOSIG', 'VEBS 060500Z 22007KT 4000 HZ FEW020 29/21 Q1018 NOSIG', 'VEBS 060430Z 20007KT 3000 BR FEW020 28/22 Q1019 NOSIG', 'VEBS 060400Z 20005KT 2800 BR FEW020 27/22 Q1019 BECMG 3000 HZ', 'VEBS 060330Z 21004KT 2500 BR SCT020 25/22 Q1019 NOSIG', 'VEBS 060300Z 20004KT 2000 BR 25/22 Q1019 NOSIG', 'VEBS 060230Z 19004KT 1800 BR 23/22 Q1018 NOSIG', 'VEBS 060200Z 18003KT 1500 BR 23/22 Q1018 NOSIG', 'VEBS 060130Z 18003KT 1500 BR FEW100 22/21 Q1017 NOSIG', 'VEBS 060100Z 18003KT 1500 BR FEW018 SCT100 22/21 Q1017 NOSIG', 'VEBS 060000Z 19002KT 1600 BR SCT018 SCT100 23/22 Q1016 NOSIG', 'VEBS 052330Z 20002KT 1600 BR FEW020 SCT100 23/22 Q1016 NOSIG', 'VEBS 052300Z 19004KT 1600 BR FEW020 SCT100 23/22 Q1016 NOSIG', 'VEBS 052230Z 20003KT 1800 BR FEW020 SCT100 23/22 Q1016 BECMG 1500 BR']","['2024-02-08 21:30:00', '2024-02-08 20:30:00', '2024-02-08 20:00:00', '2024-02-08 19:30:00', '2024-02-08 19:00:00', '2024-02-08 18:00:00', '2024-02-08 17:30:00', '2024-02-08 17:00:00', '2024-02-08 16:30:00', '2024-02-08 16:00:00', '2024-02-08 15:30:00', '2024-02-08 15:00:00', '2024-02-08 14:30:00', '2024-02-08 13:30:00', '2024-02-08 13:00:00', '2024-02-08 12:30:00', '2024-02-08 12:00:00', '2024-02-08 11:30:00', '2024-02-08 11:00:00', '2024-02-08 10:30:00', '2024-02-08 10:00:00', '2024-02-08 09:30:00', '2024-02-08 09:00:00', '2024-02-08 08:30:00', '2024-02-08 08:00:00', '2024-02-08 07:30:00', '2024-02-08 06:30:00', '2024-02-08 06:00:00', '2024-02-08 05:30:00', '2024-02-08 05:00:00', '2024-02-08 04:30:00', '2024-02-08 04:00:00', '2024-02-08 03:30:00', '2024-02-08 02:30:00', '2024-02-08 01:30:00', '2024-02-08 01:00:00', '2024-02-08 00:30:00', '2024-02-07 23:30:00', '2024-02-07 23:00:00', '2024-02-07 22:30:00', '2024-02-07 21:30:00', '2024-02-07 21:00:00', '2024-02-07 20:30:00', '2024-02-07 20:00:00', '2024-02-07 19:30:00', '2024-02-07 19:00:00', '2024-02-07 18:00:00', '2024-02-07 17:00:00', '2024-02-07 16:30:00', '2024-02-07 16:00:00', '2024-02-07 15:30:00', '2024-02-07 15:00:00', '2024-02-07 14:30:00', '2024-02-07 13:30:00', '2024-02-07 13:00:00', '2024-02-07 12:30:00', '2024-02-07 12:00:00', '2024-02-07 11:00:00', '2024-02-07 10:30:00', '2024-02-07 10:00:00', '2024-02-07 09:30:00', '2024-02-07 09:00:00', '2024-02-07 08:30:00', '2024-02-07 08:00:00', '2024-02-07 07:30:00', '2024-02-07 07:00:00', '2024-02-07 06:30:00', '2024-02-07 06:00:00', '2024-02-07 05:00:00', '2024-02-07 04:30:00', '2024-02-07 04:00:00', '2024-02-07 03:30:00', '2024-02-07 03:00:00', '2024-02-07 02:30:00', '2024-02-07 02:00:00', '2024-02-07 01:30:00', '2024-02-07 01:00:00', '2024-02-07 00:30:00', '2024-02-07 00:00:00', '2024-02-06 23:30:00', '2024-02-06 23:00:00', '2024-02-06 22:30:00', '2024-02-06 21:30:00', '2024-02-06 21:00:00', '2024-02-06 19:30:00', '2024-02-06 18:30:00', '2024-02-06 18:00:00', '2024-02-06 17:30:00', '2024-02-06 17:00:00', '2024-02-06 16:30:00', '2024-02-06 16:00:00', '2024-02-06 15:00:00', '2024-02-06 14:30:00', '2024-02-06 14:00:00', '2024-02-06 13:30:00', '2024-02-06 13:00:00', '2024-02-06 12:30:00', '2024-02-06 12:00:00', '2024-02-06 11:30:00', '2024-02-06 11:00:00', '2024-02-06 10:30:00', '2024-02-06 10:00:00', '2024-02-06 09:30:00', '2024-02-06 09:00:00', '2024-02-06 08:30:00', '2024-02-06 08:00:00', '2024-02-06 07:30:00', '2024-02-06 07:00:00', '2024-02-06 06:30:00', '2024-02-06 06:00:00', '2024-02-06 05:30:00', '2024-02-06 05:00:00', '2024-02-06 04:30:00', '2024-02-06 04:00:00', '2024-02-06 03:30:00', '2024-02-06 03:00:00', '2024-02-06 02:30:00', '2024-02-06 02:00:00', '2024-02-06 01:30:00', '2024-02-06 01:00:00', '2024-02-06 00:00:00', '2024-02-05 23:30:00', '2024-02-05 23:00:00', '2024-02-05 22:30:00']"
India, Bhuj Airport (BHJ/VABJ) ,"['VABJ 081630Z VRB02KT 6000 BKN200 21/04 Q1019 NOSIG', 'VABJ 081530Z VRB02KT 6000 FEW100 BKN200 21/03 Q1019 NOSIG', 'VABJ 081330Z 03005KT 6000 FEW100 BKN200 23/01 Q1018 NOSIG', 'VABJ 081300Z 03005KT 6000 FEW100 BKN200 24/00 Q1018 NOSIG', 'VABJ 081230Z 03008KT 6000 FEW100 BKN200 25/M01 Q1018 NOSIG', 'VABJ 081200Z 02008KT 6000 FEW100 BKN200 26/M01 Q1017 NOSIG', 'VABJ 081100Z 03010KT 6000 FEW100 BKN200 27/M03 Q1018 NOSIG', 'VABJ 081000Z 03010KT 6000 FEW090 BKN200 27/M01 Q1018 NOSIG', 'VABJ 080730Z 04010KT 6000 FEW090 BKN200 25/05 Q1021 NOSIG', 'VABJ 080700Z 06010KT 6000 FEW090 BKN200 25/08 Q1021 NOSIG', 'VABJ 080630Z 06010KT 6000 FEW090 BKN200 25/11 Q1022 NOSIG', 'VABJ 080600Z 05010KT 6000 FEW090 BKN200 24/11 Q1022 NOSIG', 'VABJ 080500Z 05010KT 6000 SCT080 BKN200 22/11 Q1022 NOSIG', 'VABJ 080430Z 06009KT 6000 SCT080 BKN200 21/11 Q1022 NOSIG', 'VABJ 080330Z VRB02KT 6000 BKN080 BKN200 19/11 Q1022 NOSIG', 'VABJ 080300Z VRB02KT 6000 SCT080 BKN200 18/10 Q1022 NOSIG', 'VABJ 080230Z VRB02KT 5000 HZ SCT080 BKN200 18/10 Q1021 NOSIG', 'VABJ 072130Z 36006KT 6000 FEW080 BKN200 19/11 Q1020 NOSIG', 'VABJ 071400Z 34005KT 6000 FEW025 BKN200 24/11 Q1019 NOSIG', 'VABJ 071330Z 34006KT 6000 FEW025 BKN200 25/11 Q1019 NOSIG', 'VABJ 071230Z 35008KT 6000 FEW025 BKN200 26/10 Q1018 NOSIG', 'VABJ 071130Z 36008KT 6000 FEW025 BKN200 27/10 Q1018 NOSIG', 'VABJ 071030Z 35010KT 6000 FEW025 BKN200 27/13 Q1018 NOSIG', 'VABJ 071000Z 35010KT 6000 FEW025 BKN200 27/13 Q1018 NOSIG', 'VABJ 070830Z 01012KT 6000 FEW025 BKN200 29/14 Q1019 NOSIG', 'VABJ 070100Z VRB01KT 5000 BR FEW025 SCT100 BKN200 18/16 Q1018 TEMPO 4000', 'VABJ 062330Z VRB01KT 6000 FEW100 SCT200 18/17 Q1017 NOSIG', 'VABJ 062130Z VRB01KT 6000 SCT200 19/16 Q1018 NOSIG', 'VABJ 061700Z VRB02KT 6000 SCT200 22/17 Q1018 NOSIG', 'VABJ 061530Z VRB02KT 6000 SCT200 22/15 Q1017 NOSIG', 'VABJ 061500Z VRB02KT 6000 FEW025 BKN200 22/15 Q1017 NOSIG', 'VABJ 061330Z VRB02KT 6000 FEW025 SCT200 25/14 Q1016 NOSIG', 'VABJ 061300Z VRB02KT 6000 FEW025 SCT200 25/13 Q1016 NOSIG', 'VABJ 061230Z VRB02KT 6000 FEW025 SCT200 26/14 Q1015 NOSIG', 'VABJ 061200Z VRB02KT 6000 FEW025 SCT200 27/14 Q1015 NOSIG', 'VABJ 061130Z VRB02KT 6000 FEW025 SCT200 28/14 Q1015 NOSIG', 'VABJ 060800Z VRB02KT 6000 FEW025 28/15 Q1017 NOSIG', 'VABJ 060700Z 02004KT 6000 FEW025 SCT200 27/15 Q1018 NOSIG']","['2024-02-08 16:30:00', '2024-02-08 15:30:00', '2024-02-08 13:30:00', '2024-02-08 13:00:00', '2024-02-08 12:30:00', '2024-02-08 12:00:00', '2024-02-08 11:00:00', '2024-02-08 10:00:00', '2024-02-08 07:30:00', '2024-02-08 07:00:00', '2024-02-08 06:30:00', '2024-02-08 06:00:00', '2024-02-08 05:00:00', '2024-02-08 04:30:00', '2024-02-08 03:30:00', '2024-02-08 03:00:00', '2024-02-08 02:30:00', '2024-02-07 21:30:00', '2024-02-07 14:00:00', '2024-02-07 13:30:00', '2024-02-07 12:30:00', '2024-02-07 11:30:00', '2024-02-07 10:30:00', '2024-02-07 10:00:00', '2024-02-07 08:30:00', '2024-02-07 01:00:00', '2024-02-06 23:30:00', '2024-02-06 21:30:00', '2024-02-06 17:00:00', '2024-02-06 15:30:00', '2024-02-06 15:00:00', '2024-02-06 13:30:00', '2024-02-06 13:00:00', '2024-02-06 12:30:00', '2024-02-06 12:00:00', '2024-02-06 11:30:00', '2024-02-06 08:00:00', '2024-02-06 07:00:00']"
India, Chandigarh Airport (IXC/VICG) ,"['VICG 082100Z 32004KT 6000 SKC 09/07 Q1016 NOSIG', 'VICG 081730Z 33005KT 6000 SKC 11/07 Q1017 NOSIG', 'VICG 081600Z 34007KT 6000 SKC 13/07 Q1017 NOSIG', 'VICG 081530Z 34006KT 6000 SKC 14/08 Q1017 NOSIG', 'VICG 081500Z 32006KT 6000 SKC 14/08 Q1017 NOSIG', 'VICG 081430Z 33008KT 6000 SKC 15/08 Q1016 NOSIG', 'VICG 081400Z 32008KT 6000 SKC 15/08 Q1016 NOSIG', 'VICG 081300Z 31009KT 6000 SKC 16/08 Q1016 NOSIG', 'VICG 081230Z 31011KT 6000 SKC 17/08 Q1015 NOSIG', 'VICG 081130Z 32010G20KT 6000 SKC 19/07 Q1015 TEMPO 32015G25KT', 'VICG 081100Z 31011G21KT 6000 SKC 20/07 Q1015 TEMPO 32015G25KT', 'VICG 081000Z 31013G23KT 6000 SKC 21/08 Q1016 TEMPO 32015G25KT', 'VICG 080730Z 32010G20KT 6000 SKC 19/06 Q1019 TEMPO 32015G25KT', 'VICG 080700Z 32013G23KT 6000 SKC 19/07 Q1019 TEMPO 32015G25KT', 'VICG 080630Z 32014G24KT 6000 SKC 19/07 Q1019 TEMPO 32015G25KT', 'VICG 080600Z 32013KT 6000 SKC 18/08 Q1019 TEMPO 32015G25KT', 'VICG 080500Z 33010KT 5000 HZ SKC 15/08 Q1020 NOSIG', 'VICG 080430Z 31009KT 5000 HZ SKC 14/07 Q1020 NOSIG', 'VICG 080330Z 31010KT 5000 HZ SKC 12/07 Q1020 NOSIG', 'VICG 080300Z 32009KT 5000 HZ SKC 12/06 Q1019 NOSIG', 'VICG 080230Z 33010KT 5000 BR SKC 11/06 Q1019 NOSIG', 'VICG 080200Z 31007KT 5000 BR SKC 09/06 Q1019 NOSIG', 'VICG 080030Z 33010KT 6000 SKC 10/06 Q1018 NOSIG', 'VICG 072130Z 33012KT 6000 SKC 11/07 Q1019 NOSIG', 'VICG 072100Z 34012KT 6000 SKC 12/07 Q1019 NOSIG', 'VICG 071800Z 34007KT 6000 SKC 12/07 Q1021 NOSIG', 'VICG 071630Z 31007KT 6000 SKC 12/07 Q1021 NOSIG', 'VICG 071600Z 31009KT 6000 SKC 13/07 Q1021 NOSIG', 'VICG 071430Z 31009KT 6000 FEW250 14/07 Q1020 NOSIG', 'VICG 071400Z 31010KT 6000 FEW250 14/07 Q1020 NOSIG', 'VICG 071330Z 33010KT 6000 FEW250 15/07 Q1020 NOSIG', 'VICG 071300Z 32010KT 6000 FEW250 15/07 Q1019 TEMPO 32015G25KT', 'VICG 071230Z 32012KT 6000 SCT250 16/06 Q1019 TEMPO 32015G25KT', 'VICG 071130Z 31015G25KT 6000 FEW100 SCT250 18/06 Q1019 NOSIG', 'VICG 071100Z 32012G22KT 6000 FEW100 SCT250 18/06 Q1019 TEMPO 32015G25KT', 'VICG 070930Z 32012G22KT 6000 SCT100 BKN250 19/10 Q1019 TEMPO 32015G25KT', 'VICG 070900Z 32010G20KT 6000 SCT100 BKN250 19/10 Q1021 TEMPO 32015G25KT', 'VICG 070800Z 32011G22KT 6000 SCT100 BKN250 18/09 Q1022 TEMPO 32015G25KT', 'VICG 070700Z 32012G22KT 6000 HZ SCT100 19/09 Q1022 TEMPO 32015G25KT', 'VICG 070600Z 32010G20KT 6000 SCT100 18/08 Q1022 TEMPO 32015G25KT', 'VICG 070530Z 32015KT 6000 SCT100 17/07 Q1022 TEMPO 32015G25KT', 'VICG 070400Z 34010KT 5000 HZ FEW100 14/07 Q1022 NOSIG', 'VICG 070200Z 35004KT 5000 BR FEW100 09/06 Q1019 NOSIG', 'VICG 070100Z VRB02KT 5000 BR SKC 08/06 Q1019 NOSIG', 'VICG 062330Z 36004KT 6000 SKC 10/06 Q1019 NOSIG', 'VICG 062130Z 36005KT 6000 SKC 10/06 Q1020 NOSIG', 'VICG 062000Z 34003KT 6000 SKC 09/06 Q1021 NOSIG', 'VICG 061900Z VRB02KT 6000 SKC 09/06 Q1021 NOSIG', 'VICG 061800Z VRB02KT 6000 SKC 11/07 Q1021 NOSIG', 'VICG 061530Z 34006KT 6000 SKC 13/07 Q1020 NOSIG', 'VICG 061500Z 34006KT 6000 SKC 14/07 Q1020 NOSIG', 'VICG 061430Z 34008KT 6000 SKC 14/07 Q1020 NOSIG', 'VICG 061400Z 33007KT 6000 SKC 15/06 Q1020 NOSIG', 'VICG 061330Z 32007KT 6000 FEW025 15/06 Q1019 NOSIG', 'VICG 061300Z 320085KT 6000 FEW025 15/06 Q1019 NOSIG', 'VICG 061230Z 32013KT 6000 FEW025 16/06 Q1019 NOSIG', 'VICG 061200Z 32014KT 6000 FEW025 17/06 Q1018 NOSIG', 'VICG 061130Z 31013KT 6000 FEW025 18/07 Q1018 NOSIG', 'VICG 061100Z 31011KT 6000 FEW025 19/06 Q1019 NOSIG', 'VICG 060930Z 31011KT 6000 FEW025 20/09 Q1019 NOSIG', 'VICG 060900Z 32012KT 6000 FEW025 20/10 Q1019 NOSIG', 'VICG 060800Z 30010KT 6000 SCT025 20/10 Q1020 NOSIG', 'VICG 060730Z 32010KT 6000 FEW025 20/10 Q1020 NOSIG', 'VICG 060700Z 34010KT 6000 SKC 19/10 Q1021 NOSIG', 'VICG 060630Z 32010KT 6000 SKC 19/10 Q1021 NOSIG']","['2024-02-08 21:00:00', '2024-02-08 17:30:00', '2024-02-08 16:00:00', '2024-02-08 15:30:00', '2024-02-08 15:00:00', '2024-02-08 14:30:00', '2024-02-08 14:00:00', '2024-02-08 13:00:00', '2024-02-08 12:30:00', '2024-02-08 11:30:00', '2024-02-08 11:00:00', '2024-02-08 10:00:00', '2024-02-08 07:30:00', '2024-02-08 07:00:00', '2024-02-08 06:30:00', '2024-02-08 06:00:00', '2024-02-08 05:00:00', '2024-02-08 04:30:00', '2024-02-08 03:30:00', '2024-02-08 03:00:00', '2024-02-08 02:30:00', '2024-02-08 02:00:00', '2024-02-08 00:30:00', '2024-02-07 21:30:00', '2024-02-07 21:00:00', '2024-02-07 18:00:00', '2024-02-07 16:30:00', '2024-02-07 16:00:00', '2024-02-07 14:30:00', '2024-02-07 14:00:00', '2024-02-07 13:30:00', '2024-02-07 13:00:00', '2024-02-07 12:30:00', '2024-02-07 11:30:00', '2024-02-07 11:00:00', '2024-02-07 09:30:00', '2024-02-07 09:00:00', '2024-02-07 08:00:00', '2024-02-07 07:00:00', '2024-02-07 06:00:00', '2024-02-07 05:30:00', '2024-02-07 04:00:00', '2024-02-07 02:00:00', '2024-02-07 01:00:00', '2024-02-06 23:30:00', '2024-02-06 21:30:00', '2024-02-06 20:00:00', '2024-02-06 19:00:00', '2024-02-06 18:00:00', '2024-02-06 15:30:00', '2024-02-06 15:00:00', '2024-02-06 14:30:00', '2024-02-06 14:00:00', '2024-02-06 13:30:00', '2024-02-06 13:00:00', '2024-02-06 12:30:00', '2024-02-06 12:00:00', '2024-02-06 11:30:00', '2024-02-06 11:00:00', '2024-02-06 09:30:00', '2024-02-06 09:00:00', '2024-02-06 08:00:00', '2024-02-06 07:30:00', '2024-02-06 07:00:00', '2024-02-06 06:30:00']"
India, Chennai International Airport (MAA/VOMM) ,"['VOMM 082130Z VRB02KT 4000 BR FEW020 25/22 Q1014 BECMG 3000 BR', 'VOMM 082100Z VRB02KT 5000 BR FEW020 25/22 Q1014 BECMG 3000 BR', 'VOMM 082030Z VRB02KT 5000 BR FEW020 25/23 Q1014 NOSIG', 'VOMM 082000Z 00000KT 6000 FEW020 25/23 Q1014 BECMG 5000 BR', 'VOMM 081930Z 00000KT 6000 FEW020 25/22 Q1014 NOSIG', 'VOMM 081900Z 00000KT 6000 FEW020 26/23 Q1015 NOSIG', 'VOMM 081830Z VRB02KT 6000 FEW020 26/23 Q1015 NOSIG', 'VOMM 081800Z 00000KT 6000 FEW020 26/23 Q1015 NOSIG', 'VOMM 081730Z 15003KT 6000 FEW020 26/23 Q1015 NOSIG', 'VOMM 081700Z 14004KT 6000 FEW020 26/23 Q1015 NOSIG', 'VOMM 081600Z 13005KT 6000 FEW020 26/23 Q1015 NOSIG', 'VOMM 081530Z 14004KT 6000 FEW020 27/23 Q1015 NOSIG', 'VOMM 081500Z 14004KT 6000 FEW020 27/23 Q1014 NOSIG', 'VOMM 081430Z 13004KT 6000 FEW020 27/23 Q1014 NOSIG', 'VOMM 081400Z 13004KT 6000 FEW020 27/23 Q1014 NOSIG', 'VOMM 081330Z 14005KT 6000 FEW020 SCT100 28/23 Q1013 NOSIG', 'VOMM 081300Z 14006KT 6000 FEW020 SCT100 28/23 Q1013 NOSIG', 'VOMM 081230Z 14007KT 6000 FEW020 28/23 Q1012 NOSIG', 'VOMM 081200Z 14007KT 6000 FEW020 29/23 Q1012 NOSIG', 'VOMM 081130Z 13007KT 6000 FEW020 29/23 Q1013 NOSIG', 'VOMM 081100Z 14007KT 6000 FEW020 30/23 Q1012 NOSIG', 'VOMM 081030Z 14007KT 6000 FEW020 30/23 Q1012 NOSIG', 'VOMM 081000Z 14005KT 6000 FEW020 31/22 Q1012 NOSIG', 'VOMM 080900Z 13005KT 6000 FEW020 31/23 Q1012 NOSIG', 'VOMM 080830Z 12006KT 6000 FEW020 30/23 Q1013 NOSIG', 'VOMM 080800Z 11006KT 6000 FEW020 30/23 Q1014 NOSIG', 'VOMM 080730Z 11007KT 6000 FEW020 31/23 Q1014 NOSIG', 'VOMM 080700Z 11009KT 6000 FEW020 31/23 Q1015 NOSIG', 'VOMM 080630Z 13008KT 6000 FEW020 31/22 Q1015 NOSIG', 'VOMM 080600Z 15007KT 5000 HZ FEW020 31/22 Q1015 NOSIG', 'VOMM 080530Z 13006KT 4000 HZ FEW020 31/23 Q1016 BECMG 5000 HZ', 'VOMM 080500Z VRB02KT 3500 HZ FEW020 29/24 Q1016 BECMG 5000 HZ', 'VOMM 080430Z VRB02KT 2500 BR FEW020 28/24 Q1016 BECMG 3000 BR', 'VOMM 080330Z VRB02KT 2000 BR FEW020 26/23 Q1016 BECMG 3000 BR', 'VOMM 080300Z 30005KT 1500 BR FEW020 25/23 Q1015 BECMG 3000 BR', 'VOMM 080200Z 31003KT 1000 R07/1500 R25/1500 MIFG FEW020 24/22 Q1015 NOSIG', 'VOMM 080130Z 28003KT 1500 BR FEW020 23/21 Q1014 TEMPO 0800 FG', 'VOMM 080100Z 27004KT 2100 BR FEW020 23/21 Q1014 TEMPO 1500 BR', 'VOMM 080030Z 27003KT 2100 BR FEW020 23/21 Q1013 NOSIG', 'VOMM 080000Z 28003KT 2100 BR FEW020 23/21 Q1013 TEMPO 1500 BR', 'VOMM 072330Z 27004KT 2100 BR FEW020 24/21 Q1013 TEMPO 1500 BR', 'VOMM 072300Z 28004KT 2100 BR FEW020 24/22 Q1013 TEMPO 1500 BR', 'VOMM 072230Z 29004KT 3000 BR FEW020 24/22 Q1013 TEMPO 1500 BR', 'VOMM 072200Z 28003KT 3000 BR FEW020 24/22 Q1013 NOSIG', 'VOMM 072100Z 26004KT 4000 BR FEW020 24/22 Q1013 BECMG 3000 BR', 'VOMM 072030Z 27002KT 5000 BR FEW020 24/22 Q1014 BECMG 3000 BR', 'VOMM 072000Z 24002KT 5000 BR FEW020 25/22 Q1014 NOSIG', 'VOMM 071900Z VRB02KT 5000 BR FEW020 25/22 Q1015 NOSIG', 'VOMM 071830Z VRB02KT 5000 BR FEW020 25/22 Q1015 NOSIG', 'VOMM 071730Z VRB02KT 5000 BR FEW020 SCT100 25/22 Q1015 NOSIG', 'VOMM 071700Z VRB02KT 6000 FEW020 SCT100 26/22 Q1015 BECMG 5000 BR', 'VOMM 071630Z VRB02KT 6000 FEW020 SCT100 26/22 Q1015 NOSIG', 'VOMM 071600Z 12004KT 6000 FEW020 SCT100 26/22 Q1015 NOSIG', 'VOMM 071530Z 10004KT 6000 FEW020 SCT100 26/22 Q1015 NOSIG', 'VOMM 071500Z 07004KT 6000 FEW020 SCT100 26/22 Q1015 NOSIG', 'VOMM 071430Z 08004KT 6000 FEW020 SCT100 26/22 Q1015 NOSIG', 'VOMM 071400Z 10006KT 6000 FEW020 SCT100 27/22 Q1015 NOSIG', 'VOMM 071330Z 12007KT 6000 FEW020 27/22 Q1014 NOSIG', 'VOMM 071300Z 09007KT 6000 FEW020 28/21 Q1014 NOSIG', 'VOMM 071230Z 10008KT 6000 FEW020 28/20 Q1014 NOSIG', 'VOMM 071200Z 09008KT 6000 FEW020 29/19 Q1013 NOSIG', 'VOMM 071130Z 11006KT 6000 FEW020 30/19 Q1013 NOSIG', 'VOMM 071100Z 10007KT 6000 FEW020 30/20 Q1013 NOSIG', 'VOMM 071030Z 10006KT 6000 FEW020 31/20 Q1013 NOSIG', 'VOMM 071000Z 07006KT 6000 FEW020 32/19 Q1013 NOSIG', 'VOMM 070930Z 09008KT 6000 FEW020 32/18 Q1013 NOSIG', 'VOMM 070900Z 12008KT 6000 FEW020 32/19 Q1014 NOSIG', 'VOMM 070830Z 10008KT 6000 FEW020 32/18 Q1014 NOSIG', 'VOMM 070800Z 11008KT 6000 FEW020 32/20 Q1015 NOSIG', 'VOMM 070730Z 12008KT 6000 FEW020 31/19 Q1015 NOSIG', 'VOMM 070700Z 11006KT 6000 FEW020 31/20 Q1016 NOSIG', 'VOMM 070630Z 06006KT 5000 HZ FEW020 31/21 Q1016 NOSIG', 'VOMM 070600Z 06006KT 4500 HZ FEW020 31/23 Q1017 BECMG 5000 HZ', 'VOMM 070530Z 04003KT 4000 HZ FEW020 30/23 Q1017 BECMG 5000 HZ', 'VOMM 070400Z 05003KT 2500 BR FEW020 27/24 Q1017 BECMG 3000 BR', 'VOMM 070230Z 28003KT 1200 R07/1500 R25/1600 MIFG FEW020 24/22 Q1016 BECMG 1500 BR', 'VOMM 070200Z 29003KT 1000 R07/1300 R25/1400 MIFG FEW020 SCT100 23/21 Q1016 NOSIG', 'VOMM 070130Z 29002KT 1000 R07/1300 R25/1400 MIFG FEW020 SCT100 23/21 Q1016 TEMPO 0800 FG', 'VOMM 070100Z 27002KT 1000 R07/1800 R25/1800 MIFG FEW020 SCT100 23/21 Q1015 TEMPO 0800 FG', 'VOMM 070000Z 30002KT 1500 R07/1700 R25/1800 BR FEW020 SCT100 24/21 Q1014 TEMPO 0800 FG', 'VOMM 062330Z 29002KT 2000 BR FEW020 SCT100 24/22 Q1014 TEMPO 1500 BR', 'VOMM 062230Z VRB02KT 3000 BR FEW020 SCT100 24/22 Q1014 TEMPO 1500 BR', 'VOMM 062200Z VRB02KT 3000 BR FEW020 24/22 Q1014 NOSIG', 'VOMM 062100Z 00000KT 4000 BR FEW020 24/22 Q1014 BECMG 3000 BR', 'VOMM 062030Z 00000KT 4000 BR FEW020 24/21 Q1014 NOSIG', 'VOMM 062000Z 00000KT 5000 BR FEW020 24/22 Q1015 BECMG 3000 BR', 'VOMM 061930Z 00000KT 5000 BR FEW020 24/22 Q1015 NOSIG', 'VOMM 061830Z VRB02KT 5000 BR FEW020 25/22 Q1016 NOSIG', 'VOMM 061800Z VRB02KT 5000 BR FEW020 25/22 Q1016 NOSIG', 'VOMM 061730Z 07003KT 5000 BR FEW020 25/22 Q1016 NOSIG', 'VOMM 061700Z 07004KT 5000 BR FEW020 26/22 Q1016 NOSIG', 'VOMM 061630Z 07004KT 5000 BR FEW020 26/22 Q1016 NOSIG', 'VOMM 061530Z 09006KT 6000 FEW020 26/22 Q1016 BECMG 5000 BR', 'VOMM 061500Z 10007KT 6000 FEW020 26/22 Q1016 NOSIG', 'VOMM 061400Z 10007KT 5000 BR FEW020 27/22 Q1015 NOSIG', 'VOMM 061330Z 10007KT 5000 BR FEW020 27/22 Q1015 NOSIG', 'VOMM 061300Z 08007KT 5000 BR FEW020 27/22 Q1015 NOSIG', 'VOMM 061200Z 10007KT 5000 HZ FEW020 28/22 Q1014 NOSIG', 'VOMM 061130Z 11007KT 5000 HZ FEW020 29/22 Q1014 NOSIG', 'VOMM 061100Z 11008KT 5000 HZ FEW020 29/23 Q1014 NOSIG', 'VOMM 061000Z 12010KT 6000 FEW020 30/23 Q1014 NOSIG', 'VOMM 060930Z 10010KT 6000 FEW020 30/23 Q1014 NOSIG', 'VOMM 060900Z 10008KT 6000 FEW020 30/22 Q1014 NOSIG', 'VOMM 060800Z 11010KT 5000 HZ FEW020 30/22 Q1015 NOSIG', 'VOMM 060730Z 11007KT 5000 HZ FEW020 SCT100 30/22 Q1016 NOSIG', 'VOMM 060700Z 10006KT 5000 HZ FEW020 SCT100 30/23 Q1016 NOSIG', 'VOMM 060630Z 09006KT 5000 HZ FEW020 SCT100 30/22 Q1017 NOSIG', 'VOMM 060600Z 10006KT 5000 HZ FEW020 SCT100 30/22 Q1017 NOSIG', 'VOMM 060530Z 08006KT 5000 HZ FEW020 SCT100 30/22 Q1017 NOSIG', 'VOMM 060500Z 12004KT 5000 HZ FEW020 SCT100 29/23 Q1018 NOSIG', 'VOMM 060400Z VRB02KT 3000 BR SCT020 SCT100 28/24 Q1018 NOSIG', 'VOMM 060300Z 34003KT 2000 BR SCT020 SCT100 25/23 Q1017 BECMG 3000 BR', 'VOMM 060200Z VRB02KT 1200 R07/1700 R25/1600 BR SCT020 SCT100 24/22 Q1017 BECMG 1500 BR', 'VOMM 060130Z 29003KT 1300 R07/1700 R25/1600 BR SCT020 SCT100 24/21 Q1016 TEMPO 0800 FG', 'VOMM 060100Z 30003KT 1500 BR SCT020 SCT100 24/21 Q1016 TEMPO 0800 FG', 'VOMM 060030Z 30003KT 1700 BR SCT020 SCT100 24/22 Q1016 TEMPO 1500 BR', 'VOMM 052330Z 29003KT 2100 BR SCT020 SCT100 24/22 Q1015 TEMPO 1500 BR', 'VOMM 052300Z 32003KT 3000 BR SCT020 SCT100 24/22 Q1015 TEMPO 1500 BR', 'VOMM 052230Z 30003KT 5000 BR FEW020 24/22 Q1014 TEMPO 3000 BR', 'VOMM 052200Z VRB02KT 5000 BR FEW020 24/22 Q1014 NOSIG']","['2024-02-08 21:30:00', '2024-02-08 21:00:00', '2024-02-08 20:30:00', '2024-02-08 20:00:00', '2024-02-08 19:30:00', '2024-02-08 19:00:00', '2024-02-08 18:30:00', '2024-02-08 18:00:00', '2024-02-08 17:30:00', '2024-02-08 17:00:00', '2024-02-08 16:00:00', '2024-02-08 15:30:00', '2024-02-08 15:00:00', '2024-02-08 14:30:00', '2024-02-08 14:00:00', '2024-02-08 13:30:00', '2024-02-08 13:00:00', '2024-02-08 12:30:00', '2024-02-08 12:00:00', '2024-02-08 11:30:00', '2024-02-08 11:00:00', '2024-02-08 10:30:00', '2024-02-08 10:00:00', '2024-02-08 09:00:00', '2024-02-08 08:30:00', '2024-02-08 08:00:00', '2024-02-08 07:30:00', '2024-02-08 07:00:00', '2024-02-08 06:30:00', '2024-02-08 06:00:00', '2024-02-08 05:30:00', '2024-02-08 05:00:00', '2024-02-08 04:30:00', '2024-02-08 03:30:00', '2024-02-08 03:00:00', '2024-02-08 02:00:00', '2024-02-08 01:30:00', '2024-02-08 01:00:00', '2024-02-08 00:30:00', '2024-02-08 00:00:00', '2024-02-07 23:30:00', '2024-02-07 23:00:00', '2024-02-07 22:30:00', '2024-02-07 22:00:00', '2024-02-07 21:00:00', '2024-02-07 20:30:00', '2024-02-07 20:00:00', '2024-02-07 19:00:00', '2024-02-07 18:30:00', '2024-02-07 17:30:00', '2024-02-07 17:00:00', '2024-02-07 16:30:00', '2024-02-07 16:00:00', '2024-02-07 15:30:00', '2024-02-07 15:00:00', '2024-02-07 14:30:00', '2024-02-07 14:00:00', '2024-02-07 13:30:00', '2024-02-07 13:00:00', '2024-02-07 12:30:00', '2024-02-07 12:00:00', '2024-02-07 11:30:00', '2024-02-07 11:00:00', '2024-02-07 10:30:00', '2024-02-07 10:00:00', '2024-02-07 09:30:00', '2024-02-07 09:00:00', '2024-02-07 08:30:00', '2024-02-07 08:00:00', '2024-02-07 07:30:00', '2024-02-07 07:00:00', '2024-02-07 06:30:00', '2024-02-07 06:00:00', '2024-02-07 05:30:00', '2024-02-07 04:00:00', '2024-02-07 02:30:00', '2024-02-07 02:00:00', '2024-02-07 01:30:00', '2024-02-07 01:00:00', '2024-02-07 00:00:00', '2024-02-06 23:30:00', '2024-02-06 22:30:00', '2024-02-06 22:00:00', '2024-02-06 21:00:00', '2024-02-06 20:30:00', '2024-02-06 20:00:00', '2024-02-06 19:30:00', '2024-02-06 18:30:00', '2024-02-06 18:00:00', '2024-02-06 17:30:00', '2024-02-06 17:00:00', '2024-02-06 16:30:00', '2024-02-06 15:30:00', '2024-02-06 15:00:00', '2024-02-06 14:00:00', '2024-02-06 13:30:00', '2024-02-06 13:00:00', '2024-02-06 12:00:00', '2024-02-06 11:30:00', '2024-02-06 11:00:00', '2024-02-06 10:00:00', '2024-02-06 09:30:00', '2024-02-06 09:00:00', '2024-02-06 08:00:00', '2024-02-06 07:30:00', '2024-02-06 07:00:00', '2024-02-06 06:30:00', '2024-02-06 06:00:00', '2024-02-06 05:30:00', '2024-02-06 05:00:00', '2024-02-06 04:00:00', '2024-02-06 03:00:00', '2024-02-06 02:00:00', '2024-02-06 01:30:00', '2024-02-06 01:00:00', '2024-02-06 00:30:00', '2024-02-05 23:30:00', '2024-02-05 23:00:00', '2024-02-05 22:30:00', '2024-02-05 22:00:00']"
India, Cochin International Airport (COK/VOCI) ,"['VOCI 082100Z 11003KT 2500 BR FEW012 24/23 Q1013 NOSIG', 'VOCI 082030Z 13003KT 2500 BR FEW012 24/23 Q1013 NOSIG', 'VOCI 082000Z 12003KT 2500 BR FEW012 24/23 Q1014 NOSIG', 'VOCI 081930Z 09003KT 2500 BR FEW012 25/23 Q1014 NOSIG', 'VOCI 081900Z 10003KT 2500 BR FEW012 25/23 Q1014 NOSIG', 'VOCI 081800Z 12002KT 3000 BR FEW012 25/24 Q1014 NOSIG', 'VOCI 081700Z 09002KT 3000 BR FEW012 25/24 Q1014 NOSIG', 'VOCI 081630Z 08002KT 3000 BR FEW015 26/24 Q1014 NOSIG', 'VOCI 081600Z 19002KT 3000 BR FEW015 26/24 Q1014 NOSIG', 'VOCI 081530Z 21002KT 3000 BR FEW015 26/24 Q1014 NOSIG', 'VOCI 081500Z 26002KT 3000 BR FEW015 27/25 Q1013 NOSIG', 'VOCI 081430Z 00000KT 3000 BR FEW015 28/24 Q1013 NOSIG', 'VOCI 081400Z 23002KT 3500 HZ FEW015 28/23 Q1012 TEMPO 3000 BR', 'VOCI 081300Z 29005KT 4000 HZ FEW015 30/22 Q1011 NOSIG', 'VOCI 081230Z 28005KT 4500 HZ FEW015 31/22 Q1010 NOSIG', 'VOCI 081130Z 27007KT 4500 HZ FEW015 32/22 Q1010 NOSIG', 'VOCI 081100Z 26007KT 4500 HZ FEW015 32/22 Q1010 NOSIG', 'VOCI 081030Z 23006KT 4500 HZ FEW015 32/21 Q1010 NOSIG', 'VOCI 081000Z 25006KT 4500 HZ FEW015 33/20 Q1010 NOSIG', 'VOCI 080900Z 27006KT 4500 HZ FEW015 35/19 Q1011 NOSIG', 'VOCI 080800Z 23003KT 4000 HZ FEW015 34/20 Q1012 NOSIG', 'VOCI 080730Z 22004KT 4000 HZ FEW015 34/21 Q1012 NOSIG', 'VOCI 080700Z 24003KT 4000 HZ FEW015 33/22 Q1012 NOSIG', 'VOCI 080630Z 23003KT 4000 HZ FEW015 33/22 Q1013 NOSIG', 'VOCI 080530Z VRB02KT 4000 BR FEW015 31/23 Q1014 NOSIG', 'VOCI 080430Z 11005KT 4000 HZ FEW015 29/22 Q1015 NOSIG', 'VOCI 080400Z 11005KT 4000 HZ FEW015 28/21 Q1015 NOSIG', 'VOCI 080330Z 12006KT 4000 HZ FEW015 26/21 Q1015 NOSIG', 'VOCI 080300Z 09003KT 4000 BR FEW015 25/21 Q1015 NOSIG', 'VOCI 080200Z 08003KT 3000 BR FEW015 23/21 Q1014 BECMG 4000 BR', 'VOCI 080130Z 10002KT 3000 BR FEW015 22/21 Q1013 NOSIG', 'VOCI 080030Z 10002KT 2500 BR FEW012 22/21 Q1013 NOSIG', 'VOCI 080000Z 10002KT 2500 BR FEW012 22/21 Q1012 NOSIG', 'VOCI 072330Z 12002KT 2500 BR FEW012 23/22 Q1012 NOSIG', 'VOCI 072300Z 09002KT 2500 BR FEW012 23/22 Q1012 NOSIG', 'VOCI 072200Z 10002KT 2500 BR FEW010 24/24 Q1012 BECMG 2000 BR', 'VOCI 072130Z 00000KT 2500 BR FEW010 25/24 Q1012 NOSIG', 'VOCI 072100Z 10003KT 3000 BR FEW010 25/24 Q1012 NOSIG', 'VOCI 072030Z 08003KT 3000 BR FEW015 26/24 Q1012 NOSIG', 'VOCI 072000Z 10002KT 3000 BR FEW015 26/25 Q1013 NOSIG', 'VOCI 071930Z 06002KT 3000 BR FEW015 26/25 Q1014 NOSIG', 'VOCI 071900Z 11002KT 3000 BR FEW015 26/25 Q1014 NOSIG', 'VOCI 071830Z 09002KT 3500 BR FEW015 27/26 Q1014 TEMPO 3000 BR', 'VOCI 071800Z 10002KT 3500 BR FEW015 27/26 Q1014 NOSIG', 'VOCI 071700Z VRB02KT 3500 BR FEW015 27/25 Q1014 NOSIG', 'VOCI 071600Z 18002KT 3500 BR FEW015 27/26 Q1014 NOSIG', 'VOCI 071500Z 18003KT 3500 BR NSC 29/26 Q1013 NOSIG', 'VOCI 071400Z 31006KT 3500 HZ NSC 30/25 Q1012 NOSIG', 'VOCI 071300Z 30007KT 4000 HZ NSC 31/25 Q1011 NOSIG', 'VOCI 071200Z 29009KT 4000 HZ NSC 32/24 Q1011 NOSIG', 'VOCI 071100Z 29010KT 4000 HZ NSC 34/23 Q1010 NOSIG', 'VOCI 071030Z 28010KT 4000 HZ NSC 34/23 Q1010 NOSIG', 'VOCI 071000Z 28010KT 5000 HZ NSC 35/21 Q1011 TEMPO 4000 HZ', 'VOCI 070930Z 23004KT 5000 HZ NSC 35/20 Q1011 NOSIG', 'VOCI 070900Z 26004KT 5000 HZ NSC 35/20 Q1011 NOSIG', 'VOCI 070830Z 27007KT 5000 HZ NSC 35/20 Q1012 NOSIG', 'VOCI 070730Z 12002KT 5000 HZ NSC 34/21 Q1013 NOSIG', 'VOCI 070700Z 34003KT 5000 HZ NSC 33/20 Q1014 NOSIG', 'VOCI 070630Z 30003KT 5000 HZ NSC 32/21 Q1015 NOSIG', 'VOCI 070600Z VRB01KT 5000 HZ NSC 33/21 Q1016 NOSIG', 'VOCI 070530Z VRB01KT 5000 HZ NSC 31/23 Q1016 NOSIG', 'VOCI 070430Z 13003KT 4500 HZ NSC 29/21 Q1016 BECMG 5000 HZ', 'VOCI 070300Z 11003KT 4000 BR NSC 25/21 Q1016 NOSIG', 'VOCI 070200Z 13002KT 3000 BR FEW015 23/21 Q1015 NOSIG', 'VOCI 070130Z 12002KT 3000 BR FEW015 23/20 Q1015 NOSIG', 'VOCI 070030Z 10002KT 3000 BR FEW015 23/20 Q1014 TEMPO 2000 BR', 'VOCI 070000Z 13002KT 3000 BR FEW015 23/20 Q1013 NOSIG', 'VOCI 062330Z 11002KT 3000 BR SCT020 23/21 Q1013 NOSIG', 'VOCI 062300Z 09003KT 3000 BR SCT020 23/21 Q1013 NOSIG', 'VOCI 062230Z 10003KT 3000 BR FEW015 24/21 Q1013 NOSIG', 'VOCI 062200Z 11003KT 3000 BR FEW015 24/21 Q1013 NOSIG', 'VOCI 062100Z 11003KT 3000 BR FEW015 24/21 Q1013 NOSIG', 'VOCI 062030Z VRB01KT 3000 BR FEW015 24/21 Q1013 NOSIG', 'VOCI 062000Z 00000KT 3000 BR FEW015 24/22 Q1014 NOSIG', 'VOCI 061930Z 00000KT 3000 BR FEW015 24/22 Q1014 NOSIG', 'VOCI 061900Z 09002KT 3000 BR FEW015 25/22 Q1014 NOSIG', 'VOCI 061800Z 08003KT 3500 BR FEW015 25/22 Q1014 NOSIG', 'VOCI 061730Z 07002KT 3500 BR FEW015 25/23 Q1014 NOSIG', 'VOCI 061630Z 18003KT 4000 BR FEW015 25/22 Q1014 NOSIG', 'VOCI 061600Z 00000KT 4000 BR FEW015 25/22 Q1014 NOSIG', 'VOCI 061500Z 21003KT 4000 BR FEW015 26/22 Q1013 NOSIG', 'VOCI 061400Z VRB01KT 4000 HZ FEW020 28/22 Q1012 NOSIG', 'VOCI 061330Z 32003KT 4500 HZ FEW020 30/22 Q1012 NOSIG', 'VOCI 061230Z 28006KT 5000 HZ FEW020 32/21 Q1011 NOSIG', 'VOCI 061200Z 28008KT 6000 FEW020 33/20 Q1010 BECMG 5000 HZ', 'VOCI 061130Z 26006KT 6000 FEW020 34/20 Q1010 NOSIG', 'VOCI 061100Z 23004KT 6000 FEW020 34/20 Q1010 NOSIG', 'VOCI 061000Z 16002KT 6000 FEW020 36/17 Q1010 NOSIG', 'VOCI 060930Z 17002KT 6000 FEW020 36/17 Q1011 NOSIG', 'VOCI 060900Z 19003KT 6000 FEW015 35/18 Q1011 NOSIG', 'VOCI 060800Z VRB01KT 6000 FEW015 34/18 Q1012 NOSIG', 'VOCI 060700Z 12003KT 5000 HZ FEW015 33/19 Q1014 NOSIG', 'VOCI 060530Z 10002KT 5000 HZ FEW015 31/19 Q1016 NOSIG', 'VOCI 060500Z 10002KT 5000 HZ FEW015 31/19 Q1016 NOSIG', 'VOCI 060430Z 08004KT 5000 HZ FEW015 30/20 Q1016 NOSIG', 'VOCI 060400Z 11004KT 5000 HZ FEW015 28/20 Q1016 NOSIG', 'VOCI 060330Z 11003KT 4000 BR FEW015 27/20 Q1015 BECMG 5000 BR', 'VOCI 060300Z 09003KT 3000 BR FEW015 25/22 Q1015 BECMG 4000 BR', 'VOCI 060230Z 05003KT 3000 BR FEW015 24/22 Q1015 BECMG 4000 BR', 'VOCI 060200Z 08003KT 2500 BR FEW015 23/21 Q1014 BECMG 3000 BR', 'VOCI 060130Z 00000KT 2500 BR FEW015 22/22 Q1014 NOSIG', 'VOCI 060100Z 00000KT 3000 BR FEW015 22/20 Q1014 TEMPO 2000 BR', 'VOCI 060030Z 00000KT 3000 BR FEW015 22/21 Q1013 NOSIG', 'VOCI 060000Z 00000KT 3000 BR FEW015 22/21 Q1013 NOSIG', 'VOCI 052330Z 08003KT 3000 BR FEW015 23/21 Q1013 NOSIG', 'VOCI 052300Z 08002KT 3000 BR FEW015 23/21 Q1013 NOSIG', 'VOCI 052200Z 11002KT 3500 BR FEW015 23/21 Q1013 NOSIG']","['2024-02-08 21:00:00', '2024-02-08 20:30:00', '2024-02-08 20:00:00', '2024-02-08 19:30:00', '2024-02-08 19:00:00', '2024-02-08 18:00:00', '2024-02-08 17:00:00', '2024-02-08 16:30:00', '2024-02-08 16:00:00', '2024-02-08 15:30:00', '2024-02-08 15:00:00', '2024-02-08 14:30:00', '2024-02-08 14:00:00', '2024-02-08 13:00:00', '2024-02-08 12:30:00', '2024-02-08 11:30:00', '2024-02-08 11:00:00', '2024-02-08 10:30:00', '2024-02-08 10:00:00', '2024-02-08 09:00:00', '2024-02-08 08:00:00', '2024-02-08 07:30:00', '2024-02-08 07:00:00', '2024-02-08 06:30:00', '2024-02-08 05:30:00', '2024-02-08 04:30:00', '2024-02-08 04:00:00', '2024-02-08 03:30:00', '2024-02-08 03:00:00', '2024-02-08 02:00:00', '2024-02-08 01:30:00', '2024-02-08 00:30:00', '2024-02-08 00:00:00', '2024-02-07 23:30:00', '2024-02-07 23:00:00', '2024-02-07 22:00:00', '2024-02-07 21:30:00', '2024-02-07 21:00:00', '2024-02-07 20:30:00', '2024-02-07 20:00:00', '2024-02-07 19:30:00', '2024-02-07 19:00:00', '2024-02-07 18:30:00', '2024-02-07 18:00:00', '2024-02-07 17:00:00', '2024-02-07 16:00:00', '2024-02-07 15:00:00', '2024-02-07 14:00:00', '2024-02-07 13:00:00', '2024-02-07 12:00:00', '2024-02-07 11:00:00', '2024-02-07 10:30:00', '2024-02-07 10:00:00', '2024-02-07 09:30:00', '2024-02-07 09:00:00', '2024-02-07 08:30:00', '2024-02-07 07:30:00', '2024-02-07 07:00:00', '2024-02-07 06:30:00', '2024-02-07 06:00:00', '2024-02-07 05:30:00', '2024-02-07 04:30:00', '2024-02-07 03:00:00', '2024-02-07 02:00:00', '2024-02-07 01:30:00', '2024-02-07 00:30:00', '2024-02-07 00:00:00', '2024-02-06 23:30:00', '2024-02-06 23:00:00', '2024-02-06 22:30:00', '2024-02-06 22:00:00', '2024-02-06 21:00:00', '2024-02-06 20:30:00', '2024-02-06 20:00:00', '2024-02-06 19:30:00', '2024-02-06 19:00:00', '2024-02-06 18:00:00', '2024-02-06 17:30:00', '2024-02-06 16:30:00', '2024-02-06 16:00:00', '2024-02-06 15:00:00', '2024-02-06 14:00:00', '2024-02-06 13:30:00', '2024-02-06 12:30:00', '2024-02-06 12:00:00', '2024-02-06 11:30:00', '2024-02-06 11:00:00', '2024-02-06 10:00:00', '2024-02-06 09:30:00', '2024-02-06 09:00:00', '2024-02-06 08:00:00', '2024-02-06 07:00:00', '2024-02-06 05:30:00', '2024-02-06 05:00:00', '2024-02-06 04:30:00', '2024-02-06 04:00:00', '2024-02-06 03:30:00', '2024-02-06 03:00:00', '2024-02-06 02:30:00', '2024-02-06 02:00:00', '2024-02-06 01:30:00', '2024-02-06 01:00:00', '2024-02-06 00:30:00', '2024-02-06 00:00:00', '2024-02-05 23:30:00', '2024-02-05 23:00:00', '2024-02-05 22:00:00']"
India, Coimbatore International Airport (CJB/VOCB) ,"['VOCB 082130Z VRB02KT 4000 HZ FEW015 24/17 Q1016 NOSIG', 'VOCB 082030Z VRB02KT 4000 HZ FEW015 25/17 Q1016 NOSIG', 'VOCB 082000Z 36003KT 4000 HZ FEW015 25/15 Q1016 NOSIG', 'VOCB 081900Z 02004KT 4000 HZ FEW015 25/15 Q1017 NOSIG', 'VOCB 081800Z 36004KT 4500 HZ FEW015 26/15 Q1017 NOSIG', 'VOCB 081730Z 02004KT 4500 HZ FEW015 27/14 Q1017 NOSIG', 'VOCB 081700Z 01004KT 4500 HZ FEW015 28/14 Q1017 NOSIG', 'VOCB 081630Z 04004KT 5000 HZ FEW015 28/14 Q1017 NOSIG', 'VOCB 081530Z 08003KT 5000 HZ FEW015 29/13 Q1016 NOSIG', 'VOCB 081500Z 09003KT 5000 HZ FEW015 29/13 Q1016 NOSIG', 'VOCB 081400Z 07003KT 6000 FEW015 30/12 Q1014 NOSIG', 'VOCB 081330Z 09005KT 6000 FEW015 31/12 Q1014 NOSIG', 'VOCB 081230Z 10006KT 6000 FEW015 33/10 Q1013 NOSIG', 'VOCB 081200Z 09005KT 6000 FEW015 34/10 Q1013 NOSIG', 'VOCB 081130Z 09006KT 6000 FEW015 34/09 Q1013 NOSIG', 'VOCB 081100Z 08007KT 6000 FEW015 35/09 Q1013 NOSIG', 'VOCB 081000Z 09006KT 6000 FEW015 35/09 Q1013 NOSIG', 'VOCB 080930Z 09009KT 6000 FEW015 35/9 Q1013 NOSIG', 'VOCB 080900Z 07006KT 6000 FEW015 34/11 Q1014 NOSIG', 'VOCB 080830Z 09008KT 6000 FEW015 33/11 Q1014 NOSIG', 'VOCB 080800Z 09010KT 6000 FEW015 33/11 Q1015 NOSIG', 'VOCB 080730Z 09005KT 6000 NSC 33/09 Q1015 NOSIG', 'VOCB 080630Z 10007KT 6000 NSC 31/14 Q1017 NOSIG', 'VOCB 080600Z 07006KT 6000 NSC 31/16 Q1017 NOSIG', 'VOCB 080500Z 04006KT 5000 HZ FEW015 29/17 Q1018 NOSIG', 'VOCB 080400Z 05003KT 4000 HZ NSC 26/18 Q1018 NOSIG', 'VOCB 080330Z 06004KT 3500 HZ NSC 25/17 Q1018 NOSIG', 'VOCB 080230Z 36004KT 3000 BR NSC 23/18 Q1018 NOSIG', 'VOCB 080200Z 36004KT 3000 BR NSC 21/18 Q1017 NOSIG', 'VOCB 080030Z 01003KT 3500 BR NSC 21/18 Q1016 BECMG 3000 BR', 'VOCB 080000Z 36004KT 4000 BR FEW015 22/18 Q1016 BECMG 3000 BR', 'VOCB 072330Z 36005KT 4000 BR FEW015 23/18 Q1015 NOSIG', 'VOCB 072300Z 36003KT 4000 BR FEW015 23/18 Q1015 NOSIG', 'VOCB 072230Z 02005KT 4000 BR FEW015 23/18 Q1015 NOSIG', 'VOCB 072130Z 05004KT 4000 HZ NSC 23/18 Q1016 NOSIG', 'VOCB 072100Z 02004KT 4000 HZ NSC 23/18 Q1016 NOSIG', 'VOCB 072030Z 03005KT 4000 HZ FEW015 24/16 Q1016 NOSIG', 'VOCB 072000Z 36003KT 4000 HZ FEW015 25/15 Q1017 NOSIG', 'VOCB 071900Z 02004KT 4000 HZ FEW015 25/15 Q1017 NOSIG', 'VOCB 071830Z 36003KT 4500 HZ FEW015 26/15 Q1018 NOSIG', 'VOCB 071800Z 36003KT 4500 HZ FEW015 26/15 Q1018 NOSIG', 'VOCB 071730Z 02003KT 5000 HZ FEW015 27/14 Q1018 NOSIG', 'VOCB 071700Z 04004KT 5000 HZ FEW015 27/15 Q1018 NOSIG', 'VOCB 071630Z 05003KT 5000 HZ FEW015 27/14 Q1017 NOSIG', 'VOCB 071600Z 06004KT 5000 HZ FEW015 27/15 Q1017 NOSIG', 'VOCB 071500Z 05003KT 5000 HZ FEW015 28/14 Q1016 NOSG', 'VOCB 071430Z 07004KT 5000 HZ FEW015 29/13 Q1016 NOSG', 'VOCB 071400Z 05003KT 5000 HZ FEW015 29/13 Q1015 NOSG', 'VOCB 071330Z 09004KT 6000 NSC 31/13 Q1015 BECMG 5000 HZ', 'VOCB 071300Z 10004KT 6000 NSC 31/12 Q1015 NOSIG', 'VOCB 071200Z 09006KT 6000 NSC 33/10 Q1014 NOSIG', 'VOCB 071130Z 09006KT 6000 NSC 33/09 Q1014 NOSIG', 'VOCB 071100Z 07006KT 6000 NSC 34/9 Q1014 NOSIG', 'VOCB 071030Z 09007KT 6000 NSC 34/09 Q1014 NOSIG', 'VOCB 071000Z 10008KT 6000 NSC 34/11 Q1014 NOSIG', 'VOCB 070930Z 10009KT 6000 NSC 34/10 Q1014 NOSIG', 'VOCB 070900Z 07008KT 6000 NSC 33/10 Q1015 NOSIG', 'VOCB 070830Z 08009KT 6000 NSC 34/10 Q1016 NOSIG', 'VOCB 070800Z 09009KT 6000 NSC 33/11 Q1016 NOSIG', 'VOCB 070700Z 08006KT 6000 NSC 32/12 Q1018 NOSIG', 'VOCB 070630Z 04008KT 5000 HZ NSC 31/14 Q1018 NOSIG', 'VOCB 070600Z 04006KT 4500 HZ NSC 30/15 Q1019 BECMG 5000 HZ', 'VOCB 070500Z 02005KT 4000 HZ NSC 29/18 Q1019 NOSIG', 'VOCB 070300Z VRB03KT 2500 HZ NSC 24/18 Q1019 BECMG 3000 HZ', 'VOCB 070130Z 00000KT 2500 BR FEW015 21/19 Q1018 NOSIG', 'VOCB 070100Z VRB03KT 3000 BR FEW015 21/19 Q1017 NOSIG', 'VOCB 062330Z VRB02KT 4000 BR FEW015 22/19 Q1016 NOSIG', 'VOCB 062300Z VRB03KT 4000 BR FEW015 22/19 Q1016 NOSIG', 'VOCB 062200Z VRB03KT 4000 BR FEW015 23/19 Q1016 NOSIG', 'VOCB 062100Z 02004KT 4000 BR FEW015 23/19 Q1017 NOSIG', 'VOCB 062000Z 03004KT 4000 HZ NSC 24/18 Q1017 NOSIG', 'VOCB 061900Z VRB03KT 4000 HZ NSC 24/18 Q1018 NOSIG', 'VOCB 061800Z 08004KT 4000 HZ NSC 25/17 Q1018 NOSIG', 'VOCB 061730Z 08004KT 4000 HZ NSC 26/15 Q1018 NOSIG', 'VOCB 061630Z 08004KT 4000 HZ NSC 26/15 Q1018 NOSIG', 'VOCB 061600Z 06006KT 4000 HZ NSC 27/15 Q1018 NOSIG', 'VOCB 061530Z 07004KT 4000 HZ NSC 27/14 Q1017 NOSIG', 'VOCB 061500Z 06004KT 4000 HZ NSC 28/14 Q1017 NOSIG', 'VOCB 061400Z VRB03KT 4000 HZ NSC 28/16 Q1016 NOSIG', 'VOCB 061330Z 08004KT 4000 HZ NSC 29/14 Q1016 NOSIG', 'VOCB 061230Z 07006KT 6000 NSC 31/13 Q1015 NOSIG', 'VOCB 061200Z 05006KT 6000 NSC 32/12 Q1014 NOSIG', 'VOCB 061130Z 06010KT 6000 NSC 32/12 Q1014 NOSIG', 'VOCB 061030Z 06006KT 6000 NSC 32/11 Q1014 NOSIG', 'VOCB 060900Z 10008KT 6000 NSC 32/11 Q1015 NOSIG', 'VOCB 060800Z 07008KT 6000 NSC 32/14 Q1016 NOSIG', 'VOCB 060730Z 08009KT 6000 NSC 30/14 Q1017 NOSIG', 'VOCB 060630Z 07006KT 6000 NSC 29/16 Q1018 NOSIG', 'VOCB 060600Z 09006KT 6000 NSC 28/16 Q1019 NOSIG', 'VOCB 060530Z 07008KT 5000 HZ NSC 28/16 Q1019 NOSIG', 'VOCB 060500Z 08006KT 5000 HZ NSC 27/17 Q1020 NOSIG', 'VOCB 060430Z 08008KT 5000 HZ NSC 26/16 Q1020 BECMG 5000 HZ', 'VOCB 060400Z 06006KT 3000 HZ NSC 25/17 Q1020 BECMG 5000 HZ', 'VOCB 060330Z 07007KT 3000 BR NSC 24/19 Q1020 NOSIG', 'VOCB 060300Z 09006KT 2800 BR NSC 22/19 Q1019 BECMG 3000 BR', 'VOCB 060230Z 07004KT 2800 BR NSC 22/19 Q1019 BECMG 3000 BR', 'VOCB 060200Z 03004KT 2800 BR NSC 21/19 Q1018 BECMG 3000 BR', 'VOCB 060130Z 04004KT 3000 BR NSC 20/19 Q1018 NOSIG', 'VOCB 060100Z VRB02KT 3500 BR FEW015 20/19 Q1017 TEMPO 3000 BR', 'VOCB 060030Z 06003KT 4000 BR FEW015 20/19 Q1017 NOSIG', 'VOCB 052330Z 07004KT 4000 BR FEW015 21/19 Q1016 NOSIG', 'VOCB 052200Z 05005KT 4500 BR FEW015 22/18 Q1017 NOSIG']","['2024-02-08 21:30:00', '2024-02-08 20:30:00', '2024-02-08 20:00:00', '2024-02-08 19:00:00', '2024-02-08 18:00:00', '2024-02-08 17:30:00', '2024-02-08 17:00:00', '2024-02-08 16:30:00', '2024-02-08 15:30:00', '2024-02-08 15:00:00', '2024-02-08 14:00:00', '2024-02-08 13:30:00', '2024-02-08 12:30:00', '2024-02-08 12:00:00', '2024-02-08 11:30:00', '2024-02-08 11:00:00', '2024-02-08 10:00:00', '2024-02-08 09:30:00', '2024-02-08 09:00:00', '2024-02-08 08:30:00', '2024-02-08 08:00:00', '2024-02-08 07:30:00', '2024-02-08 06:30:00', '2024-02-08 06:00:00', '2024-02-08 05:00:00', '2024-02-08 04:00:00', '2024-02-08 03:30:00', '2024-02-08 02:30:00', '2024-02-08 02:00:00', '2024-02-08 00:30:00', '2024-02-08 00:00:00', '2024-02-07 23:30:00', '2024-02-07 23:00:00', '2024-02-07 22:30:00', '2024-02-07 21:30:00', '2024-02-07 21:00:00', '2024-02-07 20:30:00', '2024-02-07 20:00:00', '2024-02-07 19:00:00', '2024-02-07 18:30:00', '2024-02-07 18:00:00', '2024-02-07 17:30:00', '2024-02-07 17:00:00', '2024-02-07 16:30:00', '2024-02-07 16:00:00', '2024-02-07 15:00:00', '2024-02-07 14:30:00', '2024-02-07 14:00:00', '2024-02-07 13:30:00', '2024-02-07 13:00:00', '2024-02-07 12:00:00', '2024-02-07 11:30:00', '2024-02-07 11:00:00', '2024-02-07 10:30:00', '2024-02-07 10:00:00', '2024-02-07 09:30:00', '2024-02-07 09:00:00', '2024-02-07 08:30:00', '2024-02-07 08:00:00', '2024-02-07 07:00:00', '2024-02-07 06:30:00', '2024-02-07 06:00:00', '2024-02-07 05:00:00', '2024-02-07 03:00:00', '2024-02-07 01:30:00', '2024-02-07 01:00:00', '2024-02-06 23:30:00', '2024-02-06 23:00:00', '2024-02-06 22:00:00', '2024-02-06 21:00:00', '2024-02-06 20:00:00', '2024-02-06 19:00:00', '2024-02-06 18:00:00', '2024-02-06 17:30:00', '2024-02-06 16:30:00', '2024-02-06 16:00:00', '2024-02-06 15:30:00', '2024-02-06 15:00:00', '2024-02-06 14:00:00', '2024-02-06 13:30:00', '2024-02-06 12:30:00', '2024-02-06 12:00:00', '2024-02-06 11:30:00', '2024-02-06 10:30:00', '2024-02-06 09:00:00', '2024-02-06 08:00:00', '2024-02-06 07:30:00', '2024-02-06 06:30:00', '2024-02-06 06:00:00', '2024-02-06 05:30:00', '2024-02-06 05:00:00', '2024-02-06 04:30:00', '2024-02-06 04:00:00', '2024-02-06 03:30:00', '2024-02-06 03:00:00', '2024-02-06 02:30:00', '2024-02-06 02:00:00', '2024-02-06 01:30:00', '2024-02-06 01:00:00', '2024-02-06 00:30:00', '2024-02-05 23:30:00', '2024-02-05 22:00:00']"
India, Cooch Behar Airport (COH/VECO) ,"['VECO 081200Z 00000KT 1300 HZ FEW020 SCT100 18/13 Q1014 NOSIG', 'VECO 081100Z 20006KT 1500 HZ FEW020 20/11 Q1013 NOSIG', 'VECO 081000Z 20006KT 1800 HZ FEW020 21/10 Q1013 NOSIG', 'VECO 080900Z 20006KT 1500 HZ FEW020 22/11 Q1014 NOSIG', 'VECO 080800Z 22006KT 1500 HZ FEW025 21/11 Q1014 NOSIG', 'VECO 080730Z 18002KT 1500 HZ FEW025 22/12 Q1015 NOSIG', 'VECO 080700Z 21002KT 1500 HZ FEW025 21/12 Q1016 NOSIG', 'VECO 080630Z 16003KT 1500 HZ NSC 20/12 Q1016 NOSIG', 'VECO 080600Z 18002KT 1200 HZ NSC 20/13 Q1017 NOSIG', 'VECO 080530Z 11002KT 1100 BR NSC 18/16 Q1017 NOSIG', 'VECO 080500Z 00000KT 1000 BR NSC 18/15 Q1017 NOSIG', 'VECO 080400Z 00000KT 0600 FG NSC 14/14 Q1017 BECMG 0800', 'VECO 080300Z 00000KT 0050 FG VV/// 12/12 Q1017 NOSIG', 'VECO 071200Z 00000KT 2000 HZ SCT020 SCT025 16/15 Q1014 NOSIG', 'VECO 071100Z 24003KT 2500 HZ SCT020 18/12 Q1014 NOSIG', 'VECO 071000Z 24003KT 2500 HZ SCT020 20/11 Q1014 NOSIG', 'VECO 070900Z 24005KT 2500 HZ FEW020 SCT025 19/11 Q1014 NOSIG', 'VECO 070800Z 22006KT 2500 HZ FEW020 SCT025 19/12 Q1015 NOSIG', 'VECO 070700Z 21007KT 2500 HZ FEW020 SCT025 20/12 Q1016 NOSIG', 'VECO 070630Z 21003KT 2500 HZ FEW020 SCT025 20/11 Q1017 NOSIG', 'VECO 070600Z 22003KT 2000 HZ FEW020 SCT025 19/12 Q1017 NOSIG', 'VECO 070500Z 20004KT 2000 HZ FEW020 SCT025 18/13 Q1018 NOSIG', 'VECO 070400Z 20005KT 2000 BR SCT025 17/14 Q1018 NOSIG', 'VECO 070300Z 18006KT 1500 BR SCT025 16/14 Q1017 NOSIG', 'VECO 061200Z 23002KT 1800 HZ NSC 19/16 Q1013 NOSIG', 'VECO 061100Z 22009KT 2000 HZ SCT020 SCT025 22/14 Q1013 NOSIG', 'VECO 061000Z 22005KT 1800 HZ SCT020 SCT025 22/16 Q1013 NOSIG', 'VECO 060900Z 23006KT 2000 HZ SCT020 SCT025 23/15 Q1013 NOSIG', 'VECO 060800Z 22007KT 1500 HZ SCT020 SCT025 23/16 Q1014 NOSIG', 'VECO 060700Z 18004KT 1600 HZ SCT020 BKN025 22/15 Q1015 NOSIG', 'VECO 060600Z 07004KT 2000 HZ NSC 22/15 Q1017 NOSIG', 'VECO 060530Z 05003KT 2500 HZ NSC 21/15 Q1017 NOSIG', 'VECO 060500Z 06003KT 2500 HZ FEW020 20/15 Q1018 NOSIG', 'VECO 060400Z 07004KT 2500 BR FEW020 SCT025 18/14 Q1018 NOSIG', 'VECO 060300Z 05003KT 2500 BR FEW025 SCT025 17/13 Q1018 NOSIG']","['2024-02-08 12:00:00', '2024-02-08 11:00:00', '2024-02-08 10:00:00', '2024-02-08 09:00:00', '2024-02-08 08:00:00', '2024-02-08 07:30:00', '2024-02-08 07:00:00', '2024-02-08 06:30:00', '2024-02-08 06:00:00', '2024-02-08 05:30:00', '2024-02-08 05:00:00', '2024-02-08 04:00:00', '2024-02-08 03:00:00', '2024-02-07 12:00:00', '2024-02-07 11:00:00', '2024-02-07 10:00:00', '2024-02-07 09:00:00', '2024-02-07 08:00:00', '2024-02-07 07:00:00', '2024-02-07 06:30:00', '2024-02-07 06:00:00', '2024-02-07 05:00:00', '2024-02-07 04:00:00', '2024-02-07 03:00:00', '2024-02-06 12:00:00', '2024-02-06 11:00:00', '2024-02-06 10:00:00', '2024-02-06 09:00:00', '2024-02-06 08:00:00', '2024-02-06 07:00:00', '2024-02-06 06:00:00', '2024-02-06 05:30:00', '2024-02-06 05:00:00', '2024-02-06 04:00:00', '2024-02-06 03:00:00']"
