country,airport,METARs,UTC/Time
Canada, Abbotsford International Airport (YXX/CYXX) ,"['CYXX 081500Z 18006KT 10SM BKN020 OVC070 04/03 A2994 RMK SC5AC3 SLP143', 'CYXX 081400Z 18006KT 10SM SCT020 OVC080 04/03 A2993 RMK SC4AC4 SLP139', 'CYXX 081300Z 18006KT 10SM BKN021 OVC070 04/03 A2992 RMK SC6AC2 SLP135', 'CYXX 081200Z 18005KT 10SM BKN019 OVC083 04/03 A2991 RMK SC5AC3 SLP131', 'CYXX 081100Z 16006KT 10SM OVC080 04/03 A2990 RMK AC8 SLP128', 'CYXX 081000Z 17006KT 10SM SCT045 OVC080 05/03 A2990 RMK SC4AC4 SLP127', 'CYXX 080900Z 17004KT 10SM BKN043 OVC080 04/03 A2989 RMK SC6AC2 SLP125', 'CYXX 080800Z 17005KT 10SM SCT043 BKN065 OVC075 04/03 A2987 RMK SC3SC3AC2 SLP119', 'CYXX 080700Z 17005KT 10SM FEW015 SCT050 OVC070 05/03 A2986 RMK SC1SC3AC4 SLP114', 'CYXX 080600Z 20003KT 10SM SCT015 OVC075 04/03 A2985 RMK SC3AC5 SLP111', 'CYXX 080500Z 16005KT 10SM OVC073 05/04 A2983 RMK AC8 SLP106', 'CYXX 080400Z 19002KT 10SM OVC075 05/04 A2982 RMK AC8 SLP102', 'CYXX 080300Z 17004KT 15SM OVC075 05/04 A2981 RMK AC8 SLP098', 'CYXX 080200Z 21005KT 15SM FEW020 BKN075 06/04 A2980 RMK SF1AC7 SF TR SLP096', 'CYXX 080100Z 23007KT 15SM FEW022 BKN075 07/04 A2979 RMK SC1AC7 SC TR SLP091', 'CYXX 080000Z 23007KT 20SM FEW023 FEW030 BKN074 08/03 A2977 RMK CU1CU1AC7 CU TR CU TR SLP085', 'CYXX 072300Z 22007KT 210V280 20SM FEW032 BKN072 08/02 A2976 RMK CU1AC6 SLP081', 'CYXX 072200Z 25005KT 200V260 25SM FEW032 SCT075 09/01 A2976 RMK CU2AC2 SLP080', 'CYXX 072100Z 00000KT 30SM FEW025 FEW030 SCT072 09/02 A2976 RMK SC1CU2AC2 SC TR SLP080', 'CYXX 072000Z 00000KT 30SM FEW030 FEW035 FEW075 07/01 A2976 RMK SC1CU1AC2 SC TR SLP082', 'CYXX 071900Z 07006KT 20SM FEW010 FEW025 FEW030TCU BKN075 06/02 A2977 RMK SF1SC1TCU1AC7 SF TR SC TR TCU TR SLP084', 'CYXX 071800Z 01005KT 20SM BKN075 05/02 A2976 RMK AC7 SLP081', 'CYXX 071700Z 01005KT 15SM BKN075 05/02 A2974 RMK AC6 SLP076', 'CYXX 071600Z 01003KT 15SM FEW056 BKN075 03/02 A2973 RMK SC1AC6 SLP072', 'CYXX 071500Z 02005KT 10SM SCT050 BKN070 03/02 A2971 RMK SC3AC4 SLP066', 'CYXX 071400Z 02006KT 10SM SCT050 OVC074 03/02 A2971 RMK SC4AC4 SLP063', 'CYXX 071300Z 03005KT 10SM BKN052 OVC072 03/02 A2970 RMK SC6AC2 SLP060', 'CYXX 071200Z 01004KT 15SM OVC070 03/02 A2970 RMK AC8 SLP060', 'CYXX 071100Z 02005KT 10SM SCT035 OVC080 03/02 A2970 RMK SC3AC5 SLP060', 'CYXX 071000Z 03005KT 15SM SCT035 OVC080 03/02 A2970 RMK SC3AC5 SLP060', 'CYXX 070900Z 02003KT 15SM SCT038 BKN070 02/01 A2970 RMK SC3AC4 SLP060', 'CYXX 070800Z 02004KT 15SM SCT055 BKN080 01/01 A2970 RMK SC4AC3 SLP062', 'CYXX 070700Z 35003KT 15SM SCT060 BKN080 02/02 A2971 RMK SC3AC3 SLP063', 'CYXX 070600Z 35003KT 15SM FEW038 BKN060 02/01 A2971 RMK SC2SC3 SLP063', 'CYXX 070500Z 10004KT 340V120 15SM SCT038 BKN070 02/01 A2971 RMK SC3AC2 SLP063', 'CYXX 070400Z 35003KT 15SM SKC 03/02 A2971 RMK SLP063', 'CYXX 070300Z 29002KT 15SM FEW018 03/02 A2971 RMK SC2 SLP065', 'CYXX 070200Z 15003KT 15SM FEW075 05/03 A2972 RMK AC2 SLP067', 'CYXX 070100Z 11003KT 20SM FEW022 SCT070 06/03 A2972 RMK SC1AC2 SLP068', 'CYXX 070000Z 00000KT 15SM SCT028 BKN090 07/03 A2973 RMK SC4AC2 SLP072', 'CYXX 062300Z 13003KT 100V210 15SM FEW008 SCT078 BKN090 08/03 A2974 RMK SF1AC4AC2 SF TR SLP074', 'CYXX 062200Z 18004KT 110V250 15SM SCT020 BKN075 07/03 A2975 RMK CU4AC2 SLP079', 'CYXX 062100Z 00000KT 15SM FEW004 SCT090 BKN180 07/04 A2977 RMK SF1AC3CC3 SF TR SLP083', 'CYXX 062000Z 11004KT 15SM FEW004 SCT072 BKN090 06/03 A2977 RMK SF1AC4AC2 SF TR SLP086', 'CYXX 061900Z 07004KT 15SM FEW004 SCT017 BKN093 05/03 A2979 RMK SF1SC3AC4 SF TR SLP091', 'CYXX 061800Z 08004KT 15SM FEW004 SCT023 BKN075 04/03 A2979 RMK SF1SC3AC4 SF TR SLP093', 'CYXX 061700Z 08003KT 030V100 10SM FEW004 SCT041 OVC055 04/03 A2979 RMK SF1SC3SC5 SF TR VIS LWR S SLP091', 'CYXX 061600Z 31002KT 15SM FEW004 SCT026 OVC075 04/03 A2979 RMK SF1SC4AC4 SF TR VIS LWR S SLP091', 'CYXX 061500Z 00000KT 10SM -RA BKN035 OVC056 04/03 A2977 RMK SC6SC2 SLP086', 'CYXX 061406Z VRB02KT 15SM -RA BKN043 OVC073 04/03 A2978 RMK SC6AC2 SLP087', 'CYXX 061344Z 08004KT 15SM SCT045 OVC055 04/03 A2977 RMK SC4SC4 SLP086', 'CYXX 061300Z 11003KT 10SM -RA SCT043 OVC055 04/03 A2978 RMK SC4SC4 SLP087', 'CYXX 061200Z 33002KT 10SM -RA OVC036 04/03 A2978 RMK SC8 SLP087', 'CYXX 061100Z 00000KT 10SM -RA OVC033 04/03 A2977 RMK SC8 SLP085', 'CYXX 061000Z 33002KT 10SM -RA OVC035 05/03 A2976 RMK SC8 SLP082', 'CYXX 060900Z 30002KT 10SM -RA OVC040 05/03 A2975 RMK SC8 SLP077', 'CYXX 060800Z 09003KT 10SM -RA OVC045 05/03 A2974 RMK SC8 SLP074', 'CYXX 060705Z 00000KT 10SM -RA OVC050 06/02 A2974 RMK SC8 SLP073', 'CYXX 060649Z VRB02KT 10SM OVC048 06/01 A2973 RMK SC8 SLP072', 'CYXX 060600Z 01002KT 10SM -RA OVC050 06/02 A2973 RMK SC8 SLP070', 'CYXX 060500Z 03003KT 10SM -RA OVC050 06/02 A2971 RMK SC8 SLP066', 'CYXX 060400Z 02002KT 10SM BKN052 OVC070 06/03 A2970 RMK SC6AC2 SLP060', 'CYXX 060300Z 31003KT 15SM OVC054 07/02 A2969 RMK SC8 SLP057', 'CYXX 060200Z 00000KT 15SM OVC140 07/01 A2968 RMK AC8 SLP055', 'CYXX 060100Z 01002KT 15SM OVC070 08/01 A2967 RMK AC8 SLP051', 'CYXX 060000Z 34006KT 20SM SCT050 OVC059 08/00 A2966 RMK SC3NS5 SLP047', 'CYXX 052300Z 31004KT 290V350 20SM SCT067 OVC075 09/M00 A2965 RMK AC4AC4 SLP043', 'CYXX 052200Z 06008KT 20SM SCT069 OVC077 09/M02 A2963 RMK AC4AC4 SLP038', 'CYXX 052100Z 00000KT 20SM OVC082 09/M01 A2962 RMK AC8 SLP034', 'CYXX 052000Z 03005KT 25SM BKN084 09/M01 A2962 RMK AC7 SLP034', 'CYXX 051900Z 05002KT 25SM BKN090 08/M01 A2963 RMK AC7 SLP035', 'CYXX 051800Z 36004KT 25SM BKN096 07/M01 A2962 RMK AC7 SLP035', 'CYXX 051700Z 03004KT 340V050 25SM SCT120 BKN190 06/M02 A2963 RMK AC4AC3 SLP036']","['2024-02-08 15:00:00', '2024-02-08 14:00:00', '2024-02-08 13:00:00', '2024-02-08 12:00:00', '2024-02-08 11:00:00', '2024-02-08 10:00:00', '2024-02-08 09:00:00', '2024-02-08 08:00:00', '2024-02-08 07:00:00', '2024-02-08 06:00:00', '2024-02-08 05:00:00', '2024-02-08 04:00:00', '2024-02-08 03:00:00', '2024-02-08 02:00:00', '2024-02-08 01:00:00', '2024-02-08 00:00:00', '2024-02-07 23:00:00', '2024-02-07 22:00:00', '2024-02-07 21:00:00', '2024-02-07 20:00:00', '2024-02-07 19:00:00', '2024-02-07 18:00:00', '2024-02-07 17:00:00', '2024-02-07 16:00:00', '2024-02-07 15:00:00', '2024-02-07 14:00:00', '2024-02-07 13:00:00', '2024-02-07 12:00:00', '2024-02-07 11:00:00', '2024-02-07 10:00:00', '2024-02-07 09:00:00', '2024-02-07 08:00:00', '2024-02-07 07:00:00', '2024-02-07 06:00:00', '2024-02-07 05:00:00', '2024-02-07 04:00:00', '2024-02-07 03:00:00', '2024-02-07 02:00:00', '2024-02-07 01:00:00', '2024-02-07 00:00:00', '2024-02-06 23:00:00', '2024-02-06 22:00:00', '2024-02-06 21:00:00', '2024-02-06 20:00:00', '2024-02-06 19:00:00', '2024-02-06 18:00:00', '2024-02-06 17:00:00', '2024-02-06 16:00:00', '2024-02-06 15:00:00', '2024-02-06 14:06:00', '2024-02-06 13:44:00', '2024-02-06 13:00:00', '2024-02-06 12:00:00', '2024-02-06 11:00:00', '2024-02-06 10:00:00', '2024-02-06 09:00:00', '2024-02-06 08:00:00', '2024-02-06 07:05:00', '2024-02-06 06:49:00', '2024-02-06 06:00:00', '2024-02-06 05:00:00', '2024-02-06 04:00:00', '2024-02-06 03:00:00', '2024-02-06 02:00:00', '2024-02-06 01:00:00', '2024-02-06 00:00:00', '2024-02-05 23:00:00', '2024-02-05 22:00:00', '2024-02-05 21:00:00', '2024-02-05 20:00:00', '2024-02-05 19:00:00', '2024-02-05 18:00:00', '2024-02-05 17:00:00']"
Canada, Aklavik Airport (LAK/CYKD) ,"['CYKD 070000Z 21002KT 15SM FEW020 M27/M30 A2993 RMK ST2 LAST STFD OBS/NXT 071400Z SLP139', 'CYKD 062300Z 15003KT 15SM FEW030 M27/M30 A2992 RMK SC1 SLP135', 'CYKD 062200Z 15004KT 15SM FEW030 M27/M30 A2992 RMK SC1 SLP134', 'CYKD 062100Z 18005KT 15SM FEW030 M27/M31 A2992 RMK SC1 SLP135', 'CYKD 062000Z 16004KT 15SM FEW030 M27/M30 A2992 RMK SC2 SLP135', 'CYKD 061900Z 15005KT 15SM FEW030 M28/M31 A2992 RMK SC1 SLP134', 'CYKD 061800Z 14004KT 15SM FEW030 M29/M31 A2992 RMK SC1 SLP136', 'CYKD 061700Z 15004KT 15SM FEW030 M28/M31 A2992 RMK SC1 SLP136', 'CYKD 061600Z 17004KT 15SM FEW030 M28/M30 A2992 RMK SC2 SLP136', 'CYKD 061502Z 15005KT 15SM SKC M28/M30 A2992 RMK SLP134']","['2024-02-07 00:00:00', '2024-02-06 23:00:00', '2024-02-06 22:00:00', '2024-02-06 21:00:00', '2024-02-06 20:00:00', '2024-02-06 19:00:00', '2024-02-06 18:00:00', '2024-02-06 17:00:00', '2024-02-06 16:00:00', '2024-02-06 15:02:00']"
Canada, Akulivik Airport (AKV/CYKO) ,"['CYKO 081500Z 12017KT 10SM OVC150 M25/M30 A3024 RMK AC8 SLP247', 'CYKO 081400Z 12015G20KT 10SM DRSN OVC150 M26/M30 A3025 RMK AC8 SLP251', 'CYKO 081300Z 12019KT 10SM BKN150 OVC230 M27/M31 A3028 RMK AS7CI1 SLP261', 'CYKO 072200Z 19007KT 15SM OVC240 M24/M29 A3045 RMK CC8 LST STFD OBS/NXT 081300Z SLP316', 'CYKO 072100Z 22006KT 15SM BKN240 M25/M29 A3044 RMK CC7 SLP314', 'CYKO 072000Z 23005KT 15SM BKN240 M25/M29 A3044 RMK CC7 SLP312', 'CYKO 071900Z 23008KT 15SM BKN240 M25/M30 A3043 RMK CI5 SLP311', 'CYKO 071800Z 18005KT 15SM BKN240 M26/M30 A3043 RMK CS5 SLP310', 'CYKO 071700Z 28004KT 15SM BKN230 M26/M31 A3043 RMK CI5 SLP310', 'CYKO 071600Z 26008KT 15SM SCT230 M27/M31 A3041 RMK CI4 SLP305', 'CYKO 071500Z 25008KT 15SM SCT240 M27/M31 A3041 RMK CI3 SLP302', 'CYKO 071400Z 26009KT 15SM DRSN SCT230 M27/M31 A3039 RMK CI3 SLP298', 'CYKO 071300Z 26013KT 15SM FEW080 SCT230 M27/M31 A3038 RMK AC1CI2 SLP292', 'CYKO 062200Z 28008KT 15SM SCT240 M23/M27 A3010 RMK CS4 LST STFD OBS/NXT 071300Z SLP199', 'CYKO 062100Z 29012KT 15SM DRSN SCT240 M22/M26 A3008 RMK CS4 SLP190', 'CYKO 062000Z 31014KT 12SM DRSN SCT240 M22/M25 A3005 RMK CS4 SLP180', 'CYKO 061900Z 31012KT 12SM DRSN SCT240 M22/M25 A3002 RMK CS4 SLP171', 'CYKO 061800Z 32014KT 12SM DRSN SCT230 M21/M25 A2999 RMK CS3 SLP161', 'CYKO 061700Z 32015KT 10SM DRSN SCT230 M21/M24 A2996 RMK CS3 SLP150', 'CYKO 061600Z 33017KT 10SM DRSN SCT230 M20/M23 A2993 RMK CS3 PRESRR SLP141', 'CYKO 061500Z 33016G22KT 10SM DRSN SCT015 SCT230 M19/M22 A2988 RMK SC3CS1 SLP124', 'CYKO 061423Z 33018G25KT 4SM BLSN OVC015 M17/M20 A2986 RMK SC8 PRESRR SLP117', 'CYKO 061333Z 33025KT 2SM -SN BLSN OVC012 M17/M19 A2982 RMK SC8 SLP104', 'CYKO 061300Z 32018KT 1SM -SN BLSN OVC012 M15/M17 A2980 RMK SN3SC5 SLP097', 'CYKO 052200Z 19010KT 1/2SM -FZDZ DRSN OVC003 M07/M08 A2997 RMK DZ4ST4 LST STFD OBS/NXT 051300Z SLP152', 'CYKO 052100Z 19011KT 1/2SM -FZDZ DRSN OVC003 M07/M08 A2998 RMK DZ4ST4 SLP158', 'CYKO 052000Z 19009KT 1/2SM -FZDZ DRSN OVC003 M07/M08 A3000 RMK DZ4ST4 SLP164', 'CYKO 051900Z 20009KT 1/2SM -FZDZ DRSN OVC004 M07/M08 A3003 RMK DZ4ST4 SLP172', 'CYKO 051800Z 19010KT 1/2SM -FZDZ DRSN OVC003 M07/M09 A3003 RMK DZ4ST4 SLP172', 'CYKO 051700Z 13010KT 1/2SM -FZDZ DRSN OVC004 M09/M11 A3005 RMK DZ4ST4 SLP181']","['2024-02-08 15:00:00', '2024-02-08 14:00:00', '2024-02-08 13:00:00', '2024-02-07 22:00:00', '2024-02-07 21:00:00', '2024-02-07 20:00:00', '2024-02-07 19:00:00', '2024-02-07 18:00:00', '2024-02-07 17:00:00', '2024-02-07 16:00:00', '2024-02-07 15:00:00', '2024-02-07 14:00:00', '2024-02-07 13:00:00', '2024-02-06 22:00:00', '2024-02-06 21:00:00', '2024-02-06 20:00:00', '2024-02-06 19:00:00', '2024-02-06 18:00:00', '2024-02-06 17:00:00', '2024-02-06 16:00:00', '2024-02-06 15:00:00', '2024-02-06 14:23:00', '2024-02-06 13:33:00', '2024-02-06 13:00:00', '2024-02-05 22:00:00', '2024-02-05 21:00:00', '2024-02-05 20:00:00', '2024-02-05 19:00:00', '2024-02-05 18:00:00', '2024-02-05 17:00:00']"
Canada, Alert Airport (YLT/CYLT) ,"['CYLT 081500Z 27003KT 15SM -SN FEW005 FEW013 SCT180 M34/M38 A3003 RMK SC1SC1AC2 DENSITY ALT -6596FT FROIN PCPN VRY LGT SLP176', 'CYLT 081400Z 28002KT 15SM -SN FEW005 SCT120 M33/M36 A3003 RMK SC2AC2 DENSITY ALT -6401FT FROIN PCPN VRY LGT SLP175', 'CYLT 081300Z 36002KT 15SM FEW006 SCT150 M33/M37 A3003 RMK SC1AC2 DENSITY ALT -6446FT FROIN TR LOOSE SN ON GND FST OBS SLP175', 'CYLT 072100Z 19002KT 10SM -SN BKN020 M28/M31 A3002 RMK SC7 DENSITY ALT -5709FT LAST OBS /NEXT 081300 UTC SLP172', 'CYLT 072000Z 14002KT 10SM -SN BKN021 M30/M33 A3002 RMK SC7 DENSITY ALT -5899FT SLP172', 'CYLT 071900Z 26003KT 10SM -SN BKN019 M28/M30 A3002 RMK SC7 DENSITY ALT -5592FT SLP171', 'CYLT 071800Z 24008KT 10SM -SN BKN017 M27/M30 A3000 RMK SC7 DENSITY ALT -5466FT SLP167', 'CYLT 071700Z 22008KT 10SM -SN BKN020 M27/M30 A3001 RMK SC6 DENSITY ALT -5493FT SLP171', 'CYLT 071600Z 21002KT 7SM -SN BKN019 M27/M30 A3003 RMK SC7 DENSITY ALT -5575FT SLP177', 'CYLT 071500Z 00000KT 15SM -SN BKN017 M28/M31 A3004 RMK SC7 DENSITY ALT -5659FT FROIN SLP180', 'CYLT 071400Z 26006KT 15SM -SN BKN016 M28/M31 A3005 RMK SC7 DENSITY ALT -5656FT FROIN SLP182', 'CYLT 071300Z 27004KT 15SM -SN BKN016 M32/M35 A3006 RMK SC6 DENSITY ALT -6287FT FROIN PCPN VRY LGT SLP186', 'CYLT 071200Z 00000KT 15SM SCT016 M30/M32 A3007 RMK SC3 DENSITY ALT -5959FT FROIN SLP189', 'CYLT 071100Z 29007KT 15SM FEW002 FEW230 M31/M35 A3008 RMK SC1CI1 DENSITY ALT -6222FT FROIN SLP191', 'CYLT 071000Z 32004KT 15SM FEW002 FEW230 M31/M34 A3009 RMK SC1CI1 DENSITY ALT -6189FT FROIN SLP194', 'CYLT 070900Z 00000KT 15SM FEW230 M32/M35 A3010 RMK CI1 DENSITY ALT -6275FT FROIN SLP198', 'CYLT 070800Z 30003KT 15SM SKC M31/M34 A3010 RMK DENSITY ALT -6201FT VIS LWR E FROIN TR LOOSE SN ON GND FST OBS SLP200', 'CYLT 062100Z 12004KT 15SM FEW200 M28/M30 A3020 RMK CI1 DENSITY ALT -5790FT LAST OBS /NEXT 070800 UTC SLP231', 'CYLT 062000Z 15007KT 15SM FEW200 M24/M29 A3020 RMK CI1 DENSITY ALT -5242FT SLP231', 'CYLT 061900Z 23012KT 15SM FEW210 M25/M30 A3021 RMK CI1 DENSITY ALT -5426FT SLP234', 'CYLT 061800Z 22004KT 190V270 15SM FEW240 M25/M30 A3022 RMK CI1 DENSITY ALT -5423FT SLP238', 'CYLT 061700Z 28004KT 15SM FEW240 M24/M29 A3023 RMK CI1 DENSITY ALT -5249FT SLP241', 'CYLT 061600Z 19004KT 15SM FEW240 M22/M28 A3023 RMK CI1 DENSITY ALT -5092FT SLP241', 'CYLT 061500Z 23015KT 15SM DRSN FEW100 FEW240 M22/M28 A3022 RMK AC1CI1 DENSITY ALT -5037FT SLP240', 'CYLT 061400Z 23017KT 15SM DRSN FEW100 FEW240 M22/M27 A3022 RMK AC1CI2 DENSITY ALT -4966FT SLP239', 'CYLT 061300Z 23016KT 15SM DRSN FEW100 M21/M27 A3022 RMK AC1 DENSITY ALT -4938FT SLP239', 'CYLT 061200Z 22019KT 15SM DRSN FEW100 M22/M26 A3022 RMK AC1 DENSITY ALT -4952FT SLP237', 'CYLT 061100Z 22024KT 15SM DRSN SKC M21/M26 A3021 RMK DENSITY ALT -4869FT SLP235', 'CYLT 061000Z 22020G25KT 7SM DRSN SKC M21/M26 A3021 RMK DENSITY ALT -4898FT SLP235', 'CYLT 060900Z 22016G21KT 15SM DRSN SKC M22/M26 A3020 RMK DENSITY ALT -4928FT SLP233', 'CYLT 060800Z 22024KT 15SM DRSN SKC M21/M25 A3018 RMK DENSITY ALT -4806FT SLP224', 'CYLT 060700Z 22022KT 10SM DRSN SKC M21/M26 A3018 RMK DENSITY ALT -4876FT VIS VRB 6-15 SLP225', 'CYLT 060600Z 23023G28KT 9SM DRSN SKC M21/M25 A3018 RMK DENSITY ALT -4834FT VIS VRB 4-15 TR LOOSE SN ON GND FST OBS SLP224', 'CYLT 051931Z 22022G29KT 3SM BLSN SKC M20/M24 A3010 RMK DENSITY ALT -4570FT SLP199', 'CYLT 051900Z 22024KT 3SM BLSN SKC M20/M23 A3009 RMK SLP195', 'CYLT 051800Z 20022G28KT 5SM BLSN SKC M20/M23 A3009 RMK DENSITY ALT -4558FT SLP195', 'CYLT 051700Z 20020G27KT 5SM BLSN SKC M20/M24 A3008 RMK DENSITY ALT -4575FT SLP192']","['2024-02-08 15:00:00', '2024-02-08 14:00:00', '2024-02-08 13:00:00', '2024-02-07 21:00:00', '2024-02-07 20:00:00', '2024-02-07 19:00:00', '2024-02-07 18:00:00', '2024-02-07 17:00:00', '2024-02-07 16:00:00', '2024-02-07 15:00:00', '2024-02-07 14:00:00', '2024-02-07 13:00:00', '2024-02-07 12:00:00', '2024-02-07 11:00:00', '2024-02-07 10:00:00', '2024-02-07 09:00:00', '2024-02-07 08:00:00', '2024-02-06 21:00:00', '2024-02-06 20:00:00', '2024-02-06 19:00:00', '2024-02-06 18:00:00', '2024-02-06 17:00:00', '2024-02-06 16:00:00', '2024-02-06 15:00:00', '2024-02-06 14:00:00', '2024-02-06 13:00:00', '2024-02-06 12:00:00', '2024-02-06 11:00:00', '2024-02-06 10:00:00', '2024-02-06 09:00:00', '2024-02-06 08:00:00', '2024-02-06 07:00:00', '2024-02-06 06:00:00', '2024-02-05 19:31:00', '2024-02-05 19:00:00', '2024-02-05 18:00:00', '2024-02-05 17:00:00']"
Canada, Arctic Bay Airport (YAB/CYAB) ,"['CYAB 081500Z 16004KT 110V200 15SM FEW100 FEW200 M25/M28 A2990 RMK AC1CI1 AC TR CI TR SLP132', 'CYAB 081400Z VRB06KT 15SM FEW100 FEW200 M24/M28 A2989 RMK AC1CI1 AC TR CI TR SLP128', 'CYAB 081300Z VRB03G15KT 15SM FEW100 M24/M28 A2989 RMK AC1 AC TR SLP126', 'CYAB 081200Z VRB03KT 15SM SKC M25/M28 A2987 RMK SNW CVR/HARD PACK SLP119', 'CYAB 072100Z VRB02KT 15SM FEW100 FEW200 M23/M26 A2977 RMK AC1CI1 LAST STFD OBS/NXT 081200Z SLP086', 'CYAB 072000Z VRB02KT 15SM FEW100 FEW200 M23/M26 A2977 RMK AC1CI1 CI TR SLP085', 'CYAB 071900Z VRB05KT 15SM FEW050 FEW100 FEW200 M22/M25 A2976 RMK SC1AC1CI1 SC TR CI TR SLP083', 'CYAB 071800Z VRB04G15KT 15SM FEW100 FEW200 M21/M24 A2976 RMK AC1CI1 SLP081', 'CYAB 071700Z 28011KT 15SM FEW100 SCT200 M21/M24 A2976 RMK AC2CI1 SLP082', 'CYAB 071600Z 30013KT 15SM FEW100 FEW200 M21/M23 A2975 RMK AC1CI1 SLP080', 'CYAB 071500Z 30012KT 15SM FEW100 FEW200 M21/M24 A2976 RMK AC1CI2 AC TR SLP083', 'CYAB 071400Z 29012KT 15SM FEW050 FEW100 FEW200 M20/M23 A2976 RMK SC1AC1CI1 SC TR AC TR CI TR SLP083', 'CYAB 071300Z 27012G19KT 15SM FEW050 M17/M23 A2975 RMK SC1 SC TR SLP080', 'CYAB 071200Z VRB14G31KT 15SM SKC M16/M22 A2973 RMK SNW CVR/HARD PACK SLP071', 'CYAB 062227Z VRB09KT 11SM BKN040 OVC042 M17/M23 A2968 RMK SC7SC1 LST STFD OBS/ NXT 071200Z SLP055', 'CYAB 062100Z VRB05KT 10SM OVC040 M18/M23 A2968 RMK SC8 LAST STFD OBS/NXT 071200Z SLP054', 'CYAB 062000Z VRB03G15KT 10SM OVC050 M18/M23 A2968 RMK SC8 SLP055', 'CYAB 061900Z 18006KT 10SM OVC050 M18/M23 A2968 RMK SC8 SLP056', 'CYAB 061800Z 21014KT 10SM OVC040 M18/M23 A2968 RMK SC8 SLP057', 'CYAB 061700Z 20006G15KT 130V220 10SM OVC040 M19/M24 A2971 RMK SC8 SLP064', 'CYAB 061600Z VRB04KT 15SM BKN055 OVC200 M19/M24 A2971 RMK SC6CI2 SLP066', 'CYAB 061500Z 24004KT 220V280 10SM BKN055 BKN100 OVC200 M19/M24 A2972 RMK SC7AC1CI1 AC TR SLP070', 'CYAB 061400Z 04022G33KT 8SM DRSN BKN030 M18/M23 A2971 RMK SC7 PRESRR SLP067', 'CYAB 061300Z 04025G30KT 4SM -SN DRSN BLSN OVC030 M18/M23 A2971 RMK SC8 SLP067', 'CYAB 061200Z 04024G35KT 4SM -SN DRSN BLSN OVC030 M18/M22 A2972 RMK SC8 SNW CVR/HARD PACK SLP070', 'CYAB 052300Z 10005G16KT 060V150 10SM FEW040 FEW100 SCT200 M20/M24 A2992 RMK SC2AC1CI1 AC TR LAST STFD OBS/NXT 061200Z SLP139', 'CYAB 052200Z 10007G22KT 080V150 10SM FEW040 FEW100 SCT200 M22/M25 A2992 RMK SC2AC1CI1 AC TR SLP139', 'CYAB 052100Z 14005G16KT 090V190 15SM FEW040 FEW100 SCT200 M24/M27 A2993 RMK SC1AC1CI1 SLP141', 'CYAB 052000Z VRB05KT 15SM SCT040 SCT100 SCT200 M23/M27 A2994 RMK SC3AC1CI1 CI TR SLP143', 'CYAB 051900Z 10005KT 050V130 10SM FEW040 SCT100 SCT200 M23/M27 A2994 RMK SC1AC2CI1 CI TR SLP143', 'CYAB 051814Z 15004G15KT 050V190 10SM FEW040 FEW100 FEW200 M22/M26 A2994 RMK SC1AC1CI1 SC TR CI TR SLP145', 'CYAB 051700Z 28007KT 220V020 10SM -SN BKN040 BKN200 M22/M25 A2995 RMK SC5CI1 CI TR SLP147']","['2024-02-08 15:00:00', '2024-02-08 14:00:00', '2024-02-08 13:00:00', '2024-02-08 12:00:00', '2024-02-07 21:00:00', '2024-02-07 20:00:00', '2024-02-07 19:00:00', '2024-02-07 18:00:00', '2024-02-07 17:00:00', '2024-02-07 16:00:00', '2024-02-07 15:00:00', '2024-02-07 14:00:00', '2024-02-07 13:00:00', '2024-02-07 12:00:00', '2024-02-06 22:27:00', '2024-02-06 21:00:00', '2024-02-06 20:00:00', '2024-02-06 19:00:00', '2024-02-06 18:00:00', '2024-02-06 17:00:00', '2024-02-06 16:00:00', '2024-02-06 15:00:00', '2024-02-06 14:00:00', '2024-02-06 13:00:00', '2024-02-06 12:00:00', '2024-02-05 23:00:00', '2024-02-05 22:00:00', '2024-02-05 21:00:00', '2024-02-05 20:00:00', '2024-02-05 19:00:00', '2024-02-05 18:14:00', '2024-02-05 17:00:00']"
Canada, Arviat Airport (YEK/CYEK) ,"['CYEK 081500Z 01008KT 15SM SKC M28/M31 A3025 RMK SLP247', 'CYEK 081400Z 01006KT 15SM SKC M27/M30 A3025 RMK SLP247', 'CYEK 081300Z 01007KT 15SM SKC M27/M30 A3024 RMK SNW CVR/TRACE LOOSE SLP243', 'CYEK 081200Z AUTO 02007KT 9SM CLR M25/M28 A3024 RMK SLP244', 'CYEK 081100Z AUTO 01006KT 9SM CLR M27/M29 A3024 RMK SLP245', 'CYEK 081000Z AUTO 01004KT 9SM CLR M25/M27 A3025 RMK SLP246', 'CYEK 080900Z AUTO 02005KT 9SM CLR M24/M27 A3024 RMK SLP245', 'CYEK 080800Z AUTO 02004KT 9SM SCT160 M24/M27 A3025 RMK SLP248', 'CYEK 080700Z AUTO 36004KT 9SM FEW110 BKN160 M24/M26 A3026 RMK SLP251', 'CYEK 080600Z AUTO 34005KT 9SM FEW110 BKN160 M24/M27 A3026 RMK SLP251', 'CYEK 080500Z AUTO VRB02KT 9SM FEW091 OVC160 M24/M27 A3025 RMK SLP248', 'CYEK 080400Z AUTO 28003KT 9SM BKN091 BKN160 M24/M26 A3025 RMK SLP248', 'CYEK 080300Z AUTO 22002KT 9SM FEW110 M23/M26 A3025 RMK SLP249', 'CYEK 080200Z AUTO 21004KT 9SM BKN150 M23/M26 A3027 RMK SLP253', 'CYEK 080100Z AUTO 21003KT 9SM OVC140 M22/M25 A3028 RMK SLP257', 'CYEK 080000Z AUTO 23005KT 9SM OVC110 M22/M26 A3028 RMK SLP257', 'CYEK 072300Z 23005KT 15SM OVC110 M22/M26 A3029 RMK AS8 LAST STFD OBS/NXT 081300Z SLP260', 'CYEK 072200Z 23007KT 15SM OVC120 M23/M26 A3029 RMK AS8 SLP262', 'CYEK 072100Z 22009KT 15SM BKN130 M23/M27 A3030 RMK AS8 SLP265', 'CYEK 072000Z 22010KT 15SM OVC170 M24/M27 A3030 RMK AS8 SLP265', 'CYEK 071900Z 21007KT 15SM OVC110 M25/M28 A3031 RMK AS8 SLP268', 'CYEK 071800Z 22006KT 15SM FEW110 OVC260 M25/M29 A3033 RMK AS2CS6 SLP274', 'CYEK 071700Z 24009KT 15SM FEW110 OVC250 M26/M29 A3034 RMK AS2CS6 SLP279', 'CYEK 071600Z 23009KT 15SM FEW110 OVC250 M27/M31 A3035 RMK AS1CS7 SLP280', 'CYEK 071500Z 22007KT 15SM BKN120 OVC250 M28/M32 A3035 RMK AS5CS3 SLP281', 'CYEK 071400Z 21008KT 15SM OVC110 M28/M31 A3036 RMK AS8 SLP284', 'CYEK 071300Z 18005KT 15SM SKC M29/M32 A3036 RMK SNW CVR/TRACE LOOSE SLP286', 'CYEK 071200Z AUTO 06002KT 9SM FEW170 M30/M33 A3037 RMK SLP290', 'CYEK 071100Z AUTO 00000KT 9SM CLR M30/M34 A3038 RMK SLP293', 'CYEK 071000Z AUTO 26005KT 9SM CLR M31/M35 A3040 RMK SLP298', 'CYEK 070900Z AUTO 26006KT 9SM CLR M32/M35 A3040 RMK SLP297', 'CYEK 070800Z AUTO 25003KT 9SM CLR M32/M36 A3038 RMK SLP293', 'CYEK 070700Z AUTO 29005KT 9SM CLR M32/M36 A3038 RMK SLP293', 'CYEK 070600Z AUTO 28005KT 9SM FEW150 M31/M35 A3038 RMK SLP292', 'CYEK 070500Z AUTO 25004KT 9SM CLR M33/M37 A3038 RMK SLP291', 'CYEK 070400Z AUTO 28007KT 9SM CLR M33/M36 A3039 RMK SLP294', 'CYEK 070300Z AUTO 28007KT 9SM CLR M33/M36 A3038 RMK SLP291', 'CYEK 070200Z AUTO 25010KT 9SM CLR M33/M37 A3039 RMK SLP294', 'CYEK 070100Z AUTO 26008KT 9SM CLR M31/M35 A3038 RMK SLP291', 'CYEK 070000Z AUTO 26009KT 9SM CLR M31/M35 A3038 RMK SLP292', 'CYEK 062300Z 23007KT 15SM IC FEW100 M32/M36 A3038 RMK AS1 LAST STFD OBS/NXT 071300Z SLP291', 'CYEK 062200Z 27006KT 15SM IC FEW210 M31/M34 A3037 RMK CI1 SLP288', 'CYEK 062100Z 26007KT 15SM SKC M30/M34 A3036 RMK SLP285', 'CYEK 062000Z 29006KT 15SM SKC M30/M34 A3034 RMK SLP279', 'CYEK 061900Z 31010KT 15SM SKC M31/M35 A3034 RMK SLP279', 'CYEK 061800Z 31008KT 15SM SKC M31/M35 A3034 RMK SLP277', 'CYEK 061700Z 31009KT 15SM SKC M32/M36 A3032 RMK SLP271', 'CYEK 061600Z 32011KT 15SM SKC M33/M36 A3030 RMK SLP264', 'CYEK 061500Z 31009KT 15SM SKC M34/M37 A3029 RMK SLP261', 'CYEK 061400Z 31010KT 15SM SKC M33/M37 A3028 RMK SLP258', 'CYEK 061300Z 29006KT 15SM SKC M33/M37 A3027 RMK SNW CVR/MEDIUM PACK SLP255', 'CYEK 061200Z AUTO 28009KT 9SM CLR M33/M37 A3026 RMK SLP250', 'CYEK 061100Z AUTO 30010KT 9SM CLR M33/M37 A3023 RMK SLP240', 'CYEK 061000Z AUTO 30009KT 9SM CLR M32/M36 A3021 RMK SLP234', 'CYEK 060900Z AUTO 30012G17KT 9SM CLR M31/M35 A3019 RMK SLP228', 'CYEK 060800Z AUTO 30011KT 9SM CLR M31/M35 A3017 RMK SLP220', 'CYEK 060700Z AUTO 31009KT 9SM CLR M31/M34 A3015 RMK SLP213', 'CYEK 060600Z AUTO 32011KT 9SM CLR M29/M33 A3013 RMK SLP206', 'CYEK 060500Z AUTO 32013KT 9SM CLR M29/M33 A3011 RMK SLP200', 'CYEK 060400Z AUTO 33009KT 9SM CLR M29/M32 A3010 RMK SLP197', 'CYEK 060300Z AUTO 31008KT 9SM CLR M28/M32 A3009 RMK SLP194', 'CYEK 060200Z AUTO 33015KT 9SM CLR M27/M30 A3007 RMK SLP186', 'CYEK 060100Z AUTO 33013KT 9SM CLR M26/M29 A3006 RMK SLP182', 'CYEK 060000Z AUTO 32010G15KT 9SM CLR M26/M29 A3005 RMK SLP179', 'CYEK 052300Z 33014KT 15SM DRSN FEW080 M25/M28 A3002 RMK AC1 AC TR LAST STFD OBS/NXT 061300Z SLP170', 'CYEK 052200Z 34015G21KT 15SM DRSN FEW080 M24/M27 A3000 RMK AC1 SLP163', 'CYEK 052100Z 33019G24KT 15SM DRSN FEW060 BKN080 M22/M25 A2998 RMK SC1AC5 SLP155', 'CYEK 052000Z 33019G24KT 15SM DRSN OVC027 M19/M21 A2996 RMK SC8 SLP148', 'CYEK 051900Z 32012KT 15SM FEW061 M19/M21 A2995 RMK SC2 SLP145', 'CYEK 051800Z 30008KT 15SM FEW035 M23/M26 A2995 RMK SC1 SLP145', 'CYEK 051700Z 24004KT 15SM SKC M25/M28 A2995 RMK SLP147']","['2024-02-08 15:00:00', '2024-02-08 14:00:00', '2024-02-08 13:00:00', '2024-02-08 12:00:00', '2024-02-08 11:00:00', '2024-02-08 10:00:00', '2024-02-08 09:00:00', '2024-02-08 08:00:00', '2024-02-08 07:00:00', '2024-02-08 06:00:00', '2024-02-08 05:00:00', '2024-02-08 04:00:00', '2024-02-08 03:00:00', '2024-02-08 02:00:00', '2024-02-08 01:00:00', '2024-02-08 00:00:00', '2024-02-07 23:00:00', '2024-02-07 22:00:00', '2024-02-07 21:00:00', '2024-02-07 20:00:00', '2024-02-07 19:00:00', '2024-02-07 18:00:00', '2024-02-07 17:00:00', '2024-02-07 16:00:00', '2024-02-07 15:00:00', '2024-02-07 14:00:00', '2024-02-07 13:00:00', '2024-02-07 12:00:00', '2024-02-07 11:00:00', '2024-02-07 10:00:00', '2024-02-07 09:00:00', '2024-02-07 08:00:00', '2024-02-07 07:00:00', '2024-02-07 06:00:00', '2024-02-07 05:00:00', '2024-02-07 04:00:00', '2024-02-07 03:00:00', '2024-02-07 02:00:00', '2024-02-07 01:00:00', '2024-02-07 00:00:00', '2024-02-06 23:00:00', '2024-02-06 22:00:00', '2024-02-06 21:00:00', '2024-02-06 20:00:00', '2024-02-06 19:00:00', '2024-02-06 18:00:00', '2024-02-06 17:00:00', '2024-02-06 16:00:00', '2024-02-06 15:00:00', '2024-02-06 14:00:00', '2024-02-06 13:00:00', '2024-02-06 12:00:00', '2024-02-06 11:00:00', '2024-02-06 10:00:00', '2024-02-06 09:00:00', '2024-02-06 08:00:00', '2024-02-06 07:00:00', '2024-02-06 06:00:00', '2024-02-06 05:00:00', '2024-02-06 04:00:00', '2024-02-06 03:00:00', '2024-02-06 02:00:00', '2024-02-06 01:00:00', '2024-02-06 00:00:00', '2024-02-05 23:00:00', '2024-02-05 22:00:00', '2024-02-05 21:00:00', '2024-02-05 20:00:00', '2024-02-05 19:00:00', '2024-02-05 18:00:00', '2024-02-05 17:00:00']"
Canada, Attawapiskat Airport (YAT/CYAT) ,"['CYAT 081553Z AUTO /////KT 9SM OVC003 M06/ A3001 RMK DP MISG SLP166', 'CYAT 081500Z AUTO 07003KT 9SM OVC007 M07/ A3005 RMK DP MISG SLP178', 'CYAT 081400Z AUTO 06004KT 9SM OVC005 M09/M09 A3006 RMK SLP183', 'CYAT 081300Z AUTO 06003KT 9SM OVC005 M10/M10 A3008 RMK SLP190', 'CYAT 081200Z AUTO 07004KT 9SM OVC005 M11/M11 A3010 RMK ICE PAST HR SLP197', 'CYAT 081147Z AUTO 07004KT 9SM OVC005 M11/M11 A3011 RMK ICE PAST HR SLP198', 'CYAT 081117Z AUTO 07004KT 9SM OVC005 M11/M12 A3012 RMK ICE PAST HR SLP201', 'CYAT 081047Z AUTO 06004KT 6SM BR OVC005 M11/M12 A3013 RMK ICE SLP206', 'CYAT 081020Z AUTO 06004KT 3SM BR OVC005 M12/M12 A3014 RMK ICE SLP208', 'CYAT 080955Z AUTO 05003KT 3SM -SN OVC007 M12/M12 A3015 RMK SLP214', 'CYAT 080929Z AUTO 00000KT 3SM -SN OVC007 M12/M12 A3017 RMK SLP219', 'CYAT 080855Z AUTO VRB02KT 3SM -SN OVC007 M12/M13 A3017 RMK SLP220', 'CYAT 080817Z AUTO 00000KT 2 1/2SM -SN OVC005 M12/M13 A3018 RMK SLP223', 'CYAT 080752Z AUTO VRB02KT 2 1/2SM -SN OVC005 M12/M13 A3019 RMK ICE PAST HR SLP226', 'CYAT 080722Z AUTO 04005KT 3SM -SN OVC005 M12/M13 A3018 RMK ICE SLP222', 'CYAT 080643Z AUTO 02005KT 6SM -SN OVC007 M12/M13 A3019 RMK SLP225', 'CYAT 080626Z AUTO 35005KT 5SM BR OVC007 M12/M13 A3020 RMK PRESFR SLP230', 'CYAT 080558Z AUTO 33004KT 5SM -SN OVC007 M12/M13 A3022 RMK SLP235', 'CYAT 080500Z AUTO 01005KT 7SM -SN OVC007 M13/M13 A3021 RMK SLP232', 'CYAT 080455Z AUTO 35004KT 6SM -SN OVC007 M13/M13 A3021 RMK SLP233', 'CYAT 080400Z AUTO 35005KT 3SM -SN OVC007 M13/M13 A3023 RMK SLP241', 'CYAT 080300Z AUTO 34003KT 310V010 4SM -SN OVC007 M13/M13 A3025 RMK SLP248', 'CYAT 080221Z AUTO 36003KT 5SM -SN OVC007 M13/M13 A3025 RMK SLP248', 'CYAT 080140Z AUTO 35004KT 6SM -SN OVC005 M12/M13 A3027 RMK SLP252', 'CYAT 080132Z AUTO 36006KT 5SM -SN OVC005 M12/M13 A3026 RMK SLP250', 'CYAT 080053Z AUTO 02006KT 7SM -SN BKN005 OVC009 M12/M13 A3027 RMK SLP253', 'CYAT 080000Z AUTO 03005KT 9SM -SN OVC009 M12/M13 A3028 RMK SLP256', 'CYAT 072302Z AUTO 03006KT 6SM -SN OVC009 M12/M12 A3029 RMK SLP259', 'CYAT 072240Z AUTO 02008KT 5SM -SN OVC009 M12/M12 A3029 RMK SLP260', 'CYAT 072218Z AUTO 03008KT 9SM -SN OVC013 M11/M13 A3028 RMK SLP257', 'CYAT 072100Z AUTO 02006KT 330V030 9SM OVC013 M10/M13 A3028 RMK SLP256', 'CYAT 072000Z AUTO 02007KT 9SM OVC013 M10/M13 A3027 RMK SLP254', 'CYAT 071900Z AUTO 01008KT 360V060 9SM OVC011 M10/M12 A3027 RMK SLP252', 'CYAT 071800Z AUTO 03009KT 330V050 9SM OVC011 M10/M13 A3028 RMK SLP256', 'CYAT 071700Z AUTO 34007KT 320V030 9SM OVC011 M12/M14 A3030 RMK SLP262', 'CYAT 071600Z AUTO 01006KT 330V040 9SM OVC011 M13/M15 A3030 RMK SLP263', 'CYAT 071558Z AUTO 36007KT 9SM OVC011 M13/M15 A3030 RMK SLP263', 'CYAT 071531Z AUTO 02007KT 9SM OVC011 M13/M15 A3030 RMK SLP263', 'CYAT 071432Z AUTO 36008KT 9SM OVC011 M14/M15 A3030 RMK SLP265', 'CYAT 071423Z AUTO 01007KT 330V030 9SM -SN OVC011 M14/M15 A3030 RMK SLP264', 'CYAT 071311Z AUTO 36006KT 9SM -SN FEW012 OVC024 M14/M15 A3030 RMK SLP265', 'CYAT 071200Z AUTO 01009KT 9SM -SN OVC012 M13/M14 A3029 RMK SLP261', 'CYAT 071100Z AUTO 01010G15KT 9SM -SN OVC014 M12/M13 A3027 RMK SLP254', 'CYAT 071014Z AUTO 01010G15KT 9SM -SN BKN014 OVC110 M11/M13 A3026 RMK SLP249', 'CYAT 070952Z AUTO 01008G15KT 9SM -SN SCT014 BKN096 OVC110 M11/M12 A3025 RMK SLP245', 'CYAT 070900Z AUTO 36010KT 9SM -SN OVC016 M10/M12 A3023 RMK SLP241', 'CYAT 070800Z AUTO 01010G18KT 9SM -SN BKN016 OVC021 M09/M11 A3022 RMK ICE MISG SLP236', 'CYAT 070700Z AUTO 01011KT 9SM -SN BKN014 OVC019 M09/M10 A3020 RMK SLP229', 'CYAT 070600Z AUTO 02010G17KT 9SM -SN OVC015 M08/M09 A3018 RMK SLP224', 'CYAT 070544Z AUTO 02012G20KT 9SM -SN OVC015 M08/M09 A3017 RMK SLP221', 'CYAT 070500Z AUTO 02009G15KT 9SM -SN OVC013 M07/M08 A3016 RMK SLP217', 'CYAT 070435Z AUTO 01009G16KT 6SM -SN OVC011 M07/M08 A3015 RMK SLP214', 'CYAT 070400Z AUTO 01012G18KT 5SM -SN BKN011 OVC033 M06/M07 A3014 RMK SLP208', 'CYAT 070352Z AUTO 03014KT 5SM -SN BKN011 OVC035 M06/M07 A3013 RMK SLP206', 'CYAT 070329Z AUTO 01007KT 7SM -SN BKN011 M06/M06 A3013 RMK SLP207', 'CYAT 070242Z AUTO 01011G22KT 7SM -SN SCT011 BKN032 OVC076 M05/M06 A3012 RMK SLP202', 'CYAT 070207Z AUTO 36007KT 3SM -SN BKN009 OVC019 M04/M04 A3011 RMK SLP200', 'CYAT 070124Z AUTO 01010G17KT 1 1/2SM -SN FEW007 OVC015 M03/ A3009 RMK DP MISG SLP194', 'CYAT 070028Z AUTO 03009G15KT 1 1/4SM -SN BKN005 OVC011 M01/ A3007 RMK DP MISG SLP187', 'CYAT 062353Z AUTO 04008KT 1 3/4SM -SN BKN005 OVC011 00/ A3006 RMK DP MISG SLP182', 'CYAT 062330Z AUTO 03005KT 7SM -UP OVC003 00/ A3005 RMK DP MISG SLP178', 'CYAT 062258Z AUTO 03004KT 7SM -RA BKN005 OVC010 00/ A3003 RMK DP MISG SLP173', 'CYAT 062228Z AUTO 02005KT 6SM -RA BR BKN005 BKN009 OVC022 01/ A3002 RMK DP MISG SLP169', 'CYAT 062157Z AUTO 36005KT 5SM BR OVC007 01/ A3002 RMK DP MISG SLP167', 'CYAT 062126Z AUTO 34003KT 9SM OVC007 01/ A3001 RMK DP MISG SLP165', 'CYAT 062056Z AUTO 29003KT 9SM OVC009 02/ A3000 RMK DP MISG SLP163', 'CYAT 062000Z AUTO 00000KT 9SM OVC005 01/ A2997 RMK DP MISG SLP153', 'CYAT 061959Z AUTO VRB02KT 9SM OVC005 01/ A2997 RMK DP MISG SLP153', 'CYAT 061923Z AUTO 26002KT 6SM -RA BR OVC005 01/ A2997 RMK DP MISG SLP151', 'CYAT 061859Z AUTO VRB02KT 3SM BR OVC005 01/ A2997 RMK DP MISG SLP152', 'CYAT 061824Z AUTO 00000KT 2 1/4SM BR OVC005 01/ A2997 RMK DP MISG SLP152', 'CYAT 061755Z AUTO VRB02KT 2 1/2SM BR OVC005 01/ A2997 RMK DP MISG SLP153', 'CYAT 061731Z AUTO VRB02KT 5SM BR OVC005 01/ A2997 RMK DP MISG SLP152', 'CYAT 061639Z AUTO 20003KT 160V220 9SM OVC005 00/ A2998 RMK DP MISG SLP155', 'CYAT 061600Z AUTO 18003KT 150V210 9SM OVC003 M00/ A2998 RMK DP MISG SLP155', 'CYAT 061521Z AUTO 19003KT 160V220 6SM BR OVC003 M01/ A2998 RMK DP MISG SLP156', 'CYAT 061455Z AUTO 19004KT 3SM BR OVC003 M01/ A2999 RMK DP MISG SLP159', 'CYAT 061423Z AUTO 19003KT 160V230 2SM BR OVC003 M01/ A2999 RMK DP MISG SLP159', 'CYAT 061354Z AUTO 19005KT 160V240 5SM BR OVC003 M01/ A2999 RMK DP MISG SLP160', 'CYAT 061325Z AUTO 18004KT 9SM OVC003 M02/ A2999 RMK DP MISG SLP160', 'CYAT 061234Z AUTO 18006KT 6SM BR OVC005 M02/ A2999 RMK DP MISG SLP160', 'CYAT 061217Z AUTO 17005KT 5SM BR OVC005 M02/ A2999 RMK DP MISG SLP160', 'CYAT 061138Z AUTO 18005KT 140V200 7SM OVC005 M02/ A3000 RMK DP MISG SLP161', 'CYAT 061100Z AUTO 17005KT 7SM OVC005 M02/ A3000 RMK DP MISG SLP163', 'CYAT 061028Z AUTO 18007KT 7SM BKN007 OVC012 M02/ A3001 RMK DP MISG SLP166', 'CYAT 061002Z AUTO 17007KT 5SM -SN BKN014 OVC019 M02/M02 A3002 RMK SLP167', 'CYAT 060915Z AUTO 18005KT 9SM -SN BKN021 OVC027 M02/M02 A3003 RMK SLP171', 'CYAT 060851Z AUTO 18005KT 150V220 9SM BKN023 OVC029 M02/M02 A3003 RMK SLP172', 'CYAT 060804Z AUTO 18004KT 9SM FEW008 OVC025 M02/M02 A3004 RMK SLP176', 'CYAT 060727Z AUTO 18004KT 140V210 9SM FEW008 OVC023 M02/M02 A3004 RMK SLP177', 'CYAT 060657Z AUTO 17005KT 130V210 9SM BKN008 OVC025 M02/M02 A3004 RMK SLP177', 'CYAT 060627Z AUTO 17005KT 150V210 9SM SCT007 OVC022 M02/M02 A3004 RMK SLP177', 'CYAT 060500Z AUTO 18004KT 150V230 9SM OVC007 M03/M03 A3007 RMK SLP185', 'CYAT 060400Z AUTO 19005KT 9SM OVC007 M03/M03 A3008 RMK SLP189', 'CYAT 060300Z AUTO 20004KT 9SM BKN007 OVC026 M03/M03 A3009 RMK SLP193', 'CYAT 060237Z AUTO 20004KT 160V230 9SM OVC007 M03/M03 A3010 RMK SLP196', 'CYAT 060218Z AUTO 20005KT 9SM BKN009 OVC025 M03/M04 A3011 RMK SLP199', 'CYAT 060100Z AUTO 20007KT 180V240 9SM OVC010 M03/M03 A3013 RMK SLP207', 'CYAT 060008Z AUTO 22005KT 9SM OVC012 M02/M02 A3015 RMK SLP212', 'CYAT 052359Z AUTO 22005KT 170V240 9SM BKN009 OVC014 M02/M02 A3015 RMK SLP211', 'CYAT 052330Z AUTO 21005KT 180V250 9SM SCT007 OVC012 M02/ A3014 RMK DP MISG SLP210', 'CYAT 052259Z AUTO 21004KT 9SM OVC012 M02/M03 A3014 RMK SLP210', 'CYAT 052227Z AUTO 22004KT 190V260 3SM -SN FEW008 OVC012 M02/M02 A3015 RMK SLP211', 'CYAT 052100Z AUTO 17003KT 9SM SCT012 OVC018 M01/M03 A3015 RMK SLP213', 'CYAT 052000Z AUTO 21005KT 150V230 9SM OVC012 M01/M03 A3016 RMK SLP217', 'CYAT 051900Z AUTO 18005KT 150V230 9SM OVC012 M01/M03 A3016 RMK SLP217', 'CYAT 051800Z AUTO 16004KT 9SM OVC012 M01/M03 A3019 RMK ICE MISG SLP225', 'CYAT 051726Z AUTO 17005KT 9SM FEW008 OVC015 M02/M02 A3019 RMK SLP227', 'CYAT 051654Z AUTO 15004KT 130V200 9SM BKN008 OVC015 M02/M02 A3020 RMK SLP230', 'CYAT 051613Z AUTO 16005KT 9SM BKN006 OVC011 M02/ A3021 RMK DP MISG SLP232']","['2024-02-08 15:53:00', '2024-02-08 15:00:00', '2024-02-08 14:00:00', '2024-02-08 13:00:00', '2024-02-08 12:00:00', '2024-02-08 11:47:00', '2024-02-08 11:17:00', '2024-02-08 10:47:00', '2024-02-08 10:20:00', '2024-02-08 09:55:00', '2024-02-08 09:29:00', '2024-02-08 08:55:00', '2024-02-08 08:17:00', '2024-02-08 07:52:00', '2024-02-08 07:22:00', '2024-02-08 06:43:00', '2024-02-08 06:26:00', '2024-02-08 05:58:00', '2024-02-08 05:00:00', '2024-02-08 04:55:00', '2024-02-08 04:00:00', '2024-02-08 03:00:00', '2024-02-08 02:21:00', '2024-02-08 01:40:00', '2024-02-08 01:32:00', '2024-02-08 00:53:00', '2024-02-08 00:00:00', '2024-02-07 23:02:00', '2024-02-07 22:40:00', '2024-02-07 22:18:00', '2024-02-07 21:00:00', '2024-02-07 20:00:00', '2024-02-07 19:00:00', '2024-02-07 18:00:00', '2024-02-07 17:00:00', '2024-02-07 16:00:00', '2024-02-07 15:58:00', '2024-02-07 15:31:00', '2024-02-07 14:32:00', '2024-02-07 14:23:00', '2024-02-07 13:11:00', '2024-02-07 12:00:00', '2024-02-07 11:00:00', '2024-02-07 10:14:00', '2024-02-07 09:52:00', '2024-02-07 09:00:00', '2024-02-07 08:00:00', '2024-02-07 07:00:00', '2024-02-07 06:00:00', '2024-02-07 05:44:00', '2024-02-07 05:00:00', '2024-02-07 04:35:00', '2024-02-07 04:00:00', '2024-02-07 03:52:00', '2024-02-07 03:29:00', '2024-02-07 02:42:00', '2024-02-07 02:07:00', '2024-02-07 01:24:00', '2024-02-07 00:28:00', '2024-02-06 23:53:00', '2024-02-06 23:30:00', '2024-02-06 22:58:00', '2024-02-06 22:28:00', '2024-02-06 21:57:00', '2024-02-06 21:26:00', '2024-02-06 20:56:00', '2024-02-06 20:00:00', '2024-02-06 19:59:00', '2024-02-06 19:23:00', '2024-02-06 18:59:00', '2024-02-06 18:24:00', '2024-02-06 17:55:00', '2024-02-06 17:31:00', '2024-02-06 16:39:00', '2024-02-06 16:00:00', '2024-02-06 15:21:00', '2024-02-06 14:55:00', '2024-02-06 14:23:00', '2024-02-06 13:54:00', '2024-02-06 13:25:00', '2024-02-06 12:34:00', '2024-02-06 12:17:00', '2024-02-06 11:38:00', '2024-02-06 11:00:00', '2024-02-06 10:28:00', '2024-02-06 10:02:00', '2024-02-06 09:15:00', '2024-02-06 08:51:00', '2024-02-06 08:04:00', '2024-02-06 07:27:00', '2024-02-06 06:57:00', '2024-02-06 06:27:00', '2024-02-06 05:00:00', '2024-02-06 04:00:00', '2024-02-06 03:00:00', '2024-02-06 02:37:00', '2024-02-06 02:18:00', '2024-02-06 01:00:00', '2024-02-06 00:08:00', '2024-02-05 23:59:00', '2024-02-05 23:30:00', '2024-02-05 22:59:00', '2024-02-05 22:27:00', '2024-02-05 21:00:00', '2024-02-05 20:00:00', '2024-02-05 19:00:00', '2024-02-05 18:00:00', '2024-02-05 17:26:00', '2024-02-05 16:54:00', '2024-02-05 16:13:00']"
Canada, Aupaluk Airport (YPJ/CYLA) ,"['CYLA 081500Z 31005KT 15SM BKN210 M28/M32 A3028 RMK CI6 SLP261', 'CYLA 081400Z 31003KT 300V110 15SM BKN220 M28/M32 A3030 RMK CI6 SLP270', 'CYLA 081300Z 17004KT 15SM BKN220 M29/M33 A3034 RMK CI6 SLP282', 'CYLA 072200Z 24007G15KT 15SM SCT220 M24/M30 A3048 RMK CI3 LAST OBS/NEXT 081300UTC SLP328', 'CYLA 072100Z 24008KT 15SM SCT210 M24/M29 A3046 RMK CI3 SLP323', 'CYLA 072000Z 24012KT 15SM FEW180 M23/M29 A3046 RMK AC1 SLP324', 'CYLA 071900Z 26012KT 15SM FEW180 M23/M29 A3044 RMK AC1 SLP315', 'CYLA 071800Z 26014KT 15SM FEW200 M23/M28 A3042 RMK CI2 SLP309', 'CYLA 071700Z 24010G18KT 15SM FEW220 M22/M29 A3041 RMK CI2 SLP306', 'CYLA 071600Z 23014G20KT 15SM FEW210 M24/M29 A3040 RMK CI2 SLP302', 'CYLA 071500Z 23012KT 15SM BKN240 M24/M30 A3039 RMK CI5 SLP299', 'CYLA 071400Z 29007KT 15SM FEW220 M24/M30 A3039 RMK CI2 SLP299', 'CYLA 071300Z 28006KT 15SM FEW050 M24/M30 A3038 RMK SC1 SC TR SLP294', 'CYLA 062200Z 25020G27KT 1SM -SN BLSN OVC037 M05/M06 A2989 RMK BLSN3SC5 LAST OBS/NEXT 071300UTC SLP128', 'CYLA 062100Z 23019KT 2SM -SN DRSN OVC025 M05/M06 A2987 RMK SN3SC8 SLP121', 'CYLA 062045Z 23020KT 2SM -SN DRSN OVC035 M05/M06 A2987 RMK SN2SC6 SLP121', 'CYLA 062000Z 23017G23KT 8SM -SN DRSN OVC014 M05/M07 A2987 RMK SC8 SLP121', 'CYLA 061900Z 23017G23KT 15SM -SN DRSN BKN012 OVC050 M05/M07 A2987 RMK SC6SC2 SLP122', 'CYLA 061800Z 22018G24KT 15SM -SN DRSN BKN021 OVC053 M06/M07 A2987 RMK SC5SC3 SLP122', 'CYLA 061710Z 22020G25KT 12SM -SN DRSN BKN030 OVC062 M06/M07 A2987 RMK SC5SC3 SLP122', 'CYLA 061630Z 22020KT 2 1/2SM -SN DRSN OVC021 M06/M07 A2989 RMK SC8 SLP127', 'CYLA 061526Z 20018KT 15SM -SN DRSN SCT013 OVC058 M06/M07 A2991 RMK SC4SC4 SLP133', 'CYLA 061423Z 21019KT 1 1/2SM -SN DRSN VCBLSN OVC016 M06/M08 A2991 RMK SN2SC6 SLP134', 'CYLA 061300Z 20017KT 15SM DRSN OVC052 M06/M09 A2993 RMK SC8 SLP141', 'CYLA 052200Z 19013KT 15SM -SN OVC045 M11/M12 A3020 RMK SC8 VRY LGT PCPN LAST OBS/NEXT 061300UTC SLP233', 'CYLA 052100Z 20013KT 15SM -SN OVC040 M12/M13 A3021 RMK SC8 SLP236', 'CYLA 052000Z 19017KT 15SM -SN OVC041 M12/M14 A3021 RMK SC8 SLP236', 'CYLA 051900Z 19012KT 15SM BKN043 M13/M15 A3022 RMK SC7 SLP240', 'CYLA 051800Z 20014KT 15SM FEW040 BKN095 M14/M16 A3022 RMK SC1AC6 SLP239', 'CYLA 051700Z 19013KT 15SM -SN BKN029 BKN092 M15/M17 A3024 RMK SC5AC2 PRESFR SLP247']","['2024-02-08 15:00:00', '2024-02-08 14:00:00', '2024-02-08 13:00:00', '2024-02-07 22:00:00', '2024-02-07 21:00:00', '2024-02-07 20:00:00', '2024-02-07 19:00:00', '2024-02-07 18:00:00', '2024-02-07 17:00:00', '2024-02-07 16:00:00', '2024-02-07 15:00:00', '2024-02-07 14:00:00', '2024-02-07 13:00:00', '2024-02-06 22:00:00', '2024-02-06 21:00:00', '2024-02-06 20:45:00', '2024-02-06 20:00:00', '2024-02-06 19:00:00', '2024-02-06 18:00:00', '2024-02-06 17:10:00', '2024-02-06 16:30:00', '2024-02-06 15:26:00', '2024-02-06 14:23:00', '2024-02-06 13:00:00', '2024-02-05 22:00:00', '2024-02-05 21:00:00', '2024-02-05 20:00:00', '2024-02-05 19:00:00', '2024-02-05 18:00:00', '2024-02-05 17:00:00']"
Canada, Baie Comeau Airport (YBC/CYBC) ,"['CYBC 081500Z AUTO 01002KT 9SM CLR M05/M07 A3035 RMK SLP281', 'CYBC 081400Z AUTO 32003KT 270V350 9SM CLR M07/M08 A3036 RMK SLP283', 'CYBC 081300Z AUTO 34004KT 9SM CLR M09/M09 A3035 RMK SLP282', 'CYBC 081200Z AUTO 34005KT 9SM CLR M11/M11 A3035 RMK SLP280', 'CYBC 081100Z AUTO VRB02KT 9SM CLR M16/M17 A3033 RMK SLP275', 'CYBC 081000Z AUTO 32003KT 9SM CLR M16/M17 A3032 RMK SLP272', 'CYBC 080900Z AUTO VRB02KT 9SM CLR M15/M16 A3032 RMK SLP271', 'CYBC 080800Z AUTO 28003KT 9SM FEW250 M13/M14 A3031 RMK SLP268', 'CYBC 080700Z AUTO 28003KT 9SM CLR M13/M14 A3031 RMK SLP269', 'CYBC 080600Z AUTO 28003KT 9SM CLR M13/M14 A3031 RMK SLP268', 'CYBC 080500Z AUTO 30002KT 9SM BKN180 M14/M15 A3031 RMK SLP268', 'CYBC 080400Z AUTO 00000KT 9SM CLR M13/M14 A3031 RMK SLP268', 'CYBC 080300Z AUTO 22003KT 9SM SCT180 BKN200 M13/M14 A3031 RMK SLP268', 'CYBC 080200Z AUTO 00000KT 9SM BKN180 M11/M12 A3031 RMK SLP267', 'CYBC 080100Z AUTO 29002KT 9SM R10/2200FT/N BKN190 M11/M11 A3031 RMK SLP268', 'CYBC 080000Z AUTO 28002KT 9SM SCT210 M09/M09 A3031 RMK SLP269', 'CYBC 072300Z AUTO 28004KT 9SM FEW170 M07/M07 A3030 RMK SLP266', 'CYBC 072200Z AUTO 25006KT 9SM BKN180 M06/M06 A3030 RMK SLP264', 'CYBC 072100Z AUTO 24007KT 9SM CLR M05/M07 A3029 RMK SLP260', 'CYBC 072000Z AUTO 23008KT 9SM CLR M05/M07 A3030 RMK SLP263', 'CYBC 071900Z AUTO 22008KT 9SM CLR M04/M07 A3030 RMK SLP264', 'CYBC 071800Z AUTO 22009KT 9SM CLR M04/M07 A3031 RMK SLP269', 'CYBC 071700Z AUTO 22007KT 9SM CLR M04/M08 A3033 RMK SLP274', 'CYBC 071600Z AUTO 25006KT 9SM CLR M05/M09 A3034 RMK SLP277', 'CYBC 071500Z AUTO 26004KT 9SM CLR M07/M11 A3035 RMK SLP282', 'CYBC 071400Z AUTO 30004KT 270V340 9SM CLR M09/M10 A3035 RMK SLP283', 'CYBC 071300Z AUTO 30003KT 9SM CLR M13/M14 A3035 RMK SLP282', 'CYBC 071200Z AUTO 32004KT 9SM CLR M13/M14 A3034 RMK SLP278', 'CYBC 071100Z AUTO 34003KT 9SM CLR M17/M18 A3033 RMK SLP275', 'CYBC 071000Z AUTO 33004KT 9SM CLR M15/M16 A3031 RMK SLP267', 'CYBC 070900Z AUTO 33003KT 9SM CLR M15/M16 A3031 RMK SLP267', 'CYBC 070800Z AUTO 33005KT 9SM CLR M12/M12 A3031 RMK SLP267', 'CYBC 070700Z AUTO 31002KT 9SM CLR M16/M18 A3032 RMK SLP270', 'CYBC 070600Z AUTO 32003KT 9SM CLR M17/M18 A3031 RMK SLP268', 'CYBC 070500Z AUTO 31003KT 9SM CLR M15/M16 A3032 RMK SLP270', 'CYBC 070400Z AUTO 32004KT 9SM CLR M13/M15 A3032 RMK SLP271', 'CYBC 070300Z AUTO 33004KT 9SM CLR M14/M15 A3032 RMK SLP270', 'CYBC 070200Z AUTO 33003KT 9SM CLR M15/M16 A3032 RMK SLP272', 'CYBC 070100Z AUTO 26002KT 9SM CLR M13/M14 A3031 RMK SLP269', 'CYBC 070000Z AUTO 00000KT 9SM CLR M11/M11 A3031 RMK SLP269', 'CYBC 062300Z AUTO 25002KT 9SM CLR M11/M12 A3031 RMK SLP268', 'CYBC 062200Z AUTO 22004KT 9SM CLR M06/M09 A3031 RMK SLP266', 'CYBC 062100Z AUTO 23004KT 9SM CLR M05/M09 A3030 RMK SLP265', 'CYBC 062000Z AUTO 21006KT 9SM CLR M03/M09 A3030 RMK SLP265', 'CYBC 061900Z AUTO 21007KT 9SM CLR M03/M10 A3030 RMK SLP265', 'CYBC 061800Z AUTO 20006KT 9SM CLR M03/M11 A3031 RMK SLP266', 'CYBC 061700Z AUTO 22003KT 9SM CLR M03/M11 A3031 RMK SLP269', 'CYBC 061600Z AUTO 31004KT 290V350 9SM CLR M03/M12 A3033 RMK SLP273', 'CYBC 061500Z AUTO 32005KT 300V010 9SM CLR M05/M12 A3034 RMK SLP277', 'CYBC 061400Z AUTO 33004KT 9SM CLR M07/M12 A3034 RMK SLP277', 'CYBC 061338Z AUTO 33007KT 9SM SCT022 M08/M12 A3034 RMK SLP276', 'CYBC 061300Z AUTO 34005KT 9SM OVC022 M08/M12 A3033 RMK SLP273', 'CYBC 061202Z AUTO 33005KT 300V360 9SM OVC024 M08/M13 A3031 RMK SLP268', 'CYBC 061116Z AUTO 33006KT 9SM OVC028 M08/M12 A3030 RMK SLP264', 'CYBC 061056Z AUTO 34005KT 310V010 5SM -SN OVC030 M08/M12 A3030 RMK SLP263', 'CYBC 061000Z AUTO 32005KT 9SM OVC028 M08/M12 A3028 RMK SLP258', 'CYBC 060900Z AUTO 35005KT 9SM BKN042 M08/M13 A3027 RMK SLP254', 'CYBC 060800Z AUTO 01010KT 9SM OVC042 M06/M12 A3026 RMK SLP250', 'CYBC 060700Z AUTO 36009KT 9SM OVC042 M06/M12 A3026 RMK SLP250', 'CYBC 060600Z AUTO 35005KT 300V010 9SM SCT025 BKN042 M07/M12 A3025 RMK SLP248', 'CYBC 060500Z AUTO 36005KT 9SM CLR M06/M12 A3025 RMK SLP246', 'CYBC 060400Z AUTO 36005KT 9SM CLR M06/M12 A3024 RMK SLP243', 'CYBC 060300Z AUTO 36005KT 9SM CLR M05/M11 A3023 RMK SLP239', 'CYBC 060200Z AUTO 36005KT 330V040 9SM CLR M04/M11 A3022 RMK SLP236', 'CYBC 060100Z AUTO 01005KT 9SM CLR M04/M11 A3021 RMK SLP232', 'CYBC 060000Z AUTO 36005KT 9SM CLR M04/M12 A3019 RMK SLP228', 'CYBC 052300Z AUTO 36008KT 9SM BKN043 M03/M12 A3018 RMK SLP222', 'CYBC 052200Z AUTO 01009KT 9SM BKN041 M02/M11 A3016 RMK SLP218', 'CYBC 052100Z AUTO 01006KT 9SM SCT040 BKN120 M01/M11 A3015 RMK SLP212', 'CYBC 052000Z AUTO 02008KT 9SM OVC036 M01/M10 A3013 RMK SLP208', 'CYBC 051900Z AUTO 03009KT 9SM BKN036 OVC110 M02/M09 A3012 RMK SLP202', 'CYBC 051800Z AUTO 03009G15KT 9SM BKN032 BKN071 OVC110 M01/M08 A3011 RMK SLP201', 'CYBC 051700Z AUTO 03008KT 9SM OVC110 M03/M09 A3011 RMK SLP200']","['2024-02-08 15:00:00', '2024-02-08 14:00:00', '2024-02-08 13:00:00', '2024-02-08 12:00:00', '2024-02-08 11:00:00', '2024-02-08 10:00:00', '2024-02-08 09:00:00', '2024-02-08 08:00:00', '2024-02-08 07:00:00', '2024-02-08 06:00:00', '2024-02-08 05:00:00', '2024-02-08 04:00:00', '2024-02-08 03:00:00', '2024-02-08 02:00:00', '2024-02-08 01:00:00', '2024-02-08 00:00:00', '2024-02-07 23:00:00', '2024-02-07 22:00:00', '2024-02-07 21:00:00', '2024-02-07 20:00:00', '2024-02-07 19:00:00', '2024-02-07 18:00:00', '2024-02-07 17:00:00', '2024-02-07 16:00:00', '2024-02-07 15:00:00', '2024-02-07 14:00:00', '2024-02-07 13:00:00', '2024-02-07 12:00:00', '2024-02-07 11:00:00', '2024-02-07 10:00:00', '2024-02-07 09:00:00', '2024-02-07 08:00:00', '2024-02-07 07:00:00', '2024-02-07 06:00:00', '2024-02-07 05:00:00', '2024-02-07 04:00:00', '2024-02-07 03:00:00', '2024-02-07 02:00:00', '2024-02-07 01:00:00', '2024-02-07 00:00:00', '2024-02-06 23:00:00', '2024-02-06 22:00:00', '2024-02-06 21:00:00', '2024-02-06 20:00:00', '2024-02-06 19:00:00', '2024-02-06 18:00:00', '2024-02-06 17:00:00', '2024-02-06 16:00:00', '2024-02-06 15:00:00', '2024-02-06 14:00:00', '2024-02-06 13:38:00', '2024-02-06 13:00:00', '2024-02-06 12:02:00', '2024-02-06 11:16:00', '2024-02-06 10:56:00', '2024-02-06 10:00:00', '2024-02-06 09:00:00', '2024-02-06 08:00:00', '2024-02-06 07:00:00', '2024-02-06 06:00:00', '2024-02-06 05:00:00', '2024-02-06 04:00:00', '2024-02-06 03:00:00', '2024-02-06 02:00:00', '2024-02-06 01:00:00', '2024-02-06 00:00:00', '2024-02-05 23:00:00', '2024-02-05 22:00:00', '2024-02-05 21:00:00', '2024-02-05 20:00:00', '2024-02-05 19:00:00', '2024-02-05 18:00:00', '2024-02-05 17:00:00']"
Canada, Baker Lake Airport (YBK/CYBK) ,"['CYBK 081500Z VRB02KT 20SM FEW230 M34/M37 A3026 RMK CI2 SLP253', 'CYBK 081400Z VRB02KT 20SM SKC M34/M37 A3026 RMK SLP253', 'CYBK 081342Z 34002KT 15SM SKC M35/M38 A3027 RMK SLP255', 'CYBK 081200Z 01003KT 350V130 15SM SKC M34/M37 A3027 RMK SLP257', 'CYBK 081100Z 00000KT 15SM SKC M34/M38 A3028 RMK SLP259', 'CYBK 081000Z 36003KT 15SM SKC M33/M36 A3027 RMK SLP255', 'CYBK 080900Z 36005KT 15SM SKC M34/M38 A3027 RMK SLP256', 'CYBK 080800Z 36004KT 15SM SKC M34/M37 A3026 RMK SLP254', 'CYBK 080700Z 35004KT 15SM SKC M32/M36 A3026 RMK SLP253', 'CYBK 080600Z 35004KT 15SM FEW100 M34/M37 A3026 RMK AC1 SLP253', 'CYBK 080500Z 34006KT 15SM FEW140 M33/M37 A3027 RMK AC1 SLP256', 'CYBK 080400Z 34007KT 15SM FEW140 M33/M37 A3027 RMK AC1 SLP255', 'CYBK 080300Z 35005KT 15SM FEW140 SCT180 M33/M36 A3027 RMK AC2AC2 SLP255', 'CYBK 080200Z 35004KT 15SM FEW180 SCT210 M33/M37 A3026 RMK AC2CI2 SLP254', 'CYBK 080100Z 35005KT 15SM SCT200 M33/M37 A3027 RMK CI3 SLP256', 'CYBK 080000Z 35004KT 15SM FEW100 BKN200 M33/M37 A3026 RMK AC2CI4 SLP254', 'CYBK 072300Z 01004KT 20SM BKN110 BKN210 M33/M37 A3027 RMK AC5CI1 SLP257', 'CYBK 072200Z 11005KT 050V120 20SM BKN110 BKN210 M32/M36 A3027 RMK AC5CI2 SLP255', 'CYBK 072100Z 10003KT 20SM BKN100 OVC210 M32/M35 A3027 RMK AC6CI2 SLP255', 'CYBK 072000Z 11004KT 20SM SCT140 BKN210 M32/M36 A3028 RMK AC3CI1 SLP258', 'CYBK 071900Z 00000KT 20SM SCT100 BKN210 M32/M36 A3028 RMK AC3CI4 SLP260', 'CYBK 071800Z 34005KT 20SM BKN100 BKN200 M33/M37 A3028 RMK AC5CI2 SLP261', 'CYBK 071700Z 00000KT 20SM FEW120 SCT150 BKN200 M33/M37 A3029 RMK AC2AC2CI3 SLP262', 'CYBK 071600Z 00000KT 20SM SCT120 BKN150 BKN200 M34/M37 A3029 RMK AC3AC2CI2 SLP263', 'CYBK 071500Z 00000KT 20SM FEW190 M34/M38 A3030 RMK AC2 SLP265', 'CYBK 071400Z 33003KT 20SM FEW200 M34/M38 A3030 RMK CI1 SLP265', 'CYBK 071300Z 00000KT 15SM FEW210 M35/M38 A3031 RMK CI1 SLP268', 'CYBK 071200Z 00000KT 15SM SKC M35/M38 A3031 RMK SLP268', 'CYBK 071100Z 35003KT 310V010 15SM SKC M34/M38 A3031 RMK SLP271', 'CYBK 071000Z VRB02KT 15SM SKC M35/M38 A3032 RMK SLP272', 'CYBK 070900Z 30002KT 15SM SKC M34/M38 A3030 RMK SLP267', 'CYBK 070800Z 08003KT 030V110 15SM SKC M34/M38 A3031 RMK SLP271', 'CYBK 070700Z 00000KT 15SM SKC M33/M37 A3031 RMK SLP268', 'CYBK 070618Z 27006KT 15SM FEW180 M32/M35 A3029 RMK AC1 SLP262', 'CYBK 070500Z 26007KT 15SM FEW190 M33/M37 A3028 RMK AC2 SLP261', 'CYBK 070400Z 25005KT 150V260 15SM SCT200 M33/M37 A3029 RMK CI3 SLP262', 'CYBK 070300Z 00000KT 15SM FEW230 M33/M37 A3029 RMK CI2 SLP263', 'CYBK 070200Z 27004KT 240V340 15SM FEW070 M30/M34 A3028 RMK AC1 SLP261', 'CYBK 070100Z 11003KT 15SM FEW070 M31/M35 A3028 RMK AC1 SLP260', 'CYBK 070035Z 17004KT 15SM FEW070 M32/M36 A3028 RMK AC1 SLP259', 'CYBK 070000Z 30004G15KT 15SM IC FEW070 M32/M36 A3027 RMK AC2 SLP257', 'CYBK 062300Z VRB06KT 25SM IC FEW070 M33/M37 A3027 RMK AC1 AC TR SLP255', 'CYBK 062200Z 24010KT 25SM IC FEW070 M32/M36 A3025 RMK AC1 AC TR SLP250', 'CYBK 062100Z 25006KT 190V270 25SM IC FEW040 M32/M36 A3023 RMK SC1 SC TR SLP244', 'CYBK 062000Z 27003KT 210V020 25SM IC SKC M32/M36 A3023 RMK SLP244', 'CYBK 061900Z 27009KT 25SM IC DRSN SKC M31/M35 A3023 RMK SLP242', 'CYBK 061800Z 29017KT 25SM IC DRSN SKC M33/M37 A3020 RMK SLP234', 'CYBK 061700Z 28019KT 25SM IC DRSN SKC M34/M38 A3020 RMK SLP233', 'CYBK 061600Z 19005KT 25SM IC SKC M35/M39 A3021 RMK SLP235', 'CYBK 061500Z 27011G16KT 25SM IC DRSN FEW240 M34/M38 A3020 RMK CI1 CI TR SLP231', 'CYBK 061400Z 29019KT 15SM IC DRSN FEW240 M34/M38 A3017 RMK CI1 CI TR SLP224', 'CYBK 061300Z 29020KT 15SM IC DRSN SKC M34/M38 A3017 RMK SLP222', 'CYBK 061200Z 31010KT 15SM IC DRSN SKC M33/M37 A3016 RMK SLP220', 'CYBK 061100Z 19008KT 150V240 15SM SKC M35/M38 A3016 RMK SLP219', 'CYBK 061000Z 29016KT 15SM IC DRSN SKC M33/M37 A3013 RMK SLP210', 'CYBK 060900Z 30021KT 15SM IC DRSN SKC M33/M37 A3010 RMK SLP200', 'CYBK 060800Z 30022KT 12SM IC DRSN SKC M33/M37 A3009 RMK SLP194', 'CYBK 060705Z 30015KT 240V330 12SM IC DRSN SKC M34/M38 A3008 RMK SLP193', 'CYBK 060600Z 30015G23KT 15SM DRSN SKC M34/M38 A3006 RMK SLP186', 'CYBK 060500Z 30020KT 15SM DRSN SKC M33/M37 A3004 RMK SLP177', 'CYBK 060400Z 28008KT 15SM SKC M33/M37 A3004 RMK SLP177', 'CYBK 060300Z 31012KT 15SM -SN SKC M33/M37 A3002 RMK SLP172', 'CYBK 060200Z 32008G16KT 15SM -SN FEW035 M32/M36 A3001 RMK SC2 SLP168', 'CYBK 060100Z 28005KT 270V060 15SM -SN FEW035 M31/M35 A3000 RMK SC2 SLP165', 'CYBK 060000Z 08005KT 15SM -SN FEW037 M31/M35 A3000 RMK SC2 SLP163', 'CYBK 052300Z 29023KT 9SM -SN DRSN VCBLSN SCT022 BKN040 BKN110 BKN230 M30/M33 A2994 RMK SC3SC3AC1CI1 AC TR CI TR SLP144', 'CYBK 052200Z 29024KT 9SM -SN DRSN VCBLSN SCT019 BKN110 BKN230 M29/M33 A2994 RMK SC3AC3CI1 SLP144', 'CYBK 052150Z 29019KT 9SM -SN DRSN VCBLSN SCT019 BKN110 BKN230 M30/M33 A2994 RMK SC3AC3CI1 SLP144', 'CYBK 052100Z 28017KT 25SM FEW120 BKN230 M29/M33 A2994 RMK AC1CI5 SLP145', 'CYBK 052000Z 28016KT 25SM DRSN BKN230 M27/M32 A2994 RMK CI5 SLP144', 'CYBK 051900Z 25007KT 220V280 25SM DRSN FEW120 M28/M32 A2995 RMK AC1 AC TR SLP146', 'CYBK 051800Z 29016KT 25SM DRSN FEW120 M28/M32 A2996 RMK AC1 AC TR SLP149', 'CYBK 051700Z 30018KT 25SM DRSN FEW120 M27/M32 A2996 RMK AC1 SLP150']","['2024-02-08 15:00:00', '2024-02-08 14:00:00', '2024-02-08 13:42:00', '2024-02-08 12:00:00', '2024-02-08 11:00:00', '2024-02-08 10:00:00', '2024-02-08 09:00:00', '2024-02-08 08:00:00', '2024-02-08 07:00:00', '2024-02-08 06:00:00', '2024-02-08 05:00:00', '2024-02-08 04:00:00', '2024-02-08 03:00:00', '2024-02-08 02:00:00', '2024-02-08 01:00:00', '2024-02-08 00:00:00', '2024-02-07 23:00:00', '2024-02-07 22:00:00', '2024-02-07 21:00:00', '2024-02-07 20:00:00', '2024-02-07 19:00:00', '2024-02-07 18:00:00', '2024-02-07 17:00:00', '2024-02-07 16:00:00', '2024-02-07 15:00:00', '2024-02-07 14:00:00', '2024-02-07 13:00:00', '2024-02-07 12:00:00', '2024-02-07 11:00:00', '2024-02-07 10:00:00', '2024-02-07 09:00:00', '2024-02-07 08:00:00', '2024-02-07 07:00:00', '2024-02-07 06:18:00', '2024-02-07 05:00:00', '2024-02-07 04:00:00', '2024-02-07 03:00:00', '2024-02-07 02:00:00', '2024-02-07 01:00:00', '2024-02-07 00:35:00', '2024-02-07 00:00:00', '2024-02-06 23:00:00', '2024-02-06 22:00:00', '2024-02-06 21:00:00', '2024-02-06 20:00:00', '2024-02-06 19:00:00', '2024-02-06 18:00:00', '2024-02-06 17:00:00', '2024-02-06 16:00:00', '2024-02-06 15:00:00', '2024-02-06 14:00:00', '2024-02-06 13:00:00', '2024-02-06 12:00:00', '2024-02-06 11:00:00', '2024-02-06 10:00:00', '2024-02-06 09:00:00', '2024-02-06 08:00:00', '2024-02-06 07:05:00', '2024-02-06 06:00:00', '2024-02-06 05:00:00', '2024-02-06 04:00:00', '2024-02-06 03:00:00', '2024-02-06 02:00:00', '2024-02-06 01:00:00', '2024-02-06 00:00:00', '2024-02-05 23:00:00', '2024-02-05 22:00:00', '2024-02-05 21:50:00', '2024-02-05 21:00:00', '2024-02-05 20:00:00', '2024-02-05 19:00:00', '2024-02-05 18:00:00', '2024-02-05 17:00:00']"
Canada, Bathurst Airport (ZBF/CZBF) ,"['CZBF 081500Z AUTO 00000KT 9SM CLR M07/M10 A3035 RMK SLP286', 'CZBF 081400Z AUTO 00000KT 9SM CLR M11/M13 A3036 RMK SLP287', 'CZBF 081300Z AUTO 22002KT 9SM CLR M16/M18 A3036 RMK SLP288', 'CZBF 081200Z AUTO 25003KT 9SM CLR M21/M23 A3035 RMK SLP285', 'CZBF 081100Z AUTO 23002KT 9SM CLR M20/M22 A3034 RMK SLP281', 'CZBF 081000Z AUTO 22002KT 9SM CLR M19/M21 A3033 RMK SLP279', 'CZBF 080900Z AUTO 24005KT 9SM SCT002 M17/M19 A3032 RMK SLP275', 'CZBF 080844Z AUTO 24004KT 9SM BKN002 M18/M20 A3032 RMK SLP277', 'CZBF 080820Z AUTO 25003KT 9SM BKN004 M18/M20 A3032 RMK SLP277', 'CZBF 080700Z AUTO 25003KT 9SM CLR M18/M20 A3032 RMK SLP274', 'CZBF 080600Z AUTO 00000KT 9SM CLR M17/M19 A3031 RMK SLP271', 'CZBF 080500Z AUTO 22002KT 9SM CLR M16/M17 A3031 RMK SLP271', 'CZBF 080400Z AUTO 24004KT 9SM CLR M14/M16 A3031 RMK SLP272', 'CZBF 080300Z AUTO 24003KT 9SM CLR M15/M17 A3031 RMK SLP271', 'CZBF 080200Z AUTO 00000KT 9SM CLR M13/M14 A3031 RMK SLP271', 'CZBF 080100Z AUTO 26002KT 9SM CLR M12/M14 A3031 RMK SLP271', 'CZBF 080000Z AUTO 00000KT 9SM CLR M10/M11 A3031 RMK SLP273', 'CZBF 072300Z AUTO 00000KT 9SM CLR M08/M10 A3030 RMK SLP268', 'CZBF 072200Z AUTO 00000KT 9SM CLR M06/M10 A3030 RMK SLP266', 'CZBF 072100Z AUTO 07002KT 9SM CLR M02/M09 A3029 RMK SLP265', 'CZBF 072000Z AUTO 08004KT 9SM CLR M02/M10 A3029 RMK SLP263', 'CZBF 071900Z AUTO 09004KT 9SM CLR M02/M08 A3029 RMK SLP263', 'CZBF 071800Z AUTO 08003KT 9SM CLR M02/M08 A3030 RMK SLP268', 'CZBF 071700Z AUTO 00000KT 9SM CLR M01/M07 A3033 RMK SLP276', 'CZBF 071600Z AUTO 00000KT 9SM CLR M04/M07 A3034 RMK SLP282', 'CZBF 071521Z AUTO 00000KT 9SM SCT003 M06/M06 A3036 RMK SLP288', 'CZBF 071451Z AUTO 16003KT 150V230 2 1/4SM BR OVC003 M07/M07 A3036 RMK VIS VRB 3/4-3 SLP287', 'CZBF 071423Z AUTO 23003KT 9SM OVC005 M08/M08 A3036 RMK SLP287', 'CZBF 071352Z AUTO 24006KT 9SM BKN007 M09/M10 A3036 RMK SLP288', 'CZBF 071317Z AUTO 23003KT 9SM FEW009 M14/M15 A3036 RMK SLP288', 'CZBF 071244Z AUTO 22002KT 9SM BKN009 M15/M17 A3035 RMK SLP284', 'CZBF 071200Z AUTO 22003KT 9SM CLR M15/M17 A3034 RMK SLP281', 'CZBF 071131Z AUTO 23003KT 9SM SCT014 M15/M17 A3033 RMK SLP279', 'CZBF 071000Z AUTO 23003KT 9SM BKN014 M15/M17 A3032 RMK SLP274', 'CZBF 070952Z AUTO 23002KT 9SM BKN014 M16/M18 A3032 RMK SLP277', 'CZBF 070900Z AUTO 22002KT 9SM CLR M16/M18 A3031 RMK SLP272', 'CZBF 070800Z AUTO 22002KT 9SM CLR M15/M16 A3031 RMK SLP271', 'CZBF 070700Z AUTO 21002KT 9SM CLR M13/M15 A3032 RMK SLP274', 'CZBF 070600Z AUTO 23003KT 9SM CLR M14/M15 A3031 RMK SLP270', 'CZBF 070500Z AUTO 23004KT 9SM CLR M14/M15 A3030 RMK SLP269', 'CZBF 070400Z AUTO 24004KT 9SM CLR M12/M14 A3031 RMK SLP271', 'CZBF 070300Z AUTO 22002KT 9SM CLR M12/M14 A3030 RMK SLP268', 'CZBF 070200Z AUTO 00000KT 9SM CLR M10/M11 A3030 RMK SLP267', 'CZBF 070100Z AUTO 00000KT 9SM CLR M09/M10 A3029 RMK SLP264', 'CZBF 070000Z AUTO 00000KT 9SM CLR M07/M09 A3028 RMK SLP259', 'CZBF 062300Z AUTO 33002KT 9SM CLR M06/M07 A3026 RMK SLP254', 'CZBF 062200Z AUTO 04004KT 020V090 9SM CLR M03/M07 A3025 RMK SLP249', 'CZBF 062100Z AUTO 09004KT 9SM CLR M01/M07 A3024 RMK SLP245', 'CZBF 062000Z AUTO 02006KT 330V050 9SM CLR 01/M07 A3022 RMK SLP240', 'CZBF 061900Z AUTO 33005KT 300V060 9SM CLR 01/M07 A3022 RMK SLP238', 'CZBF 061800Z AUTO 04003KT 330V080 9SM CLR 00/M07 A3021 RMK SLP237', 'CZBF 061700Z AUTO 02004KT 330V090 9SM BKN031 M01/M07 A3023 RMK SLP243', 'CZBF 061600Z AUTO 03008KT 010V070 9SM BKN025 M02/M07 A3024 RMK SLP246', 'CZBF 061521Z AUTO 03009KT 320V060 9SM OVC023 M02/M07 A3024 RMK SLP245', 'CZBF 061400Z AUTO 36008KT 310V030 9SM OVC025 M03/M07 A3022 RMK SLP241', 'CZBF 061300Z AUTO 34006KT 320V030 9SM BKN055 M03/M07 A3020 RMK SLP234', 'CZBF 061200Z AUTO 35005KT 310V040 9SM SCT027 OVC050 M03/M07 A3019 RMK SLP230', 'CZBF 061100Z AUTO 36003KT 310V030 9SM FEW028 OVC050 M03/M06 A3017 RMK SLP223', 'CZBF 061000Z AUTO 36006G15KT 230V040 9SM FEW027 OVC044 M03/M06 A3015 RMK SLP217', 'CZBF 060900Z AUTO 36006KT 320V030 9SM OVC025 M03/M06 A3013 RMK SLP210', 'CZBF 060800Z AUTO 01006G15KT 310V040 9SM OVC025 M03/M06 A3012 RMK SLP205', 'CZBF 060700Z AUTO 36009G17KT 320V030 9SM OVC025 M03/M06 A3011 RMK SLP201', 'CZBF 060600Z AUTO 36006KT 320V050 9SM OVC027 M03/M06 A3009 RMK SLP196', 'CZBF 060500Z AUTO 01006KT 330V040 9SM OVC027 M02/M06 A3009 RMK SLP194', 'CZBF 060400Z AUTO 01008G15KT 340V050 9SM OVC029 M02/M06 A3008 RMK SLP191', 'CZBF 060323Z AUTO 01007KT 9SM OVC029 M02/M06 A3007 RMK SLP189', 'CZBF 060258Z AUTO 36006KT 320V040 5SM -SN OVC031 M02/M06 A3007 RMK SLP188', 'CZBF 060200Z AUTO 36006KT 330V040 9SM OVC033 M02/M06 A3006 RMK SLP185', 'CZBF 060100Z AUTO 36006G16KT 330V040 9SM OVC035 M02/M06 A3005 RMK SLP182', 'CZBF 060055Z AUTO 36006G16KT 330V040 9SM OVC035 M02/M06 A3005 RMK SLP180', 'CZBF 060028Z AUTO 34008G18KT 320V020 3SM -SN OVC031 M03/M05 A3004 RMK SLP179', 'CZBF 052356Z AUTO 01006KT 330V050 5SM -SN OVC029 M03/M06 A3004 RMK SLP177', 'CZBF 052315Z AUTO 01006G16KT 320V030 6SM -SN OVC029 M03/M06 A3003 RMK SLP173', 'CZBF 052223Z AUTO 35008KT 320V020 6SM -SN OVC035 M03/M05 A3001 RMK SLP167', 'CZBF 052144Z AUTO 35008G17KT 320V020 1 3/4SM -SN OVC033 M03/M05 A2999 RMK VIS VRB 3/4-3 PCPN 0.5MM PAST HR SLP162', 'CZBF 052124Z AUTO 36005G15KT 320V020 1 3/4SM -SN OVC033 M03/M04 A2998 RMK VIS VRB 1-3 SLP159', 'CZBF 052058Z AUTO 36007G17KT 330V030 3SM -SN BKN026 OVC033 M03/M04 A2997 RMK PCPN 0.8MM PAST HR SLP155', 'CZBF 052030Z AUTO 36007KT 330V030 1SM -SN VV017 M03/M04 A2996 RMK PCPN 0.5MM PAST HR SLP151', 'CZBF 051951Z AUTO 36007KT 330V030 1SM -SN BKN023 OVC032 M02/M04 A2995 RMK SLP146', 'CZBF 051916Z AUTO 01007G16KT 330V050 2 1/2SM -SN FEW024 OVC031 M02/M05 A2993 RMK SLP140', 'CZBF 051827Z AUTO 01008G18KT 340V060 9SM -SN SCT022 OVC027 M02/M05 A2991 RMK ICE PAST HR SLP135', 'CZBF 051733Z AUTO 36009G17KT 320V020 3SM -SN OVC023 M03/M04 A2990 RMK ICE SLP132', 'CZBF 051728Z AUTO 36009G17KT 310V030 2 1/2SM -SN OVC023 M03/M04 A2990 RMK ICE SLP132', 'CZBF 051659Z AUTO 34007G17KT 320V030 6SM -SN OVC025 M03/M04 A2990 RMK ICE INTMT SLP131', 'CZBF 051625Z AUTO 36008G17KT 320V030 3SM -SN FEW012 OVC027 M03/M05 A2990 RMK SLP131']","['2024-02-08 15:00:00', '2024-02-08 14:00:00', '2024-02-08 13:00:00', '2024-02-08 12:00:00', '2024-02-08 11:00:00', '2024-02-08 10:00:00', '2024-02-08 09:00:00', '2024-02-08 08:44:00', '2024-02-08 08:20:00', '2024-02-08 07:00:00', '2024-02-08 06:00:00', '2024-02-08 05:00:00', '2024-02-08 04:00:00', '2024-02-08 03:00:00', '2024-02-08 02:00:00', '2024-02-08 01:00:00', '2024-02-08 00:00:00', '2024-02-07 23:00:00', '2024-02-07 22:00:00', '2024-02-07 21:00:00', '2024-02-07 20:00:00', '2024-02-07 19:00:00', '2024-02-07 18:00:00', '2024-02-07 17:00:00', '2024-02-07 16:00:00', '2024-02-07 15:21:00', '2024-02-07 14:51:00', '2024-02-07 14:23:00', '2024-02-07 13:52:00', '2024-02-07 13:17:00', '2024-02-07 12:44:00', '2024-02-07 12:00:00', '2024-02-07 11:31:00', '2024-02-07 10:00:00', '2024-02-07 09:52:00', '2024-02-07 09:00:00', '2024-02-07 08:00:00', '2024-02-07 07:00:00', '2024-02-07 06:00:00', '2024-02-07 05:00:00', '2024-02-07 04:00:00', '2024-02-07 03:00:00', '2024-02-07 02:00:00', '2024-02-07 01:00:00', '2024-02-07 00:00:00', '2024-02-06 23:00:00', '2024-02-06 22:00:00', '2024-02-06 21:00:00', '2024-02-06 20:00:00', '2024-02-06 19:00:00', '2024-02-06 18:00:00', '2024-02-06 17:00:00', '2024-02-06 16:00:00', '2024-02-06 15:21:00', '2024-02-06 14:00:00', '2024-02-06 13:00:00', '2024-02-06 12:00:00', '2024-02-06 11:00:00', '2024-02-06 10:00:00', '2024-02-06 09:00:00', '2024-02-06 08:00:00', '2024-02-06 07:00:00', '2024-02-06 06:00:00', '2024-02-06 05:00:00', '2024-02-06 04:00:00', '2024-02-06 03:23:00', '2024-02-06 02:58:00', '2024-02-06 02:00:00', '2024-02-06 01:00:00', '2024-02-06 00:55:00', '2024-02-06 00:28:00', '2024-02-05 23:56:00', '2024-02-05 23:15:00', '2024-02-05 22:23:00', '2024-02-05 21:44:00', '2024-02-05 21:24:00', '2024-02-05 20:58:00', '2024-02-05 20:30:00', '2024-02-05 19:51:00', '2024-02-05 19:16:00', '2024-02-05 18:27:00', '2024-02-05 17:33:00', '2024-02-05 17:28:00', '2024-02-05 16:59:00', '2024-02-05 16:25:00']"
Canada, Bella Coola Airport (QBC/CYBD) ,"['CYBD 081500Z 00000KT 8SM BKN009 OVC012 M00/M01 A3002 RMK SC5SC3 SLP168', 'CYBD 080100Z VRB02KT 15SM FEW045 FEW057 FEW066 M00/M01 A2987 RMK CU1CU1AC1 AC TR LAST STFD OBS/NXT 081500Z/ SLP120', 'CYBD 080000Z 28010KT 220V300 15SM FEW049 SCT053 SCT066 03/M00 A2986 RMK SC1CU3AC1 SC TR SLP116', 'CYBD 072300Z 24004KT 190V260 15SM SCT050 SCT068 02/M01 A2986 RMK CU4AC1 AC TR TCU EMBD E SLP115', 'CYBD 072200Z 25005KT 220V280 10SM FEW030 SCT051 SCT060 04/M00 A2986 RMK CU1CU4CU1 CU TR CU TR VIS HYR W TCU EMBD E SLP114', 'CYBD 072100Z 25005KT 12SM FEW029 SCT053 SCT090 03/M01 A2986 RMK SC1SC4AC1 SC TR AC TR CVCTV CLD EMBD SLP114', 'CYBD 072000Z VRB02KT 8SM FEW033 SCT045 SCT120 01/M01 A2986 RMK SC1SC2AC1 VIS HYR E SLP117', 'CYBD 071900Z VRB02KT 15SM FEW016 FEW030 FEW054 FEW140 SCT190 01/M01 A2987 RMK CF1SC1SC1AC1AC3 CF TR SC TR SC TR AC TR VIS LWR E SLP118', 'CYBD 071840Z 00000KT 15SM FEW016 FEW029 FEW054 SCT190 00/M01 A2986 RMK CF1SC1SC1AC3 CF TR SC TR SC TR VIS LWR E SLP117', 'CYBD 071800Z VRB02KT 7SM -SN FEW020 SCT051 BKN073 M00/M01 A2987 RMK SC1SC3AC3 SC TR VIS HYR W SLP118', 'CYBD 071700Z 00000KT 7SM -SN BKN050 BKN070 M01/M02 A2986 RMK SN5SC1AC2 SC TR VIS HYR E SLP117', 'CYBD 071600Z 00000KT 8SM -SN SCT020 BKN064 BKN170 M02/M03 A2985 RMK SN3SC1SC3AC1 SC TR VIS HYR E SLP112', 'CYBD 071500Z 00000KT 7SM -SN SCT035 SCT068 SCT210 M03/M03 A2984 RMK SC3AC1CC1 CC TR SLP110', 'CYBD 070100Z 00000KT 15SM FEW096 OVC110 02/M04 A2971 RMK AC1AS8 AC TR LAST STFD OBS/NXT 071500Z/ SLP066', 'CYBD 070000Z 25002KT 15SM OVC095 03/M05 A2971 RMK AS8 SLP064', 'CYBD 062300Z 26004KT 15SM FEW096 BKN200 03/M05 A2971 RMK AC1CS7 AC TR SLP066', 'CYBD 062200Z 00000KT 15SM FEW120 BKN130 03/M05 A2972 RMK AC1AS7 AC TR SLP069', 'CYBD 062100Z 07003KT 020V120 15SM BKN130 BKN140 03/M05 A2975 RMK AC5AC1 SLP077', 'CYBD 062000Z 21002KT 15SM FEW130 BKN140 BKN150 01/M03 A2977 RMK AC1AC5AC1 AC TR SLP086', 'CYBD 061900Z 14003KT 090V200 15SM SCT150 SCT200 M01/M03 A2980 RMK AC3CC1 SLP095', 'CYBD 061800Z 00000KT 15SM FEW200 FEW230 M04/M04 A2981 RMK CC1CC1 FROIN SLP100', 'CYBD 061700Z 00000KT 15SM FEW200 M05/M06 A2983 RMK CC1 CC TR FROIN SLP106', 'CYBD 061600Z 00000KT 15SM FEW200 M05/M06 A2984 RMK CC1 CC TR FROIN SLP110', 'CYBD 061500Z VRB02KT 15SM SKC M05/M05 A2984 RMK SLP109', 'CYBD 060100Z 04003KT 020V110 15SM FEW090 FEW260 05/M06 A2976 RMK AC2CC1 CC TR LAST STFD OBS/NXT 061500Z/ SLP081', 'CYBD 060000Z 12004KT 030V160 15SM FEW090 SCT200 07/M07 A2975 RMK AC2CI1 SLP076', 'CYBD 052300Z 13005KT 070V160 15SM FEW090 FEW200 08/M07 A2974 RMK AC1CC1 CC TR SLP073', 'CYBD 052200Z 13006KT 060V160 15SM FEW090 FEW200 08/M07 A2973 RMK AC1CI1 AC TR CI TR SLP072', 'CYBD 052100Z 11004G17KT 050V160 15SM FEW090 FEW200 08/M07 A2974 RMK AC1CS2 AC TR SLP073', 'CYBD 052000Z VRB07KT 15SM FEW078 FEW170 FEW210 06/M07 A2975 RMK AC1AC1CI2 AC TR AC TR SLP078', 'CYBD 051900Z 07008G18KT 030V160 15SM FEW090 SCT170 SCT200 06/M08 A2976 RMK AC1AC3CC1 AC TR CC TR SLP081', 'CYBD 051800Z 07007KT 030V110 15SM FEW130 SCT170 05/M09 A2977 RMK AC1AC3 AC TR SLP083', 'CYBD 051700Z 07012KT 15SM FEW090 BKN150 04/M09 A2977 RMK AC1AC6 AC TR ACSL E SLP083']","['2024-02-08 15:00:00', '2024-02-08 01:00:00', '2024-02-08 00:00:00', '2024-02-07 23:00:00', '2024-02-07 22:00:00', '2024-02-07 21:00:00', '2024-02-07 20:00:00', '2024-02-07 19:00:00', '2024-02-07 18:40:00', '2024-02-07 18:00:00', '2024-02-07 17:00:00', '2024-02-07 16:00:00', '2024-02-07 15:00:00', '2024-02-07 01:00:00', '2024-02-07 00:00:00', '2024-02-06 23:00:00', '2024-02-06 22:00:00', '2024-02-06 21:00:00', '2024-02-06 20:00:00', '2024-02-06 19:00:00', '2024-02-06 18:00:00', '2024-02-06 17:00:00', '2024-02-06 16:00:00', '2024-02-06 15:00:00', '2024-02-06 01:00:00', '2024-02-06 00:00:00', '2024-02-05 23:00:00', '2024-02-05 22:00:00', '2024-02-05 21:00:00', '2024-02-05 20:00:00', '2024-02-05 19:00:00', '2024-02-05 18:00:00', '2024-02-05 17:00:00']"
Canada, Berens River Airport (YBV/CYBV) ,"['CYBV 081500Z 05009G19KT 10SM FEW010 BKN066 BKN250 M05/M07 A2951 RMK ST1AS7CI1 ST TR CI TR AC ASOCTD SLP008', 'CYBV 081434Z 05011G17KT 020V090 10SM FEW010 BKN066 BKN250 M05/M07 A2952 RMK SF1AS7CI1 SF TR CI TR SLP011', 'CYBV 081400Z 05010G17KT 3SM -SN OVC066 M05/M06 A2952 RMK AS8 SLP012', 'CYBV 081323Z 05010G18KT 2 1/2SM -SN OVC066 M05/M06 A2953 RMK AS8 SLP014', 'CYBV 072200Z 06007KT 15SM BKN024 BKN150 01/M02 A2985 RMK SC7AC1 AC TR SNW CVR/MEDIUM PACK LAST STFD OBS/NEXT 081300UTC SLP123', 'CYBV 072100Z 09009KT 15SM FEW010 FEW028 FEW150 BKN250 01/M02 A2987 RMK SF1SC1AC1CS5 SF TR SLP132', 'CYBV 072000Z 05007KT 15SM FEW008 OVC028 01/M01 A2990 RMK SF1SC8 SF TR PRESFR SLP142', 'CYBV 071900Z 08006KT 15SM FEW008 OVC028 00/M01 A2995 RMK SF1SC8 SF TR SLP160', 'CYBV 071800Z 10009KT 15SM FEW008 OVC033 M01/M02 A2998 RMK ST2SC6 SLP167', 'CYBV 071700Z 09006KT 15SM FEW014 OVC033 M01/M02 A2999 RMK SF1SC8 SF TR SLP172', 'CYBV 071600Z 08005KT 15SM FEW010 OVC033 M02/M03 A3001 RMK SF1SC8 SF TR SLP180', 'CYBV 071527Z 08006KT 15SM FEW008 OVC032 M03/M04 A3001 RMK ST1SC8 ST TR SLP181', 'CYBV 071400Z 08004KT 10SM OVC008 M03/M04 A3002 RMK ST8 SLP183', 'CYBV 071300Z 08004KT 10SM BKN006 M04/M04 A3003 RMK ST8 SNW CVR/MEDIUM PACK SLP187', 'CYBV 062200Z 05005KT 6SM -SG OVC008 M02/M03 A3002 RMK ST8 SNW CVR/MEDIUM PACK LAST STFD OBS/NEXT 071300UTC SLP181', 'CYBV 062100Z 04006KT 6SM -SG OVC006 M02/M02 A3001 RMK ST8 SLP176', 'CYBV 062037Z 04005KT 8SM -SG OVC005 M01/M01 A3000 RMK ST8 SLP175', 'CYBV 062000Z 03006KT 340V060 8SM -DZSN OVC004 M00/M00 A3000 RMK ST8 SLP174', 'CYBV 061948Z 03007KT 350V050 8SM -DZSN OVC004 M00/M00 A2999 RMK ST8 SLP172', 'CYBV 061900Z 05004KT 360V070 6SM -DZ OVC004 01/01 A2999 RMK ST8 SLP169', 'CYBV 061826Z 02003KT 350V050 6SM -DZ OVC004 01/01 A2998 RMK ST8 SLP168', 'CYBV 061727Z VRB02KT 8SM OVC004 01/01 A2998 RMK ST8 SLP168', 'CYBV 061639Z VRB02KT 8SM -DZ OVC004 01/01 A2997 RMK ST8 SLP163', 'CYBV 061627Z VRB02KT 3SM -DZSN BR OVC003 01/01 A2997 RMK ST8 SLP162', 'CYBV 061525Z 31002KT 3/4SM -DZSG BR OVC003 00/00 A2995 RMK ST8 SLP158', 'CYBV 061400Z 33003KT 1/4SM FG VV002 00/00 A2993 RMK FG8 SLP151', 'CYBV 061300Z 30002KT 1/8SM FG VV001 00/00 A2992 RMK FG8 SNW CVR/MEDIUM PACK SLP145', 'CYBV 052200Z 18006KT 140V220 2SM BR OVC003 00/00 A2989 RMK ST8 SNW CVR/MEDIUM PACK LAST STFD OBS/NEXT 061300UTC SLP136', 'CYBV 052100Z 19009G15KT 8SM OVC005 00/M00 A2990 RMK ST8 SLP140', 'CYBV 052000Z 19007G19KT 8SM OVC005 00/00 A2990 RMK ST8 SLP140', 'CYBV 051924Z 18009G16KT 150V210 8SM OVC004 00/00 A2991 RMK ST8 SLP142', 'CYBV 051800Z 19012G21KT 160V230 3SM BR OVC003 01/01 A2995 RMK ST8 SLP155', 'CYBV 051731Z 18008G15KT 140V220 6SM BR OVC004 01/01 A2995 RMK ST8 SLP155', 'CYBV 051700Z 16006KT 3/4SM BR OVC002 01/01 A2995 RMK ST8 SLP157']","['2024-02-08 15:00:00', '2024-02-08 14:34:00', '2024-02-08 14:00:00', '2024-02-08 13:23:00', '2024-02-07 22:00:00', '2024-02-07 21:00:00', '2024-02-07 20:00:00', '2024-02-07 19:00:00', '2024-02-07 18:00:00', '2024-02-07 17:00:00', '2024-02-07 16:00:00', '2024-02-07 15:27:00', '2024-02-07 14:00:00', '2024-02-07 13:00:00', '2024-02-06 22:00:00', '2024-02-06 21:00:00', '2024-02-06 20:37:00', '2024-02-06 20:00:00', '2024-02-06 19:48:00', '2024-02-06 19:00:00', '2024-02-06 18:26:00', '2024-02-06 17:27:00', '2024-02-06 16:39:00', '2024-02-06 16:27:00', '2024-02-06 15:25:00', '2024-02-06 14:00:00', '2024-02-06 13:00:00', '2024-02-05 22:00:00', '2024-02-05 21:00:00', '2024-02-05 20:00:00', '2024-02-05 19:24:00', '2024-02-05 18:00:00', '2024-02-05 17:31:00', '2024-02-05 17:00:00']"
Canada, Big Trout Lake Airport (YTL/CYTL) ,"['CYTL 081556Z AUTO 10007KT 070V130 5SM -SN OVC010 M09/M10 A2968 RMK SLP070', 'CYTL 081517Z AUTO 10006KT 070V140 7SM -SN OVC012 M09/M10 A2970 RMK SLP079', 'CYTL 081448Z AUTO 10006KT 3/8SM SN BKN011 OVC017 M10/M10 A2970 RMK PCPN 1.2MM PAST HR SLP079', 'CYTL 081429Z AUTO 09008KT 050V120 1 1/4SM -SN OVC011 M10/M10 A2971 RMK PCPN 1.0MM PAST HR SLP082', 'CYTL 081349Z AUTO 09008KT 1SM -SN OVC013 M10/M11 A2972 RMK PCPN 1.8MM PAST HR SLP087', 'CYTL 081327Z AUTO 09009G15KT 060V130 3/4SM -SN OVC013 M10/M11 A2974 RMK PCPN 0.8MM PAST HR SLP093', 'CYTL 081236Z AUTO 09008G17KT 050V120 1SM -SN BKN012 OVC017 M10/M10 A2977 RMK PCPN 1.0MM PAST HR SLP102', 'CYTL 081210Z AUTO 09009KT 070V140 3/4SM -SN BKN014 OVC022 M09/M10 A2979 RMK SLP110', 'CYTL 081138Z AUTO 10007KT 070V140 1SM -SN VV015 M09/M10 A2981 RMK PCPN 0.5MM PAST HR SLP115', 'CYTL 081121Z AUTO 09007KT 070V140 3/4SM -SN VV014 M09/M10 A2982 RMK PRESFR PCPN 0.5MM PAST HR SLP119', 'CYTL 081036Z AUTO 10006KT 1 1/4SM -SN SCT009 OVC014 M09/M09 A2984 RMK SLP128', 'CYTL 081026Z AUTO 10007KT 070V140 2SM -SN BKN009 OVC012 M09/M09 A2985 RMK SLP129', 'CYTL 080923Z AUTO 10007KT 070V130 9SM BKN009 OVC018 M09/M09 A2987 RMK SLP138', 'CYTL 080855Z AUTO 11006KT 060V130 9SM SCT009 OVC022 M09/M10 A2989 RMK SLP142', 'CYTL 080800Z AUTO 10006KT 9SM OVC009 M09/M10 A2992 RMK SLP155', 'CYTL 080700Z AUTO 11005KT 070V160 9SM BKN009 OVC030 M09/M10 A2996 RMK SLP170', 'CYTL 080637Z AUTO 11005KT 070V160 9SM BKN009 OVC028 M09/M11 A2997 RMK SLP172', 'CYTL 080619Z AUTO 11005KT 060V170 9SM FEW009 OVC028 M09/M11 A2998 RMK SLP176', 'CYTL 080500Z AUTO 11005KT 050V150 9SM FEW014 OVC028 A3001 RMK T MISG DP MISG DENSITY ALT MISG', 'CYTL 080400Z AUTO 11006KT 070V150 9SM OVC030 M10/M11 A3003 RMK SLP193', 'CYTL 080300Z AUTO 12005KT 070V160 9SM OVC034 M10/M11 A3005 RMK SLP201', 'CYTL 080200Z AUTO 12004KT 080V170 9SM OVC036 M10/M12 A3007 RMK SLP208', 'CYTL 080100Z AUTO 12004KT 060V160 9SM OVC038 M10/M12 A3009 RMK SLP213', 'CYTL 080000Z AUTO 12004KT 080V170 9SM OVC040 M10/M12 A3011 RMK SLP220', 'CYTL 072300Z AUTO 11004KT 050V150 9SM OVC040 M10/M12 A3012 RMK SLP225', 'CYTL 072200Z AUTO 12005KT 030V170 9SM OVC044 M10/M12 A3012 RMK SLP224', 'CYTL 072122Z AUTO 10006KT 060V150 9SM SCT010 OVC044 M10/M13 A3012 RMK PRESFR SLP225', 'CYTL 072046Z AUTO 11003KT 070V150 9SM BKN010 OVC044 M11/M13 A3015 RMK SLP232', 'CYTL 072000Z AUTO 10003KT 060V160 9SM SCT010 OVC037 M11/M14 A3016 RMK SLP238', 'CYTL 071950Z AUTO 10003KT 050V140 9SM SCT010 OVC037 M11/M14 A3016 RMK SLP238', 'CYTL 071928Z AUTO 11004KT 010V150 9SM BKN010 OVC041 M12/M14 A3017 RMK SLP240', 'CYTL 071848Z AUTO 12005KT 060V170 9SM SCT012 OVC043 M12/M14 A3018 RMK SLP244', 'CYTL 071800Z AUTO 13003KT 090V180 9SM -SN BKN012 OVC041 M13/M15 A3019 RMK SLP250', 'CYTL 071742Z AUTO 13004KT 070V180 9SM -SN BKN012 OVC043 M13/M16 A3021 RMK SLP254', 'CYTL 071712Z AUTO 13005KT 080V180 9SM -SN SCT010 OVC045 M13/M16 A3021 RMK SLP257', 'CYTL 071620Z AUTO 13006KT 080V150 9SM SCT012 OVC045 M14/M17 A3022 RMK SLP260', 'CYTL 071521Z AUTO 12003KT 050V150 9SM OVC012 M15/M17 A3024 RMK SLP268', 'CYTL 071400Z AUTO 10004KT 070V150 9SM OVC012 M16/M18 A3025 RMK SLP270', 'CYTL 071300Z AUTO 10004KT 050V180 9SM OVC012 M16/M18 A3025 RMK SLP271', 'CYTL 071200Z AUTO 10004KT 060V130 9SM OVC014 M16/M18 A3026 RMK SLP272', 'CYTL 071100Z AUTO 08007KT 050V120 9SM OVC014 M16/M18 A3025 RMK SLP270', 'CYTL 071000Z AUTO 07005KT 040V110 9SM OVC014 M15/M18 A3025 RMK SLP270', 'CYTL 070914Z AUTO 08005KT 040V110 9SM FEW014 OVC020 M15/M18 A3025 RMK SLP271', 'CYTL 070827Z AUTO 08004KT 050V120 9SM -SN BKN014 OVC060 M15/M18 A3025 RMK SLP271', 'CYTL 070700Z AUTO 09006KT 040V120 9SM -SN OVC060 M15/M17 A3024 RMK SLP265', 'CYTL 070607Z AUTO 07006KT 020V110 6SM -SN OVC060 M14/M16 A3024 RMK SLP265', 'CYTL 070543Z AUTO 06006KT 020V120 5SM -SN BKN060 OVC096 M14/M16 A3024 RMK SLP265', 'CYTL 070500Z AUTO 06004KT 030V100 9SM -SN OVC060 M14/M16 A3023 RMK SLP260', 'CYTL 070457Z AUTO 07003KT 030V110 6SM -SN OVC060 M14/M16 A3023 RMK SLP263', 'CYTL 070400Z AUTO 07006KT 030V110 9SM -SN BKN046 OVC060 M13/M15 A3022 RMK SLP254', 'CYTL 070300Z AUTO 07007KT 9SM -SN OVC048 M13/M15 A3021 RMK SLP250', 'CYTL 070235Z AUTO 07006KT 030V110 7SM -SN FEW028 BKN048 OVC076 M13/M15 A3020 RMK SLP253', 'CYTL 070200Z AUTO 07007KT 020V100 4SM -SN SCT012 OVC028 M12/M14 A3020 RMK SLP246', 'CYTL 070151Z AUTO 06005KT 020V090 5SM -SN FEW012 OVC028 M12/M14 A3020 RMK SLP251', 'CYTL 070124Z AUTO 06005KT 020V110 6SM -SN BKN028 OVC037 M12/M14 A3019 RMK SLP249', 'CYTL 070040Z AUTO 06008G16KT 030V090 8SM -SN SCT011 SCT024 BKN037 OVC048 M12/M13 A3018 RMK SLP243', 'CYTL 070023Z AUTO 06007KT 010V090 6SM -SN SCT011 BKN024 OVC050 M12/M13 A3017 RMK SLP242', 'CYTL 062344Z AUTO 06006G17KT 030V090 6SM -SN SCT026 BKN031 OVC055 M11/M13 A3016 RMK SLP238', 'CYTL 062327Z AUTO 06004KT 030V100 5SM -SN BKN029 OVC055 M11/M13 A3016 RMK SLP237', 'CYTL 062254Z AUTO 05007G16KT 020V100 9SM -SN SCT012 OVC031 M11/M13 A3015 RMK SLP232', 'CYTL 062218Z AUTO 05006KT 020V090 9SM -SN BKN012 OVC031 M10/M12 A3014 RMK SLP229', 'CYTL 062155Z AUTO 06008KT 020V090 7SM -SN FEW012 OVC028 M10/M12 A3012 RMK SLP224', 'CYTL 062118Z AUTO 06008KT 020V080 2 1/4SM -SN SCT012 OVC028 M09/M11 A3011 RMK VIS VRB 1 3/4-3 SLP219', 'CYTL 062031Z AUTO 06007G16KT 010V080 1SM -SN VV017 M09/M11 A3009 RMK SLP210', 'CYTL 061922Z AUTO 04007G16KT 360V090 1 1/2SM -SN FEW010 BKN022 OVC033 M08/M10 A3006 RMK VIS VRB 1 1/4-3 SLP203', 'CYTL 061855Z AUTO 04007G16KT 020V080 1 1/4SM -SN FEW010 BKN024 OVC033 M08/M10 A3005 RMK SLP198', 'CYTL 061800Z AUTO 04008G15KT 010V090 1 1/2SM -SN OVC031 M07/M09 A3004 RMK VIS VRB 1 1/4-2 1/4 SLP192', 'CYTL 061716Z AUTO 04011G18KT 010V070 1 3/4SM -SN FEW009 SCT019 BKN024 OVC029 M06/M07 A3002 RMK SLP186', 'CYTL 061701Z AUTO 04007G16KT 010V080 1 3/4SM -SN FEW009 SCT018 BKN029 OVC037 M06/M06 A3001 RMK SLP181', 'CYTL 061627Z AUTO 04010G15KT 010V070 5SM -SN OVC013 M04/M05 A2999 RMK SLP176', 'CYTL 061559Z AUTO 03007G17KT 3SM -SN OVC011 M03/M03 A2998 RMK ICE PAST HR SLP170', 'CYTL 061525Z AUTO 04009G18KT 1 1/2SM -SN OVC007 M02/M02 A2996 RMK ICE PAST HR SLP163', 'CYTL 061457Z AUTO 05009G17KT 010V080 3SM -FZRA BR BKN004 OVC010 M01/ A2994 RMK ICE DP MISG SLP155', 'CYTL 061400Z AUTO 33004KT 1SM -RA BR OVC002 01/ A2993 RMK DP MISG SLP150', 'CYTL 061331Z AUTO 33003KT 1SM -RA BR OVC002 01/ A2991 RMK DP MISG SLP146', 'CYTL 061200Z AUTO 29005KT 1 1/4SM -RA BR BKN004 OVC008 01/01 A2990 RMK SLP141', 'CYTL 061121Z AUTO 28004KT 2SM -RA BR OVC006 01/01 A2989 RMK SLP138', 'CYTL 061013Z AUTO 29004KT 9SM OVC006 01/01 A2987 RMK SLP131', 'CYTL 060940Z AUTO 28004KT 9SM OVC008 01/01 A2987 RMK SLP130', 'CYTL 060900Z AUTO 28005KT 9SM OVC014 01/01 A2988 RMK SLP133', 'CYTL 060821Z AUTO 27005KT 7SM OVC010 01/01 A2988 RMK SLP134', 'CYTL 060700Z AUTO VRB02KT 9SM OVC016 01/01 A2987 RMK SLP130', 'CYTL 060651Z AUTO 21003KT 9SM OVC016 01/01 A2987 RMK SLP129', 'CYTL 060600Z AUTO 23005KT 9SM OVC016 01/01 A2987 RMK SLP132', 'CYTL 060515Z AUTO 25004KT 7SM OVC013 01/01 A2987 RMK SLP129', 'CYTL 060432Z AUTO 24006KT 3SM -RA BR OVC011 01/01 A2986 RMK SLP128', 'CYTL 060423Z AUTO 24006KT 5SM BR OVC011 01/01 A2986 RMK SLP128', 'CYTL 060343Z AUTO 24006KT 9SM OVC011 01/01 A2987 RMK SLP132', 'CYTL 060300Z AUTO 22008KT 9SM OVC009 01/01 A2988 RMK SLP135', 'CYTL 060230Z AUTO 21006KT 9SM OVC009 01/00 A2988 RMK SLP134', 'CYTL 060100Z AUTO 19006KT 9SM OVC022 00/00 A2991 RMK SLP145', 'CYTL 060000Z AUTO 21005KT 9SM BKN013 OVC021 00/00 A2993 RMK SLP151', 'CYTL 052329Z AUTO 21005KT 9SM OVC023 00/M00 A2993 RMK SLP153', 'CYTL 052221Z AUTO 17010KT 9SM BKN014 BKN071 00/00 A2994 RMK SLP153', 'CYTL 052131Z AUTO 18007KT 9SM FEW015 OVC026 00/00 A2996 RMK SLP161', 'CYTL 052000Z AUTO 19006KT 9SM FEW007 OVC022 00/00 A2999 RMK SLP173', 'CYTL 051955Z AUTO 19005KT 9SM SCT007 OVC022 00/00 A2999 RMK SLP172', 'CYTL 051900Z AUTO 18006KT 9SM OVC007 M00/M00 A3001 RMK SLP181', 'CYTL 051822Z AUTO 17006KT 9SM OVC007 M01/M01 A3004 RMK SLP189', 'CYTL 051758Z AUTO 17006KT 9SM -SN OVC007 M01/M01 A3005 RMK SLP192', 'CYTL 051729Z AUTO 16006KT 9SM -SN BKN005 OVC015 M02/M02 A3006 RMK SLP198', 'CYTL 051655Z AUTO 16005KT 6SM BR SCT005 OVC009 M02/M02 A3007 RMK SLP202', 'CYTL 051631Z AUTO 16004KT 9SM OVC009 M03/M03 A3009 RMK SLP207']","['2024-02-08 15:56:00', '2024-02-08 15:17:00', '2024-02-08 14:48:00', '2024-02-08 14:29:00', '2024-02-08 13:49:00', '2024-02-08 13:27:00', '2024-02-08 12:36:00', '2024-02-08 12:10:00', '2024-02-08 11:38:00', '2024-02-08 11:21:00', '2024-02-08 10:36:00', '2024-02-08 10:26:00', '2024-02-08 09:23:00', '2024-02-08 08:55:00', '2024-02-08 08:00:00', '2024-02-08 07:00:00', '2024-02-08 06:37:00', '2024-02-08 06:19:00', '2024-02-08 05:00:00', '2024-02-08 04:00:00', '2024-02-08 03:00:00', '2024-02-08 02:00:00', '2024-02-08 01:00:00', '2024-02-08 00:00:00', '2024-02-07 23:00:00', '2024-02-07 22:00:00', '2024-02-07 21:22:00', '2024-02-07 20:46:00', '2024-02-07 20:00:00', '2024-02-07 19:50:00', '2024-02-07 19:28:00', '2024-02-07 18:48:00', '2024-02-07 18:00:00', '2024-02-07 17:42:00', '2024-02-07 17:12:00', '2024-02-07 16:20:00', '2024-02-07 15:21:00', '2024-02-07 14:00:00', '2024-02-07 13:00:00', '2024-02-07 12:00:00', '2024-02-07 11:00:00', '2024-02-07 10:00:00', '2024-02-07 09:14:00', '2024-02-07 08:27:00', '2024-02-07 07:00:00', '2024-02-07 06:07:00', '2024-02-07 05:43:00', '2024-02-07 05:00:00', '2024-02-07 04:57:00', '2024-02-07 04:00:00', '2024-02-07 03:00:00', '2024-02-07 02:35:00', '2024-02-07 02:00:00', '2024-02-07 01:51:00', '2024-02-07 01:24:00', '2024-02-07 00:40:00', '2024-02-07 00:23:00', '2024-02-06 23:44:00', '2024-02-06 23:27:00', '2024-02-06 22:54:00', '2024-02-06 22:18:00', '2024-02-06 21:55:00', '2024-02-06 21:18:00', '2024-02-06 20:31:00', '2024-02-06 19:22:00', '2024-02-06 18:55:00', '2024-02-06 18:00:00', '2024-02-06 17:16:00', '2024-02-06 17:01:00', '2024-02-06 16:27:00', '2024-02-06 15:59:00', '2024-02-06 15:25:00', '2024-02-06 14:57:00', '2024-02-06 14:00:00', '2024-02-06 13:31:00', '2024-02-06 12:00:00', '2024-02-06 11:21:00', '2024-02-06 10:13:00', '2024-02-06 09:40:00', '2024-02-06 09:00:00', '2024-02-06 08:21:00', '2024-02-06 07:00:00', '2024-02-06 06:51:00', '2024-02-06 06:00:00', '2024-02-06 05:15:00', '2024-02-06 04:32:00', '2024-02-06 04:23:00', '2024-02-06 03:43:00', '2024-02-06 03:00:00', '2024-02-06 02:30:00', '2024-02-06 01:00:00', '2024-02-06 00:00:00', '2024-02-05 23:29:00', '2024-02-05 22:21:00', '2024-02-05 21:31:00', '2024-02-05 20:00:00', '2024-02-05 19:55:00', '2024-02-05 19:00:00', '2024-02-05 18:22:00', '2024-02-05 17:58:00', '2024-02-05 17:29:00', '2024-02-05 16:55:00', '2024-02-05 16:31:00']"
Canada, Lourdes-de-Blanc-Sablon Airport (YBX/CYBX) ,"['CYBX 081538Z 04010KT 15SM OVC019 M02/M05 A3032 RMK SC8 WSHFT 1521 SLP273', 'CYBX 081500Z 26002KT 15SM OVC017 M05/M07 A3033 RMK SC8 SLP276', 'CYBX 081400Z 05003KT 340V060 15SM BKN017 OVC046 M06/M08 A3033 RMK SC7SC1 SLP277', 'CYBX 081300Z 32002KT 15SM SCT016 BKN044 M07/M09 A3033 RMK SC3SC4 SLP276', 'CYBX 081200Z 28002KT 15SM BKN042 M09/M11 A3032 RMK SC5 SLP274', 'CYBX 081100Z VRB02KT 15SM FEW035 M09/M12 A3031 RMK SC2 SLP269', 'CYBX 081000Z VRB03KT 15SM FEW008 M10/M13 A3030 RMK SC1 SC TR SLP267', 'CYBX 080900Z 05005KT 15SM SKC M12/M15 A3030 RMK SLP266', 'CYBX 080800Z 07004KT 15SM SKC M11/M15 A3030 RMK SLP266', 'CYBX 080700Z 04007KT 15SM SKC M12/M17 A3029 RMK SLP262', 'CYBX 080600Z 02004KT 15SM SKC M11/M15 A3029 RMK SLP262', 'CYBX 080500Z 03008KT 15SM SKC M10/M15 A3028 RMK SLP259', 'CYBX 080400Z 04007KT 15SM SKC M11/M14 A3028 RMK SLP260', 'CYBX 080300Z 04005KT 15SM SKC M11/M13 A3026 RMK SLP252', 'CYBX 080200Z VRB03KT 15SM SKC M11/M13 A3025 RMK SLP248', 'CYBX 080100Z 36005KT 15SM SKC M08/M11 A3023 RMK SLP243', 'CYBX 080000Z 04002KT 15SM SKC M11/M12 A3023 RMK SLP243', 'CYBX 072300Z 05003KT 15SM SKC M11/M12 A3022 RMK SLP238', 'CYBX 072200Z 09002KT 15SM SKC M09/M12 A3022 RMK SLP237', 'CYBX 072100Z 32004KT 15SM FEW250 M07/M11 A3021 RMK CI1 CI TR SLP234', 'CYBX 072000Z 25003KT 15SM FEW250 M06/M10 A3020 RMK CI1 SLP233', 'CYBX 071900Z 23004KT 15SM FEW250 M05/M11 A3020 RMK CI1 SLP231', 'CYBX 071800Z 26003KT 15SM FEW250 M05/M10 A3019 RMK CI2 SLP230', 'CYBX 071700Z 23005KT 15SM FEW250 M06/M09 A3021 RMK CI1 SLP234', 'CYBX 071600Z 25005KT 15SM FEW250 M06/M10 A3022 RMK CI1 SLP237', 'CYBX 071500Z 34004KT 15SM FEW020 M06/M13 A3023 RMK SC1 SC TR SLP241', 'CYBX 071400Z VRB02KT 15SM FEW020 M09/M12 A3024 RMK SC1 SC TR SLP244', 'CYBX 071300Z 04003KT 15SM FEW020 M09/M12 A3024 RMK SC1 SC TR SLP244', 'CYBX 071200Z 03004KT 15SM FEW020 M11/M13 A3023 RMK SC1 SC TR SLP241', 'CYBX 071100Z 03005KT 15SM FEW018 M12/M14 A3022 RMK SC1 SC TR SLP240', 'CYBX 071000Z 08005KT 15SM FEW018 M12/M13 A3022 RMK SC1 SLP238', 'CYBX 070900Z 04003KT 15SM SCT018 M11/M12 A3022 RMK SC3 SLP238', 'CYBX 070800Z 07003KT 15SM SCT020 M09/M11 A3022 RMK SC4 SLP239', 'CYBX 070700Z 01006KT 15SM BKN025 M08/M11 A3022 RMK SC5 SLP238', 'CYBX 070600Z 01009KT 15SM BKN025 M08/M10 A3021 RMK SC6 SLP234', 'CYBX 070500Z 35006KT 15SM BKN025 M07/M10 A3021 RMK SC6 SLP234', 'CYBX 070400Z 36007KT 15SM BKN025 M07/M09 A3021 RMK SC6 SLP235', 'CYBX 070300Z 01007KT 15SM SCT019 M06/M09 A3021 RMK SC3 SLP235', 'CYBX 070200Z 03005KT 15SM BKN020 M05/M08 A3021 RMK SC7 SLP235', 'CYBX 070100Z 02007KT 15SM BKN021 M05/M08 A3021 RMK SC6 SLP234', 'CYBX 070000Z 04010G17KT 15SM BKN021 M04/M08 A3021 RMK SC7 SLP236', 'CYBX 062300Z 03008KT 15SM BKN021 M05/M08 A3021 RMK SC6 SLP234', 'CYBX 062200Z 03008KT 15SM FEW020 M04/M07 A3020 RMK SC2 SLP232', 'CYBX 062100Z 03010KT 15SM BKN024 M04/M07 A3019 RMK SC7 SLP228', 'CYBX 062000Z 03010G16KT 15SM BKN022 M04/M07 A3017 RMK SC6 SLP223', 'CYBX 061900Z 04014KT 15SM SCT022 M03/M07 A3016 RMK SC3 SLP218', 'CYBX 061800Z 05011KT 15SM BKN025 M03/M07 A3015 RMK SC6 SLP216', 'CYBX 061700Z 04017G27KT 15SM SCT022 M04/M07 A3015 RMK SC3 SLP214', 'CYBX 061600Z 04019KT 15SM BKN025 M04/M08 A3016 RMK SC5 SLP219', 'CYBX 061500Z 04019G26KT 15SM SCT022 M05/M08 A3017 RMK SC4 SLP221', 'CYBX 061400Z 04013G21KT 15SM SCT021 M05/M08 A3016 RMK SC4 SLP219', 'CYBX 061300Z 03012G21KT 15SM BKN022 M06/M08 A3016 RMK SC5 SLP219', 'CYBX 061200Z 04016G28KT 15SM SCT020 M05/M08 A3014 RMK SC3 SLP210', 'CYBX 061100Z 02014G23KT 15SM FEW020 FEW250 M05/M08 A3011 RMK SC1CI1 SC TR SLP202', 'CYBX 061000Z 03013G26KT 15SM FEW021 SCT100 M05/M08 A3010 RMK SC2AC2 SLP197', 'CYBX 060900Z 03015G23KT 15SM FEW022 BKN100 M04/M07 A3008 RMK SC2AC3 SLP191', 'CYBX 060800Z 03015G25KT 15SM FEW022 SCT070 M04/M07 A3007 RMK SC2AC2 SLP187', 'CYBX 060700Z 03016G25KT 15SM FEW022 BKN070 M04/M07 A3006 RMK SC2AC4 SLP184', 'CYBX 060600Z 02014G21KT 15SM FEW022 SCT070 BKN080 M03/M06 A3007 RMK SC2AC2AC2 SLP186', 'CYBX 060500Z 03014G21KT 15SM FEW040 SCT090 BKN100 M03/M06 A3006 RMK SC2AC2AC2 SLP182', 'CYBX 060400Z 03016G26KT 15SM FEW040 SCT090 BKN100 M03/M06 A3005 RMK SC2AC2AC3 SLP179', 'CYBX 060300Z 04019G28KT 15SM SCT040 SCT080 BKN090 M03/M05 A3004 RMK SC3AC1AC3 SLP176', 'CYBX 060200Z 03010G24KT 15SM SCT038 SCT070 BKN090 M03/M06 A3005 RMK SC3AC1AC3 SLP180', 'CYBX 060139Z 02009G18KT 340V060 15SM SCT040 SCT070 BKN090 M03/M06 A3005 RMK SC3AC1AC3 SLP179', 'CYBX 060100Z 03009G25KT 5SM -SN DRSN SCT038 BKN090 OVC100 M02/M05 A3004 RMK SC4AC2AC2 SLP178', 'CYBX 060000Z 04018G29KT 5SM -SN DRSN SCT036 OVC083 M02/M05 A3002 RMK SC4AC4 SLP170', 'CYBX 052300Z 04015G27KT 5SM -SN DRSN SCT036 OVC079 M02/M05 A3003 RMK SC4AC4 SLP175', 'CYBX 052200Z 04021G33KT 4SM -SN DRSN SCT038 OVC084 M02/M04 A3000 RMK SC4AC4 SLP164', 'CYBX 052100Z 05027G35KT 3SM -SN DRSN OVC038 M02/M04 A2998 RMK SC8 SLP158', 'CYBX 052000Z 04026G36KT 3SM -SN DRSN BKN020 OVC038 M02/M04 A2997 RMK SC5SC3 SLP153', 'CYBX 051938Z 04026G35KT 2SM -SN DRSN BKN020 OVC038 M02/M03 A2996 RMK SN2SC4SC2 SLP151', 'CYBX 051900Z 04031G38KT 3SM -SN DRSN BKN020 OVC068 M02/M04 A2995 RMK SC5AC3 SLP148', 'CYBX 051849Z 04030G35KT 6SM -SN DRSN SCT022 OVC070 M02/M04 A2995 RMK SC4AC4 SLP148', 'CYBX 051800Z 05030G37KT 12SM DRSN FEW020 OVC088 M02/M04 A2995 RMK SC2AC6 SLP145', 'CYBX 051747Z 05027G35KT 12SM DRSN SCT020 OVC076 M02/M04 A2994 RMK SC3AC5 SLP144', 'CYBX 051727Z 05028G34KT 6SM -SN DRSN BKN020 OVC075 M02/M04 A2994 RMK SC5AC3 SLP144', 'CYBX 051636Z 04028G39KT 4SM -SN DRSN OVC020 M02/M04 A2995 RMK SC8 SLP145']","['2024-02-08 15:38:00', '2024-02-08 15:00:00', '2024-02-08 14:00:00', '2024-02-08 13:00:00', '2024-02-08 12:00:00', '2024-02-08 11:00:00', '2024-02-08 10:00:00', '2024-02-08 09:00:00', '2024-02-08 08:00:00', '2024-02-08 07:00:00', '2024-02-08 06:00:00', '2024-02-08 05:00:00', '2024-02-08 04:00:00', '2024-02-08 03:00:00', '2024-02-08 02:00:00', '2024-02-08 01:00:00', '2024-02-08 00:00:00', '2024-02-07 23:00:00', '2024-02-07 22:00:00', '2024-02-07 21:00:00', '2024-02-07 20:00:00', '2024-02-07 19:00:00', '2024-02-07 18:00:00', '2024-02-07 17:00:00', '2024-02-07 16:00:00', '2024-02-07 15:00:00', '2024-02-07 14:00:00', '2024-02-07 13:00:00', '2024-02-07 12:00:00', '2024-02-07 11:00:00', '2024-02-07 10:00:00', '2024-02-07 09:00:00', '2024-02-07 08:00:00', '2024-02-07 07:00:00', '2024-02-07 06:00:00', '2024-02-07 05:00:00', '2024-02-07 04:00:00', '2024-02-07 03:00:00', '2024-02-07 02:00:00', '2024-02-07 01:00:00', '2024-02-07 00:00:00', '2024-02-06 23:00:00', '2024-02-06 22:00:00', '2024-02-06 21:00:00', '2024-02-06 20:00:00', '2024-02-06 19:00:00', '2024-02-06 18:00:00', '2024-02-06 17:00:00', '2024-02-06 16:00:00', '2024-02-06 15:00:00', '2024-02-06 14:00:00', '2024-02-06 13:00:00', '2024-02-06 12:00:00', '2024-02-06 11:00:00', '2024-02-06 10:00:00', '2024-02-06 09:00:00', '2024-02-06 08:00:00', '2024-02-06 07:00:00', '2024-02-06 06:00:00', '2024-02-06 05:00:00', '2024-02-06 04:00:00', '2024-02-06 03:00:00', '2024-02-06 02:00:00', '2024-02-06 01:39:00', '2024-02-06 01:00:00', '2024-02-06 00:00:00', '2024-02-05 23:00:00', '2024-02-05 22:00:00', '2024-02-05 21:00:00', '2024-02-05 20:00:00', '2024-02-05 19:38:00', '2024-02-05 19:00:00', '2024-02-05 18:49:00', '2024-02-05 18:00:00', '2024-02-05 17:47:00', '2024-02-05 17:27:00', '2024-02-05 16:36:00']"
Canada, Brandon Municipal Airport (YBR/CYBR) ,"['CYBR 081500Z 36009KT 10SM -SN OVC017 M04/M06 A2942 RMK SC8 SLP987', 'CYBR 081405Z 36011G16KT 12SM -SN OVC016 M03/M06 A2942 RMK SC8 SLP986', 'CYBR 081300Z 01015KT 10SM OVC013 M03/M05 A2941 RMK SC8 SLP984', 'CYBR 081200Z 02016KT 10SM OVC013 M02/M05 A2941 RMK SC8 SLP982', 'CYBR 081145Z 02016KT 10SM OVC011 M02/M04 A2941 RMK SC8 SLP981', 'CYBR 081100Z 01016KT 10SM OVC009 M02/M03 A2941 RMK ST8 SLP982', 'CYBR 081000Z 04018G24KT 10SM OVC007 M01/M01 A2941 RMK ST8 SLP983', 'CYBR 080924Z 04018G24KT 10SM OVC008 M01/M01 A2942 RMK ST8 SLP984', 'CYBR 080800Z 04017G24KT 5SM -SN OVC008 M00/M00 A2943 RMK ST8 SLP990', 'CYBR 080746Z 04019KT 5SM -SN OVC008 M00/M00 A2944 RMK ST8 SLP992', 'CYBR 080700Z 05021G26KT 5SM -SN OVC005 00/00 A2945 RMK ST8 SLP996', 'CYBR 080600Z 05019KT 5SM -SN OVC005 00/00 A2946 RMK ST8 /S03/ SLP998', 'CYBR 080500Z 05020KT 5SM -SN BR OVC005 00/00 A2947 RMK ST8 SLP003', 'CYBR 080400Z 06018G23KT 3SM -SN BR OVC005 00/00 A2950 RMK ST8 SLP012', 'CYBR 080300Z 06019G25KT 4SM -SN BR BKN008 OVC014 00/00 A2952 RMK ST5SC3 SLP018', 'CYBR 080251Z 05020KT 4SM -SN FEW006 OVC014 00/00 A2952 RMK ST2SC6 SLP018', 'CYBR 080200Z 06020KT 3SM -SN BR BKN006 OVC015 00/00 A2954 RMK ST5SC3 SLP026', 'CYBR 080100Z 06019KT 3SM -SN BR OVC005 00/00 A2956 RMK ST8 SLP034', 'CYBR 080047Z 06018G24KT 3SM -SN BR OVC006 00/00 A2957 RMK ST8 ICE ON INDICATOR SLP036', 'CYBR 080024Z 06018G26KT 3SM -FZRA -SN BR OVC004 M00/M00 A2958 RMK ST8 SLP038', 'CYBR 072330Z 06017G25KT 1SM -FZRA BR OVC002 M00/M00 A2959 RMK FG5ST3 SLP045', 'CYBR 072253Z 06022G27KT 1/2SM -FZRA FZFG OVC002 M00/M00 A2960 RMK FG5ST3 SLP046', 'CYBR 072215Z 07019KT 1/2SM -FZDZ FZFG VV002 M00/M00 A2962 RMK FG8 SLP054', 'CYBR 072112Z 07021G27KT 3/4SM -FZDZ BR OVC002 M00/M00 A2965 RMK FG5ST3 SLP064', 'CYBR 072045Z 08019G26KT 1 1/2SM -FZDZ BR OVC002 M00/M00 A2966 RMK FG5ST3 SLP069', 'CYBR 072000Z 08017G25KT 2SM -FZDZ BR OVC003 M00/M00 A2969 RMK FG4ST4 ICE ON INDICATOR SLP079', 'CYBR 071921Z 07019G24KT 2 1/2SM -FZDZ BR OVC003 M00/M00 A2970 RMK ST8 SLP083', 'CYBR 071831Z 08022KT 5SM BR OVC003 M01/M01 A2975 RMK ST8 SLP098', 'CYBR 071800Z 08017G27KT 8SM OVC005 M00/M00 A2977 RMK ST8 BR SLP104', 'CYBR 071700Z 08019G25KT 8SM OVC005 M01/M01 A2978 RMK ST8 SLP110', 'CYBR 071600Z 09016G21KT 8SM BKN005 OVC009 M00/M00 A2982 RMK ST6ST2 VIS N 4 BR SLP124', 'CYBR 071500Z 08017KT 12SM BKN005 OVC010 M00/M00 A2984 RMK ST6SC2 SLP129', 'CYBR 071446Z 09017G22KT 12SM BKN005 OVC010 M00/M00 A2984 RMK ST6SC2 SLP130', 'CYBR 071400Z 08017G22KT 8SM -SN BKN005 OVC011 M00/M00 A2984 RMK ST6SC2 BR SLP128', 'CYBR 071333Z 08015KT 5SM -SN BR OVC005 M00/M00 A2985 RMK ST8 SLP134', 'CYBR 071313Z 09013G18KT 3SM -SN BR OVC005 M00/M00 A2986 RMK ST8 SLP137', 'CYBR 071254Z 09013KT 2SM -SN BR OVC005 M00/M00 A2987 RMK ST8 SLP140', 'CYBR 071200Z 09011KT 1SM -SN BR VV002 M00/M00 A2989 RMK FG8 SLP147', 'CYBR 071116Z 09012KT 1SM -SN BR VV002 M00/M00 A2992 RMK FG8 SLP155', 'CYBR 071027Z 09011G17KT 3/4SM -FZDZ BR VV001 M00/M00 A2992 RMK FG8 SLP157', 'CYBR 070900Z 08014KT 5SM BR OVC004 M00/M00 A2993 RMK ST8 SLP158', 'CYBR 070841Z 08011KT 5SM BR OVC004 M00/M00 A2993 RMK ST8 SLP160', 'CYBR 070825Z 08011KT 5SM -SN BR OVC004 M00/M00 A2994 RMK ST8 SLP164', 'CYBR 070736Z 07009KT 1SM -SN BR OVC005 M00/M00 A2996 RMK FG4ST8 SLP168', 'CYBR 070700Z 07008KT 1SM BR OVC009 M00/M00 A2996 RMK FG4ST4 SLP169', 'CYBR 070652Z 08008KT 1SM BR OVC009 M00/M00 A2996 RMK FG4ST4 SLP170', 'CYBR 070600Z 08009KT 1/4SM FZFG VV002 M00/M00 A2998 RMK FG8 SLP176', 'CYBR 070511Z 10006KT 3/8SM FZFG VV002 M00/M00 A3001 RMK FG8 SLP185', 'CYBR 070449Z 10008KT 1/2SM FZFG VV002 M00/M00 A3000 RMK FG8 SLP183', 'CYBR 070400Z 09008KT 15SM BKN003 OVC018 M00/M00 A3000 RMK ST7SC1 SLP182', 'CYBR 070322Z 07009G16KT 15SM BKN004 OVC019 M00/M00 A2999 RMK ST6SC2 SLP181', 'CYBR 070200Z 06007KT 15SM OVC009 00/00 A2999 RMK ST8 SLP179', 'CYBR 070144Z 08005KT 15SM BKN009 OVC016 00/00 A3000 RMK ST6SC2 SLP184', 'CYBR 070100Z 11004KT 12SM SCT006 OVC016 01/01 A3000 RMK ST3SC5 SLP183', 'CYBR 070000Z VRB02KT 12SM FEW012 OVC018 00/00 A2998 RMK SC2SC6 SLP176', 'CYBR 062349Z 27003KT 12SM SCT012 OVC018 00/00 A2999 RMK SC4SC4 SLP179', 'CYBR 062300Z 31003KT 12SM OVC007 01/01 A2998 RMK ST8 SLP178', 'CYBR 062239Z 29003KT 12SM OVC008 01/01 A2998 RMK ST8 SLP178', 'CYBR 062210Z 29005KT 12SM OVC013 01/01 A2999 RMK SC8 SLP179', 'CYBR 062122Z 30005KT 4SM -DZ BR BKN007 OVC010 01/01 A2998 RMK ST6SC2 SLP177', 'CYBR 062039Z 00000KT 6SM BR BKN007 OVC010 01/01 A2998 RMK ST5SC3 SLP176', 'CYBR 062000Z 01005KT 8SM SCT008 OVC011 01/01 A2998 RMK ST4SC4 VIS NE-SE 4 BR SLP175', 'CYBR 061900Z 34005KT 10SM FEW007 OVC011 02/01 A2999 RMK SF1SC7 SLP179', 'CYBR 061800Z 35006KT 10SM FEW007 OVC012 02/01 A3000 RMK SF1SC7 SLP181', 'CYBR 061700Z 32006KT 10SM FEW007 OVC012 01/00 A2999 RMK SF1SC7 SLP179', 'CYBR 061629Z 32006KT 10SM FEW007 OVC012 01/01 A2997 RMK SF1SC7 SLP174', 'CYBR 061500Z 26004KT 6SM BR OVC014 00/00 A2996 RMK SC8 SLP168', 'CYBR 061400Z 30003KT 8SM OVC013 00/00 A2994 RMK SC8 BR SLP162', 'CYBR 061300Z 31006KT 5SM BR OVC013 00/00 A2993 RMK SC8 SLP159', 'CYBR 061200Z 30006KT 5SM BR OVC013 00/00 A2991 RMK SC8 SLP153', 'CYBR 061133Z 28005KT 5SM BR OVC013 00/00 A2991 RMK SC8 SLP153', 'CYBR 061100Z 28006KT 5SM BR OVC018 00/00 A2991 RMK SC8 SLP152', 'CYBR 061035Z 26005KT 3SM BR OVC015 00/00 A2991 RMK SC8 SLP151', 'CYBR 061000Z 26004KT 2 1/2SM BR OVC016 00/00 A2990 RMK SC8 SLP147', 'CYBR 060900Z 00000KT 2 1/2SM BR OVC017 00/00 A2988 RMK SC8 SLP142', 'CYBR 060828Z 32004KT 2 1/2SM BR OVC017 00/00 A2988 RMK SC8 SLP142', 'CYBR 060744Z 28005KT 1 1/2SM BR OVC012 01/01 A2989 RMK FG3SC5 SLP144', 'CYBR 060715Z 28004KT 3/4SM -DZ BR VV004 01/01 A2989 RMK FG8 SLP144', 'CYBR 060600Z 34004KT 3/8SM -DZ FG VV004 01/01 A2988 RMK FG8 SLP140', 'CYBR 060500Z 27004KT 3/8SM -DZ BR VV004 01/01 A2988 RMK FG8 SLP140', 'CYBR 060451Z 25004KT 3/8SM -DZ BR VV003 01/01 A2987 RMK FG8 SLP139', 'CYBR 060411Z 27004KT 1/4SM FG VV004 01/01 A2988 RMK FG8 SLP141', 'CYBR 060336Z 24004KT 3/8SM FG VV003 01/01 A2989 RMK FG8 SLP145', 'CYBR 060314Z 23005KT 1/2SM FG OVC003 01/01 A2990 RMK FG5ST3 SLP147', 'CYBR 060253Z 22006KT 2SM BR OVC005 01/01 A2989 RMK ST8 SLP144', 'CYBR 060200Z VRB02KT 2SM BR OVC009 01/01 A2987 RMK ST8 SLP139', 'CYBR 060151Z VRB02KT 2SM BR OVC011 01/01 A2987 RMK SC8 SLP138', 'CYBR 060100Z 21004KT 5SM BR OVC014 01/01 A2988 RMK SC8 SLP143', 'CYBR 060000Z 21004KT 3SM BR OVC012 01/01 A2990 RMK SC8 SLP147', 'CYBR 052343Z 24005KT 3SM BR OVC012 01/01 A2989 RMK SC8 SLP146', 'CYBR 052308Z 25003KT 2 1/2SM BR OVC011 02/02 A2989 RMK SC8 SLP144', 'CYBR 052200Z 24004KT 3SM BR OVC009 02/02 A2990 RMK ST8 SLP147', 'CYBR 052100Z 24007KT 4SM BR BKN004 OVC009 02/02 A2989 RMK ST6SC2 SLP145', 'CYBR 052000Z 23010KT 5SM BR OVC004 02/02 A2991 RMK ST8 SLP152', 'CYBR 051900Z 22011KT 8SM OVC005 02/02 A2993 RMK ST8 BR SLP157', 'CYBR 051800Z 22005KT 3SM BR OVC005 02/02 A2993 RMK ST8 SLP160', 'CYBR 051747Z 22006KT 3SM BR OVC005 02/02 A2994 RMK ST8 SLP162', 'CYBR 051725Z 19006KT 2 1/2SM BR OVC005 02/02 A2994 RMK FG2ST6 SLP164', 'CYBR 051654Z 17006KT 1SM BR OVC003 01/01 A2995 RMK FG6ST2 SLP166', 'CYBR 051623Z 16003KT 3/4SM BR VV003 01/01 A2995 RMK FG8 SLP167']","['2024-02-08 15:00:00', '2024-02-08 14:05:00', '2024-02-08 13:00:00', '2024-02-08 12:00:00', '2024-02-08 11:45:00', '2024-02-08 11:00:00', '2024-02-08 10:00:00', '2024-02-08 09:24:00', '2024-02-08 08:00:00', '2024-02-08 07:46:00', '2024-02-08 07:00:00', '2024-02-08 06:00:00', '2024-02-08 05:00:00', '2024-02-08 04:00:00', '2024-02-08 03:00:00', '2024-02-08 02:51:00', '2024-02-08 02:00:00', '2024-02-08 01:00:00', '2024-02-08 00:47:00', '2024-02-08 00:24:00', '2024-02-07 23:30:00', '2024-02-07 22:53:00', '2024-02-07 22:15:00', '2024-02-07 21:12:00', '2024-02-07 20:45:00', '2024-02-07 20:00:00', '2024-02-07 19:21:00', '2024-02-07 18:31:00', '2024-02-07 18:00:00', '2024-02-07 17:00:00', '2024-02-07 16:00:00', '2024-02-07 15:00:00', '2024-02-07 14:46:00', '2024-02-07 14:00:00', '2024-02-07 13:33:00', '2024-02-07 13:13:00', '2024-02-07 12:54:00', '2024-02-07 12:00:00', '2024-02-07 11:16:00', '2024-02-07 10:27:00', '2024-02-07 09:00:00', '2024-02-07 08:41:00', '2024-02-07 08:25:00', '2024-02-07 07:36:00', '2024-02-07 07:00:00', '2024-02-07 06:52:00', '2024-02-07 06:00:00', '2024-02-07 05:11:00', '2024-02-07 04:49:00', '2024-02-07 04:00:00', '2024-02-07 03:22:00', '2024-02-07 02:00:00', '2024-02-07 01:44:00', '2024-02-07 01:00:00', '2024-02-07 00:00:00', '2024-02-06 23:49:00', '2024-02-06 23:00:00', '2024-02-06 22:39:00', '2024-02-06 22:10:00', '2024-02-06 21:22:00', '2024-02-06 20:39:00', '2024-02-06 20:00:00', '2024-02-06 19:00:00', '2024-02-06 18:00:00', '2024-02-06 17:00:00', '2024-02-06 16:29:00', '2024-02-06 15:00:00', '2024-02-06 14:00:00', '2024-02-06 13:00:00', '2024-02-06 12:00:00', '2024-02-06 11:33:00', '2024-02-06 11:00:00', '2024-02-06 10:35:00', '2024-02-06 10:00:00', '2024-02-06 09:00:00', '2024-02-06 08:28:00', '2024-02-06 07:44:00', '2024-02-06 07:15:00', '2024-02-06 06:00:00', '2024-02-06 05:00:00', '2024-02-06 04:51:00', '2024-02-06 04:11:00', '2024-02-06 03:36:00', '2024-02-06 03:14:00', '2024-02-06 02:53:00', '2024-02-06 02:00:00', '2024-02-06 01:51:00', '2024-02-06 01:00:00', '2024-02-06 00:00:00', '2024-02-05 23:43:00', '2024-02-05 23:08:00', '2024-02-05 22:00:00', '2024-02-05 21:00:00', '2024-02-05 20:00:00', '2024-02-05 19:00:00', '2024-02-05 18:00:00', '2024-02-05 17:47:00', '2024-02-05 17:25:00', '2024-02-05 16:54:00', '2024-02-05 16:23:00']"
Cape-verde, Boa Vista Rabil Airport (BVC/GVBA) ,"['GVBA 081500Z 05015KT 4000 HZ NSC 29/13 Q1014 NOSIG', 'GVBA 081400Z 05015KT 4100 HZ NSC 29/12 Q1015 NOSIG', 'GVBA 081300Z 04015KT 3900 HZ NSC 28/17 Q1016 NOSIG', 'GVBA 081200Z 04013KT 4000 HZ NSC 27/17 Q1017 NOSIG', 'GVBA 081100Z 04012KT 4000 HZ NSC 25/20 Q1017 NOSIG', 'GVBA 081000Z 04009KT 3800 BR NSC 24/21 Q1017 NOSIG', 'GVBA 080900Z 04008KT 3800 BR NSC 22/21 Q1017 NOSIG', 'GVBA 080800Z 05005KT 3600 BR NSC 21/21 Q1016 NOSIG', 'GVBA 080700Z 05003KT 5000 BR NSC 22/21 Q1016 NOSIG', 'GVBA 071900Z 04013KT 4000 HZ NSC 25/19 Q1015 NOSIG', 'GVBA 071800Z 03015KT 4000 HZ NSC 27/18 Q1014 NOSIG', 'GVBA 071700Z 06015KT 4000 HZ NSC 28/16 Q1015 NOSIG', 'GVBA 071600Z 07012KT 6000 NSC 31/12 Q1015 NOSIG', 'GVBA 071500Z 08015KT 6000 NSC 30/11 Q1015 NOSIG', 'GVBA 071400Z 08015KT 7000 NSC 30/10 Q1016 NOSIG', 'GVBA 071300Z 06015KT 7000 NSC 28/14 Q1017 NOSIG', 'GVBA 071200Z 06016KT 7000 NSC 28/14 Q1017 NOSIG', 'GVBA 071100Z 05013KT 6000 NSC 26/19 Q1018 NOSIG', 'GVBA 071000Z 06010KT 6000 NSC 24/20 Q1017 NOSIG', 'GVBA 070900Z 06005KT 6000 NSC 22/21 Q1017 NOSIG', 'GVBA 070800Z 08004KT 6000 NSC 21/20 Q1016 NOSIG', 'GVBA 070700Z 08004KT 8000 NSC 22/20 Q1016 NOSIG', 'GVBA 061900Z 04013KT 6000 NSC 25/18 Q1015 NOSIG', 'GVBA 061800Z 04011KT 6000 NSC 27/16 Q1014 NOSIG', 'GVBA 061700Z 03013KT 6000 NSC 27/16 Q1014 NOSIG', 'GVBA 061600Z 03014KT 7000 NSC 28/16 Q1014 NOSIG', 'GVBA 061500Z 05012KT CAVOK 29/13 Q1015 NOSIG', 'GVBA 061400Z 06015KT CAVOK 29/11 Q1015 NOSIG', 'GVBA 061300Z 05015KT CAVOK 28/13 Q1016 NOSIG', 'GVBA 061200Z 06013KT CAVOK 29/13 Q1016 NOSIG', 'GVBA 061100Z 07012KT CAVOK 27/14 Q1016 NOSIG', 'GVBA 061000Z 05010KT 8000 NSC 24/19 Q1016 NOSIG', 'GVBA 060900Z 07008KT 9000 NSC 21/20 Q1016 NOSIG', 'GVBA 060800Z 06005KT 9000 FEW013 20/19 Q1015 NOSIG', 'GVBA 060700Z 05005KT 9000 FEW013 21/19 Q1015 NOSIG', 'GVBA 051900Z 04012KT CAVOK 25/17 Q1014 NOSIG', 'GVBA 051800Z 04013KT CAVOK 26/16 Q1014 NOSIG', 'GVBA 051700Z 04014KT CAVOK 27/14 Q1014 NOSIG']","['2024-02-08 15:00:00', '2024-02-08 14:00:00', '2024-02-08 13:00:00', '2024-02-08 12:00:00', '2024-02-08 11:00:00', '2024-02-08 10:00:00', '2024-02-08 09:00:00', '2024-02-08 08:00:00', '2024-02-08 07:00:00', '2024-02-07 19:00:00', '2024-02-07 18:00:00', '2024-02-07 17:00:00', '2024-02-07 16:00:00', '2024-02-07 15:00:00', '2024-02-07 14:00:00', '2024-02-07 13:00:00', '2024-02-07 12:00:00', '2024-02-07 11:00:00', '2024-02-07 10:00:00', '2024-02-07 09:00:00', '2024-02-07 08:00:00', '2024-02-07 07:00:00', '2024-02-06 19:00:00', '2024-02-06 18:00:00', '2024-02-06 17:00:00', '2024-02-06 16:00:00', '2024-02-06 15:00:00', '2024-02-06 14:00:00', '2024-02-06 13:00:00', '2024-02-06 12:00:00', '2024-02-06 11:00:00', '2024-02-06 10:00:00', '2024-02-06 09:00:00', '2024-02-06 08:00:00', '2024-02-06 07:00:00', '2024-02-05 19:00:00', '2024-02-05 18:00:00', '2024-02-05 17:00:00']"
Cape-verde, Espargos Amilcar Cabral International Airport (SID/GVAC) ,"['GVAC 081500Z 05017KT 3900 HZ NSC 27/14 Q1015 NOSIG', 'GVAC 081400Z 06017KT 4300 HZ NSC 27/13 Q1015 NOSIG', 'GVAC 081300Z 05015KT 4500 HZ NSC 27/14 Q1016 NOSIG', 'GVAC 081200Z 05014KT 4500 HZ NSC 27/15 Q1017 NOSIG', 'GVAC 081100Z 04013KT 4500 HZ NSC 25/17 Q1018 NOSIG', 'GVAC 081000Z 04010KT 4000 HZ NSC 23/20 Q1017 NOSIG', 'GVAC 080900Z 04009KT 4000 BR NSC 22/20 Q1017 NOSIG', 'GVAC 080800Z 05010KT 4500 BR NSC 21/20 Q1017 NOSIG', 'GVAC 080700Z 05009KT 5000 BR NSC 21/20 Q1016 NOSIG', 'GVAC 080600Z 04008KT 5000 BR NSC 21/20 Q1016 NOSIG', 'GVAC 080500Z 04008KT 5000 BR NSC 21/20 Q1016 NOSIG', 'GVAC 080400Z 05008KT 5000 BR NSC 21/20 Q1016 NOSIG', 'GVAC 080300Z 05008KT 5000 BR NSC 22/20 Q1017 NOSIG', 'GVAC 080200Z 05007KT 6000 NSC 22/20 Q1017 NOSIG', 'GVAC 080100Z 04009KT 6000 NSC 22/20 Q1018 NOSIG', 'GVAC 080100Z 04009KT 6000 NSC 22/20 Q1018 NOSIG', 'GVAC 080000Z 06009KT 6000 NSC 22/20 Q1017 NOSIG', 'GVAC 072300Z 07011KT 6000 NSC 22/19 Q1017 NOSIG', 'GVAC 072200Z 07012KT 6000 NSC 23/19 Q1016 NOSIG', 'GVAC 072100Z 05013KT 6000 NSC 23/19 Q1016 NOSIG', 'GVAC 072100Z 05013KT 6000 NSC 23/19 Q1016 NOSIG', 'GVAC 072000Z 05012KT 5000 HZ NSC 24/18 Q1015 NOSIG', 'GVAC 071900Z 04015KT 5000 HZ NSC 24/17 Q1015 NOSIG', 'GVAC 071800Z 04016KT 6000 NSC 26/17 Q1015 NOSIG', 'GVAC 071700Z 05015KT 6000 NSC 27/16 Q1015 NOSIG', 'GVAC 071600Z 07016KT 6000 NSC 27/15 Q1015 NOSIG', 'GVAC 071500Z 07017KT 6000 NSC 27/13 Q1016 NOSIG', 'GVAC 071400Z 07017KT 6000 NSC 27/13 Q1016 NOSIG', 'GVAC 071300Z 07017KT 7000 NSC 26/16 Q1017 NOSIG', 'GVAC 071200Z 07017KT 6000 NSC 26/17 Q1018 NOSIG', 'GVAC 071100Z 06016KT 6000 NSC 26/18 Q1018 NOSIG', 'GVAC 071000Z 06015KT 6000 NSC 24/19 Q1017 NOSIG', 'GVAC 070900Z 08012KT 6000 NSC 22/20 Q1017 NOSIG', 'GVAC 070800Z 06014KT 6000 NSC 22/20 Q1016 NOSIG', 'GVAC 070700Z 06014KT 7000 NSC 21/20 Q1016 NOSIG', 'GVAC 070600Z 05014KT 7000 NSC 22/20 Q1015 NOSIG', 'GVAC 070500Z 06014KT 7000 NSC 22/20 Q1015 NOSIG', 'GVAC 070500Z 06014KT 7000 NSC 22/20 Q1015 NOSIG', 'GVAC 070400Z 06014KT 7000 NSC 22/20 Q1016 NOSIG', 'GVAC 070300Z 06014KT 7000 NSC 22/20 Q1016 NOSIG', 'GVAC 070200Z 06014KT 7000 NSC 22/20 Q1017 NOSIG', 'GVAC 070100Z 05013KT 7000 NSC 22/20 Q1017 NOSIG', 'GVAC 070000Z 05012KT 7000 NSC 22/19 Q1017 NOSIG', 'GVAC 062300Z 05011KT 7000 NSC 23/19 Q1017 NOSIG', 'GVAC 062200Z 05013KT 6000 NSC 23/19 Q1017 NOSIG', 'GVAC 062100Z 04012KT 6000 NSC 23/19 Q1016 NOSIG', 'GVAC 062000Z 04013KT 6000 NSC 24/18 Q1016 NOSIG', 'GVAC 061900Z 05013KT 6000 NSC 25/18 Q1015 NOSIG', 'GVAC 061800Z 06012KT 7000 NSC 27/15 Q1015 NOSIG', 'GVAC 061700Z 06013KT 7000 NSC 27/15 Q1015 NOSIG', 'GVAC 061600Z 06013KT 7000 NSC 27/13 Q1015 NOSIG', 'GVAC 061500Z 05015KT 8000 NSC 27/13 Q1015 NOSIG', 'GVAC 061400Z 06018KT CAVOK 27/13 Q1016 NOSIG', 'GVAC 061300Z 06014KT CAVOK 27/15 Q1017 NOSIG', 'GVAC 061200Z 06017KT CAVOK 26/14 Q1017 NOSIG', 'GVAC 061100Z 07015KT CAVOK 25/17 Q1017 NOSIG', 'GVAC 061000Z 07014KT 9999 FEW013 23/18 Q1016 NOSIG', 'GVAC 060900Z 06010KT 9999 FEW013 21/19 Q1016 NOSIG', 'GVAC 060800Z 05011KT 9999 FEW013 21/19 Q1016 NOSIG', 'GVAC 060700Z 05011KT 9999 FEW013 21/19 Q1015 NOSIG', 'GVAC 060600Z 05008KT 9999 FEW013 21/19 Q1015 NOSIG', 'GVAC 060500Z 04008KT CAVOK 21/19 Q1015 NOSIG', 'GVAC 060500Z 04008KT CAVOK 21/19 Q1015 NOSIG', 'GVAC 060400Z 04008KT CAVOK 21/19 Q1015 NOSIG', 'GVAC 060300Z 05010KT CAVOK 21/19 Q1016 NOSIG', 'GVAC 060200Z 05009KT CAVOK 21/19 Q1016 NOSIG', 'GVAC 060100Z 04009KT CAVOK 22/19 Q1017 NOSIG', 'GVAC 060000Z 04009KT CAVOK 22/18 Q1017 NOSIG', 'GVAC 052300Z 05009KT CAVOK 22/18 Q1017 NOSIG', 'GVAC 052200Z 05009KT CAVOK 22/18 Q1017 NOSIG', 'GVAC 052100Z 04009KT CAVOK 23/18 Q1016 NOSIG', 'GVAC 052000Z 05010KT CAVOK 23/17 Q1015 NOSIG', 'GVAC 052000Z 05010KT CAVOK 23/17 Q1015 NOSIG', 'GVAC 051900Z 05012KT CAVOK 24/15 Q1014 NOSIG', 'GVAC 051800Z 05012KT CAVOK 25/14 Q1014 NOSIG', 'GVAC 051700Z 05012KT CAVOK 26/14 Q1014 NOSIG']","['2024-02-08 15:00:00', '2024-02-08 14:00:00', '2024-02-08 13:00:00', '2024-02-08 12:00:00', '2024-02-08 11:00:00', '2024-02-08 10:00:00', '2024-02-08 09:00:00', '2024-02-08 08:00:00', '2024-02-08 07:00:00', '2024-02-08 06:00:00', '2024-02-08 05:00:00', '2024-02-08 04:00:00', '2024-02-08 03:00:00', '2024-02-08 02:00:00', '2024-02-08 01:00:00', '2024-02-08 00:57:00', '2024-02-08 00:00:00', '2024-02-07 23:00:00', '2024-02-07 22:00:00', '2024-02-07 21:00:00', '2024-02-07 20:59:00', '2024-02-07 20:00:00', '2024-02-07 19:00:00', '2024-02-07 18:00:00', '2024-02-07 17:00:00', '2024-02-07 16:00:00', '2024-02-07 15:00:00', '2024-02-07 14:00:00', '2024-02-07 13:00:00', '2024-02-07 12:00:00', '2024-02-07 11:00:00', '2024-02-07 10:00:00', '2024-02-07 09:00:00', '2024-02-07 08:00:00', '2024-02-07 07:00:00', '2024-02-07 06:00:00', '2024-02-07 05:00:00', '2024-02-07 04:58:00', '2024-02-07 04:00:00', '2024-02-07 03:00:00', '2024-02-07 02:00:00', '2024-02-07 01:00:00', '2024-02-07 00:00:00', '2024-02-06 23:00:00', '2024-02-06 22:00:00', '2024-02-06 21:00:00', '2024-02-06 20:00:00', '2024-02-06 19:00:00', '2024-02-06 18:00:00', '2024-02-06 17:00:00', '2024-02-06 16:00:00', '2024-02-06 15:00:00', '2024-02-06 14:00:00', '2024-02-06 13:00:00', '2024-02-06 12:00:00', '2024-02-06 11:00:00', '2024-02-06 10:00:00', '2024-02-06 09:00:00', '2024-02-06 08:00:00', '2024-02-06 07:00:00', '2024-02-06 06:00:00', '2024-02-06 05:00:00', '2024-02-06 04:59:00', '2024-02-06 04:00:00', '2024-02-06 03:00:00', '2024-02-06 02:00:00', '2024-02-06 01:00:00', '2024-02-06 00:00:00', '2024-02-05 23:00:00', '2024-02-05 22:00:00', '2024-02-05 21:00:00', '2024-02-05 20:00:00', '2024-02-05 19:58:00', '2024-02-05 19:00:00', '2024-02-05 18:00:00', '2024-02-05 17:00:00']"
Cape-verde, Praia Nelson Mandela International Airport (RAI/GVNP) ,"['GVNP 081500Z 04017KT 5000 HZ NSC 30/14 Q1014 NOSIG', 'GVNP 081400Z 03017KT 5000 HZ NSC 30/15 Q1015 NOSIG', 'GVNP 081300Z 03017KT 5000 HZ NSC 30/14 Q1016 NOSIG', 'GVNP 081200Z 04018KT 5000 HZ NSC 30/10 Q1016 NOSIG', 'GVNP 081100Z 03019KT 6000 NSC 29/05 Q1017 NOSIG', 'GVNP 081000Z 04013KT 6000 NSC 28/08 Q1016 NOSIG', 'GVNP 080900Z 05013KT 6000 NSC 26/05 Q1016 NOSIG', 'GVNP 080800Z 02013KT 5000 DU NSC 26/02 Q1015 NOSIG', 'GVNP 080700Z 02012KT 8000 NSC 23/02 Q1015 NOSIG', 'GVNP 080600Z 01012KT 8000 NSC 25/04 Q1015 NOSIG', 'GVNP 080500Z 02012KT 8000 NSC 25/05 Q1015 NOSIG', 'GVNP 080400Z 01013KT 8000 NSC 25/08 Q1015 NOSIG', 'GVNP 080300Z 03013KT 8000 NSC 23/11 Q1016 NOSIG', 'GVNP 080200Z 03013KT 7000 NSC 24/14 Q1016 NOSIG', 'GVNP 080100Z 03013KT 7000 NSC 23/16 Q1016 NOSIG', 'GVNP 080100Z 03013KT 7000 NSC 23/16 Q1016 NOSIG', 'GVNP 080000Z 03015KT 7000 NSC 23/18 Q1016 NOSIG', 'GVNP 072300Z 02016KT 7000 NSC 24/16 Q1016 NOSIG', 'GVNP 072200Z 03012KT 7000 NSC 24/14 Q1016 NOSIG', 'GVNP 072100Z 02013KT 7000 NSC 25/15 Q1015 NOSIG', 'GVNP 072100Z 02013KT 7000 NSC 25/15 Q1015 NOSIG', 'GVNP 072000Z 02012KT 5000 HZ NSC 25/14 Q1014 NOSIG', 'GVNP 071900Z 03014KT 6000 NSC 27/15 Q1014 NOSIG', 'GVNP 071800Z 03016KT 6000 NSC 29/14 Q1014 NOSIG', 'GVNP 071700Z 03016KT 6000 NSC 30/15 Q1014 NOSIG', 'GVNP 071600Z 05016KT 7000 NSC 29/16 Q1014 NOSIG', 'GVNP 071500Z 03016KT 7000 NSC 29/18 Q1015 NOSIG', 'GVNP 071400Z 04016KT 7000 NSC 29/19 Q1016 NOSIG', 'GVNP 071300Z 03016KT 8000 NSC 28/18 Q1016 NOSIG', 'GVNP 071200Z 03016KT 9000 NSC 28/18 Q1017 NOSIG', 'GVNP 071100Z 02016KT CAVOK 27/16 Q1017 NOSIG', 'GVNP 071000Z 02018KT 9000 NSC 25/15 Q1016 NOSIG', 'GVNP 070900Z 02014KT 8000 NSC 22/18 Q1016 NOSIG', 'GVNP 070800Z 03015KT 6000 NSC 22/19 Q1016 NOSIG', 'GVNP 070700Z 03018KT 8000 NSC 22/19 Q1015 NOSIG', 'GVNP 070600Z 03016KT 9000 NSC 22/19 Q1015 NOSIG', 'GVNP 070500Z 03013KT 8000 NSC 22/19 Q1015 NOSIG', 'GVNP 070400Z 03014KT 8000 NSC 22/19 Q1015 NOSIG', 'GVNP 070300Z 03013KT 9000 NSC 22/18 Q1016 NOSIG', 'GVNP 070200Z 03013KT 9000 NSC 23/17 Q1016 NOSIG', 'GVNP 070100Z 03013KT 9000 NSC 23/18 Q1016 NOSIG', 'GVNP 070000Z 03013KT 9000 NSC 23/17 Q1017 NOSIG', 'GVNP 062300Z 03011KT CAVOK 23/14 Q1017 NOSIG', 'GVNP 062200Z 02012KT CAVOK 24/14 Q1016 NOSIG', 'GVNP 062000Z 02011KT 9000 NSC 25/12 Q1015 NOSIG', 'GVNP 061900Z 01012KT CAVOK 28/12 Q1014 NOSIG', 'GVNP 061800Z 02012KT CAVOK 29/11 Q1014 NOSIG', 'GVNP 061700Z 03012KT CAVOK 30/13 Q1014 NOSIG', 'GVNP 061600Z 02014KT CAVOK 29/12 Q1014 NOSIG', 'GVNP 061500Z 03015KT CAVOK 30/13 Q1014 NOSIG', 'GVNP 061400Z 04015KT CAVOK 29/15 Q1015 NOSIG', 'GVNP 061300Z 05016KT CAVOK 28/18 Q1016 NOSIG', 'GVNP 061200Z 03017KT CAVOK 27/18 Q1016 NOSIG', 'GVNP 061100Z 04017KT CAVOK 26/16 Q1016 NOSIG', 'GVNP 061000Z 03016KT CAVOK 24/18 Q1015 NOSIG', 'GVNP 060900Z 03015KT CAVOK 22/18 Q1015 NOSIG', 'GVNP 060800Z 03013KT CAVOK 21/18 Q1015 NOSIG', 'GVNP 060700Z 04011KT CAVOK 21/17 Q1014 NOSIG', 'GVNP 060600Z 03008KT CAVOK 21/16 Q1014 NOSIG', 'GVNP 060500Z 03012KT CAVOK 21/16 Q1014 NOSIG', 'GVNP 060400Z 03011KT CAVOK 21/17 Q1014 NOSIG', 'GVNP 060300Z 01009KT CAVOK 22/18 Q1015 NOSIG', 'GVNP 060200Z 01011KT CAVOK 22/18 Q1016 NOSIG', 'GVNP 060100Z 02011KT CAVOK 22/17 Q1016 NOSIG', 'GVNP 060000Z 01012KT CAVOK 23/17 Q1016 NOSIG', 'GVNP 052300Z 01011KT CAVOK 23/16 Q1016 NOSIG', 'GVNP 052200Z 01010KT CAVOK 23/16 Q1016 NOSIG', 'GVNP 052100Z 01009KT CAVOK 24/13 Q1015 NOSIG', 'GVNP 052000Z 03009KT CAVOK 25/08 Q1014 NOSIG', 'GVNP 052000Z 03009KT CAVOK 25/08 Q1014 NOSIG', 'GVNP 051900Z 03013KT CAVOK 27/06 Q1014 NOSIG', 'GVNP 051800Z 03013KT CAVOK 27/16 Q1013 NOSIG', 'GVNP 051700Z 05013KT CAVOK 28/15 Q1013 NOSIG']","['2024-02-08 15:00:00', '2024-02-08 14:00:00', '2024-02-08 13:00:00', '2024-02-08 12:00:00', '2024-02-08 11:00:00', '2024-02-08 10:00:00', '2024-02-08 09:00:00', '2024-02-08 08:00:00', '2024-02-08 07:00:00', '2024-02-08 06:00:00', '2024-02-08 05:00:00', '2024-02-08 04:00:00', '2024-02-08 03:00:00', '2024-02-08 02:00:00', '2024-02-08 01:00:00', '2024-02-08 00:57:00', '2024-02-08 00:00:00', '2024-02-07 23:00:00', '2024-02-07 22:00:00', '2024-02-07 21:00:00', '2024-02-07 20:59:00', '2024-02-07 20:00:00', '2024-02-07 19:00:00', '2024-02-07 18:00:00', '2024-02-07 17:00:00', '2024-02-07 16:00:00', '2024-02-07 15:00:00', '2024-02-07 14:00:00', '2024-02-07 13:00:00', '2024-02-07 12:00:00', '2024-02-07 11:00:00', '2024-02-07 10:00:00', '2024-02-07 09:00:00', '2024-02-07 08:00:00', '2024-02-07 07:00:00', '2024-02-07 06:00:00', '2024-02-07 05:00:00', '2024-02-07 04:00:00', '2024-02-07 03:00:00', '2024-02-07 02:00:00', '2024-02-07 01:00:00', '2024-02-07 00:00:00', '2024-02-06 23:00:00', '2024-02-06 22:00:00', '2024-02-06 20:00:00', '2024-02-06 19:00:00', '2024-02-06 18:00:00', '2024-02-06 17:00:00', '2024-02-06 16:00:00', '2024-02-06 15:00:00', '2024-02-06 14:00:00', '2024-02-06 13:00:00', '2024-02-06 12:00:00', '2024-02-06 11:00:00', '2024-02-06 10:00:00', '2024-02-06 09:00:00', '2024-02-06 08:00:00', '2024-02-06 07:00:00', '2024-02-06 06:00:00', '2024-02-06 05:00:00', '2024-02-06 04:00:00', '2024-02-06 03:00:00', '2024-02-06 02:00:00', '2024-02-06 01:00:00', '2024-02-06 00:00:00', '2024-02-05 23:00:00', '2024-02-05 22:00:00', '2024-02-05 21:00:00', '2024-02-05 20:00:00', '2024-02-05 19:58:00', '2024-02-05 19:00:00', '2024-02-05 18:00:00', '2024-02-05 17:00:00']"
Cayman-islands, Cayman Brac Charles Kirkconnell International Airport (CYB/MWCB) ,"['MWCB 081600Z 04010KT 9999 SCT016 SCT030 25/15 Q1020', 'MWCB 081500Z 03015KT 9999 FEW016 SCT030 24/14 Q1020', 'MWCB 081400Z 02010KT 9999 SCT016 BKN030 24/13 Q1019', 'MWCB 081300Z 03010KT 9999 SCT016 BKN030 23/14 Q1019', 'MWCB 081200Z 05012KT 9999 SCT016 SCT030 23/12 Q1017', 'MWCB 080000Z 33010KT 9999 SCT016 23/13 Q1016', 'MWCB 080000Z 33010KT 9999 SCT016 23/13 Q1016', 'MWCB 072300Z 33010KT 9999 FEW018 23/13 Q1016', 'MWCB 072200Z 33010KT 9999 FEW018 24/14 Q1015', 'MWCB 072100Z 33010KT 9999 SCT018 24/14 Q1015', 'MWCB 072000Z 35012KT 9999 SCT018 25/15 Q1015', 'MWCB 072000Z 35012KT 9999 SCT018 25/15 Q1015', 'MWCB 071900Z 35010KT 9999 SCT018 25/15 Q1016', 'MWCB 071800Z 33010KT 9999 SCT018 25/16 Q1016', 'MWCB 071700Z 01008KT 9999 SCT018TCU 24/16 Q1017', 'MWCB 071600Z 34010KT 9999 SCT018TCU 24/15 Q1017', 'MWCB 071500Z 33006KT 9999 SCT018TCU 24/15 Q1017', 'MWCB 071400Z 32010KT 9999 SCT018TCU 23/15 Q1017', 'MWCB 071300Z 30018KT 9999 SCT018TCU 23/15 Q1016', 'MWCB 071200Z 31012KT 9999 BKN018TCU 23/15 Q1016', 'MWCB 070000Z 33012KT 9999 SCT018TCU 24/16 Q1010', 'MWCB 062300Z 31018KT 9999 SCT018TCU 24/16 Q1010', 'MWCB 062200Z 30020KT 9999 SCT018TCU 24/16 Q1009', 'MWCB 062100Z 30010KT 9999 SCT018TCU 25/16 Q1009', 'MWCB 062100Z 30010KT 9999 SCT018TCU 25/16 Q1009', 'MWCB 062000Z 28020KT 9999 SCT018TCU 25/16 Q1009', 'MWCB 061900Z 31020KT 9999 SCT018TCU 25/16 Q1009', 'MWCB 061800Z 30018KT 9999 SCT018 25/16 Q1010', 'MWCB 061700Z 29010G22KT 9999 FEW018 26/17 Q1010', 'MWCB 061600Z 27012KT 9999 FEW018 25/17 Q1010', 'MWCB 061500Z 27018KT 8000 -SHRA SCT014CB 23/17 Q1009', 'MWCB 061400Z 25012KT 8000 -SHRA SCT014CB 22/17 Q1009', 'MWCB 061300Z 28020KT 8000 -SHRA SCT014CB 22/17 Q1009', 'MWCB 061200Z 27030KT 8000 SCT014CB 23/19 Q1008', 'MWCB 060000Z 27020KT 9999 FEW018 27/16 Q1005', 'MWCB 052300Z 24010G20KT 9999 SCT016 28/21 Q1004', 'MWCB 052200Z 25014G24KT 9999 SCT016 28/21 Q1004', 'MWCB 052100Z 24013KT 9999 SCT016 28/23 Q1003', 'MWCB 052000Z 21011KT 9999 SCT018 29/23 Q1003', 'MWCB 051900Z 21012KT 9999 FEW018 29/23 Q1003', 'MWCB 051900Z 21012KT 9999 FEW018 29/23 Q1003', 'MWCB 051800Z 20012KT 9999 FEW018 30/24 Q1004', 'MWCB 051800Z 20012KT 9999 FEW018 30/24 Q1004', 'MWCB 051700Z 21014KT 9999 FEW018 29/24 Q1005']","['2024-02-08 16:00:00', '2024-02-08 15:00:00', '2024-02-08 14:00:00', '2024-02-08 13:00:00', '2024-02-08 12:00:00', '2024-02-08 00:00:00', '2024-02-07 23:58:00', '2024-02-07 23:00:00', '2024-02-07 22:00:00', '2024-02-07 21:00:00', '2024-02-07 20:00:00', '2024-02-07 19:55:00', '2024-02-07 19:00:00', '2024-02-07 18:00:00', '2024-02-07 17:00:00', '2024-02-07 16:00:00', '2024-02-07 15:00:00', '2024-02-07 14:00:00', '2024-02-07 13:00:00', '2024-02-07 12:00:00', '2024-02-07 00:00:00', '2024-02-06 23:00:00', '2024-02-06 22:00:00', '2024-02-06 21:00:00', '2024-02-06 20:57:00', '2024-02-06 20:00:00', '2024-02-06 19:00:00', '2024-02-06 18:00:00', '2024-02-06 17:00:00', '2024-02-06 16:00:00', '2024-02-06 15:00:00', '2024-02-06 14:00:00', '2024-02-06 13:00:00', '2024-02-06 12:00:00', '2024-02-06 00:00:00', '2024-02-05 23:00:00', '2024-02-05 22:00:00', '2024-02-05 21:00:00', '2024-02-05 20:00:00', '2024-02-05 19:00:00', '2024-02-05 18:58:00', '2024-02-05 18:00:00', '2024-02-05 17:59:00', '2024-02-05 17:00:00']"
Cayman-islands, George Town Owen Roberts International Airport (GCM/MWCR) ,"['MWCR 081600Z 06013KT 9999 FEW018 26/14 Q1019', 'MWCR 081500Z 05011KT 9999 FEW018 25/13 Q1019', 'MWCR 081400Z 06016KT 9999 FEW018 SCT030 24/14 Q1019', 'MWCR 081300Z 05012KT 9999 FEW018 SCT030 24/15 Q1018', 'MWCR 081200Z 05011KT 9999 FEW016 SCT025 23/14 Q1017', 'MWCR 081100Z 05013KT 9999 FEW018 SCT025 23/15 Q1017', 'MWCR 080300Z 02009KT 350V060 9999 FEW018 23/16 Q1018', 'MWCR 080300Z 02009KT 350V060 9999 FEW018 23/16 Q1018', 'MWCR 080200Z 02007KT 340V050 9999 FEW018 23/16 Q1017', 'MWCR 080100Z 02008KT 340V060 9999 FEW022 23/15 Q1017', 'MWCR 080000Z 01008KT 330V050 9999 FEW022 22/14 Q1016', 'MWCR 072300Z 01011KT 330V030 9999 FEW020 23/13 Q1016', 'MWCR 072200Z 36010KT 330V040 9999 FEW020 24/13 Q1016', 'MWCR 072100Z 01010KT 320V060 9999 FEW020 25/12 Q1015', 'MWCR 072000Z 35011KT 320V020 9999 FEW018 25/13 Q1016', 'MWCR 071900Z 01011KT 330V050 9999 FEW018 25/13 Q1016', 'MWCR 071800Z 36010KT 310V050 9999 FEW018 25/11 Q1017', 'MWCR 071700Z 01010KT 330V050 9999 FEW018 25/12 Q1017', 'MWCR 071600Z 01011KT 330V040 9999 FEW018 24/12 Q1018', 'MWCR 071500Z 35010KT 320V030 9999 FEW018 SCT022 24/12 Q1018', 'MWCR 071400Z 35010KT 310V040 9999 FEW018 SCT022 24/13 Q1017', 'MWCR 071300Z 35008KT 310V020 9999 FEW018 SCT022 22/12 Q1016', 'MWCR 071200Z 34009KT 290V010 9999 SCT018 22/12 Q1016', 'MWCR 071100Z 34008KT 310V020 9999 FEW018 22/12 Q1015', 'MWCR 070300Z 32011KT 280V010 9999 FEW018 24/13 Q1013', 'MWCR 070300Z 32011KT 280V010 9999 FEW018 24/13 Q1013', 'MWCR 070200Z 32012KT 280V350 9999 SCT018 24/14 Q1013', 'MWCR 070100Z 32012G22KT 290V360 9999 SCT018 24/14 Q1012', 'MWCR 070000Z 32010KT 9999 SCT018 24/15 Q1011', 'MWCR 062300Z 32011G26KT 280V350 9999 SCT018 25/15 Q1010', 'MWCR 062200Z 31013G25KT 260V350 9999 SCT018 26/15 Q1010', 'MWCR 062100Z 32014G24KT 290V360 9999 SCT020 26/15 Q1010', 'MWCR 062100Z 32014G24KT 290V360 9999 SCT020 26/15 Q1010', 'MWCR 062000Z 31014G25KT 280V020 9999 SCT020 27/16 Q1009', 'MWCR 061900Z 31013G25KT 270V350 9999 SCT020 26/15 Q1009', 'MWCR 061800Z 31013G23KT 280V350 9999 FEW018 SCT035 27/14 Q1010', 'MWCR 061700Z 31013G23KT 280V360 9999 FEW018 25/18 Q1011', 'MWCR 061600Z 30014G26KT 250V340 9999 FEW018 26/16 Q1011', 'MWCR 061500Z 31013G28KT 280V350 9999 FEW018 25/16 Q1010', 'MWCR 061400Z 30018G30KT 270V330 9999 SCT018 25/15 Q1009', 'MWCR 061300Z 29014G23KT 260V320 9999 SCT018 SCT035 23/17 Q1009', 'MWCR 061200Z 29018G28KT 260V320 9999 FEW018 SCT035 23/16 Q1008', 'MWCR 061100Z 29018KT 9999 FEW022 24/17 Q1007', 'MWCR 060400Z 28014KT 9999 FEW022 26/16 Q1006', 'MWCR 060400Z 28014KT 9999 FEW022 26/16 Q1006', 'MWCR 060300Z 27018G28KT 9999 FEW022 26/14 Q1006', 'MWCR 060200Z 27018G31KT CAVOK 26/14 Q1006', 'MWCR 060100Z 27019G30KT 9999 FEW022 26/14 Q1006', 'MWCR 060000Z 28018G30KT 9999 FEW022 26/15 Q1005', 'MWCR 052300Z 29017G29KT 260V330 9999 FEW024 27/13 Q1005', 'MWCR 052200Z 29017G34KT CAVOK 28/12 Q1004', 'MWCR 052100Z 28018G29KT 9999 FEW022 29/15 Q1004', 'MWCR 052000Z 28017KT 9999 FEW018TCU 29/18 Q1004', 'MWCR 051900Z 28012G23KT 9999 SCT018TCU 28/22 Q1004', 'MWCR 051800Z 24016G26KT 9999 FEW018 BKN035 29/24 Q1004', 'MWCR 051700Z 31009KT 8000 VCSH SCT014 BKN035 29/24 Q1005']","['2024-02-08 16:00:00', '2024-02-08 15:00:00', '2024-02-08 14:00:00', '2024-02-08 13:00:00', '2024-02-08 12:00:00', '2024-02-08 11:00:00', '2024-02-08 03:00:00', '2024-02-08 02:51:00', '2024-02-08 02:00:00', '2024-02-08 01:00:00', '2024-02-08 00:00:00', '2024-02-07 23:00:00', '2024-02-07 22:00:00', '2024-02-07 21:00:00', '2024-02-07 20:00:00', '2024-02-07 19:00:00', '2024-02-07 18:00:00', '2024-02-07 17:00:00', '2024-02-07 16:00:00', '2024-02-07 15:00:00', '2024-02-07 14:00:00', '2024-02-07 13:00:00', '2024-02-07 12:00:00', '2024-02-07 11:00:00', '2024-02-07 03:00:00', '2024-02-07 02:56:00', '2024-02-07 02:00:00', '2024-02-07 01:00:00', '2024-02-07 00:00:00', '2024-02-06 23:00:00', '2024-02-06 22:00:00', '2024-02-06 21:00:00', '2024-02-06 20:59:00', '2024-02-06 20:00:00', '2024-02-06 19:00:00', '2024-02-06 18:00:00', '2024-02-06 17:00:00', '2024-02-06 16:00:00', '2024-02-06 15:00:00', '2024-02-06 14:00:00', '2024-02-06 13:00:00', '2024-02-06 12:00:00', '2024-02-06 11:00:00', '2024-02-06 04:00:00', '2024-02-06 03:52:00', '2024-02-06 03:00:00', '2024-02-06 02:00:00', '2024-02-06 01:00:00', '2024-02-06 00:00:00', '2024-02-05 23:00:00', '2024-02-05 22:00:00', '2024-02-05 21:00:00', '2024-02-05 20:00:00', '2024-02-05 19:00:00', '2024-02-05 18:00:00', '2024-02-05 17:00:00']"
Central-african-republic, Bangui Airport (BGF/FEFF) ,"['FEFF 081500Z 24006KT 210V270 CAVOK 37/09 Q1009 NOSIG', 'FEFF 081430Z 28005KT CAVOK 37/09 Q1009 NOSIG', 'FEFF 081330Z 30004KT 250V010 CAVOK 37/08 Q1009 NOSIG', 'FEFF 081300Z 30005KT 250V010 CAVOK 37/08 Q1009 NOSIG', 'FEFF 081200Z 34004KT 270V070 CAVOK 35/07 Q1011 NOSIG', 'FEFF 081130Z 34007KT 280V030 CAVOK 35/07 Q1012 NOSIG', 'FEFF 081100Z 33008KT 290V360 CAVOK 34/07 Q1013 NOSIG', 'FEFF 081030Z 34007KT 310V030 CAVOK 34/07 Q1013 NOSIG', 'FEFF 081000Z 32008KT 270V010 CAVOK 32/07 Q1014 NOSIG', 'FEFF 080930Z 33009KT 290V010 CAVOK 31/06 Q1015 NOSIG', 'FEFF 080900Z 32009KT 9000 NSC 30/07 Q1015 NOSIG', 'FEFF 080830Z 34006KT 300V010 9000 NSC 29/10 Q1015 NOSIG', 'FEFF 080800Z VRB02KT 2700 BR NSC 27/15 Q1015 BECMG 4000 BR', 'FEFF 080730Z 00000KT 2700 BR NSC 25/16 Q1015 BECMG 4000 BR', 'FEFF 080700Z VRB01KT 2900 BR NSC 23/16 Q1015 BECMG 4000 BR', 'FEFF 080630Z 00000KT 1300 R34/P2000N BR NSC 21/17 Q1015 TEMPO 0800 FG', 'FEFF 080600Z 27002KT 2500 BR NSC 19/17 Q1014 TEMPO 1200 BR', 'FEFF 080500Z VRB02KT 8000 NSC 19/16 Q1014 NOSIG', 'FEFF 080400Z 34007KT 7000 NSC 19/16 Q1013 NOSIG', 'FEFF 080030Z 33004KT 7000 NSC 21/16 Q1012 NOSIG', 'FEFF 080000Z 34005KT 6000 NSC 21/16 Q1012 NOSIG NOSIG', 'FEFF 072200Z VRB01KT 2600 HZ NSC 22/17 Q1013 BECMG 6000', 'FEFF 072130Z 00000KT 2000 HZ NSC 23/17 Q1013 BECMG 6000', 'FEFF 072100Z 00000KT 2300 HZ NSC 23/17 Q1013 NOSIG', 'FEFF 072000Z 00000KT 2500 HZ NSC 24/17 Q1013 NOSIG', 'FEFF 071700Z VRB02KT 7000 3300 NSC 30/15 Q1011 TEMPO 4000 HZ', 'FEFF 071630Z 20005KT 7000 NSC 32/13 Q1010 TEMPO 4000 HZ', 'FEFF 071600Z 20005KT 6000 NSC 34/13 Q1010 NOSIG', 'FEFF 071530Z 19005KT CAVOK 35/13 Q1010 NOSIG', 'FEFF 071430Z 20006KT 180V250 CAVOK 36/11 Q1010 NOSIG', 'FEFF 071400Z 27004KT 200V300 CAVOK 36/10 Q1010 NOSIG', 'FEFF 071330Z VRB05KT CAVOK 36/09 Q1011 NOSIG', 'FEFF 071300Z 34004KT CAVOK 36/09 Q1011 NOSIG', 'FEFF 071200Z 21004KT CAVOK 36/08 Q1012 NOSIG', 'FEFF 071030Z 35004KT CAVOK 32/08 Q1014 NOSIG', 'FEFF 071000Z 34006KT 9999 NSC 31/07 Q1015 NOSIG', 'FEFF 070930Z 35008KT CAVOK 30/07 Q1016 NOSIG', 'FEFF 070900Z 34008KT 300V020 CAVOK 29/07 Q1016 NOSIG', 'FEFF 070800Z 34009KT 7000 NSC 27/09 Q1016 NOSIG', 'FEFF 070700Z 34005KT 2500 BR NSC 23/16 Q1016 BECMG 4000 BR', 'FEFF 070630Z 34003KT 1200 BR NSC 21/18 Q1016 BECMG 3000 BR', 'FEFF 070600Z 33004KT 2500 BR NSC 19/17 Q1016 TEMPO 1200 BR', 'FEFF 070530Z 31004KT 2500 BR NSC 19/18 Q1015 TEMPO 1200 BR', 'FEFF 070500Z 34003KT 4000 BR NSC 18/16 Q1015 TEMPO 2000 BR', 'FEFF 070430Z 32004KT 8000 NSC 18/16 Q1014 BECMG 4000 BR', 'FEFF 070400Z 33004KT 8000 NSC 18/16 Q1014 NOSIG', 'FEFF 070330Z 30002KT 8000 NSC 19/16 Q1014 NOSIG', 'FEFF 070300Z 34002KT 8000 NSC 19/16 Q1013 NOSIG', 'FEFF 070230Z 23002KT 8000 NSC 20/17 Q1014 NOSIG', 'FEFF 070200Z 00000KT 8000 NSC 20/17 Q1014 NOSIG', 'FEFF 070030Z 00000KT 7000 NSC 21/17 Q1014 NOSIG', 'FEFF 062330Z 00000KT 7000 NSC 22/18 Q1014 NOSIG', 'FEFF 062300Z 31002KT 7000 NSC 22/18 Q1014 NOSIG', 'FEFF 062130Z 34003KT 7000 NSC 23/17 Q1014 NOSIG', 'FEFF 062100Z 35002KT 7000 NSC 23/17 Q1014 NOSIG', 'FEFF 062030Z 00000KT 6000 NSC 23/18 Q1014 NOSIG', 'FEFF 061900Z 00000KT 3000 HZFU NSC 24/17 Q1012 BECMG 6000 NSW', 'FEFF 061830Z 00000KT 3000 HZFU NSC 25/17 Q1012 BECMG 6000 NSW', 'FEFF 061800Z VRB02KT 3000 HZFU NSC 26/17 Q1011 BECMG 6000 NSW', 'FEFF 061730Z 05002KT 3000 HZFU NSC 28/15 Q1011 TEMPO 1500 HZ', 'FEFF 061700Z 14004KT 3000 HZFU NSC 30/14 Q1011 TEMPO 1500 HZ', 'FEFF 061630Z 17004KT 3000 HZFU NSC 32/14 Q1011 TEMPO 1500 HZ', 'FEFF 061600Z VRB04KT 7000 NSC 33/16 Q1010 BECMG 3000 HZ', 'FEFF 061530Z 17007KT 7000 NSC 35/11 Q1010 NOSIG', 'FEFF 061500Z 17008KT 8000 NSC 35/11 Q1010 NOSIG', 'FEFF 061430Z 18008KT CAVOK 36/11 Q1010 NOSIG', 'FEFF 061400Z 13008KT CAVOK 36/10 Q1010 NOSIG', 'FEFF 061300Z 15005KT 080V210 CAVOK 35/10 Q1011 NOSIG', 'FEFF 061200Z 17005KT 120V210 CAVOK 35/08 Q1013 NOSIG', 'FEFF 061130Z 15006KT CAVOK 34/08 Q1013 NOSIG', 'FEFF 061000Z 30005KT 260V340 CAVOK 31/07 Q1015 NOSIG', 'FEFF 060930Z 32006KT CAVOK 29/09 Q1015 NOSIG', 'FEFF 060900Z 33008KT CAVOK 29/09 Q1016 NOSIG', 'FEFF 060830Z 33012KT 8000 NSC 29/09 Q1016 NOSIG', 'FEFF 060800Z 33012KT 6000 NSC 28/10 Q1016 NOSIG', 'FEFF 060730Z 33006KT 4000 HZ NSC 27/10 Q1017 BECMG 6000', 'FEFF 060700Z 32003KT 4000 BR NSC 24/16 Q1016 BECMG 6000', 'FEFF 060630Z 32002KT 2500 BR NSC 21/17 Q1016 NOSIG', 'FEFF 060600Z 32002KT 2500 BR NSC 19/17 Q1016 TEMPO 1200 BR', 'FEFF 060500Z VRB02KT 6000 NSC 19/18 Q1016 BECMG 4000 BR', 'FEFF 060430Z VRB02KT 8000 NSC 19/17 Q1016 NOSIG', 'FEFF 060400Z 00000KT 8000 NSC 23/20 Q1015 NOSIG', 'FEFF 060330Z 00000KT 8000 NSC 23/20 Q1015 NOSIG', 'FEFF 060300Z 00000KT 8000 NSC 22/21 Q1014 NOSIG', 'FEFF 060200Z 00000KT 8000 NSC 23/20 Q1014 NOSIG', 'FEFF 060130Z 00000KT 8000 NSC 23/21 Q1015 NOSIG', 'FEFF 060100Z 00000KT 8000 NSC 26/21 Q1014 NOSIG', 'FEFF 060030Z 00000KT 8000 NSC 24/20 Q1014 NOSIG', 'FEFF 060000Z 00000KT 8000 NSC 24/20 Q1014 NOSIG', 'FEFF 052330Z 00000KT 8000 NSC 24/20 Q1015 NOSIG', 'FEFF 052200Z 00000KT 6000 NSC 26/21 Q1015 NOSIG', 'FEFF 052130Z 00000KT 6000 NSC 26/21 Q1015 NOSIG', 'FEFF 052100Z 00000KT 6000 NSC 26/21 Q1015 NOSIG', 'FEFF 052030Z 00000KT 6000 NSC 26/21 Q1014 NOSIG', 'FEFF 051930Z 00000KT 6000 NSC 26/18 Q1014 NOSIG', 'FEFF 051700Z 14004KT 3000 HZ NSC 31/16 Q1011 NOSIG', 'FEFF 051630Z 16004KT 3000 HZ NSC 34/18 Q1011 NOSIG']","['2024-02-08 15:00:00', '2024-02-08 14:30:00', '2024-02-08 13:30:00', '2024-02-08 13:00:00', '2024-02-08 12:00:00', '2024-02-08 11:30:00', '2024-02-08 11:00:00', '2024-02-08 10:30:00', '2024-02-08 10:00:00', '2024-02-08 09:30:00', '2024-02-08 09:00:00', '2024-02-08 08:30:00', '2024-02-08 08:00:00', '2024-02-08 07:30:00', '2024-02-08 07:00:00', '2024-02-08 06:30:00', '2024-02-08 06:00:00', '2024-02-08 05:00:00', '2024-02-08 04:00:00', '2024-02-08 00:30:00', '2024-02-08 00:00:00', '2024-02-07 22:00:00', '2024-02-07 21:30:00', '2024-02-07 21:00:00', '2024-02-07 20:00:00', '2024-02-07 17:00:00', '2024-02-07 16:30:00', '2024-02-07 16:00:00', '2024-02-07 15:30:00', '2024-02-07 14:30:00', '2024-02-07 14:00:00', '2024-02-07 13:30:00', '2024-02-07 13:00:00', '2024-02-07 12:00:00', '2024-02-07 10:30:00', '2024-02-07 10:00:00', '2024-02-07 09:30:00', '2024-02-07 09:00:00', '2024-02-07 08:00:00', '2024-02-07 07:00:00', '2024-02-07 06:30:00', '2024-02-07 06:00:00', '2024-02-07 05:30:00', '2024-02-07 05:00:00', '2024-02-07 04:30:00', '2024-02-07 04:00:00', '2024-02-07 03:30:00', '2024-02-07 03:00:00', '2024-02-07 02:30:00', '2024-02-07 02:00:00', '2024-02-07 00:30:00', '2024-02-06 23:30:00', '2024-02-06 23:00:00', '2024-02-06 21:30:00', '2024-02-06 21:00:00', '2024-02-06 20:30:00', '2024-02-06 19:00:00', '2024-02-06 18:30:00', '2024-02-06 18:00:00', '2024-02-06 17:30:00', '2024-02-06 17:00:00', '2024-02-06 16:30:00', '2024-02-06 16:00:00', '2024-02-06 15:30:00', '2024-02-06 15:00:00', '2024-02-06 14:30:00', '2024-02-06 14:00:00', '2024-02-06 13:00:00', '2024-02-06 12:00:00', '2024-02-06 11:30:00', '2024-02-06 10:00:00', '2024-02-06 09:30:00', '2024-02-06 09:00:00', '2024-02-06 08:30:00', '2024-02-06 08:00:00', '2024-02-06 07:30:00', '2024-02-06 07:00:00', '2024-02-06 06:30:00', '2024-02-06 06:00:00', '2024-02-06 05:00:00', '2024-02-06 04:30:00', '2024-02-06 04:00:00', '2024-02-06 03:30:00', '2024-02-06 03:00:00', '2024-02-06 02:00:00', '2024-02-06 01:30:00', '2024-02-06 01:00:00', '2024-02-06 00:30:00', '2024-02-06 00:00:00', '2024-02-05 23:30:00', '2024-02-05 22:00:00', '2024-02-05 21:30:00', '2024-02-05 21:00:00', '2024-02-05 20:30:00', '2024-02-05 19:30:00', '2024-02-05 17:00:00', '2024-02-05 16:30:00']"
Chad, N'Djamena International Airport (NDJ/FTTJ) ,"['FTTJ 081500Z 36006KT 320V030 8000 NSC 32/M08 Q1012 NOSIG', 'FTTJ 081400Z 33007KT 280V040 7000 NSC 32/M06 Q1012 NOSIG', 'FTTJ 081300Z VRB05KT 7000 NSC 31/M05 Q1013 NOSIG', 'FTTJ 081200Z 32005KT 240V360 6000 NSC 31/M05 Q1014 NOSIG', 'FTTJ 081100Z 01007KT 330V040 6000 NSC 29/M03 Q1016 NOSIG', 'FTTJ 081000Z 04008KT 360V070 4500 DU NSC 27/M04 Q1017 NOSIG', 'FTTJ 080900Z 02010KT 4500 DU NSC 25/M04 Q1017 NOSIG', 'FTTJ 080800Z 03010KT 4000 DU NSC 21/M03 Q1017 TEMPO 6000 NSW', 'FTTJ 080700Z 03008KT 360V060 4000 DU NSC 19/M03 Q1017 TEMPO 6000 NSW', 'FTTJ 080600Z 01005KT 4000 DU NSC 16/M03 Q1016 TEMPO 6000 NSW', 'FTTJ 080500Z 01006KT 6000 NSC 16/M04 Q1015 NOSIG', 'FTTJ 080400Z 02006KT 6000 NSC 17/M04 Q1015 NOSIG', 'FTTJ 080300Z 01006KT 6000 NSC 17/M04 Q1014 NOSIG', 'FTTJ 080000Z 01009KT 6000 NSC 21/M05 Q1015 NOSIG', 'FTTJ 072300Z 01009KT 6000 NSC 22/M05 Q1016 NOSIG', 'FTTJ 072200Z 36006KT 6000 NSC 22/M04 Q1016 NOSIG', 'FTTJ 072100Z 36006KT 6000 NSC 23/M02 Q1016 NOSIG', 'FTTJ 072000Z 36005KT 6000 NSC 23/M02 Q1015 NOSIG', 'FTTJ 071900Z 36005KT 6000 NSC 25/M02 Q1015 NOSIG', 'FTTJ 071800Z 36007KT 4000 DU NSC 27/M02 Q1014 NOSIG', 'FTTJ 071700Z 36007KT 6000 NSC 28/M05 Q1014 TEMPO 4000 DU', 'FTTJ 071600Z 35008KT 6000 NSC 30/M05 Q1013 TEMPO 4000 DU', 'FTTJ 071500Z 33007KT 330V040 6000 NSC 31/M06 Q1013 NOSIG', 'FTTJ 071400Z 02008KT 330V060 6000 NSC 31/M04 Q1014 NOSIG', 'FTTJ 071200Z 05010KT 350V100 6000 NSC 29/M04 Q1016 NOSIG', 'FTTJ 071100Z 03010KT 350V050 5000 DU NSC 27/M06 Q1017 NOSIG', 'FTTJ 071000Z 06012KT 020V090 5000 DU NSC 26/M04 Q1018 TEMPO 6000 NSW', 'FTTJ 070800Z 03012KT 4000 DU NSC 21/M04 Q1018 TEMPO 6000 NSW', 'FTTJ 070600Z 02008KT 3000 DU NSC 17/M05 Q1017 NOSIG', 'FTTJ 061700Z 02010KT 1800 DU NSC 28/M07 Q1016 TEMPO 1400 DU', 'FTTJ 061600Z 04012KT 2100 DU NSC 30/M07 Q1015 TEMPO 1400 DU', 'FTTJ 061500Z 04014KT 2100 DU NSC 31/M07 Q1015 TEMPO 1400 DU', 'FTTJ 061400Z 04012KT 350V070 2100 DU NSC 31/M07 Q1015 TEMPO 1400 DU', 'FTTJ 061300Z 04011KT 010V080 2100 DU NSC 31/M07 Q1016 BECMG 1400 DU', 'FTTJ 061200Z 03013G24KT 350V080 2500 BLDU NSC 30/M07 Q1017 TEMPO 1200 BLDU', 'FTTJ 061100Z 04014KT 360V070 2500 BLDU NSC 29/M06 Q1018 TEMPO 1200 BLDU', 'FTTJ 061000Z 05016KT 3000 BLDU NSC 26/M07 Q1020 TEMPO 2500 BLDU', 'FTTJ 060900Z 05016KT 3000 BLDU NSC 24/M06 Q1020 TEMPO 2500 BLDU', 'FTTJ 060800Z 04015KT 3500 DU NSC 22/M05 Q1020 NOSIG', 'FTTJ 060700Z 02008KT 3500 DU NSC 19/M05 Q1019 NOSIG', 'FTTJ 060500Z 03006KT 3500 DU NSC 17/M06 Q1018 NOSIG', 'FTTJ 060400Z 02009KT 2500 DU NSC 19/M06 Q1018 NOSIG', 'FTTJ 060300Z 02008KT 2500 DU NSC 19/M07 Q1017 NOSIG', 'FTTJ 060100Z 03010KT 360V060 1300 R05/1000 DU NSC 21/M07 Q1019 NOSIG', 'FTTJ 060000Z 02013KT 1100 R05/1000 DU NSC 22/M07 Q1019 NOSIG', 'FTTJ 052300Z 03013KT 1100 R05/1000 DU NSC 23/M06 Q1019 NOSIG', 'FTTJ 052200Z 03012KT 1600 DU NSC 23/M06 Q1019 TEMPO 1200 DU', 'FTTJ 052100Z 03014KT 1600 DU NSC 24/M06 Q1019 TEMPO 1200 DU', 'FTTJ 052000Z 03014KT 350V050 1600 DU NSC 25/M06 Q1018 TEMPO 1200 DU', 'FTTJ 051900Z 02012KT 2500 DU NSC 26/M06 Q1018 NOSIG', 'FTTJ 051800Z 01010KT 2500 DU NSC 27/M06 Q1017 BECMG 1200 DU', 'FTTJ 051700Z 02011KT 2500 DU NSC 28/M08 Q1016 NOSIG']","['2024-02-08 15:00:00', '2024-02-08 14:00:00', '2024-02-08 13:00:00', '2024-02-08 12:00:00', '2024-02-08 11:00:00', '2024-02-08 10:00:00', '2024-02-08 09:00:00', '2024-02-08 08:00:00', '2024-02-08 07:00:00', '2024-02-08 06:00:00', '2024-02-08 05:00:00', '2024-02-08 04:00:00', '2024-02-08 03:00:00', '2024-02-08 00:00:00', '2024-02-07 23:00:00', '2024-02-07 22:00:00', '2024-02-07 21:00:00', '2024-02-07 20:00:00', '2024-02-07 19:00:00', '2024-02-07 18:00:00', '2024-02-07 17:00:00', '2024-02-07 16:00:00', '2024-02-07 15:00:00', '2024-02-07 14:00:00', '2024-02-07 12:00:00', '2024-02-07 11:00:00', '2024-02-07 10:00:00', '2024-02-07 08:00:00', '2024-02-07 06:00:00', '2024-02-06 17:00:00', '2024-02-06 16:00:00', '2024-02-06 15:00:00', '2024-02-06 14:00:00', '2024-02-06 13:00:00', '2024-02-06 12:00:00', '2024-02-06 11:00:00', '2024-02-06 10:00:00', '2024-02-06 09:00:00', '2024-02-06 08:00:00', '2024-02-06 07:00:00', '2024-02-06 05:00:00', '2024-02-06 04:00:00', '2024-02-06 03:00:00', '2024-02-06 01:00:00', '2024-02-06 00:00:00', '2024-02-05 23:00:00', '2024-02-05 22:00:00', '2024-02-05 21:00:00', '2024-02-05 20:00:00', '2024-02-05 19:00:00', '2024-02-05 18:00:00', '2024-02-05 17:00:00']"
Chile, Antofagasta International Airport (ANF/SCFA) ,"['SCFA 081500Z 19009KT 9999 SCT011 23/18 Q1014 NOSIG', 'SCFA 081400Z 20008KT 170V230 9999 SCT011 23/19 Q1014 NOSIG', 'SCFA 081300Z 19005KT 9999 SCT011 22/19 Q1014 NOSIG', 'SCFA 081200Z 19006KT 9999 BKN011 22/19 Q1013 NOSIG', 'SCFA 081100Z 19007KT 9999 BKN010 21/19 Q1013 NOSIG', 'SCFA 081000Z 19006KT 9999 OVC011 21/18 Q1012 NOSIG', 'SCFA 080900Z 20006KT 9999 BKN008 21/19 Q1012 NOSIG', 'SCFA 080800Z 19005KT 9999 BKN008 21/19 Q1012 NOSIG', 'SCFA 080700Z 19006KT 9999 BKN009 21/19 Q1012 NOSIG', 'SCFA 080600Z 21006KT 9999 SCT009 21/19 Q1013 NOSIG', 'SCFA 080500Z 19004KT 9999 BKN009 21/19 Q1013 NOSIG', 'SCFA 080400Z 19006KT 9999 SCT007 22/19 Q1013 NOSIG', 'SCFA 080300Z 19006KT CAVOK 22/20 Q1013 NOSIG', 'SCFA 080200Z 20007KT CAVOK 22/20 Q1013 NOSIG', 'SCFA 080100Z 20006KT CAVOK 23/18 Q1012 NOSIG', 'SCFA 080000Z 17008KT CAVOK 23/17 Q1012 NOSIG', 'SCFA 072300Z 19008KT CAVOK 24/18 Q1011 NOSIG', 'SCFA 072200Z 18011KT CAVOK 25/17 Q1011 NOSIG', 'SCFA 072100Z 19011KT CAVOK 25/17 Q1011 NOSIG', 'SCFA 072000Z 20011KT 9999 FEW020 25/18 Q1011 NOSIG', 'SCFA 071900Z 19009KT 9999 FEW020 25/18 Q1012 NOSIG', 'SCFA 071800Z 20012KT 9999 FEW020 25/18 Q1013 NOSIG', 'SCFA 071700Z 20012KT 9999 FEW016 24/19 Q1013 NOSIG', 'SCFA 071500Z 20009KT 9999 FEW009 24/19 Q1014 NOSIG', 'SCFA 071400Z 21009KT 9999 FEW015 24/10 Q1014 NOSIG', 'SCFA 071300Z 20007KT 9999 FEW009 23/19 Q1014 NOSIG', 'SCFA 071200Z 21009KT 9999 BKN009 22/20 Q1013 NOSIG', 'SCFA 071100Z 18006KT 9999 BKN008 21/19 Q1013 NOSIG', 'SCFA 071000Z 16003KT 9999 FEW010 BKN210 21/19 Q1013 NOSIG', 'SCFA 070900Z 19004KT 9999 FEW007 BKN210 22/19 Q1012 NOSIG', 'SCFA 070800Z 22003KT 9999 FEW007 BKN200 22/19 Q1012 NOSIG', 'SCFA 070700Z 19005KT 9999 SCT007 22/20 Q1012 NOSIG', 'SCFA 070600Z 20005KT 9999 SCT007 22/20 Q1012 NOSIG', 'SCFA 070500Z 16005KT 9999 FEW008 23/20 Q1013 NOSIG', 'SCFA 070400Z 16006KT 9999 FEW040 23/20 Q1013 NOSIG', 'SCFA 070300Z 19006KT 9999 FEW040 BKN210 23/19 Q1013 NOSIG', 'SCFA 070200Z 17006KT 9999 SCT040 SCT220 24/18 Q1013 NOSIG', 'SCFA 070100Z 17004KT 9999 FEW033 24/18 Q1013 NOSIG', 'SCFA 070000Z 18006KT 9999 FEW033 24/19 Q1012 NOSIG', 'SCFA 062300Z 17008KT CAVOK 25/17 Q1012 NOSIG', 'SCFA 062200Z 19010KT CAVOK 26/17 Q1011 NOSIG', 'SCFA 062100Z 20009KT 9999 FEW028 27/17 Q1012 NOSIG', 'SCFA 062000Z 18011KT 9999 FEW028 26/17 Q1012 NOSIG', 'SCFA 061900Z 19012KT 9999 FEW028 27/17 Q1012 NOSIG', 'SCFA 061800Z 20011KT 9999 FEW028 27/17 Q1013 NOSIG', 'SCFA 061700Z 20011KT 9999 FEW028 26/18 Q1013 NOSIG', 'SCFA 061600Z 20013KT 9999 FEW028 26/20 Q1014 NOSIG', 'SCFA 061500Z 24003KT 9999 FEW028 27/17 Q1014 NOSIG', 'SCFA 061400Z 20003KT 9999 FEW028 25/18 Q1015 NOSIG', 'SCFA 061300Z 20006KT 9999 FEW028 23/18 Q1015 NOSIG', 'SCFA 061200Z 24002KT 9999 FEW028 23/17 Q1014 NOSIG', 'SCFA 061100Z 27001KT 9999 FEW028 22/16 Q1014 NOSIG', 'SCFA 061000Z 04004KT 9999 FEW023 SCT200 22/16 Q1014 NOSIG', 'SCFA 060900Z 36004KT CAVOK 22/16 Q1013 NOSIG', 'SCFA 060800Z 06002KT CAVOK 22/16 Q1013 NOSIG', 'SCFA 060700Z 04004KT CAVOK 23/17 Q1013 NOSIG', 'SCFA 060600Z 35004KT CAVOK 22/16 Q1013 NOSIG', 'SCFA 060500Z 10001KT 9999 SCT025 23/17 Q1013 NOSIG', 'SCFA 060400Z 15002KT 9999 FEW025 23/17 Q1013 NOSIG', 'SCFA 060300Z 16003KT 9999 FEW028 24/17 Q1014 NOSIG', 'SCFA 060200Z 17004KT 9999 FEW028 24/18 Q1014 NOSIG', 'SCFA 060100Z 18005KT 140V210 9999 FEW031 24/18 Q1013 NOSIG', 'SCFA 060000Z 17007KT 9999 BKN042 24/17 Q1012 NOSIG', 'SCFA 052300Z 19008KT 9999 BKN041 25/18 Q1012 NOSIG', 'SCFA 052200Z 19009KT 9999 SCT043 26/17 Q1011 NOSIG', 'SCFA 052100Z 18008KT 9999 BKN046 26/16 Q1011 NOSIG', 'SCFA 052000Z 19010KT 9999 BKN050 26/17 Q1012 NOSIG', 'SCFA 051900Z 19011KT 9999 SCT050 26/17 Q1012 NOSIG', 'SCFA 051800Z 19011KT 9999 SCT050 26/17 Q1012 NOSIG', 'SCFA 051700Z 20012KT 9999 FEW050 26/18 Q1013 NOSIG']","['2024-02-08 15:00:00', '2024-02-08 14:00:00', '2024-02-08 13:00:00', '2024-02-08 12:00:00', '2024-02-08 11:00:00', '2024-02-08 10:00:00', '2024-02-08 09:00:00', '2024-02-08 08:00:00', '2024-02-08 07:00:00', '2024-02-08 06:00:00', '2024-02-08 05:00:00', '2024-02-08 04:00:00', '2024-02-08 03:00:00', '2024-02-08 02:00:00', '2024-02-08 01:00:00', '2024-02-08 00:00:00', '2024-02-07 23:00:00', '2024-02-07 22:00:00', '2024-02-07 21:00:00', '2024-02-07 20:00:00', '2024-02-07 19:00:00', '2024-02-07 18:00:00', '2024-02-07 17:00:00', '2024-02-07 15:00:00', '2024-02-07 14:00:00', '2024-02-07 13:00:00', '2024-02-07 12:00:00', '2024-02-07 11:00:00', '2024-02-07 10:00:00', '2024-02-07 09:00:00', '2024-02-07 08:00:00', '2024-02-07 07:00:00', '2024-02-07 06:00:00', '2024-02-07 05:00:00', '2024-02-07 04:00:00', '2024-02-07 03:00:00', '2024-02-07 02:00:00', '2024-02-07 01:00:00', '2024-02-07 00:00:00', '2024-02-06 23:00:00', '2024-02-06 22:00:00', '2024-02-06 21:00:00', '2024-02-06 20:00:00', '2024-02-06 19:00:00', '2024-02-06 18:00:00', '2024-02-06 17:00:00', '2024-02-06 16:00:00', '2024-02-06 15:00:00', '2024-02-06 14:00:00', '2024-02-06 13:00:00', '2024-02-06 12:00:00', '2024-02-06 11:00:00', '2024-02-06 10:00:00', '2024-02-06 09:00:00', '2024-02-06 08:00:00', '2024-02-06 07:00:00', '2024-02-06 06:00:00', '2024-02-06 05:00:00', '2024-02-06 04:00:00', '2024-02-06 03:00:00', '2024-02-06 02:00:00', '2024-02-06 01:00:00', '2024-02-06 00:00:00', '2024-02-05 23:00:00', '2024-02-05 22:00:00', '2024-02-05 21:00:00', '2024-02-05 20:00:00', '2024-02-05 19:00:00', '2024-02-05 18:00:00', '2024-02-05 17:00:00']"
Chile, Arica Chacalluta International Airport (ARI/SCAR) ,"['SCAR 081500Z 25010KT CAVOK 27/18 Q1011', 'SCAR 081400Z 30004KT CAVOK 28/19 Q1011', 'SCAR 081300Z VRB02KT CAVOK 26/19 Q1011', 'SCAR 081200Z VRB02KT CAVOK 25/18 Q1011', 'SCAR 081100Z 09003KT CAVOK 23/17 Q1011', 'SCAR 081000Z 14003KT CAVOK 23/18 Q1011', 'SCAR 080900Z 27002KT CAVOK 25/18 Q1011', 'SCAR 080800Z 18003KT CAVOK 25/18 Q1011', 'SCAR 080700Z 15002KT 9999 SCT064 25/18 Q1012', 'SCAR 080600Z 20004KT 160V230 9999 OVC065 25/18 Q1013', 'SCAR 080500Z 26006KT 9999 OVC063 26/19 Q1013', 'SCAR 080400Z 28006KT 9999 BKN061 26/19 Q1013', 'SCAR 080300Z 31006KT 9999 FEW062 SCT085 26/18 Q1014', 'SCAR 080200Z 36004KT CAVOK 26/18 Q1013', 'SCAR 080100Z 32005KT CAVOK 26/18 Q1012', 'SCAR 080000Z 27005KT 230V310 CAVOK 25/18 Q1011', 'SCAR 072300Z 22009KT CAVOK 25/18 Q1010', 'SCAR 072200Z 21014KT CAVOK 26/19 Q1009', 'SCAR 072100Z 21016KT CAVOK 26/19 Q1009', 'SCAR 072000Z 21012KT CAVOK 27/20 Q1009', 'SCAR 071900Z 23012KT CAVOK 26/19 Q1010', 'SCAR 071800Z 23012KT CAVOK 27/20 Q1011', 'SCAR 071700Z 22013KT CAVOK 27/21 Q1011', 'SCAR 071600Z 23010KT CAVOK 27/19 Q1012', 'SCAR 071500Z 22008KT CAVOK 26/19 Q1012', 'SCAR 071400Z 26004KT CAVOK 26/20 Q1013', 'SCAR 071300Z 29003KT CAVOK 25/20 Q1013', 'SCAR 071200Z 35003KT CAVOK 24/20 Q1012', 'SCAR 071100Z VRB02KT CAVOK 24/19 Q1012', 'SCAR 071000Z 01003KT CAVOK 24/18 Q1011', 'SCAR 070900Z 32002KT 9999 SCT040 24/19 Q1011', 'SCAR 070800Z 35003KT CAVOK 24/19 Q1011', 'SCAR 070700Z 25002KT CAVOK 24/19 Q1011', 'SCAR 070600Z 28004KT CAVOK 24/19 Q1012', 'SCAR 070500Z 15003KT CAVOK 24/20 Q1013', 'SCAR 070400Z 12004KT CAVOK 24/20 Q1013', 'SCAR 070300Z 22003KT 170V240 CAVOK 25/20 Q1013', 'SCAR 070200Z 27004KT 200V290 CAVOK 25/20 Q1013', 'SCAR 070100Z VRB02KT CAVOK 25/20 Q1013', 'SCAR 070000Z 24003KT 210V280 CAVOK 25/20 Q1012', 'SCAR 062300Z 19005KT CAVOK 25/20 Q1011', 'SCAR 062200Z 20010KT CAVOK 26/21 Q1010', 'SCAR 062100Z 21012KT CAVOK 26/20 Q1010', 'SCAR 062000Z 21013KT CAVOK 27/21 Q1010', 'SCAR 061900Z 21016KT CAVOK 27/18 Q1010', 'SCAR 061800Z 21015KT CAVOK 27/18 Q1011', 'SCAR 061700Z 20012KT CAVOK 27/17 Q1012', 'SCAR 061500Z 21011KT CAVOK 27/18 Q1013', 'SCAR 061400Z 21008KT CAVOK 27/18 Q1013', 'SCAR 061300Z VRB02KT CAVOK 27/18 Q1013', 'SCAR 061200Z VRB01KT CAVOK 26/18 Q1013', 'SCAR 061100Z 07003KT CAVOK 24/16 Q1012', 'SCAR 061000Z 00000KT CAVOK 24/17 Q1012', 'SCAR 060900Z 03003KT CAVOK 24/18 Q1012', 'SCAR 060800Z 03004KT CAVOK 24/18 Q1012', 'SCAR 060700Z VRB02KT CAVOK 24/18 Q1012', 'SCAR 060600Z 19003KT 150V220 CAVOK 25/19 Q1012', 'SCAR 060500Z 18004KT CAVOK 25/19 Q1013', 'SCAR 060400Z 24003KT CAVOK 25/19 Q1013', 'SCAR 060300Z 23003KT CAVOK 26/19 Q1014', 'SCAR 060200Z 28003KT 240V330 9999 OVC100 26/19 Q1013', 'SCAR 060100Z VRB02KT 9999 OVC100 25/19 Q1013', 'SCAR 060000Z 25005KT CAVOK 25/19 Q1012', 'SCAR 052300Z 24006KT CAVOK 26/18 Q1011', 'SCAR 052200Z 21008KT 9999 FEW100 27/18 Q1010', 'SCAR 052100Z 19010KT 9999 SCT100 27/18 Q1010', 'SCAR 052000Z 21012KT 9999 BKN100 27/19 Q1010', 'SCAR 051900Z 22013KT CAVOK 28/17 Q1011', 'SCAR 051800Z 22012KT CAVOK 27/18 Q1011', 'SCAR 051700Z 22010KT CAVOK 27/18 Q1012']","['2024-02-08 15:00:00', '2024-02-08 14:00:00', '2024-02-08 13:00:00', '2024-02-08 12:00:00', '2024-02-08 11:00:00', '2024-02-08 10:00:00', '2024-02-08 09:00:00', '2024-02-08 08:00:00', '2024-02-08 07:00:00', '2024-02-08 06:00:00', '2024-02-08 05:00:00', '2024-02-08 04:00:00', '2024-02-08 03:00:00', '2024-02-08 02:00:00', '2024-02-08 01:00:00', '2024-02-08 00:00:00', '2024-02-07 23:00:00', '2024-02-07 22:00:00', '2024-02-07 21:00:00', '2024-02-07 20:00:00', '2024-02-07 19:00:00', '2024-02-07 18:00:00', '2024-02-07 17:00:00', '2024-02-07 16:00:00', '2024-02-07 15:00:00', '2024-02-07 14:00:00', '2024-02-07 13:00:00', '2024-02-07 12:00:00', '2024-02-07 11:00:00', '2024-02-07 10:00:00', '2024-02-07 09:00:00', '2024-02-07 08:00:00', '2024-02-07 07:00:00', '2024-02-07 06:00:00', '2024-02-07 05:00:00', '2024-02-07 04:00:00', '2024-02-07 03:00:00', '2024-02-07 02:00:00', '2024-02-07 01:00:00', '2024-02-07 00:00:00', '2024-02-06 23:00:00', '2024-02-06 22:00:00', '2024-02-06 21:00:00', '2024-02-06 20:00:00', '2024-02-06 19:00:00', '2024-02-06 18:00:00', '2024-02-06 17:00:00', '2024-02-06 15:00:00', '2024-02-06 14:00:00', '2024-02-06 13:00:00', '2024-02-06 12:00:00', '2024-02-06 11:00:00', '2024-02-06 10:00:00', '2024-02-06 09:00:00', '2024-02-06 08:00:00', '2024-02-06 07:00:00', '2024-02-06 06:00:00', '2024-02-06 05:00:00', '2024-02-06 04:00:00', '2024-02-06 03:00:00', '2024-02-06 02:00:00', '2024-02-06 01:00:00', '2024-02-06 00:00:00', '2024-02-05 23:00:00', '2024-02-05 22:00:00', '2024-02-05 21:00:00', '2024-02-05 20:00:00', '2024-02-05 19:00:00', '2024-02-05 18:00:00', '2024-02-05 17:00:00']"
Chile, Balmaceda Airport (BBA/SCBA) ,"['SCBA 081600Z 31024KT CAVOK 17/06 Q1015 RMK AC LENTICULARES AL SUR', 'SCBA 081500Z 30025KT CAVOK 15/05 Q1015', 'SCBA 081400Z 30022KT CAVOK 13/05 Q1015', 'SCBA 081300Z 31020KT 9999 FEW030 BKN200 11/05 Q1015', 'SCBA 081200Z 29029KT 9999 FEW030 BKN150 10/05 Q1014', 'SCBA 081100Z 32013KT 9999 FEW030 BKN200 08/05 Q1015', 'SCBA 081000Z AUTO 31009KT 9999 FEW045/// 08/04 Q1015', 'SCBA 080900Z AUTO 29019KT 9999 NCD 08/04 Q1014', 'SCBA 080800Z AUTO 29016G26KT 9999 NCD 08/04 Q1014', 'SCBA 080700Z AUTO 30018KT 9999 FEW048/// 09/04 Q1014', 'SCBA 080600Z AUTO 31015KT 9999 FEW043/// 08/04 Q1014', 'SCBA 080500Z AUTO 31016KT 9999 FEW043/// 08/04 Q1013', 'SCBA 080400Z AUTO 31018KT 9999 FEW041/// 09/04 Q1014', 'SCBA 080300Z AUTO 31016KT 9999 BKN046/// BKN056/// 09/04 Q1013', 'SCBA 080200Z AUTO 29023G34KT 9999 FEW052/// 09/03 Q1013', 'SCBA 080100Z AUTO 29025G35KT 9999 NCD 09/03 Q1013', 'SCBA 080000Z AUTO 29025KT 9999 NCD 10/03 Q1012', 'SCBA 072300Z AUTO 29029KT 9999 NCD 11/02 Q1011', 'SCBA 072200Z AUTO 29030KT 9999 NCD 13/02 Q1010', 'SCBA 072100Z 28030KT 9999 FEW040 15/01 Q1009', 'SCBA 072000Z 29032KT 9999 FEW040 15/01 Q1009', 'SCBA 071900Z 29032G43KT 9999 FEW040 14/02 Q1008', 'SCBA 071800Z 28034G45KT 9999 FEW040 14/01 Q1008 RMK AC LENT AL SE STN', 'SCBA 071700Z 30031G46KT 9999 FEW040 14/03 Q1007 RMK AC LENT AL S STN', 'SCBA 071600Z 28048G60KT 9999 FEW040 12/02 Q1005', 'SCBA 071500Z 28043KT 9999 SCT035 12/02 Q1005', 'SCBA 071400Z 29035G45KT 9999 SCT040 11/03 Q1005', 'SCBA 071300Z 31027KT 9999 BKN035 09/04 Q1005', 'SCBA 071200Z 29023KT 9999 SCT020 SCT040 06/04 Q1003', 'SCBA 071100Z 29025KT 9999 -SHRA BKN020 SCT040 06/04 Q1003', 'SCBA 071000Z AUTO 28021KT 9999 -RA OVC057/// 05/03 Q1002', 'SCBA 070900Z AUTO 28018G30KT 9999 -RA BKN015/// BKN024/// OVC066/// 05/03 Q1002', 'SCBA 070800Z AUTO 29022KT 9999 -RA OVC038/// 05/03 Q1001', 'SCBA 070700Z AUTO 29023KT 9999 -RA BKN033/// OVC120/// 05/03 Q1000', 'SCBA 070600Z AUTO 29019G30KT 8000 -RA BKN013/// OVC021/// 06/04 Q0999', 'SCBA 070500Z AUTO 29023KT 9999 SCT041/// BKN056/// 06/03 Q0999', 'SCBA 070400Z AUTO 30025G35KT 9999 -RA SCT041/// OVC100/// 07/03 Q0999', 'SCBA 070300Z AUTO 30023KT 9999 BKN045/// 07/03 Q0999', 'SCBA 070200Z AUTO 30029KT 9999 NCD 08/03 Q0999', 'SCBA 070100Z AUTO 29031G42KT 9999 -RA SCT026/// OVC074/// 10/08 Q0997 RERA', 'SCBA 070000Z AUTO 28012KT 8000 RA BKN036/// OVC061/// 12/11 Q0993', 'SCBA 062300Z AUTO 31012KT 9999 BKN110/// 15/09 Q0994', 'SCBA 062200Z AUTO 28026KT 9999 FEW056/// 17/09 Q0996', 'SCBA 062100Z 30018KT 9999 BKN040 18/09 Q0997', 'SCBA 062000Z 29020KT 9999 BKN033 17/08 Q1000', 'SCBA 061900Z 29020KT 9999 BKN033 17/08 Q1000', 'SCBA 061800Z 29022KT 9999 BKN040 SCT100 17/08 Q1001', 'SCBA 061800Z 29022KT 9999 BKN040 SCT100 17/08 Q1001', 'SCBA 061700Z 29023KT 9999 BKN036 BKN100 17/07 Q1002', 'SCBA 061700Z 29023KT 9999 BKN036 BKN100 17/07 Q1002', 'SCBA 061600Z 30023G36KT 9999 BKN045 SCT200 19/07 Q1002', 'SCBA 061600Z 30023G36KT 9999 BKN045 SCT200 19/07 Q1002', 'SCBA 061500Z 29022KT 9999 SCT040 16/07 Q1003', 'SCBA 061400Z 30017KT 9999 SCT036 BKN100 15/07 Q1004', 'SCBA 061300Z 30017KT 9999 SCT040 BKN100 15/08 Q1005', 'SCBA 061200Z 31014KT 9999 BKN036 13/08 Q1006', 'SCBA 061100Z 31012KT 9999 BKN045 SCT100 12/08 Q1006', 'SCBA 061000Z AUTO 30017KT 9999 FEW050/// BKN066/// 13/07 Q1006', 'SCBA 060900Z AUTO 30012KT 9999 OVC064/// 13/07 Q1006', 'SCBA 060800Z AUTO 29013KT 9999 OVC062/// 13/06 Q1007', 'SCBA 060700Z AUTO 30015KT 9999 OVC059/// 14/06 Q1007', 'SCBA 060600Z AUTO 30015KT 9999 OVC057/// 14/05 Q1008', 'SCBA 060500Z AUTO 31012KT 9999 OVC057/// 14/05 Q1009', 'SCBA 060400Z AUTO 30017KT 9999 OVC055/// 14/06 Q1009', 'SCBA 060300Z AUTO 30016KT 9999 BKN062/// 14/06 Q1009', 'SCBA 060200Z AUTO 30017KT 9999 NCD 14/05 Q1010', 'SCBA 060100Z AUTO 30014KT 9999 BKN065/// 15/05 Q1010', 'SCBA 060000Z AUTO 29014KT 9999 OVC060/// 15/04 Q1010', 'SCBA 052300Z AUTO 29022KT 9999 NCD 16/03 Q1010', 'SCBA 052200Z AUTO 29022KT 9999 NCD 18/02 Q1009', 'SCBA 052100Z 28021KT CAVOK 19/02 Q1009', 'SCBA 052000Z 28023KT CAVOK 19/03 Q1009', 'SCBA 051900Z 29022KT CAVOK 19/03 Q1008', 'SCBA 051800Z 29023G34KT CAVOK 18/03 Q1008', 'SCBA 051700Z 29025KT CAVOK 18/04 Q1008']","['2024-02-08 16:00:00', '2024-02-08 15:00:00', '2024-02-08 14:00:00', '2024-02-08 13:00:00', '2024-02-08 12:00:00', '2024-02-08 11:00:00', '2024-02-08 10:00:00', '2024-02-08 09:00:00', '2024-02-08 08:00:00', '2024-02-08 07:00:00', '2024-02-08 06:00:00', '2024-02-08 05:00:00', '2024-02-08 04:00:00', '2024-02-08 03:00:00', '2024-02-08 02:00:00', '2024-02-08 01:00:00', '2024-02-08 00:00:00', '2024-02-07 23:00:00', '2024-02-07 22:00:00', '2024-02-07 21:00:00', '2024-02-07 20:00:00', '2024-02-07 19:00:00', '2024-02-07 18:00:00', '2024-02-07 17:00:00', '2024-02-07 16:00:00', '2024-02-07 15:00:00', '2024-02-07 14:00:00', '2024-02-07 13:00:00', '2024-02-07 12:00:00', '2024-02-07 11:00:00', '2024-02-07 10:00:00', '2024-02-07 09:00:00', '2024-02-07 08:00:00', '2024-02-07 07:00:00', '2024-02-07 06:00:00', '2024-02-07 05:00:00', '2024-02-07 04:00:00', '2024-02-07 03:00:00', '2024-02-07 02:00:00', '2024-02-07 01:00:00', '2024-02-07 00:00:00', '2024-02-06 23:00:00', '2024-02-06 22:00:00', '2024-02-06 21:00:00', '2024-02-06 20:00:00', '2024-02-06 19:00:00', '2024-02-06 18:00:00', '2024-02-06 17:59:00', '2024-02-06 17:00:00', '2024-02-06 16:55:00', '2024-02-06 16:00:00', '2024-02-06 15:56:00', '2024-02-06 15:00:00', '2024-02-06 14:00:00', '2024-02-06 13:00:00', '2024-02-06 12:00:00', '2024-02-06 11:00:00', '2024-02-06 10:00:00', '2024-02-06 09:00:00', '2024-02-06 08:00:00', '2024-02-06 07:00:00', '2024-02-06 06:00:00', '2024-02-06 05:00:00', '2024-02-06 04:00:00', '2024-02-06 03:00:00', '2024-02-06 02:00:00', '2024-02-06 01:00:00', '2024-02-06 00:00:00', '2024-02-05 23:00:00', '2024-02-05 22:00:00', '2024-02-05 21:00:00', '2024-02-05 20:00:00', '2024-02-05 19:00:00', '2024-02-05 18:00:00', '2024-02-05 17:00:00']"
Chile, Calama El Loa Airport (CJC/SCCF) ,"['SCCF 081500Z 26008KT 200V300 CAVOK 22/08 Q1026', 'SCCF 081400Z 08006KT 360V140 CAVOK 21/08 Q1026', 'SCCF 081300Z 10010KT CAVOK 18/09 Q1026', 'SCCF 081200Z 14006KT CAVOK 17/09 Q1026', 'SCCF 081100Z 09011KT CAVOK 10/07 Q1026', 'SCCF 081000Z 09008KT 050V110 CAVOK 10/06 Q1025', 'SCCF 080900Z 13009KT CAVOK 10/06 Q1025', 'SCCF 080800Z 12008KT CAVOK 11/07 Q1025', 'SCCF 080700Z 13010KT CAVOK 12/08 Q1026', 'SCCF 080600Z 10012KT CAVOK 12/07 Q1027', 'SCCF 080500Z 08009KT CAVOK 14/07 Q1027', 'SCCF 080400Z 15010KT CAVOK 15/09 Q1028', 'SCCF 080300Z 26002KT CAVOK 16/08 Q1028', 'SCCF 080200Z 28009KT CAVOK 17/08 Q1028', 'SCCF 080100Z 29014KT CAVOK 18/08 Q1027', 'SCCF 080000Z 26017KT CAVOK 20/09 Q1025', 'SCCF 072300Z 27023KT CAVOK 22/09 Q1024', 'SCCF 072200Z 27024KT 9999 SCT063 24/09 Q1023', 'SCCF 072100Z 28026G36KT 9999 SCT060 25/08 Q1023', 'SCCF 072000Z 28021G31KT 9999 FEW060 25/08 Q1024', 'SCCF 071900Z 28021KT 9999 FEW060 24/09 Q1025', 'SCCF 071800Z 28020G30KT CAVOK 24/09 Q1025', 'SCCF 071700Z 27019KT 240V300 CAVOK 24/10 Q1026', 'SCCF 071600Z 28013KT CAVOK 23/10 Q1027', 'SCCF 071500Z 25008KT CAVOK 22/09 Q1027', 'SCCF 071400Z VRB04KT CAVOK 21/09 Q1027', 'SCCF 071300Z VRB03KT CAVOK 19/08 Q1027', 'SCCF 071200Z 15005KT CAVOK 14/10 Q1027', 'SCCF 071100Z 10009KT CAVOK 10/07 Q1026', 'SCCF 071000Z 06008KT CAVOK 10/08 Q1026', 'SCCF 070900Z VRB06KT CAVOK 11/08 Q1026', 'SCCF 070800Z 12010KT CAVOK 10/08 Q1026', 'SCCF 070700Z 10008KT CAVOK 10/07 Q1026', 'SCCF 070600Z 18003KT 130V220 CAVOK 12/09 Q1027', 'SCCF 070500Z 11009KT CAVOK 12/09 Q1027', 'SCCF 070400Z 10005KT CAVOK 13/10 Q1028', 'SCCF 070300Z 27003KT CAVOK 14/11 Q1028', 'SCCF 070200Z 16005KT CAVOK 15/12 Q1028', 'SCCF 070100Z 14006KT CAVOK 16/10 Q1028', 'SCCF 070000Z 05009KT CAVOK 18/10 Q1027 RESHRA', 'SCCF 062300Z 11015KT 9999 SCT060 BKN120 18/12 Q1027 RESHRA WS R28', 'SCCF 062200Z 08026G36KT 8000 SCT060 BKN110 21/08 Q1026 WS R28', 'SCCF 062100Z 28021KT CAVOK 25/08 Q1025', 'SCCF 062000Z 27024G34KT CAVOK 25/09 Q1025', 'SCCF 061900Z 28025G35KT CAVOK 25/09 Q1025 RMK TCU EN CORD', 'SCCF 061800Z 28025G35KT CAVOK 24/10 Q1025', 'SCCF 061700Z 28020KT CAVOK 24/10 Q1026', 'SCCF 061600Z 28016KT CAVOK 23/11 Q1027', 'SCCF 061500Z VRB06KT CAVOK 21/09 Q1028', 'SCCF 061400Z 01004KT 310V110 CAVOK 20/09 Q1028', 'SCCF 061300Z 02004KT 320V110 CAVOK 18/10 Q1029', 'SCCF 061200Z 01001KT CAVOK 17/11 Q1028', 'SCCF 061100Z 10008KT 9999 BKN080 14/09 Q1028', 'SCCF 061000Z VRB03KT CAVOK 14/09 Q1027', 'SCCF 060900Z 26003KT 220V310 CAVOK 14/10 Q1027', 'SCCF 060800Z 09005KT CAVOK 12/08 Q1027', 'SCCF 060700Z 11009KT CAVOK 11/07 Q1027', 'SCCF 060600Z 10007KT CAVOK 12/09 Q1027', 'SCCF 060500Z 09006KT CAVOK 13/10 Q1028', 'SCCF 060400Z 05003KT 360V090 CAVOK 14/11 Q1029', 'SCCF 060300Z 29008KT CAVOK 15/11 Q1028', 'SCCF 060200Z 26011KT CAVOK 16/11 Q1028', 'SCCF 060100Z 24016KT CAVOK 17/11 Q1028', 'SCCF 060000Z 26019KT CAVOK 19/11 Q1027', 'SCCF 052300Z 27020KT CAVOK 20/10 Q1025 RMK TCU EN CORD', 'SCCF 052200Z 29023KT CAVOK 22/10 Q1024 RMK TCU EN CORD', 'SCCF 052100Z 28027KT CAVOK 24/10 Q1023 RMK TCU EN CORD', 'SCCF 052000Z 27027G37KT CAVOK 24/10 Q1023', 'SCCF 051900Z 27026G36KT CAVOK 24/09 Q1024', 'SCCF 051800Z 27024G34KT CAVOK 24/09 Q1025', 'SCCF 051700Z 26023KT CAVOK 24/09 Q1025']","['2024-02-08 15:00:00', '2024-02-08 14:00:00', '2024-02-08 13:00:00', '2024-02-08 12:00:00', '2024-02-08 11:00:00', '2024-02-08 10:00:00', '2024-02-08 09:00:00', '2024-02-08 08:00:00', '2024-02-08 07:00:00', '2024-02-08 06:00:00', '2024-02-08 05:00:00', '2024-02-08 04:00:00', '2024-02-08 03:00:00', '2024-02-08 02:00:00', '2024-02-08 01:00:00', '2024-02-08 00:00:00', '2024-02-07 23:00:00', '2024-02-07 22:00:00', '2024-02-07 21:00:00', '2024-02-07 20:00:00', '2024-02-07 19:00:00', '2024-02-07 18:00:00', '2024-02-07 17:00:00', '2024-02-07 16:00:00', '2024-02-07 15:00:00', '2024-02-07 14:00:00', '2024-02-07 13:00:00', '2024-02-07 12:00:00', '2024-02-07 11:00:00', '2024-02-07 10:00:00', '2024-02-07 09:00:00', '2024-02-07 08:00:00', '2024-02-07 07:00:00', '2024-02-07 06:00:00', '2024-02-07 05:00:00', '2024-02-07 04:00:00', '2024-02-07 03:00:00', '2024-02-07 02:00:00', '2024-02-07 01:00:00', '2024-02-07 00:00:00', '2024-02-06 23:00:00', '2024-02-06 22:00:00', '2024-02-06 21:00:00', '2024-02-06 20:00:00', '2024-02-06 19:00:00', '2024-02-06 18:00:00', '2024-02-06 17:00:00', '2024-02-06 16:00:00', '2024-02-06 15:00:00', '2024-02-06 14:00:00', '2024-02-06 13:00:00', '2024-02-06 12:00:00', '2024-02-06 11:00:00', '2024-02-06 10:00:00', '2024-02-06 09:00:00', '2024-02-06 08:00:00', '2024-02-06 07:00:00', '2024-02-06 06:00:00', '2024-02-06 05:00:00', '2024-02-06 04:00:00', '2024-02-06 03:00:00', '2024-02-06 02:00:00', '2024-02-06 01:00:00', '2024-02-06 00:00:00', '2024-02-05 23:00:00', '2024-02-05 22:00:00', '2024-02-05 21:00:00', '2024-02-05 20:00:00', '2024-02-05 19:00:00', '2024-02-05 18:00:00', '2024-02-05 17:00:00']"
Chile, Castro Mocopulli Airport (MHC/SCPQ) ,"['SCPQ 081600Z 19017KT CAVOK 17/08 Q1019', 'SCPQ 081500Z 19013KT 150V210 CAVOK 16/08 Q1019', 'SCPQ 081400Z 19012KT 9999 SCT022 13/07 Q1019', 'SCPQ 081300Z 18009KT 140V200 CAVOK 13/09 Q1020', 'SCPQ 081200Z 19010KT 9999 BKN030 10/09 Q1020', 'SCPQ 081100Z AUTO 18005KT 9999 FEW036 06/05 Q1019', 'SCPQ 081000Z AUTO 19004KT CAVOK 05/04 Q1019', 'SCPQ 080900Z AUTO 20004KT CAVOK 06/05 Q1019', 'SCPQ 080800Z AUTO 19005KT CAVOK 06/05 Q1019', 'SCPQ 080700Z AUTO 19004KT CAVOK 06/05 Q1020', 'SCPQ 080600Z AUTO 18004KT CAVOK 07/06 Q1020', 'SCPQ 080500Z AUTO VRB02KT CAVOK 08/06 Q1021', 'SCPQ 080400Z AUTO 17004KT CAVOK 10/07 Q1022', 'SCPQ 080300Z AUTO 18004KT CAVOK 10/07 Q1022', 'SCPQ 080200Z AUTO 17003KT CAVOK 12/06 Q1022', 'SCPQ 080100Z AUTO 18004KT 9000 NCD 12/06 Q1021', 'SCPQ 080000Z AUTO 21006KT CAVOK 15/05 Q1020', 'SCPQ 072300Z AUTO 25007KT 220V300 9999 FEW044 16/06 Q1020', 'SCPQ 072200Z AUTO 23010KT 190V260 CAVOK 16/05 Q1020', 'SCPQ 072100Z AUTO VRB04KT 9999 SCT049 17/06 Q1019', 'SCPQ 072000Z VRB04KT 9999 BKN046 17/07 Q1019', 'SCPQ 071900Z 18007KT 130V230 9999 SCT046 17/04 Q1019', 'SCPQ 071800Z 23009KT 9999 SCT046 18/04 Q1019', 'SCPQ 071700Z 24007KT 9999 SCT015 17/02 Q1019', 'SCPQ 071600Z 23008KT 190V280 9999 FEW035 16/04 Q1018', 'SCPQ 071500Z 25008KT 200V280 9999 SCT030 BKN040 15/06 Q1018', 'SCPQ 071400Z VRB03KT CAVOK 14/07 Q1018', 'SCPQ 071300Z VRB03KT 9999 BKN040 12/08 Q1018', 'SCPQ 071200Z VRB03KT CAVOK 10/08 Q1018', 'SCPQ 071100Z AUTO 00000KT CAVOK 08/07 Q1017', 'SCPQ 071000Z AUTO 36004KT 9999 FEW034 08/06 Q1016', 'SCPQ 070900Z AUTO 35004KT CAVOK 07/06 Q1015', 'SCPQ 070800Z AUTO 00000KT 9999 FEW045 08/06 Q1015', 'SCPQ 070700Z AUTO VRB01KT 9999 SCT031 SCT039 09/07 Q1014', 'SCPQ 070600Z AUTO 00000KT CAVOK 09/06 Q1014', 'SCPQ 070500Z AUTO 29003KT 180V350 9999 SCT034 12/07 Q1014', 'SCPQ 070400Z AUTO VRB01KT 9999 SCT040 11/07 Q1013', 'SCPQ 070300Z AUTO 26010KT 210V290 9999 FEW032 SCT036 13/07 Q1012', 'SCPQ 070200Z AUTO 24008KT 200V280 9999 SCT021 OVC024 14/09 Q1011', 'SCPQ 070100Z AUTO 25008KT 190V300 9999 -SHRA FEW016 BKN018 BKN049 14/11 Q1010', 'SCPQ 070000Z AUTO 32013KT 270V340 9999 -SHRA SCT022 BKN028 17/14 Q1008', 'SCPQ 062300Z AUTO 33016KT 9000 OVC027 17/13 Q1007', 'SCPQ 062200Z AUTO 33019G29KT 9999 BKN027 18/14 Q1007', 'SCPQ 062100Z AUTO 32014KT CAVOK 18/13 Q1007', 'SCPQ 062000Z 34012KT 9999 SCT003 BKN015 16/15 Q1007', 'SCPQ 061900Z 35010KT 5000 -RA OVC003 15/14 Q1007', 'SCPQ 061800Z 36011KT 330V030 4000 -RA OVC004 15/14 Q1007', 'SCPQ 061700Z 34013KT 2800 -SHRA BKN006 OVC015 15/14 Q1009', 'SCPQ 061600Z 01014KT 9999 -SHRA FEW015 BKN020 OVC030 16/13 Q1009', 'SCPQ 061500Z 36012KT 9999 OVC030 16/13 Q1010', 'SCPQ 061400Z 36013KT 9999 BKN007 OVC015 16/14 Q1010', 'SCPQ 061300Z 36011KT 9999 -SHRA BKN006 OVC012 15/14 Q1011', 'SCPQ 061200Z 01011KT 9999 BKN006 15/14 Q1011', 'SCPQ 061100Z AUTO 36012KT 9000 BKN003 14/13 Q1011', 'SCPQ 061000Z AUTO 36010KT 9999 -DZ OVC005 14/13 Q1011', 'SCPQ 060900Z AUTO 36011KT 9999 OVC004 14/13 Q1011', 'SCPQ 060800Z AUTO 01007KT 9999 BKN004 OVC013 14/13 Q1011', 'SCPQ 060700Z AUTO 34005KT 9999 BKN004 OVC013 14/13 Q1012', 'SCPQ 060600Z AUTO 35008KT 9999 FEW004 SCT013 14/13 Q1012', 'SCPQ 060500Z AUTO 36008KT 9999 SCT005 14/13 Q1013', 'SCPQ 060400Z AUTO 01003KT 330V050 CAVOK 14/12 Q1013', 'SCPQ 060300Z AUTO 34007KT CAVOK 14/13 Q1013', 'SCPQ 060200Z AUTO 01004KT CAVOK 15/12 Q1013', 'SCPQ 060100Z AUTO 36006KT CAVOK 16/12 Q1013', 'SCPQ 060000Z AUTO 34006KT CAVOK 18/10 Q1013', 'SCPQ 052300Z AUTO 33011KT 300V360 CAVOK 20/11 Q1013', 'SCPQ 052200Z AUTO 34012KT CAVOK 21/08 Q1013', 'SCPQ 052100Z AUTO 33011KT 300V360 CAVOK 21/10 Q1013', 'SCPQ 052000Z 34011KT 310V010 9999 SCT040 22/10 Q1012', 'SCPQ 051900Z 33011KT 300V020 9999 SCT040 23/11 Q1012', 'SCPQ 051800Z 35013KT 320V020 9999 SCT035 22/11 Q1013', 'SCPQ 051700Z 36010KT 320V050 9999 SCT040 21/11 Q1013']","['2024-02-08 16:00:00', '2024-02-08 15:00:00', '2024-02-08 14:00:00', '2024-02-08 13:00:00', '2024-02-08 12:00:00', '2024-02-08 11:00:00', '2024-02-08 10:00:00', '2024-02-08 09:00:00', '2024-02-08 08:00:00', '2024-02-08 07:00:00', '2024-02-08 06:00:00', '2024-02-08 05:00:00', '2024-02-08 04:00:00', '2024-02-08 03:00:00', '2024-02-08 02:00:00', '2024-02-08 01:00:00', '2024-02-08 00:00:00', '2024-02-07 23:00:00', '2024-02-07 22:00:00', '2024-02-07 21:00:00', '2024-02-07 20:00:00', '2024-02-07 19:00:00', '2024-02-07 18:00:00', '2024-02-07 17:00:00', '2024-02-07 16:00:00', '2024-02-07 15:00:00', '2024-02-07 14:00:00', '2024-02-07 13:00:00', '2024-02-07 12:00:00', '2024-02-07 11:00:00', '2024-02-07 10:00:00', '2024-02-07 09:00:00', '2024-02-07 08:00:00', '2024-02-07 07:00:00', '2024-02-07 06:00:00', '2024-02-07 05:00:00', '2024-02-07 04:00:00', '2024-02-07 03:00:00', '2024-02-07 02:00:00', '2024-02-07 01:00:00', '2024-02-07 00:00:00', '2024-02-06 23:00:00', '2024-02-06 22:00:00', '2024-02-06 21:00:00', '2024-02-06 20:00:00', '2024-02-06 19:00:00', '2024-02-06 18:00:00', '2024-02-06 17:00:00', '2024-02-06 16:00:00', '2024-02-06 15:00:00', '2024-02-06 14:00:00', '2024-02-06 13:00:00', '2024-02-06 12:00:00', '2024-02-06 11:00:00', '2024-02-06 10:00:00', '2024-02-06 09:00:00', '2024-02-06 08:00:00', '2024-02-06 07:00:00', '2024-02-06 06:00:00', '2024-02-06 05:00:00', '2024-02-06 04:00:00', '2024-02-06 03:00:00', '2024-02-06 02:00:00', '2024-02-06 01:00:00', '2024-02-06 00:00:00', '2024-02-05 23:00:00', '2024-02-05 22:00:00', '2024-02-05 21:00:00', '2024-02-05 20:00:00', '2024-02-05 19:00:00', '2024-02-05 18:00:00', '2024-02-05 17:00:00']"
Chile, Concepcion Carriel Sur International Airport (CCP/SCIE) ,"['SCIE 081500Z 20012KT CAVOK 19/10 Q1012', 'SCIE 081400Z 21012KT CAVOK 18/09 Q1012', 'SCIE 081300Z 24006KT CAVOK 18/10 Q1012', 'SCIE 081200Z 21007KT CAVOK 15/10 Q1012', 'SCIE 081100Z 21004KT CAVOK 13/11 Q1012', 'SCIE 081000Z 21005KT CAVOK 13/11 Q1011', 'SCIE 080900Z 22007KT CAVOK 13/11 Q1011', 'SCIE 080800Z 21007KT CAVOK 14/11 Q1011', 'SCIE 080700Z 22007KT CAVOK 14/11 Q1012', 'SCIE 080600Z 21006KT CAVOK 14/10 Q1013', 'SCIE 080500Z 22008KT CAVOK 15/10 Q1014', 'SCIE 080400Z 22007KT CAVOK 16/11 Q1014', 'SCIE 080300Z 21009KT CAVOK 16/10 Q1014', 'SCIE 080200Z 21010KT CAVOK 17/10 Q1015', 'SCIE 080100Z 22008KT 200V260 CAVOK 18/09 Q1014', 'SCIE 080000Z 22013KT CAVOK 19/09 Q1014', 'SCIE 072300Z 21016KT CAVOK 20/09 Q1014', 'SCIE 072200Z 22014KT CAVOK 22/10 Q1013', 'SCIE 072100Z 22018KT CAVOK 24/13 Q1014', 'SCIE 072000Z 23018KT CAVOK 26/15 Q1014', 'SCIE 071900Z 23018KT CAVOK 25/16 Q1015', 'SCIE 071800Z 22017KT CAVOK 27/15 Q1015', 'SCIE 071700Z 23015KT 9999 FEW040 26/17 Q1015', 'SCIE 071600Z 23012KT 9999 FEW040 26/15 Q1015', 'SCIE 071500Z 24007KT 220V280 9999 FEW030 25/17 Q1015', 'SCIE 071400Z 18008KT 130V220 CAVOK 24/17 Q1015', 'SCIE 071300Z 19007KT CAVOK 22/17 Q1015', 'SCIE 071200Z 15007KT CAVOK 20/17 Q1015', 'SCIE 071100Z 17004KT 140V200 CAVOK 18/17 Q1014', 'SCIE 071000Z 20007KT CAVOK 18/17 Q1014', 'SCIE 070900Z 22005KT CAVOK 18/18 Q1015', 'SCIE 070800Z 20004KT 9999 FEW003 SCT150 BKN200 18/18 Q1014', 'SCIE 070700Z 22006KT 9999 BKN003 18/18 Q1014', 'SCIE 070600Z 24005KT 9999 BKN003 19/18 Q1015', 'SCIE 070500Z 22004KT 5000 BR OVC002 19/19 Q1016', 'SCIE 070400Z 21006KT 3000 BR OVC002 19/19 Q1016', 'SCIE 070300Z 24003KT 220V280 9999 4000N BR OVC002 19/19 Q1016', 'SCIE 070200Z 21006KT 8000 OVC002 19/18 Q1016', 'SCIE 070113Z 20008KT 7000 OVC002 19/18 Q1016', 'SCIE 070019Z 22006KT 9999 BKN005 20/18 Q1016', 'SCIE 062300Z 20006KT CAVOK 22/18 Q1016', 'SCIE 062200Z 190V260 9999 FEW016 SCT220 22/17 Q1016', 'SCIE 062100Z 26006KT 200V320 9999 FEW020 23/18 Q1016', 'SCIE 061900Z 21013KT 9999 FEW007 23/18 Q1016', 'SCIE 061800Z 29008KT 250V330 CAVOK 25/18 Q1015', 'SCIE 061700Z 22008KT 170V290 CAVOK 25/18 Q1016', 'SCIE 061600Z 22008KT 190V250 CAVOK 24/17 Q1016', 'SCIE 061500Z 21009KT CAVOK 24/17 Q1015', 'SCIE 061400Z VRB04KT CAVOK 23/17 Q1015', 'SCIE 061300Z VRB02KT 9999 FEW004 20/17 Q1015', 'SCIE 061210Z VRB01KT 5000 FEW002 SCT005 17/17 Q1015', 'SCIE 061148Z 17003KT 130V210 1500 BR SCT001 OVC004 17/16 Q1015', 'SCIE 061105Z 21004KT 0500 R02/0650N FG OVC002 16/16 Q1014', 'SCIE 061034Z 21003KT 0350 FG VV002 16/16 Q1014', 'SCIE 061020Z 21004KT 170V240 0500 FG BKN002 OVC004 16/16 Q1014', 'SCIE 060900Z 20004KT CAVOK 15/14 Q1013', 'SCIE 060800Z VRB01KT CAVOK 16/15 Q1013', 'SCIE 060700Z VRB01KT CAVOK 16/15 Q1013', 'SCIE 060600Z VRB02KT CAVOK 16/15 Q1014', 'SCIE 060500Z 04003KT CAVOK 16/15 Q1014', 'SCIE 060400Z VRB02KT CAVOK 16/16 Q1015', 'SCIE 060300Z 36003KT 300V080 CAVOK 18/17 Q1015', 'SCIE 060200Z 25003KT 220V290 9999 FEW006 17/16 Q1015', 'SCIE 060100Z 23007KT 9999 FEW006 17/17 Q1015', 'SCIE 060000Z 23007KT 190V260 9999 FEW006 17/16 Q1015', 'SCIE 052300Z 23010KT 9999 FEW006 SCT200 19/16 Q1014', 'SCIE 052200Z 23011KT 9999 FEW006 BKN200 19/17 Q1014', 'SCIE 052100Z 22010KT CAVOK 21/16 Q1015', 'SCIE 052000Z 22012KT CAVOK 22/16 Q1015', 'SCIE 051900Z 22010KT CAVOK 21/15 Q1015', 'SCIE 051800Z 23007KT 190V270 CAVOK 22/14 Q1016', 'SCIE 051700Z 24008KT 210V270 CAVOK 22/13 Q1016']","['2024-02-08 15:00:00', '2024-02-08 14:00:00', '2024-02-08 13:00:00', '2024-02-08 12:00:00', '2024-02-08 11:00:00', '2024-02-08 10:00:00', '2024-02-08 09:00:00', '2024-02-08 08:00:00', '2024-02-08 07:00:00', '2024-02-08 06:00:00', '2024-02-08 05:00:00', '2024-02-08 04:00:00', '2024-02-08 03:00:00', '2024-02-08 02:00:00', '2024-02-08 01:00:00', '2024-02-08 00:00:00', '2024-02-07 23:00:00', '2024-02-07 22:00:00', '2024-02-07 21:00:00', '2024-02-07 20:00:00', '2024-02-07 19:00:00', '2024-02-07 18:00:00', '2024-02-07 17:00:00', '2024-02-07 16:00:00', '2024-02-07 15:00:00', '2024-02-07 14:00:00', '2024-02-07 13:00:00', '2024-02-07 12:00:00', '2024-02-07 11:00:00', '2024-02-07 10:00:00', '2024-02-07 09:00:00', '2024-02-07 08:00:00', '2024-02-07 07:00:00', '2024-02-07 06:00:00', '2024-02-07 05:00:00', '2024-02-07 04:00:00', '2024-02-07 03:00:00', '2024-02-07 02:00:00', '2024-02-07 01:13:00', '2024-02-07 00:19:00', '2024-02-06 23:00:00', '2024-02-06 22:00:00', '2024-02-06 21:00:00', '2024-02-06 19:00:00', '2024-02-06 18:00:00', '2024-02-06 17:00:00', '2024-02-06 16:00:00', '2024-02-06 15:00:00', '2024-02-06 14:00:00', '2024-02-06 13:00:00', '2024-02-06 12:10:00', '2024-02-06 11:48:00', '2024-02-06 11:05:00', '2024-02-06 10:34:00', '2024-02-06 10:20:00', '2024-02-06 09:00:00', '2024-02-06 08:00:00', '2024-02-06 07:00:00', '2024-02-06 06:00:00', '2024-02-06 05:00:00', '2024-02-06 04:00:00', '2024-02-06 03:00:00', '2024-02-06 02:00:00', '2024-02-06 01:00:00', '2024-02-06 00:00:00', '2024-02-05 23:00:00', '2024-02-05 22:00:00', '2024-02-05 21:00:00', '2024-02-05 20:00:00', '2024-02-05 19:00:00', '2024-02-05 18:00:00', '2024-02-05 17:00:00']"
Chile, Iquique Diego Aracena International Airport (IQQ/SCDA) ,"['SCDA 081500Z 21018KT CAVOK 29/16 Q1011', 'SCDA 081400Z 22012KT CAVOK 28/16 Q1012', 'SCDA 081300Z 23006KT 210V300 CAVOK 26/16 Q1012', 'SCDA 081200Z VRB02KT CAVOK 25/16 Q1011', 'SCDA 081100Z 12002KT CAVOK 23/16 Q1011', 'SCDA 081000Z 18007KT CAVOK 24/15 Q1011', 'SCDA 080900Z 19009KT CAVOK 24/16 Q1011', 'SCDA 080800Z 13004KT 100V170 CAVOK 23/17 Q1012', 'SCDA 080700Z 10003KT CAVOK 22/16 Q1012', 'SCDA 080600Z 00000KT CAVOK 22/17 Q1013', 'SCDA 080500Z VRB02KT CAVOK 23/17 Q1013', 'SCDA 080400Z 06003KT CAVOK 23/17 Q1013', 'SCDA 080300Z 21010KT CAVOK 25/16 Q1013', 'SCDA 080200Z 20008KT CAVOK 25/17 Q1012', 'SCDA 080100Z 20009KT CAVOK 27/16 Q1011', 'SCDA 080000Z 20011KT CAVOK 28/16 Q1010', 'SCDA 072300Z 19016KT CAVOK 29/16 Q1009', 'SCDA 072200Z 20016KT CAVOK 30/16 Q1009', 'SCDA 072100Z 21017KT CAVOK 30/17 Q1009', 'SCDA 072000Z 21019KT CAVOK 29/18 Q1010', 'SCDA 071900Z 21018KT CAVOK 29/17 Q1010', 'SCDA 071800Z 22017KT CAVOK 28/18 Q1011', 'SCDA 071700Z 22016KT CAVOK 29/18 Q1012', 'SCDA 071600Z 22014KT CAVOK 29/17 Q1012', 'SCDA 071500Z 22011KT CAVOK 29/17 Q1013', 'SCDA 071400Z 27005KT CAVOK 28/17 Q1013', 'SCDA 071300Z 21007KT CAVOK 26/18 Q1013', 'SCDA 071200Z 17005KT CAVOK 26/18 Q1012', 'SCDA 071100Z 19009KT CAVOK 24/18 Q1012', 'SCDA 071000Z 18007KT CAVOK 23/18 Q1011', 'SCDA 070900Z 19009KT CAVOK 24/19 Q1011', 'SCDA 070800Z 20008KT CAVOK 24/18 Q1011', 'SCDA 070700Z 18007KT CAVOK 24/17 Q1011', 'SCDA 070600Z 11004KT 070V210 CAVOK 24/18 Q1012', 'SCDA 070500Z 18004KT CAVOK 24/17 Q1013', 'SCDA 070400Z 20010KT CAVOK 23/18 Q1013', 'SCDA 070300Z 20009KT CAVOK 25/17 Q1013', 'SCDA 070200Z 21009KT CAVOK 26/17 Q1012', 'SCDA 070100Z 22008KT CAVOK 26/18 Q1012', 'SCDA 070000Z 21011KT CAVOK 27/19 Q1011', 'SCDA 062300Z 19015KT CAVOK 27/18 Q1011', 'SCDA 062200Z 21016KT CAVOK 29/18 Q1010', 'SCDA 062100Z 21017KT CAVOK 29/18 Q1010', 'SCDA 062000Z 21017KT CAVOK 29/18 Q1010', 'SCDA 061900Z 22016KT CAVOK 29/20 Q1011', 'SCDA 061800Z 22016KT CAVOK 28/20 Q1011', 'SCDA 061700Z 22016KT CAVOK 28/19 Q1012', 'SCDA 061600Z 22015KT CAVOK 27/19 Q1012', 'SCDA 061500Z 21015KT CAVOK 28/20 Q1013', 'SCDA 061400Z 21011KT CAVOK 26/19 Q1013', 'SCDA 061300Z 09004KT 040V120 CAVOK 28/17 Q1013', 'SCDA 061200Z 19007KT CAVOK 25/17 Q1013', 'SCDA 061100Z 20006KT CAVOK 24/16 Q1013', 'SCDA 061000Z 00000KT CAVOK 23/17 Q1012', 'SCDA 060900Z 11003KT CAVOK 23/16 Q1012', 'SCDA 060800Z 13004KT CAVOK 23/17 Q1012', 'SCDA 060700Z 20007KT CAVOK 22/18 Q1012', 'SCDA 060600Z 00000KT CAVOK 23/16 Q1012', 'SCDA 060500Z 09003KT CAVOK 23/17 Q1013', 'SCDA 060400Z 06003KT CAVOK 24/17 Q1013', 'SCDA 060300Z 19008KT CAVOK 25/17 Q1013', 'SCDA 060200Z 24003KT CAVOK 26/16 Q1013', 'SCDA 060100Z 19006KT CAVOK 26/16 Q1012', 'SCDA 060000Z 21009KT CAVOK 26/16 Q1012', 'SCDA 052300Z 21008KT CAVOK 27/16 Q1011', 'SCDA 052200Z 22010KT CAVOK 27/16 Q1011', 'SCDA 052100Z 25007KT 220V280 CAVOK 28/17 Q1011', 'SCDA 052000Z 27006KT 9999 FEW053 27/16 Q1011', 'SCDA 051900Z 28006KT 250V310 9999 BKN053 27/17 Q1012', 'SCDA 051800Z 26006KT 220V300 9999 BKN050 27/17 Q1012', 'SCDA 051700Z 26007KT 230V290 9999 BKN048 27/17 Q1013']","['2024-02-08 15:00:00', '2024-02-08 14:00:00', '2024-02-08 13:00:00', '2024-02-08 12:00:00', '2024-02-08 11:00:00', '2024-02-08 10:00:00', '2024-02-08 09:00:00', '2024-02-08 08:00:00', '2024-02-08 07:00:00', '2024-02-08 06:00:00', '2024-02-08 05:00:00', '2024-02-08 04:00:00', '2024-02-08 03:00:00', '2024-02-08 02:00:00', '2024-02-08 01:00:00', '2024-02-08 00:00:00', '2024-02-07 23:00:00', '2024-02-07 22:00:00', '2024-02-07 21:00:00', '2024-02-07 20:00:00', '2024-02-07 19:00:00', '2024-02-07 18:00:00', '2024-02-07 17:00:00', '2024-02-07 16:00:00', '2024-02-07 15:00:00', '2024-02-07 14:00:00', '2024-02-07 13:00:00', '2024-02-07 12:00:00', '2024-02-07 11:00:00', '2024-02-07 10:00:00', '2024-02-07 09:00:00', '2024-02-07 08:00:00', '2024-02-07 07:00:00', '2024-02-07 06:00:00', '2024-02-07 05:00:00', '2024-02-07 04:00:00', '2024-02-07 03:00:00', '2024-02-07 02:00:00', '2024-02-07 01:00:00', '2024-02-07 00:00:00', '2024-02-06 23:00:00', '2024-02-06 22:00:00', '2024-02-06 21:00:00', '2024-02-06 20:00:00', '2024-02-06 19:00:00', '2024-02-06 18:00:00', '2024-02-06 17:00:00', '2024-02-06 16:00:00', '2024-02-06 15:00:00', '2024-02-06 14:00:00', '2024-02-06 13:00:00', '2024-02-06 12:00:00', '2024-02-06 11:00:00', '2024-02-06 10:00:00', '2024-02-06 09:00:00', '2024-02-06 08:00:00', '2024-02-06 07:00:00', '2024-02-06 06:00:00', '2024-02-06 05:00:00', '2024-02-06 04:00:00', '2024-02-06 03:00:00', '2024-02-06 02:00:00', '2024-02-06 01:00:00', '2024-02-06 00:00:00', '2024-02-05 23:00:00', '2024-02-05 22:00:00', '2024-02-05 21:00:00', '2024-02-05 20:00:00', '2024-02-05 19:00:00', '2024-02-05 18:00:00', '2024-02-05 17:00:00']"
Chile, La Serena La Florida Airport (LSC/SCSE) ,"['SCSE 081500Z 31005KT 230V030 9999 FEW012 BKN017 20/17 Q1014', 'SCSE 081400Z 26004KT 220V290 9999 SCT011 OVC012 18/17 Q1014', 'SCSE 081300Z 27003KT 240V310 9999 OVC011 18/16 Q1014', 'SCSE 081100Z VRB02KT 7000 SCT005 OVC008 17/17 Q1012', 'SCSE 081000Z AUTO 31003KT 270V010 9999 OVC006/// 17/17 Q1011', 'SCSE 080900Z AUTO 30006KT 9999 OVC008/// 18/16 Q1011', 'SCSE 080800Z AUTO 28004KT 9999 OVC011/// 18/17 Q1011', 'SCSE 080700Z AUTO VRB02KT 9999 BKN010/// 18/16 Q1011', 'SCSE 080600Z AUTO 09004KT 9999 OVC009/// 18/16 Q1011', 'SCSE 080500Z AUTO 31003KT 250V340 9999 OVC008/// 18/17 Q1012', 'SCSE 080400Z AUTO 29004KT 260V320 9999 OVC009/// 18/17 Q1013', 'SCSE 080300Z AUTO 30004KT 260V330 9999 OVC010/// 18/16 Q1013', 'SCSE 080200Z AUTO 30005KT 270V330 9999 OVC009/// 18/16 Q1013', 'SCSE 080100Z VRB02KT 9999 OVC010 18/16 Q1013', 'SCSE 080000Z 28007KT 260V330 9999 SCT009 OVC013 18/16 Q1013', 'SCSE 072300Z 27009KT 9999 SCT009 BKN013 19/16 Q1012', 'SCSE 072200Z 28010KT 9999 SCT015 20/16 Q1012', 'SCSE 072100Z 28012KT CAVOK 22/17 Q1012', 'SCSE 072000Z 29011KT 9999 FEW015 22/16 Q1013 RMK TCU EN CORD', 'SCSE 071900Z 27008KT 230V290 9999 SCT015 21/16 Q1014', 'SCSE 071800Z 27009KT 9999 BKN015 20/17 Q1014', 'SCSE 071700Z 26011KT 9999 BKN015 21/17 Q1014', 'SCSE 071600Z 27009KT 230V290 9999 SCT015 20/17 Q1015', 'SCSE 071500Z 27009KT 9999 SCT011 BKN013 19/17 Q1015', 'SCSE 071400Z 03009KT 220V290 9999 BKN012 20/17 Q1015', 'SCSE 071300Z 28005KT 240V040 9999 SCT012 20/16 Q1015', 'SCSE 071200Z 28003KT 250V310 9999 SCT010 19/17 Q1014', 'SCSE 071100Z VRB01KT 9999 FEW007 18/17 Q1013', 'SCSE 071000Z AUTO 18004KT 150V210 CAVOK 18/16 Q1012', 'SCSE 070900Z AUTO 28005KT 9999 FEW006/// 18/17 Q1012', 'SCSE 070800Z AUTO 27008KT 9999 SCT005/// 18/17 Q1012', 'SCSE 070700Z AUTO 00000KT CAVOK 18/15 Q1012', 'SCSE 070600Z AUTO 12007KT CAVOK 18/16 Q1012', 'SCSE 070500Z AUTO 11005KT CAVOK 18/17 Q1013', 'SCSE 070400Z AUTO 29003KT CAVOK 18/17 Q1014', 'SCSE 070300Z AUTO 32003KT CAVOK 18/17 Q1014', 'SCSE 070200Z AUTO 28004KT CAVOK 18/17 Q1014', 'SCSE 070100Z AUTO 28008KT 9999 FEW006/// 18/17 Q1014', 'SCSE 070000Z 28009KT 9999 FEW010 SCT200 18/16 Q1013', 'SCSE 062300Z 30009KT CAVOK 20/16 Q1013', 'SCSE 062200Z 30012KT CAVOK 20/16 Q1014', 'SCSE 062100Z 30012KT CAVOK 21/16 Q1014', 'SCSE 062000Z 30012KT CAVOK 21/16 Q1015', 'SCSE 061900Z 27013KT CAVOK 22/16 Q1016', 'SCSE 061800Z 27013KT CAVOK 22/16 Q1016', 'SCSE 061700Z 28014KT 9999 FEW013 21/16 Q1017', 'SCSE 061600Z 28013KT 9999 FEW012 21/16 Q1017', 'SCSE 061500Z 29010KT CAVOK 21/17 Q1017', 'SCSE 061400Z 28009KT 9999 FEW020 SCT200 20/17 Q1017', 'SCSE 061300Z 30003KT 220V360 9999 FEW015 SCT200 20/16 Q1017', 'SCSE 061200Z 08003KT 040V140 9999 BKN012 BKN029 18/16 Q1016', 'SCSE 061100Z VRB02KT 9999 OVC008 17/16 Q1016', 'SCSE 061000Z AUTO 15003KT 9999 OVC007/// 17/16 Q1015', 'SCSE 060900Z AUTO VRB01KT 9999 OVC006/// 17/16 Q1015', 'SCSE 060800Z AUTO 30005KT 9999 OVC006/// 17/16 Q1015', 'SCSE 060700Z AUTO VRB02KT 9999 OVC005/// 17/17 Q1014', 'SCSE 060600Z AUTO 31006KT 9999 OVC005/// 17/17 Q1014', 'SCSE 060500Z AUTO 29005KT CAVOK 17/16 Q1014', 'SCSE 060400Z AUTO 06003KT 030V100 CAVOK 17/16 Q1014', 'SCSE 060300Z AUTO 00000KT CAVOK 17/16 Q1014', 'SCSE 060200Z AUTO 29004KT CAVOK 17/16 Q1014', 'SCSE 060100Z AUTO 28005KT CAVOK 18/16 Q1014', 'SCSE 060000Z 29006KT 260V320 9999 FEW012 18/16 Q1013', 'SCSE 052300Z 29009KT 9999 SCT012 19/16 Q1013', 'SCSE 052200Z 28010KT 9999 FEW013 20/16 Q1013', 'SCSE 052100Z 27011KT 9999 FEW015 21/16 Q1013', 'SCSE 052000Z 28012KT 9999 FEW015 21/16 Q1014', 'SCSE 051900Z 27015KT 250V310 9999 FEW020 21/16 Q1014', 'SCSE 051800Z 29014KT 9999 FEW017 22/16 Q1014', 'SCSE 051700Z 28015KT CAVOK 22/17 Q1014 RMK TCU EN CORD']","['2024-02-08 15:00:00', '2024-02-08 14:00:00', '2024-02-08 13:00:00', '2024-02-08 11:00:00', '2024-02-08 10:00:00', '2024-02-08 09:00:00', '2024-02-08 08:00:00', '2024-02-08 07:00:00', '2024-02-08 06:00:00', '2024-02-08 05:00:00', '2024-02-08 04:00:00', '2024-02-08 03:00:00', '2024-02-08 02:00:00', '2024-02-08 01:00:00', '2024-02-08 00:00:00', '2024-02-07 23:00:00', '2024-02-07 22:00:00', '2024-02-07 21:00:00', '2024-02-07 20:00:00', '2024-02-07 19:00:00', '2024-02-07 18:00:00', '2024-02-07 17:00:00', '2024-02-07 16:00:00', '2024-02-07 15:00:00', '2024-02-07 14:00:00', '2024-02-07 13:00:00', '2024-02-07 12:00:00', '2024-02-07 11:00:00', '2024-02-07 10:00:00', '2024-02-07 09:00:00', '2024-02-07 08:00:00', '2024-02-07 07:00:00', '2024-02-07 06:00:00', '2024-02-07 05:00:00', '2024-02-07 04:00:00', '2024-02-07 03:00:00', '2024-02-07 02:00:00', '2024-02-07 01:00:00', '2024-02-07 00:00:00', '2024-02-06 23:00:00', '2024-02-06 22:00:00', '2024-02-06 21:00:00', '2024-02-06 20:00:00', '2024-02-06 19:00:00', '2024-02-06 18:00:00', '2024-02-06 17:00:00', '2024-02-06 16:00:00', '2024-02-06 15:00:00', '2024-02-06 14:00:00', '2024-02-06 13:00:00', '2024-02-06 12:00:00', '2024-02-06 11:00:00', '2024-02-06 10:00:00', '2024-02-06 09:00:00', '2024-02-06 08:00:00', '2024-02-06 07:00:00', '2024-02-06 06:00:00', '2024-02-06 05:00:00', '2024-02-06 04:00:00', '2024-02-06 03:00:00', '2024-02-06 02:00:00', '2024-02-06 01:00:00', '2024-02-06 00:00:00', '2024-02-05 23:00:00', '2024-02-05 22:00:00', '2024-02-05 21:00:00', '2024-02-05 20:00:00', '2024-02-05 19:00:00', '2024-02-05 18:00:00', '2024-02-05 17:00:00']"
Chile, Mataveri International Airport (IPC/SCIP) ,"['SCIP 081600Z 34004KT 270V040 9999 SCT020 26/20 Q1021 NOSIG', 'SCIP 081500Z 36003KT 320V050 9999 FEW020 SCT180 24/21 Q1021 NOSIG', 'SCIP 081400Z 32003KT 290V010 9999 FEW020 SCT180 23/20 Q1020 NOSIG', 'SCIP 081300Z VRB02KT 9999 SCT020 20/18 Q1019 NOSIG', 'SCIP 081200Z 34003KT 300V020 9999 FEW020 21/19 Q1019 NOSIG', 'SCIP 081100Z VRB02KT CAVOK 20/19 Q1019 NOSIG', 'SCIP 081000Z 00000KT CAVOK 20/19 Q1019 NOSIG', 'SCIP 080900Z VRB01KT CAVOK 21/19 Q1019 NOSIG', 'SCIP 080800Z 00000KT CAVOK 21/19 Q1020 NOSIG', 'SCIP 080700Z VRB02KT CAVOK 21/19 Q1021 NOSIG', 'SCIP 080600Z 31003KT CAVOK 22/20 Q1021 NOSIG', 'SCIP 080500Z 01005KT 9999 FEW020 SCT240 22/20 Q1021 NOSIG', 'SCIP 080400Z VRB01KT CAVOK 23/20 Q1020 NOSIG', 'SCIP 080300Z VRB02KT CAVOK 24/20 Q1020 NOSIG', 'SCIP 080200Z 33006KT 9999 FEW021 SCT100 BKN250 24/20 Q1020 NOSIG', 'SCIP 080100Z 32008KT 9999 SCT020 BKN100 BKN230 25/21 Q1020 NOSIG', 'SCIP 080000Z 32011KT 9999 SCT020 BKN250 25/21 Q1020 NOSIG', 'SCIP 072300Z 33010KT 9999 SCT020 BKN230 26/21 Q1020 NOSIG', 'SCIP 072200Z 33011KT 9999 FEW020 BKN230 26/21 Q1020 NOSIG', 'SCIP 072100Z 32012KT 9999 SCT020 BKN230 27/21 Q1020 NOSIG', 'SCIP 072000Z 33011KT 290V350 9999 SCT016 SCT070 BKN230 26/22 Q1020 NOSIG', 'SCIP 071900Z 32013KT 9999 SCT016 SCT070 BKN250 26/22 Q1021 NOSIG', 'SCIP 071800Z 32013KT 9999 SCT015 BKN060 BKN070 26/22 Q1021 NOSIG', 'SCIP 071700Z 32011KT 9999 FEW013 BKN031 BKN060 25/22 Q1021 NOSIG', 'SCIP 071600Z 31006KT 9999 SCT013 BKN027 OVC031 24/22 Q1020 RESHRA NOSIG', 'SCIP 071500Z 32007KT 9999 VCSH SCT013 OVC028 24/22 Q1019 NOSIG', 'SCIP 071400Z 32006KT 9999 SCT011 BKN034 OVC041 24/22 Q1019 NOSIG', 'SCIP 071300Z 32004KT 9999 FEW013 SCT043 BKN083 23/22 Q1018 NOSIG', 'SCIP 071200Z 32004KT 290V350 9999 FEW010 SCT060 BKN080 24/22 Q1018 NOSIG', 'SCIP 071100Z 32005KT 9999 FEW010 SCT040 BKN066 23/22 Q1017 NOSIG', 'SCIP 071000Z 33004KT 300V010 9999 FEW010 SCT043 OVC073 23/22 Q1017 RESHRA NOSIG', 'SCIP 070900Z 30003KT 280V340 5000 -SHRA FEW006 BKN036 BKN073 23 /23 Q1018 NOSIG', 'SCIP 070800Z 31004KT 280V350 9999 FEW010 SCT043 BKN073 24/22 Q1019 NOSIG', 'SCIP 070700Z 33004KT 280V020 9999 FEW013 SCT050 BKN073 24/22 Q1019 NOSIG', 'SCIP 070600Z 33003KT 280V360 9999 FEW013 SCT033 BKN073 23/22 Q1019 NOSIG', 'SCIP 070500Z 03002KT 9999 SCT036 BKN073 23/22 Q1019 NOSIG', 'SCIP 070400Z 12003KT 9999 SCT020 OVC046 23/22 Q1018 NOSIG', 'SCIP 070300Z 10004KT 9999 FEW016 OVC026 23/22 Q1018 NOSIG', 'SCIP 070200Z 12004KT 9999 FEW005 SCT023 BKN073 23/22 Q1017 NOSIG', 'SCIP 070100Z 24004KT 9999 SCT004 OVC028 23/22 Q1017 NOSIG', 'SCIP 070000Z 12004KT 9999 SCT005 OVC020 23/23 Q1016 RERA TEMPO RA', 'SCIP 062300Z 11008KT 9999 SCT002 OVC010 23/23 Q1016 RERA TEMPO RA', 'SCIP 062200Z 14005KT 120V180 3000 RA SCT002 OVC009 23/23 Q1017 RERA TEMPO RA', 'SCIP 062100Z 12009KT 9999 SCT002 OVC009 24/23 Q1017 NOSIG', 'SCIP 062000Z 12008KT 9999 FEW002 SCT009 BKN011 24/23 Q1017 NOSIG', 'SCIP 061900Z VRB04KT 9999 FEW002 SCT008 BKN011 26/23 Q1017 NOSIG', 'SCIP 061800Z VRB03KT 9999 SCT009 BKN015 25/23 Q1018 NOSIG', 'SCIP 061700Z 26004KT 9999 SCT006 BKN021 24/23 Q1017 RERA TEMPO -RA', 'SCIP 061600Z 35003KT 310V030 9999 -RA SCT006 OVC011 24/22 Q1017 TEMPO -RA', 'SCIP 061500Z 34004KT 300V020 9999 -DZ SCT003 OVC009 23/23 Q1017 TEMPO -RA', 'SCIP 061400Z 33008KT 9999 BKN005 OVC009 23/22 Q1016 NOSIG', 'SCIP 061300Z 32009KT 9999 BKN006 BKN020 OVC030 23/22 Q1016 NOSIG', 'SCIP 061200Z 31009KT 9999 SCT005 BKN020 OVC060 23/22 Q1015 NOSIG', 'SCIP 061100Z 31009KT 9999 BKN005 BKN025 OVC030 23/22 Q1015 NOSIG', 'SCIP 061000Z 29010KT 9999 SCT008 SCT020 OVC030 23/22 Q1015 NOSIG', 'SCIP 060900Z 30012KT 290V010 9999 SCT008 BKN030 OVC060 23/22 Q1016 NOSIG', 'SCIP 060800Z 30016KT 9999 -RA BKN005 BKN020 OVC060 22/22 Q1017 NOSIG', 'SCIP 060700Z 29011KT 5000 -RA BKN005 BKN015 OVC030 23/22 Q1017 NOSIG', 'SCIP 060600Z 29012KT 8000 -RA BKN006 BKN020 OVC040 23/22 Q1017 NOSIG', 'SCIP 060500Z 28011KT 9999 -RA BKN008 BKN015 OVC030 23/22 Q1017 NOSIG', 'SCIP 060400Z 28010KT 9999 -RA BKN008 BKN020 OVC030 23/22 Q1016 NOSIG', 'SCIP 060300Z 29009KT 9999 FEW010 BKN015 OVC040 24/23 Q1015 NOSIG', 'SCIP 060200Z 31015KT 9999 SCT010 BKN020 OVC040 25/22 Q1015 NOSIG', 'SCIP 060100Z 31017KT 9999 FEW013 SCT046 BKN100 25/22 Q1014 NOSIG', 'SCIP 060000Z 31016KT 9999 FEW012 SCT046 OVC100 25/22 Q1014 NOSIG', 'SCIP 052300Z 32018KT 9999 FEW010 SCT046 OVC100 25/22 Q1015 NOSIG', 'SCIP 052200Z 32018KT 9999 FEW013 SCT046 BKN100 26/22 Q1015 NOSIG', 'SCIP 052100Z 32018KT 9999 FEW013 BKN160 28/23 Q1015 NOSIG', 'SCIP 052000Z 31019KT 9999 SCT012 BKN160 27/23 Q1015 NOSIG', 'SCIP 051900Z 32018KT 9999 FEW012 SCT033 BKN100 26/23 Q1015 NOSIG', 'SCIP 051800Z 32016KT CAVOK 26/22 Q1016 NOSIG', 'SCIP 051700Z 32016KT 9999 BKN043 SCT080 26/21 Q1016 NOSIG']","['2024-02-08 16:00:00', '2024-02-08 15:00:00', '2024-02-08 14:00:00', '2024-02-08 13:00:00', '2024-02-08 12:00:00', '2024-02-08 11:00:00', '2024-02-08 10:00:00', '2024-02-08 09:00:00', '2024-02-08 08:00:00', '2024-02-08 07:00:00', '2024-02-08 06:00:00', '2024-02-08 05:00:00', '2024-02-08 04:00:00', '2024-02-08 03:00:00', '2024-02-08 02:00:00', '2024-02-08 01:00:00', '2024-02-08 00:00:00', '2024-02-07 23:00:00', '2024-02-07 22:00:00', '2024-02-07 21:00:00', '2024-02-07 20:00:00', '2024-02-07 19:00:00', '2024-02-07 18:00:00', '2024-02-07 17:00:00', '2024-02-07 16:00:00', '2024-02-07 15:00:00', '2024-02-07 14:00:00', '2024-02-07 13:00:00', '2024-02-07 12:00:00', '2024-02-07 11:00:00', '2024-02-07 10:00:00', '2024-02-07 09:00:00', '2024-02-07 08:00:00', '2024-02-07 07:00:00', '2024-02-07 06:00:00', '2024-02-07 05:00:00', '2024-02-07 04:00:00', '2024-02-07 03:00:00', '2024-02-07 02:00:00', '2024-02-07 01:00:00', '2024-02-07 00:00:00', '2024-02-06 23:00:00', '2024-02-06 22:00:00', '2024-02-06 21:00:00', '2024-02-06 20:00:00', '2024-02-06 19:00:00', '2024-02-06 18:00:00', '2024-02-06 17:00:00', '2024-02-06 16:00:00', '2024-02-06 15:00:00', '2024-02-06 14:00:00', '2024-02-06 13:00:00', '2024-02-06 12:00:00', '2024-02-06 11:00:00', '2024-02-06 10:00:00', '2024-02-06 09:00:00', '2024-02-06 08:00:00', '2024-02-06 07:00:00', '2024-02-06 06:00:00', '2024-02-06 05:00:00', '2024-02-06 04:00:00', '2024-02-06 03:00:00', '2024-02-06 02:00:00', '2024-02-06 01:00:00', '2024-02-06 00:00:00', '2024-02-05 23:00:00', '2024-02-05 22:00:00', '2024-02-05 21:00:00', '2024-02-05 20:00:00', '2024-02-05 19:00:00', '2024-02-05 18:00:00', '2024-02-05 17:00:00']"
Chile, Puerto Montt El Tepual Airport (PMC/SCTE) ,"['SCTE 081500Z 19017KT 9999 FEW030 BKN200 16/09 Q1018 NOSIG', 'SCTE 081400Z 17016KT 9999 FEW025 SCT200 15/08 Q1018 NOSIG', 'SCTE 081300Z 20011KT CAVOK 14/09 Q1018 NOSIG', 'SCTE 081200Z 20009KT CAVOK 12/09 Q1019 NOSIG', 'SCTE 081100Z 19011KT 9999 FEW020 BKN200 12/09 Q1018 NOSIG', 'SCTE 081000Z 19008KT 9999 FEW020 10/09 Q1018 NOSIG', 'SCTE 080900Z 22004KT CAVOK 10/10 Q1018 NOSIG', 'SCTE 080800Z 21005KT CAVOK 11/10 Q1019 NOSIG', 'SCTE 080700Z 21006KT CAVOK 11/10 Q1019 NOSIG', 'SCTE 080600Z 19005KT CAVOK 10/09 Q1020 NOSIG', 'SCTE 080500Z 18005KT CAVOK 11/09 Q1020 NOSIG', 'SCTE 080400Z 19005KT 9999 FEW060 11/08 Q1021 NOSIG', 'SCTE 080300Z 22005KT 9999 FEW062 12/08 Q1021 NOSIG', 'SCTE 080200Z 22005KT 9999 SCT061 12/09 Q1021 NOSIG', 'SCTE 080100Z 24004KT 210V270 9999 SCT060 13/09 Q1021 NOSIG', 'SCTE 080000Z 23005KT 9999 SCT060 14/08 Q1021 NOSIG', 'SCTE 072300Z 22009KT 9999 SCT060 16/07 Q1020 NOSIG', 'SCTE 072200Z 24009KT 200V290 9999 SCT050 18/02 Q1020 NOSIG', 'SCTE 072100Z 16006KT 110V200 9999 BKN050 17/08 Q1019 NOSIG', 'SCTE 072000Z 15006KT 9999 SCT050 17/09 Q1019 NOSIG', 'SCTE 071900Z 15007KT 9999 SCT040 BKN050 17/07 Q1019 NOSIG', 'SCTE 071800Z 16006KT 9999 BKN040 17/08 Q1019 NOSIG', 'SCTE 071700Z 23006KT 180V280 9999 BKN040 17/08 Q1019 NOSIG', 'SCTE 071600Z 21007KT 9999 SCT050 17/07 Q1019 NOSIG', 'SCTE 071500Z 21008KT 9999 FEW040 BKN060 16/07 Q1019 NOSIG', 'SCTE 071400Z 24006KT 200V280 9999 BKN030 16/07 Q1019 NOSIG', 'SCTE 071300Z VRB03KT 9999 FEW060 15/09 Q1019 NOSIG', 'SCTE 071200Z VRB01KT 9999 SCT040 13/11 Q1018 NOSIG', 'SCTE 071100Z 27003KT 240V300 9999 FEW030 BKN050 10/10 Q1018 NOSIG', 'SCTE 071000Z 00000KT 9999 FEW043 BKN063 10/10 Q1017 NOSIG', 'SCTE 070900Z 19002KT 9999 FEW043 BKN060 10/10 Q1016 NOSIG', 'SCTE 070800Z VRB01KT 9999 FEW045 OVC053 10/10 Q1016 NOSIG', 'SCTE 070700Z VRB01KT 9999 OVC055 11/11 Q1015 NOSIG', 'SCTE 070600Z 21003KT 9999 OVC050 12/11 Q1015 NOSIG', 'SCTE 070500Z 21003KT 170V240 9999 BKN033 13/11 Q1015 NOSIG', 'SCTE 070400Z 23007G18KT 200V290 9000 -SHRA FEW006 SCT016 OVC030 14/13 Q1015 NOSIG', 'SCTE 070300Z 29004KT 250V330 9999 SCT012 OVC020 15/15 Q1014 RESHRA NOSIG', 'SCTE 070200Z 25014G26KT 220V280 8000 SHRA FEW006 OVC033 15/15 Q1013 NOSIG', 'SCTE 070138Z 29006KT 220V350 9999 SCT032 OVC041 18/14 Q1013 NOSIG', 'SCTE 070100Z 33009KT 300V360 9999 OVC040 19/13 Q1012 NOSIG', 'SCTE 070016Z 33008KT 9999 SCT042 BKN048 19/13 Q1012 NOSIG', 'SCTE 062300Z 33011KT 9999 BKN045 OVC085 20/13 Q1012 NOSIG', 'SCTE 062200Z 31007KT 280V340 9999 SCT045 OVC085 19/13 Q1011 NOSIG', 'SCTE 062100Z 29009KT 250V350 9999 -SHRA FEW022 BKN030 OVC095 20/15 Q1011 NOSIG', 'SCTE 062000Z 35014KT 9999 BKN047 OVC130 22/17 Q1009 NOSIG', 'SCTE 061933Z 35015KT 9999 FEW024 BKN130 21/17 Q1009 NOSIG', 'SCTE 061900Z 35015KT 9999 FEW022 OVC034 21/18 Q1009 NOSIG', 'SCTE 061800Z 01017KT 9999 SCT020 OVC030 20/17 Q1009 NOSIG', 'SCTE 061700Z 01014KT 9999 SCT020 OVC030 19/17 Q1009 NOSIG', 'SCTE 061600Z 01011KT 9999 BKN042 19/15 Q1010 NOSIG', 'SCTE 061536Z 02011KT 9999 BKN041 18/14 Q1011 NOSIG', 'SCTE 061500Z 02013KT 9999 -SHRA OVC051 18/14 Q1011 NOSIG', 'SCTE 061400Z 02011KT 9999 OVC070 17/14 Q1012 NOSIG', 'SCTE 061300Z 02006KT 9999 BKN072 16/16 Q1012 NOSIG', 'SCTE 061200Z 02005KT 9999 BKN075 16/15 Q1012 NOSIG', 'SCTE 061100Z 02006KT CAVOK 15/14 Q1013 NOSIG', 'SCTE 061000Z 01005KT CAVOK 14/14 Q1013 NOSIG', 'SCTE 060900Z 04005KT CAVOK 13/13 Q1012 NOSIG', 'SCTE 060800Z 04005KT CAVOK 13/13 Q1013 NOSIG', 'SCTE 060700Z 04003KT CAVOK 13/13 Q1013 NOSIG', 'SCTE 060600Z 00000KT 9999 SCT041 BKN200 14/14 Q1013 NOSIG', 'SCTE 060500Z 00000KT 9999 SCT043 15/15 Q1014 NOSIG', 'SCTE 060400Z 00000KT 9999 BKN030 16/15 Q1014 NOSIG', 'SCTE 060300Z 00000KT 9999 BKN040 16/15 Q1014 NOSIG', 'SCTE 060200Z 11003KT 9999 OVC040 16/15 Q1014 NOSIG', 'SCTE 060000Z 22006KT 9999 SCT030 BKN200 18/15 Q1014 NOSIG', 'SCTE 052300Z 23007KT 200V270 9999 SCT040 BKN250 20/15 Q1014 NOSIG', 'SCTE 052235Z 22008KT 200V260 9999 FEW027 SCT047 21/15 Q1013 NOSIG', 'SCTE 052200Z 27006KT 200V350 9999 FEW020 BKN025 21/17 Q1013 NOSIG', 'SCTE 052100Z 02011KT 9999 FEW020 SCT033 BKN250 22/17 Q1013 NOSIG', 'SCTE 052000Z 02009KT 9999 SCT012 BKN250 21/18 Q1013 NOSIG', 'SCTE 051941Z 02009KT 350V050 9999 SCT010 BKN250 21/18 Q1013 NOSIG', 'SCTE 051900Z 02007KT 9999 SCT009 BKN026 20/19 Q1014 NOSIG', 'SCTE 051800Z 04007KT 010V070 9999 SCT007 BKN012 17/17 Q1014 NOSIG', 'SCTE 051700Z 02008KT 6000 -DZ BKN004 OVC010 17/17 Q1014 NOSIG', 'SCTE 051632Z 02008KT 350V050 4000 DZ SCT003 BKN005 OVC010 16/16 Q1014 NOSIG']","['2024-02-08 15:00:00', '2024-02-08 14:00:00', '2024-02-08 13:00:00', '2024-02-08 12:00:00', '2024-02-08 11:00:00', '2024-02-08 10:00:00', '2024-02-08 09:00:00', '2024-02-08 08:00:00', '2024-02-08 07:00:00', '2024-02-08 06:00:00', '2024-02-08 05:00:00', '2024-02-08 04:00:00', '2024-02-08 03:00:00', '2024-02-08 02:00:00', '2024-02-08 01:00:00', '2024-02-08 00:00:00', '2024-02-07 23:00:00', '2024-02-07 22:00:00', '2024-02-07 21:00:00', '2024-02-07 20:00:00', '2024-02-07 19:00:00', '2024-02-07 18:00:00', '2024-02-07 17:00:00', '2024-02-07 16:00:00', '2024-02-07 15:00:00', '2024-02-07 14:00:00', '2024-02-07 13:00:00', '2024-02-07 12:00:00', '2024-02-07 11:00:00', '2024-02-07 10:00:00', '2024-02-07 09:00:00', '2024-02-07 08:00:00', '2024-02-07 07:00:00', '2024-02-07 06:00:00', '2024-02-07 05:00:00', '2024-02-07 04:00:00', '2024-02-07 03:00:00', '2024-02-07 02:00:00', '2024-02-07 01:38:00', '2024-02-07 01:00:00', '2024-02-07 00:16:00', '2024-02-06 23:00:00', '2024-02-06 22:00:00', '2024-02-06 21:00:00', '2024-02-06 20:00:00', '2024-02-06 19:33:00', '2024-02-06 19:00:00', '2024-02-06 18:00:00', '2024-02-06 17:00:00', '2024-02-06 16:00:00', '2024-02-06 15:36:00', '2024-02-06 15:00:00', '2024-02-06 14:00:00', '2024-02-06 13:00:00', '2024-02-06 12:00:00', '2024-02-06 11:00:00', '2024-02-06 10:00:00', '2024-02-06 09:00:00', '2024-02-06 08:00:00', '2024-02-06 07:00:00', '2024-02-06 06:00:00', '2024-02-06 05:00:00', '2024-02-06 04:00:00', '2024-02-06 03:00:00', '2024-02-06 02:00:00', '2024-02-06 00:00:00', '2024-02-05 23:00:00', '2024-02-05 22:35:00', '2024-02-05 22:00:00', '2024-02-05 21:00:00', '2024-02-05 20:00:00', '2024-02-05 19:41:00', '2024-02-05 19:00:00', '2024-02-05 18:00:00', '2024-02-05 17:00:00', '2024-02-05 16:32:00']"
Chile, Puerto Natales Teniente Julio Gallardo Airport (PNT/SCNT) ,"['SCNT 081600Z 28026G36KT 9999 SCT050 BKN100 15/03 Q1005', 'SCNT 081500Z 29024G34KT 260V320 9999 BKN050 BKN100 14/04 Q1005', 'SCNT 081400Z 28025G35KT 9999 BKN050 13/03 Q1004', 'SCNT 081300Z 28021G31KT 9999 SCT050 BKN200 13/03 Q1004', 'SCNT 081200Z 28018G28KT 260V320 9999 SCT050 BKN200 13/02 Q1004', 'SCNT 081100Z 28019KT 9999 BKN050 SCT200 11/02 Q1004', 'SCNT 072100Z 29031G42KT 9999 BKN050 14/03 Q0997', 'SCNT 072000Z 29029KT 9999 BKN050 14/03 Q0997', 'SCNT 071900Z 29029G39KT 9999 SCT050 SCT200 14/03 Q0998 RMK AC LENT AL N', 'SCNT 071800Z 28022G32KT 9999 SCT050 BKN100 12/01 Q0998 RMK AC LENT AL N', 'SCNT 071700Z 27024G36KT 9999 SCT050 BKN100 BKN200 13/02 Q0997 RMK AC LENT EN TODAS DIRECCIONES', 'SCNT 071600Z 27019KT 9999 SCT050 BKN200 14/03 Q0996', 'SCNT 071500Z 28020G30KT 9999 BKN050 12/04 Q0995', 'SCNT 071400Z 25019G39KT 9999 SCT050 12/03 Q0994', 'SCNT 071300Z 25021G35KT 9999 BKN050 12/02 Q0992', 'SCNT 071200Z 25015G25KT 9999 BKN050 SCT200 12/03 Q0991', 'SCNT 071100Z 24022G35KT 9999 SCT050 SCT200 12/02 Q0989', 'SCNT 062100Z 11010KT 9999 OVC050 17/05 Q0986', 'SCNT 062000Z 14008KT 9999 OVC050 18/05 Q0987', 'SCNT 061900Z 21009KT 9999 BKN050 20/04 Q0989', 'SCNT 061800Z 31012KT 260V350 9999 BKN050 22/03 Q0990', 'SCNT 061700Z 33012KT 9999 BKN050 21/02 Q0991', 'SCNT 061600Z 34010G20KT 310V030 9999 BKN050 21/03 Q0992', 'SCNT 061500Z VRB05KT 9999 SCT050 19/04 Q0994', 'SCNT 061400Z 19006KT 9999 BKN050 16/03 Q0995', 'SCNT 061300Z 20006KT 9999 BKN050 14/05 Q0996', 'SCNT 061200Z 31008KT 9999 BKN050 15/02 Q0996', 'SCNT 052200Z 28026G38KT 9999 FEW050 16/00 Q0999 RMK AC LENT EN TODAS DIRECCIONES', 'SCNT 052100Z 27030G40KT 9999 FEW050 15/01 Q0998 RMK AC LENT NW DEL AD', 'SCNT 052000Z 28032G42KT 9999 FEW050 16/02 Q0997 RMK AC LENT AL N', 'SCNT 051900Z 29028G38KT 9999 SCT050 14/00 Q0998', 'SCNT 051800Z 31020G33KT 9999 SCT050 15/03 Q0998', 'SCNT 051700Z 28026G36KT 9999 SCT030 14/04 Q0997']","['2024-02-08 16:00:00', '2024-02-08 15:00:00', '2024-02-08 14:00:00', '2024-02-08 13:00:00', '2024-02-08 12:00:00', '2024-02-08 11:00:00', '2024-02-07 21:00:00', '2024-02-07 20:00:00', '2024-02-07 19:00:00', '2024-02-07 18:00:00', '2024-02-07 17:00:00', '2024-02-07 16:00:00', '2024-02-07 15:00:00', '2024-02-07 14:00:00', '2024-02-07 13:00:00', '2024-02-07 12:00:00', '2024-02-07 11:00:00', '2024-02-06 21:00:00', '2024-02-06 20:00:00', '2024-02-06 19:00:00', '2024-02-06 18:00:00', '2024-02-06 17:00:00', '2024-02-06 16:00:00', '2024-02-06 15:00:00', '2024-02-06 14:00:00', '2024-02-06 13:00:00', '2024-02-06 12:00:00', '2024-02-05 22:00:00', '2024-02-05 21:00:00', '2024-02-05 20:00:00', '2024-02-05 19:00:00', '2024-02-05 18:00:00', '2024-02-05 17:00:00']"
Chile, Puerto Williams Guardiamarina Zanartu Airport (WPU/SCGZ) ,"['SCGZ 081600Z 28011KT 9999 SCT050 BKN066 OVC083 10/05 Q0997', 'SCGZ 081500Z 28019G29KT 9999 FEW050 BKN066 BKN086 11/01 Q0997', 'SCGZ 081400Z 28019KT 9999 FEW050 BKN076 BKN100 09/03 Q0997', 'SCGZ 081300Z 29013KT 9999 SCT076 BKN100 09/03 Q0997', 'SCGZ 081200Z 28012KT 9999 SCT050 SCT066 BKN083 09/01 Q0997', 'SCGZ 080400Z 25005KT 9999 VCSH FEW036 BKN043 07/05 Q0991 RESHRA', 'SCGZ 080300Z 27008KT 9999 -SHRA FEW036 BKN043 08/04 Q0991', 'SCGZ 080200Z 28014KT 9999 FEW042 BKN056 BKN080 09/03 Q0991', 'SCGZ 080100Z 26008KT 9999 FEW043 SCT060 BKN086 09/01 Q0990', 'SCGZ 080000Z 24014KT 9999 FEW043 SCT070 BKN100 10/00 Q0990', 'SCGZ 072000Z 25024G34KT 9999 FEW050 SCT066 14/00 Q0987', 'SCGZ 071900Z 25019G30KT 9999 FEW050 SCT083 15/01 Q0986', 'SCGZ 071800Z 25021G31KT 9999 FEW050 BKN083 16/02 Q0985', 'SCGZ 071700Z 23016KT 9999 FEW042 BKN050 16/04 Q0985', 'SCGZ 071600Z 22018G28KT 9999 FEW040 BKN046 14/06 Q0984', 'SCGZ 071500Z 17012KT 9999 FEW040 BKN046 14/07 Q0983', 'SCGZ 071400Z 19011G21KT 9999 BKN045 BKN100 15/06 Q0982', 'SCGZ 071300Z 28012KT 220V310 9999 BKN045 SCT100 15/06 Q0982', 'SCGZ 071200Z 28013KT 9999 FEW045 SCT076 12/07 Q0981', 'SCGZ 071100Z 26004KT 9999 FEW050 SCT083 11/06 Q0981', 'SCGZ 062000Z 36006KT 9999 FEW046 SCT080 BKN150 19/05 Q0991', 'SCGZ 061900Z 07008KT 9999 FEW046 SCT080 BKN150 19/06 Q0992', 'SCGZ 061800Z 15003KT 9999 FEW043 SCT076 BKN100 17/07 Q0993', 'SCGZ 061700Z 28007KT 9999 FEW050 SCT083 BKN100 17/03 Q0994', 'SCGZ 061600Z 29008KT 9999 FEW050 SCT083 BKN100 16/05 Q0995', 'SCGZ 061500Z 30007KT 9999 FEW050 BKN083 BKN100 15/05 Q0996', 'SCGZ 061400Z 31012KT 270V010 9999 SCT060 BKN076 15/04 Q0996', 'SCGZ 061300Z 09008KT 9999 SCT060 BKN076 14/05 Q0997', 'SCGZ 061200Z 11009KT 9999 FEW050 BKN076 12/04 Q0997', 'SCGZ 061100Z 11014KT 9999 FEW050 BKN076 11/04 Q0998', 'SCGZ 052000Z 26022KT 9999 SCT045 15/03 Q0989', 'SCGZ 051900Z 27023KT 9999 BKN045 15/01 Q0987', 'SCGZ 051800Z 27021G31KT 9999 SCT045 15/02 Q0986', 'SCGZ 051700Z 28017KT 9999 SCT043 16/03 Q0985']","['2024-02-08 16:00:00', '2024-02-08 15:00:00', '2024-02-08 14:00:00', '2024-02-08 13:00:00', '2024-02-08 12:00:00', '2024-02-08 04:00:00', '2024-02-08 03:00:00', '2024-02-08 02:00:00', '2024-02-08 01:00:00', '2024-02-08 00:00:00', '2024-02-07 20:00:00', '2024-02-07 19:00:00', '2024-02-07 18:00:00', '2024-02-07 17:00:00', '2024-02-07 16:00:00', '2024-02-07 15:00:00', '2024-02-07 14:00:00', '2024-02-07 13:00:00', '2024-02-07 12:00:00', '2024-02-07 11:00:00', '2024-02-06 20:00:00', '2024-02-06 19:00:00', '2024-02-06 18:00:00', '2024-02-06 17:00:00', '2024-02-06 16:00:00', '2024-02-06 15:00:00', '2024-02-06 14:00:00', '2024-02-06 13:00:00', '2024-02-06 12:00:00', '2024-02-06 11:00:00', '2024-02-05 20:00:00', '2024-02-05 19:00:00', '2024-02-05 18:00:00', '2024-02-05 17:00:00']"
Chile, Punta Arenas International Airport (PUQ/SCCI) ,"['SCCI 081500Z 29013KT 9999 FEW033 BKN052 12/04 Q1001 NOSIG', 'SCCI 081400Z 28012KT 9999 BKN044 11/04 Q1002 NOSIG', 'SCCI 081300Z 28013KT 9999 BKN031 SCT190 11/03 Q1001 NOSIG', 'SCCI 081200Z 27011KT 9999 SCT035 SCT200 10/04 Q1002 NOSIG', 'SCCI 081100Z 27016KT 9999 BKN040 09/04 Q1002 NOSIG', 'SCCI 081000Z 27023KT 9999 SCT035 08/03 Q1001 NOSIG', 'SCCI 080900Z 27021KT 9999 BKN040 08/04 Q1001 NOSIG', 'SCCI 080800Z 27016KT 9999 SCT045 08/03 Q1001 NOSIG', 'SCCI 080700Z 27022KT 9999 FEW045 08/02 Q1001 NOSIG', 'SCCI 080600Z 27025G36KT 9999 FEW040 09/02 Q1000 NOSIG', 'SCCI 080500Z 27026KT CAVOK 09/03 Q0999 NOSIG', 'SCCI 080400Z 27026G36KT CAVOK 09/03 Q0998 NOSIG', 'SCCI 080300Z 27026G36KT CAVOK 09/03 Q0997 NOSIG', 'SCCI 080200Z 29027KT CAVOK 09/05 Q0995 NOSIG', 'SCCI 080100Z 28027KT 9999 FEW040 SCT150 10/05 Q0994 NOSIG', 'SCCI 080000Z 28021KT 9999 SCT030 SCT120 10/06 Q0993 NOSIG', 'SCCI 072300Z 29026G36KT 9999 SCT030 12/05 Q0993 NOSIG', 'SCCI 072200Z 29015KT 9999 FEW030 BKN150 12/04 Q0994 NOSIG', 'SCCI 072100Z 26019KT 9999 FEW040 BKN150 11/03 Q0994 NOSIG', 'SCCI 072000Z 25026KT 9999 FEW040 BKN110 11/02 Q0994 NOSIG', 'SCCI 071900Z 25027G38KT 9999 FEW040 BKN100 11/02 Q0994 NOSIG', 'SCCI 071800Z 26032G48KT 9999 FEW040 SCT100 12/02 Q0993 NOSIG', 'SCCI 071700Z 27033G43KT 9999 FEW035 SCT100 13/03 Q0992 NOSIG', 'SCCI 071600Z 26029KT 9999 SCT030 13/04 Q0991 NOSIG', 'SCCI 071500Z 26031G41KT 9999 SCT027 12/05 Q0989 NOSIG', 'SCCI 071400Z 27028G41KT 9999 SCT043 BKN130 12/04 Q0988 NOSIG', 'SCCI 071300Z 26029G39KT 9999 SCT040 BKN090 11/05 Q0986 NOSIG', 'SCCI 071200Z 26024G35KT 9999 SCT032 BKN100 11/07 Q0985 NOSIG', 'SCCI 071100Z 25016KT 9999 FEW045 BKN080 11/08 Q0983 NOSIG', 'SCCI 071000Z 25010KT 9999 FEW045 BKN070 12/06 Q0982 NOSIG', 'SCCI 070900Z 24011KT 9999 -RA FEW045 BKN100 11/07 Q0981 NOSIG', 'SCCI 070800Z 21015KT 9999 FEW045 BKN100 11/07 Q0981 NOSIG', 'SCCI 070700Z 17008KT 9999 FEW045 BKN100 12/05 Q0981 NOSIG', 'SCCI 070600Z 18008KT 9999 FEW045 BKN100 12/04 Q0981 NOSIG', 'SCCI 070500Z 13010KT 9999 FEW045 BKN100 12/05 Q0981 NOSIG', 'SCCI 070400Z 14010KT 9999 FEW045 BKN100 12/05 Q0981 NOSIG', 'SCCI 070300Z 09008KT 9999 FEW045 BKN100 11/06 Q0982 NOSIG', 'SCCI 070200Z 06006KT 9999 -RA FEW045 BKN070 12/07 Q0983 NOSIG', 'SCCI 070100Z 11010KT 9999 FEW045 BKN100 12/07 Q0984 NOSIG', 'SCCI 070000Z 07009KT 9999 FEW045 BKN070 12/07 Q0985 NOSIG', 'SCCI 062300Z 07009KT CAVOK 13/06 Q0986 NOSIG', 'SCCI 062200Z 05011KT CAVOK 13/06 Q0987 NOSIG', 'SCCI 062100Z 07013KT CAVOK 13/06 Q0988 NOSIG', 'SCCI 062000Z 07018KT CAVOK 15/05 Q0989 NOSIG', 'SCCI 061900Z 06016KT CAVOK 15/06 Q0990 NOSIG', 'SCCI 061800Z 05013KT CAVOK 16/06 Q0991 NOSIG', 'SCCI 061700Z 04011KT CAVOK 15/06 Q0993 NOSIG', 'SCCI 061600Z 03014KT CAVOK 16/04 Q0994 NOSIG', 'SCCI 061500Z 04012KT CAVOK 15/05 Q0995 NOSIG', 'SCCI 061400Z 03014KT CAVOK 14/05 Q0996 NOSIG', 'SCCI 061300Z 05010KT CAVOK 13/04 Q0997 NOSIG', 'SCCI 061200Z 05011KT CAVOK 11/04 Q0997 NOSIG', 'SCCI 061100Z 01009KT 9999 FEW040 SCT075 BKN085 10/03 Q0998 NOSIG', 'SCCI 061000Z 01007KT 310V040 9999 FEW040 BKN070 09/05 Q0998 NOSIG', 'SCCI 060900Z 08002KT 9999 FEW040 OVC070 09/05 Q0999 NOSIG', 'SCCI 060800Z 02003KT 9999 FEW040 OVC080 09/04 Q0999 NOSIG', 'SCCI 060700Z 36007KT 9999 FEW040 SCT088 OVC100 10/05 Q0999 NOSIG', 'SCCI 060600Z 05007KT 020V090 9999 FEW040 BKN110 10/05 Q1000 NOSIG', 'SCCI 060500Z 03008KT 9999 FEW040 BKN110 10/05 Q1000 NOSIG', 'SCCI 060400Z 29014KT 9999 FEW040 SCT087 BKN240 11/05 Q1000 NOSIG', 'SCCI 060300Z 29012KT 9999 FEW040 BKN140 BKN200 11/04 Q1000 NOSIG', 'SCCI 060200Z 29012KT 9999 FEW040 SCT130 BKN200 12/04 Q0999 NOSIG', 'SCCI 060100Z 29019KT 9999 FEW045 SCT078 BKN200 12/03 Q0999 NOSIG', 'SCCI 060000Z 31013KT 9999 FEW045 BKN073 BKN250 12/04 Q0999 NOSIG', 'SCCI 052300Z 28013KT 9999 FEW045 13/03 Q0999 NOSIG', 'SCCI 052200Z 29021KT 9999 FEW040 13/03 Q0997 NOSIG', 'SCCI 052100Z 27026KT 9999 FEW040 13/04 Q0996 NOSIG', 'SCCI 052000Z 29028G39KT 9999 FEW040 14/02 Q0994 NOSIG', 'SCCI 051900Z 28039G54KT 9999 FEW040 14/04 Q0991 NOSIG', 'SCCI 051800Z 28025G44KT 9999 FEW040 14/03 Q0992 NOSIG', 'SCCI 051700Z 29033G45KT 9999 FEW040 14/05 Q0992 NOSIG']","['2024-02-08 15:00:00', '2024-02-08 14:00:00', '2024-02-08 13:00:00', '2024-02-08 12:00:00', '2024-02-08 11:00:00', '2024-02-08 10:00:00', '2024-02-08 09:00:00', '2024-02-08 08:00:00', '2024-02-08 07:00:00', '2024-02-08 06:00:00', '2024-02-08 05:00:00', '2024-02-08 04:00:00', '2024-02-08 03:00:00', '2024-02-08 02:00:00', '2024-02-08 01:00:00', '2024-02-08 00:00:00', '2024-02-07 23:00:00', '2024-02-07 22:00:00', '2024-02-07 21:00:00', '2024-02-07 20:00:00', '2024-02-07 19:00:00', '2024-02-07 18:00:00', '2024-02-07 17:00:00', '2024-02-07 16:00:00', '2024-02-07 15:00:00', '2024-02-07 14:00:00', '2024-02-07 13:00:00', '2024-02-07 12:00:00', '2024-02-07 11:00:00', '2024-02-07 10:00:00', '2024-02-07 09:00:00', '2024-02-07 08:00:00', '2024-02-07 07:00:00', '2024-02-07 06:00:00', '2024-02-07 05:00:00', '2024-02-07 04:00:00', '2024-02-07 03:00:00', '2024-02-07 02:00:00', '2024-02-07 01:00:00', '2024-02-07 00:00:00', '2024-02-06 23:00:00', '2024-02-06 22:00:00', '2024-02-06 21:00:00', '2024-02-06 20:00:00', '2024-02-06 19:00:00', '2024-02-06 18:00:00', '2024-02-06 17:00:00', '2024-02-06 16:00:00', '2024-02-06 15:00:00', '2024-02-06 14:00:00', '2024-02-06 13:00:00', '2024-02-06 12:00:00', '2024-02-06 11:00:00', '2024-02-06 10:00:00', '2024-02-06 09:00:00', '2024-02-06 08:00:00', '2024-02-06 07:00:00', '2024-02-06 06:00:00', '2024-02-06 05:00:00', '2024-02-06 04:00:00', '2024-02-06 03:00:00', '2024-02-06 02:00:00', '2024-02-06 01:00:00', '2024-02-06 00:00:00', '2024-02-05 23:00:00', '2024-02-05 22:00:00', '2024-02-05 21:00:00', '2024-02-05 20:00:00', '2024-02-05 19:00:00', '2024-02-05 18:00:00', '2024-02-05 17:00:00']"
Chile, Santiago International Airport (SCL/SCEL) ,"['SCEL 081600Z 18007KT 130V220 CAVOK 31/14 Q1012 NOSIG', 'SCEL 081500Z VRB05KT CAVOK 29/15 Q1012 NOSIG', 'SCEL 081400Z 22003KT 140V300 CAVOK 26/14 Q1012 NOSIG', 'SCEL 081300Z VRB02KT CAVOK 24/15 Q1012 NOSIG', 'SCEL 081200Z VRB02KT CAVOK 22/15 Q1012 NOSIG', 'SCEL 081100Z 36003KT 340V050 CAVOK 19/14 Q1012 NOSIG', 'SCEL 081000Z 16002KT CAVOK 20/15 Q1011 NOSIG', 'SCEL 080900Z 16004KT 120V210 CAVOK 20/15 Q1011 NOSIG', 'SCEL 080800Z 16006KT CAVOK 20/15 Q1011 NOSIG', 'SCEL 080700Z 00000KT CAVOK 21/14 Q1011 NOSIG', 'SCEL 080600Z 28003KT 260V320 CAVOK 21/14 Q1016 NOSIG', 'SCEL 080500Z 15004KT CAVOK 23/15 Q1012 NOSIG', 'SCEL 080400Z 15007KT CAVOK 23/15 Q1012 NOSIG', 'SCEL 080300Z 15007KT CAVOK 24/15 Q1012 NOSIG', 'SCEL 080200Z 14007KT CAVOK 26/14 Q1012 NOSIG', 'SCEL 080100Z 19010KT CAVOK 27/14 Q1012 NOSIG', 'SCEL 080000Z 19013KT CAVOK 28/14 Q1012 NOSIG', 'SCEL 072300Z 21017KT CAVOK 30/12 Q1011 NOSIG', 'SCEL 072200Z 21016KT CAVOK 32/13 Q1011 NOSIG', 'SCEL 072100Z 22014KT 180V240 CAVOK 33/12 Q1011 NOSIG', 'SCEL 072000Z 21013KT 190V250 CAVOK 33/09 Q1011 NOSIG', 'SCEL 071900Z 16010KT 110V210 CAVOK 34/09 Q1012 NOSIG', 'SCEL 071800Z 16009KT 120V210 CAVOK 33/10 Q1012 NOSIG', 'SCEL 071700Z 18009KT 150V230 CAVOK 32/12 Q1013 NOSIG', 'SCEL 071600Z 15007KT 110V180 CAVOK 29/12 Q1013 NOSIG', 'SCEL 071500Z 20006KT 160V260 CAVOK 28/11 Q1014 NOSIG', 'SCEL 071400Z 17005KT 130V210 CAVOK 25/11 Q1014 NOSIG', 'SCEL 071300Z VRB03KT CAVOK 22/12 Q1014 NOSIG', 'SCEL 071200Z VRB02KT 8000 NSC 19/11 Q1014 NOSIG', 'SCEL 071100Z VRB02KT 7000 NSC 16/10 Q1014 NOSIG', 'SCEL 071000Z 33002KT CAVOK 16/11 Q1014 NOSIG', 'SCEL 070900Z VRB01KT CAVOK 16/11 Q1014 NOSIG', 'SCEL 070800Z 00000KT CAVOK 17/11 Q1014 NOSIG', 'SCEL 070700Z 18003KT 100V210 CAVOK 19/11 Q1014 NOSIG', 'SCEL 070600Z 16003KT CAVOK 18/11 Q1014 NOSIG', 'SCEL 070500Z 16006KT CAVOK 19/11 Q1015 NOSIG', 'SCEL 070400Z 17008KT CAVOK 20/11 Q1015 NOSIG', 'SCEL 070400Z 17008KT CAVOK 20/11 Q1015 NOSIG', 'SCEL 070300Z 16007KT CAVOK 21/11 Q1015 NOSIG', 'SCEL 070200Z 15009KT CAVOK 22/10 Q1015 NOSIG', 'SCEL 070100Z 14008KT CAVOK 23/09 Q1015 NOSIG', 'SCEL 070000Z 20012KT CAVOK 24/11 Q1014 NOSIG', 'SCEL 062300Z 21014KT CAVOK 26/12 Q1014 NOSIG', 'SCEL 062200Z 21017KT CAVOK 28/12 Q1014 NOSIG', 'SCEL 062100Z 21016KT CAVOK 30/12 Q1014 NOSIG', 'SCEL 062100Z 21016KT CAVOK 30/12 Q1014 NOSIG', 'SCEL 062000Z 21017KT CAVOK 31/12 Q1015 NOSIG', 'SCEL 061900Z 22016KT CAVOK 31/12 Q1015 NOSIG RMK TCU EN CORD', 'SCEL 061900Z 22016KT CAVOK 31/12 Q1015 NOSIG RMK TCU EN CORD', 'SCEL 061800Z 21016KT CAVOK 31/11 Q1015 NOSIG', 'SCEL 061800Z 21016KT CAVOK 31/11 Q1015 NOSIG', 'SCEL 061700Z 19011KT 150V230 CAVOK 31/11 Q1015 NOSIG', 'SCEL 061700Z 19011KT 150V230 CAVOK 31/11 Q1015 NOSIG', 'SCEL 061600Z 19007KT 110V270 CAVOK 30/11 Q1015 NOSIG', 'SCEL 061600Z 19007KT 110V270 CAVOK 30/11 Q1015 NOSIG', 'SCEL 061500Z 19005KT 140V300 CAVOK 28/11 Q1016 NOSIG', 'SCEL 061400Z VRB03KT CAVOK 26/11 Q1016 NOSIG', 'SCEL 061300Z 17004KT CAVOK 24/11 Q1016 NOSIG', 'SCEL 061200Z 20003KT 130V240 CAVOK 21/10 Q1015 NOSIG', 'SCEL 061100Z 15003KT CAVOK 19/09 Q1015 NOSIG', 'SCEL 061000Z 00000KT CAVOK 17/10 Q1014 NOSIG', 'SCEL 060900Z 00000KT CAVOK 18/11 Q1013 NOSIG', 'SCEL 060800Z 26003KT 230V320 CAVOK 18/10 Q1013 NOSIG', 'SCEL 060700Z 35005KT CAVOK 19/09 Q1013 NOSIG', 'SCEL 060600Z 15005KT CAVOK 20/09 Q1013 NOSIG', 'SCEL 060500Z 16006KT CAVOK 21/10 Q1013 NOSIG', 'SCEL 060400Z 15006KT CAVOK 23/11 Q1014 NOSIG', 'SCEL 060300Z 13006KT 110V170 CAVOK 23/12 Q1014 NOSIG', 'SCEL 060200Z 16008KT CAVOK 24/12 Q1014 NOSIG', 'SCEL 060100Z 19011KT CAVOK 26/12 Q1013 NOSIG', 'SCEL 060000Z 21013KT CAVOK 27/12 Q1012 NOSIG', 'SCEL 052300Z 21013KT CAVOK 29/12 Q1012 NOSIG', 'SCEL 052200Z 21016KT CAVOK 30/11 Q1012 NOSIG', 'SCEL 052200Z 21016KT CAVOK 30/11 Q1012 NOSIG', 'SCEL 052100Z 22014KT CAVOK 31/12 Q1012 NOSIG', 'SCEL 052000Z 21013KT CAVOK 32/13 Q1012 NOSIG', 'SCEL 051900Z 17011KT CAVOK 32/13 Q1013 NOSIG', 'SCEL 051800Z 17010KT 140V200 CAVOK 31/12 Q1013 NOSIG', 'SCEL 051700Z 17007KT 100V210 CAVOK 29/13 Q1014 NOSIG']","['2024-02-08 16:00:00', '2024-02-08 15:00:00', '2024-02-08 14:00:00', '2024-02-08 13:00:00', '2024-02-08 12:00:00', '2024-02-08 11:00:00', '2024-02-08 10:00:00', '2024-02-08 09:00:00', '2024-02-08 08:00:00', '2024-02-08 07:00:00', '2024-02-08 06:00:00', '2024-02-08 05:00:00', '2024-02-08 04:00:00', '2024-02-08 03:00:00', '2024-02-08 02:00:00', '2024-02-08 01:00:00', '2024-02-08 00:00:00', '2024-02-07 23:00:00', '2024-02-07 22:00:00', '2024-02-07 21:00:00', '2024-02-07 20:00:00', '2024-02-07 19:00:00', '2024-02-07 18:00:00', '2024-02-07 17:00:00', '2024-02-07 16:00:00', '2024-02-07 15:00:00', '2024-02-07 14:00:00', '2024-02-07 13:00:00', '2024-02-07 12:00:00', '2024-02-07 11:00:00', '2024-02-07 10:00:00', '2024-02-07 09:00:00', '2024-02-07 08:00:00', '2024-02-07 07:00:00', '2024-02-07 06:00:00', '2024-02-07 05:00:00', '2024-02-07 04:00:00', '2024-02-07 03:59:00', '2024-02-07 03:00:00', '2024-02-07 02:00:00', '2024-02-07 01:00:00', '2024-02-07 00:00:00', '2024-02-06 23:00:00', '2024-02-06 22:00:00', '2024-02-06 21:00:00', '2024-02-06 20:59:00', '2024-02-06 20:00:00', '2024-02-06 19:00:00', '2024-02-06 18:59:00', '2024-02-06 18:00:00', '2024-02-06 17:57:00', '2024-02-06 17:00:00', '2024-02-06 16:59:00', '2024-02-06 16:00:00', '2024-02-06 15:58:00', '2024-02-06 15:00:00', '2024-02-06 14:00:00', '2024-02-06 13:00:00', '2024-02-06 12:00:00', '2024-02-06 11:00:00', '2024-02-06 10:00:00', '2024-02-06 09:00:00', '2024-02-06 08:00:00', '2024-02-06 07:00:00', '2024-02-06 06:00:00', '2024-02-06 05:00:00', '2024-02-06 04:00:00', '2024-02-06 03:00:00', '2024-02-06 02:00:00', '2024-02-06 01:00:00', '2024-02-06 00:00:00', '2024-02-05 23:00:00', '2024-02-05 22:00:00', '2024-02-05 21:59:00', '2024-02-05 21:00:00', '2024-02-05 20:00:00', '2024-02-05 19:00:00', '2024-02-05 18:00:00', '2024-02-05 17:00:00']"
Chile, Valdivia Pichoy Airport (ZAL/SCVD) ,"['SCVD 081500Z 18008KT 090V230 CAVOK 18/08 Q1016', 'SCVD 081400Z 18005KT CAVOK 15/09 Q1016', 'SCVD 081300Z 18007KT CAVOK 15/08 Q1016', 'SCVD 081200Z 20007KT 160V220 CAVOK 14/08 Q1016', 'SCVD 081100Z AUTO 20007KT 9999 NCD 14/08 Q1016', 'SCVD 081000Z AUTO 20004KT 160V220 9999 NCD 13/08 Q1016', 'SCVD 080900Z AUTO 18004KT 9999 NCD 13/08 Q1016', 'SCVD 080800Z AUTO 18003KT 9999 NCD 13/08 Q1016', 'SCVD 080700Z AUTO 18004KT 130V220 9999 NCD 13/08 Q1017', 'SCVD 080600Z 18005KT 160V220 CAVOK 13/07 Q1018', 'SCVD 080500Z 17010KT 140V200 CAVOK 15/07 Q1019', 'SCVD 080400Z 17010KT CAVOK 15/07 Q1019', 'SCVD 080300Z 19006KT 150V220 CAVOK 15/10 Q1019', 'SCVD 080200Z VRB02KT CAVOK 15/12 Q1019', 'SCVD 080100Z AUTO 21003KT 9999 NCD 16/11 Q1019', 'SCVD 080000Z AUTO 22004KT 9999 NCD 17/10 Q1018', 'SCVD 072300Z AUTO 22006KT 9999 NCD 18/11 Q1018', 'SCVD 072200Z 22009KT 190V250 9999 FEW040 BKN200 19/10 Q1017', 'SCVD 072100Z 22009KT 200V260 9999 FEW040 BKN200 21/11 Q1017', 'SCVD 072000Z VRB06KT 9999 FEW048 BKN200 22/09 Q1017', 'SCVD 071900Z VRB03KT 9999 SCT045 SCT200 22/09 Q1018', 'SCVD 071800Z VRB04KT 9999 SCT040 BKN200 21/09 Q1018', 'SCVD 071700Z 22007KT 190V250 9999 SCT040 BKN200 21/11 Q1018', 'SCVD 071600Z VRB05KT 9999 BKN035 BKN200 18/11 Q1018', 'SCVD 071500Z 19007KT 9999 FEW029 SCT035 BKN200 17/11 Q1019', 'SCVD 071400Z 14006KT 050V180 9999 FEW022 SCT030 BKN200 17/12 Q1018', 'SCVD 071300Z 16008KT 090V180 9999 BKN033 16/11 Q1018', 'SCVD 071200Z 14004KT 100V180 9999 FEW025 BKN200 14/12 Q1018', 'SCVD 071100Z 22005KT 180V240 CAVOK 14/12 Q1017', 'SCVD 071000Z 25005KT 210V290 CAVOK 15/13 Q1016', 'SCVD 070900Z AUTO 26005KT 9999 NCD 16/14 Q1016', 'SCVD 070800Z VRB03KT 9999 SCT040 BKN050 OVC090 17/15 Q1015', 'SCVD 070700Z 00000KT 9999 SCT015 BKN030 OVC060 17/17 Q1015', 'SCVD 070600Z 29004KT 250V320 9999 BKN020 BKN036 OVC100 18/17 Q1015', 'SCVD 070500Z 32005KT 9999 BKN021 OVC038 17/17 Q1015', 'SCVD 070400Z AUTO 02006KT 9999 BKN042 BKN055 17/17 Q1015', 'SCVD 070300Z AUTO 34005KT 9999 -RA BKN031 17/17 Q1015', 'SCVD 070200Z AUTO 31008KT 280V340 9999 SCT026 BKN039 18/16 Q1015', 'SCVD 070100Z 30007KT 9999 SCT023 BKN053 OVC070 18/17 Q1015', 'SCVD 070000Z 29008KT 9999 SCT016 BKN023 OVC066 18/17 Q1015', 'SCVD 062300Z 29010KT 9999 SCT018 BKN050 OVC100 19/18 Q1014', 'SCVD 062200Z 00000KT 3000 -RA BKN011 OVC020 19/18 Q1014', 'SCVD 062100Z 33005KT 300V020 5000 -RA BKN013 OVC022 19/18 Q1014', 'SCVD 061900Z 31011KT 1800 +RA SCT003 BKN009 OVC030 19/19 Q1013', 'SCVD 061800Z 34011KT 2500 RA BKN011 OVC020 19/19 Q1013', 'SCVD 061700Z 35007KT 310V030 2000 -RA BKN010 BKN013 OVC030 20/19 Q1013', 'SCVD 061600Z 31009KT 270V340 3000 -SHRA SCT018 BKN023 OVC030 21/18 Q1013', 'SCVD 061500Z 36006KT 310V030 9999 BKN028 BKN041 BKN083 22/17 Q1013', 'SCVD 061400Z VRB02KT 9999 FEW015 SCT041 BKN051 20/17 Q1013', 'SCVD 061300Z VRB02KT 9999 FEW004 BKN030 BKN090 18/17 Q1014', 'SCVD 061200Z VRB01KT 1700 BR OVC002 15/15 Q1014', 'SCVD 061100Z AUTO 00000KT 1000 R35/1200VP2000D BR OVC002 15/15 Q1014', 'SCVD 061000Z AUTO 00000KT 2200 BR VV003 15/15 Q1014', 'SCVD 060900Z AUTO 08002KT 1300 R35/1600U FG BKN001 BKN004 14/14 Q1013', 'SCVD 060800Z AUTO 00000KT 0550 R35/0550V0800N FG VV001 13/13 Q1014', 'SCVD 060700Z AUTO VRB02KT 2200 FEW003 14/13 Q1014', 'SCVD 060600Z AUTO 26003KT 230V290 9999 FEW023 17/16 Q1014', 'SCVD 060500Z AUTO VRB02KT 9999 OVC018 18/16 Q1015', 'SCVD 060400Z AUTO VRB02KT 9999 FEW010 BKN019 BKN023 18/16 Q1015', 'SCVD 060300Z AUTO VRB03KT 9999 FEW010 BKN024 BKN048 18/16 Q1015', 'SCVD 060200Z AUTO 31007KT 9999 FEW007 18/17 Q1015', 'SCVD 060100Z AUTO 31009KT 9999 BKN007 BKN032 19/17 Q1015', 'SCVD 060000Z AUTO 29009KT 9999 SCT026 20/17 Q1015', 'SCVD 052300Z AUTO 30009KT 9999 SCT023 22/17 Q1015', 'SCVD 052200Z 29012KT 260V320 9999 SCT035 BKN070 24/16 Q1014', 'SCVD 052100Z 30010KT 230V340 9999 SCT033 SCT070 25/16 Q1014', 'SCVD 052000Z 30012KT 270V360 9999 BKN035 26/15 Q1014', 'SCVD 051900Z 30012KT 240V360 9999 BKN035 25/15 Q1014', 'SCVD 051800Z 29010KT 250V330 9999 BKN040 25/15 Q1014', 'SCVD 051700Z VRB04KT 9999 BKN030 BKN033 24/15 Q1015']","['2024-02-08 15:00:00', '2024-02-08 14:00:00', '2024-02-08 13:00:00', '2024-02-08 12:00:00', '2024-02-08 11:00:00', '2024-02-08 10:00:00', '2024-02-08 09:00:00', '2024-02-08 08:00:00', '2024-02-08 07:00:00', '2024-02-08 06:00:00', '2024-02-08 05:00:00', '2024-02-08 04:00:00', '2024-02-08 03:00:00', '2024-02-08 02:00:00', '2024-02-08 01:00:00', '2024-02-08 00:00:00', '2024-02-07 23:00:00', '2024-02-07 22:00:00', '2024-02-07 21:00:00', '2024-02-07 20:00:00', '2024-02-07 19:00:00', '2024-02-07 18:00:00', '2024-02-07 17:00:00', '2024-02-07 16:00:00', '2024-02-07 15:00:00', '2024-02-07 14:00:00', '2024-02-07 13:00:00', '2024-02-07 12:00:00', '2024-02-07 11:00:00', '2024-02-07 10:00:00', '2024-02-07 09:00:00', '2024-02-07 08:00:00', '2024-02-07 07:00:00', '2024-02-07 06:00:00', '2024-02-07 05:00:00', '2024-02-07 04:00:00', '2024-02-07 03:00:00', '2024-02-07 02:00:00', '2024-02-07 01:00:00', '2024-02-07 00:00:00', '2024-02-06 23:00:00', '2024-02-06 22:00:00', '2024-02-06 21:00:00', '2024-02-06 19:00:00', '2024-02-06 18:00:00', '2024-02-06 17:00:00', '2024-02-06 16:00:00', '2024-02-06 15:00:00', '2024-02-06 14:00:00', '2024-02-06 13:00:00', '2024-02-06 12:00:00', '2024-02-06 11:00:00', '2024-02-06 10:00:00', '2024-02-06 09:00:00', '2024-02-06 08:00:00', '2024-02-06 07:00:00', '2024-02-06 06:00:00', '2024-02-06 05:00:00', '2024-02-06 04:00:00', '2024-02-06 03:00:00', '2024-02-06 02:00:00', '2024-02-06 01:00:00', '2024-02-06 00:00:00', '2024-02-05 23:00:00', '2024-02-05 22:00:00', '2024-02-05 21:00:00', '2024-02-05 20:00:00', '2024-02-05 19:00:00', '2024-02-05 18:00:00', '2024-02-05 17:00:00']"
Chile, Vina del Mar Airport (KNA/SCVM) ,"['SCVM 081600Z 29011KT 260V330 9999 FEW013 BKN018 21/16 Q1014', 'SCVM 081500Z 30006KT 240V340 8000 BKN011 OVC015 19/16 Q1014', 'SCVM 081400Z 34006KT 290V360 7000 BKN010 OVC014 19/16 Q1013', 'SCVM 081300Z 00000KT 7000 OVC008 18/16 Q1013', 'SCVM 081200Z 00000KT 7000 OVC005 17/16 Q1012', 'SCVM 081100Z 34003KT 320V030 6000 OVC003 17/16 Q1012', 'SCVM 081000Z 03002KT 6000 OVC003 17/16 Q1011', 'SCVM 080900Z 00000KT 6000 OVC005 17/16 Q1011', 'SCVM 080800Z 35004KT 320V040 6000 OVC003 17/16 Q1011', 'SCVM 080700Z 33005KT 6000 OVC003 17/16 Q1011', 'SCVM 080600Z 31006KT 280V360 7000 OVC003 17/16 Q1011', 'SCVM 080500Z 35006KT 310V010 7000 OVC003 16/16 Q1012', 'SCVM 080400Z 27002KT 7000 OVC003 17/16 Q1012', 'SCVM 080300Z 35004KT 320V020 7000 OVC003 17/16 Q1013', 'SCVM 080200Z 32004KT 280V360 6000 OVC003 17/16 Q1013', 'SCVM 080100Z 31004KT 270V360 6000 OVC003 17/16 Q1013', 'SCVM 080000Z 31006KT 280V340 5000 HZ OVC003 17/16 Q1014', 'SCVM 072300Z 31010KT 280V340 0600 FG OVC001 17/17 Q1013', 'SCVM 072200Z 33010KT 290V350 0500 FG OVC001 17/17 Q1013', 'SCVM 072100Z 31010KT 280V340 0600 FG OVC002 18/17 Q1013', 'SCVM 072000Z 32011KT 290V350 2000 BR BKN005 OVC008 17/16 Q1013', 'SCVM 071900Z 32013KT 3000 HZ OVC003 18/15 Q1014', 'SCVM 071800Z 30012KT 6000 BKN008 18/15 Q1014', 'SCVM 071700Z 31013KT 270V350 8000 SCT008 19/14 Q1014', 'SCVM 071600Z 30013KT 8000 FEW005 20/15 Q1014', 'SCVM 071500Z 29008KT 8000 NSC 22/15 Q1014', 'SCVM 071400Z 34010KT 8000 FEW005 19/15 Q1014', 'SCVM 071300Z 34007KT 300V010 7000 FEW005 18/14 Q1014', 'SCVM 071200Z 00000KT 7000 FEW005 16/14 Q1013', 'SCVM 071100Z 11003KT 0300 FG OVC002 14/14 Q1013', 'SCVM 071000Z 13002KT 0400 FG OVC003 15/14 Q1013', 'SCVM 070900Z 00000KT 0500 FG OVC003 15/14 Q1013', 'SCVM 070800Z 15003KT 2500 BR BKN009 14/13 Q1013', 'SCVM 070700Z 26002KT 9999 FEW018 14/14 Q1014', 'SCVM 070600Z 18002KT 9999 FEW018 14/13 Q1014', 'SCVM 070500Z 17002KT 9999 FEW018 15/14 Q1014', 'SCVM 070400Z 34002KT 9999 FEW018 15/15 Q1015', 'SCVM 070300Z 31002KT 9999 FEW016 16/15 Q1015', 'SCVM 070200Z 36003KT 260V030 9999 FEW016 17/15 Q1015', 'SCVM 070100Z 34003KT 320V050 9999 FEW016 16/15 Q1015', 'SCVM 070000Z 33004KT 9999 FEW015 18/15 Q1015', 'SCVM 062300Z 30005KT 250V010 9999 FEW015 20/15 Q1015', 'SCVM 062200Z 25009KT 220V290 9999 FEW015 21/15 Q1016', 'SCVM 062100Z 28009KT 240V340 CAVOK 22/14 Q1016', 'SCVM 062000Z 29009KT CAVOK 23/15 Q1017', 'SCVM 061900Z 29011KT CAVOK 22/15 Q1017', 'SCVM 061800Z 30011KT 270V330 CAVOK 22/15 Q1017', 'SCVM 061700Z 31014KT 9999 FEW015 21/14 Q1018', 'SCVM 061600Z 30010KT 9999 SCT015 20/15 Q1018', 'SCVM 061500Z 32009KT 8000 BKN015 18/15 Q1018', 'SCVM 061400Z 31009KT 8000 OVC015 17/14 Q1017', 'SCVM 061300Z 34010KT 9000 SCT010 OVC013 17/14 Q1017', 'SCVM 061200Z 36010KT 7000 SCT010 OVC012 16/14 Q1016', 'SCVM 061100Z 35009KT 9000 BKN009 OVC013 16/14 Q1016', 'SCVM 061000Z 34012KT 9999 BKN017 15/14 Q1015', 'SCVM 060900Z 33010KT 9999 SCT025 15/14 Q1014', 'SCVM 060800Z 31004KT 270V340 CAVOK 15/14 Q1013', 'SCVM 060700Z 16003KT CAVOK 13/12 Q1014', 'SCVM 060600Z 00000KT CAVOK 14/12 Q1013', 'SCVM 060500Z 00000KT CAVOK 16/12 Q1013', 'SCVM 060400Z 23003KT CAVOK 15/13 Q1014', 'SCVM 060300Z 00000KT CAVOK 15/13 Q1014', 'SCVM 060200Z 13002KT CAVOK 15/13 Q1015', 'SCVM 060100Z 00000KT CAVOK 15/14 Q1014', 'SCVM 060000Z 35004KT CAVOK 16/14 Q1014', 'SCVM 052300Z 32010KT CAVOK 18/14 Q1013', 'SCVM 052200Z 34009KT CAVOK 20/14 Q1013', 'SCVM 052100Z 31014KT CAVOK 21/14 Q1013', 'SCVM 052000Z 33012KT CAVOK 22/14 Q1014', 'SCVM 051900Z 32015KT CAVOK 23/14 Q1014', 'SCVM 051800Z 32011KT 8000 NSC 23/14 Q1014', 'SCVM 051700Z 30012KT 8000 NSC 23/15 Q1015']","['2024-02-08 16:00:00', '2024-02-08 15:00:00', '2024-02-08 14:00:00', '2024-02-08 13:00:00', '2024-02-08 12:00:00', '2024-02-08 11:00:00', '2024-02-08 10:00:00', '2024-02-08 09:00:00', '2024-02-08 08:00:00', '2024-02-08 07:00:00', '2024-02-08 06:00:00', '2024-02-08 05:00:00', '2024-02-08 04:00:00', '2024-02-08 03:00:00', '2024-02-08 02:00:00', '2024-02-08 01:00:00', '2024-02-08 00:00:00', '2024-02-07 23:00:00', '2024-02-07 22:00:00', '2024-02-07 21:00:00', '2024-02-07 20:00:00', '2024-02-07 19:00:00', '2024-02-07 18:00:00', '2024-02-07 17:00:00', '2024-02-07 16:00:00', '2024-02-07 15:00:00', '2024-02-07 14:00:00', '2024-02-07 13:00:00', '2024-02-07 12:00:00', '2024-02-07 11:00:00', '2024-02-07 10:00:00', '2024-02-07 09:00:00', '2024-02-07 08:00:00', '2024-02-07 07:00:00', '2024-02-07 06:00:00', '2024-02-07 05:00:00', '2024-02-07 04:00:00', '2024-02-07 03:00:00', '2024-02-07 02:00:00', '2024-02-07 01:00:00', '2024-02-07 00:00:00', '2024-02-06 23:00:00', '2024-02-06 22:00:00', '2024-02-06 21:00:00', '2024-02-06 20:00:00', '2024-02-06 19:00:00', '2024-02-06 18:00:00', '2024-02-06 17:00:00', '2024-02-06 16:00:00', '2024-02-06 15:00:00', '2024-02-06 14:00:00', '2024-02-06 13:00:00', '2024-02-06 12:00:00', '2024-02-06 11:00:00', '2024-02-06 10:00:00', '2024-02-06 09:00:00', '2024-02-06 08:00:00', '2024-02-06 07:00:00', '2024-02-06 06:00:00', '2024-02-06 05:00:00', '2024-02-06 04:00:00', '2024-02-06 03:00:00', '2024-02-06 02:00:00', '2024-02-06 01:00:00', '2024-02-06 00:00:00', '2024-02-05 23:00:00', '2024-02-05 22:00:00', '2024-02-05 21:00:00', '2024-02-05 20:00:00', '2024-02-05 19:00:00', '2024-02-05 18:00:00', '2024-02-05 17:00:00']"
Cocos-keeling-islands, Cocos Islands Airport (CCK/YPCC) ,"['YPCC 081530Z AUTO 10005KT 9999 // OVC046 28/25 Q1013 RF00.0/002.2', 'YPCC 081500Z AUTO 10007KT 9999 // OVC042 28/25 Q1013 RF00.0/002.2', 'YPCC 081430Z AUTO 09009KT 9999 // OVC042 28/25 Q1012 RF00.0/002.2', 'YPCC 081400Z AUTO 10007KT 9999 // BKN042 28/25 Q1012 RF00.0/002.2', 'YPCC 081330Z AUTO 11009KT 9999 // BKN040 OVC047 28/25 Q1012', 'YPCC 081300Z AUTO 10009KT 9999 // BKN038 OVC047 28/25 Q1011', 'YPCC 081230Z AUTO 10008KT 9999 // SCT019 OVC034 OVC053 28/26 Q1011', 'YPCC 081200Z AUTO 09013KT 9999 // BKN034 BKN040 OVC045 27/25 Q1011', 'YPCC 081130Z AUTO 08017KT 9999 // OVC038 OVC044 28/26 Q1010', 'YPCC 081100Z AUTO 10009KT 9999 // BKN037 OVC043 28/26 Q1010', 'YPCC 081030Z AUTO 10011KT 9999 // SCT021 SCT027 SCT034 29/26 Q1010', 'YPCC 081000Z AUTO 09015KT 9999 // SCT027 OVC046 29/26 Q1010', 'YPCC 080930Z AUTO 10009KT 9999 // SCT022 OVC036 29/25 Q1010', 'YPCC 080900Z AUTO 12012KT 9999 // BKN037 BKN056 29/25 Q1010', 'YPCC 080830Z AUTO 10009KT 9999 // BKN034 OVC055 30/25 Q1010', 'YPCC 080800Z AUTO 13013KT 9999 // OVC032 30/25 Q1010 RF00.0/002.0', 'YPCC 080730Z AUTO 13008KT 9999 // BKN033 OVC039 29/25 Q1011', 'YPCC 080722Z AUTO 13005KT 9999 -SHRA OVC033 OVC040 29/26 Q1011', 'YPCC 080702Z AUTO 11007KT 6000 -RA SCT029 OVC036 28/25 Q1011', 'YPCC 080600Z AUTO 13009KT 9999 // SCT041 29/26 Q1012 RF00.0/002.0', 'YPCC 080530Z AUTO 13010KT 9999 // BKN040 28/26 Q1012 RF00.0/001.8', 'YPCC 080500Z AUTO 13015KT 9999 // OVC036 27/26 Q1012 RF00.0/001.8', 'YPCC 080430Z AUTO 11011KT 9999 // SCT023 BKN045 28/26 Q1013 RERA', 'YPCC 080402Z AUTO 10010KT 9999 -SHRA SCT015 BKN022 BKN035 27/26 Q1013 RESHRA', 'YPCC 080400Z AUTO 11009KT 080V150 9999 -SHRA SCT015 BKN022 BKN028 27/26 Q1013 RESHRA', 'YPCC 080330Z AUTO 10006KT 5000 -SHRA SCT010 SCT017 BKN022 26/25 Q1013 RESHRA', 'YPCC 080248Z AUTO 09011KT 9999 -SHRA SCT009 BKN019 BKN030 26/25 Q1013 RESHRA', 'YPCC 080220Z AUTO 12004KT 9999 // SCT008 BKN016 OVC022 26/25 Q1013 RESHRA', 'YPCC 080151Z AUTO 11008KT 030V130 6000 RA SCT010 SCT020 BKN026 26/25 Q1013', 'YPCC 080100Z AUTO 34003KT 9999 // BKN038 OVC047 27/26 Q1012', 'YPCC 080030Z AUTO 05001KT 9999 // ////// 27/26 Q1012 RF00.0/005.8', 'YPCC 080000Z AUTO 00000KT 9999 -SHRA ////// 26/25 Q1011 RF00.0/005.8', 'YPCC 072359Z AUTO 08001KT 9999 -SHRA ////// 26/25 Q1011 RF00.0/005.8', 'YPCC 072300Z AUTO 12002KT 9999 // BKN048 BKN067 26/25 Q1011', 'YPCC 072230Z AUTO 13004KT 9999 // SCT032 BKN041 BKN048 26/25 Q1010', 'YPCC 072200Z AUTO 00000KT 9999 // SCT041 OVC046 26/25 Q1010', 'YPCC 072130Z AUTO 00000KT 9999 // SCT047 SCT063 26/25 Q1010', 'YPCC 072100Z AUTO 00000KT 9999 // SCT049 26/25 Q1010 RF00.0/005.2', 'YPCC 072030Z AUTO 00000KT 9999 // SCT031 BKN039 BKN069 26/25 Q1010', 'YPCC 072000Z AUTO 15001KT 9999 // BKN029 BKN034 BKN075 26/25 Q1011', 'YPCC 071932Z AUTO 16001KT 9999 -SHRA BKN035 OVC042 25/24 Q1011 RESHRA', 'YPCC 071900Z AUTO 00000KT 2900 +RA SCT016 SCT019 BKN022 26/25 Q1012', 'YPCC 071800Z AUTO 35003KT 9999 // SCT027 SCT039 BKN045 26/25 Q1012 RESHRA', 'YPCC 071743Z AUTO 02004KT 9999 -SHRA SCT010 SCT019 SCT025 27/26 Q1012 RESHRA', 'YPCC 071730Z AUTO 04005KT 4300 RA SCT010 BKN019 BKN025 26/25 Q1012', 'YPCC 071630Z AUTO 12004KT 9999 // BKN033 OVC041 27/25 Q1012', 'YPCC 071600Z AUTO 10005KT 9999 // SCT029 BKN041 28/25 Q1013', 'YPCC 071530Z AUTO 09006KT 9999 // NCD 28/24 Q1012 RF00.0/000.0', 'YPCC 071500Z AUTO 09005KT 9999 // SCT022 SCT029 BKN065 28/24 Q1012', 'YPCC 071430Z AUTO 10006KT 9999 // BKN026 BKN031 OVC067 28/24 Q1012', 'YPCC 071400Z AUTO 11005KT 9999 // OVC026 29/24 Q1012 RF00.0/000.0', 'YPCC 071330Z AUTO 11006KT 9999 // SCT024 28/24 Q1011 RF00.0/000.0', 'YPCC 071300Z AUTO 11006KT 9999 // SCT024 28/24 Q1011 RF00.0/000.0', 'YPCC 071230Z AUTO 11006KT 9999 // SCT024 28/24 Q1011 RF00.0/000.0', 'YPCC 071200Z AUTO 12008KT 9999 // SCT024 28/23 Q1011 RF00.0/000.0', 'YPCC 071130Z AUTO 12007KT 9999 // SCT024 29/24 Q1010 RF00.0/000.0', 'YPCC 071100Z AUTO 12007KT 9999 // NCD 29/24 Q1010 RF00.0/000.0', 'YPCC 071030Z AUTO 11007KT 9999 // NCD 30/23 Q1010 RF00.0/000.0', 'YPCC 071000Z AUTO 12007KT 9999 // SCT025 30/24 Q1010 RF00.0/000.0', 'YPCC 070930Z AUTO 13009KT 9999 // NCD 30/24 Q1010 RF00.0/000.0', 'YPCC 070900Z AUTO 13009KT 9999 // NCD 30/24 Q1010 RF00.0/000.0', 'YPCC 070830Z AUTO 13009KT 9999 // NCD 30/23 Q1010 RF00.0/000.0', 'YPCC 070800Z AUTO 12008KT 9999 // NCD 30/23 Q1011 RF00.0/000.0', 'YPCC 070730Z AUTO 13008KT 9999 // NCD 30/23 Q1011 RF00.0/000.0', 'YPCC 070700Z AUTO 13009KT 9999 // NCD 30/23 Q1011 RF00.0/000.0', 'YPCC 070630Z AUTO 14009KT 9999 // NCD 30/23 Q1012 RF00.0/000.0', 'YPCC 070600Z AUTO 14009KT 9999 // NCD 30/24 Q1012 RF00.0/000.0', 'YPCC 070530Z AUTO 15009KT 9999 // NCD 30/23 Q1013 RF00.0/000.0', 'YPCC 070500Z AUTO 15008KT 9999 // NCD 30/23 Q1013 RF00.0/000.0', 'YPCC 070430Z AUTO 16009KT 9999 // NCD 31/23 Q1013 RF00.0/000.0', 'YPCC 070400Z AUTO 17009KT 9999 // NCD 30/24 Q1013 RF00.0/000.0', 'YPCC 070330Z AUTO 15009KT 9999 // SCT025 30/24 Q1014 RF00.0/000.0', 'YPCC 070300Z AUTO 16008KT 9999 // SCT025 30/24 Q1014 RF00.0////./', 'YPCC 070230Z AUTO 17009KT 9999 // SCT025 30/24 Q1014 RF00.0////./', 'YPCC 070200Z AUTO 15008KT 9999 // SCT025 30/24 Q1014 RF00.0////./', 'YPCC 070130Z AUTO 15008KT 9999 // SCT024 30/24 Q1013 RF00.0////./', 'YPCC 070100Z AUTO 15007KT 9999 // SCT024 29/24 Q1013 RF00.0////./', 'YPCC 070030Z AUTO 15008KT 9999 // SCT024 28/23 Q1013 RF00.0////./', 'YPCC 070000Z AUTO 15008KT 9999 // SCT024 SCT037 27/23 Q1013', 'YPCC 062330Z AUTO 15007KT 9999 // SCT024 SCT037 27/23 Q1013', 'YPCC 062300Z AUTO 15007KT 9999 // SCT024 27/23 Q1012 RF00.0////./', 'YPCC 062230Z AUTO 15007KT 9999 // SCT022 27/23 Q1012 RF00.0////./', 'YPCC 062200Z AUTO 15007KT 9999 // SCT022 SCT027 BKN035 27/24 Q1012', 'YPCC 062130Z AUTO 15008KT 9999 // SCT022 27/23 Q1012 RF00.0////./', 'YPCC 062100Z AUTO 15007KT 9999 // SCT022 27/24 Q1012 RF00.0////./', 'YPCC 062030Z AUTO 16006KT 9999 // SCT022 27/24 Q1012 RF00.0////./', 'YPCC 062000Z AUTO 15005KT 9999 // NCD 27/23 Q1012 RF00.0////./', 'YPCC 061930Z AUTO 15005KT 9999 // SCT023 27/24 Q1012 RF00.0////./', 'YPCC 061900Z AUTO 15005KT 9999 // SCT023 SCT073 27/24 Q1013', 'YPCC 061830Z AUTO 15006KT 9999 // SCT030 27/24 Q1013 RF00.0////./', 'YPCC 061800Z AUTO 15006KT 9999 // SCT024 27/24 Q1013 RF00.0////./', 'YPCC 061730Z AUTO 14006KT 9999 // SCT026 27/24 Q1013 RF00.0////./', 'YPCC 061700Z AUTO 14006KT 9999 // SCT024 27/24 Q1014 RF00.0////./', 'YPCC 061630Z AUTO 13004KT 9999 // SCT023 27/24 Q1014 RF00.0////./', 'YPCC 061600Z AUTO 12004KT 9999 // NCD 27/24 Q1014 RF00.0////./', 'YPCC 061530Z AUTO 12004KT 9999 // NCD 28/24 Q1014 RF00.0////./', 'YPCC 061500Z AUTO 12004KT 9999 // SCT024 28/24 Q1014 RF00.0////./', 'YPCC 061430Z AUTO 12005KT 9999 // NCD 28/24 Q1014 RF00.0////./', 'YPCC 061400Z AUTO 12005KT 9999 // SCT026 28/24 Q1013 RF00.0/000.0', 'YPCC 061330Z AUTO 11006KT 9999 // SCT026 28/24 Q1013 RF00.0/000.0', 'YPCC 061300Z AUTO 12006KT 9999 // SCT026 28/24 Q1013 RF00.0/000.0', 'YPCC 061230Z AUTO 12007KT 9999 // BKN026 BKN054 28/24 Q1013', 'YPCC 061200Z AUTO 12007KT 9999 // SCT024 OVC054 29/24 Q1012', 'YPCC 061130Z AUTO 12007KT 9999 // SCT024 OVC058 29/24 Q1012', 'YPCC 061100Z AUTO 12008KT 9999 // SCT026 BKN029 BKN056 29/24 Q1012', 'YPCC 061030Z AUTO 12007KT 9999 // SCT026 29/24 Q1011 RF00.0/000.0', 'YPCC 061000Z AUTO 13009KT 9999 // BKN026 29/24 Q1011 RF00.0/000.0', 'YPCC 060930Z AUTO 12008KT 9999 // SCT026 30/24 Q1011 RF00.0/000.0', 'YPCC 060900Z AUTO 12008KT 9999 // BKN028 29/24 Q1011 RF00.0/000.0', 'YPCC 060830Z AUTO 12009KT 9999 // BKN028 30/25 Q1011 RF00.0/000.0', 'YPCC 060800Z AUTO 13009KT 9999 // SCT026 SCT030 30/25 Q1011', 'YPCC 060730Z AUTO 13009KT 9999 // SCT026 30/25 Q1012 RF00.0/000.0', 'YPCC 060700Z AUTO 12009KT 9999 // SCT024 SCT042 30/25 Q1012', 'YPCC 060630Z AUTO 11007KT 9999 // SCT024 BKN030 OVC040 29/25 Q1012', 'YPCC 060600Z AUTO 12009KT 9999 // BKN027 OVC031 30/25 Q1013', 'YPCC 060530Z AUTO 13010KT 9999 // BKN025 BKN031 30/25 Q1013', 'YPCC 060500Z AUTO 12008KT 9999 // BKN027 30/25 Q1014 RF00.0/000.0', 'YPCC 060430Z AUTO 12009KT 9999 // SCT023 BKN029 30/25 Q1014', 'YPCC 060400Z AUTO 13009KT 9999 // SCT023 29/24 Q1014 RF00.0/000.0', 'YPCC 060330Z AUTO 13010KT 9999 // SCT021 30/25 Q1014 RF00.0/000.0', 'YPCC 060300Z AUTO 12009KT 9999 // SCT021 30/25 Q1015 RF00.0////./', 'YPCC 060230Z AUTO 13010KT 9999 // NCD 29/24 Q1014 RF00.0////./', 'YPCC 060200Z AUTO 12009KT 9999 // SCT021 BKN034 29/25 Q1014', 'YPCC 060130Z AUTO 13009KT 9999 // BKN021 BKN034 29/25 Q1014', 'YPCC 060100Z AUTO 13009KT 9999 // NCD 29/25 Q1014 RF00.0////./', 'YPCC 060030Z AUTO 11006KT 9999 // SCT019 SCT024 28/25 Q1014', 'YPCC 060000Z AUTO 10005KT 9999 // NCD 28/25 Q1014 RF00.0////./', 'YPCC 052330Z AUTO 11005KT 9999 // NCD 27/25 Q1013 RF00.0////./', 'YPCC 052300Z AUTO 12007KT 9999 // SCT017 27/25 Q1013 RF00.0////./', 'YPCC 052230Z AUTO 13007KT 9999 // NCD 27/25 Q1013 RF00.0////./', 'YPCC 052200Z AUTO 12007KT 9999 // SCT019 27/25 Q1013 RF00.0////./', 'YPCC 052130Z AUTO 12007KT 9999 // SCT018 27/25 Q1013 RF00.0////./', 'YPCC 052100Z AUTO 12006KT 9999 // NCD 27/25 Q1013 RF00.0////./', 'YPCC 052030Z AUTO 13008KT 9999 // SCT015 SCT020 BKN073 27/25 Q1013', 'YPCC 052000Z AUTO 13009KT 9999 // SCT019 SCT069 28/26 Q1013', 'YPCC 051930Z AUTO 10003KT 9999 // SCT040 BKN045 27/25 Q1013', 'YPCC 051900Z AUTO 09006KT 9999 // BKN031 BKN037 OVC043 28/25 Q1013', 'YPCC 051830Z AUTO 13005KT 9999 // SCT026 SCT031 SCT036 27/25 Q1014', 'YPCC 051800Z AUTO 13006KT 9999 // SCT023 BKN029 BKN032 28/25 Q1014', 'YPCC 051730Z AUTO 11004KT 9999 // SCT023 SCT038 27/25 Q1014', 'YPCC 051700Z AUTO 13005KT 9999 // SCT023 SCT043 27/26 Q1015', 'YPCC 051630Z AUTO 11003KT 9999 // SCT025 27/26 Q1015 RF00.0////./']","['2024-02-08 15:30:00', '2024-02-08 15:00:00', '2024-02-08 14:30:00', '2024-02-08 14:00:00', '2024-02-08 13:30:00', '2024-02-08 13:00:00', '2024-02-08 12:30:00', '2024-02-08 12:00:00', '2024-02-08 11:30:00', '2024-02-08 11:00:00', '2024-02-08 10:30:00', '2024-02-08 10:00:00', '2024-02-08 09:30:00', '2024-02-08 09:00:00', '2024-02-08 08:30:00', '2024-02-08 08:00:00', '2024-02-08 07:30:00', '2024-02-08 07:22:00', '2024-02-08 07:02:00', '2024-02-08 06:00:00', '2024-02-08 05:30:00', '2024-02-08 05:00:00', '2024-02-08 04:30:00', '2024-02-08 04:02:00', '2024-02-08 04:00:00', '2024-02-08 03:30:00', '2024-02-08 02:48:00', '2024-02-08 02:20:00', '2024-02-08 01:51:00', '2024-02-08 01:00:00', '2024-02-08 00:30:00', '2024-02-08 00:00:00', '2024-02-07 23:59:00', '2024-02-07 23:00:00', '2024-02-07 22:30:00', '2024-02-07 22:00:00', '2024-02-07 21:30:00', '2024-02-07 21:00:00', '2024-02-07 20:30:00', '2024-02-07 20:00:00', '2024-02-07 19:32:00', '2024-02-07 19:00:00', '2024-02-07 18:00:00', '2024-02-07 17:43:00', '2024-02-07 17:30:00', '2024-02-07 16:30:00', '2024-02-07 16:00:00', '2024-02-07 15:30:00', '2024-02-07 15:00:00', '2024-02-07 14:30:00', '2024-02-07 14:00:00', '2024-02-07 13:30:00', '2024-02-07 13:00:00', '2024-02-07 12:30:00', '2024-02-07 12:00:00', '2024-02-07 11:30:00', '2024-02-07 11:00:00', '2024-02-07 10:30:00', '2024-02-07 10:00:00', '2024-02-07 09:30:00', '2024-02-07 09:00:00', '2024-02-07 08:30:00', '2024-02-07 08:00:00', '2024-02-07 07:30:00', '2024-02-07 07:00:00', '2024-02-07 06:30:00', '2024-02-07 06:00:00', '2024-02-07 05:30:00', '2024-02-07 05:00:00', '2024-02-07 04:30:00', '2024-02-07 04:00:00', '2024-02-07 03:30:00', '2024-02-07 03:00:00', '2024-02-07 02:30:00', '2024-02-07 02:00:00', '2024-02-07 01:30:00', '2024-02-07 01:00:00', '2024-02-07 00:30:00', '2024-02-07 00:00:00', '2024-02-06 23:30:00', '2024-02-06 23:00:00', '2024-02-06 22:30:00', '2024-02-06 22:00:00', '2024-02-06 21:30:00', '2024-02-06 21:00:00', '2024-02-06 20:30:00', '2024-02-06 20:00:00', '2024-02-06 19:30:00', '2024-02-06 19:00:00', '2024-02-06 18:30:00', '2024-02-06 18:00:00', '2024-02-06 17:30:00', '2024-02-06 17:00:00', '2024-02-06 16:30:00', '2024-02-06 16:00:00', '2024-02-06 15:30:00', '2024-02-06 15:00:00', '2024-02-06 14:30:00', '2024-02-06 14:00:00', '2024-02-06 13:30:00', '2024-02-06 13:00:00', '2024-02-06 12:30:00', '2024-02-06 12:00:00', '2024-02-06 11:30:00', '2024-02-06 11:00:00', '2024-02-06 10:30:00', '2024-02-06 10:00:00', '2024-02-06 09:30:00', '2024-02-06 09:00:00', '2024-02-06 08:30:00', '2024-02-06 08:00:00', '2024-02-06 07:30:00', '2024-02-06 07:00:00', '2024-02-06 06:30:00', '2024-02-06 06:00:00', '2024-02-06 05:30:00', '2024-02-06 05:00:00', '2024-02-06 04:30:00', '2024-02-06 04:00:00', '2024-02-06 03:30:00', '2024-02-06 03:00:00', '2024-02-06 02:30:00', '2024-02-06 02:00:00', '2024-02-06 01:30:00', '2024-02-06 01:00:00', '2024-02-06 00:30:00', '2024-02-06 00:00:00', '2024-02-05 23:30:00', '2024-02-05 23:00:00', '2024-02-05 22:30:00', '2024-02-05 22:00:00', '2024-02-05 21:30:00', '2024-02-05 21:00:00', '2024-02-05 20:30:00', '2024-02-05 20:00:00', '2024-02-05 19:30:00', '2024-02-05 19:00:00', '2024-02-05 18:30:00', '2024-02-05 18:00:00', '2024-02-05 17:30:00', '2024-02-05 17:00:00', '2024-02-05 16:30:00']"
Colombia, Apartado Airport (APO/SKLC) ,"['SKLC 081500Z 35013KT 9999 SCT018 28/24 Q1013', 'SKLC 081400Z 36012KT 9999 FEW018 27/23 Q1013', 'SKLC 081300Z 35008KT 9999 FEW015 SCT070 25/22 Q1013', 'SKLC 081200Z 03008KT 9999 FEW015 BKN070 25/22 Q1012', 'SKLC 081100Z 04009KT 350V060 9999 SCT015 SCT070 25/22 Q1012', 'SKLC 072300Z 02006KT 9999 SCT018 BKN070 26/23 Q1011', 'SKLC 072200Z 35009KT 9999 VCSH FEW018 BKN060 26/23 Q1011 RMK VCSH/NW', 'SKLC 071700Z 02012KT 350V050 9999 FEW017 28/24 Q1014', 'SKLC 071600Z 03010KT 350V050 9999 FEW017 26/24 Q1015', 'SKLC 071500Z 02007KT 9999 FEW017 26/24 Q1015', 'SKLC 071400Z 01007KT 9999 FEW015 BKN080 26/24 Q1014', 'SKLC 071300Z 35005KT 320V020 9999 FEW015 BKN080 25/24 Q1013', 'SKLC 071200Z 35004KT 9999 FEW003 SCT015 BKN070 25/24 Q1013', 'SKLC 071100Z 36004KT 9000 VCSH FEW003 SCT015 BKN070 25/24 Q1012 RMK VCSH/SE', 'SKLC 062200Z 33010KT 9999 SCT022 33/23 Q1007', 'SKLC 062100Z 35006KT 9999 SCT022 33/23 Q1007', 'SKLC 062000Z 02003KT 260V070 9999 SCT022 34/24 Q1008', 'SKLC 062000Z 02003KT 260V070 9999 SCT022 34/24 Q1008', 'SKLC 061900Z 09005KT 040V140 9999 SCT020 33/24 Q1009', 'SKLC 061800Z 25003KT 190V310 9999 SCT020 SCT070 33/24 Q1010', 'SKLC 061700Z VRB04KT 9999 SCT020 33/25 Q1011', 'SKLC 061600Z 19004KT 100V270 9999 SCT018 SCT070 31/25 Q1012', 'SKLC 061400Z 14004KT 120V200 9999 FEW017 26/25 Q1012', 'SKLC 061300Z VRB02KT 9999 SCT015 25/24 Q1011', 'SKLC 061200Z VRB02KT 9999 SCT015 24/23 Q1010', 'SKLC 061100Z VRB02KT 9999 SCT015 25/23 Q1009', 'SKLC 060400Z 18005KT 9999 FEW015 27/23 Q1010', 'SKLC 060300Z 17005KT 9999 FEW015 27/24 Q1011', 'SKLC 060200Z 16006KT 9999 FEW015 27/24 Q1010', 'SKLC 060100Z 17006KT 9999 FEW015 28/24 Q1008', 'SKLC 060000Z 17008KT 9999 FEW015 28/24 Q1008', 'SKLC 052300Z 17008KT 140V210 9999 FEW017 29/24 Q1007', 'SKLC 052300Z 17008KT 140V210 9999 FEW017 29/24 Q1007', 'SKLC 052200Z 17009KT 140V210 9999 FEW017 31/25 Q1006', 'SKLC 052100Z 17010KT 130V230 9999 SCT017 32/24 Q1006', 'SKLC 052000Z 17008KT 150V270 9999 FEW017 31/25 Q1007', 'SKLC 051900Z 19010KT 140V250 9999 SCT017 31/26 Q1008', 'SKLC 051800Z 21008KT 180V250 9999 SCT017TCU 31/25 Q1009 RMK TCU/E/SE', 'SKLC 051700Z 21008KT 160V260 9999 SCT017 31/26 Q1009']","['2024-02-08 15:00:00', '2024-02-08 14:00:00', '2024-02-08 13:00:00', '2024-02-08 12:00:00', '2024-02-08 11:00:00', '2024-02-07 23:00:00', '2024-02-07 22:00:00', '2024-02-07 16:54:00', '2024-02-07 16:00:00', '2024-02-07 15:00:00', '2024-02-07 13:58:00', '2024-02-07 12:57:00', '2024-02-07 11:55:00', '2024-02-07 11:00:00', '2024-02-06 22:00:00', '2024-02-06 21:00:00', '2024-02-06 20:00:00', '2024-02-06 19:55:00', '2024-02-06 19:00:00', '2024-02-06 18:00:00', '2024-02-06 17:00:00', '2024-02-06 16:00:00', '2024-02-06 14:00:00', '2024-02-06 13:00:00', '2024-02-06 12:00:00', '2024-02-06 11:00:00', '2024-02-06 04:00:00', '2024-02-06 03:00:00', '2024-02-06 02:00:00', '2024-02-06 01:00:00', '2024-02-06 00:00:00', '2024-02-05 23:00:00', '2024-02-05 22:56:00', '2024-02-05 21:56:00', '2024-02-05 21:00:00', '2024-02-05 19:56:00', '2024-02-05 18:57:00', '2024-02-05 17:56:00', '2024-02-05 17:00:00']"
Colombia, Arauca Santiago Perez Quiroz Airport (AUC/SKUC) ,"['SKUC 081500Z VRB02KT 9999 SCT020 31/23 Q1013', 'SKUC 081400Z VRB02KT 9999 BKN023 30/23 Q1013', 'SKUC 081300Z VRB02KT 9999 SCT023 28/23 Q1012', 'SKUC 081200Z 00000KT 9999 SCT020 25/23 Q1012', 'SKUC 081100Z 00000KT 9999 BKN020 24/23 Q1011', 'SKUC 080300Z 13003KT 9999 FEW027 28/24 Q1011', 'SKUC 080200Z 12005KT 9999 FEW025 28/24 Q1010', 'SKUC 080100Z VRB02KT 9999 SCT023 28/24 Q1009', 'SKUC 080000Z VRB02KT 9999 SCT025 30/23 Q1008', 'SKUC 072300Z VRB02KT 9999 FEW025 33/23 Q1008', 'SKUC 072200Z 25003KT CAVOK 35/22 Q1008', 'SKUC 071100Z VRB02KT 9999 SCT023 25/23 Q1012', 'SKUC 070100Z 00000KT 9999 FEW023 27/24 Q1010', 'SKUC 062200Z 26004KT 220V300 9999 FEW030 31/23 Q1008', 'SKUC 062100Z 26004KT 170V320 9999 FEW025 32/24 Q1008', 'SKUC 062000Z 24005KT 170V290 9999 FEW025 31/23 Q1009', 'SKUC 061900Z 23006KT 170V270 9999 FEW025 31/24 Q1011', 'SKUC 061800Z VRB07KT 9999 FEW025 32/24 Q1012', 'SKUC 061700Z 25005KT 180V300 9999 FEW025 31/23 Q1013', 'SKUC 061600Z 21004KT 170V280 9999 SCT020 29/23 Q1014', 'SKUC 061500Z 27003KT 9999 SCT020 27/24 Q1014', 'SKUC 061400Z 29004KT 260V330 9999 SCT015 25/24 Q1014', 'SKUC 061300Z 27004KT 9999 BKN015 24/23 Q1013', 'SKUC 061200Z VRB02KT 9999 BKN015 23/23 Q1012', 'SKUC 061100Z VRB02KT 9999 BKN010 23/23 Q1011', 'SKUC 060300Z 15005KT 9999 BKN010 24/23 Q1012', 'SKUC 060200Z 17006KT 9999 BKN008 24/23 Q1012', 'SKUC 060100Z 13005G19KT 9999 SCT025 28/23 Q1010', 'SKUC 060000Z 00000KT 9999 SCT023 28/22 Q1008', 'SKUC 052300Z VRB02KT 9999 SCT023 30/22 Q1008']","['2024-02-08 15:00:00', '2024-02-08 14:00:00', '2024-02-08 13:00:00', '2024-02-08 12:00:00', '2024-02-08 11:00:00', '2024-02-08 03:00:00', '2024-02-08 02:00:00', '2024-02-08 01:00:00', '2024-02-08 00:00:00', '2024-02-07 23:00:00', '2024-02-07 22:00:00', '2024-02-07 11:00:00', '2024-02-07 01:00:00', '2024-02-06 22:00:00', '2024-02-06 21:00:00', '2024-02-06 20:00:00', '2024-02-06 19:00:00', '2024-02-06 18:00:00', '2024-02-06 17:00:00', '2024-02-06 16:00:00', '2024-02-06 15:00:00', '2024-02-06 14:00:00', '2024-02-06 13:00:00', '2024-02-06 12:00:00', '2024-02-06 11:00:00', '2024-02-06 03:00:00', '2024-02-06 02:00:00', '2024-02-06 01:00:00', '2024-02-06 00:00:00', '2024-02-05 23:00:00']"
Colombia, Armenia El Eden International Airport (AXM/SKAR) ,"['SKAR 081500Z 00000KT 9999 BKN020 25/20 Q1017', 'SKAR 081400Z 00000KT 9999 SCT023 SCT100 23/20 Q1018', 'SKAR 081300Z 00000KT 9999 BKN023 20/19 Q1017', 'SKAR 081200Z 00000KT 9999 BKN023 19/19 Q1016', 'SKAR 081100Z 00000KT 9999 SCT023 19/19 Q1016', 'SKAR 081100Z 00000KT 9999 SCT023 19/19 Q1016', 'SKAR 080400Z 00000KT 9999 FEW020 22/19 Q1017', 'SKAR 080300Z 00000KT 9999 SCT020 23/19 Q1017', 'SKAR 080200Z 22005KT 9999 BKN023 24/19 Q1016', 'SKAR 080100Z 22003KT 170V280 9999 VCSH FEW020TCU BKN025 25/19 Q1015 RMK TCU VCSH/NE', 'SKAR 080000Z 28006KT 9999 FEW023TCU BKN025 27/19 Q1014 RMK TCU/NE/N', 'SKAR 072300Z 00000KT 8000 VCSH FEW023CB SCT025 30/19 Q1013 RMK CB VCSH/E/SE', 'SKAR 072200Z 00000KT 9999 VCSH FEW020CB SCT023 29/19 Q1013 RMK CB VCSH/NE', 'SKAR 072100Z 00000KT 9999 VCSH FEW020CB SCT023 29/19 Q1013 RMK CB VCSH/NE', 'SKAR 071700Z 32006KT 9999 SCT023 27/19 Q1018', 'SKAR 071600Z 25003KT 9999 SCT023 26/19 Q1018', 'SKAR 071500Z 28004KT 170V340 9999 SCT023 25/20 Q1019', 'SKAR 071400Z 00000KT 9999 SCT023 SCT100 22/19 Q1019', 'SKAR 071300Z 18003KT 9999 SCT023 SCT100 20/18 Q1019', 'SKAR 071200Z 00000KT 9999 SCT023 SCT100 19/17 Q1018', 'SKAR 071030Z 00000KT 9999 SCT022 SCT100 19/17 Q1017', 'SKAR 070100Z 00000KT 9999 SCT020 BKN100 22/18 Q1016', 'SKAR 062200Z 11003KT 9000 VCSH SCT022CB BKN100 27/19 Q1014 RMK CB VCSH/NE/E', 'SKAR 062100Z VRB04KT 9999 VCSH SCT020CB BKN100 28/18 Q1014 RMK CB VCSH/N/NE', 'SKAR 062000Z VRB04KT 9999 SCT020TCU BKN100 27/19 Q1015 RMK TCU/N/NE', 'SKAR 062000Z VRB04KT 9999 SCT020TCU BKN100 27/19 Q1015 RMK TCU N/NE', 'SKAR 061900Z 33005KT 230V040 9999 SCT020TCU BKN090 26/19 Q1016 RMK TCU/NE', 'SKAR 061800Z VRB03KT 9999 BKN020 SCT090 26/20 Q1017', 'SKAR 061700Z 00000KT 9999 BKN012 BKN090 24/20 Q1018', 'SKAR 061600Z 00000KT 6000 BKN010 BKN090 23/19 Q1019 RMK HZ', 'SKAR 061500Z 33003KT 2000 BR BKN010 BKN090 21/20 Q1019', 'SKAR 061400Z 00000KT 1500 BR BKN006 BKN080 21/20 Q1019', 'SKAR 061300Z 00000KT 1000 BR BKN003 BKN080 20/20 Q1018', 'SKAR 061200Z 00000KT 0200 FG VV002 20/20 Q1017', 'SKAR 061100Z 00000KT 0100 FG VV001 20/20 Q1017', 'SKAR 060400Z 00000KT 9999 SCT020 BKN100 21/20 Q1018', 'SKAR 060300Z 00000KT 9999 SCT020 BKN100 21/20 Q1018', 'SKAR 060200Z 00000KT 9999 -DZ SCT020 BKN100 22/19 Q1017', 'SKAR 060100Z 00000KT 9999 SCT020 SCT100 22/20 Q1016', 'SKAR 060000Z 00000KT 9999 SCT020 BKN100 22/19 Q1014', 'SKAR 052300Z 00000KT 9999 SCT023 BKN100 24/19 Q1014', 'SKAR 052300Z 00000KT 9999 SCT023 BKN100 24/19 Q1014', 'SKAR 052200Z 22003KT 9999 SCT020 BKN100 25/19 Q1014', 'SKAR 052100Z 00000KT 9999 SCT020 BKN100 25/19 Q1015', 'SKAR 052000Z 02003KT 9999 SCT020 SCT100 25/19 Q1015', 'SKAR 051900Z 05003KT 9999 BKN015 SCT090 23/20 Q1016', 'SKAR 051800Z 36006KT 9999 BKN012 BKN090 22/19 Q1017']","['2024-02-08 15:00:00', '2024-02-08 14:00:00', '2024-02-08 13:00:00', '2024-02-08 12:00:00', '2024-02-08 11:00:00', '2024-02-08 10:58:00', '2024-02-08 04:00:00', '2024-02-08 03:00:00', '2024-02-08 02:00:00', '2024-02-08 01:00:00', '2024-02-08 00:00:00', '2024-02-07 23:00:00', '2024-02-07 22:00:00', '2024-02-07 21:00:00', '2024-02-07 16:55:00', '2024-02-07 16:00:00', '2024-02-07 15:00:00', '2024-02-07 13:58:00', '2024-02-07 12:58:00', '2024-02-07 11:54:00', '2024-02-07 10:30:00', '2024-02-07 01:00:00', '2024-02-06 22:00:00', '2024-02-06 21:00:00', '2024-02-06 20:00:00', '2024-02-06 19:57:00', '2024-02-06 19:00:00', '2024-02-06 18:00:00', '2024-02-06 17:00:00', '2024-02-06 16:00:00', '2024-02-06 15:00:00', '2024-02-06 14:00:00', '2024-02-06 13:00:00', '2024-02-06 12:00:00', '2024-02-06 11:00:00', '2024-02-06 04:00:00', '2024-02-06 03:00:00', '2024-02-06 02:00:00', '2024-02-06 01:00:00', '2024-02-06 00:00:00', '2024-02-05 23:00:00', '2024-02-05 22:56:00', '2024-02-05 21:56:00', '2024-02-05 20:59:00', '2024-02-05 19:56:00', '2024-02-05 18:55:00', '2024-02-05 17:57:00']"
Colombia, Barrancabermeja Yariguies Airport (EJA/SKEJ) ,"['SKEJ 081500Z 21005KT 8000 VCFG BKN010 24/24 Q1014 REDZ', 'SKEJ 081400Z 22005KT 5000 -DZ BR BKN010 24/24 Q1014', 'SKEJ 081300Z 19003KT 9999 FEW010 BKN020 24/24 Q1013', 'SKEJ 081200Z 22004KT 8000 -DZ BKN015 24/24 Q1013', 'SKEJ 081100Z 22003KT 9999 BKN020 25/25 Q1012', 'SKEJ 072300Z 34003KT 9999 BKN015 SCT080 28/24 Q1010', 'SKEJ 072200Z 02005KT 9999 BKN015 SCT080 29/24 Q1009', 'SKEJ 071212Z 06006KT 2000 RA BKN008 25/25 Q1012', 'SKEJ 062300Z 06005KT 9999 SCT015 28/22 Q1008', 'SKEJ 062200Z 12005KT 9999 SCT015 30/23 Q1007', 'SKEJ 062100Z 15005KT 9999 SCT015TCU 34/23 Q1006 RMK TCU/NE', 'SKEJ 062000Z 27005KT 9999 SCT015TCU 36/22 Q1007 RMK TCU/NE', 'SKEJ 061900Z 21005KT 9999 SCT015 SCT100 34/23 Q1008', 'SKEJ 061800Z VRB02KT 9999 SCT015 SCT100 34/24 Q1009', 'SKEJ 061700Z VRB02KT 9999 SCT015 BKN100 32/24 Q1010', 'SKEJ 061600Z 04004KT 9999 SCT015 BKN100 30/24 Q1012', 'SKEJ 061500Z 05004KT 9999 FEW015 BKN100 30/24 Q1012', 'SKEJ 061400Z 02006KT 9999 FEW015 BKN100 28/25 Q1012', 'SKEJ 061300Z 03004KT 9999 BKN020 26/25 Q1012', 'SKEJ 061200Z 07004KT 9999 BKN020 25/25 Q1011', 'SKEJ 061100Z 04003KT 9999 SCT020 25/25 Q1010', 'SKEJ 052300Z VRB02KT 9999 SCT020 30/25 Q1006']","['2024-02-08 15:00:00', '2024-02-08 14:00:00', '2024-02-08 13:00:00', '2024-02-08 12:00:00', '2024-02-08 11:00:00', '2024-02-07 23:00:00', '2024-02-07 22:00:00', '2024-02-07 12:12:00', '2024-02-06 23:00:00', '2024-02-06 22:00:00', '2024-02-06 21:00:00', '2024-02-06 20:00:00', '2024-02-06 19:00:00', '2024-02-06 18:00:00', '2024-02-06 17:00:00', '2024-02-06 16:00:00', '2024-02-06 15:00:00', '2024-02-06 14:00:00', '2024-02-06 13:00:00', '2024-02-06 12:00:00', '2024-02-06 11:00:00', '2024-02-05 23:00:00']"
Colombia, Barranquilla Ernesto Cortissoz International Airport (BAQ/SKBQ) ,"['SKBQ 081600Z 03012KT 360V060 9999 FEW017 29/22 Q1014 NOSIG', 'SKBQ 081500Z 02011KT 350V060 9999 SCT015 28/22 Q1015 NOSIG', 'SKBQ 081400Z 02009KT 350V050 9999 FEW012 27/22 Q1015 NOSIG', 'SKBQ 081300Z 02006KT 330V050 9999 FEW015 26/22 Q1014 NOSIG', 'SKBQ 081200Z 02004KT 340V040 9999 FEW012 25/22 Q1013 NOSIG', 'SKBQ 081100Z 36003KT 320V050 9999 FEW012 25/21 Q1013 NOSIG', 'SKBQ 081000Z 01005KT 340V060 9999 FEW012 25/22 Q1012 NOSIG', 'SKBQ 080900Z 02006KT 9999 FEW010 25/22 Q1012 NOSIG', 'SKBQ 080800Z 01004KT 340V060 9999 FEW010 25/22 Q1012 NOSIG', 'SKBQ 080700Z 02005KT 340V050 9999 FEW010 25/22 Q1013 NOSIG', 'SKBQ 080600Z 01004KT 320V050 9999 FEW010 25/22 Q1014 NOSIG', 'SKBQ 080500Z 35004KT 330V060 9999 FEW012 25/22 Q1014 NOSIG', 'SKBQ 080400Z 01004KT 330V130 9999 FEW012 25/22 Q1014 NOSIG', 'SKBQ 080300Z 02004KT 340V050 9999 FEW012 25/22 Q1014 NOSIG', 'SKBQ 080200Z 03004KT 360V060 9999 FEW012 24/22 Q1014 NOSIG', 'SKBQ 080100Z 04007KT 9999 FEW010 24/22 Q1013 NOSIG', 'SKBQ 080000Z 03006KT 350V050 9999 FEW010 24/23 Q1013 REDZ NOSIG', 'SKBQ 072300Z 04007KT 9999 -DZ SCT010 24/23 Q1013 NOSIG', 'SKBQ 072200Z 05010KT 9999 BKN010 25/23 Q1012 NOSIG', 'SKBQ 072100Z 04007KT 360V060 9999 VCSH BKN010 24/23 Q1012 BECMG FM2130 SCT010 RMK VCSH/SW/W', 'SKBQ 072000Z 04009KT 8000 DZ BKN006 25/23 Q1013 NOSIG', 'SKBQ 071900Z 04005KT 5000 -RA BKN006 25/23 Q1013 NOSIG', 'SKBQ 071800Z 05009KT 3000 RA BKN008 26/22 Q1014 NOSIG', 'SKBQ 071700Z 05012KT 9999 VCSH SCT012 SCT040 27/23 Q1014 NOSIG VCSH/S/N', 'SKBQ 071600Z 03011KT 9999 VCSH SCT012 SCT040 28/22 Q1015 NOSIG RMK VCSH/W', 'SKBQ 071500Z 01008KT 330V050 9999 SCT012 29/22 Q1015 NOSIG', 'SKBQ 071400Z 02007KT 330V050 9999 SCT012 28/22 Q1014 NOSIG', 'SKBQ 071300Z 02006KT 320V060 9999 SCT010 SCT030 27/22 Q1013 NOSIG', 'SKBQ 071200Z VRB06KT 9999 SCT010 SCT040 27/21 Q1012 NOSIG', 'SKBQ 071100Z 01006KT 280V070 9999 SCT012 27/21 Q1012 NOSIG', 'SKBQ 071000Z 35009KT 320V060 9999 SCT012 27/21 Q1012 NOSIG', 'SKBQ 070900Z 01006KT 320V050 9999 SCT012 27/21 Q1011 NOSIG', 'SKBQ 070800Z 01005KT 320V050 9999 SCT012 27/21 Q1011 NOSIG', 'SKBQ 070700Z 35006KT 300V030 9999 SCT012 27/21 Q1012 NOSIG', 'SKBQ 070600Z 01007KT 300V070 9999 SCT012 27/22 Q1012 NOSIG', 'SKBQ 070500Z 01006KT 330V060 9999 FEW015 27/22 Q1012 NOSIG', 'SKBQ 070400Z 36008KT 300V060 9999 FEW015 28/21 Q1012 NOSIG', 'SKBQ 070300Z VRB05KT 9999 FEW015 28/22 Q1012 NOSIG', 'SKBQ 070200Z VRB07KT 9999 FEW015 28/22 Q1011 NOSIG', 'SKBQ 070100Z 35007G17KT 280V050 9999 SCT015 28/23 Q1011 NOSIG', 'SKBQ 070000Z VRB07KT 9999 SCT015 28/23 Q1010 NOSIG', 'SKBQ 062300Z VRB07G17KT 9999 VCSH SCT012 29/24 Q1009 NOSIG RMK VCSH/W', 'SKBQ 062200Z VRB05G15KT 9999 SCT012 29/23 Q1009 NOSIG', 'SKBQ 062100Z 33007G18KT 300V090 9999 VCSH FEW015TCU 30/23 Q1009 NOSIG RMK TCU VCSH/NE', 'SKBQ 062012Z 06009KT 9999 VCSH SCT015CB 28/24 Q1009 RERA NOSIG RMK CB VCSH/NE/E', 'SKBQ 062000Z 07009KT 030V130 9999 RA SCT012CB 28/24 Q1009 NOSIG RMK CB/E', 'SKBQ 061900Z VRB06G17KT 9999 5000SE VCSH SCT012CB 31/23 Q1010 TEMPO RA RMK CB VCSH/E/S', 'SKBQ 061800Z VRB05KT 9999 VCSH SCT015TCU 33/24 Q1010 NOSIG RMK TCU VCSH/E/SE', 'SKBQ 061700Z VRB03KT 9999 VCSH SCT015TCU 31/24 Q1011 NOSIG RMK TCU VCSHINE', 'SKBQ 061600Z VRB06KT 9999 SCT015 33/24 Q1012 NOSIG', 'SKBQ 061500Z VRB03KT 9999 SCT015 30/24 Q1012 NOSIG', 'SKBQ 061400Z 17006KT 130V200 9999 FEW015 29/25 Q1012 NOSIG', 'SKBQ 061300Z 23004KT 9999 FEW012 27/25 Q1011 NOSIG', 'SKBQ 061200Z 26003KT 230V300 9999 FEW010 24/23 Q1011 NOSIG', 'SKBQ 061100Z 26005KT 9999 FEW010 24/23 Q1010 NOSIG', 'SKBQ 061000Z 24004KT 9999 FEW010 24/23 Q1009 NOSIG', 'SKBQ 060900Z 24003KT CAVOK 24/23 Q1009 NOSIG', 'SKBQ 060800Z 26003KT 230V290 CAVOK 24/23 Q1009 NOSIG', 'SKBQ 060700Z 26004KT 230V290 CAVOK 24/23 Q1009 NOSIG', 'SKBQ 060600Z 25003KT CAVOK 24/23 Q1010 NOSIG', 'SKBQ 060500Z VRB02KT CAVOK 24/23 Q1010 NOSIG', 'SKBQ 060400Z 22004KT CAVOK 25/23 Q1010 NOSIG', 'SKBQ 060300Z 21003KT CAVOK 25/24 Q1009 NOSIG', 'SKBQ 060200Z VRB02KT 9999 FEW015 26/24 Q1009 NOSIG', 'SKBQ 060100Z VRB02KT 9999 FEW012 26/24 Q1008 NOSIG', 'SKBQ 060000Z VRB02KT 9999 FEW010 26/24 Q1008 NOSIG', 'SKBQ 052300Z VRB02KT 9999 FEW010 27/24 Q1007 NOSIG', 'SKBQ 052222Z 26003KT 220V300 9999 VCSH SCT012 27/23 Q1007 NOSIG RMK VCSH/N', 'SKBQ 052200Z VRB02KT 9999 VCSH SCT012CB 26/23 Q1006 RERA NOSIG RMK CB VCSH/E/SE', 'SKBQ 052130Z 19011G22KT 140V220 9999 SCT012CB 27/22 Q1007 TEMPO FM2140 VCTS BKN012CB RMK CB/SE/S', 'SKBQ 052100Z VRB07KT 9999 FEW015 33/25 Q1005 NOSIG', 'SKBQ 052000Z VRB05KT 9999 SCT018 33/24 Q1005 NOSIG', 'SKBQ 051900Z 03007KT 310V060 9999 SCT018 33/25 Q1007 NOSIG', 'SKBQ 051800Z 06008KT 9999 SCT018 32/25 Q1008 TEMPO FM1900 SCT020 TCU', 'SKBQ 051700Z 06008KT 350V110 9999 SCT015 33/23 Q1009 NOSIG']","['2024-02-08 16:00:00', '2024-02-08 15:00:00', '2024-02-08 14:00:00', '2024-02-08 13:00:00', '2024-02-08 12:00:00', '2024-02-08 11:00:00', '2024-02-08 10:00:00', '2024-02-08 09:00:00', '2024-02-08 08:00:00', '2024-02-08 07:00:00', '2024-02-08 06:00:00', '2024-02-08 05:00:00', '2024-02-08 04:00:00', '2024-02-08 03:00:00', '2024-02-08 02:00:00', '2024-02-08 01:00:00', '2024-02-08 00:00:00', '2024-02-07 23:00:00', '2024-02-07 22:00:00', '2024-02-07 21:00:00', '2024-02-07 20:00:00', '2024-02-07 19:00:00', '2024-02-07 18:00:00', '2024-02-07 17:00:00', '2024-02-07 16:00:00', '2024-02-07 15:00:00', '2024-02-07 14:00:00', '2024-02-07 13:00:00', '2024-02-07 12:00:00', '2024-02-07 11:00:00', '2024-02-07 10:00:00', '2024-02-07 09:00:00', '2024-02-07 08:00:00', '2024-02-07 07:00:00', '2024-02-07 06:00:00', '2024-02-07 05:00:00', '2024-02-07 04:00:00', '2024-02-07 03:00:00', '2024-02-07 02:00:00', '2024-02-07 01:00:00', '2024-02-07 00:00:00', '2024-02-06 23:00:00', '2024-02-06 22:00:00', '2024-02-06 21:00:00', '2024-02-06 20:12:00', '2024-02-06 20:00:00', '2024-02-06 19:00:00', '2024-02-06 18:00:00', '2024-02-06 17:00:00', '2024-02-06 16:00:00', '2024-02-06 15:00:00', '2024-02-06 14:00:00', '2024-02-06 13:00:00', '2024-02-06 12:00:00', '2024-02-06 11:00:00', '2024-02-06 10:00:00', '2024-02-06 09:00:00', '2024-02-06 08:00:00', '2024-02-06 07:00:00', '2024-02-06 06:00:00', '2024-02-06 05:00:00', '2024-02-06 04:00:00', '2024-02-06 03:00:00', '2024-02-06 02:00:00', '2024-02-06 01:00:00', '2024-02-06 00:00:00', '2024-02-05 23:00:00', '2024-02-05 22:22:00', '2024-02-05 22:00:00', '2024-02-05 21:30:00', '2024-02-05 21:00:00', '2024-02-05 20:00:00', '2024-02-05 19:00:00', '2024-02-05 18:00:00', '2024-02-05 17:00:00']"
Colombia, Bucaramanga Palonegro International Airport (BGA/SKBG) ,"['SKBG 081600Z 32003KT 0700 FG VV002 21/20 Q1018', 'SKBG 081500Z 31003KT 0500 FG VV002 20/20 Q1019', 'SKBG 081400Z 30003KT 0100 FG VV/// 19/19 Q1019 REDZ', 'SKBG 081300Z VRB02KT 0100 DZ FG VV001 19/19 Q1018', 'SKBG 081200Z VRB02KT 0800 -DZ FG VV002 19/19 Q1017 RERA', 'SKBG 081100Z 30003KT 1000 RA BCFG BKN003 19/19 Q1016', 'SKBG 080500Z 32003KT 7000 VCFG SCT003 BKN030 20/19 Q1018', 'SKBG 080400Z 33006KT 1000 BCFG BKN003 20/19 Q1018', 'SKBG 080300Z 30003KT 0200 FG VV/// 20/20 Q1018', 'SKBG 080200Z 33003KT 0200 FG VV/// 20/20 Q1018', 'SKBG 080100Z 32005KT 0200 FG VV/// 21/20 Q1017', 'SKBG 080000Z 30007KT 4000 BCFG BKN010 21/20 Q1016', 'SKBG 072300Z 31010KT 8000 VCFG BKN010 21/20 Q1016', 'SKBG 072200Z 31006KT 9999 SCT012 SCT070 22/20 Q1015', 'SKBG 072100Z 34005KT 9999 FEW007 SCT015 23/20 Q1015 REDZ', 'SKBG 072000Z 32005KT 9999 2000N -DZ BCFG SCT005 BKN015 23/20 Q1015', 'SKBG 071900Z 32005KT 9999 3000N BCFG SCT007 BKN016 23/20 Q1016', 'SKBG 071800Z 33005KT 9999 2000N BCFG SCT006 BKN015 23/20 Q1017', 'SKBG 071700Z 35005KT 9999 3000N BCFG SCT010 BKN020 22/20 Q1018', 'SKBG 071510Z 33003KT 9999 2000N BCFG BKN008 20/21 Q1019', 'SKBG 071400Z 31007KT 3000 0800N -TSRA PRFG BKN002 SCT012CB 20/19 Q1019 RMK CB W/NW', 'SKBG 071300Z 00000KT 1200 BCFG OVC002 21/21 Q1018', 'SKBG 071200Z 00000KT 1200 BCFG OVC002 20/20 Q1017', 'SKBG 071100Z 00000KT 2300 BCFG BKN005 SCT070 20/20 Q1016', 'SKBG 070400Z VRB02KT 9999 FEW008 SCT025 BKN060 21/20 Q1017', 'SKBG 070300Z 31003KT 9999 FEW005 SCT013 BKN060 21/20 Q1017', 'SKBG 070200Z 33004KT 9999 BCFG FEW003 SCT030 BKN100 21/20 Q1016 RMK 7000N', 'SKBG 070100Z 31003KT 9999 FEW04 SCT030 BKN100 21/20 Q1015 REDZ', 'SKBG 070000Z VRB02KT 3000 +DZ BCFG SCT004 BKN015 21/21 Q1015 RETSRA', 'SKBG 062300Z 30003KT 9999 -TSRA SCT010CB BKN070 22/21 Q1015 RMK CB/N', 'SKBG 062200Z 31005KT 9999 BKN015 SCT070 23/20 Q1014', 'SKBG 062100Z 32006KT 9999 BKN015 24/20 Q1013', 'SKBG 062000Z 31008KT 9999 SCT020 26/20 Q1013', 'SKBG 061900Z 32007KT 9999 SCT015 24/20 Q1015', 'SKBG 061800Z 36008KT 9999 SCT015 SCT070 25/19 Q1016', 'SKBG 061700Z 14008KT 9999 SCT015 SCT100 26/19 Q1017', 'SKBG 061600Z 15005KT 9999 SCT015 BKN070 24/19 Q1018', 'SKBG 061500Z 14006KT 9999 SCT012 BKN070 24/20 Q1018', 'SKBG 061400Z 19004KT 9999 4000N BCFG SCT012 BKN070 21/20 Q1018', 'SKBG 061300Z 18004KT 0200 FG VV001 20/20 Q1017', 'SKBG 061200Z 18003KT 9999 SCT015 SCT070 20/20 Q1016', 'SKBG 061100Z 00000KT 9999 SCT015 20/19 Q1015', 'SKBG 060400Z 00000KT 1700 BCFG BKN003 SCT030 21/21 Q1016', 'SKBG 060300Z 33004KT 4000 BCFG BKN004 SCT070 21/21 Q1016', 'SKBG 060200Z 30006KT 8000 VCFG SCT003 BKN070 22/21 Q1015', 'SKBG 060100Z 32004KT 9999 FEW010 BKN100 21/20 Q1014', 'SKBG 060000Z 31005KT 9999 SCT010 BKN100 22/20 Q1013', 'SKBG 052300Z 32006KT 9999 SCT010 BKN100 23/21 Q1012', 'SKBG 052200Z 31006KT 9999 SCT013 SCT030 25/21 Q1012', 'SKBG 052100Z 32003KT 9999 FEW012TCU SCT020 27/19 Q1011 RMK TCU/NE', 'SKBG 052000Z 32004KT 9999 FEW012TCU SCT020 28/19 Q1012 RMK TCU/NE', 'SKBG 051900Z 31004KT 9999 SCT015 SCT080 27/20 Q1013', 'SKBG 051800Z VRB02KT 9999 SCT012 BKN100 25/20 Q1014', 'SKBG 051700Z 18003KT 9999 FEW012 BKN100 22/19 Q1015']","['2024-02-08 16:00:00', '2024-02-08 15:00:00', '2024-02-08 14:00:00', '2024-02-08 13:00:00', '2024-02-08 12:00:00', '2024-02-08 11:00:00', '2024-02-08 05:00:00', '2024-02-08 04:00:00', '2024-02-08 03:00:00', '2024-02-08 02:00:00', '2024-02-08 01:00:00', '2024-02-08 00:00:00', '2024-02-07 23:00:00', '2024-02-07 22:00:00', '2024-02-07 21:00:00', '2024-02-07 20:00:00', '2024-02-07 19:00:00', '2024-02-07 18:00:00', '2024-02-07 17:00:00', '2024-02-07 15:10:00', '2024-02-07 14:00:00', '2024-02-07 13:00:00', '2024-02-07 12:00:00', '2024-02-07 11:00:00', '2024-02-07 04:00:00', '2024-02-07 03:00:00', '2024-02-07 02:00:00', '2024-02-07 01:00:00', '2024-02-07 00:00:00', '2024-02-06 23:00:00', '2024-02-06 22:00:00', '2024-02-06 21:00:00', '2024-02-06 20:00:00', '2024-02-06 19:00:00', '2024-02-06 18:00:00', '2024-02-06 17:00:00', '2024-02-06 16:00:00', '2024-02-06 15:00:00', '2024-02-06 14:00:00', '2024-02-06 13:00:00', '2024-02-06 12:00:00', '2024-02-06 11:00:00', '2024-02-06 04:00:00', '2024-02-06 03:00:00', '2024-02-06 02:00:00', '2024-02-06 01:00:00', '2024-02-06 00:00:00', '2024-02-05 23:00:00', '2024-02-05 22:00:00', '2024-02-05 21:00:00', '2024-02-05 20:00:00', '2024-02-05 19:00:00', '2024-02-05 18:00:00', '2024-02-05 17:00:00']"
Colombia, Cali Alfonso Bonilla Aragon International Airport (CLO/SKCL) ,"['SKCL 081600Z VRB03KT 9999 SCT020 29/20 Q1015 NOSIG', 'SKCL 081500Z VRB03KT 9999 FEW017 SCT120 27/20 Q1016 NOSIG', 'SKCL 081400Z 04003KT 010V090 9999 FEW017 BKN070 26/20 Q1016 NOSIG', 'SKCL 081300Z VRB02KT 9999 SCT030 BKN070 23/21 Q1016 NOSIG', 'SKCL 081200Z VRB03KT 9999 SCT025 SCT100 22/21 Q1015 NOSIG', 'SKCL 081100Z VRB03KT 9999 BKN025 21/20 Q1014 NOSIG', 'SKCL 081030Z VRB02KT 9999 BKN025 21/20 Q1014 NOSIG', 'SKCL 081000Z VRB04KT 9999 BKN025 20/20 Q1014 NOSIG', 'SKCL 080900Z 08006KT 9999 BKN025 20/20 Q1014 NOSIG', 'SKCL 080800Z VRB02KT 9999 SCT025 22/20 Q1014 NOSIG', 'SKCL 080700Z VRB03KT 9999 FEW025 21/20 Q1014 NOSIG', 'SKCL 080600Z 07006KT 9999 SCT025 21/20 Q1015 NOSIG', 'SKCL 080500Z 05006KT 9999 SCT025 SCT080 22/20 Q1016 NOSIG', 'SKCL 080400Z 02007KT 9999 FEW025 23/19 Q1016 NOSIG', 'SKCL 080300Z 02010KT 9999 FEW025 SCT080 24/19 Q1015 NOSIG', 'SKCL 080200Z 02010KT 9999 FEW025 SCT080 24/19 Q1015 NOSIG', 'SKCL 080100Z 33006KT 9999 FEW025 SCT100 26/19 Q1014 NOSIG', 'SKCL 080000Z 33012KT 9999 FEW025 SCT100 26/19 Q1013 NOSIG', 'SKCL 072300Z 31010KT 9999 FEW030 SCT100 28/19 Q1012 NOSIG', 'SKCL 072200Z 31012KT 9999 FEW030 30/19 Q1011 NOSIG', 'SKCL 072100Z 33010KT 300V360 9999 SCT030 32/20 Q1012 NOSIG', 'SKCL 072000Z VRB02KT 9999 SCT030 31/19 Q1013 NOSIG', 'SKCL 071900Z 13003KT 070V210 9999 SCT030 30/19 Q1014 NOSIG', 'SKCL 071800Z VRB02KT 9999 SCT030 30/19 Q1015 NOSIG', 'SKCL 071700Z VRB04KT 9999 FEW027 29/20 Q1016 NOSIG', 'SKCL 071600Z VRB04KT 9999 FEW025 28/20 Q1017 NOSIG', 'SKCL 071500Z VRB03KT 8000 FEW023 26/20 Q1018 NOSIG', 'SKCL 071400Z 10003KT 060V140 5000 HZ FEW020 24/20 Q1018 NOSIG', 'SKCL 071300Z 36003KT 330V030 4000 BR FEW020 BKN100 23/21 Q1017 NOSIG', 'SKCL 071200Z VRB03KT 3000 BR SCT025 BKN100 20/20 Q1017 NOSIG', 'SKCL 071100Z 11003KT 2000 BR SCT025 BKN100 20/20 Q1016 NOSIG', 'SKCL 071000Z VRB02KT 7000 VCFG BKN025 SCT100 21/21 Q1016', 'SKCL 070900Z VRB02KT 7000 VCFG BKN025 21/20 Q1016 NOSIG', 'SKCL 070800Z 14005KT 7000 VCFG FEW030 BKN100 21/20 Q1015 NOSIG', 'SKCL 070700Z 09006KT 5000 -DZ SCT030 BKN100 20/20 Q1015 BECMG FM0800 3000 RA', 'SKCL 070600Z 04005KT 8000 VCFG FEW030 BKN120 21/20 Q1016 NOSIG', 'SKCL 070500Z VRB03KT 9999 FEW030 BKN120 22/20 Q1016 NOSIG', 'SKCL 070400Z VRB03KT 9999 FEW030 BKN120 22/20 Q1016 NOSIG', 'SKCL 070300Z VRB03KT 9999 FEW030 BKN120 21/20 Q1016 NOSIG', 'SKCL 070200Z 10004KT 9999 FEW030 SCT120 21/20 Q1016 NOSIG', 'SKCL 070100Z 09004KT 9999 FEW030 SCT120 22/20 Q1015 NOSIG', 'SKCL 070000Z 20007KT 9999 FEW030 BKN120 24/20 Q1014 NOSIG', 'SKCL 062300Z 23005KT 210V270 9999 FEW030 BKN120 26/21 Q1013 NOSIG', 'SKCL 062200Z 23004KT 9999 FEW025TCU BKN120 28/20 Q1013 NOSIG RMK TCU/E/SE', 'SKCL 062100Z VRB02KT 9999 FEW025 SCT120 28/19 Q1013 NOSIG', 'SKCL 062000Z VRB04KT 9999 FEW020 29/19 Q1014 NOSIG', 'SKCL 061900Z VRB05KT 9999 FEW020 SCT100 29/20 Q1015 NOSIG', 'SKCL 061800Z 04004KT 320V090 9999 FEW020 SCT100 28/19 Q1016 NOSIG', 'SKCL 061700Z VRB03KT 9000 FEW015 BKN100 25/19 Q1017 NOSIG', 'SKCL 061600Z 04003KT 350V100 8000 FEW015 BKN100 Q25/20 Q1018 NOSIG', 'SKCL 061500Z VRB02KT 8000 FEW015 BKN080 24/20 Q1018 NOSIG', 'SKCL 061400Z VRB02KT 6000 FEW005 BKN120 22/20 Q1018 NOSIG RMK BR', 'SKCL 061300Z VRB02KT 5000 BR FEW005 SCT120 22/20 Q1017 NOSIG', 'SKCL 061200Z VRB03KT 3000 BR FEW005 SCT120 18/18 Q1016 BECMG FM1300 5000 BR', 'SKCL 061100Z 11003KT 030V190 2000 BR SCT015 18/18 Q1016 BECMG FM1230 BKN010', 'SKCL 061030Z 10003KT 060V130 2000 BR SCT015 BKN100 19/19 Q1015 BECMG FM1230 BKN010', 'SKCL 061000Z 07004KT 030V120 3000 BR SCT015 BKN120 19/19 Q1015 NOSIG', 'SKCL 060900Z VRB03KT 3000 BR SCT020 BKN040 19/19 Q1015 NOSIG', 'SKCL 060800Z 18004KT 6000 FEW030 19/19 Q1015 NOSIG RMK BR', 'SKCL 060700Z VRB03KT 9999 FEW030 20/19 Q1015 NOSIG', 'SKCL 060600Z VRB02KT 9999 FEW030 21/20 Q1016 NOSIG', 'SKCL 060500Z 05006KT 9999 FEW030 20/20 Q1016 NOSIG', 'SKCL 060400Z VRB02KT 9999 FEW030 SCT120 21/20 Q1017 NOSIG', 'SKCL 060300Z VRB02KT 9999 FEW020 BKN120 22/20 Q1017 NOSIG', 'SKCL 060200Z 27003KT 250V340 9999 FEW020 BKN120 22/20 Q1015 NOSIG', 'SKCL 060100Z VRB02KT 9999 FEW020 SCT120 21/21 Q1014 NOSIG', 'SKCL 060000Z VRB02KT 9999 FEW020 BKN100 23/20 Q1014 NOSIG', 'SKCL 052300Z 12004KT 9999 FEW015 BKN100 24/20 Q1013 NOSIG', 'SKCL 052200Z VRB03KT 9999 FEW015 BKN100 25/19 Q1013 NOSIG', 'SKCL 052100Z VRB02KT 9999 SCT015 BKN100 25/19 Q1014 NOSIG', 'SKCL 052000Z VRB04KT 9999 SCT015 BKN100 25/19 Q1014 NOSIG', 'SKCL 051900Z VRB05KT 9999 -DZ SCT017 BKN120 25/19 Q1015 NOSIG', 'SKCL 051800Z VRB05KT 9999 SCT017 BKN120 23/20 Q1016 NOSIG', 'SKCL 051700Z VRB04KT 9999 SCT015 BKN120 23/20 Q1017 NOSIG']","['2024-02-08 16:00:00', '2024-02-08 15:00:00', '2024-02-08 14:00:00', '2024-02-08 13:00:00', '2024-02-08 12:00:00', '2024-02-08 11:00:00', '2024-02-08 10:30:00', '2024-02-08 10:00:00', '2024-02-08 09:00:00', '2024-02-08 08:00:00', '2024-02-08 07:00:00', '2024-02-08 06:00:00', '2024-02-08 05:00:00', '2024-02-08 04:00:00', '2024-02-08 03:00:00', '2024-02-08 02:00:00', '2024-02-08 01:00:00', '2024-02-08 00:00:00', '2024-02-07 23:00:00', '2024-02-07 22:00:00', '2024-02-07 21:00:00', '2024-02-07 20:00:00', '2024-02-07 19:00:00', '2024-02-07 18:00:00', '2024-02-07 17:00:00', '2024-02-07 16:00:00', '2024-02-07 15:00:00', '2024-02-07 14:00:00', '2024-02-07 13:00:00', '2024-02-07 12:00:00', '2024-02-07 11:00:00', '2024-02-07 10:00:00', '2024-02-07 09:00:00', '2024-02-07 08:00:00', '2024-02-07 07:00:00', '2024-02-07 06:00:00', '2024-02-07 05:00:00', '2024-02-07 04:00:00', '2024-02-07 03:00:00', '2024-02-07 02:00:00', '2024-02-07 01:00:00', '2024-02-07 00:00:00', '2024-02-06 23:00:00', '2024-02-06 22:00:00', '2024-02-06 21:00:00', '2024-02-06 20:00:00', '2024-02-06 19:00:00', '2024-02-06 18:00:00', '2024-02-06 17:00:00', '2024-02-06 16:00:00', '2024-02-06 15:00:00', '2024-02-06 14:00:00', '2024-02-06 13:00:00', '2024-02-06 12:00:00', '2024-02-06 11:00:00', '2024-02-06 10:30:00', '2024-02-06 10:00:00', '2024-02-06 09:00:00', '2024-02-06 08:00:00', '2024-02-06 07:00:00', '2024-02-06 06:00:00', '2024-02-06 05:00:00', '2024-02-06 04:00:00', '2024-02-06 03:00:00', '2024-02-06 02:00:00', '2024-02-06 01:00:00', '2024-02-06 00:00:00', '2024-02-05 23:00:00', '2024-02-05 22:00:00', '2024-02-05 21:00:00', '2024-02-05 20:00:00', '2024-02-05 19:00:00', '2024-02-05 18:00:00', '2024-02-05 17:00:00']"
Colombia, Cartagena Rafael Nunez International Airport (CTG/SKCG) ,"['SKCG 081600Z 35016KT FEW017 30/20 Q1014', 'SKCG 081500Z 01011KT 340V050 9999 -DZ SCT017 29/21 Q1015', 'SKCG 081400Z 36010KT 340V040 9999 SCT017 28/22 Q1014', 'SKCG 081300Z 07004KT 020V100 9999 SCT017 26/22 Q1014', 'SKCG 081200Z 02005KT 350V050 9999 FEW017 26/21 Q1013', 'SKCG 081100Z 01006KT 9999 FEW017 26/21 Q1012', 'SKCG 081000Z 03005KT 9999 SCT017 25/22 Q1012', 'SKCG 080900Z 36005KT 340V070 9999 SCT015 24/22 Q1012', 'SKCG 080800Z VRB02KT 9999 BKN017 24/23 Q1012', 'SKCG 080700Z VRB02KT 9999 BKN017 25/23 Q1013', 'SKCG 080600Z 04004KT 350V070 9999 BKN015 25/22 Q1013', 'SKCG 080500Z 04004KT 360V070 9999 SCT017CB 25/23 Q1014 RMK CB/NE', 'SKCG 080400Z 03005KT 010V070 9999 SCT017 26/23 Q1014', 'SKCG 080300Z 06005KT 360V080 9999 FEW017 26/23 Q1014', 'SKCG 080200Z 04004KT 010V080 9999 FEW018 26/23 Q1013', 'SKCG 080100Z 03004KT 010V090 9999 SCT017 26/22 Q1013', 'SKCG 080000Z 02006KT 350V050 9999 SCT017 27/22 Q1012', 'SKCG 072300Z 01009KT 9999 SCT017 27/23 Q1012 REDZ', 'SKCG 072200Z 36013KT 9999 SCT017 28/22 Q1011', 'SKCG 072100Z 34014KT 9999 SCT017 28/22 Q1011', 'SKCG 072000Z 35016KT 9999 SCT017 30/23 Q1012', 'SKCG 071900Z 35015KT 9999 SCT017 30/22 Q1012', 'SKCG 071800Z 35016KT 9999 SCT017 31/22 Q1013', 'SKCG 071700Z 34013KT 9000 VCSH SCT017 31/22 Q1014 RMK VCSH/S', 'SKCG 071600Z 35014KT 9000 VCSH SCT017 30/22 Q1014 RMK VCSH/S/SE', 'SKCG 071500Z 35015KT 9000 VCSH SCT017 29/22 Q1014 REDZ RMK VCSH/S', 'SKCG 071400Z 36013KT 9999 SCT017 30/22 Q1014', 'SKCG 071300Z 36013KT 9999 FEW017 28/22 Q1013', 'SKCG 071200Z 36013KT 9999 SCT018 28/22 Q1012', 'SKCG 071100Z 36012KT 9999 FEW017 28/21 Q1012', 'SKCG 071000Z 36013KT 9999 FEW017 28/21 Q1011', 'SKCG 070800Z 36012KT 340V040 9999 SCT017 27/21 Q1010', 'SKCG 070700Z 35015KT 9999 BKN017 28/22 Q1011', 'SKCG 070600Z 35015KT 9999 BKN017 28/22 Q1012', 'SKCG 070500Z 35018KT 9999 BKN017 27/22 Q1012', 'SKCG 070400Z 35015KT 9999 BKN017 28/22 Q1012', 'SKCG 070300Z 35015KT 9999 FEW015TCU BKN017 28/22 Q1011 RMK TCU/SW', 'SKCG 070200Z 35017KT 9999 SCT017 29/22 Q1011', 'SKCG 070100Z 35015KT 9999 BKN017 29/24 Q1010', 'SKCG 070000Z 34017KT 9999 BKN017 29/24 Q1009', 'SKCG 062300Z 33010KT 9999 FEW018TCU 29/24 Q1009 RMK TCU/E', 'SKCG 062200Z 32009KT 9999 FEW018 30/24 Q1009', 'SKCG 062100Z 31009KT 9999 FEW018 31/24 Q1009', 'SKCG 062000Z 31010KT 280V340 9999 SCT018 30/24 Q1009', 'SKCG 061900Z 26006KT 210V320 9999 SCT018 31/25 Q1010', 'SKCG 061800Z 25007KT 220V290 9999 SCT018 31/25 Q1011', 'SKCG 061700Z 30008KT 210V310 9999 SCT018 32/24 Q1011', 'SKCG 061600Z 24006KT 180V300 9999 FEW018 32/24 Q1012', 'SKCG 061500Z 15003KT 9999 SCT017 32/24 Q1012', 'SKCG 061400Z 19006KT 9999 VCSH BKN015 FEW017CB 28/25 Q1012 RMK CB VCSH/E', 'SKCG 061300Z VRB01KT 9999 SCT017CB 28/25 Q1011 RMK CB/SE/SW', 'SKCG 061200Z VRB02KT 9999 BKN015 FEW018CB 26/24 Q1010 RMK CB/SW/E', 'SKCG 061100Z VRB02T 9999 BKN015 26/24 Q1010', 'SKCG 061000Z VRB02T 9999 SCT015 26/24 Q1009', 'SKCG 060900Z 09003T CAVOK 26/24 Q1008', 'SKCG 060800Z VRB02T CAVOK 26/24 Q1008', 'SKCG 060700Z 09003KT CAVOK 27/25 Q1008', 'SKCG 060600Z VRB01KT CAVOK 27/25 Q1009', 'SKCG 060500Z VRB02KT CAVOK 28/25 Q1009', 'SKCG 060400Z VRB02KT CAVOK 28/25 Q1009', 'SKCG 060300Z 30003KT 260V350 9999 FEW015 29/25 Q1009', 'SKCG 060200Z VRB02KT 9999 FEW015 29/25 Q1008', 'SKCG 060100Z 27003KT 220V320 9999 FEW015 29/24 Q1008', 'SKCG 060000Z 27005KT 240V010 9999 FEW015 29/25 Q1007', 'SKCG 052300Z 28006KT 230V330 9999 SCT015 30/25 Q1007', 'SKCG 052200Z 29008KT 230V300 9999 SCT017 30/26 Q1006', 'SKCG 052100Z 25010KT 220V300 9999 FEW017CB 31/25 Q1006 RMK CB/E', 'SKCG 052000Z 23010KT 210V300 9999 FEW017CB 31/25 Q1006 RMK CB/E', 'SKCG 051900Z 23010KT 200V280 9999 FEW018CB 32/25 Q1007 RMK CB/E/SE', 'SKCG 051800Z 25011KT 230V290 9999 FEW017 31/24 Q1008', 'SKCG 051700Z 25009KT 210V290 9999 FEW017 32/25 Q1009']","['2024-02-08 16:00:00', '2024-02-08 15:00:00', '2024-02-08 14:00:00', '2024-02-08 13:00:00', '2024-02-08 12:00:00', '2024-02-08 11:00:00', '2024-02-08 10:00:00', '2024-02-08 09:00:00', '2024-02-08 08:00:00', '2024-02-08 07:00:00', '2024-02-08 06:00:00', '2024-02-08 05:00:00', '2024-02-08 04:00:00', '2024-02-08 03:00:00', '2024-02-08 02:00:00', '2024-02-08 01:00:00', '2024-02-08 00:00:00', '2024-02-07 23:00:00', '2024-02-07 22:00:00', '2024-02-07 21:00:00', '2024-02-07 20:00:00', '2024-02-07 19:00:00', '2024-02-07 18:00:00', '2024-02-07 17:00:00', '2024-02-07 16:00:00', '2024-02-07 15:00:00', '2024-02-07 14:00:00', '2024-02-07 13:00:00', '2024-02-07 12:00:00', '2024-02-07 11:00:00', '2024-02-07 10:00:00', '2024-02-07 08:00:00', '2024-02-07 07:00:00', '2024-02-07 06:00:00', '2024-02-07 05:00:00', '2024-02-07 04:00:00', '2024-02-07 03:00:00', '2024-02-07 02:00:00', '2024-02-07 01:00:00', '2024-02-07 00:00:00', '2024-02-06 23:00:00', '2024-02-06 22:00:00', '2024-02-06 21:00:00', '2024-02-06 20:00:00', '2024-02-06 19:00:00', '2024-02-06 18:00:00', '2024-02-06 17:00:00', '2024-02-06 16:00:00', '2024-02-06 15:00:00', '2024-02-06 14:00:00', '2024-02-06 13:00:00', '2024-02-06 12:00:00', '2024-02-06 11:00:00', '2024-02-06 10:00:00', '2024-02-06 09:00:00', '2024-02-06 08:00:00', '2024-02-06 07:00:00', '2024-02-06 06:00:00', '2024-02-06 05:00:00', '2024-02-06 04:00:00', '2024-02-06 03:00:00', '2024-02-06 02:00:00', '2024-02-06 01:00:00', '2024-02-06 00:00:00', '2024-02-05 23:00:00', '2024-02-05 22:00:00', '2024-02-05 21:00:00', '2024-02-05 20:00:00', '2024-02-05 19:00:00', '2024-02-05 18:00:00', '2024-02-05 17:00:00']"
Colombia, Cucuta Camilo Daza International Airport (CUC/SKCC) ,"['SKCC 081600Z 36008KT 6000 BCFG SCT010 BKN070 24/24 Q1017', 'SKCC 081500Z 36006KT 5000 2000NW -DZ BR BCFG SCT008 OVC070 23/23 Q1018', 'SKCC 081400Z 36005KT 5000 2400NW BR BCFG SCT008 OVC070 23/23 Q1017', 'SKCC 081300Z 34003KT 2000 0900NW -DZ BR SCT012 OVC070 23/23 Q1017', 'SKCC 081200Z 33005KT 3500 1000NW -DZ BR SCT012 OVC070 22/22 Q1016', 'SKCC 081100Z 32004KT 5000 -DZ BCFG SCT008 BKN020 23/23 Q1015', 'SKCC 081000Z 30004KT 5000 BCFG SCT008 BKN020 23/23 Q1015', 'SKCC 080500Z 29003KT 8000 FEW012 BKN020 24/24 Q1017', 'SKCC 080400Z 27004KT 8000 FEW012 BKN020 24/24 Q1017', 'SKCC 080300Z 26004KT 8000 FEW012 BKN020 24/24 Q1017', 'SKCC 080200Z 31005KT 8000 FEW012 BKN020 24/23 Q1016', 'SKCC 080100Z 33006KT 8000 VCFG SCT012 BKN020 24/22 Q1015', 'SKCC 080000Z 33005KT 8000 VCFG SCT010 BKN017 24/23 Q1014', 'SKCC 072300Z VRB02KT 8000 VCFG FEW010 SCT015 OVC070 24/22 Q1014', 'SKCC 072200Z 33006KT 310V020 8000 VCFG FEW008 SCT012 OVC070 25/22 Q1013', 'SKCC 072100Z 35007KT 8000 VCFG SCT008 SCT012 OVC070 25/22 Q1013', 'SKCC 072000Z 35008KT 7000 BCFG SCT008 OVC070 26/22 Q1013', 'SKCC 071800Z 35009KT 6000 BCFG SCT008 BKN070 25/24 Q1015', 'SKCC 071700Z 34010KT 5000 BCFG SCT008 BKN050 27/23 Q1015', 'SKCC 071600Z 35010KT 5000 BCFG SCT010 BKN050 26/23 Q1016', 'SKCC 071500Z 31005KT 7000 BCFG -DZ SCT014 BKN050 26/25 Q1016', 'SKCC 071400Z VRB02KT 6000 BCFG SCT010 BKN050 26/26 Q1016', 'SKCC 071300Z 34006KT 5000 BCFG BKN005 BKN050 25/25 Q1016', 'SKCC 071200Z 36004KT 4000 BCFG SCT007 BKN050 25/25 Q1015', 'SKCC 071100Z 32005KT 5000 BCFG SCT010 BKN050 25/25 Q1014', 'SKCC 071000Z 36008KT 5000 BCFG SCT010 BKN050 25/25 Q1014', 'SKCC 070500Z 00000KT 9999 SCT018 BKN050 26/25 Q1014', 'SKCC 070400Z VRB02KT 9999 SCT018 BKN050 26/24 Q1014', 'SKCC 070300Z VRB01KT 9999 SCT018 BKN050 26/25 Q1014', 'SKCC 070200Z VRB02KT 9999 SCT018 BKN050 27/24 Q1013', 'SKCC 070100Z 35003KT 9999 SCT020 BKN050 27/23 Q1012', 'SKCC 070000Z 32004KT 9999 SCT020 BKN050 27/23 Q1011', 'SKCC 062200Z 36010KT 9999 SCT022 BKN050 29/22 Q1010', 'SKCC 062100Z 36010KT 9999 SCT022 SCT070 31/23 Q1009', 'SKCC 062000Z 36010KT 320V030 9999 SCT023 32/23 Q1009', 'SKCC 061900Z 16020KT 9999 SCT023 36/17 Q1010', 'SKCC 061800Z 05007KT 9999 SCT023 34/21 Q1011', 'SKCC 061700Z VRB06KT 9999 FEW023 SCT080 33/19 Q1013', 'SKCC 061600Z 16009KT 080V190 9999 FEW015 BKN070 30/19 Q1014', 'SKCC 061500Z 26005KT 230V290 9999 FEW003 BKN080 29/21 Q1015', 'SKCC 061400Z 18006KT 140V210 9999 FEW003 BKN070 26/22 Q1015', 'SKCC 061300Z 17005KT 5000 BCFG SCT012 BKN070 24/24 Q1015', 'SKCC 061200Z 36003KT 8000 VCFG FEW003 SCT010 BKN070 23/23 Q1014 RMK VCFG/S/SE', 'SKCC 061100Z 01005KT 5000 1500NW -DZ BCFG SCT003 SCT017 BKN070 23/23 Q1014', 'SKCC 061000Z 35004KT 5000 BR SCT003 BKN070 24/24 Q1013', 'SKCC 060500Z 00000KT 9999 FEW020 BKN070 26/22 Q1012', 'SKCC 060400Z VRB02KT 9999 FEW020 SCT070 28/21 Q1012', 'SKCC 060300Z 17010KT 9999 FEW020 BKN070 29/20 Q1012', 'SKCC 060200Z 19009KT 9999 FEW020CB SCT070 29/21 Q1011 RMK CB/N/NW', 'SKCC 060100Z 18012KT 9999 FEW020 BKN070 28/21 Q1010', 'SKCC 060000Z 18010KT 9999 -RA FEW017 BKN070 30/21 Q1009', 'SKCC 052300Z 14004KT 9999 SCT017 SCT050 30/22 Q1008', 'SKCC 052200Z 36006KT 9999 SCT017 SCT070 31/22 Q1007', 'SKCC 052100Z 36009KT 9999 SCT018 SCT070 32/22 Q1007', 'SKCC 052000Z 16012KT 9999 SCT020 SCT070 35/19 Q1007', 'SKCC 051900Z 17013G24KT 9999 FEW023 SCT070 35/19 Q1007', 'SKCC 051800Z 17020KT 9999 FEW023 36/18 Q1008', 'SKCC 051700Z 16013KT 9999 SCT023 35/19 Q1010']","['2024-02-08 16:00:00', '2024-02-08 15:00:00', '2024-02-08 14:00:00', '2024-02-08 13:00:00', '2024-02-08 12:00:00', '2024-02-08 11:00:00', '2024-02-08 10:00:00', '2024-02-08 05:00:00', '2024-02-08 04:00:00', '2024-02-08 03:00:00', '2024-02-08 02:00:00', '2024-02-08 01:00:00', '2024-02-08 00:00:00', '2024-02-07 23:00:00', '2024-02-07 22:00:00', '2024-02-07 21:00:00', '2024-02-07 20:00:00', '2024-02-07 18:00:00', '2024-02-07 17:00:00', '2024-02-07 16:00:00', '2024-02-07 15:00:00', '2024-02-07 14:00:00', '2024-02-07 13:00:00', '2024-02-07 12:00:00', '2024-02-07 11:00:00', '2024-02-07 10:00:00', '2024-02-07 05:00:00', '2024-02-07 04:00:00', '2024-02-07 03:00:00', '2024-02-07 02:00:00', '2024-02-07 01:00:00', '2024-02-07 00:00:00', '2024-02-06 22:00:00', '2024-02-06 21:00:00', '2024-02-06 20:00:00', '2024-02-06 19:00:00', '2024-02-06 18:00:00', '2024-02-06 17:00:00', '2024-02-06 16:00:00', '2024-02-06 15:00:00', '2024-02-06 14:00:00', '2024-02-06 13:00:00', '2024-02-06 12:00:00', '2024-02-06 11:00:00', '2024-02-06 10:00:00', '2024-02-06 05:00:00', '2024-02-06 04:00:00', '2024-02-06 03:00:00', '2024-02-06 02:00:00', '2024-02-06 01:00:00', '2024-02-06 00:00:00', '2024-02-05 23:00:00', '2024-02-05 22:00:00', '2024-02-05 21:00:00', '2024-02-05 20:00:00', '2024-02-05 19:00:00', '2024-02-05 18:00:00', '2024-02-05 17:00:00']"
Colombia, Florencia Gustavo Artunduaga Paredes Airport (FLA/SKFL) ,"['SKFL 081100Z AUTO VRB02KT //// SCT061/// 24/21 Q1012', 'SKFL 071300Z AUTO VRB02KT //// SCT022/// SCT029/// BKN039/// 23/23 Q1016', 'SKFL 071200Z AUTO VRB03KT //// OVC051/// 23/22 Q1015', 'SKFL 051800Z 04004KT 340V080 5000 -DZ BKN010 24/23 Q1013']","['2024-02-08 11:00:00', '2024-02-07 13:00:00', '2024-02-07 12:00:00', '2024-02-05 18:00:00']"
Congo, Brazzaville Maya Maya Airport (BZV/FCBB) ,"['FCBB 081500Z 06004KT 010V110 CAVOK 32/22 Q1010 NOSIG', 'FCBB 081430Z 06006KT 360V100 CAVOK 33/22 Q1010 NOSIG', 'FCBB 081330Z VRB04KT 9999 FEW020 34/21 Q1012 NOSIG', 'FCBB 081300Z 12005KT 060V190 9999 FEW020 33/21 Q1012 NOSIG', 'FCBB 081200Z VRB04KT 9999 FEW018 32/21 Q1013 NOSIG', 'FCBB 081130Z VRB02KT 9999 FEW018 33/22 Q1014 NOSIG', 'FCBB 081100Z 13005KT 090V180 9999 FEW018 32/21 Q1014 NOSIG', 'FCBB 081030Z 15005KT 090V250 9999 FEW015 32/21 Q1015 NOSIG', 'FCBB 081000Z 18007KT 130V220 9999 FEW015 31/22 Q1015 NOSIG', 'FCBB 080930Z 17006KT 140V240 9999 FEW015 29/22 Q1015 NOSIG', 'FCBB 080900Z VRB03KT 9999 FEW015 28/23 Q1016 NOSIG', 'FCBB 080830Z VRB03KT 9999 FEW015 28/23 Q1016 NOSIG', 'FCBB 080800Z VRB03KT 9999 FEW012 27/23 Q1016 NOSIG', 'FCBB 080730Z VRB02KT 9999 FEW012 26/23 Q1016 NOSIG', 'FCBB 080700Z 23004KT 9999 FEW012 25/23 Q1016 NOSIG', 'FCBB 080630Z 24005KT 9999 FEW010 25/23 Q1016 NOSIG', 'FCBB 080600Z 26004KT 230V310 9999 FEW010 24/22 Q1016 NOSIG', 'FCBB 080500Z 27004KT 240V300 9999 SCT020 24/22 Q1016 NOSIG', 'FCBB 080400Z 25004KT 8000 FEW016 23/22 Q1016 NOSIG', 'FCBB 080330Z 17004KT 8000 NSC 24/22 Q1015 NOSIG', 'FCBB 080300Z VRB02KT 8000 NSC 24/22 Q1015 NOSIG', 'FCBB 080230Z 23003KT 8000 NSC 24/22 Q1015 NOSIG', 'FCBB 080200Z VRB02KT 8000 NSC 24/22 Q1014 NOSIG', 'FCBB 080100Z 29004KT 260V320 7000 NSC 24/22 Q1015 NOSIG', 'FCBB 080030Z VRB02KT 7000 NSC 24/22 Q1015 NOSIG', 'FCBB 072200Z VRB02KT 7000 NSC 25/23 Q1014 NOSIG', 'FCBB 072130Z 29003KT 7000 NSC 25/23 Q1015 NOSIG', 'FCBB 072100Z 24002KT 7000 NSC 25/23 Q1015 NOSIG', 'FCBB 072000Z 23005KT 7000 FEW030CB 25/22 Q1014 NOSIG', 'FCBB 071700Z VRB03KT 9000 TS FEW020 FEW030CB 27/21 Q1010 NOSIG', 'FCBB 071630Z 30007KT 240V340 9999 TS FEW020 FEW030CB 26/21 Q1012 NOSIG', 'FCBB 071600Z 34008KT 300V020 9000 TS FEW020 SCT030CB 28/22 Q1011 BECMG 4000 TSRA', 'FCBB 071530Z 09015KT 070V130 8000 TS FEW020 SCT030CB 30/23 Q1011 BECMG 4000 TSRA', 'FCBB 071500Z 13008KT 090V150 8000 FEW020 FEW030CB 34/20 Q1010 BECMG TS', 'FCBB 071430Z 15005KT 100V210 9999 FEW020 FEW030CB 36/20 Q1010 NOSIG', 'FCBB 071400Z VRB05KT 9999 FEW020 FEW030CB 36/20 Q1011 NOSIG', 'FCBB 071330Z 15006KT 110V180 9999 SCT020 FEW026TCU FEW030CB 35/20 Q1011 NOSIG', 'FCBB 071300Z VRB03KT 9999 SCT020 FEW026TCU FEW030CB 35/23 Q1011 NOSIG', 'FCBB 071200Z VRB04KT 9999 SCT016 FEW026TCU FEW030CB 34/23 Q1013 NOSIG', 'FCBB 071100Z 05003KT 360V140 8000 SCT016 FEW026TCU FEW030CB 33/23 Q1014 NOSIG', 'FCBB 071030Z VRB03KT 9999 SCT016 33/23 Q1015 NOSIG', 'FCBB 071000Z VRB02KT 9000 FEW013 32/23 Q1015 NOSIG', 'FCBB 070930Z VRB02KT 9000 FEW013 31/24 Q1016 NOSIG', 'FCBB 070900Z VRB02KT 9000 FEW010 30/23 Q1016 NOSIG', 'FCBB 070800Z VRB03KT 9000 FEW010 28/23 Q1016 NOSIG', 'FCBB 070700Z VRB02KT CAVOK 26/24 Q1016 NOSIG', 'FCBB 070630Z 00000KT CAVOK 25/24 Q1016 NOSIG', 'FCBB 070600Z 22003KT CAVOK 25/24 Q1015 NOSIG', 'FCBB 070530Z VRB01KT CAVOK 24/23 Q1015 NOSIG', 'FCBB 070500Z VRB02KT CAVOK 24/23 Q1015 NOSIG', 'FCBB 070430Z 23002KT CAVOK 24/23 Q1015 NOSIG', 'FCBB 070400Z VRB02KT CAVOK 25/23 Q1015 NOSIG', 'FCBB 070330Z 00000KT 8000 NSC 25/23 Q1014 NOSIG', 'FCBB 070300Z 25002KT 8000 NSC 25/23 Q1014 NOSIG', 'FCBB 070230Z 24002KT 8000 NSC 25/23 Q1014 NOSIG', 'FCBB 070200Z 28002KT 8000 NSC 25/23 Q1014 NOSIG', 'FCBB 070000Z 33001KT 8000 NSC 26/23 Q1015 NOSIG', 'FCBB 062330Z 22002KT 8000 NSC 26/23 Q1015 NOSIG', 'FCBB 062300Z 26002KT 8000 NSC 26/23 Q1015 NOSIG', 'FCBB 062200Z 26004KT 8000 NSC 27/23 Q1016 NOSIG', 'FCBB 062130Z 25003KT 8000 NSC 27/24 Q1015 NOSIG', 'FCBB 062100Z 24004KT 8000 NSC 27/24 Q1016 NOSIG', 'FCBB 062030Z VRB03KT 8000 NSC 28/24 Q1015 NOSIG', 'FCBB 061900Z VRB01KT 8000 NSC 28/24 Q1014 NOSIG', 'FCBB 061800Z VRB01KT 8000 FEW020 29/23 Q1013 NOSIG', 'FCBB 061730Z VRB02KT 9000 FEW020 30/23 Q1013 NOSIG', 'FCBB 061700Z VRB03KT 9000 FEW020 30/23 Q1012 NOSIG', 'FCBB 061630Z 23003KT 9000 FEW020 30/23 Q1012 NOSIG', 'FCBB 061600Z 23004KT 190V270 9000 FEW020 30/23 Q1012 NOSIG', 'FCBB 061530Z 25004KT 200V290 9000 FEW020 31/23 Q1012 NOSIG', 'FCBB 061500Z 25005KT 220V290 9000 FEW020 31/23 Q1012 NOSIG', 'FCBB 061430Z 24005KT 180V300 9999 FEW020 32/23 Q1012 NOSIG', 'FCBB 061400Z 23007KT 9999 FEW018 31/23 Q1012 NOSIG', 'FCBB 061330Z 24005KT 180V290 9999 FEW018 32/23 Q1012 NOSIG', 'FCBB 061300Z VRB05KT 9999 FEW018 31/23 Q1013 NOSIG', 'FCBB 061230Z 21005KT 150V250 9999 FEW018 30/23 Q1014 NOSIG', 'FCBB 061130Z 22007KT 190V250 9999 FEW018 29/24 Q1015 NOSIG', 'FCBB 061000Z 22006KT 180V280 9999 FEW015 28/23 Q1017 NOSIG', 'FCBB 060930Z 25004KT 180V340 9999 FEW015 27/23 Q1017 NOSIG', 'FCBB 060900Z VRB02KT 9000 FEW013 26/22 Q1018 NOSIG', 'FCBB 060800Z 24005KT 200V290 8000 FEW011 25/23 Q1018 NOSIG', 'FCBB 060730Z 25003KT 210V290 8000 FEW011 24/23 Q1018 NOSIG', 'FCBB 060700Z 25003KT 8000 FEW013 24/22 Q1018 NOSIG', 'FCBB 060630Z 26004KT 230V300 8000 -RA FEW010 23/22 Q1018 NOSIG', 'FCBB 060600Z 25004KT 8000 FEW010 23/22 Q1017 NOSIG', 'FCBB 060500Z 23004KT 9999 FEW010 23/22 Q1017 NOSIG', 'FCBB 060430Z 22004KT 9999 FEW010 23/22 Q1016 NOSIG', 'FCBB 060400Z 21004KT 9999 FEW010 23/22 Q1016 NOSIG', 'FCBB 060330Z 23004KT 9999 FEW016 23/22 Q1016 NOSIG', 'FCBB 060300Z 22003KT 8000 FEW010 SCT016 23/22 Q1016 NOSIG', 'FCBB 060200Z 18004KT 9999 FEW010 SCT016 23/22 Q1016 NOSIG', 'FCBB 060130Z 19003KT 9000 -RA SCT016 23/22 Q1016 NOSIG', 'FCBB 060100Z VRB03KT 9000 -RA SCT016 24/22 Q1016 NOSIG', 'FCBB 060030Z VRB03KT 9000 -RA SCT016 23/21 Q1017 NOSIG', 'FCBB 060000Z VRB02KT 9000 -RA SCT020 23/22 Q1017 NOSIG', 'FCBB 052330Z VRB03KT 9000 -RA SCT020 23/21 Q1017 NOSIG', 'FCBB 052200Z 24007KT 210V270 8000 -TSRA FEW006 SCT014 FEW028CB 23/23 Q1017 NOSIG', 'FCBB 052130Z VRB02KT 6000 -TSRA SCT020 FEW030CB 23/22 Q1017 NOSIG', 'FCBB 052100Z VRB03KT 6000 -TSRA SCT020 FEW030CB 23/22 Q1017 NOSIG', 'FCBB 052030Z 17005KT 4500 -TSRA FEW016 BKN023 FEW030CB 23/21 Q1017 NOSIG', 'FCBB 051930Z 24006KT 220V280 8000 -TSRA SCT022 FEW030CB 27/23 Q1015 BECMG 4000 TSRA', 'FCBB 051730Z 30006KT 270V330 9000 FEW020 FEW030CB 28/24 Q1013 NOSIG', 'FCBB 051700Z 29007KT 9999 FEW020 FEW030CB 29/24 Q1012 NOSIG', 'FCBB 051630Z 29006KT 250V320 9999 FEW020 FEW030CB 30/24 Q1012 NOSIG']","['2024-02-08 15:00:00', '2024-02-08 14:30:00', '2024-02-08 13:30:00', '2024-02-08 13:00:00', '2024-02-08 12:00:00', '2024-02-08 11:30:00', '2024-02-08 11:00:00', '2024-02-08 10:30:00', '2024-02-08 10:00:00', '2024-02-08 09:30:00', '2024-02-08 09:00:00', '2024-02-08 08:30:00', '2024-02-08 08:00:00', '2024-02-08 07:30:00', '2024-02-08 07:00:00', '2024-02-08 06:30:00', '2024-02-08 06:00:00', '2024-02-08 05:00:00', '2024-02-08 04:00:00', '2024-02-08 03:30:00', '2024-02-08 03:00:00', '2024-02-08 02:30:00', '2024-02-08 02:00:00', '2024-02-08 01:00:00', '2024-02-08 00:30:00', '2024-02-07 22:00:00', '2024-02-07 21:30:00', '2024-02-07 21:00:00', '2024-02-07 20:00:00', '2024-02-07 17:00:00', '2024-02-07 16:30:00', '2024-02-07 16:00:00', '2024-02-07 15:30:00', '2024-02-07 15:00:00', '2024-02-07 14:30:00', '2024-02-07 14:00:00', '2024-02-07 13:30:00', '2024-02-07 13:00:00', '2024-02-07 12:00:00', '2024-02-07 11:00:00', '2024-02-07 10:30:00', '2024-02-07 10:00:00', '2024-02-07 09:30:00', '2024-02-07 09:00:00', '2024-02-07 08:00:00', '2024-02-07 07:00:00', '2024-02-07 06:30:00', '2024-02-07 06:00:00', '2024-02-07 05:30:00', '2024-02-07 05:00:00', '2024-02-07 04:30:00', '2024-02-07 04:00:00', '2024-02-07 03:30:00', '2024-02-07 03:00:00', '2024-02-07 02:30:00', '2024-02-07 02:00:00', '2024-02-07 00:00:00', '2024-02-06 23:30:00', '2024-02-06 23:00:00', '2024-02-06 22:00:00', '2024-02-06 21:30:00', '2024-02-06 21:00:00', '2024-02-06 20:30:00', '2024-02-06 19:00:00', '2024-02-06 18:00:00', '2024-02-06 17:30:00', '2024-02-06 17:00:00', '2024-02-06 16:30:00', '2024-02-06 16:00:00', '2024-02-06 15:30:00', '2024-02-06 15:00:00', '2024-02-06 14:30:00', '2024-02-06 14:00:00', '2024-02-06 13:30:00', '2024-02-06 13:00:00', '2024-02-06 12:30:00', '2024-02-06 11:30:00', '2024-02-06 10:00:00', '2024-02-06 09:30:00', '2024-02-06 09:00:00', '2024-02-06 08:00:00', '2024-02-06 07:30:00', '2024-02-06 07:00:00', '2024-02-06 06:30:00', '2024-02-06 06:00:00', '2024-02-06 05:00:00', '2024-02-06 04:30:00', '2024-02-06 04:00:00', '2024-02-06 03:30:00', '2024-02-06 03:00:00', '2024-02-06 02:00:00', '2024-02-06 01:30:00', '2024-02-06 01:00:00', '2024-02-06 00:30:00', '2024-02-06 00:00:00', '2024-02-05 23:30:00', '2024-02-05 22:00:00', '2024-02-05 21:30:00', '2024-02-05 21:00:00', '2024-02-05 20:30:00', '2024-02-05 19:30:00', '2024-02-05 17:30:00', '2024-02-05 17:00:00', '2024-02-05 16:30:00']"
Congo, Pointe Noire Airport (PNR/FCPP) ,"['FCPP 081500Z 22009KT 9999 FEW016 FEW030CB 30/26 Q1009 NOSIG', 'FCPP 081430Z 21009KT 9999 FEW016 FEW030CB 31/26 Q1009 NOSIG', 'FCPP 081330Z 21008KT 170V240 9999 FEW016 FEW030CB 32/25 Q1010 NOSIG', 'FCPP 081300Z 17007KT 120V200 9999 FEW016 FEW030CB 31/25 Q1010 NOSIG', 'FCPP 081200Z 13007KT 090V170 9999 FEW015 FEW030CB 31/25 Q1011 NOSIG', 'FCPP 081130Z 14009KT 100V170 9999 SCT015 31/26 Q1012 NOSIG', 'FCPP 081100Z 15008KT 090V190 9999 SCT015 32/26 Q1012 NOSIG', 'FCPP 081030Z 14008KT 110V180 9000 FEW015 31/25 Q1012 NOSIG', 'FCPP 081000Z 13009KT 100V170 9999 FEW015 31/25 Q1013 NOSIG', 'FCPP 080930Z 11008KT 080V150 9999 FEW015 29/25 Q1013 NOSIG', 'FCPP 080900Z 12010KT 9999 FEW013 27/24 Q1013 NOSIG', 'FCPP 080830Z 09006KT 060V120 9999 FEW013 27/24 Q1013 NOSIG', 'FCPP 080800Z 07009KT 040V100 8000 FEW010 26/24 Q1013 NOSIG', 'FCPP 080730Z 05006KT 8000 FEW010 FEW030CB 26/25 Q1014 NOSIG', 'FCPP 080700Z 08006KT 050V120 8000 FEW010 FEW030CB 25/24 Q1013 NOSIG', 'FCPP 080630Z 13006KT 6000 FEW010 FEW030CB 25/24 Q1012 NOSIG', 'FCPP 080600Z 11004KT 080V150 8000 FEW010 25/24 Q1012 NOSIG', 'FCPP 080500Z 06004KT 030V090 8000 FEW010 SCT020 FEW030CB 25/24 Q1012 NOSIG', 'FCPP 080400Z VRB03KT 8000 -TSRA FEW010 SCT020 FEW030CB 25/24 Q1012 NOSIG', 'FCPP 080330Z 16004KT 8000 -TSRA FEW010 SCT020 FEW030CB 25/24 Q1012 NOSIG', 'FCPP 080300Z 20008KT 8000 -TSRA FEW010 SCT020 FEW030CB 25/24 Q1012 NOSIG', 'FCPP 080230Z 20009KT 8000 -TSRA SCT010 BKN020 FEW030CB 25/24 Q1013 NOSIG', 'FCPP 080200Z 20010KT 8000 -TSRA SCT010 BKN020 FEW030CB 25/24 Q1013 NOSIG', 'FCPP 080100Z 25005KT 220V280 8000 -TSRA SCT010 BKN020 FEW030CB 25/24 Q1013 NOSIG', 'FCPP 080030Z 22005KT 190V260 8000 -TSRA SCT010 BKN020 FEW030CB 25/24 Q1013 NOSIG', 'FCPP 080000Z 23003KT 8000 -TSRA FEW010 SCT016 FEW030CB 25/24 Q1014 NOSIG', 'FCPP 072230Z 00000KT 9999 FEW010 SCT016 FEW030CB 28/26 Q1014 NOSIG', 'FCPP 072100Z 20006KT 9999 FEW010 SCT016 FEW030CB 29/26 Q1013 NOSIG', 'FCPP 072000Z 17007KT 9999 FEW010 SCT016 FEW030CB 29/26 Q1012 TEMPO TS', 'FCPP 071700Z 21011KT 9999 SCT015 30/26 Q1009 NOSIG', 'FCPP 071630Z 22011KT 9999 FEW015 30/26 Q1009 NOSIG', 'FCPP 071600Z 21012KT 9999 FEW015 30/25 Q1009 NOSIG', 'FCPP 071530Z 21013KT 9999 FEW015 31/25 Q1009 NOSIG', 'FCPP 071500Z 21012KT 9999 FEW016 31/25 Q1009 NOSIG', 'FCPP 071430Z 20015KT 9999 FEW016 31/25 Q1009 NOSIG', 'FCPP 071400Z 21012KT 180V250 9999 FEW016 31/26 Q1010 NOSIG', 'FCPP 071330Z 21011KT 9999 FEW016 31/26 Q1010 NOSIG', 'FCPP 071300Z 22011KT 9999 FEW016 32/26 Q1011 NOSIG', 'FCPP 071200Z 20011KT 9999 FEW018 32/25 Q1012 NOSIG', 'FCPP 071100Z 22009KT 190V250 9999 FEW015 32/26 Q1013 NOSIG', 'FCPP 071030Z 21008KT 160V230 9999 FEW015 32/25 Q1013 NOSIG', 'FCPP 071000Z 19007KT 9999 FEW015 31/25 Q1013 NOSIG', 'FCPP 070930Z 19007KT 160V220 9999 SCT015 30/25 Q1014 NOSIG', 'FCPP 070900Z 16005KT 110V190 9999 FEW015 30/26 Q1014 NOSIG', 'FCPP 070800Z 15007KT 100V180 9999 FEW015 30/25 Q1014 NOSIG', 'FCPP 070700Z 14006KT 8000 FEW013 28/26 Q1013 NOSIG', 'FCPP 070630Z 14005KT 8000 FEW010 27/26 Q1013 NOSIG', 'FCPP 070600Z 15002KT 8000 FEW010 26/26 Q1013 NOSIG', 'FCPP 070530Z 16002KT 8000 FEW010 26/25 Q1013 NOSIG', 'FCPP 070500Z 12004KT 8000 FEW010 26/26 Q1012 NOSIG', 'FCPP 070430Z 11003KT 8000 FEW010 26/25 Q1012 NOSIG', 'FCPP 070400Z 12002KT 8000 FEW010 26/25 Q1012 NOSIG', 'FCPP 070330Z 12003KT 8000 FEW010 26/25 Q1011 NOSIG', 'FCPP 070300Z 15003KT 8000 FEW010 26/25 Q1011 NOSIG', 'FCPP 070230Z 15003KT 8000 FEW010 26/25 Q1011 NOSIG', 'FCPP 070200Z 16002KT 8000 FEW010 26/25 Q1011 NOSIG', 'FCPP 070130Z 13003KT 8000 FEW010 26/25 Q1012 NOSIG', 'FCPP 070100Z 14002KT 8000 FEW010 26/25 Q1012 NOSIG', 'FCPP 070000Z 00000KT 7000 FEW010 26/25 Q1012 NOSIG', 'FCPP 062330Z 13002KT 7000 FEW010 26/25 Q1012 NOSIG', 'FCPP 062300Z 13003KT 7000 FEW010 26/25 Q1013 NOSIG', 'FCPP 062200Z 16003KT 8000 FEW010 SCT023 26/25 Q1013 NOSIG', 'FCPP 062130Z 13002KT 8000 FEW010 SCT023 27/25 Q1013 NOSIG', 'FCPP 062030Z 14002KT 8000 FEW010 SCT023 27/25 Q1013 NOSIG', 'FCPP 061900Z 16005KT 9999 FEW010 27/25 Q1012 NOSIG', 'FCPP 061830Z 17006KT 9999 FEW010 28/25 Q1011 NOSIG', 'FCPP 061800Z 18008KT 9999 FEW011 28/25 Q1011 NOSIG', 'FCPP 061730Z 18009KT 9999 FEW018 28/25 Q1010 NOSIG', 'FCPP 061700Z 19008KT 9999 FEW018 29/26 Q1010 NOSIG', 'FCPP 061630Z 18012KT 9999 FEW018 30/26 Q1010 NOSIG', 'FCPP 061600Z 19013KT 9999 FEW020 FEW026TCU 30/25 Q1010 NOSIG', 'FCPP 061530Z 19013KT 9999 FEW020 FEW026TCU 30/24 Q1010 NOSIG', 'FCPP 061500Z 19013KT 9999 FEW020 FEW026TCU 30/25 Q1010 NOSIG', 'FCPP 061430Z 20012KT 9999 FEW020 FEW026TCU 31/25 Q1010 NOSIG', 'FCPP 061400Z 19013KT 9999 FEW020 31/25 Q1011 NOSIG', 'FCPP 061330Z 19013KT 9999 FEW020 32/25 Q1011 NOSIG', 'FCPP 061300Z 19011KT 9999 FEW020 32/26 Q1011 NOSIG', 'FCPP 061230Z 20011KT 9999 FEW020 32/26 Q1012 NOSIG', 'FCPP 061130Z 15009KT 120V180 9999 4800S FEW020 32/24 Q1013 NOSIG', 'FCPP 060930Z 14009KT 9999 FEW009 SCT013 30/23 Q1014 NOSIG', 'FCPP 060900Z 13008KT 090V160 8000 FEW013 30/24 Q1015 NOSIG', 'FCPP 060800Z 15005KT 110V170 6000 FEW010 28/24 Q1014 NOSIG', 'FCPP 060730Z 14003KT 6000 FEW010 27/23 Q1014 NOSIG', 'FCPP 060700Z VRB02KT 6000 FEW010 SCT023 26/23 Q1014 NOSIG', 'FCPP 060630Z VRB02KT 6000 FEW010 SCT023 26/23 Q1014 NOSIG', 'FCPP 060600Z 06004KT 6000 FEW010 SCT023 25/23 Q1014 NOSIG', 'FCPP 060500Z 07003KT 6000 FEW010 SCT023 25/23 Q1014 NOSIG', 'FCPP 060430Z 07004KT 6000 FEW010 SCT023 25/23 Q1013 NOSIG', 'FCPP 060400Z 05004KT 6000 FEW010 SCT023 25/23 Q1013 NOSIG', 'FCPP 060330Z 05003KT 6000 FEW010 SCT023 25/23 Q1013 NOSIG', 'FCPP 060300Z 03003KT 6000 FEW010 SCT023 25/23 Q1013 NOSIG', 'FCPP 060230Z 03003KT 6000 FEW010 25/23 Q1012 NOSIG', 'FCPP 060200Z VRB02KT 6000 FEW010 25/23 Q1012 NOSIG', 'FCPP 060130Z VRB02KT 6000 FEW010 25/23 Q1013 NOSIG', 'FCPP 060100Z 09002KT 6000 FEW010 25/23 Q1013 NOSIG', 'FCPP 060030Z VRB03KT 6000 FEW010 25/23 Q1013 NOSIG', 'FCPP 060000Z 09001KT 6000 FEW010 25/23 Q1013 NOSIG', 'FCPP 052330Z VRB02KT 6000 FEW010 25/23 Q1014 NOSIG', 'FCPP 052300Z 02003KT 6000 FEW010 25/23 Q1014 NOSIG', 'FCPP 052200Z VRB02KT 6000 FEW010 FEW030CB 25/23 Q1014 NOSIG', 'FCPP 052130Z 06005KT 020V080 6000 FEW010 FEW030CB 25/23 Q1014 NOSIG', 'FCPP 052100Z 05005KT 010V080 6000 FEW010 FEW030CB 25/23 Q1014 N OSIG', 'FCPP 052030Z 05005KT 6000 FEW010 FEW030CB 25/23 Q1014 NOSIG', 'FCPP 051930Z 06006KT 6000 FEW010 FEW030CB 26/24 Q1013 NOSIG', 'FCPP 051700Z 14003KT 9999 4100S FEW016 FEW030CB 27/24 Q1010 NOSIG', 'FCPP 051630Z 12004KT 090V160 9999 3600S FEW016 SCT023 FEW030CB 28/24 Q1010 NOSIG']","['2024-02-08 15:00:00', '2024-02-08 14:30:00', '2024-02-08 13:30:00', '2024-02-08 13:00:00', '2024-02-08 12:00:00', '2024-02-08 11:30:00', '2024-02-08 11:00:00', '2024-02-08 10:30:00', '2024-02-08 10:00:00', '2024-02-08 09:30:00', '2024-02-08 09:00:00', '2024-02-08 08:30:00', '2024-02-08 08:00:00', '2024-02-08 07:30:00', '2024-02-08 07:00:00', '2024-02-08 06:30:00', '2024-02-08 06:00:00', '2024-02-08 05:00:00', '2024-02-08 04:00:00', '2024-02-08 03:30:00', '2024-02-08 03:00:00', '2024-02-08 02:30:00', '2024-02-08 02:00:00', '2024-02-08 01:00:00', '2024-02-08 00:30:00', '2024-02-08 00:00:00', '2024-02-07 22:30:00', '2024-02-07 21:00:00', '2024-02-07 20:00:00', '2024-02-07 17:00:00', '2024-02-07 16:30:00', '2024-02-07 16:00:00', '2024-02-07 15:30:00', '2024-02-07 15:00:00', '2024-02-07 14:30:00', '2024-02-07 14:00:00', '2024-02-07 13:30:00', '2024-02-07 13:00:00', '2024-02-07 12:00:00', '2024-02-07 11:00:00', '2024-02-07 10:30:00', '2024-02-07 10:00:00', '2024-02-07 09:30:00', '2024-02-07 09:00:00', '2024-02-07 08:00:00', '2024-02-07 07:00:00', '2024-02-07 06:30:00', '2024-02-07 06:00:00', '2024-02-07 05:30:00', '2024-02-07 05:00:00', '2024-02-07 04:30:00', '2024-02-07 04:00:00', '2024-02-07 03:30:00', '2024-02-07 03:00:00', '2024-02-07 02:30:00', '2024-02-07 02:00:00', '2024-02-07 01:30:00', '2024-02-07 01:00:00', '2024-02-07 00:00:00', '2024-02-06 23:30:00', '2024-02-06 23:00:00', '2024-02-06 22:00:00', '2024-02-06 21:30:00', '2024-02-06 20:30:00', '2024-02-06 19:00:00', '2024-02-06 18:30:00', '2024-02-06 18:00:00', '2024-02-06 17:30:00', '2024-02-06 17:00:00', '2024-02-06 16:30:00', '2024-02-06 16:00:00', '2024-02-06 15:30:00', '2024-02-06 15:00:00', '2024-02-06 14:30:00', '2024-02-06 14:00:00', '2024-02-06 13:30:00', '2024-02-06 13:00:00', '2024-02-06 12:30:00', '2024-02-06 11:30:00', '2024-02-06 09:30:00', '2024-02-06 09:00:00', '2024-02-06 08:00:00', '2024-02-06 07:30:00', '2024-02-06 07:00:00', '2024-02-06 06:30:00', '2024-02-06 06:00:00', '2024-02-06 05:00:00', '2024-02-06 04:30:00', '2024-02-06 04:00:00', '2024-02-06 03:30:00', '2024-02-06 03:00:00', '2024-02-06 02:30:00', '2024-02-06 02:00:00', '2024-02-06 01:30:00', '2024-02-06 01:00:00', '2024-02-06 00:30:00', '2024-02-06 00:00:00', '2024-02-05 23:30:00', '2024-02-05 23:00:00', '2024-02-05 22:00:00', '2024-02-05 21:30:00', '2024-02-05 21:00:00', '2024-02-05 20:30:00', '2024-02-05 19:30:00', '2024-02-05 17:00:00', '2024-02-05 16:30:00']"
Cook-islands, Aitutaki Airport (AIT/NCAI) ,"['NCAI 081600Z AUTO 08010KT 9999 VCSH SCT015 BKN100 27/25 Q1005', 'NCAI 081500Z AUTO 10011KT 9999 SCT015 BKN100 27/26 Q1004', 'NCAI 081400Z AUTO 10011KT 9999 SCT015 BKN100 27/25 Q1004', 'NCAI 081300Z AUTO 09012KT 9999 -SHRA SCT010 BKN045 27/25 Q1005', 'NCAI 081200Z AUTO 09012KT 9999 -SHRA SCT010 BKN045 27/25 Q1006', 'NCAI 081100Z AUTO 11013KT //// ////// 26/25 Q1006', 'NCAI 081000Z AUTO 09012KT //// ////// 26/25 Q1007', 'NCAI 080900Z AUTO 09013KT //// ////// 27/25 Q1007', 'NCAI 080800Z AUTO 10013KT //// ////// 27/26 Q1007', 'NCAI 080700Z AUTO 11015KT //// ////// 28/25 Q1006', 'NCAI 080600Z AUTO 11013KT //// ////// 28/25 Q1006', 'NCAI 080400Z AUTO 12017KT //// ////// 27/26 Q1005', 'NCAI 080300Z AUTO 12016KT //// ////// 28/25 Q1005', 'NCAI 080200Z AUTO 12013KT //// ////// 28/26 Q1006', 'NCAI 080100Z AUTO 12014KT //// ////// 29/26 Q1005', 'NCAI 080000Z AUTO 13014KT //// ////// 29/26 Q1006', 'NCAI 072300Z AUTO 12013KT //// ////// 29/26 Q1007', 'NCAI 072200Z AUTO 12013KT //// ////// 29/26 Q1007', 'NCAI 072100Z AUTO 12012KT 9999 SCT018 BKN090 29/26 Q1008', 'NCAI 072000Z AUTO 12015KT //// ////// 28/26 Q1008', 'NCAI 071900Z AUTO 13014KT //// ////// 28/26 Q1008', 'NCAI 071800Z AUTO 14015KT 9999 -DZ SCT015 BKN100 27/25 Q1007', 'NCAI 071700Z AUTO 15009KT 9999 -DZ SCT015 BKN100 27/25 Q1006', 'NCAI 071600Z AUTO 14014KT 9999 SCT015 BKN100 28/26 Q1006', 'NCAI 071500Z AUTO 14013KT 9999 VCSH SCT015 BKN040 28/26 Q1006', 'NCAI 071400Z AUTO 14017KT 9999 VCSH SCT014 BKN040 28/26 Q1005 RESHRA', 'NCAI 071300Z AUTO 15014KT 9999 -SHRA SCT014 BKN040 28/26 Q1005', 'NCAI 071200Z AUTO 14014KT 9999 -SHRA SCT015 BKN040 28/26 Q1006', 'NCAI 071100Z AUTO 14011KT 9999 -SHRA SCT015 BKN040 28/26 Q1007', 'NCAI 071000Z AUTO 14010KT //// ////// 28/26 Q1008', 'NCAI 070900Z AUTO 16013KT //// ////// 28/26 Q1008', 'NCAI 070800Z AUTO 15012KT //// ////// 28/26 Q1007', 'NCAI 070700Z AUTO 16011KT //// ////// 28/26 Q1006', 'NCAI 070600Z AUTO 16011KT //// ////// 28/26 Q1006', 'NCAI 070500Z AUTO 17010KT //// ////// 29/26 Q1005', 'NCAI 070400Z AUTO 16008KT //// ////// 29/25 Q1005', 'NCAI 070300Z AUTO 18008KT //// ////// 30/26 Q1004', 'NCAI 070200Z AUTO 17008KT //// ////// 30/26 Q1004', 'NCAI 070100Z AUTO 17007KT //// ////// 30/26 Q1004', 'NCAI 070000Z AUTO 16011KT //// ////// 30/26 Q1004', 'NCAI 062300Z AUTO 16011KT //// ////// 30/26 Q1004', 'NCAI 062200Z AUTO 16009KT //// ////// 30/27 Q1005', 'NCAI 062100Z AUTO 15009KT 9999 FEW015 SCT045 29/27 Q1005', 'NCAI 062000Z AUTO 17006KT 9999 FEW015 SCT100 28/25 Q1005', 'NCAI 061900Z AUTO 17007KT 9999 SCT015 BKN100 29/26 Q1004', 'NCAI 061800Z AUTO 17007KT 9999 SCT015 BKN100 28/26 Q1004', 'NCAI 061700Z AUTO 16004KT //// ////// 27/25 Q1003', 'NCAI 061600Z AUTO 18005KT //// ////// 27/25 Q1002', 'NCAI 061500Z AUTO 17005KT 9999 SCT018 BKN290 26/24 Q1002', 'NCAI 061400Z AUTO 18004KT //// ////// 26/25 Q1001', 'NCAI 061300Z AUTO 17004KT //// ////// 26/25 Q1001', 'NCAI 061200Z AUTO 16010KT 9999 FEW018 BKN290 26/25 Q1002', 'NCAI 061100Z AUTO 18006KT 9999 FEW018 BKN290 26/24 Q1002', 'NCAI 061000Z AUTO 16013KT 9999 FEW018 BKN290 27/24 Q1003', 'NCAI 060900Z AUTO 15012KT 9999 FEW018 BKN290 28/25 Q1002', 'NCAI 060800Z AUTO 15012KT 9999 SCT016 BKN290 28/26 Q1002', 'NCAI 060700Z AUTO 14015KT 9999 SCT016 BKN290 28/25 Q1001 RMK RERA', 'NCAI 060600Z AUTO 14015KT 9999 -SHRA SCT010 BKN040 28/25 Q1001', 'NCAI 060500Z AUTO 13014KT 9999 -SHRA SCT010 BKN040 28/26 Q1001', 'NCAI 060400Z AUTO 13011KT 9999 SCT010 BKN040 27/25 Q1000 RMK RERA', 'NCAI 060300Z AUTO 11008KT 9999 SHRA SCT010 BKN040 26/25 Q1000', 'NCAI 060200Z AUTO 07008KT 9999 SHRA SCT010 BKN040 25/24 Q1001', 'NCAI 060100Z AUTO 10011KT 9999 SHRA SCT012 BKN040 25/24 Q1001', 'NCAI 060000Z AUTO 13007KT 9999 -SHRA SCT012 BKN040 27/25 Q1001', 'NCAI 052300Z AUTO 11005KT 9999 -SHRA SCT012 BKN040 26/25 Q1002', 'NCAI 052200Z AUTO 13008KT 9999 -SHRA SCT012 BKN040 26/25 Q1002', 'NCAI 052100Z AUTO 07011KT 9999 -DZ SCT015 BKN040 28/25 Q1003', 'NCAI 052000Z AUTO 12011KT 9999 -DZ SCT015 BKN045 29/26 Q1003', 'NCAI 051900Z AUTO 11006KT 9999 VCSH SCT016 BKN045 29/26 Q1003', 'NCAI 051800Z AUTO 11008KT 9999 SCT018 BKN045 27/25 Q1003', 'NCAI 051700Z AUTO 12009KT 9999 SCT016 BKN045 27/25 Q1002']","['2024-02-08 16:00:00', '2024-02-08 15:00:00', '2024-02-08 14:00:00', '2024-02-08 13:00:00', '2024-02-08 12:00:00', '2024-02-08 11:00:00', '2024-02-08 10:00:00', '2024-02-08 09:00:00', '2024-02-08 08:00:00', '2024-02-08 07:00:00', '2024-02-08 06:00:00', '2024-02-08 04:00:00', '2024-02-08 03:00:00', '2024-02-08 02:00:00', '2024-02-08 01:00:00', '2024-02-08 00:00:00', '2024-02-07 23:00:00', '2024-02-07 22:00:00', '2024-02-07 21:00:00', '2024-02-07 20:00:00', '2024-02-07 19:00:00', '2024-02-07 18:00:00', '2024-02-07 17:00:00', '2024-02-07 16:00:00', '2024-02-07 15:00:00', '2024-02-07 14:00:00', '2024-02-07 13:00:00', '2024-02-07 12:00:00', '2024-02-07 11:00:00', '2024-02-07 10:00:00', '2024-02-07 09:00:00', '2024-02-07 08:00:00', '2024-02-07 07:00:00', '2024-02-07 06:00:00', '2024-02-07 05:00:00', '2024-02-07 04:00:00', '2024-02-07 03:00:00', '2024-02-07 02:00:00', '2024-02-07 01:00:00', '2024-02-07 00:00:00', '2024-02-06 23:00:00', '2024-02-06 22:00:00', '2024-02-06 21:00:00', '2024-02-06 20:00:00', '2024-02-06 19:00:00', '2024-02-06 18:00:00', '2024-02-06 17:00:00', '2024-02-06 16:00:00', '2024-02-06 15:00:00', '2024-02-06 14:00:00', '2024-02-06 13:00:00', '2024-02-06 12:00:00', '2024-02-06 11:00:00', '2024-02-06 10:00:00', '2024-02-06 09:00:00', '2024-02-06 08:00:00', '2024-02-06 07:00:00', '2024-02-06 06:00:00', '2024-02-06 05:00:00', '2024-02-06 04:00:00', '2024-02-06 03:00:00', '2024-02-06 02:00:00', '2024-02-06 01:00:00', '2024-02-06 00:00:00', '2024-02-05 23:00:00', '2024-02-05 22:00:00', '2024-02-05 21:00:00', '2024-02-05 20:00:00', '2024-02-05 19:00:00', '2024-02-05 18:00:00', '2024-02-05 17:00:00']"
Cook-islands, Avarua Rarotonga International Airport (RAR/NCRG) ,"['NCRG 081530Z AUTO 09013KT 9999 FEW019/// SCT026/// BKN050/// 27/24 Q1007', 'NCRG 081500Z AUTO 09012KT 9999 FEW029/// BKN049/// 27/24 Q1006', 'NCRG 081430Z AUTO 09012KT 060V140 9999 FEW020/// SCT031/// BKN047/// 27/24 Q1006', 'NCRG 081400Z AUTO 09012KT 060V140 9999 FEW017/// SCT022/// BKN028/// 27/24 Q1007', 'NCRG 081330Z AUTO 09012KT 070V130 9999 FEW020/// BKN026/// BKN033/// 27/24 Q1007', 'NCRG 081300Z AUTO 09013KT 9999 SCT017/// SCT025/// 27/24 Q1007', 'NCRG 081230Z AUTO 09013KT 9999 SCT017/// SCT022/// 27/24 Q1007', 'NCRG 081200Z AUTO 08016KT 9999 SCT019/// SCT029/// 27/24 Q1007', 'NCRG 081130Z AUTO 09013KT 9999 FEW017/// BKN027/// BKN046/// 26/25 Q1008', 'NCRG 081100Z AUTO 08016KT 9999 SCT017/// BKN022/// OVC041/// 27/25 Q1008', 'NCRG 081030Z AUTO 08015KT 9999 SCT019/// SCT025/// 27/24 Q1008', 'NCRG 081000Z AUTO 08014KT 9999 SCT016/// BKN021/// BKN034/// 27/24 Q1009', 'NCRG 080930Z AUTO 08017KT 9999 FEW018/// BKN044/// 27/24 Q1009', 'NCRG 080900Z AUTO 09015KT 9999 SCT019/// BKN026/// 27/24 Q1009', 'NCRG 080830Z AUTO 09013KT 9999 FEW023/// BKN033/// BKN040/// 27/24 Q1009', 'NCRG 080800Z AUTO 09013KT 9999 FEW019/// BKN042/// 27/24 Q1009', 'NCRG 080730Z AUTO 09012KT 9999 FEW019/// BKN036/// 27/24 Q1008', 'NCRG 080700Z AUTO 09016KT 9999 FEW023/// 27/24 Q1008', 'NCRG 080630Z AUTO 09015KT 9999 FEW030/// 27/23 Q1008', 'NCRG 080600Z AUTO 08017G30KT 9999 NCD 27/23 Q1007', 'NCRG 080530Z AUTO 09014G24KT 070V130 9999 FEW023/// 27/23 Q1007', 'NCRG 080500Z AUTO 09015KT 060V130 9999 SCT025/// SCT036/// 27/23 Q1007', 'NCRG 080430Z AUTO 09017KT 9999 NCD 27/23 Q1007', 'NCRG 080400Z AUTO 08016KT 9999 FEW023/// 27/23 Q1007', 'NCRG 080330Z AUTO 08017KT 9999 SCT023/// 28/23 Q1006', 'NCRG 080300Z AUTO 09015KT 060V130 9999 FEW021/// 28/23 Q1006', 'NCRG 080230Z AUTO 09015KT 9999 SCT023/// BKN031/// BKN040/// 28/24 Q1007', 'NCRG 080200Z AUTO 08014G24KT 9999 FEW021/// BKN037/// 28/24 Q1007', 'NCRG 080130Z AUTO 10012KT 9999 FEW021/// SCT028/// BKN038/// 28/24 Q1007', 'NCRG 080100Z AUTO 09014KT 060V120 9999 FEW023/// SCT038/// 28/24 Q1007', 'NCRG 080030Z AUTO 08016KT 9999 FEW021/// BKN040/// 29/24 Q1007', 'NCRG 080000Z AUTO 09014KT 9999 BKN021/// BKN029/// BKN042/// 29/24 Q1007', 'NCRG 072330Z AUTO 08016KT 9999 SCT018/// SCT023/// BKN030/// 28/24 Q1008', 'NCRG 072300Z AUTO 08017KT 9999 SCT023/// SCT031/// BKN041/// 29/24 Q1008', 'NCRG 072230Z AUTO 09016KT 9999 FEW019/// BKN036/// 28/24 Q1008', 'NCRG 072200Z AUTO 08019KT 9999 BKN020/// BKN025/// 28/24 Q1008', 'NCRG 072130Z AUTO 08018KT 9999 FEW021/// SCT027/// 29/25 Q1008', 'NCRG 072100Z AUTO 09019KT 9999 NCD 29/24 Q1009', 'NCRG 072030Z AUTO 08019KT 9999 FEW022/// 29/24 Q1009', 'NCRG 072000Z AUTO 08020KT 9999 BKN020/// 29/24 Q1009', 'NCRG 071930Z AUTO 08018KT 9999 SCT020/// SCT026/// BKN034/// 29/24 Q1009', 'NCRG 071900Z AUTO 09014G24KT 070V130 9999 SCT022/// SCT028/// 28/24 Q1009', 'NCRG 071830Z AUTO 09016G26KT 070V130 9999 FEW021/// 28/24 Q1008', 'NCRG 071800Z AUTO 09014G27KT 050V130 9999 FEW009/// 28/24 Q1008', 'NCRG 071730Z AUTO 10011KT 9999 FEW010/// 27/24 Q1008', 'NCRG 071700Z AUTO 09013G23KT 070V140 9999 FEW020/// 27/23 Q1008', 'NCRG 071630Z AUTO 09012KT 9999 FEW023/// BKN033/// 27/24 Q1008', 'NCRG 071600Z AUTO 09013KT 060V130 9999 SCT020/// 27/24 Q1008', 'NCRG 071530Z AUTO 10013KT 060V140 9999 FEW020/// 27/24 Q1007', 'NCRG 071500Z AUTO 10012KT 9999 FEW023/// BKN033/// 27/24 Q1007', 'NCRG 071430Z AUTO 10009KT 070V140 9999 BKN033/// 27/24 Q1007', 'NCRG 071400Z AUTO 10008KT 060V150 9999 BKN036/// 27/24 Q1007', 'NCRG 071330Z AUTO 10009KT 070V150 9999 FEW019/// BKN034/// 27/24 Q1007', 'NCRG 071300Z AUTO 09011KT 9999 FEW020/// BKN027/// 27/24 Q1007', 'NCRG 071230Z AUTO 09011KT 070V140 9999 FEW022/// SCT027/// BKN034/// 27/24 Q1007', 'NCRG 071200Z AUTO 09010KT 9999 FEW024/// BKN030/// 27/24 Q1008', 'NCRG 071130Z AUTO 09012KT 9999 FEW020/// BKN033/// 27/24 Q1008', 'NCRG 071100Z AUTO 09010KT 060V140 9999 FEW016/// SCT025/// BKN031/// 27/24 Q1008', 'NCRG 071030Z AUTO 09012KT 9999 SCT023/// BKN029/// 27/24 Q1009', 'NCRG 071000Z AUTO 10010KT 060V150 9999 BKN021/// BKN026/// 27/24 Q1009', 'NCRG 070930Z AUTO 09012KT 060V140 9999 BKN022/// 27/24 Q1009', 'NCRG 070900Z AUTO 09012KT 070V130 9999 BKN021/// 27/24 Q1009', 'NCRG 070830Z AUTO 09013G26KT 070V140 9999 BKN021/// BKN047/// 27/24 Q1008', 'NCRG 070800Z AUTO 10010G20KT 060V140 9999 BKN021/// BKN044/// 27/24 Q1008', 'NCRG 070730Z AUTO 10012G22KT 060V160 9999 BKN021/// BKN042/// 28/24 Q1008', 'NCRG 070700Z AUTO 10012KT 060V160 9999 BKN020/// BKN027/// BKN039/// 28/24 Q1008', 'NCRG 070630Z AUTO 10010KT 9999 SCT021/// SCT027/// OVC039/// 28/24 Q1008', 'NCRG 070600Z AUTO 10011KT 070V150 9999 SCT021/// BKN038/// 28/24 Q1007', 'NCRG 070530Z AUTO 11011KT 080V160 9999 FEW021/// BKN035/// 28/24 Q1007', 'NCRG 070500Z AUTO 10010KT 060V150 9999 BKN022/// OVC039/// 28/24 Q1007', 'NCRG 070430Z AUTO 11010G20KT 060V140 9999 BKN020/// BKN040/// 28/24 Q1006', 'NCRG 070400Z AUTO 10010KT 070V130 9999 BKN019/// BKN025/// 28/24 Q1006', 'NCRG 070330Z AUTO 10011KT 070V140 9999 BKN021/// BKN040/// 28/25 Q1006', 'NCRG 070300Z AUTO 11012KT 070V160 9999 SCT022/// BKN034/// BKN048/// 28/24 Q1006', 'NCRG 070230Z AUTO 10014KT 9999 SCT021/// 29/24 Q1006', 'NCRG 070200Z AUTO 10009KT 060V130 9999 BKN023/// BKN046/// 29/25 Q1006', 'NCRG 070130Z AUTO 10012G22KT 060V130 9999 SCT023/// BKN029/// BKN042/// 29/24 Q1006', 'NCRG 070100Z AUTO 10012G22KT 060V130 9999 SCT024/// BKN039/// 30/25 Q1005', 'NCRG 070030Z AUTO 10011KT 060V150 9999 BKN022/// BKN029/// BKN040/// 29/25 Q1005', 'NCRG 070000Z AUTO 09013KT 9999 SCT020/// BKN035/// 30/25 Q1005', 'NCRG 062330Z AUTO 10011KT 070V140 9999 FEW019/// BKN038/// 30/26 Q1006', 'NCRG 062300Z AUTO 09012KT 070V150 9999 SCT020/// BKN035/// 29/25 Q1006', 'NCRG 062230Z AUTO 10012G22KT 050V130 9999 BKN020/// BKN038/// 29/25 Q1006', 'NCRG 062200Z AUTO 09013KT 070V130 9999 BKN020/// BKN034/// 30/26 Q1006', 'NCRG 062130Z AUTO 09013KT 060V140 9999 SCT021/// BKN034/// 30/25 Q1006', 'NCRG 062100Z AUTO 09012G22KT 060V130 9999 FEW021/// BKN033/// 30/25 Q1006', 'NCRG 062030Z AUTO 09012KT 9999 FEW020/// BKN032/// 29/25 Q1006', 'NCRG 062000Z AUTO 10012KT 060V140 9999 FEW023/// SCT030/// 29/25 Q1006', 'NCRG 061930Z AUTO 11010KT 060V190 9999 SCT021/// BKN031/// 29/24 Q1006', 'NCRG 061900Z AUTO 10010KT 070V130 9999 SCT023/// BKN032/// 28/25 Q1006', 'NCRG 061830Z AUTO 09010KT 9999 SCT019/// SCT026/// BKN033/// 29/25 Q1005', 'NCRG 061800Z AUTO 10007KT 060V130 9999 SCT020/// BKN036/// 29/25 Q1005', 'NCRG 061730Z AUTO 09009KT 060V120 9999 FEW019/// 28/25 Q1005', 'NCRG 061700Z AUTO 09012KT 060V150 9999 SCT019/// BKN032/// 27/25 Q1005', 'NCRG 061630Z AUTO 10009KT 070V140 9999 SCT017/// BKN023/// BKN029/// 27/25 Q1004', 'NCRG 061600Z AUTO 09006KT 050V120 9999 SCT018/// 26/25 Q1004', 'NCRG 061530Z AUTO 09007KT 060V130 9999 NCD 26/24 Q1004', 'NCRG 061500Z AUTO 09010KT 9999 SCT016/// SCT037/// 26/24 Q1004', 'NCRG 061430Z AUTO 08012KT 9999 SCT014/// 26/25 Q1003', 'NCRG 061400Z AUTO 08011KT 8000 -RA FEW015/// SCT028/// OVC085/// 25/25 Q1003', 'NCRG 061330Z AUTO 08014KT 9999 -RA BKN008/// BKN021/// 25/25 Q1003', 'NCRG 061300Z AUTO 09017G27KT 6000 -RA FEW008/// BKN014/// BKN020/// 26/25 Q1003', 'NCRG 061230Z AUTO 09011KT 9999 SCT014/// 27/25 Q1003', 'NCRG 061200Z AUTO 09012KT 9999 -RA FEW017/// SCT060/// 26/24 Q1003 RERA', 'NCRG 061130Z AUTO 09010KT 060V140 9999 SCT016/// BKN021/// 27/25 Q1003', 'NCRG 061100Z AUTO 09010KT 050V120 9999 SCT015/// SCT022/// BKN030/// 27/25 Q1004', 'NCRG 061030Z AUTO 09010KT 070V140 9999 FEW018/// 27/25 Q1004', 'NCRG 061000Z AUTO 10011G22KT 080V140 9999 SCT017/// SCT022/// 27/25 Q1004', 'NCRG 060930Z AUTO 09010KT 9999 FEW020/// SCT027/// 28/25 Q1004', 'NCRG 060900Z AUTO 09008KT 060V140 9999 SCT019/// 28/24 Q1005', 'NCRG 060830Z AUTO 10008KT 070V130 9999 FEW019/// 28/24 Q1004', 'NCRG 060800Z AUTO 10010KT 060V140 9999 FEW020/// 27/25 Q1004', 'NCRG 060730Z AUTO 10010KT 060V130 9999 FEW020/// SCT025/// 28/25 Q1004', 'NCRG 060700Z AUTO 09011KT 060V130 9999 SCT019/// SCT025/// 28/25 Q1004', 'NCRG 060630Z AUTO 09008KT 9999 FEW019/// 28/25 Q1004', 'NCRG 060600Z AUTO 09009KT 9999 FEW018/// 28/25 Q1004', 'NCRG 060530Z AUTO 08013KT 9999 FEW017/// 28/25 Q1003', 'NCRG 060500Z AUTO 08012KT 9999 FEW019/// SCT034/// 28/25 Q1003', 'NCRG 060430Z AUTO 09011KT 060V120 9999 FEW015/// SCT023/// 28/25 Q1003', 'NCRG 060400Z AUTO 08012KT 9999 FEW018/// SCT025/// 29/25 Q1002', 'NCRG 060330Z AUTO 09014KT 050V110 9999 SCT016/// SCT030/// 29/25 Q1002', 'NCRG 060300Z AUTO 08017KT 9999 SCT016/// SCT023/// BKN043/// 29/25 Q1002', 'NCRG 060230Z AUTO 08015KT 9999 SCT018/// BKN025/// BKN032/// 29/25 Q1002', 'NCRG 060200Z AUTO 07016KT 9999 BKN019/// BKN024/// 30/25 Q1002', 'NCRG 060130Z AUTO 07016KT 9999 SCT021/// 30/25 Q1002', 'NCRG 060100Z AUTO 08016KT 9999 FEW016/// 30/25 Q1002', 'NCRG 060030Z AUTO 08017KT 9999 FEW017/// 30/25 Q1002', 'NCRG 060000Z AUTO 06012KT 9999 FEW017/// 29/26 Q1002', 'NCRG 052330Z AUTO 07015KT 9999 FEW017/// SCT049/// 31/26 Q1003', 'NCRG 052300Z AUTO 07014KT 9999 FEW019/// 30/26 Q1003', 'NCRG 052230Z AUTO 07014KT 9999 FEW065/// 29/26 Q1003', 'NCRG 052200Z AUTO 07015KT 9999 FEW016/// 29/25 Q1003', 'NCRG 052130Z AUTO 07016KT 9999 FEW017/// SCT085/// 30/26 Q1004', 'NCRG 052100Z AUTO 07013KT 9999 FEW085/// 29/25 Q1004', 'NCRG 052030Z AUTO 07015KT 9999 FEW016/// SCT033/// 29/25 Q1004', 'NCRG 052000Z AUTO 07013KT 9999 BKN016/// BKN023/// 29/26 Q1004', 'NCRG 051930Z AUTO 06012KT 9999 FEW019/// SCT030/// 29/25 Q1004', 'NCRG 051900Z AUTO 07013KT 9999 -RA FEW016/// SCT027/// BKN035/// 28/25 Q1004', 'NCRG 051830Z AUTO 07011KT 9999 SCT016/// 28/25 Q1004', 'NCRG 051800Z AUTO 07012KT 9999 FEW016/// 28/25 Q1004', 'NCRG 051730Z AUTO 07010KT 9999 SCT016/// SCT022/// 28/25 Q1003', 'NCRG 051700Z AUTO 07009KT 9999 FEW015/// 26/25 Q1003', 'NCRG 051630Z AUTO 07010KT 9999 SCT016/// BKN022/// 27/25 Q1003']","['2024-02-08 15:30:00', '2024-02-08 15:00:00', '2024-02-08 14:30:00', '2024-02-08 14:00:00', '2024-02-08 13:30:00', '2024-02-08 13:00:00', '2024-02-08 12:30:00', '2024-02-08 12:00:00', '2024-02-08 11:30:00', '2024-02-08 11:00:00', '2024-02-08 10:30:00', '2024-02-08 10:00:00', '2024-02-08 09:30:00', '2024-02-08 09:00:00', '2024-02-08 08:30:00', '2024-02-08 08:00:00', '2024-02-08 07:30:00', '2024-02-08 07:00:00', '2024-02-08 06:30:00', '2024-02-08 06:00:00', '2024-02-08 05:30:00', '2024-02-08 05:00:00', '2024-02-08 04:30:00', '2024-02-08 04:00:00', '2024-02-08 03:30:00', '2024-02-08 03:00:00', '2024-02-08 02:30:00', '2024-02-08 02:00:00', '2024-02-08 01:30:00', '2024-02-08 01:00:00', '2024-02-08 00:30:00', '2024-02-08 00:00:00', '2024-02-07 23:30:00', '2024-02-07 23:00:00', '2024-02-07 22:30:00', '2024-02-07 22:00:00', '2024-02-07 21:30:00', '2024-02-07 21:00:00', '2024-02-07 20:30:00', '2024-02-07 20:00:00', '2024-02-07 19:30:00', '2024-02-07 19:00:00', '2024-02-07 18:30:00', '2024-02-07 18:00:00', '2024-02-07 17:30:00', '2024-02-07 17:00:00', '2024-02-07 16:30:00', '2024-02-07 16:00:00', '2024-02-07 15:30:00', '2024-02-07 15:00:00', '2024-02-07 14:30:00', '2024-02-07 14:00:00', '2024-02-07 13:30:00', '2024-02-07 13:00:00', '2024-02-07 12:30:00', '2024-02-07 12:00:00', '2024-02-07 11:30:00', '2024-02-07 11:00:00', '2024-02-07 10:30:00', '2024-02-07 10:00:00', '2024-02-07 09:30:00', '2024-02-07 09:00:00', '2024-02-07 08:30:00', '2024-02-07 08:00:00', '2024-02-07 07:30:00', '2024-02-07 07:00:00', '2024-02-07 06:30:00', '2024-02-07 06:00:00', '2024-02-07 05:30:00', '2024-02-07 05:00:00', '2024-02-07 04:30:00', '2024-02-07 04:00:00', '2024-02-07 03:30:00', '2024-02-07 03:00:00', '2024-02-07 02:30:00', '2024-02-07 02:00:00', '2024-02-07 01:30:00', '2024-02-07 01:00:00', '2024-02-07 00:30:00', '2024-02-07 00:00:00', '2024-02-06 23:30:00', '2024-02-06 23:00:00', '2024-02-06 22:30:00', '2024-02-06 22:00:00', '2024-02-06 21:30:00', '2024-02-06 21:00:00', '2024-02-06 20:30:00', '2024-02-06 20:00:00', '2024-02-06 19:30:00', '2024-02-06 19:00:00', '2024-02-06 18:30:00', '2024-02-06 18:00:00', '2024-02-06 17:30:00', '2024-02-06 17:00:00', '2024-02-06 16:30:00', '2024-02-06 16:00:00', '2024-02-06 15:30:00', '2024-02-06 15:00:00', '2024-02-06 14:30:00', '2024-02-06 14:00:00', '2024-02-06 13:30:00', '2024-02-06 13:00:00', '2024-02-06 12:30:00', '2024-02-06 12:00:00', '2024-02-06 11:30:00', '2024-02-06 11:00:00', '2024-02-06 10:30:00', '2024-02-06 10:00:00', '2024-02-06 09:30:00', '2024-02-06 09:00:00', '2024-02-06 08:30:00', '2024-02-06 08:00:00', '2024-02-06 07:30:00', '2024-02-06 07:00:00', '2024-02-06 06:30:00', '2024-02-06 06:00:00', '2024-02-06 05:30:00', '2024-02-06 05:00:00', '2024-02-06 04:30:00', '2024-02-06 04:00:00', '2024-02-06 03:30:00', '2024-02-06 03:00:00', '2024-02-06 02:30:00', '2024-02-06 02:00:00', '2024-02-06 01:30:00', '2024-02-06 01:00:00', '2024-02-06 00:30:00', '2024-02-06 00:00:00', '2024-02-05 23:30:00', '2024-02-05 23:00:00', '2024-02-05 22:30:00', '2024-02-05 22:00:00', '2024-02-05 21:30:00', '2024-02-05 21:00:00', '2024-02-05 20:30:00', '2024-02-05 20:00:00', '2024-02-05 19:30:00', '2024-02-05 19:00:00', '2024-02-05 18:30:00', '2024-02-05 18:00:00', '2024-02-05 17:30:00', '2024-02-05 17:00:00', '2024-02-05 16:30:00']"
Costa-rica, Liberia Guanacaste International Airport (LIR/MRLB) ,"['MRLB 081600Z VRB03KT CAVOK 30/17 A2990', 'MRLB 081500Z 29004KT CAVOK 28/17 A2990', 'MRLB 081400Z 25004KT CAVOK 24/18 A2990', 'MRLB 081300Z 26004KT CAVOK 21/17 A2988', 'MRLB 081200Z 24004KT CAVOK 18/16 A2987', 'MRLB 080600Z 03004KT CAVOK 19/15 A2988', 'MRLB 080500Z VRB02KT CAVOK 22/15 A2990', 'MRLB 080400Z 11006KT CAVOK 24/15 A2991', 'MRLB 080300Z 07010KT CAVOK 25/15 A2990', 'MRLB 080200Z 09011KT CAVOK 26/15 A2989', 'MRLB 080100Z 09010KT CAVOK 26/14 A2986', 'MRLB 080000Z 09013KT CAVOK 27/14 A2985', 'MRLB 072300Z 10014KT CAVOK 30/13 A2982', 'MRLB 072200Z 09015KT CAVOK 32/14 A2981', 'MRLB 072100Z 10012KT CAVOK 33/13 A2982', 'MRLB 072000Z 10015KT CAVOK 33/14 A2983', 'MRLB 071900Z 10015KT CAVOK 33/13 A2986', 'MRLB 071800Z 10014KT CAVOK 33/15 A2988', 'MRLB 071700Z 10016KT CAVOK 32/16 A2991', 'MRLB 071600Z 09014KT CAVOK 31/20 A2993', 'MRLB 071500Z 30003KT CAVOK 27/23 A2994', 'MRLB 071400Z 23003KT CAVOK 24/22 A2991', 'MRLB 071300Z 34003KT CAVOK 21/20 A2989', 'MRLB 071200Z 04005KT CAVOK 20/19 A2987', 'MRLB 070600Z 11004KT CAVOK 24/20 A2988', 'MRLB 070500Z 11003KT CAVOK 24/20 A2988', 'MRLB 070400Z 11003KT CAVOK 25/20 A2988', 'MRLB 070300Z 12005KT 9999 SCT045 26/22 A2987', 'MRLB 070200Z 14003KT 9999 SCT040 26/22 A2985', 'MRLB 070100Z 36004KT 9999 SCT040 27/21 A2982', 'MRLB 070000Z 27008KT 9999 FEW040 27/23 A2980', 'MRLB 062300Z 27012KT 9999 FEW040 29/21 A2978', 'MRLB 062200Z 26012KT 9999 FEW045 31/20 A2977', 'MRLB 062100Z 29013KT 9999 FEW045 31/20 A2977', 'MRLB 062000Z 29012KT 9999 SCT045 32/21 A2978', 'MRLB 061900Z 31010KT 9999 SCT045 33/21 A2981', 'MRLB 061800Z 29011KT 9999 SCT045 32/21 A2983', 'MRLB 061700Z 26003KT 9999 SCT30 32/21 A2987', 'MRLB 061600Z VRB04KT 9999 FEW030 31/20 A2989', 'MRLB 061500Z 04004KT 9999 FEW020 29/23 A2990', 'MRLB 061400Z 31001KT 9000 FEW005 25/23 A2989', 'MRLB 061300Z 00000KT 8000 3500SW BCFG FEW005 22/22 A2987', 'MRLB 061200Z 13003KT 3000 BR FEW003 22/22 A2984', 'MRLB 060600Z 09004KT CAVOK 23/22 A2984', 'MRLB 060500Z 14003KT CAVOK 24/23 A2984', 'MRLB 060400Z 13001KT CAVOK 25/23 A2984', 'MRLB 060300Z 09002KT CAVOK 24/23 A2983', 'MRLB 060200Z 00000KT CAVOK 25/23 A2980', 'MRLB 060100Z 04002KT CAVOK 26/23 A2978', 'MRLB 060000Z 28007KT CAVOK 27/22 A2977', 'MRLB 052300Z 29010KT 9999 FEW045 29/21 A2975', 'MRLB 052200Z 30012KT 9999 FEW045 30/21 A2975', 'MRLB 052100Z 28012KT 9999 FEW045 31/21 A2975', 'MRLB 052000Z 28013KT 9999 FEW045 32/21 A2976', 'MRLB 051900Z 27011KT 9999 FEW045 32/21 A2978', 'MRLB 051800Z 29011KT 9999 SCT030 32/21 A2980', 'MRLB 051700Z 28009KT 9999 SCT030 31/22 A2982']","['2024-02-08 16:00:00', '2024-02-08 15:00:00', '2024-02-08 14:00:00', '2024-02-08 13:00:00', '2024-02-08 12:00:00', '2024-02-08 06:00:00', '2024-02-08 05:00:00', '2024-02-08 04:00:00', '2024-02-08 03:00:00', '2024-02-08 02:00:00', '2024-02-08 01:00:00', '2024-02-08 00:00:00', '2024-02-07 23:00:00', '2024-02-07 22:00:00', '2024-02-07 21:00:00', '2024-02-07 20:00:00', '2024-02-07 19:00:00', '2024-02-07 18:00:00', '2024-02-07 17:00:00', '2024-02-07 16:00:00', '2024-02-07 15:00:00', '2024-02-07 14:00:00', '2024-02-07 13:00:00', '2024-02-07 12:00:00', '2024-02-07 06:00:00', '2024-02-07 05:00:00', '2024-02-07 04:00:00', '2024-02-07 03:00:00', '2024-02-07 02:00:00', '2024-02-07 01:00:00', '2024-02-07 00:00:00', '2024-02-06 23:00:00', '2024-02-06 22:00:00', '2024-02-06 21:00:00', '2024-02-06 20:00:00', '2024-02-06 19:00:00', '2024-02-06 18:00:00', '2024-02-06 17:00:00', '2024-02-06 16:00:00', '2024-02-06 15:00:00', '2024-02-06 14:00:00', '2024-02-06 13:00:00', '2024-02-06 12:00:00', '2024-02-06 06:00:00', '2024-02-06 05:00:00', '2024-02-06 04:00:00', '2024-02-06 03:00:00', '2024-02-06 02:00:00', '2024-02-06 01:00:00', '2024-02-06 00:00:00', '2024-02-05 23:00:00', '2024-02-05 22:00:00', '2024-02-05 21:00:00', '2024-02-05 20:00:00', '2024-02-05 19:00:00', '2024-02-05 18:00:00', '2024-02-05 17:00:00']"
Costa-rica, Limon International Airport (LIO/MRLM) ,"['MRLM 081600Z 33008KT 9999 VCSH FEW015TCU SCT020 BKN110 26/22 A3002', 'MRLM 081500Z 30004KT 9999 FEW020 BKN110 25/21 A3002', 'MRLM 081400Z 25003KT 9999 FEW020 BKN100 24/21 A3001', 'MRLM 081300Z 25003KT 9999 VCSH FEW015TCU BKN100 22/21 A2999', 'MRLM 081200Z 00000KT 9999 VCSH FEW015TCU BKN100 22/21 A2997', 'MRLM 080000Z 26003KT CAVOK 23/21 A2997', 'MRLM 072300Z 24004KT CAVOK 23/21 A2996', 'MRLM 072200Z 25005KT 9999 FEW020 BKN100 24/21 A2995', 'MRLM 072100Z 25005KT 9999 SCT020 OVC100 24/21 A2997', 'MRLM 072000Z 26005KT 9999 SCT020 OVC100 24/20 A2999', 'MRLM 071900Z 29003KT 9999 SCT020 OVC100 24/20 A3002', 'MRLM 071800Z 25004KT 9999 SCT020 OVC090 24/21 A3004', 'MRLM 071700Z 26005KT 9999 SCT020 OVC090 24/21 A3006', 'MRLM 071600Z 25006KT 9999 SCT015 OVC090 22/20 A3005', 'MRLM 071500Z 25006KT 9999 SCT015 OVC090 22/21 A3004', 'MRLM 071400Z 28006KT 9999 -DZ SCT015 OVC080 22/21 A3001', 'MRLM 071300Z 26005KT 9000 HZ VCSH FEW010TCU SCT015 OVC080 22/21 A2999 REDZ', 'MRLM 071200Z 29005KT 8000 DZ SCT015 OVC080 22/21 A2997', 'MRLM 070000Z 00000KT 5000 DZ BKN010 23/23 A2989', 'MRLM 062300Z 23003KT 4000 +DZ BKN010 23/23 A2988', 'MRLM 062200Z 24004KT 4000 +DZ BKN015 24/23 A2987 RERA', 'MRLM 062100Z 05004KT 4000 RA BKN020 24/23 A2987', 'MRLM 062000Z 03009KT 9999 5000N DZ BKN020 24/23 A2989', 'MRLM 061900Z 04012KT 9999 -DZ SCT020 BKN100 24/23 A2991', 'MRLM 061800Z 05005KT 7000 DZ SCT020 BKN100 24/23 A2992', 'MRLM 061700Z 05004KT 4000 +DZ BKN015 24/23 A2993', 'MRLM 061620Z 03006KT 5000 DZ BKN020 25/23 A2995', 'MRLM 061600Z 04011KT 9999 SCT020 BKN110 26/23 A2995 REDZ', 'MRLM 061500Z 26003KT 9999 5000N +DZ BKN015 24/23 A2993', 'MRLM 061400Z 02012KT 9999 ?DZ BKN015 25/24 A2993', 'MRLM 061300Z 01018KT 9999 ?DZ BKN020 26/24 A2990', 'MRLM 061200Z 01015KT 5000 +DZ BKN015 26/24 A2987', 'MRLM 060000Z 16004KT CAVOK 27/25 A2975', 'MRLM 052300Z 16005KT CAVOK 28/25 A2972', 'MRLM 052200Z 10005KT CAVOK 29/25 A2972', 'MRLM 052100Z 070007KT CAVOK 30/25 A2972', 'MRLM 052000Z 080008KT CAVOK 30/25 A2973', 'MRLM 051900Z 10009KT CAVOK 30/25 A2975', 'MRLM 051800Z 09008KT CAVOK 30/25 A2977', 'MRLM 051700Z 08007KT CAVOK 30/25 A2980']","['2024-02-08 16:00:00', '2024-02-08 15:00:00', '2024-02-08 14:00:00', '2024-02-08 13:00:00', '2024-02-08 12:00:00', '2024-02-08 00:00:00', '2024-02-07 23:00:00', '2024-02-07 22:00:00', '2024-02-07 21:00:00', '2024-02-07 20:00:00', '2024-02-07 19:00:00', '2024-02-07 18:00:00', '2024-02-07 17:00:00', '2024-02-07 16:00:00', '2024-02-07 15:00:00', '2024-02-07 14:00:00', '2024-02-07 13:00:00', '2024-02-07 12:00:00', '2024-02-07 00:00:00', '2024-02-06 23:00:00', '2024-02-06 22:00:00', '2024-02-06 21:00:00', '2024-02-06 20:00:00', '2024-02-06 19:00:00', '2024-02-06 18:00:00', '2024-02-06 17:00:00', '2024-02-06 16:20:00', '2024-02-06 16:00:00', '2024-02-06 15:00:00', '2024-02-06 14:00:00', '2024-02-06 13:00:00', '2024-02-06 12:00:00', '2024-02-06 00:00:00', '2024-02-05 23:00:00', '2024-02-05 22:00:00', '2024-02-05 21:00:00', '2024-02-05 20:00:00', '2024-02-05 19:00:00', '2024-02-05 18:00:00', '2024-02-05 17:00:00']"
Croatia, Brac Bol Airport (BWK/LDSB) ,"['LDSB 061300Z 14006KT 9999 BKN020 10/07 Q1022', 'LDSB 061230Z 15007KT 9999 SCT020 11/07 Q1022', 'LDSB 061200Z 13008KT 100V170 9999 FEW020 11/06 Q1023', 'LDSB 061130Z 12008KT 080V150 9999 FEW020 12/07 Q1023', 'LDSB 061100Z 12007KT 080V150 9999 FEW020 11/07 Q1023', 'LDSB 061030Z 12006KT 080V160 CAVOK 11/06 Q1024', 'LDSB 061000Z 13007KT 090V170 CAVOK 11/07 Q1024', 'LDSB 060930Z 12007KT CAVOK 10/07 Q1024', 'LDSB 060900Z 12005KT 090V150 CAVOK 09/08 Q1024', 'LDSB 060830Z 10003KT 060V130 9999 SCT020 BKN040 08/07 Q1024', 'LDSB 060800Z 12006KT 9999 FEW020 BKN040 08/08 Q1024', 'LDSB 060730Z 11006KT 9999 BKN050 08/07 Q1024']","['2024-02-06 13:00:00', '2024-02-06 12:30:00', '2024-02-06 12:00:00', '2024-02-06 11:30:00', '2024-02-06 11:00:00', '2024-02-06 10:30:00', '2024-02-06 10:00:00', '2024-02-06 09:30:00', '2024-02-06 09:00:00', '2024-02-06 08:30:00', '2024-02-06 08:00:00', '2024-02-06 07:30:00']"
Croatia, Dubrovnik Rudjer Boskovic Airport (DBV/LDDU) ,"['LDDU 081600Z 15005KT 9999 FEW020 13/09 Q1012 NOSIG', 'LDDU 081530Z 16008KT 9999 FEW020 13/09 Q1012 NOSIG', 'LDDU 081500Z 15008KT 9999 FEW020 13/09 Q1012 NOSIG', 'LDDU 081430Z 17010KT 140V200 9999 FEW020 14/09 Q1012 NOSIG', 'LDDU 081400Z 17010KT 130V200 9999 FEW032 14/09 Q1012 NOSIG', 'LDDU 081330Z 15010KT 120V190 9999 FEW026 15/09 Q1012 NOSIG', 'LDDU 081300Z 16010KT 110V190 9999 FEW018 SCT028 14/10 Q1012 NOSIG', 'LDDU 081230Z 13010KT 9999 SCT018 14/10 Q1012 NOSIG', 'LDDU 081200Z 15012KT 9999 SCT020 14/09 Q1013 NOSIG', 'LDDU 081130Z 16012KT 9999 SCT020 14/09 Q1013 NOSIG', 'LDDU 081100Z 15012KT 120V180 9999 FEW016 SCT020 14/09 Q1013 NOSIG', 'LDDU 081030Z 16013KT 9999 FEW014 SCT022 14/10 Q1013 NOSIG', 'LDDU 081000Z 16012KT 130V190 9999 FEW013 BKN022 13/10 Q1013 NOSIG', 'LDDU 080930Z 15014KT 9999 FEW018 SCT028 13/10 Q1013 NOSIG', 'LDDU 080900Z 14015KT 110V170 9999 FEW015 SCT028 14/10 Q1013 NOSIG', 'LDDU 080830Z 14015KT 9999 FEW015 SCT028 14/10 Q1012 NOSIG', 'LDDU 080800Z 13013KT 9999 FEW018 14/10 Q1012 NOSIG', 'LDDU 080730Z 11010KT 080V140 9999 FEW018 13/10 Q1012 NOSIG', 'LDDU 080700Z 11009KT 9999 FEW012 SCT024 12/10 Q1012 NOSIG', 'LDDU 080630Z 11009KT 9999 FEW014 SCT020 12/10 Q1012 NOSIG', 'LDDU 080600Z 12011KT 080V140 9999 SCT009 BKN020 12/10 Q1012 NOSIG', 'LDDU 080530Z 14010KT 9999 -RA SCT007 BKN013 12/11 Q1011 NOSIG', 'LDDU 080500Z 16009KT 9999 SCT007 BKN013 13/11 Q1011 NOSIG', 'LDDU 080430Z 14008KT 9999 FEW008 SCT013 BKN027 12/11 Q1011 NOSIG', 'LDDU 080400Z 12008KT 090V150 9999 SCT009 BKN017 12/11 Q1011 NOSIG', 'LDDU 080330Z 13008KT 9999 BKN009 BKN017 12/11 Q1011 TEMPO SCT009 BKN020', 'LDDU 080300Z 13008KT 9999 BKN009 BKN017 12/11 Q1012 TEMPO SCT009 BKN020', 'LDDU 080230Z 14009KT 9999 SCT008 BKN013 13/11 Q1012', 'LDDU 080130Z 14010KT 9999 FEW007 SCT023 13/11 Q1013', 'LDDU 080100Z 14009KT 9999 FEW006 SCT023 13/11 Q1013', 'LDDU 080030Z 15011KT 9999 FEW006 BKN023 13/11 Q1013', 'LDDU 080000Z 15010KT 9999 SCT006 BKN017 13/11 Q1013', 'LDDU 072330Z 14011KT 9999 SCT007 BKN015 13/11 Q1013', 'LDDU 072300Z 15010KT 9999 SCT007 BKN017 13/11 Q1013', 'LDDU 072230Z 14011KT 9999 SCT010 BKN020 13/11 Q1013', 'LDDU 072200Z 11010KT 9999 FEW012 SCT023 12/10 Q1013', 'LDDU 072130Z 10008KT 070V140 9999 FEW015 11/10 Q1013', 'LDDU 072100Z 10009KT 9999 FEW015 11/10 Q1014 NOSIG', 'LDDU 072030Z 11011KT 9999 FEW020 12/10 Q1014 NOSIG', 'LDDU 072000Z 11012KT 9999 FEW020 12/10 Q1014 NOSIG', 'LDDU 071930Z 11011KT 9999 FEW020 12/10 Q1014 NOSIG', 'LDDU 071900Z 11010KT 080V140 9999 FEW020 12/09 Q1014 NOSIG', 'LDDU 071830Z 11010KT 080V140 9999 SCT020 12/09 Q1014 NOSIG', 'LDDU 071800Z 13014KT 9999 SCT023 12/09 Q1014 NOSIG', 'LDDU 071730Z 12011KT CAVOK 12/09 Q1014 NOSIG', 'LDDU 071700Z 12012KT CAVOK 12/09 Q1014 NOSIG', 'LDDU 071630Z 13011KT 9999 FEW025 12/09 Q1014 NOSIG', 'LDDU 071600Z 13013KT 9999 FEW025 12/10 Q1014 NOSIG', 'LDDU 071530Z 13016KT 9999 FEW020 13/10 Q1014 NOSIG', 'LDDU 071500Z 13015KT 9999 FEW020 13/10 Q1015 NOSIG', 'LDDU 071430Z 14015KT 9999 FEW020 13/10 Q1015 NOSIG', 'LDDU 071400Z 14014KT 9999 FEW020 14/10 Q1015 NOSIG', 'LDDU 071330Z 14015KT 9999 FEW012 SCT030 14/10 Q1015 NOSIG', 'LDDU 071300Z 14013KT 9999 SCT010 BKN030 13/10 Q1016 NOSIG', 'LDDU 071230Z 14014KT 9999 SCT011 BKN047 13/11 Q1016 NOSIG', 'LDDU 071200Z 14014KT 9999 FEW016 SCT025 13/10 Q1016 NOSIG', 'LDDU 071130Z 15013KT 9999 FEW018 SCT022 14/10 Q1017 NOSIG', 'LDDU 071100Z 14013KT 9999 FEW022 SCT040 BKN048 14/09 Q1017 NOSIG', 'LDDU 071030Z 12012KT 080V150 9999 FEW023 SCT030 14/08 Q1017 NOSIG', 'LDDU 071000Z 12013KT 9999 FEW026 SCT031 13/09 Q1018 NOSIG', 'LDDU 070930Z 12010KT 080V140 9999 FEW024 SCT038 BKN045 13/09 Q1018 BECMG 11014KT', 'LDDU 070900Z 11008KT 080V140 9999 FEW020 SCT025 12/09 Q1018 BECMG 11014KT', 'LDDU 070830Z 09007KT 060V120 9999 FEW020 SCT032 BKN044 11/08 Q1018 NOSIG', 'LDDU 070800Z 09006KT 060V120 9999 FEW023 BKN036 11/08 Q1018 NOSIG', 'LDDU 070730Z 10007KT 9999 SCT035 11/08 Q1018 NOSIG', 'LDDU 070700Z 08007KT 9999 SCT036 10/08 Q1019 NOSIG', 'LDDU 070630Z 08009KT 9999 FEW035 10/08 Q1019 NOSIG', 'LDDU 070600Z 08007KT 050V120 9999 FEW035 10/08 Q1019 NOSIG', 'LDDU 070530Z 08007KT 9999 SCT035 10/08 Q1019 NOSIG', 'LDDU 070500Z 08008KT 9999 FEW030 10/08 Q1019 NOSIG', 'LDDU 070430Z 08007KT 9999 FEW020 10/08 Q1019 NOSIG', 'LDDU 070400Z 09008KT 9999 FEW020 10/08 Q1019 NOSIG', 'LDDU 070330Z 08007KT 9999 FEW038 SCT045 10/08 Q1019 NOSIG', 'LDDU 070300Z 09008KT 9999 FEW038 SCT045 10/08 Q1019 NOSIG', 'LDDU 070230Z 10008KT 070V130 9999 FEW025 SCT055 09/08 Q1019', 'LDDU 070200Z 10007KT 9999 FEW025 SCT055 10/08 Q1020', 'LDDU 070130Z 09007KT 9999 FEW025 10/09 Q1020', 'LDDU 070100Z 09007KT 9999 FEW025 10/09 Q1021', 'LDDU 070030Z 10007KT 9999 FEW025 10/09 Q1020', 'LDDU 070000Z 09008KT 9999 FEW035 SCT058 10/08 Q1021', 'LDDU 062330Z 09006KT 9999 FEW035 SCT058 11/09 Q1021', 'LDDU 062300Z 10006KT 9999 FEW035 SCT058 10/09 Q1021', 'LDDU 062230Z 10006KT 9999 SCT035 BKN046 11/09 Q1021', 'LDDU 062200Z 09007KT 9999 FEW035 BKN046 11/09 Q1021', 'LDDU 062130Z 09007KT 9999 FEW028 BKN047 11/09 Q1022 NOSIG', 'LDDU 062100Z 08007KT 9999 SCT028 11/09 Q1022 NOSIG', 'LDDU 062030Z 10006KT 9999 FEW045 10/09 Q1022 NOSIG', 'LDDU 062000Z 08006KT 9999 SCT045 11/09 Q1022 NOSIG', 'LDDU 061930Z 10006KT 9999 SCT040 BKN048 11/10 Q1022 NOSIG', 'LDDU 061900Z 10006KT 9999 FEW008 SCT030 BKN035 12/10 Q1022 NOSIG', 'LDDU 061830Z 09005KT 9999 FEW013 BKN033 12/10 Q1022 NOSIG', 'LDDU 061800Z 11004KT 080V150 9999 FEW012 OVC040 12/10 Q1022 NOSIG', 'LDDU 061730Z 12006KT 9999 FEW010 BKN015 BKN050 12/10 Q1022 NOSIG', 'LDDU 061700Z 12007KT 080V140 9999 FEW015 BKN025 BKN050 12/10 Q1022 NOSIG', 'LDDU 061630Z 14009KT 9999 FEW013 SCT023 BKN050 13/10 Q1022 BECMG 08006KT', 'LDDU 061600Z 15010KT 9999 FEW013 SCT023 BKN050 13/10 Q1022 BECMG 08006KT', 'LDDU 061530Z 14010KT 9999 FEW015 BKN050 13/10 Q1022 NOSIG', 'LDDU 061500Z 15012KT 9999 FEW013 BKN035 13/10 Q1022 NOSIG', 'LDDU 061430Z 16010KT 9999 FEW013 BKN035 13/10 Q1022 NOSIG', 'LDDU 061400Z 16011KT 9999 FEW015 BKN040 13/11 Q1022 NOSIG', 'LDDU 061330Z 15011KT 9999 FEW017TCU SCT020 BKN050 14/10 Q1022 NOSIG', 'LDDU 061300Z 16010KT 140V200 9999 FEW027 SCT050 14/10 Q1022 NOSIG', 'LDDU 061230Z 14011KT 9999 FEW018 BKN045 14/09 Q1023 NOSIG', 'LDDU 061200Z 14012KT 9999 FEW018 BKN045 14/10 Q1023 NOSIG', 'LDDU 061130Z 15010KT 9999 FEW020 BKN043 14/10 Q1023 NOSIG', 'LDDU 061100Z 15012KT 9999 FEW023 BKN044 14/09 Q1024 NOSIG', 'LDDU 061030Z 15013KT 9999 SCT020 BKN045 14/10 Q1024 NOSIG', 'LDDU 061000Z 13009KT 070V170 9999 SCT025 BKN045 14/09 Q1024 NOSIG', 'LDDU 060930Z 10007KT 050V140 9999 FEW030 13/07 Q1024 NOSIG', 'LDDU 060900Z 09006KT 9999 FEW035 13/06 Q1024 NOSIG', 'LDDU 060830Z 09007KT 9999 FEW050 12/05 Q1024 NOSIG', 'LDDU 060800Z 10006KT 060V130 CAVOK 12/05 Q1024 NOSIG', 'LDDU 060730Z 09009KT 9999 VCFG NSC 11/05 Q1024 NOSIG', 'LDDU 060700Z 08008KT 9999 VCFG NSC 09/04 Q1024 NOSIG', 'LDDU 060630Z 08006KT 060V120 9999 VCFG NSC 09/04 Q1024 NOSIG', 'LDDU 060600Z 08006KT CAVOK 10/04 Q1024 NOSIG', 'LDDU 060530Z 08005KT CAVOK 09/04 Q1024 NOSIG', 'LDDU 060500Z 10004KT CAVOK 07/04 Q1024 NOSIG', 'LDDU 060430Z 07007KT CAVOK 09/04 Q1024 NOSIG', 'LDDU 060400Z 09006KT CAVOK 07/04 Q1024 NOSIG', 'LDDU 060330Z 08006KT CAVOK 08/04 Q1024 NOSIG', 'LDDU 060300Z 09007KT CAVOK 07/04 Q1024 NOSIG', 'LDDU 060230Z 07008KT CAVOK 09/05 Q1025', 'LDDU 060200Z 08006KT CAVOK 10/05 Q1025', 'LDDU 060130Z 08007KT CAVOK 10/06 Q1025', 'LDDU 060100Z 09006KT CAVOK 08/06 Q1025', 'LDDU 060030Z 10007KT 080V140 CAVOK 08/07 Q1025', 'LDDU 060000Z 08005KT 040V100 CAVOK 07/06 Q1025', 'LDDU 052330Z 09003KT CAVOK 07/06 Q1025', 'LDDU 052300Z 11003KT 070V150 CAVOK 07/06 Q1025', 'LDDU 052230Z 08003KT CAVOK 07/07 Q1025', 'LDDU 052200Z 08003KT CAVOK 08/06 Q1025', 'LDDU 052130Z 05003KT CAVOK 09/07 Q1025', 'LDDU 052100Z 02004KT CAVOK 08/07 Q1026 NOSIG', 'LDDU 052030Z 06003KT CAVOK 09/07 Q1025 NOSIG', 'LDDU 052000Z 06005KT CAVOK 10/07 Q1025 NOSIG', 'LDDU 051930Z 07005KT CAVOK 10/07 Q1025 NOSIG', 'LDDU 051900Z 07004KT CAVOK 11/09 Q1025 NOSIG', 'LDDU 051830Z VRB02KT CAVOK 10/08 Q1025 NOSIG', 'LDDU 051800Z 11003KT 9999 FEW015 11/09 Q1025 NOSIG', 'LDDU 051730Z 10003KT 9999 FEW015 SCT020 11/09 Q1025 NOSIG', 'LDDU 051700Z 10004KT 9999 FEW012 SCT020 12/09 Q1025 NOSIG', 'LDDU 051630Z 11005KT 070V150 9999 BKN020 12/09 Q1024 NOSIG']","['2024-02-08 16:00:00', '2024-02-08 15:30:00', '2024-02-08 15:00:00', '2024-02-08 14:30:00', '2024-02-08 14:00:00', '2024-02-08 13:30:00', '2024-02-08 13:00:00', '2024-02-08 12:30:00', '2024-02-08 12:00:00', '2024-02-08 11:30:00', '2024-02-08 11:00:00', '2024-02-08 10:30:00', '2024-02-08 10:00:00', '2024-02-08 09:30:00', '2024-02-08 09:00:00', '2024-02-08 08:30:00', '2024-02-08 08:00:00', '2024-02-08 07:30:00', '2024-02-08 07:00:00', '2024-02-08 06:30:00', '2024-02-08 06:00:00', '2024-02-08 05:30:00', '2024-02-08 05:00:00', '2024-02-08 04:30:00', '2024-02-08 04:00:00', '2024-02-08 03:30:00', '2024-02-08 03:00:00', '2024-02-08 02:30:00', '2024-02-08 01:30:00', '2024-02-08 01:00:00', '2024-02-08 00:30:00', '2024-02-08 00:00:00', '2024-02-07 23:30:00', '2024-02-07 23:00:00', '2024-02-07 22:30:00', '2024-02-07 22:00:00', '2024-02-07 21:30:00', '2024-02-07 21:00:00', '2024-02-07 20:30:00', '2024-02-07 20:00:00', '2024-02-07 19:30:00', '2024-02-07 19:00:00', '2024-02-07 18:30:00', '2024-02-07 18:00:00', '2024-02-07 17:30:00', '2024-02-07 17:00:00', '2024-02-07 16:30:00', '2024-02-07 16:00:00', '2024-02-07 15:30:00', '2024-02-07 15:00:00', '2024-02-07 14:30:00', '2024-02-07 14:00:00', '2024-02-07 13:30:00', '2024-02-07 13:00:00', '2024-02-07 12:30:00', '2024-02-07 12:00:00', '2024-02-07 11:30:00', '2024-02-07 11:00:00', '2024-02-07 10:30:00', '2024-02-07 10:00:00', '2024-02-07 09:30:00', '2024-02-07 09:00:00', '2024-02-07 08:30:00', '2024-02-07 08:00:00', '2024-02-07 07:30:00', '2024-02-07 07:00:00', '2024-02-07 06:30:00', '2024-02-07 06:00:00', '2024-02-07 05:30:00', '2024-02-07 05:00:00', '2024-02-07 04:30:00', '2024-02-07 04:00:00', '2024-02-07 03:30:00', '2024-02-07 03:00:00', '2024-02-07 02:30:00', '2024-02-07 02:00:00', '2024-02-07 01:30:00', '2024-02-07 01:00:00', '2024-02-07 00:30:00', '2024-02-07 00:00:00', '2024-02-06 23:30:00', '2024-02-06 23:00:00', '2024-02-06 22:30:00', '2024-02-06 22:00:00', '2024-02-06 21:30:00', '2024-02-06 21:00:00', '2024-02-06 20:30:00', '2024-02-06 20:00:00', '2024-02-06 19:30:00', '2024-02-06 19:00:00', '2024-02-06 18:30:00', '2024-02-06 18:00:00', '2024-02-06 17:30:00', '2024-02-06 17:00:00', '2024-02-06 16:30:00', '2024-02-06 16:00:00', '2024-02-06 15:30:00', '2024-02-06 15:00:00', '2024-02-06 14:30:00', '2024-02-06 14:00:00', '2024-02-06 13:30:00', '2024-02-06 13:00:00', '2024-02-06 12:30:00', '2024-02-06 12:00:00', '2024-02-06 11:30:00', '2024-02-06 11:00:00', '2024-02-06 10:30:00', '2024-02-06 10:00:00', '2024-02-06 09:30:00', '2024-02-06 09:00:00', '2024-02-06 08:30:00', '2024-02-06 08:00:00', '2024-02-06 07:30:00', '2024-02-06 07:00:00', '2024-02-06 06:30:00', '2024-02-06 06:00:00', '2024-02-06 05:30:00', '2024-02-06 05:00:00', '2024-02-06 04:30:00', '2024-02-06 04:00:00', '2024-02-06 03:30:00', '2024-02-06 03:00:00', '2024-02-06 02:30:00', '2024-02-06 02:00:00', '2024-02-06 01:30:00', '2024-02-06 01:00:00', '2024-02-06 00:30:00', '2024-02-06 00:00:00', '2024-02-05 23:30:00', '2024-02-05 23:00:00', '2024-02-05 22:30:00', '2024-02-05 22:00:00', '2024-02-05 21:30:00', '2024-02-05 21:00:00', '2024-02-05 20:30:00', '2024-02-05 20:00:00', '2024-02-05 19:30:00', '2024-02-05 19:00:00', '2024-02-05 18:30:00', '2024-02-05 18:00:00', '2024-02-05 17:30:00', '2024-02-05 17:00:00', '2024-02-05 16:30:00']"
Croatia, Osijek Airport (OSI/LDOS) ,"['LDOS 081600Z 25005KT CAVOK 14/06 Q1006', 'LDOS 081530Z 25007KT CAVOK 16/06 Q1006', 'LDOS 081500Z 26009KT CAVOK 17/06 Q1006', 'LDOS 081430Z 26011KT CAVOK 17/06 Q1006', 'LDOS 081400Z 25015KT CAVOK 17/05 Q1007', 'LDOS 081330Z 26017KT CAVOK 17/05 Q1007', 'LDOS 081300Z 24017KT 9999 FEW045 17/06 Q1007', 'LDOS 081200Z 24016KT CAVOK 16/05 Q1007', 'LDOS 081130Z 23015KT CAVOK 17/06 Q1007', 'LDOS 081100Z 23014KT CAVOK 16/05 Q1007', 'LDOS 081030Z 22014KT CAVOK 15/05 Q1008', 'LDOS 081000Z 22009KT CAVOK 14/06 Q1008', 'LDOS 080930Z 22011KT CAVOK 13/05 Q1008', 'LDOS 080900Z 21008KT CAVOK 12/05 Q1008', 'LDOS 080830Z 20007KT CAVOK 10/05 Q1008', 'LDOS 080800Z 20006KT CAVOK 09/05 Q1008', 'LDOS 080730Z 19006KT CAVOK 08/05 Q1008', 'LDOS 080700Z 20007KT CAVOK 07/04 Q1008', 'LDOS 080630Z 20008KT CAVOK 06/03 Q1008', 'LDOS 080600Z 20008KT CAVOK 04/02 Q1007', 'LDOS 080530Z 20004KT CAVOK 04/02 Q1007', 'LDOS 080500Z 20002KT CAVOK 05/02 Q1007', 'LDOS 072100Z 21007KT CAVOK 08/04 Q1009', 'LDOS 072030Z 23008KT CAVOK 08/04 Q1009', 'LDOS 072000Z 24008KT CAVOK 08/04 Q1009', 'LDOS 071930Z 24008KT CAVOK 08/04 Q1009', 'LDOS 071900Z 22008KT CAVOK 08/04 Q1010', 'LDOS 071830Z 23007KT CAVOK 09/04 Q1010', 'LDOS 071800Z 23008KT CAVOK 09/04 Q1010', 'LDOS 071730Z 23008KT CAVOK 10/05 Q1010', 'LDOS 071700Z 21008KT CAVOK 10/05 Q1010', 'LDOS 071630Z 24009KT CAVOK 11/05 Q1009', 'LDOS 071600Z 24008KT CAVOK 12/06 Q1009', 'LDOS 071530Z 23011KT CAVOK 14/06 Q1009', 'LDOS 071500Z 23011KT CAVOK 14/06 Q1010', 'LDOS 071430Z 24010KT CAVOK 15/07 Q1010', 'LDOS 071400Z 23012KT CAVOK 15/06 Q1010', 'LDOS 071330Z 24014KT CAVOK 16/07 Q1010', 'LDOS 071300Z 23014KT CAVOK 16/06 Q1010', 'LDOS 071230Z 24015KT CAVOK 15/06 Q1011', 'LDOS 071200Z 24019KT CAVOK 16/06 Q1011', 'LDOS 071130Z 24017KT CAVOK 16/06 Q1011', 'LDOS 071100Z 22014KT CAVOK 16/07 Q1012', 'LDOS 071030Z 22013KT CAVOK 15/06 Q1012', 'LDOS 071000Z 22013KT CAVOK 14/06 Q1013', 'LDOS 070930Z 21012KT CAVOK 14/05 Q1013', 'LDOS 070900Z 22011KT CAVOK 13/05 Q1013', 'LDOS 070830Z 20009KT CAVOK 12/05 Q1013', 'LDOS 070800Z 19007KT CAVOK 10/06 Q1013', 'LDOS 070730Z 19007KT CAVOK 08/05 Q1013', 'LDOS 070700Z 20007KT CAVOK 06/04 Q1013', 'LDOS 070630Z 19008KT CAVOK 06/04 Q1013', 'LDOS 070600Z 19009KT CAVOK 06/03 Q1013', 'LDOS 070530Z 20008KT CAVOK 07/04 Q1013', 'LDOS 070500Z 20009KT CAVOK 07/04 Q1013', 'LDOS 062100Z 21008KT CAVOK 07/03 Q1015', 'LDOS 062030Z 22008KT CAVOK 07/04 Q1015', 'LDOS 062000Z 22007KT CAVOK 08/04 Q1016', 'LDOS 061930Z 22008KT CAVOK 08/04 Q1016', 'LDOS 061900Z 22008KT CAVOK 08/04 Q1015', 'LDOS 061830Z 23008KT CAVOK 09/04 Q1015', 'LDOS 061800Z 24008KT CAVOK 09/05 Q1016', 'LDOS 061730Z 24010KT CAVOK 11/05 Q1015', 'LDOS 061700Z 24008KT CAVOK 11/05 Q1015', 'LDOS 061630Z 23008KT CAVOK 12/05 Q1015', 'LDOS 061600Z 24010KT CAVOK 13/06 Q1015', 'LDOS 061530Z 24009KT CAVOK 15/06 Q1015', 'LDOS 061500Z 25011KT CAVOK 16/06 Q1015', 'LDOS 061430Z 26015KT CAVOK 17/06 Q1015', 'LDOS 061400Z 26016KT CAVOK 17/06 Q1016', 'LDOS 061330Z 25017KT CAVOK 17/06 Q1016', 'LDOS 061300Z 25017KT CAVOK 17/06 Q1016', 'LDOS 061230Z 26019KT CAVOK 17/06 Q1016', 'LDOS 061200Z 25014KT CAVOK 17/06 Q1016', 'LDOS 061130Z 24015KT CAVOK 16/06 Q1017', 'LDOS 061100Z 24015KT CAVOK 15/05 Q1017', 'LDOS 061030Z 24016KT CAVOK 15/05 Q1018', 'LDOS 061000Z 25013KT CAVOK 14/05 Q1019', 'LDOS 060930Z 25010KT CAVOK 12/06 Q1019', 'LDOS 060900Z 25008KT CAVOK 11/05 Q1019', 'LDOS 060830Z 25007KT CAVOK 10/05 Q1019', 'LDOS 060800Z 21004KT CAVOK 08/04 Q1019', 'LDOS 060730Z 20004KT CAVOK 05/03 Q1019', 'LDOS 060700Z 25004KT CAVOK 04/02 Q1019', 'LDOS 060630Z 25004KT CAVOK 03/02 Q1019', 'LDOS 060600Z 21005KT CAVOK 03/02 Q1019', 'LDOS 060530Z 22008KT CAVOK 02/00 Q1019', 'LDOS 060500Z 20005KT CAVOK 03/01 Q1018', 'LDOS 052100Z 22007KT CAVOK 06/02 Q1019', 'LDOS 052030Z 21005KT CAVOK 06/03 Q1019', 'LDOS 052000Z 23007KT CAVOK 07/04 Q1019', 'LDOS 051930Z 23009KT CAVOK 07/04 Q1019', 'LDOS 051900Z 22008KT CAVOK 06/03 Q1019', 'LDOS 051830Z 20007KT CAVOK 06/03 Q1019', 'LDOS 051800Z 20006KT CAVOK 07/04 Q1019', 'LDOS 051730Z 23006KT CAVOK 08/04 Q1019', 'LDOS 051700Z 23003KT CAVOK 10/05 Q1019', 'LDOS 051630Z 25003KT CAVOK 10/05 Q1019']","['2024-02-08 16:00:00', '2024-02-08 15:30:00', '2024-02-08 15:00:00', '2024-02-08 14:30:00', '2024-02-08 14:00:00', '2024-02-08 13:30:00', '2024-02-08 13:00:00', '2024-02-08 12:00:00', '2024-02-08 11:30:00', '2024-02-08 11:00:00', '2024-02-08 10:30:00', '2024-02-08 10:00:00', '2024-02-08 09:30:00', '2024-02-08 09:00:00', '2024-02-08 08:30:00', '2024-02-08 08:00:00', '2024-02-08 07:30:00', '2024-02-08 07:00:00', '2024-02-08 06:30:00', '2024-02-08 06:00:00', '2024-02-08 05:30:00', '2024-02-08 05:00:00', '2024-02-07 21:00:00', '2024-02-07 20:30:00', '2024-02-07 20:00:00', '2024-02-07 19:30:00', '2024-02-07 19:00:00', '2024-02-07 18:30:00', '2024-02-07 18:00:00', '2024-02-07 17:30:00', '2024-02-07 17:00:00', '2024-02-07 16:30:00', '2024-02-07 16:00:00', '2024-02-07 15:30:00', '2024-02-07 15:00:00', '2024-02-07 14:30:00', '2024-02-07 14:00:00', '2024-02-07 13:30:00', '2024-02-07 13:00:00', '2024-02-07 12:30:00', '2024-02-07 12:00:00', '2024-02-07 11:30:00', '2024-02-07 11:00:00', '2024-02-07 10:30:00', '2024-02-07 10:00:00', '2024-02-07 09:30:00', '2024-02-07 09:00:00', '2024-02-07 08:30:00', '2024-02-07 08:00:00', '2024-02-07 07:30:00', '2024-02-07 07:00:00', '2024-02-07 06:30:00', '2024-02-07 06:00:00', '2024-02-07 05:30:00', '2024-02-07 05:00:00', '2024-02-06 21:00:00', '2024-02-06 20:30:00', '2024-02-06 20:00:00', '2024-02-06 19:30:00', '2024-02-06 19:00:00', '2024-02-06 18:30:00', '2024-02-06 18:00:00', '2024-02-06 17:30:00', '2024-02-06 17:00:00', '2024-02-06 16:30:00', '2024-02-06 16:00:00', '2024-02-06 15:30:00', '2024-02-06 15:00:00', '2024-02-06 14:30:00', '2024-02-06 14:00:00', '2024-02-06 13:30:00', '2024-02-06 13:00:00', '2024-02-06 12:30:00', '2024-02-06 12:00:00', '2024-02-06 11:30:00', '2024-02-06 11:00:00', '2024-02-06 10:30:00', '2024-02-06 10:00:00', '2024-02-06 09:30:00', '2024-02-06 09:00:00', '2024-02-06 08:30:00', '2024-02-06 08:00:00', '2024-02-06 07:30:00', '2024-02-06 07:00:00', '2024-02-06 06:30:00', '2024-02-06 06:00:00', '2024-02-06 05:30:00', '2024-02-06 05:00:00', '2024-02-05 21:00:00', '2024-02-05 20:30:00', '2024-02-05 20:00:00', '2024-02-05 19:30:00', '2024-02-05 19:00:00', '2024-02-05 18:30:00', '2024-02-05 18:00:00', '2024-02-05 17:30:00', '2024-02-05 17:00:00', '2024-02-05 16:30:00']"
Croatia, Pula Airport (PUY/LDPL) ,"['LDPL 081600Z 19003KT 160V270 9999 SCT045 13/08 Q1009 NOSIG', 'LDPL 081530Z VRB04KT 9999 FEW040 13/08 Q1009 NOSIG', 'LDPL 081500Z 21006KT 170V250 CAVOK 13/08 Q1010 NOSIG', 'LDPL 081430Z 21006KT 140V240 CAVOK 15/08 Q1010 NOSIG', 'LDPL 081400Z 21006KT 160V250 9999 FEW030 15/08 Q1010 NOSIG', 'LDPL 081330Z 22006KT 150V270 9999 FEW030 15/08 Q1010 NOSIG', 'LDPL 081300Z 19005KT 120V250 9999 FEW030 15/09 Q1010 NOSIG', 'LDPL 081230Z 23007KT 190V260 9999 SCT030 15/08 Q1011 NOSIG', 'LDPL 081200Z 23007KT 200V260 9999 SCT030 15/07 Q1011 NOSIG', 'LDPL 081130Z 20005KT 090V250 9999 SCT030 15/08 Q1011 NOSIG', 'LDPL 081100Z 18005KT 130V250 9999 SCT030 15/08 Q1011 NOSIG', 'LDPL 081030Z VRB05KT 9999 FEW030 14/08 Q1011 NOSIG', 'LDPL 081000Z 23005KT 160V280 9999 FEW030 13/08 Q1011 NOSIG', 'LDPL 080930Z 23003KT 180V310 CAVOK 13/09 Q1011 NOSIG', 'LDPL 080900Z VRB02KT CAVOK 11/10 Q1011 NOSIG', 'LDPL 080830Z VRB02KT 8000 FEW010 11/11 Q1011 NOSIG', 'LDPL 080800Z 06001KT 3000 BR FEW010 10/10 Q1011 BECMG 9999 NSW', 'LDPL 080730Z 04002KT 0400 R27/0175N FG SCT003 BKN005 07/07 Q1011 BECMG 1500 BR BKN005', 'LDPL 080700Z 08002KT 0400 R27/0550N FG BKN002 08/08 Q1011 NOSIG', 'LDPL 080630Z 07002KT 0400 R27/0375N FG BKN002 09/08 Q1010', 'LDPL 080600Z 00000KT 0600 R27/0700D FG SCT002 BKN007 08/08 Q1010', 'LDPL 080530Z VRB02KT 0900 R27/1000U FG BKN002 08/08 Q1010', 'LDPL 080500Z 33002KT 0600 R27/0450U FG BKN002 08/08 Q1010', 'LDPL 080430Z 00000KT 0800 R27/0800D FG FEW002 BKN012 08/07 Q1009', 'LDPL 080400Z 00000KT 9999 MIFG FEW005 06/06 Q1009', 'LDPL 080330Z 00000KT 9999 MIFG FEW005 07/07 Q1009', 'LDPL 080300Z VRB01KT 9999 MIFG FEW005 09/08 Q1009', 'LDPL 080230Z VRB02KT 9999 MIFG FEW050 07/07 Q1009', 'LDPL 080130Z VRB01KT 9999 SCT045 OVC058 08/07 Q1010', 'LDPL 080100Z 00000KT 9999 SCT045 09/09 Q1010', 'LDPL 080030Z 00000KT 9999 SCT045 10/09 Q1010', 'LDPL 080000Z VRB02KT 9999 SCT045 09/09 Q1010', 'LDPL 072330Z VRB02KT 9999 SCT045 11/10 Q1010', 'LDPL 072300Z VRB02KT 9999 SCT045 11/10 Q1011', 'LDPL 072230Z 13003KT 090V180 9999 FEW045 OVC058 11/10 Q1011', 'LDPL 072200Z VRB02KT 9999 SCT045 OVC058 12/10 Q1011', 'LDPL 072130Z VRB02KT 9999 SCT045 OVC058 11/10 Q1011', 'LDPL 072100Z VRB02KT 9999 BKN045 12/10 Q1011', 'LDPL 072030Z VRB02KT 9999 BKN045 OVC058 11/10 Q1011', 'LDPL 072000Z VRB01KT 9999 BKN040 OVC055 11/10 Q1012', 'LDPL 071930Z VRB02KT 9999 BKN040 OVC058 11/10 Q1012', 'LDPL 071900Z 15003KT 100V220 9999 BKN042 11/10 Q1012', 'LDPL 071830Z 12003KT 080V160 9999 BKN042 10/10 Q1012', 'LDPL 071800Z 11003KT 090V150 9999 SCT045 10/09 Q1012', 'LDPL 071730Z VRB02KT 9999 SCT042 OVC050 11/10 Q1012', 'LDPL 071700Z 12004KT CAVOK 11/10 Q1012 NOSIG', 'LDPL 071630Z 11003KT CAVOK 11/09 Q1012 NOSIG', 'LDPL 071600Z 12003KT 090V150 9999 OVC058 12/10 Q1012 NOSIG', 'LDPL 071530Z VRB02KT 9999 OVC058 12/10 Q1012 NOSIG', 'LDPL 071500Z VRB02KT 9999 FEW040 OVC058 12/10 Q1013 NOSIG', 'LDPL 071430Z VRB01KT 9999 FEW038 OVC055 12/10 Q1013 NOSIG', 'LDPL 071400Z VRB02KT 9999 SCT038 OVC052 12/09 Q1013 NOSIG', 'LDPL 071330Z 00000KT 9999 SCT040 OVC055 12/09 Q1013 NOSIG', 'LDPL 071300Z VRB02KT 9999 SCT040 OVC055 12/09 Q1014 NOSIG', 'LDPL 071230Z VRB02KT 9999 SCT038 OVC050 12/09 Q1014 NOSIG', 'LDPL 071200Z VRB02KT 9999 SCT038 OVC050 12/09 Q1014 NOSIG', 'LDPL 071130Z VRB02KT 9999 SCT038 OVC052 12/09 Q1015 NOSIG', 'LDPL 071100Z VRB01KT 6000 BKN050 12/10 Q1015 BECMG 23008KT', 'LDPL 071030Z VRB01KT 3500 BR BKN050 11/11 Q1016 BECMG 23008KT 3000', 'LDPL 071000Z VRB01KT 2000 BR SCT002 BKN010 BKN050 11/11 Q1016 BECMG 23008KT 3000', 'LDPL 070900Z 00000KT 0700 R27/0550N FG SCT002 BKN008 BKN030 11/10 Q1016 BECMG 1000 BR TEMPO BKN003', 'LDPL 070800Z VRB01KT 0400 R27/0400D FG SCT002 BKN008 OVC035 10/10 Q1016 TEMPO BKN004', 'LDPL 070730Z 32001KT 0500 R27/0375N FG FEW002 BKN008 OVC035 10/10 Q1016 TEMPO BKN004', 'LDPL 070700Z VRB02KT 0600 R27/0700D FG SCT001 BKN008 OVC038 10/10 Q1016 TEMPO 0400 BKN004', 'LDPL 070630Z VRB02KT 1200 R27/1300U BR BKN008 OVC040 10/10 Q1016', 'LDPL 070600Z 20003KT 3000 BR BKN004 OVC055 10/10 Q1016', 'LDPL 070530Z 21003KT 5000 BR SCT004 OVC055 10/09 Q1016', 'LDPL 070500Z 21003KT 4000 BR FEW005 BKN055 09/09 Q1016', 'LDPL 070430Z 00000KT 4000 BR FEW005 BKN055 09/09 Q1016', 'LDPL 070400Z 00000KT 5000 BR FEW007 BKN055 08/08 Q1016', 'LDPL 070330Z VRB01KT 4000 BR FEW007 BKN055 08/08 Q1016', 'LDPL 070300Z 00000KT 6000 BKN055 10/09 Q1017', 'LDPL 070230Z 00000KT 6000 BKN055 10/09 Q1017', 'LDPL 070200Z VRB02KT 8000 FEW010 BKN055 10/09 Q1017', 'LDPL 070130Z 11004KT 7000 SCT010 OVC055 11/10 Q1017', 'LDPL 070100Z 10005KT 5000 BR SCT010 OVC050 11/09 Q1018', 'LDPL 070030Z 09005KT 5000 BR FEW010 OVC055 10/09 Q1018', 'LDPL 070000Z 08005KT 5000 BR FEW010 OVC055 10/08 Q1018', 'LDPL 062330Z 09005KT 5000 BR FEW010 OVC055 10/08 Q1019', 'LDPL 062300Z 09005KT 5000 BR FEW010 OVC055 10/08 Q1019', 'LDPL 062230Z 09005KT 4000 BR OVC045 10/08 Q1019', 'LDPL 062200Z 09005KT 3500 BR OVC045 10/08 Q1019', 'LDPL 062130Z 09005KT 3500 BR OVC045 10/08 Q1020', 'LDPL 062100Z 09004KT 3500 BR OVC045 09/08 Q1020', 'LDPL 062030Z 09004KT 3500 BR OVC045 09/08 Q1020', 'LDPL 062000Z 08003KT 4000 BR OVC045 09/08 Q1021', 'LDPL 061930Z 07003KT 5000 BR BKN045 09/07 Q1021', 'LDPL 061900Z 11002KT 5000 BR BKN045 09/07 Q1021', 'LDPL 061830Z 12004KT 4000 BR FEW038 BKN046 10/07 Q1021', 'LDPL 061800Z 10003KT 4000 BR FEW038 BKN046 08/07 Q1021', 'LDPL 061730Z 11001KT 4000 BR BKN046 09/07 Q1020', 'LDPL 061700Z 08002KT 4000 BR OVC040 10/07 Q1020', 'LDPL 061630Z 00000KT 4000 BR OVC040 10/07 Q1021', 'LDPL 061600Z VRB01KT 4000 BR OVC040 11/07 Q1021', 'LDPL 061530Z 00000KT 4500 BR BKN040 11/08 Q1021', 'LDPL 061500Z VRB02KT 4200 BR BKN040 11/07 Q1021 NOSIG', 'LDPL 061430Z 23003KT 180V280 4200 BR BKN035 11/07 Q1021 TEMPO 27008KT', 'LDPL 061400Z 28003KT 250V320 4200 BR BKN035 11/08 Q1021 TEMPO 27008KT', 'LDPL 061330Z 24005KT 210V270 4500 BR FEW008 BKN035 11/08 Q1022 TEMPO 27008KT 4000', 'LDPL 061300Z 27004KT 240V300 4500 BR FEW008 BKN035 11/08 Q1022 TEMPO 27008KT 4000', 'LDPL 061230Z 23003KT 190V260 5000 BR FEW007 BKN035 11/09 Q1022 TEMPO 27008KT 4000', 'LDPL 061130Z 27004KT 220V300 5000 BR FEW005 BKN008 BKN028 11/10 Q1023 TEMPO 27008KT SCT008', 'LDPL 061100Z 26005KT 4000 BR FEW005 BKN008 BKN028 11/10 Q1023 TEMPO 25008KT 6000 NSW SCT008', 'LDPL 061030Z 25006KT 3500 BR FEW005 BKN008 BKN028 11/10 Q1023 TEMPO 6000 NSW', 'LDPL 061000Z 26006KT 5000 BR FEW006 SCT010 BKN028 11/10 Q1023 TEMPO BKN010', 'LDPL 060930Z 25005KT 6000 SCT005 11/10 Q1023 TEMPO 24008KT BKN005', 'LDPL 060900Z VRB02KT 3000 BR FEW003 BKN038 11/11 Q1023 BECMG 6000 NSW', 'LDPL 060830Z 00000KT 3000 BR FEW002 BKN038 10/10 Q1023 BECMG 6000 NSW', 'LDPL 060800Z 00000KT 3000 0800SW R27/P2000N BR PRFG FEW004 SCT040 09/09 Q1023 BECMG 6000 NSW', 'LDPL 060730Z 36001KT 2500 0800W R27/P2000U BR PRFG FEW010 07/07 Q1023 BECMG 4000 BR', 'LDPL 060700Z 00000KT 2000 0800W R27/0550N BR PRFG FEW008 06/06 Q1023 BECMG 4000 BR', 'LDPL 060630Z 00000KT 2000 0800W R27/1900U BR PRFG FEW004 05/04 Q1023', 'LDPL 060600Z VRB02KT 1700 0800W R27/1900D BR PRFG FEW004 05/05 Q1022', 'LDPL 060500Z VRB01KT 0800 R27/P2000U FG FEW002 08/08 Q1023', 'LDPL 060430Z 10003KT 0300 R27/0300N FG OVC002 10/10 Q1023', 'LDPL 060400Z 12003KT 090V150 0400 R27/0350N FG OVC002 11/11 Q1023', 'LDPL 060330Z 11004KT 0600 R27/0400D FG BKN002 11/11 Q1023', 'LDPL 060300Z 11004KT 090V150 1200 R27/0800N BR FEW002 BKN005 11/11 Q1023', 'LDPL 060230Z 11004KT 090V150 5000 BR MIFG SCT002 11/11 Q1023', 'LDPL 060200Z 11004KT 090V150 5000 BR MIFG SCT002 11/11 Q1023', 'LDPL 060130Z 10005KT 5000 BR MIFG FEW007 10/10 Q1024', 'LDPL 060100Z 10006KT 5000 BR MIFG FEW007 10/09 Q1024', 'LDPL 060030Z 08006KT 5000 BR MIFG FEW007 09/09 Q1024', 'LDPL 060000Z 08006KT 4000 BR MIFG FEW008 09/09 Q1024', 'LDPL 052330Z 09006KT 4000 BR MIFG FEW010 09/09 Q1024', 'LDPL 052300Z 07006KT 4000 BR MIFG SCT010 09/08 Q1024', 'LDPL 052230Z 08005KT 5000 BR MIFG SCT012 09/09 Q1024', 'LDPL 052200Z 09006KT 4000 BR MIFG FEW012 09/08 Q1024', 'LDPL 052130Z 09006KT 5000 BR MIFG FEW012 09/09 Q1024', 'LDPL 052100Z 09006KT 5000 BR MIFG FEW012 10/09 Q1024', 'LDPL 052030Z 10006KT 6000 MIFG FEW012 10/09 Q1024', 'LDPL 052000Z 09006KT 7000 MIFG FEW012 10/09 Q1024', 'LDPL 051930Z 09005KT 5000 BR MIFG FEW012 09/09 Q1024', 'LDPL 051900Z 08004KT 5000 BR MIFG FEW012 09/08 Q1024', 'LDPL 051830Z 08005KT 4000 BR MIFG FEW012 07/07 Q1024', 'LDPL 051800Z 08004KT 3700 R27/1000D BR MIFG NSC 07/06 Q1024', 'LDPL 051730Z 08004KT 3700 BR MIFG NSC 09/08 Q1024', 'LDPL 051700Z 08004KT 4000 BR MIFG NSC 09/09 Q1023', 'LDPL 051630Z 09004KT 6000 MIFG NSC 10/08 Q1023']","['2024-02-08 16:00:00', '2024-02-08 15:30:00', '2024-02-08 15:00:00', '2024-02-08 14:30:00', '2024-02-08 14:00:00', '2024-02-08 13:30:00', '2024-02-08 13:00:00', '2024-02-08 12:30:00', '2024-02-08 12:00:00', '2024-02-08 11:30:00', '2024-02-08 11:00:00', '2024-02-08 10:30:00', '2024-02-08 10:00:00', '2024-02-08 09:30:00', '2024-02-08 09:00:00', '2024-02-08 08:30:00', '2024-02-08 08:00:00', '2024-02-08 07:30:00', '2024-02-08 07:00:00', '2024-02-08 06:30:00', '2024-02-08 06:00:00', '2024-02-08 05:30:00', '2024-02-08 05:00:00', '2024-02-08 04:30:00', '2024-02-08 04:00:00', '2024-02-08 03:30:00', '2024-02-08 03:00:00', '2024-02-08 02:30:00', '2024-02-08 01:30:00', '2024-02-08 01:00:00', '2024-02-08 00:30:00', '2024-02-08 00:00:00', '2024-02-07 23:30:00', '2024-02-07 23:00:00', '2024-02-07 22:30:00', '2024-02-07 22:00:00', '2024-02-07 21:30:00', '2024-02-07 21:00:00', '2024-02-07 20:30:00', '2024-02-07 20:00:00', '2024-02-07 19:30:00', '2024-02-07 19:00:00', '2024-02-07 18:30:00', '2024-02-07 18:00:00', '2024-02-07 17:30:00', '2024-02-07 17:00:00', '2024-02-07 16:30:00', '2024-02-07 16:00:00', '2024-02-07 15:30:00', '2024-02-07 15:00:00', '2024-02-07 14:30:00', '2024-02-07 14:00:00', '2024-02-07 13:30:00', '2024-02-07 13:00:00', '2024-02-07 12:30:00', '2024-02-07 12:00:00', '2024-02-07 11:30:00', '2024-02-07 11:00:00', '2024-02-07 10:30:00', '2024-02-07 10:00:00', '2024-02-07 09:00:00', '2024-02-07 08:00:00', '2024-02-07 07:30:00', '2024-02-07 07:00:00', '2024-02-07 06:30:00', '2024-02-07 06:00:00', '2024-02-07 05:30:00', '2024-02-07 05:00:00', '2024-02-07 04:30:00', '2024-02-07 04:00:00', '2024-02-07 03:30:00', '2024-02-07 03:00:00', '2024-02-07 02:30:00', '2024-02-07 02:00:00', '2024-02-07 01:30:00', '2024-02-07 01:00:00', '2024-02-07 00:30:00', '2024-02-07 00:00:00', '2024-02-06 23:30:00', '2024-02-06 23:00:00', '2024-02-06 22:30:00', '2024-02-06 22:00:00', '2024-02-06 21:30:00', '2024-02-06 21:00:00', '2024-02-06 20:30:00', '2024-02-06 20:00:00', '2024-02-06 19:30:00', '2024-02-06 19:00:00', '2024-02-06 18:30:00', '2024-02-06 18:00:00', '2024-02-06 17:30:00', '2024-02-06 17:00:00', '2024-02-06 16:30:00', '2024-02-06 16:00:00', '2024-02-06 15:30:00', '2024-02-06 15:00:00', '2024-02-06 14:30:00', '2024-02-06 14:00:00', '2024-02-06 13:30:00', '2024-02-06 13:00:00', '2024-02-06 12:30:00', '2024-02-06 11:30:00', '2024-02-06 11:00:00', '2024-02-06 10:30:00', '2024-02-06 10:00:00', '2024-02-06 09:30:00', '2024-02-06 09:00:00', '2024-02-06 08:30:00', '2024-02-06 08:00:00', '2024-02-06 07:30:00', '2024-02-06 07:00:00', '2024-02-06 06:30:00', '2024-02-06 06:00:00', '2024-02-06 05:00:00', '2024-02-06 04:30:00', '2024-02-06 04:00:00', '2024-02-06 03:30:00', '2024-02-06 03:00:00', '2024-02-06 02:30:00', '2024-02-06 02:00:00', '2024-02-06 01:30:00', '2024-02-06 01:00:00', '2024-02-06 00:30:00', '2024-02-06 00:00:00', '2024-02-05 23:30:00', '2024-02-05 23:00:00', '2024-02-05 22:30:00', '2024-02-05 22:00:00', '2024-02-05 21:30:00', '2024-02-05 21:00:00', '2024-02-05 20:30:00', '2024-02-05 20:00:00', '2024-02-05 19:30:00', '2024-02-05 19:00:00', '2024-02-05 18:30:00', '2024-02-05 18:00:00', '2024-02-05 17:30:00', '2024-02-05 17:00:00', '2024-02-05 16:30:00']"
Croatia, Rijeka Airport (RJK/LDRI) ,"['LDRI 081600Z 19006KT 150V230 9999 BKN040 13/08 Q1009', 'LDRI 081530Z 16006KT 9999 BKN040 14/08 Q1009', 'LDRI 081500Z 17006KT 9999 FEW033 BKN040 14/08 Q1010', 'LDRI 081430Z 21004KT 160V240 9999 FEW033 BKN040 14/07 Q1010', 'LDRI 081400Z 19004KT 150V220 9999 FEW033 BKN040 14/07 Q1010', 'LDRI 081330Z 33004KT 300V010 9999 FEW033 BKN040 13/08 Q1010', 'LDRI 081300Z 30003KT 240V350 9999 FEW033 BKN040 13/08 Q1010', 'LDRI 081230Z 27003KT 210V320 9999 FEW033 BKN040 13/08 Q1011', 'LDRI 081200Z VRB03KT 9999 FEW033 BKN040 14/08 Q1011', 'LDRI 081130Z 25004KT 210V300 9999 SCT033 14/08 Q1011', 'LDRI 081100Z VRB03KT 9999 SCT033 14/08 Q1011', 'LDRI 081030Z VRB04KT 9999 SCT033 14/08 Q1011', 'LDRI 081000Z 11006KT 9999 SCT033 13/08 Q1011', 'LDRI 080930Z 12006KT 060V140 9999 BKN033 12/09 Q1011', 'LDRI 080900Z 11006KT 9999 BKN033 12/08 Q1011', 'LDRI 080830Z 12006KT 9999 BKN033 11/09 Q1011', 'LDRI 080800Z 11007KT 9999 SCT033 11/09 Q1011', 'LDRI 080730Z 12006KT 9999 FEW027 BKN033 10/09 Q1011', 'LDRI 080700Z 14004KT 110V190 9999 FEW027 BKN033 10/09 Q1010', 'LDRI 080630Z 10007KT 9999 FEW027 BKN033 10/09 Q1010', 'LDRI 080600Z 13006KT 9999 FEW027 BKN033 10/09 Q1010', 'LDRI 080530Z 13006KT 9999 FEW023 BKN033 10/09 Q1010', 'LDRI 080500Z 13005KT 9999 FEW023 BKN033 09/08 Q1009', 'LDRI 080430Z 13006KT 9999 FEW023 BKN033 10/09 Q1009', 'LDRI 080400Z 13006KT 9999 FEW023 BKN033 10/10 Q1009', 'LDRI 080330Z 15005KT 9999 SCT020 OVC030 11/10 Q1009', 'LDRI 080300Z 13004KT 9999 SCT020 OVC030 11/10 Q1009', 'LDRI 080200Z 15006KT 9999 SCT020 OVC030 11/10 Q1010', 'LDRI 080130Z 15005KT 9999 SCT020 OVC030 11/10 Q1010', 'LDRI 080030Z 13005KT 9999 SCT020 OVC030 11/10 Q1010', 'LDRI 080000Z 12004KT 9999 SCT020 OVC030 11/09 Q1010', 'LDRI 072330Z 12004KT 9999 SCT020 OVC030 11/10 Q1011', 'LDRI 072300Z 12004KT 9999 SCT020 OVC030 11/10 Q1011', 'LDRI 072230Z 12004KT 9999 SCT020 OVC030 11/09 Q1011', 'LDRI 072200Z 16003KT 9999 SCT020 OVC030 11/09 Q1011', 'LDRI 072130Z 17005KT 140V220 9999 FEW020 OVC030 12/10 Q1011', 'LDRI 072100Z 17004KT 150V220 9999 FEW020 OVC030 12/10 Q1011', 'LDRI 072030Z 14005KT 9999 FEW020 OVC030 11/10 Q1012', 'LDRI 072000Z 12004KT 9999 FEW020 OVC030 11/10 Q1012', 'LDRI 071930Z 12005KT 9999 FEW020 OVC030 11/10 Q1012', 'LDRI 071900Z 12004KT 9999 FEW020 OVC030 11/09 Q1012', 'LDRI 071830Z 13004KT 9999 FEW020 OVC030 11/09 Q1012', 'LDRI 071800Z 13004KT 9999 FEW024 OVC030 11/09 Q1012', 'LDRI 071730Z 11003KT 9999 FEW027 OVC034 11/09 Q1012', 'LDRI 071700Z 11003KT 9999 FEW027 OVC034 11/09 Q1012', 'LDRI 071630Z 12004KT 9999 FEW027 OVC034 11/09 Q1012', 'LDRI 071600Z 13005KT 9999 FEW027 OVC034 11/09 Q1012', 'LDRI 071530Z 12004KT 9999 OVC030 11/09 Q1013', 'LDRI 071500Z 11004KT 9999 OVC030 11/08 Q1013', 'LDRI 071430Z 15004KT 120V180 9999 OVC030 12/08 Q1013', 'LDRI 071400Z 18004KT 140V210 9999 -RA OVC030 12/08 Q1013', 'LDRI 071330Z 17004KT 100V220 9999 OVC030 12/08 Q1013', 'LDRI 071300Z 16003KT 130V230 9999 FEW017 OVC034 12/09 Q1014', 'LDRI 071230Z 19004KT 140V210 9999 FEW017 OVC034 12/08 Q1014', 'LDRI 071200Z 19005KT 150V230 9999 FEW017 OVC034 12/09 Q1015', 'LDRI 071130Z 18005KT 130V210 9999 FEW017 OVC034 12/09 Q1015', 'LDRI 071100Z 13004KT 9999 OVC034 12/10 Q1015', 'LDRI 071030Z 14003KT 9999 OVC034 11/10 Q1015', 'LDRI 071000Z 14005KT 9999 FEW020 BKN037 11/10 Q1016', 'LDRI 070930Z VRB03KT 9999 FEW017 BKN037 11/10 Q1016', 'LDRI 070900Z 13005KT 9999 FEW017 BKN037 10/10 Q1016', 'LDRI 070830Z 12005KT 9999 FEW017 BKN037 11/10 Q1016', 'LDRI 070800Z 14005KT 9999 FEW017 BKN037 11/10 Q1016', 'LDRI 070730Z 16005KT 130V210 9999 FEW010 BKN037 11/10 Q1016', 'LDRI 070700Z 14004KT 9999 FEW010 BKN037 11/10 Q1016', 'LDRI 070630Z 17005KT 9999 FEW010 OVC030 11/10 Q1016', 'LDRI 070600Z 15004KT 9999 -RA FEW010 OVC030 11/10 Q1016', 'LDRI 070530Z 13003KT 120V210 9999 -RA FEW010 OVC030 10/10 Q1016', 'LDRI 070500Z 16005KT 120V210 9999 -RA FEW010 OVC030 11/10 Q1016', 'LDRI 070430Z 12005KT 9999 -RA FEW010 OVC030 10/10 Q1016', 'LDRI 070400Z 11003KT 080V160 9999 -RA FEW010 OVC030 11/10 Q1016', 'LDRI 070330Z 12005KT 9999 -RA FEW010 OVC030 10/10 Q1016', 'LDRI 070300Z 12003KT 9999 -RA FEW010 OVC030 10/07 Q1018', 'LDRI 070200Z 12004KT 9999 FEW010 OVC030 10/07 Q1018', 'LDRI 070130Z 12004KT 9999 FEW010 OVC030 10/07 Q1018', 'LDRI 070100Z 12004KT 9999 FEW010 OVC030 10/06 Q1018', 'LDRI 070030Z 11003KT 9999 FEW010 OVC030 11/06 Q1018', 'LDRI 070000Z 10002KT 9999 FEW010 OVC030 10/06 Q1019', 'LDRI 062330Z 11003KT 9999 FEW010 BKN030 10/06 Q1019', 'LDRI 062300Z 14001KT 9999 FEW010 BKN030 10/07 Q1019', 'LDRI 062230Z 00000KT 9999 FEW010 BKN030 10/07 Q1019', 'LDRI 062200Z 00000KT 9999 FEW010 BKN030 10/07 Q1020', 'LDRI 062130Z 01003KT 9999 FEW010 BKN030 11/06 Q1020', 'LDRI 062100Z 35001KT 9999 FEW010 BKN030 10/07 Q1020', 'LDRI 062030Z 00000KT 9999 FEW010 BKN030 10/06 Q1021', 'LDRI 062000Z 00000KT 9999 FEW010 BKN030 10/06 Q1021', 'LDRI 061930Z 08002KT 9999 FEW010 BKN030 11/06 Q1021', 'LDRI 061900Z VRB01KT 9999 FEW010 BKN030 11/06 Q1021', 'LDRI 061830Z VRB02KT 9999 FEW013 BKN037 11/06 Q1021', 'LDRI 061800Z 21004KT 180V250 9999 FEW013 BKN037 11/06 Q1021', 'LDRI 061730Z 18003KT 9999 FEW013 BKN037 11/06 Q1021', 'LDRI 061700Z 16004KT 9999 FEW013 BKN037 11/06 Q1021', 'LDRI 061630Z 16005KT 130V200 9999 FEW013 BKN037 12/06 Q1021', 'LDRI 061600Z 19006KT 9999 FEW013 BKN037 12/06 Q1020', 'LDRI 061530Z 21005KT 160V230 9999 FEW013 BKN037 12/06 Q1021', 'LDRI 061500Z 20005KT 170V250 9999 FEW013 OVC037 13/06 Q1021', 'LDRI 061430Z 17005KT 120V230 9999 FEW013 OVC037 13/07 Q1021', 'LDRI 061330Z 20006KT 160V240 9999 FEW013 BKN037 13/08 Q1022', 'LDRI 061300Z 21005KT 150V240 9999 FEW013 BKN037 13/08 Q1022', 'LDRI 061230Z 21005KT 170V240 9999 FEW013 BKN037 13/07 Q1022', 'LDRI 061200Z 22003KT 160V300 9999 FEW013 BKN037 13/08 Q1022', 'LDRI 061130Z 21005KT 180V240 9999 FEW013 BKN040 13/08 Q1022', 'LDRI 061100Z 23006KT 180V280 9999 FEW013 BKN040 14/08 Q1023', 'LDRI 061030Z 11006KT 040V160 9999 FEW013 BKN040 13/09 Q1023', 'LDRI 061000Z 13004KT 040V180 9999 FEW013 BKN040 13/09 Q1023', 'LDRI 060930Z 11006KT 090V150 9999 FEW013 13/09 Q1023', 'LDRI 060900Z VRB04KT 9999 FEW010 13/09 Q1023', 'LDRI 060830Z 12003KT 080V160 9999 FEW010 12/10 Q1023', 'LDRI 060800Z 12003KT 9999 FEW010 SCT027 11/10 Q1023', 'LDRI 060730Z 12003KT 090V160 9999 FEW010 SCT027 BKN043 11/10 Q1023', 'LDRI 060700Z 12005KT 9999 FEW010 SCT027 BKN043 10/09 Q1023', 'LDRI 060630Z VRB02KT 9999 FEW010 SCT030 BKN050 10/09 Q1023', 'LDRI 060600Z 12006KT 9999 FEW010 SCT030 BKN050 11/10 Q1023', 'LDRI 060530Z 13005KT 9999 FEW010 SCT030 BKN050 10/09 Q1023', 'LDRI 060500Z 12005KT 9999 FEW010 SCT030 BKN050 10/09 Q1023', 'LDRI 060430Z 10005KT 9999 FEW010 SCT030 BKN050 10/09 Q1023', 'LDRI 060400Z 11004KT 9999 FEW010 SCT030 BKN050 10/09 Q1024', 'LDRI 060330Z 12003KT 9999 FEW010 SCT030 BKN050 10/09 Q1023', 'LDRI 060300Z 16003KT 9999 FEW010 SCT030 BKN050 10/09 Q1024', 'LDRI 060230Z 17005KT 9999 FEW010 SCT030 BKN050 10/09 Q1024', 'LDRI 060200Z 12004KT 9999 FEW010 SCT030 BKN050 10/09 Q1024', 'LDRI 060130Z 11005KT 9999 FEW010 SCT030 10/09 Q1024', 'LDRI 060100Z 12004KT 9999 FEW010 SCT030 10/09 Q1024', 'LDRI 060030Z 12006KT 9999 FEW010 SCT030 10/09 Q1024', 'LDRI 060000Z 12005KT 9999 FEW010 SCT030 10/09 Q1024', 'LDRI 052330Z 12004KT 9999 FEW010 SCT030 BKN050 10/09 Q1025', 'LDRI 052300Z 11004KT 9999 FEW010 SCT030 BKN050 10/09 Q1025', 'LDRI 052230Z 11004KT 9999 FEW010 SCT030 BKN050 10/10 Q1025', 'LDRI 052200Z 13003KT 9999 FEW010 SCT030 BKN050 11/10 Q1025', 'LDRI 052130Z 17003KT 9999 FEW010 SCT030 BKN050 11/10 Q1025', 'LDRI 052100Z 17003KT 9999 FEW010 SCT030 BKN050 11/10 Q1025', 'LDRI 052030Z 17005KT 9999 FEW010 SCT030 11/09 Q1025', 'LDRI 052000Z 14003KT 9999 FEW010 SCT030 11/09 Q1025', 'LDRI 051930Z 13003KT 9999 FEW010 SCT030 BKN050 11/09 Q1025', 'LDRI 051900Z 16002KT 9999 FEW010 SCT030 BKN050 11/09 Q1025', 'LDRI 051830Z 15003KT 9999 SCT030 BKN050 11/10 Q1025', 'LDRI 051800Z 15004KT 9999 SCT010 BKN027 11/09 Q1024', 'LDRI 051730Z 15003KT 9999 SCT010 BKN027 11/09 Q1024', 'LDRI 051700Z 15003KT 9999 SCT010 BKN027 11/09 Q1024']","['2024-02-08 16:00:00', '2024-02-08 15:30:00', '2024-02-08 15:00:00', '2024-02-08 14:30:00', '2024-02-08 14:00:00', '2024-02-08 13:30:00', '2024-02-08 13:00:00', '2024-02-08 12:30:00', '2024-02-08 12:00:00', '2024-02-08 11:30:00', '2024-02-08 11:00:00', '2024-02-08 10:30:00', '2024-02-08 10:00:00', '2024-02-08 09:30:00', '2024-02-08 09:00:00', '2024-02-08 08:30:00', '2024-02-08 08:00:00', '2024-02-08 07:30:00', '2024-02-08 07:00:00', '2024-02-08 06:30:00', '2024-02-08 06:00:00', '2024-02-08 05:30:00', '2024-02-08 05:00:00', '2024-02-08 04:30:00', '2024-02-08 04:00:00', '2024-02-08 03:30:00', '2024-02-08 03:00:00', '2024-02-08 02:00:00', '2024-02-08 01:30:00', '2024-02-08 00:30:00', '2024-02-08 00:00:00', '2024-02-07 23:30:00', '2024-02-07 23:00:00', '2024-02-07 22:30:00', '2024-02-07 22:00:00', '2024-02-07 21:30:00', '2024-02-07 21:00:00', '2024-02-07 20:30:00', '2024-02-07 20:00:00', '2024-02-07 19:30:00', '2024-02-07 19:00:00', '2024-02-07 18:30:00', '2024-02-07 18:00:00', '2024-02-07 17:30:00', '2024-02-07 17:00:00', '2024-02-07 16:30:00', '2024-02-07 16:00:00', '2024-02-07 15:30:00', '2024-02-07 15:00:00', '2024-02-07 14:30:00', '2024-02-07 14:00:00', '2024-02-07 13:30:00', '2024-02-07 13:00:00', '2024-02-07 12:30:00', '2024-02-07 12:00:00', '2024-02-07 11:30:00', '2024-02-07 11:00:00', '2024-02-07 10:30:00', '2024-02-07 10:00:00', '2024-02-07 09:30:00', '2024-02-07 09:00:00', '2024-02-07 08:30:00', '2024-02-07 08:00:00', '2024-02-07 07:30:00', '2024-02-07 07:00:00', '2024-02-07 06:30:00', '2024-02-07 06:00:00', '2024-02-07 05:30:00', '2024-02-07 05:00:00', '2024-02-07 04:30:00', '2024-02-07 04:00:00', '2024-02-07 03:30:00', '2024-02-07 03:00:00', '2024-02-07 02:00:00', '2024-02-07 01:30:00', '2024-02-07 01:00:00', '2024-02-07 00:30:00', '2024-02-07 00:00:00', '2024-02-06 23:30:00', '2024-02-06 23:00:00', '2024-02-06 22:30:00', '2024-02-06 22:00:00', '2024-02-06 21:30:00', '2024-02-06 21:00:00', '2024-02-06 20:30:00', '2024-02-06 20:00:00', '2024-02-06 19:30:00', '2024-02-06 19:00:00', '2024-02-06 18:30:00', '2024-02-06 18:00:00', '2024-02-06 17:30:00', '2024-02-06 17:00:00', '2024-02-06 16:30:00', '2024-02-06 16:00:00', '2024-02-06 15:30:00', '2024-02-06 15:00:00', '2024-02-06 14:30:00', '2024-02-06 13:30:00', '2024-02-06 13:00:00', '2024-02-06 12:30:00', '2024-02-06 12:00:00', '2024-02-06 11:30:00', '2024-02-06 11:00:00', '2024-02-06 10:30:00', '2024-02-06 10:00:00', '2024-02-06 09:30:00', '2024-02-06 09:00:00', '2024-02-06 08:30:00', '2024-02-06 08:00:00', '2024-02-06 07:30:00', '2024-02-06 07:00:00', '2024-02-06 06:30:00', '2024-02-06 06:00:00', '2024-02-06 05:30:00', '2024-02-06 05:00:00', '2024-02-06 04:30:00', '2024-02-06 04:00:00', '2024-02-06 03:30:00', '2024-02-06 03:00:00', '2024-02-06 02:30:00', '2024-02-06 02:00:00', '2024-02-06 01:30:00', '2024-02-06 01:00:00', '2024-02-06 00:30:00', '2024-02-06 00:00:00', '2024-02-05 23:30:00', '2024-02-05 23:00:00', '2024-02-05 22:30:00', '2024-02-05 22:00:00', '2024-02-05 21:30:00', '2024-02-05 21:00:00', '2024-02-05 20:30:00', '2024-02-05 20:00:00', '2024-02-05 19:30:00', '2024-02-05 19:00:00', '2024-02-05 18:30:00', '2024-02-05 18:00:00', '2024-02-05 17:30:00', '2024-02-05 17:00:00']"
Croatia, Split Airport (SPU/LDSP) ,"['LDSP 081600Z 00000KT 9999 FEW040 14/09 Q1011 NOSIG', 'LDSP 081530Z 24003KT 9999 FEW040 14/09 Q1011 NOSIG', 'LDSP 081500Z 23005KT 9999 FEW042 15/09 Q1011 NOSIG', 'LDSP 081430Z 24006KT 9999 FEW042 15/09 Q1011 BECMG VRB02KT', 'LDSP 081330Z 24006KT 9999 FEW040 16/09 Q1011 BECMG VRB02KT', 'LDSP 081300Z 14004KT 100V260 9999 FEW040 16/09 Q1012 NOSIG', 'LDSP 081230Z 20004KT 100V260 9999 FEW038 15/09 Q1012 NOSIG', 'LDSP 081200Z VRB04KT 9999 FEW032 16/09 Q1012 NOSIG', 'LDSP 081130Z 12004KT 090V170 9999 FEW030 15/09 Q1012 NOSIG', 'LDSP 081100Z 11004KT 040V150 9999 FEW030 15/10 Q1012 NOSIG', 'LDSP 081030Z VRB02KT 9999 FEW028 15/09 Q1013 NOSIG', 'LDSP 081000Z 24003KT 9999 FEW025 14/09 Q1013 NOSIG', 'LDSP 080930Z 24003KT 130V260 9999 FEW025 14/10 Q1013 NOSIG', 'LDSP 080900Z 00000KT 9999 FEW025 14/11 Q1013 NOSIG', 'LDSP 080830Z 00000KT 9999 FEW030 SCT065 13/11 Q1012 NOSIG', 'LDSP 080800Z 00000KT 9999 FEW030 SCT075 12/10 Q1013 NOSIG', 'LDSP 080730Z 00000KT 9999 SCT065 12/11 Q1012 NOSIG', 'LDSP 080700Z 00000KT 9999 FEW052 09/09 Q1012 NOSIG', 'LDSP 080630Z VRB02KT 9999 FEW022 SCT052 09/09 Q1012 NOSIG', 'LDSP 080600Z 30004KT 280V340 9999 FEW015 SCT075 08/08 Q1011 NOSIG', 'LDSP 080530Z 00000KT 9999 BKN075 09/09 Q1011 NOSIG', 'LDSP 080500Z 06001KT 9999 BKN072 09/09 Q1011 NOSIG', 'LDSP 080430Z AUTO VRB01KT 9999 OVC075/// 09/09 Q1011 NOSIG', 'LDSP 080400Z AUTO VRB02KT 9999 FEW020/// OVC076/// 09/09 Q1011 NOSIG', 'LDSP 080330Z AUTO 00000KT 9999 OVC077/// 09/09 Q1011 NOSIG', 'LDSP 080300Z AUTO VRB01KT 9999 OVC076/// 09/08 Q1011 NOSIG', 'LDSP 080230Z AUTO 00000KT 9999 OVC076/// 09/09 Q1011', 'LDSP 080130Z AUTO 30003KT 9999 BKN076/// 10/09 Q1012', 'LDSP 080100Z AUTO 31004KT 9999 OVC077/// 09/09 Q1012', 'LDSP 080030Z AUTO VRB01KT 9999 SCT018/// SCT020/// BKN077/// 10/09 Q1012', 'LDSP 080000Z AUTO 31004KT 9999 SCT020/// BKN079/// 10/09 Q1012', 'LDSP 072330Z AUTO 30004KT 280V340 9999 SCT026/// SCT029/// 10/09 Q1013', 'LDSP 072300Z AUTO VRB02KT CAVOK 09/08 Q1013', 'LDSP 072230Z AUTO 31003KT 280V090 CAVOK 09/08 Q1013', 'LDSP 072200Z AUTO 29004KT 280V080 CAVOK 09/08 Q1013', 'LDSP 072130Z AUTO VRB03KT 9999 FEW025/// 10/09 Q1013', 'LDSP 072100Z VRB03KT 9999 SCT035 11/10 Q1013 NOSIG', 'LDSP 072030Z 06003KT 9999 FEW022 SCT035 11/10 Q1013 NOSIG', 'LDSP 072000Z 09003KT 050V120 9999 FEW015 BKN022 12/10 Q1013 NOSIG', 'LDSP 071930Z VRB02KT 9999 FEW016 BKN022 13/11 Q1014 NOSIG', 'LDSP 071900Z 10004KT 050V120 9999 FEW020 BKN045 13/11 Q1014 NOSIG', 'LDSP 071830Z 13004KT 100V240 9999 FEW016 BKN023 13/11 Q1014 NOSIG', 'LDSP 071800Z 11004KT 9999 BKN025 13/11 Q1014 NOSIG', 'LDSP 071730Z 12005KT 9999 BKN025 13/11 Q1014 NOSIG', 'LDSP 071700Z VRB01KT 9999 BKN025 13/11 Q1014 NOSIG', 'LDSP 071630Z 12004KT 9999 BKN025 13/11 Q1013 NOSIG', 'LDSP 071530Z 11004KT 9999 FEW025 BKN040 14/11 Q1014 NOSIG', 'LDSP 071500Z 12004KT 9999 FEW025 BKN030 14/11 Q1014 NOSIG', 'LDSP 071430Z 11007KT 9999 FEW025 BKN035 14/11 Q1014 NOSIG', 'LDSP 071400Z 11007KT 9999 FEW025 SCT035 14/11 Q1014 NOSIG', 'LDSP 071330Z 12005KT 080V140 9999 FEW030 15/10 Q1015 NOSIG', 'LDSP 071300Z 12004KT 9999 FEW035 15/10 Q1015 NOSIG', 'LDSP 071230Z 12004KT 9999 SCT035 15/09 Q1015 NOSIG', 'LDSP 071200Z 11005KT 9999 SCT035 14/09 Q1015 NOSIG', 'LDSP 071130Z 11006KT 060V130 9999 SCT040 15/09 Q1016 NOSIG', 'LDSP 071100Z 11006KT 9999 BKN055 14/09 Q1017 NOSIG', 'LDSP 071030Z 11007KT 9999 FEW035 BKN060 15/09 Q1017 NOSIG', 'LDSP 071000Z 11006KT 070V130 9999 FEW020 BKN060 15/10 Q1017 NOSIG', 'LDSP 070930Z 10006KT 060V120 9999 FEW018 BKN060 13/09 Q1017 NOSIG', 'LDSP 070900Z 08005KT 050V120 9999 SCT060 13/09 Q1018 NOSIG', 'LDSP 070830Z 06004KT 030V110 9999 SCT060 14/10 Q1018 NOSIG', 'LDSP 070800Z 05005KT 9999 FEW030 BKN060 13/10 Q1018 NOSIG', 'LDSP 070730Z 06004KT 030V090 9999 BKN030 12/09 Q1018 NOSIG', 'LDSP 070700Z 05004KT 280V090 9999 BKN030 12/09 Q1018 NOSIG', 'LDSP 070630Z VRB03KT 9999 FEW030 SCT055 11/09 Q1018 NOSIG', 'LDSP 070600Z 31003KT 280V080 9999 SCT055 11/09 Q1018 NOSIG', 'LDSP 070530Z 01004KT 280V090 9999 FEW020 BKN030 11/09 Q1018 NOSIG', 'LDSP 070500Z VRB04KT 9999 FEW020 BKN030 11/10 Q1018 NOSIG', 'LDSP 070430Z AUTO 06003KT 280V090 9999 OVC021/// 11/10 Q1018 NOSIG', 'LDSP 070400Z AUTO 06004KT 9999 FEW025/// SCT030/// BKN035/// 11/10 Q1018 NOSIG', 'LDSP 070330Z AUTO 07003KT 9999 FEW024/// BKN029/// BKN033/// 11/10 Q1018 NOSIG', 'LDSP 070300Z AUTO 05004KT 010V080 9999 FEW010/// BKN025/// OVC028/// 11/10 Q1018 NOSIG', 'LDSP 070230Z AUTO VRB01KT 9999 BKN024/// OVC028/// 10/09 Q1019', 'LDSP 070200Z AUTO 29003KT 280V070 9999 SCT012/// SCT028/// 10/09 Q1019', 'LDSP 070130Z AUTO 30003KT 280V040 9999 SCT024/// BKN056/// 11/09 Q1019', 'LDSP 070100Z AUTO 29003KT 270V080 9999 SCT054/// 11/09 Q1019', 'LDSP 070030Z AUTO VRB03KT 9999 SCT027/// OVC056/// 10/09 Q1020', 'LDSP 070000Z AUTO 06002KT 9999 FEW027/// OVC055/// 11/09 Q1020', 'LDSP 062330Z AUTO VRB01KT 9999 FEW027/// BKN053/// 10/09 Q1020', 'LDSP 062300Z AUTO 04003KT 280V080 9999 SCT029/// BKN055/// 11/09 Q1020', 'LDSP 062230Z AUTO 29004KT 280V020 9999 FEW023/// OVC056/// 12/09 Q1021', 'LDSP 062200Z AUTO VRB02KT 9999 SCT023/// OVC055/// 11/09 Q1021', 'LDSP 062130Z AUTO 30003KT 280V090 9999 OVC055/// 12/09 Q1021', 'LDSP 062100Z 01003KT 330V050 9999 FEW023 BKN055 11/09 Q1021 NOSIG', 'LDSP 062030Z VRB03KT 9999 FEW023 BKN055 11/09 Q1021 NOSIG', 'LDSP 062000Z 28003KT 9999 FEW023 BKN055 11/09 Q1021 NOSIG', 'LDSP 061930Z VRB02KT 9999 FEW025 BKN055 12/09 Q1022 NOSIG', 'LDSP 061900Z VRB05KT 9999 BKN055 12/09 Q1022 NOSIG', 'LDSP 061830Z 00000KT 9999 BKN055 12/10 Q1022 NOSIG', 'LDSP 061800Z 31003KT 280V350 9999 BKN055 12/09 Q1022 NOSIG', 'LDSP 061730Z 32002KT 9999 BKN055 13/09 Q1022 NOSIG', 'LDSP 061700Z 29003KT 280V350 9999 FEW025 BKN055 12/09 Q1021 NOSIG', 'LDSP 061630Z VRB03KT 9999 FEW025 BKN055 12/09 Q1021 NOSIG', 'LDSP 061600Z 05003KT 9999 FEW025 BKN055 12/09 Q1022 NOSIG', 'LDSP 061530Z 00000KT 9999 BKN050 13/10 Q1022 NOSIG', 'LDSP 061500Z 08004KT 050V110 9999 BKN050 13/10 Q1022 NOSIG', 'LDSP 061430Z 07002KT 9999 BKN050 14/09 Q1022 NOSIG', 'LDSP 061400Z 10004KT 9999 BKN050 14/10 Q1022 NOSIG', 'LDSP 061330Z 12003KT 9999 BKN050 14/09 Q1022 NOSIG', 'LDSP 061300Z 11003KT 350V130 9999 BKN050 15/08 Q1022 NOSIG', 'LDSP 061230Z 11003KT 9999 BKN046 15/07 Q1023 NOSIG', 'LDSP 061200Z 12004KT 9999 BKN046 15/07 Q1023 NOSIG', 'LDSP 061130Z 11004KT 9999 SCT040 14/08 Q1023 NOSIG', 'LDSP 061100Z 11004KT 080V160 9999 SCT040 14/08 Q1023 NOSIG', 'LDSP 061030Z 11005KT 9999 SCT040 15/08 Q1024 NOSIG', 'LDSP 061000Z 07003KT 010V120 9999 FEW040 14/08 Q1024 NOSIG', 'LDSP 060930Z 09004KT 050V130 CAVOK 14/08 Q1024 NOSIG', 'LDSP 060900Z 08005KT 050V110 CAVOK 13/07 Q1024 NOSIG', 'LDSP 060830Z 05005KT CAVOK 13/08 Q1024 NOSIG', 'LDSP 060800Z 07003KT 010V090 CAVOK 11/09 Q1024 NOSIG', 'LDSP 060730Z 00000KT CAVOK 10/08 Q1024 NOSIG', 'LDSP 060700Z 30003KT 9999 FEW030 09/08 Q1024 NOSIG', 'LDSP 060630Z VRB01KT 9999 SCT030 BKN060 09/08 Q1024 NOSIG', 'LDSP 060600Z 06004KT 9999 SCT030 BKN060 09/08 Q1024 NOSIG', 'LDSP 060530Z 00000KT 9999 FEW028 BKN060 09/08 Q1024 NOSIG', 'LDSP 060500Z 00000KT 9999 FEW024 BKN060 09/08 Q1024 NOSIG', 'LDSP 060430Z AUTO 00000KT 9999 BKN023/// OVC027/// 09/08 Q1024 NOSIG', 'LDSP 060400Z AUTO 00000KT 9999 BKN030/// OVC034/// 08/07 Q1024 NOSIG', 'LDSP 060330Z AUTO 00000KT 9999 BKN026/// OVC029/// 09/07 Q1024 NOSIG', 'LDSP 060300Z AUTO 00000KT 9999 BKN023/// BKN031/// 08/07 Q1024 NOSIG', 'LDSP 060230Z AUTO 10002KT 9999 FEW016/// 08/07 Q1025', 'LDSP 060200Z AUTO 00000KT 9999 FEW026/// BKN030/// 08/07 Q1025', 'LDSP 060130Z AUTO 00000KT 9999 BKN027/// 08/08 Q1025', 'LDSP 060100Z AUTO 00000KT 9999 SCT021/// BKN025/// BKN028/// 08/07 Q1025', 'LDSP 060030Z AUTO 30003KT 280V050 9999 SCT020/// BKN024/// 09/07 Q1025', 'LDSP 060000Z AUTO VRB05KT 9999 SCT017/// BKN019/// 07/07 Q1025', 'LDSP 052330Z AUTO 00000KT 9999 FEW018/// 06/05 Q1025', 'LDSP 052300Z AUTO VRB01KT CAVOK 08/07 Q1025', 'LDSP 052230Z AUTO 00000KT CAVOK 08/07 Q1025', 'LDSP 052200Z AUTO 00000KT 9999 OVC026/// 09/08 Q1025', 'LDSP 052130Z AUTO 29004KT 270V040 9999 SCT026/// 08/07 Q1025', 'LDSP 052100Z VRB02KT CAVOK 08/07 Q1025 NOSIG', 'LDSP 052030Z 06003KT 030V090 CAVOK 08/07 Q1025 NOSIG', 'LDSP 052000Z VRB01KT CAVOK 08/07 Q1025 NOSIG', 'LDSP 051930Z VRB02KT CAVOK 10/08 Q1025 NOSIG', 'LDSP 051900Z 31002KT 9999 FEW025 09/07 Q1025 NOSIG', 'LDSP 051830Z 29001KT CAVOK 10/08 Q1024 NOSIG', 'LDSP 051800Z 29003KT CAVOK 10/08 Q1024 NOSIG', 'LDSP 051730Z 30003KT CAVOK 10/07 Q1024 NOSIG', 'LDSP 051700Z 30004KT 280V070 CAVOK 10/08 Q1024 NOSIG']","['2024-02-08 16:00:00', '2024-02-08 15:30:00', '2024-02-08 15:00:00', '2024-02-08 14:30:00', '2024-02-08 13:30:00', '2024-02-08 13:00:00', '2024-02-08 12:30:00', '2024-02-08 12:00:00', '2024-02-08 11:30:00', '2024-02-08 11:00:00', '2024-02-08 10:30:00', '2024-02-08 10:00:00', '2024-02-08 09:30:00', '2024-02-08 09:00:00', '2024-02-08 08:30:00', '2024-02-08 08:00:00', '2024-02-08 07:30:00', '2024-02-08 07:00:00', '2024-02-08 06:30:00', '2024-02-08 06:00:00', '2024-02-08 05:30:00', '2024-02-08 05:00:00', '2024-02-08 04:30:00', '2024-02-08 04:00:00', '2024-02-08 03:30:00', '2024-02-08 03:00:00', '2024-02-08 02:30:00', '2024-02-08 01:30:00', '2024-02-08 01:00:00', '2024-02-08 00:30:00', '2024-02-08 00:00:00', '2024-02-07 23:30:00', '2024-02-07 23:00:00', '2024-02-07 22:30:00', '2024-02-07 22:00:00', '2024-02-07 21:30:00', '2024-02-07 21:00:00', '2024-02-07 20:30:00', '2024-02-07 20:00:00', '2024-02-07 19:30:00', '2024-02-07 19:00:00', '2024-02-07 18:30:00', '2024-02-07 18:00:00', '2024-02-07 17:30:00', '2024-02-07 17:00:00', '2024-02-07 16:30:00', '2024-02-07 15:30:00', '2024-02-07 15:00:00', '2024-02-07 14:30:00', '2024-02-07 14:00:00', '2024-02-07 13:30:00', '2024-02-07 13:00:00', '2024-02-07 12:30:00', '2024-02-07 12:00:00', '2024-02-07 11:30:00', '2024-02-07 11:00:00', '2024-02-07 10:30:00', '2024-02-07 10:00:00', '2024-02-07 09:30:00', '2024-02-07 09:00:00', '2024-02-07 08:30:00', '2024-02-07 08:00:00', '2024-02-07 07:30:00', '2024-02-07 07:00:00', '2024-02-07 06:30:00', '2024-02-07 06:00:00', '2024-02-07 05:30:00', '2024-02-07 05:00:00', '2024-02-07 04:30:00', '2024-02-07 04:00:00', '2024-02-07 03:30:00', '2024-02-07 03:00:00', '2024-02-07 02:30:00', '2024-02-07 02:00:00', '2024-02-07 01:30:00', '2024-02-07 01:00:00', '2024-02-07 00:30:00', '2024-02-07 00:00:00', '2024-02-06 23:30:00', '2024-02-06 23:00:00', '2024-02-06 22:30:00', '2024-02-06 22:00:00', '2024-02-06 21:30:00', '2024-02-06 21:00:00', '2024-02-06 20:30:00', '2024-02-06 20:00:00', '2024-02-06 19:30:00', '2024-02-06 19:00:00', '2024-02-06 18:30:00', '2024-02-06 18:00:00', '2024-02-06 17:30:00', '2024-02-06 17:00:00', '2024-02-06 16:30:00', '2024-02-06 16:00:00', '2024-02-06 15:30:00', '2024-02-06 15:00:00', '2024-02-06 14:30:00', '2024-02-06 14:00:00', '2024-02-06 13:30:00', '2024-02-06 13:00:00', '2024-02-06 12:30:00', '2024-02-06 12:00:00', '2024-02-06 11:30:00', '2024-02-06 11:00:00', '2024-02-06 10:30:00', '2024-02-06 10:00:00', '2024-02-06 09:30:00', '2024-02-06 09:00:00', '2024-02-06 08:30:00', '2024-02-06 08:00:00', '2024-02-06 07:30:00', '2024-02-06 07:00:00', '2024-02-06 06:30:00', '2024-02-06 06:00:00', '2024-02-06 05:30:00', '2024-02-06 05:00:00', '2024-02-06 04:30:00', '2024-02-06 04:00:00', '2024-02-06 03:30:00', '2024-02-06 03:00:00', '2024-02-06 02:30:00', '2024-02-06 02:00:00', '2024-02-06 01:30:00', '2024-02-06 01:00:00', '2024-02-06 00:30:00', '2024-02-06 00:00:00', '2024-02-05 23:30:00', '2024-02-05 23:00:00', '2024-02-05 22:30:00', '2024-02-05 22:00:00', '2024-02-05 21:30:00', '2024-02-05 21:00:00', '2024-02-05 20:30:00', '2024-02-05 20:00:00', '2024-02-05 19:30:00', '2024-02-05 19:00:00', '2024-02-05 18:30:00', '2024-02-05 18:00:00', '2024-02-05 17:30:00', '2024-02-05 17:00:00']"
Croatia, Zadar Airport (ZAD/LDZD) ,"['LDZD 081600Z 19006KT CAVOK 14/09 Q1010 NOSIG', 'LDZD 081530Z 19007KT 160V220 CAVOK 15/07 Q1010 NOSIG', 'LDZD 081500Z 22006KT 190V250 CAVOK 15/06 Q1011 NOSIG', 'LDZD 081430Z 21007KT 160V250 9999 FEW050 16/06 Q1011 NOSIG', 'LDZD 081400Z 23008KT 200V270 9999 FEW050 16/07 Q1011 NOSIG', 'LDZD 081330Z 22008KT 200V270 9999 FEW050 16/07 Q1011 NOSIG', 'LDZD 081300Z 21007KT 160V300 9999 FEW050 16/07 Q1011 NOSIG', 'LDZD 081230Z 25007KT 190V290 9999 FEW050 16/07 Q1011 NOSIG', 'LDZD 081200Z 22008KT 170V270 9999 SCT050 15/08 Q1011 NOSIG', 'LDZD 081130Z 22006KT 150V270 9999 FEW023 SCT060 15/07 Q1011 NOSIG', 'LDZD 081100Z 22007KT 190V260 9999 FEW020 SCT065 15/08 Q1012 NOSIG', 'LDZD 081030Z 24007KT 200V290 9999 FEW020 SCT065 15/09 Q1012 NOSIG', 'LDZD 081000Z 22005KT 130V280 9999 FEW016 SCT065 14/10 Q1012 TEMPO 20007KT', 'LDZD 080930Z 15006KT 9999 FEW040 BKN065 13/11 Q1012 NOSIG', 'LDZD 080900Z 15004KT 110V170 9999 BKN060 13/11 Q1012 NOSIG', 'LDZD 080830Z 15005KT 110V170 9999 BKN060 12/10 Q1012 NOSIG', 'LDZD 080800Z 14005KT 9999 FEW040 SCT065 12/10 Q1012 BECMG 14007KT', 'LDZD 080730Z 14005KT 9999 FEW020 BKN045 11/10 Q1012 BECMG 14007KT', 'LDZD 080700Z 13004KT 9999 FEW020 BKN040 10/09 Q1011 BECMG 13007KT', 'LDZD 080630Z 15004KT 9999 FEW012 BKN040 10/09 Q1011 BECMG 13007KT', 'LDZD 080600Z 14006KT 9999 FEW012 BKN040 10/09 Q1011 BECMG 13007KT', 'LDZD 080530Z 13005KT 9999 FEW020 SCT040 BKN075 10/09 Q1011 BECMG 13007KT', 'LDZD 080500Z 14007KT 9999 FEW014 SCT030 BKN075 10/09 Q1011 NOSIG', 'LDZD 080430Z 15006KT 9999 FEW014 SCT030 BKN075 10/09 Q1010', 'LDZD 080400Z 14007KT 9999 FEW024 SCT040 BKN075 10/10 Q1011', 'LDZD 080330Z 14006KT 9999 BKN040 10/10 Q1011', 'LDZD 080300Z 14005KT 9999 BKN040 11/10 Q1011', 'LDZD 080230Z 15005KT 9999 BKN050 11/10 Q1011', 'LDZD 080130Z 14006KT 9999 BKN050 10/09 Q1011', 'LDZD 080100Z 14008KT 9999 BKN050 11/10 Q1011', 'LDZD 080030Z 15007KT 9999 BKN050 11/10 Q1011', 'LDZD 080000Z 13007KT 9999 BKN050 11/10 Q1012', 'LDZD 072330Z 12006KT 9999 BKN050 11/10 Q1012', 'LDZD 072300Z 14006KT 9999 BKN050 10/10 Q1012', 'LDZD 072230Z 13005KT 9999 BKN050 10/10 Q1012', 'LDZD 072200Z 12006KT 9999 FEW015 BKN050 11/10 Q1012', 'LDZD 072130Z 12005KT 9999 FEW012 BKN050 10/09 Q1012', 'LDZD 072100Z 13005KT 9999 FEW012 BKN050 10/09 Q1012', 'LDZD 072030Z 12005KT 9999 BKN070 11/10 Q1012', 'LDZD 072000Z 11005KT 9999 BKN070 11/10 Q1012', 'LDZD 071930Z 12005KT 9999 BKN070 11/10 Q1013', 'LDZD 071900Z 12006KT 9999 FEW040 BKN070 11/10 Q1013 NOSIG', 'LDZD 071830Z 13005KT 9999 FEW040 BKN070 11/10 Q1013 NOSIG', 'LDZD 071800Z 15005KT 9999 FEW040 BKN070 11/10 Q1013 NOSIG', 'LDZD 071730Z 14006KT 110V170 9999 FEW040 BKN070 11/10 Q1013 NOSIG', 'LDZD 071630Z 21004KT 180V240 9999 FEW020 SCT040 12/10 Q1013 NOSIG', 'LDZD 071600Z 21005KT 9999 FEW020 SCT040 13/10 Q1013 NOSIG', 'LDZD 071530Z 20007KT 170V240 9999 FEW020 SCT040 13/10 Q1013 BECMG 12005KT', 'LDZD 071500Z 22009KT 9999 FEW020 SCT030 14/10 Q1013 BECMG 12005KT', 'LDZD 071430Z 22009KT 170V250 9999 FEW020 SCT030 15/09 Q1014 BECMG 12005KT', 'LDZD 071400Z 20007KT 170V230 9999 FEW020 SCT030 14/10 Q1014 BECMG 12005KT', 'LDZD 071330Z 20009KT 170V230 9999 FEW020 SCT030 14/09 Q1014 NOSIG', 'LDZD 071300Z 20010KT 160V230 9999 FEW020 SCT030 14/10 Q1014 NOSIG', 'LDZD 071230Z 18009KT 140V230 9999 FEW017 SCT030 15/09 Q1015 NOSIG', 'LDZD 071200Z 19009KT 160V220 9999 FEW017 SCT055 14/09 Q1015 NOSIG', 'LDZD 071130Z 19007KT 9999 FEW017 SCT055 14/10 Q1016 NOSIG', 'LDZD 071100Z 19007KT 160V230 9999 FEW017 SCT055 14/10 Q1016 NOSIG', 'LDZD 071030Z 20009KT 170V230 9999 FEW017 SCT055 14/11 Q1016 NOSIG', 'LDZD 071000Z 19011KT 9999 FEW027 SCT055 14/11 Q1017 NOSIG', 'LDZD 070930Z 19009KT 160V240 9999 FEW027 SCT040 14/10 Q1017 BECMG 18010KT', 'LDZD 070900Z 17007KT 140V210 9999 FEW027 14/10 Q1017 BECMG 18010KT', 'LDZD 070830Z 16004KT 120V190 9999 FEW040 SCT070 13/11 Q1017 BECMG 14010KT', 'LDZD 070800Z 13003KT 9999 FEW040 SCT070 12/11 Q1017 BECMG 14010KT', 'LDZD 070730Z 13005KT 9999 FEW040 SCT070 11/11 Q1017 BECMG 14010KT', 'LDZD 070700Z 11005KT 8000 FEW040 BKN070 11/10 Q1017 BECMG 14010KT', 'LDZD 070630Z 14006KT 6000 FEW030 BKN050 10/09 Q1017 BECMG 14010KT', 'LDZD 070600Z 14006KT 4500 BR FEW030 BKN050 10/09 Q1017 BECMG 14010KT 9999 NSW', 'LDZD 070530Z VRB02KT 4000 BR FEW030 SCT050 10/09 Q1017 BECMG 14010KT 9999 NSW', 'LDZD 070500Z 13003KT 4000 BR FEW030 SCT050 10/09 Q1017 BECMG 14010KT 9999 NSW', 'LDZD 070430Z 14006KT 4000 BR FEW020 BKN050 09/09 Q1017', 'LDZD 070400Z 12004KT 6000 FEW020 BKN050 10/09 Q1018', 'LDZD 070330Z 13002KT 3000 BR FEW020 SCT050 10/09 Q1018', 'LDZD 070300Z 11003KT 3000 BR FEW020 SCT050 10/09 Q1018', 'LDZD 070200Z 12003KT 3000 BCFG SCT050 10/09 Q1018', 'LDZD 070130Z 12003KT 3000 BR SCT050 09/09 Q1019', 'LDZD 070100Z 10004KT 3000 BR SCT050 10/09 Q1019', 'LDZD 070030Z 09003KT 4000 BR SCT050 09/09 Q1019', 'LDZD 070000Z 12003KT 4000 BR SCT050 10/09 Q1019', 'LDZD 062330Z 13002KT 4000 BR BKN050 10/09 Q1019', 'LDZD 062300Z 12003KT 4000 BR FEW030 BKN050 09/09 Q1020', 'LDZD 062230Z 10004KT 8000 FEW030 BKN050 10/09 Q1020', 'LDZD 062200Z 09003KT 8000 FEW030 BKN050 10/10 Q1020', 'LDZD 062130Z 11003KT 4000 BR FEW012 BKN050 10/09 Q1021', 'LDZD 062100Z 14002KT 3000 BR FEW015 BKN050 10/09 Q1021 NOSIG', 'LDZD 062030Z 14001KT 4000 BR FEW015 BKN050 10/09 Q1021 NOSIG', 'LDZD 062000Z 16002KT 6000 BKN050 10/10 Q1021 NOSIG', 'LDZD 061930Z 13004KT 6000 BKN050 10/09 Q1021 NOSIG', 'LDZD 061900Z 13003KT 6000 BKN050 10/10 Q1021 NOSIG', 'LDZD 061830Z 14004KT 7000 BKN040 11/10 Q1021 NOSIG', 'LDZD 061800Z VRB02KT 9999 FEW030 BKN050 11/10 Q1021 NOSIG', 'LDZD 061730Z 12002KT 9999 FEW030 BKN050 11/10 Q1021 NOSIG', 'LDZD 061700Z VRB02KT 9999 FEW020 BKN050 12/10 Q1021 NOSIG', 'LDZD 061630Z 11002KT 9999 FEW020 BKN050 12/10 Q1021 NOSIG', 'LDZD 061600Z 13004KT 9999 FEW020 BKN050 13/10 Q1021 NOSIG', 'LDZD 061530Z 00000KT 9999 FEW020 BKN050 13/09 Q1021 NOSIG', 'LDZD 061500Z VRB01KT 9999 FEW030 BKN050 13/09 Q1021 NOSIG', 'LDZD 061430Z VRB02KT 9999 FEW027 BKN045 14/09 Q1022 NOSIG', 'LDZD 061400Z 17004KT 140V210 9999 FEW027 BKN040 13/10 Q1022 NOSIG', 'LDZD 061330Z 17005KT 140V200 9999 FEW027 BKN040 13/10 Q1022 NOSIG', 'LDZD 061300Z 18005KT 140V210 9999 FEW027 BKN045 13/10 Q1022 NOSIG', 'LDZD 061230Z 16004KT 120V200 9999 FEW020 BKN040 13/10 Q1022 NOSIG', 'LDZD 061200Z 14003KT 110V190 9999 FEW020 BKN040 12/10 Q1023 NOSIG', 'LDZD 061130Z 16003KT 9999 SCT020 BKN035 12/10 Q1023 TEMPO 20008KT', 'LDZD 061100Z 15005KT 9999 FEW023 BKN040 12/09 Q1023 NOSIG', 'LDZD 061030Z 14006KT 9999 FEW030 BKN040 12/09 Q1024 NOSIG', 'LDZD 061000Z 13005KT 9999 FEW030 BKN042 12/09 Q1024 NOSIG', 'LDZD 060930Z 12005KT 090V150 9999 FEW030 BKN045 12/09 Q1024 NOSIG', 'LDZD 060900Z 17004KT 120V210 9999 FEW030 BKN045 11/09 Q1024 NOSIG', 'LDZD 060830Z 15004KT 120V190 9999 SCT045 10/09 Q1024 NOSIG', 'LDZD 060800Z 13003KT 100V160 9999 FEW027 08/08 Q1024 NOSIG', 'LDZD 060730Z VRB01KT 7000 FEW025 SCT047 08/07 Q1024 NOSIG', 'LDZD 060700Z 11003KT 3000 BR FEW025 SCT047 06/05 Q1024 BECMG FM0800 6000 NSW', 'LDZD 060630Z 10003KT 3000 BR FEW025 07/06 Q1024 BECMG FM0800 6000 NSW', 'LDZD 060600Z VRB01KT 8000 FEW025 07/07 Q1024 NOSIG', 'LDZD 060530Z 13005KT 7000 FEW020 07/07 Q1023 TEMPO 3000 BR', 'LDZD 060500Z 12005KT 7000 FEW020 07/07 Q1023 NOSIG', 'LDZD 060430Z 13006KT 7000 FEW020 SCT030 08/08 Q1024', 'LDZD 060400Z VRB02KT 7000 FEW020 SCT030 08/08 Q1024', 'LDZD 060330Z 10004KT 7000 FEW025 SCT033 08/08 Q1024', 'LDZD 060300Z 12003KT 090V160 7000 FEW025 SCT033 08/08 Q1024', 'LDZD 060230Z 16003KT 5000 BR BKN033 08/08 Q1024', 'LDZD 060200Z 13003KT 5000 BR BKN033 08/08 Q1024', 'LDZD 060130Z 10005KT 5000 BR SCT025 09/08 Q1025', 'LDZD 060100Z 10005KT 5000 BR SCT025 09/08 Q1025', 'LDZD 060030Z 14003KT 5000 BR SCT025 08/08 Q1025', 'LDZD 060000Z 15003KT 5000 BR SCT025 07/07 Q1025', 'LDZD 052330Z 16003KT 130V190 8000 SCT025 06/06 Q1025', 'LDZD 052300Z 14001KT 2500 BR SCT025 07/07 Q1025', 'LDZD 052230Z 14002KT 0900 R13/1100U FG NSC 07/06 Q1025', 'LDZD 052200Z 13003KT 0400 R13/0500D FG NSC 05/05 Q1025', 'LDZD 052130Z 12003KT 0800 R13/1100U FG NSC 04/04 Q1025', 'LDZD 052100Z VRB02KT 0600 R13/1400U FG NSC 06/05 Q1025', 'LDZD 052030Z VRB01KT 0500 R13/0800N FG NSC 04/04 Q1025', 'LDZD 052000Z 10003KT 0500 R13/0700U FG NSC 07/06 Q1025', 'LDZD 051930Z 16002KT 0200 R13/0300N FG NSC 07/07 Q1025', 'LDZD 051900Z 12004KT 0500 R13/0500N FG NSC 07/06 Q1025 TEMPO 1500 BCFG', 'LDZD 051830Z 11003KT 1500 0500N R13/1000N BCFG NSC 08/08 Q1025 TEMPO 1500 BCFG', 'LDZD 051800Z 16003KT 1800 BCFG NSC 09/08 Q1024 TEMPO 0300 FG', 'LDZD 051730Z 13004KT CAVOK 07/06 Q1024 BECMG FM1800 2000 BCFG', 'LDZD 051700Z 12004KT 9999 FEW027 10/08 Q1024 BECMG FM1800 2000 BCFG']","['2024-02-08 16:00:00', '2024-02-08 15:30:00', '2024-02-08 15:00:00', '2024-02-08 14:30:00', '2024-02-08 14:00:00', '2024-02-08 13:30:00', '2024-02-08 13:00:00', '2024-02-08 12:30:00', '2024-02-08 12:00:00', '2024-02-08 11:30:00', '2024-02-08 11:00:00', '2024-02-08 10:30:00', '2024-02-08 10:00:00', '2024-02-08 09:30:00', '2024-02-08 09:00:00', '2024-02-08 08:30:00', '2024-02-08 08:00:00', '2024-02-08 07:30:00', '2024-02-08 07:00:00', '2024-02-08 06:30:00', '2024-02-08 06:00:00', '2024-02-08 05:30:00', '2024-02-08 05:00:00', '2024-02-08 04:30:00', '2024-02-08 04:00:00', '2024-02-08 03:30:00', '2024-02-08 03:00:00', '2024-02-08 02:30:00', '2024-02-08 01:30:00', '2024-02-08 01:00:00', '2024-02-08 00:30:00', '2024-02-08 00:00:00', '2024-02-07 23:30:00', '2024-02-07 23:00:00', '2024-02-07 22:30:00', '2024-02-07 22:00:00', '2024-02-07 21:30:00', '2024-02-07 21:00:00', '2024-02-07 20:30:00', '2024-02-07 20:00:00', '2024-02-07 19:30:00', '2024-02-07 19:00:00', '2024-02-07 18:30:00', '2024-02-07 18:00:00', '2024-02-07 17:30:00', '2024-02-07 16:30:00', '2024-02-07 16:00:00', '2024-02-07 15:30:00', '2024-02-07 15:00:00', '2024-02-07 14:30:00', '2024-02-07 14:00:00', '2024-02-07 13:30:00', '2024-02-07 13:00:00', '2024-02-07 12:30:00', '2024-02-07 12:00:00', '2024-02-07 11:30:00', '2024-02-07 11:00:00', '2024-02-07 10:30:00', '2024-02-07 10:00:00', '2024-02-07 09:30:00', '2024-02-07 09:00:00', '2024-02-07 08:30:00', '2024-02-07 08:00:00', '2024-02-07 07:30:00', '2024-02-07 07:00:00', '2024-02-07 06:30:00', '2024-02-07 06:00:00', '2024-02-07 05:30:00', '2024-02-07 05:00:00', '2024-02-07 04:30:00', '2024-02-07 04:00:00', '2024-02-07 03:30:00', '2024-02-07 03:00:00', '2024-02-07 02:00:00', '2024-02-07 01:30:00', '2024-02-07 01:00:00', '2024-02-07 00:30:00', '2024-02-07 00:00:00', '2024-02-06 23:30:00', '2024-02-06 23:00:00', '2024-02-06 22:30:00', '2024-02-06 22:00:00', '2024-02-06 21:30:00', '2024-02-06 21:00:00', '2024-02-06 20:30:00', '2024-02-06 20:00:00', '2024-02-06 19:30:00', '2024-02-06 19:00:00', '2024-02-06 18:30:00', '2024-02-06 18:00:00', '2024-02-06 17:30:00', '2024-02-06 17:00:00', '2024-02-06 16:30:00', '2024-02-06 16:00:00', '2024-02-06 15:30:00', '2024-02-06 15:00:00', '2024-02-06 14:30:00', '2024-02-06 14:00:00', '2024-02-06 13:30:00', '2024-02-06 13:00:00', '2024-02-06 12:30:00', '2024-02-06 12:00:00', '2024-02-06 11:30:00', '2024-02-06 11:00:00', '2024-02-06 10:30:00', '2024-02-06 10:00:00', '2024-02-06 09:30:00', '2024-02-06 09:00:00', '2024-02-06 08:30:00', '2024-02-06 08:00:00', '2024-02-06 07:30:00', '2024-02-06 07:00:00', '2024-02-06 06:30:00', '2024-02-06 06:00:00', '2024-02-06 05:30:00', '2024-02-06 05:00:00', '2024-02-06 04:30:00', '2024-02-06 04:00:00', '2024-02-06 03:30:00', '2024-02-06 03:00:00', '2024-02-06 02:30:00', '2024-02-06 02:00:00', '2024-02-06 01:30:00', '2024-02-06 01:00:00', '2024-02-06 00:30:00', '2024-02-06 00:00:00', '2024-02-05 23:30:00', '2024-02-05 23:00:00', '2024-02-05 22:30:00', '2024-02-05 22:00:00', '2024-02-05 21:30:00', '2024-02-05 21:00:00', '2024-02-05 20:30:00', '2024-02-05 20:00:00', '2024-02-05 19:30:00', '2024-02-05 19:00:00', '2024-02-05 18:30:00', '2024-02-05 18:00:00', '2024-02-05 17:30:00', '2024-02-05 17:00:00']"
Croatia, Zagreb Franjo Tudman Airport (ZAG/LDZA) ,"['LDZA 081600Z 25012KT CAVOK 14/04 Q1006 NOSIG', 'LDZA 081530Z 25013KT CAVOK 15/04 Q1006 NOSIG', 'LDZA 081500Z 24015KT CAVOK 16/04 Q1006 NOSIG', 'LDZA 081430Z 24015KT 210V280 CAVOK 16/04 Q1006 NOSIG', 'LDZA 081400Z 25018KT 210V270 CAVOK 17/04 Q1006 NOSIG', 'LDZA 081330Z 25016KT 220V280 CAVOK 17/05 Q1006 NOSIG', 'LDZA 081300Z 25015KT 210V290 CAVOK 17/05 Q1006 NOSIG', 'LDZA 081230Z 25018KT 9999 FEW045 17/05 Q1007 NOSIG', 'LDZA 081200Z 26016KT 230V290 9999 FEW045 17/05 Q1007 NOSIG', 'LDZA 081130Z 25017KT 230V300 9999 FEW045 16/05 Q1007 NOSIG', 'LDZA 081100Z 25016KT 220V280 9999 FEW045 16/05 Q1007 NOSIG', 'LDZA 081030Z 25015KT 200V280 9999 FEW040 16/06 Q1007 NOSIG', 'LDZA 081000Z 26013KT 230V290 9999 FEW040 15/06 Q1008 NOSIG', 'LDZA 080930Z 25012KT CAVOK 15/06 Q1008 NOSIG', 'LDZA 080900Z 26010KT CAVOK 14/06 Q1008 NOSIG', 'LDZA 080830Z 26006KT 230V290 CAVOK 12/06 Q1008 BECMG 24010KT', 'LDZA 080800Z VRB01KT CAVOK 10/06 Q1008 BECMG 24010KT', 'LDZA 080730Z 24004KT 210V280 CAVOK 08/06 Q1007 BECMG 24010KT', 'LDZA 080700Z 21005KT CAVOK 07/05 Q1007 NOSIG', 'LDZA 080630Z 21004KT CAVOK 06/04 Q1007 NOSIG', 'LDZA 080600Z 24004KT CAVOK 06/04 Q1007 NOSIG', 'LDZA 080530Z 22004KT CAVOK 06/04 Q1007 NOSIG', 'LDZA 080500Z 27005KT CAVOK 06/04 Q1007 NOSIG', 'LDZA 080430Z VRB02KT CAVOK 06/04 Q1007 NOSIG', 'LDZA 080400Z VRB02KT CAVOK 06/04 Q1006 NOSIG', 'LDZA 080330Z 26004KT CAVOK 07/04 Q1006 NOSIG', 'LDZA 080300Z 26006KT CAVOK 07/04 Q1006 NOSIG', 'LDZA 080230Z 24005KT CAVOK 07/04 Q1007 NOSIG', 'LDZA 080130Z 24004KT 210V280 CAVOK 07/04 Q1007 NOSIG', 'LDZA 080100Z VRB02KT CAVOK 08/04 Q1007 NOSIG', 'LDZA 080030Z 23007KT CAVOK 08/05 Q1007 NOSIG', 'LDZA 080000Z 24006KT 210V280 CAVOK 07/04 Q1008 NOSIG', 'LDZA 072330Z 22005KT CAVOK 07/04 Q1008 NOSIG', 'LDZA 072300Z 22007KT CAVOK 07/04 Q1008 NOSIG', 'LDZA 072230Z 22005KT CAVOK 07/04 Q1008 NOSIG', 'LDZA 072200Z VRB02KT CAVOK 08/04 Q1008 NOSIG', 'LDZA 072130Z 25004KT CAVOK 08/04 Q1008 NOSIG', 'LDZA 072100Z 22006KT CAVOK 08/04 Q1008 NOSIG', 'LDZA 072030Z 22007KT 190V250 CAVOK 09/04 Q1009 NOSIG', 'LDZA 072000Z 22008KT 190V250 CAVOK 10/04 Q1009 NOSIG', 'LDZA 071930Z 22009KT CAVOK 10/05 Q1009 NOSIG', 'LDZA 071900Z 22007KT CAVOK 10/04 Q1009 BECMG 24006KT', 'LDZA 071830Z 22008KT 190V250 CAVOK 10/05 Q1009 BECMG 24006KT', 'LDZA 071800Z 22008KT CAVOK 10/04 Q1009 BECMG 24006KT', 'LDZA 071730Z 23008KT CAVOK 11/05 Q1009 BECMG 24006KT', 'LDZA 071700Z 22008KT 190V250 CAVOK 12/05 Q1009 BECMG 24006KT', 'LDZA 071630Z 22008KT 170V250 CAVOK 12/05 Q1009 BECMG 24006KT', 'LDZA 071600Z 24012KT CAVOK 14/05 Q1009 BECMG 24006KT', 'LDZA 071530Z 23011KT 200V260 CAVOK 14/05 Q1010 NOSIG', 'LDZA 071500Z 24015KT 210V270 CAVOK 15/05 Q1010 NOSIG', 'LDZA 071430Z 24017KT 200V280 9999 FEW045 15/05 Q1010 NOSIG', 'LDZA 071400Z 24017KT 180V280 9999 FEW045 15/05 Q1010 NOSIG', 'LDZA 071330Z 25014KT 9999 FEW045 15/04 Q1010 NOSIG', 'LDZA 071300Z 25016KT 9999 FEW045 15/05 Q1010 NOSIG', 'LDZA 071230Z 26014KT 9999 FEW040 15/05 Q1011 NOSIG', 'LDZA 071200Z 27016KT 240V320 9999 FEW040 16/06 Q1011 NOSIG', 'LDZA 071130Z 27013KT 240V320 9999 FEW040 15/06 Q1011 NOSIG', 'LDZA 071100Z 25013KT 9999 FEW040 15/06 Q1012 NOSIG', 'LDZA 071030Z 24009KT 210V280 9999 FEW040 14/06 Q1012 BECMG 24012KT', 'LDZA 071000Z 26009KT 230V290 9999 FEW040 14/07 Q1012 BECMG 24012KT', 'LDZA 070930Z 25008KT 9999 FEW040 13/06 Q1013 BECMG 24012KT', 'LDZA 070900Z 26007KT 9999 FEW040 12/06 Q1013 BECMG 24012KT', 'LDZA 070830Z 25007KT 9999 FEW030 11/06 Q1013 BECMG 24012KT', 'LDZA 070800Z 25005KT 9999 FEW030 10/06 Q1013 BECMG 24012KT', 'LDZA 070730Z 26004KT CAVOK 09/06 Q1013 BECMG 24012KT', 'LDZA 070700Z 26005KT 230V290 CAVOK 07/04 Q1013 BECMG 24012KT', 'LDZA 070630Z 25005KT CAVOK 06/04 Q1013 NOSIG', 'LDZA 070600Z 28005KT 9999 SCT047 06/04 Q1013 NOSIG', 'LDZA 070530Z 24003KT 9999 SCT047 06/04 Q1013 NOSIG', 'LDZA 070500Z 22004KT 190V250 9999 SCT047 06/03 Q1013 NOSIG', 'LDZA 070430Z 25003KT 9999 SCT047 06/03 Q1013 NOSIG', 'LDZA 070400Z VRB02KT 9999 SCT047 05/03 Q1013 NOSIG', 'LDZA 070330Z 26003KT 9999 SCT047 05/03 Q1013 NOSIG', 'LDZA 070300Z 27004KT 9999 SCT045 05/03 Q1014 NOSIG', 'LDZA 070230Z VRB02KT 9999 BKN045 05/03 Q1014 NOSIG', 'LDZA 070200Z VRB02KT 9999 SCT045 05/03 Q1014 NOSIG', 'LDZA 070130Z 26004KT CAVOK 04/02 Q1015 NOSIG', 'LDZA 070100Z VRB02KT CAVOK 04/02 Q1015 NOSIG', 'LDZA 070030Z 27004KT CAVOK 04/02 Q1015 NOSIG', 'LDZA 070000Z 27006KT CAVOK 05/02 Q1015 NOSIG', 'LDZA 062330Z 27004KT CAVOK 05/02 Q1015 NOSIG', 'LDZA 062300Z 25005KT CAVOK 06/03 Q1015 NOSIG', 'LDZA 062230Z 24007KT CAVOK 06/03 Q1016 NOSIG', 'LDZA 062200Z 24007KT 200V320 CAVOK 07/03 Q1016 NOSIG', 'LDZA 062130Z 23007KT CAVOK 08/03 Q1016 NOSIG', 'LDZA 062100Z 23008KT CAVOK 08/04 Q1016 NOSIG', 'LDZA 062030Z 24009KT 210V270 CAVOK 09/04 Q1016 NOSIG', 'LDZA 062000Z 25008KT CAVOK 08/04 Q1016 NOSIG', 'LDZA 061930Z 26006KT CAVOK 07/03 Q1016 NOSIG', 'LDZA 061900Z 26005KT CAVOK 07/03 Q1016 NOSIG', 'LDZA 061830Z 27006KT CAVOK 08/04 Q1016 NOSIG', 'LDZA 061800Z 28006KT 260V320 CAVOK 09/04 Q1016 NOSIG', 'LDZA 061730Z 25007KT CAVOK 10/04 Q1016 NOSIG', 'LDZA 061700Z 25008KT CAVOK 11/05 Q1016 NOSIG', 'LDZA 061630Z 25010KT 220V280 CAVOK 13/05 Q1016 NOSIG', 'LDZA 061600Z 24010KT CAVOK 13/05 Q1016 NOSIG', 'LDZA 061530Z 24012KT CAVOK 14/05 Q1016 NOSIG', 'LDZA 061500Z 25010KT CAVOK 15/06 Q1016 NOSIG', 'LDZA 061430Z 24014KT 210V270 9999 FEW045 16/06 Q1016 NOSIG', 'LDZA 061400Z 25013KT 230V290 9999 FEW045 16/06 Q1016 NOSIG', 'LDZA 061330Z 25017KT 9999 FEW040 17/06 Q1017 NOSIG', 'LDZA 061300Z 25017KT 9999 FEW040 17/06 Q1017 NOSIG', 'LDZA 061230Z 25017KT 9999 FEW040 17/06 Q1017 NOSIG', 'LDZA 061200Z 25017KT 9999 FEW040 17/06 Q1018 NOSIG', 'LDZA 061130Z 25015KT 200V290 CAVOK 16/07 Q1018 NOSIG', 'LDZA 061100Z 25014KT 220V280 CAVOK 16/07 Q1018 NOSIG', 'LDZA 061030Z 25013KT 230V290 CAVOK 15/07 Q1019 NOSIG', 'LDZA 061000Z 25010KT 210V280 CAVOK 14/07 Q1019 NOSIG', 'LDZA 060930Z 23011KT 200V260 CAVOK 13/07 Q1019 NOSIG', 'LDZA 060900Z 23010KT 200V260 CAVOK 12/07 Q1019 BECMG 22012KT', 'LDZA 060830Z 23007KT 190V260 CAVOK 10/07 Q1019 BECMG 22012KT', 'LDZA 060800Z 23009KT CAVOK 08/06 Q1019 BECMG 22012KT', 'LDZA 060730Z 20005KT CAVOK 05/04 Q1019 BECMG 22012KT', 'LDZA 060700Z 24004KT CAVOK 04/03 Q1019 NOSIG', 'LDZA 060630Z 24008KT CAVOK 04/02 Q1019 NOSIG', 'LDZA 060600Z 25008KT CAVOK 03/02 Q1019 NOSIG', 'LDZA 060530Z 24005KT CAVOK 03/02 Q1019 TEMPO 24008KT', 'LDZA 060500Z 23005KT CAVOK 04/02 Q1019 TEMPO 24008KT', 'LDZA 060430Z 25006KT CAVOK 04/02 Q1020 NOSIG', 'LDZA 060400Z 25006KT CAVOK 05/03 Q1020 NOSIG', 'LDZA 060330Z 23007KT CAVOK 05/03 Q1020 NOSIG', 'LDZA 060300Z 23007KT CAVOK 05/03 Q1020 NOSIG', 'LDZA 060230Z 23007KT CAVOK 05/04 Q1020 NOSIG', 'LDZA 060200Z 23006KT CAVOK 05/03 Q1020 NOSIG', 'LDZA 060130Z 24006KT CAVOK 04/03 Q1020 NOSIG', 'LDZA 060100Z 23006KT CAVOK 05/03 Q1020 NOSIG', 'LDZA 060030Z 23006KT CAVOK 04/02 Q1021 NOSIG', 'LDZA 060000Z 24004KT CAVOK 05/03 Q1021 NOSIG', 'LDZA 052330Z 25007KT CAVOK 06/03 Q1021 TEMPO 24004KT', 'LDZA 052300Z 25007KT CAVOK 06/03 Q1021 TEMPO 24004KT', 'LDZA 052230Z 24008KT CAVOK 06/04 Q1021 TEMPO 24004KT', 'LDZA 052200Z 24006KT CAVOK 06/04 Q1021 NOSIG', 'LDZA 052130Z 24006KT CAVOK 07/04 Q1021 NOSIG', 'LDZA 052100Z 23007KT CAVOK 07/04 Q1021 TEMPO 23004KT', 'LDZA 052030Z 22007KT CAVOK 08/04 Q1021 TEMPO 23004KT', 'LDZA 052000Z 24005KT 210V280 CAVOK 08/05 Q1021 TEMPO 23008KT', 'LDZA 051930Z 26003KT 210V300 CAVOK 09/05 Q1021 NOSIG', 'LDZA 051900Z 27007KT CAVOK 09/05 Q1021 NOSIG', 'LDZA 051830Z 25006KT CAVOK 10/05 Q1021 NOSIG', 'LDZA 051800Z 25005KT CAVOK 10/05 Q1020 NOSIG', 'LDZA 051730Z 23007KT CAVOK 11/05 Q1020 NOSIG', 'LDZA 051700Z 23006KT CAVOK 12/06 Q1020 NOSIG']","['2024-02-08 16:00:00', '2024-02-08 15:30:00', '2024-02-08 15:00:00', '2024-02-08 14:30:00', '2024-02-08 14:00:00', '2024-02-08 13:30:00', '2024-02-08 13:00:00', '2024-02-08 12:30:00', '2024-02-08 12:00:00', '2024-02-08 11:30:00', '2024-02-08 11:00:00', '2024-02-08 10:30:00', '2024-02-08 10:00:00', '2024-02-08 09:30:00', '2024-02-08 09:00:00', '2024-02-08 08:30:00', '2024-02-08 08:00:00', '2024-02-08 07:30:00', '2024-02-08 07:00:00', '2024-02-08 06:30:00', '2024-02-08 06:00:00', '2024-02-08 05:30:00', '2024-02-08 05:00:00', '2024-02-08 04:30:00', '2024-02-08 04:00:00', '2024-02-08 03:30:00', '2024-02-08 03:00:00', '2024-02-08 02:30:00', '2024-02-08 01:30:00', '2024-02-08 01:00:00', '2024-02-08 00:30:00', '2024-02-08 00:00:00', '2024-02-07 23:30:00', '2024-02-07 23:00:00', '2024-02-07 22:30:00', '2024-02-07 22:00:00', '2024-02-07 21:30:00', '2024-02-07 21:00:00', '2024-02-07 20:30:00', '2024-02-07 20:00:00', '2024-02-07 19:30:00', '2024-02-07 19:00:00', '2024-02-07 18:30:00', '2024-02-07 18:00:00', '2024-02-07 17:30:00', '2024-02-07 17:00:00', '2024-02-07 16:30:00', '2024-02-07 16:00:00', '2024-02-07 15:30:00', '2024-02-07 15:00:00', '2024-02-07 14:30:00', '2024-02-07 14:00:00', '2024-02-07 13:30:00', '2024-02-07 13:00:00', '2024-02-07 12:30:00', '2024-02-07 12:00:00', '2024-02-07 11:30:00', '2024-02-07 11:00:00', '2024-02-07 10:30:00', '2024-02-07 10:00:00', '2024-02-07 09:30:00', '2024-02-07 09:00:00', '2024-02-07 08:30:00', '2024-02-07 08:00:00', '2024-02-07 07:30:00', '2024-02-07 07:00:00', '2024-02-07 06:30:00', '2024-02-07 06:00:00', '2024-02-07 05:30:00', '2024-02-07 05:00:00', '2024-02-07 04:30:00', '2024-02-07 04:00:00', '2024-02-07 03:30:00', '2024-02-07 03:00:00', '2024-02-07 02:30:00', '2024-02-07 02:00:00', '2024-02-07 01:30:00', '2024-02-07 01:00:00', '2024-02-07 00:30:00', '2024-02-07 00:00:00', '2024-02-06 23:30:00', '2024-02-06 23:00:00', '2024-02-06 22:30:00', '2024-02-06 22:00:00', '2024-02-06 21:30:00', '2024-02-06 21:00:00', '2024-02-06 20:30:00', '2024-02-06 20:00:00', '2024-02-06 19:30:00', '2024-02-06 19:00:00', '2024-02-06 18:30:00', '2024-02-06 18:00:00', '2024-02-06 17:30:00', '2024-02-06 17:00:00', '2024-02-06 16:30:00', '2024-02-06 16:00:00', '2024-02-06 15:30:00', '2024-02-06 15:00:00', '2024-02-06 14:30:00', '2024-02-06 14:00:00', '2024-02-06 13:30:00', '2024-02-06 13:00:00', '2024-02-06 12:30:00', '2024-02-06 12:00:00', '2024-02-06 11:30:00', '2024-02-06 11:00:00', '2024-02-06 10:30:00', '2024-02-06 10:00:00', '2024-02-06 09:30:00', '2024-02-06 09:00:00', '2024-02-06 08:30:00', '2024-02-06 08:00:00', '2024-02-06 07:30:00', '2024-02-06 07:00:00', '2024-02-06 06:30:00', '2024-02-06 06:00:00', '2024-02-06 05:30:00', '2024-02-06 05:00:00', '2024-02-06 04:30:00', '2024-02-06 04:00:00', '2024-02-06 03:30:00', '2024-02-06 03:00:00', '2024-02-06 02:30:00', '2024-02-06 02:00:00', '2024-02-06 01:30:00', '2024-02-06 01:00:00', '2024-02-06 00:30:00', '2024-02-06 00:00:00', '2024-02-05 23:30:00', '2024-02-05 23:00:00', '2024-02-05 22:30:00', '2024-02-05 22:00:00', '2024-02-05 21:30:00', '2024-02-05 21:00:00', '2024-02-05 20:30:00', '2024-02-05 20:00:00', '2024-02-05 19:30:00', '2024-02-05 19:00:00', '2024-02-05 18:30:00', '2024-02-05 18:00:00', '2024-02-05 17:30:00', '2024-02-05 17:00:00']"
