country,airport,METARs,UTC/Time
Thailand, Bangkok Don Mueang International Airport (DMK/VTBD) ,"['VTBD 150830Z VRB02KT 9000 FEW020 37/20 Q1011 NOSIG', 'VTBD 150800Z 06006KT 340V120 9000 FEW020 35/20 Q1011 NOSIG', 'VTBD 150730Z VRB03KT 9000 FEW020 36/20 Q1011 NOSIG', 'VTBD 150700Z VRB03KT 9000 FEW020 35/21 Q1012 NOSIG', 'VTBD 150630Z VRB05KT 9000 FEW020 35/21 Q1012 NOSIG', 'VTBD 150600Z 08004KT 360V160 9000 FEW020 34/21 Q1013 NOSIG', 'VTBD 150530Z 06005KT 350V130 9000 FEW020 34/22 Q1014 NOSIG', 'VTBD 150500Z VRB03KT 9000 FEW020 34/22 Q1014 NOSIG', 'VTBD 150430Z VRB02KT 9000 FEW020 33/21 Q1015 NOSIG', 'VTBD 150400Z 13004KT 070V190 8000 FEW020 32/23 Q1015 NOSIG', 'VTBD 150330Z VRB02KT 7000 NSC 32/24 Q1015 NOSIG', 'VTBD 150300Z VRB02KT 6000 NSC 30/24 Q1016 NOSIG', 'VTBD 150230Z 10004KT 060V130 4900 HZ NSC 29/25 Q1015 NOSIG', 'VTBD 150200Z 12005KT 4500 BR NSC 28/25 Q1015 NOSIG', 'VTBD 150130Z 13005KT 4000 BR NSC 27/25 Q1015 NOSIG', 'VTBD 150100Z 12003KT 090V150 4000 BR NSC 26/24 Q1014 NOSIG', 'VTBD 150030Z 00000KT 3000 BR NSC 26/24 Q1014 BECMG TL0200 NSW', 'VTBD 150000Z 05002KT 3000 BR NSC 25/24 Q1014 BECMG TL0200 NSW', 'VTBD 142330Z VRB02KT 5000 BR NSC 25/24 Q1014 BECMG TL0010 3000 BR', 'VTBD 142300Z 05003KT 6000 NSC 25/23 Q1013 NOSIG', 'VTBD 142230Z 08003KT 7000 NSC 26/23 Q1013 NOSIG', 'VTBD 142200Z 03004KT 7000 NSC 26/24 Q1013 NOSIG', 'VTBD 142130Z 00000KT 7000 NSC 26/24 Q1012 NOSIG', 'VTBD 142100Z 00000KT 8000 NSC 27/24 Q1012 NOSIG', 'VTBD 142030Z 14002KT 8000 NSC 27/23 Q1012 NOSIG', 'VTBD 142000Z 16003KT 9000 FEW030 28/23 Q1012 NOSIG', 'VTBD 141930Z 18003KT 9000 FEW030 28/23 Q1012 NOSIG', 'VTBD 141900Z 17004KT 8000 FEW030 28/23 Q1013 NOSIG', 'VTBD 141830Z 19004KT 8000 FEW030 28/23 Q1013 NOSIG', 'VTBD 141800Z 18004KT 7000 FEW030 28/23 Q1013 NOSIG', 'VTBD 141730Z 19004KT 7000 FEW030 28/23 Q1013 NOSIG', 'VTBD 141700Z 18004KT 7000 FEW030 28/23 Q1013 NOSIG', 'VTBD 141630Z 18005KT 8000 FEW030 28/23 Q1013 NOSIG', 'VTBD 141600Z 18004KT 9999 FEW030 29/21 Q1013 NOSIG', 'VTBD 141530Z 18005KT 9999 FEW030 29/22 Q1013 NOSIG', 'VTBD 141500Z 18004KT 9999 FEW030 29/21 Q1013 NOSIG', 'VTBD 141430Z 20003KT 9999 FEW030 30/19 Q1013 NOSIG', 'VTBD 141400Z 27004KT 9999 FEW030 31/18 Q1013 NOSIG', 'VTBD 141330Z 30004KT 270V340 9000 FEW030 32/19 Q1013 NOSIG', 'VTBD 141300Z 30005KT 9000 FEW030 32/19 Q1012 NOSIG', 'VTBD 141230Z 29006KT 230V340 9999 FEW030 32/19 Q1012 NOSIG', 'VTBD 141200Z 35004KT 310V030 9999 FEW030 32/19 Q1012 NOSIG', 'VTBD 141130Z VRB02KT 9999 FEW030 33/16 Q1011 NOSIG', 'VTBD 141100Z 11003KT 060V150 9999 FEW030 34/16 Q1011 NOSIG', 'VTBD 141030Z 07004KT 020V120 9999 FEW030 34/16 Q1011 NOSIG', 'VTBD 141000Z VRB03KT 9999 FEW030 35/16 Q1010 NOSIG', 'VTBD 140930Z 07004KT 350V120 9999 FEW030 35/16 Q1010 NOSIG', 'VTBD 140900Z VRB04KT 9999 FEW030 36/16 Q1010 NOSIG', 'VTBD 140830Z 13006KT 080V180 9999 FEW030 35/16 Q1011 NOSIG', 'VTBD 140800Z 09006KT 050V140 9999 FEW030 35/16 Q1011 NOSIG', 'VTBD 140730Z VRB04KT 9999 FEW030 35/16 Q1011 NOSIG', 'VTBD 140700Z VRB05KT 9999 FEW030 35/16 Q1012 NOSIG', 'VTBD 140630Z VRB04KT 9999 FEW030 35/15 Q1013 NOSIG', 'VTBD 140600Z 14004KT 040V200 9999 FEW030 35/16 Q1013 NOSIG', 'VTBD 140530Z VRB06KT 9999 FEW030 35/15 Q1014 NOSIG', 'VTBD 140500Z 11005KT 050V190 9999 FEW030 34/15 Q1014 NOSIG', 'VTBD 140430Z 08006KT 360V140 9999 FEW030 33/16 Q1015 NOSIG', 'VTBD 140400Z 12005KT 070V170 9999 FEW030 33/16 Q1015 NOSIG', 'VTBD 140330Z 12006KT 080V170 9999 FEW030 33/16 Q1016 NOSIG', 'VTBD 140300Z 12006KT 080V160 9999 FEW030 32/16 Q1016 NOSIG', 'VTBD 140230Z 12005KT 090V150 9000 FEW030 30/17 Q1016 NOSIG', 'VTBD 140200Z 12005KT 090V160 7000 FEW030 29/17 Q1016 NOSIG', 'VTBD 140130Z 12004KT 090V150 5000 HZ FEW030 27/19 Q1016 NOSIG', 'VTBD 140100Z 00000KT 5000 HZ FEW030 26/20 Q1015 NOSIG', 'VTBD 140030Z VRB02KT 4000 HZ FEW030 24/20 Q1015 NOSIG', 'VTBD 140000Z 06002KT 5000 HZ FEW030 24/20 Q1015 NOSIG', 'VTBD 132330Z 00000KT 6000 FEW030 24/20 Q1014 NOSIG', 'VTBD 132300Z 11002KT 7000 FEW030 24/20 Q1014 NOSIG', 'VTBD 132230Z 00000KT 7000 FEW030 24/20 Q1014 NOSIG', 'VTBD 132200Z 00000KT 7000 FEW030 24/20 Q1013 NOSIG', 'VTBD 132130Z 00000KT 7000 FEW030 24/20 Q1013 NOSIG', 'VTBD 132100Z 10001KT 8000 FEW030 25/20 Q1013 NOSIG', 'VTBD 132030Z 11002KT 8000 FEW030 25/19 Q1013 NOSIG', 'VTBD 132000Z 00000KT 9000 FEW030 25/19 Q1013 NOSIG', 'VTBD 131930Z 00000KT 9000 FEW030 26/19 Q1013 NOSIG', 'VTBD 131900Z VRB02KT 9000 FEW030 27/19 Q1014 NOSIG', 'VTBD 131830Z VRB02KT 9000 FEW030 27/19 Q1014 NOSIG', 'VTBD 131800Z 00000KT 9000 FEW030 26/18 Q1014 NOSIG', 'VTBD 131730Z VRB01KT 9000 FEW030 27/18 Q1014 NOSIG', 'VTBD 131700Z VRB05KT 9000 FEW030 28/19 Q1015 NOSIG', 'VTBD 131630Z 36004KT 310V020 9000 FEW030 28/19 Q1015 NOSIG', 'VTBD 131600Z 35004KT 260V030 9000 FEW030 28/19 Q1015 NOSIG', 'VTBD 131530Z 32004KT 280V010 9000 FEW030 29/19 Q1015 NOSIG', 'VTBD 131500Z 33006KT 270V010 9000 FEW030 29/18 Q1015 NOSIG', 'VTBD 131430Z 33006KT 300V360 9000 FEW030 29/18 Q1015 NOSIG', 'VTBD 131400Z 33005KT 270V010 9000 FEW030 29/18 Q1015 NOSIG', 'VTBD 131330Z 33005KT 280V010 9999 FEW030 30/18 Q1014 NOSIG', 'VTBD 131300Z 34006KT 9999 FEW030 30/19 Q1014 NOSIG', 'VTBD 131230Z 34006KT 300V010 9999 FEW030 30/19 Q1014 NOSIG', 'VTBD 131200Z 33008KT 9999 FEW030 31/19 Q1013 NOSIG', 'VTBD 131130Z 33007KT 310V050 9999 FEW030 31/18 Q1013 NOSIG', 'VTBD 131100Z 03006KT 360V070 9999 FEW030 32/17 Q1012 NOSIG', 'VTBD 131030Z 07004KT 010V130 9999 FEW030 33/17 Q1012 NOSIG', 'VTBD 131000Z 07007KT 020V110 9999 FEW030 33/17 Q1012 NOSIG', 'VTBD 130930Z 06006KT 010V110 9999 FEW030 33/16 Q1012 NOSIG', 'VTBD 130900Z 07007KT 030V110 9999 FEW030 34/17 Q1012 NOSIG', 'VTBD 130830Z 06006KT 330V130 9999 FEW030 34/17 Q1012 NOSIG', 'VTBD 130800Z 04008KT 310V100 9999 FEW030 34/17 Q1013 NOSIG', 'VTBD 130730Z 08006KT 030V160 9999 FEW030 33/17 Q1013 NOSIG', 'VTBD 130700Z 05009KT 010V090 9999 FEW030 33/17 Q1014 NOSIG', 'VTBD 130630Z 06009KT 020V110 9999 FEW030 33/17 Q1014 NOSIG', 'VTBD 130600Z 11009KT 9999 FEW030 32/16 Q1015 NOSIG', 'VTBD 130530Z 08008KT 020V120 9999 FEW030 32/17 Q1016 NOSIG', 'VTBD 130500Z 09011KT 9999 FEW030 31/16 Q1016 NOSIG', 'VTBD 130430Z 08009KT 030V120 9999 FEW030 31/17 Q1017 NOSIG', 'VTBD 130400Z 10009KT 050V150 9999 FEW030 31/17 Q1017 NOSIG', 'VTBD 130330Z 08007KT 9999 FEW030 30/17 Q1018 NOSIG', 'VTBD 130300Z 08006KT 050V110 9999 FEW030 29/16 Q1018 NOSIG', 'VTBD 130230Z 04005KT 010V090 9999 FEW030 28/16 Q1017 NOSIG', 'VTBD 130200Z 07005KT 050V120 9999 FEW030 27/17 Q1017 NOSIG', 'VTBD 130130Z 05003KT 9000 FEW030 26/18 Q1017 NOSIG', 'VTBD 130100Z 05003KT 7000 FEW030 24/19 Q1017 NOSIG', 'VTBD 130030Z 05002KT 6000 FEW030 23/19 Q1016 NOSIG', 'VTBD 130000Z 00000KT 7000 FEW030 23/19 Q1016 NOSIG', 'VTBD 122330Z 00000KT 8000 FEW030 23/19 Q1016 NOSIG', 'VTBD 122300Z 04001KT 8000 FEW030 23/19 Q1016 NOSIG', 'VTBD 122230Z 03003KT 8000 FEW030 23/19 Q1015 NOSIG', 'VTBD 122200Z 00000KT 8000 FEW030 22/19 Q1015 NOSIG', 'VTBD 122130Z 00000KT 9000 FEW030 23/19 Q1015 NOSIG', 'VTBD 122100Z 00000KT 9000 FEW030 23/18 Q1015 NOSIG', 'VTBD 122030Z 00000KT 9000 FEW030 23/19 Q1016 NOSIG', 'VTBD 122000Z 00000KT 9000 FEW030 23/19 Q1016 NOSIG', 'VTBD 121930Z 00000KT 9000 FEW030 24/18 Q1016 NOSIG', 'VTBD 121900Z VRB02KT 9000 FEW030 24/18 Q1016 NOSIG', 'VTBD 121830Z VRB02KT 9000 FEW030 25/18 Q1017 NOSIG', 'VTBD 121800Z 00000KT 9000 FEW030 25/17 Q1017 NOSIG', 'VTBD 121730Z VRB02KT 9000 FEW030 25/18 Q1017 NOSIG', 'VTBD 121700Z VRB02KT 9000 FEW030 25/17 Q1017 NOSIG', 'VTBD 121630Z VRB02KT 9000 FEW030 26/17 Q1018 NOSIG', 'VTBD 121600Z 33003KT 250V360 9000 FEW030 27/18 Q1018 NOSIG', 'VTBD 121530Z 32004KT 280V360 9000 FEW030 27/17 Q1017 NOSIG', 'VTBD 121500Z 31003KT 270V340 9000 FEW030 27/17 Q1017 NOSIG', 'VTBD 121430Z 29003KT 250V340 9000 FEW030 28/18 Q1017 NOSIG', 'VTBD 121400Z 31003KT 270V360 9999 FEW030 27/18 Q1017 NOSIG', 'VTBD 121330Z 33006KT 290V360 9999 FEW030 28/18 Q1017 NOSIG', 'VTBD 121300Z 35005KT 9999 FEW030 28/17 Q1016 NOSIG', 'VTBD 121230Z 34005KT 310V080 9999 FEW030 28/17 Q1016 NOSIG', 'VTBD 121200Z 34006KT 310V010 9999 FEW030 29/17 Q1016 NOSIG', 'VTBD 121130Z 34007KT 310V010 9999 FEW030 29/17 Q1016 NOSIG', 'VTBD 121100Z 34009KT 9999 FEW030 30/18 Q1015 NOSIG', 'VTBD 121030Z 34009KT 310V010 9999 FEW030 30/17 Q1015 NOSIG', 'VTBD 121000Z 01006KT 320V040 9999 FEW030 31/18 Q1015 NOSIG', 'VTBD 120930Z 06005KT 020V110 9999 FEW030 32/16 Q1015 NOSIG']","['2024-02-15 08:30:00', '2024-02-15 08:00:00', '2024-02-15 07:30:00', '2024-02-15 07:00:00', '2024-02-15 06:30:00', '2024-02-15 06:00:00', '2024-02-15 05:30:00', '2024-02-15 05:00:00', '2024-02-15 04:30:00', '2024-02-15 04:00:00', '2024-02-15 03:30:00', '2024-02-15 03:00:00', '2024-02-15 02:30:00', '2024-02-15 02:00:00', '2024-02-15 01:30:00', '2024-02-15 01:00:00', '2024-02-15 00:30:00', '2024-02-15 00:00:00', '2024-02-14 23:30:00', '2024-02-14 23:00:00', '2024-02-14 22:30:00', '2024-02-14 22:00:00', '2024-02-14 21:30:00', '2024-02-14 21:00:00', '2024-02-14 20:30:00', '2024-02-14 20:00:00', '2024-02-14 19:30:00', '2024-02-14 19:00:00', '2024-02-14 18:30:00', '2024-02-14 18:00:00', '2024-02-14 17:30:00', '2024-02-14 17:00:00', '2024-02-14 16:30:00', '2024-02-14 16:00:00', '2024-02-14 15:30:00', '2024-02-14 15:00:00', '2024-02-14 14:30:00', '2024-02-14 14:00:00', '2024-02-14 13:30:00', '2024-02-14 13:00:00', '2024-02-14 12:30:00', '2024-02-14 12:00:00', '2024-02-14 11:30:00', '2024-02-14 11:00:00', '2024-02-14 10:30:00', '2024-02-14 10:00:00', '2024-02-14 09:30:00', '2024-02-14 09:00:00', '2024-02-14 08:30:00', '2024-02-14 08:00:00', '2024-02-14 07:30:00', '2024-02-14 07:00:00', '2024-02-14 06:30:00', '2024-02-14 06:00:00', '2024-02-14 05:30:00', '2024-02-14 05:00:00', '2024-02-14 04:30:00', '2024-02-14 04:00:00', '2024-02-14 03:30:00', '2024-02-14 03:00:00', '2024-02-14 02:30:00', '2024-02-14 02:00:00', '2024-02-14 01:30:00', '2024-02-14 01:00:00', '2024-02-14 00:30:00', '2024-02-14 00:00:00', '2024-02-13 23:30:00', '2024-02-13 23:00:00', '2024-02-13 22:30:00', '2024-02-13 22:00:00', '2024-02-13 21:30:00', '2024-02-13 21:00:00', '2024-02-13 20:30:00', '2024-02-13 20:00:00', '2024-02-13 19:30:00', '2024-02-13 19:00:00', '2024-02-13 18:30:00', '2024-02-13 18:00:00', '2024-02-13 17:30:00', '2024-02-13 17:00:00', '2024-02-13 16:30:00', '2024-02-13 16:00:00', '2024-02-13 15:30:00', '2024-02-13 15:00:00', '2024-02-13 14:30:00', '2024-02-13 14:00:00', '2024-02-13 13:30:00', '2024-02-13 13:00:00', '2024-02-13 12:30:00', '2024-02-13 12:00:00', '2024-02-13 11:30:00', '2024-02-13 11:00:00', '2024-02-13 10:30:00', '2024-02-13 10:00:00', '2024-02-13 09:30:00', '2024-02-13 09:00:00', '2024-02-13 08:30:00', '2024-02-13 08:00:00', '2024-02-13 07:30:00', '2024-02-13 07:00:00', '2024-02-13 06:30:00', '2024-02-13 06:00:00', '2024-02-13 05:30:00', '2024-02-13 05:00:00', '2024-02-13 04:30:00', '2024-02-13 04:00:00', '2024-02-13 03:30:00', '2024-02-13 03:00:00', '2024-02-13 02:30:00', '2024-02-13 02:00:00', '2024-02-13 01:30:00', '2024-02-13 01:00:00', '2024-02-13 00:30:00', '2024-02-13 00:00:00', '2024-02-12 23:30:00', '2024-02-12 23:00:00', '2024-02-12 22:30:00', '2024-02-12 22:00:00', '2024-02-12 21:30:00', '2024-02-12 21:00:00', '2024-02-12 20:30:00', '2024-02-12 20:00:00', '2024-02-12 19:30:00', '2024-02-12 19:00:00', '2024-02-12 18:30:00', '2024-02-12 18:00:00', '2024-02-12 17:30:00', '2024-02-12 17:00:00', '2024-02-12 16:30:00', '2024-02-12 16:00:00', '2024-02-12 15:30:00', '2024-02-12 15:00:00', '2024-02-12 14:30:00', '2024-02-12 14:00:00', '2024-02-12 13:30:00', '2024-02-12 13:00:00', '2024-02-12 12:30:00', '2024-02-12 12:00:00', '2024-02-12 11:30:00', '2024-02-12 11:00:00', '2024-02-12 10:30:00', '2024-02-12 10:00:00', '2024-02-12 09:30:00']"
Thailand, Bangkok Suvarnabhumi Airport (BKK/VTBS) ,"['VTBS 150830Z 20006KT 160V240 8000 FEW020 35/22 Q1011 NOSIG', 'VTBS 150800Z 21008KT 160V240 8000 FEW020 34/22 Q1011 NOSIG', 'VTBS 150730Z 16006KT 090V240 8000 FEW020 35/22 Q1011 NOSIG', 'VTBS 150700Z 16005KT 090V230 8000 FEW020 36/19 Q1012 NOSIG', 'VTBS 150630Z 11005KT 060V180 8000 FEW020 36/18 Q1012 NOSIG', 'VTBS 150600Z 14005KT 110V180 7000 FEW020 35/21 Q1013 NOSIG', 'VTBS 150530Z 20005KT 170V260 7000 FEW020 33/21 Q1013 NOSIG', 'VTBS 150500Z 19005KT 130V230 7000 FEW020 34/21 Q1014 NOSIG', 'VTBS 150430Z 19004KT 130V280 7000 FEW020 33/22 Q1014 NOSIG', 'VTBS 150400Z 19003KT 130V270 6000 FEW020 31/22 Q1015 NOSIG', 'VTBS 150330Z 15003KT 050V220 5000 HZ FEW020 31/23 Q1015 NOSIG', 'VTBS 150300Z 15004KT 070V200 4500 HZ FEW020 31/23 Q1015 NOSIG', 'VTBS 150230Z 15004KT 040V200 4500 HZ FEW020 30/23 Q1015 NOSIG', 'VTBS 150200Z 10005KT 060V180 3000 HZ FEW010 29/23 Q1015 BECMG TL0230 5000 BR', 'VTBS 150130Z 09005KT 070V150 2500 BR FEW010 27/23 Q1015 NOSIG', 'VTBS 150100Z 08004KT 060V140 2500 BR FEW015 26/23 Q1014 BECMG TL0200 5000 BR', 'VTBS 150030Z 09004KT 050V190 2500 BR FEW015 26/23 Q1014 BECMG FM0100 TL0200 5000 BR', 'VTBS 150000Z 08004KT 030V140 2500 BR FEW020 26/23 Q1014 BECMG FM0030 TL0120 5000 BR', 'VTBS 142330Z 04003KT 4000 BR FEW020 26/24 Q1013 NOSIG', 'VTBS 142300Z VRB02KT 5000 BR FEW020 28/24 Q1013 NOSIG', 'VTBS 142230Z VRB02KT 6000 FEW020 27/23 Q1013 NOSIG', 'VTBS 142200Z 18004KT 6000 FEW020 27/24 Q1012 NOSIG', 'VTBS 142130Z 20004KT 6000 FEW020 27/24 Q1012 NOSIG', 'VTBS 142100Z 18004KT 140V200 7000 FEW020 28/24 Q1012 NOSIG', 'VTBS 142030Z 21004KT 8000 FEW020 28/24 Q1012 NOSIG', 'VTBS 142000Z 21004KT 8000 FEW020 28/23 Q1012 NOSIG', 'VTBS 141930Z 20005KT 8000 FEW020 28/23 Q1012 NOSIG', 'VTBS 141900Z 20006KT 9000 FEW030 28/23 Q1012 NOSIG', 'VTBS 141830Z 21005KT 9999 FEW030 28/23 Q1013 NOSIG', 'VTBS 141800Z 21004KT 9999 FEW030 28/23 Q1013 NOSIG', 'VTBS 141730Z 21005KT 9999 FEW030 28/22 Q1013 NOSIG', 'VTBS 141700Z 21005KT 9999 FEW030 29/22 Q1013 NOSIG', 'VTBS 141630Z 20006KT 9999 FEW030 28/22 Q1013 NOSIG', 'VTBS 141600Z 21006KT 9999 FEW030 29/22 Q1013 NOSIG', 'VTBS 141530Z 22006KT 8000 FEW030 29/23 Q1013 NOSIG', 'VTBS 141500Z 22006KT 8000 FEW030 29/23 Q1014 NOSIG', 'VTBS 141430Z 21007KT 9999 FEW030 29/23 Q1013 NOSIG', 'VTBS 141400Z 22006KT 9999 FEW030 30/22 Q1013 NOSIG', 'VTBS 141330Z 23005KT 9999 FEW030 30/21 Q1013 NOSIG', 'VTBS 141300Z 20008KT 9999 FEW030 30/21 Q1013 NOSIG', 'VTBS 141230Z 20009KT 9999 FEW030 30/20 Q1012 NOSIG', 'VTBS 141200Z 19008KT 9999 FEW030 31/21 Q1011 NOSIG', 'VTBS 141130Z VRB02KT 9999 FEW030 34/17 Q1011 NOSIG', 'VTBS 141100Z 07004KT 040V180 9999 FEW030 34/16 Q1011 NOSIG', 'VTBS 141030Z 09005KT 060V130 9999 FEW030 34/16 Q1010 NOSIG', 'VTBS 141000Z VRB06KT 9999 FEW030 35/17 Q1010 NOSIG', 'VTBS 140930Z 10006KT 060V180 9999 FEW030 35/17 Q1010 NOSIG', 'VTBS 140900Z 12005KT 010V160 9999 FEW030 35/16 Q1010 NOSIG', 'VTBS 140830Z 11005G17KT 060V170 9999 FEW030 35/16 Q1010 NOSIG', 'VTBS 140800Z VRB06KT 9999 FEW030 35/16 Q1011 NOSIG', 'VTBS 140730Z VRB05G16KT 9999 FEW030 34/17 Q1011 NOSIG', 'VTBS 140700Z 06006KT 360V160 9999 FEW030 35/17 Q1012 NOSIG', 'VTBS 140630Z 07006KT 360V120 9999 FEW030 34/17 Q1012 NOSIG', 'VTBS 140600Z 08005KT 010V150 9999 FEW030 34/17 Q1013 NOSIG', 'VTBS 140530Z 08006G16KT 040V180 9999 FEW030 34/17 Q1014 NOSIG', 'VTBS 140500Z 07007KT 040V150 9999 FEW030 33/16 Q1014 NOSIG', 'VTBS 140430Z 09006KT 050V120 9999 FEW030 33/17 Q1015 NOSIG', 'VTBS 140400Z 08007KT 030V120 9999 FEW030 32/16 Q1015 NOSIG', 'VTBS 140330Z 09006KT 360V130 9999 FEW030 32/17 Q1015 NOSIG', 'VTBS 140300Z 11007KT 080V150 9999 FEW030 31/17 Q1016 NOSIG', 'VTBS 140230Z 08006KT 040V100 8000 FEW030 30/17 Q1016 NOSIG', 'VTBS 140200Z 08005KT 020V110 8000 FEW030 28/18 Q1016 NOSIG', 'VTBS 140130Z 07005KT 030V100 7000 FEW030 27/18 Q1015 NOSIG', 'VTBS 140100Z 05005KT 5000 HZ FEW030 27/17 Q1015 NOSIG', 'VTBS 140030Z 03003KT 360V110 4000 HZ FEW030 26/20 Q1015 NOSIG', 'VTBS 140000Z 02003KT 4000 HZ FEW030 25/19 Q1014 NOSIG', 'VTBS 132330Z 01003KT 350V060 6000 FEW030 25/20 Q1014 NOSIG', 'VTBS 132300Z 36002KT 6000 FEW030 25/20 Q1014 NOSIG', 'VTBS 132230Z 04002KT 6000 FEW030 25/19 Q1013 NOSIG', 'VTBS 132200Z 03002KT 7000 FEW030 24/20 Q1013 NOSIG', 'VTBS 132130Z VRB01KT 7000 FEW030 25/20 Q1013 NOSIG', 'VTBS 132100Z 36002KT 7000 FEW030 26/20 Q1013 NOSIG', 'VTBS 132030Z VRB01KT 7000 FEW030 25/20 Q1013 NOSIG', 'VTBS 132000Z 11002KT 7000 FEW030 26/21 Q1013 NOSIG', 'VTBS 131930Z 08003KT 7000 FEW030 26/21 Q1013 NOSIG', 'VTBS 131900Z VRB01KT 7000 FEW030 25/21 Q1013 NOSIG', 'VTBS 131830Z 13003KT 090V170 7000 FEW030 26/21 Q1013 NOSIG', 'VTBS 131800Z 13004KT 110V190 8000 FEW030 27/21 Q1014 NOSIG', 'VTBS 131730Z 13004KT 050V190 9000 FEW030 27/20 Q1014 NOSIG', 'VTBS 131700Z 01005KT 9999 FEW030 27/19 Q1014 NOSIG', 'VTBS 131630Z 36004KT 9999 FEW030 27/18 Q1015 NOSIG', 'VTBS 131600Z 34004KT 9999 FEW030 28/18 Q1015 NOSIG', 'VTBS 131530Z 33004KT 9999 FEW030 29/19 Q1015 NOSIG', 'VTBS 131500Z 33005KT 9999 FEW030 29/19 Q1015 NOSIG', 'VTBS 131430Z 34004KT 9999 FEW030 29/19 Q1015 NOSIG', 'VTBS 131400Z 33006KT 9999 FEW030 30/18 Q1014 NOSIG', 'VTBS 131330Z 34006KT 9999 FEW030 31/18 Q1014 NOSIG', 'VTBS 131300Z 35006KT 9999 FEW030 31/18 Q1013 NOSIG', 'VTBS 131230Z 35005KT 9999 FEW030 31/18 Q1013 NOSIG', 'VTBS 131200Z 35006KT 9999 FEW030 32/17 Q1013 NOSIG', 'VTBS 131130Z 36006KT 9999 FEW030 32/17 Q1012 NOSIG', 'VTBS 131100Z 02007KT 350V050 9999 FEW030 33/16 Q1012 NOSIG', 'VTBS 131030Z 03007KT 9999 FEW030 33/16 Q1012 NOSIG', 'VTBS 131000Z 01008KT 9999 FEW030 34/16 Q1012 NOSIG', 'VTBS 130930Z 06007KT 030V100 9999 FEW030 34/15 Q1012 NOSIG', 'VTBS 130900Z 06008KT 020V110 9999 FEW030 34/15 Q1012 NOSIG', 'VTBS 130830Z 05007KT 010V080 9999 FEW030 34/16 Q1012 NOSIG', 'VTBS 130800Z 05008KT 010V080 9999 FEW030 34/17 Q1012 NOSIG', 'VTBS 130730Z 06007KT 020V110 9999 FEW030 34/17 Q1013 NOSIG', 'VTBS 130700Z 06009KT 030V090 9999 FEW030 34/17 Q1013 NOSIG', 'VTBS 130630Z 08008G18KT 040V130 9999 FEW030 33/17 Q1014 NOSIG', 'VTBS 130600Z 06009KT 020V120 9999 FEW030 33/17 Q1015 NOSIG', 'VTBS 130530Z 06009G19KT 020V100 9999 FEW030 32/17 Q1015 NOSIG', 'VTBS 130500Z 06009KT 030V090 9999 FEW030 31/17 Q1016 NOSIG', 'VTBS 130430Z 07010KT 030V100 9999 FEW030 30/17 Q1016 NOSIG', 'VTBS 130400Z 07011KT 040V110 9999 FEW030 30/17 Q1017 NOSIG', 'VTBS 130330Z 06011KT 9999 FEW030 29/16 Q1017 NOSIG', 'VTBS 130300Z 08014KT 9999 FEW030 28/17 Q1017 NOSIG', 'VTBS 130230Z 07009KT 060V120 9999 FEW030 28/17 Q1017 NOSIG', 'VTBS 130200Z 07006KT 030V110 9999 FEW030 27/17 Q1017 NOSIG', 'VTBS 130130Z 07006KT 030V100 9999 FEW030 26/17 Q1017 NOSIG', 'VTBS 130100Z 05006KT 8000 FEW030 25/17 Q1016 NOSIG', 'VTBS 130030Z 05005KT 030V090 8000 FEW030 24/17 Q1016 NOSIG', 'VTBS 130000Z 06005KT 020V080 8000 FEW030 24/17 Q1016 NOSIG', 'VTBS 122330Z 05006KT 350V090 9000 FEW030 24/17 Q1016 NOSIG', 'VTBS 122300Z 06005KT 020V080 9000 FEW030 24/17 Q1015 NOSIG', 'VTBS 122230Z 06005KT 010V080 8000 FEW030 24/17 Q1015 NOSIG', 'VTBS 122200Z 05005KT 8000 FEW030 24/17 Q1015 NOSIG', 'VTBS 122130Z 06005KT 8000 FEW030 25/17 Q1015 NOSIG', 'VTBS 122100Z 05005KT 8000 FEW030 25/17 Q1015 NOSIG', 'VTBS 122030Z 06005KT 8000 FEW030 25/17 Q1015 NOSIG', 'VTBS 122000Z 06005KT 7000 FEW030 25/18 Q1016 NOSIG', 'VTBS 121930Z VRB02KT 8000 FEW030 25/18 Q1016 NOSIG', 'VTBS 121900Z 36003KT 8000 FEW030 25/18 Q1016 NOSIG', 'VTBS 121830Z 05005KT 020V080 8000 FEW030 26/18 Q1016 NOSIG', 'VTBS 121800Z VRB02KT 8000 FEW030 26/18 Q1017 NOSIG', 'VTBS 121730Z 05004KT 330V080 8000 FEW030 26/18 Q1017 NOSIG', 'VTBS 121700Z 06006KT 8000 FEW030 26/19 Q1017 NOSIG', 'VTBS 121630Z 08005KT 020V180 8000 FEW030 26/19 Q1017 NOSIG', 'VTBS 121600Z 09003KT 010V120 9000 FEW030 27/19 Q1017 NOSIG', 'VTBS 121530Z 34003KT 9999 FEW030 27/17 Q1017 NOSIG', 'VTBS 121500Z 33004KT 9999 FEW030 28/17 Q1017 NOSIG', 'VTBS 121430Z 33004KT 9999 FEW030 28/18 Q1017 NOSIG', 'VTBS 121400Z 33005KT 9999 FEW030 28/18 Q1016 NOSIG', 'VTBS 121330Z 33005KT 9999 FEW030 28/18 Q1016 NOSIG', 'VTBS 121300Z 33006KT 9999 FEW030 29/18 Q1016 NOSIG', 'VTBS 121230Z 34004KT 9999 FEW030 29/17 Q1016 NOSIG', 'VTBS 121200Z 35005KT 9999 FEW030 30/17 Q1015 NOSIG', 'VTBS 121130Z 01007KT 9999 FEW030 30/17 Q1015 NOSIG', 'VTBS 121100Z 05006KT 010V080 9999 FEW030 31/17 Q1015 NOSIG', 'VTBS 121030Z 05007KT 020V090 9999 FEW030 31/17 Q1015 NOSIG', 'VTBS 121000Z 04007KT 360V060 9999 FEW030 32/16 Q1015 NOSIG', 'VTBS 120930Z 03008KT 360V080 9999 FEW030 32/16 Q1015 NOSIG']","['2024-02-15 08:30:00', '2024-02-15 08:00:00', '2024-02-15 07:30:00', '2024-02-15 07:00:00', '2024-02-15 06:30:00', '2024-02-15 06:00:00', '2024-02-15 05:30:00', '2024-02-15 05:00:00', '2024-02-15 04:30:00', '2024-02-15 04:00:00', '2024-02-15 03:30:00', '2024-02-15 03:00:00', '2024-02-15 02:30:00', '2024-02-15 02:00:00', '2024-02-15 01:30:00', '2024-02-15 01:00:00', '2024-02-15 00:30:00', '2024-02-15 00:00:00', '2024-02-14 23:30:00', '2024-02-14 23:00:00', '2024-02-14 22:30:00', '2024-02-14 22:00:00', '2024-02-14 21:30:00', '2024-02-14 21:00:00', '2024-02-14 20:30:00', '2024-02-14 20:00:00', '2024-02-14 19:30:00', '2024-02-14 19:00:00', '2024-02-14 18:30:00', '2024-02-14 18:00:00', '2024-02-14 17:30:00', '2024-02-14 17:00:00', '2024-02-14 16:30:00', '2024-02-14 16:00:00', '2024-02-14 15:30:00', '2024-02-14 15:00:00', '2024-02-14 14:30:00', '2024-02-14 14:00:00', '2024-02-14 13:30:00', '2024-02-14 13:00:00', '2024-02-14 12:30:00', '2024-02-14 12:00:00', '2024-02-14 11:30:00', '2024-02-14 11:00:00', '2024-02-14 10:30:00', '2024-02-14 10:00:00', '2024-02-14 09:30:00', '2024-02-14 09:00:00', '2024-02-14 08:30:00', '2024-02-14 08:00:00', '2024-02-14 07:30:00', '2024-02-14 07:00:00', '2024-02-14 06:30:00', '2024-02-14 06:00:00', '2024-02-14 05:30:00', '2024-02-14 05:00:00', '2024-02-14 04:30:00', '2024-02-14 04:00:00', '2024-02-14 03:30:00', '2024-02-14 03:00:00', '2024-02-14 02:30:00', '2024-02-14 02:00:00', '2024-02-14 01:30:00', '2024-02-14 01:00:00', '2024-02-14 00:30:00', '2024-02-14 00:00:00', '2024-02-13 23:30:00', '2024-02-13 23:00:00', '2024-02-13 22:30:00', '2024-02-13 22:00:00', '2024-02-13 21:30:00', '2024-02-13 21:00:00', '2024-02-13 20:30:00', '2024-02-13 20:00:00', '2024-02-13 19:30:00', '2024-02-13 19:00:00', '2024-02-13 18:30:00', '2024-02-13 18:00:00', '2024-02-13 17:30:00', '2024-02-13 17:00:00', '2024-02-13 16:30:00', '2024-02-13 16:00:00', '2024-02-13 15:30:00', '2024-02-13 15:00:00', '2024-02-13 14:30:00', '2024-02-13 14:00:00', '2024-02-13 13:30:00', '2024-02-13 13:00:00', '2024-02-13 12:30:00', '2024-02-13 12:00:00', '2024-02-13 11:30:00', '2024-02-13 11:00:00', '2024-02-13 10:30:00', '2024-02-13 10:00:00', '2024-02-13 09:30:00', '2024-02-13 09:00:00', '2024-02-13 08:30:00', '2024-02-13 08:00:00', '2024-02-13 07:30:00', '2024-02-13 07:00:00', '2024-02-13 06:30:00', '2024-02-13 06:00:00', '2024-02-13 05:30:00', '2024-02-13 05:00:00', '2024-02-13 04:30:00', '2024-02-13 04:00:00', '2024-02-13 03:30:00', '2024-02-13 03:00:00', '2024-02-13 02:30:00', '2024-02-13 02:00:00', '2024-02-13 01:30:00', '2024-02-13 01:00:00', '2024-02-13 00:30:00', '2024-02-13 00:00:00', '2024-02-12 23:30:00', '2024-02-12 23:00:00', '2024-02-12 22:30:00', '2024-02-12 22:00:00', '2024-02-12 21:30:00', '2024-02-12 21:00:00', '2024-02-12 20:30:00', '2024-02-12 20:00:00', '2024-02-12 19:30:00', '2024-02-12 19:00:00', '2024-02-12 18:30:00', '2024-02-12 18:00:00', '2024-02-12 17:30:00', '2024-02-12 17:00:00', '2024-02-12 16:30:00', '2024-02-12 16:00:00', '2024-02-12 15:30:00', '2024-02-12 15:00:00', '2024-02-12 14:30:00', '2024-02-12 14:00:00', '2024-02-12 13:30:00', '2024-02-12 13:00:00', '2024-02-12 12:30:00', '2024-02-12 12:00:00', '2024-02-12 11:30:00', '2024-02-12 11:00:00', '2024-02-12 10:30:00', '2024-02-12 10:00:00', '2024-02-12 09:30:00']"
Thailand, Buriram Airport (BFV/VTUO) ,"['VTUO 150800Z 05007KT 020V110 CAVOK 35/10 Q1012 NOSIG', 'VTUO 150700Z 09008KT 050V110 9000 NSC 34/12 Q1013 NOSIG', 'VTUO 150600Z 08006KT 060V120 9000 NSC 34/09 Q1014 NOSIG', 'VTUO 150500Z 04005KT 330V100 9000 NSC 33/13 Q1015 NOSIG', 'VTUO 150400Z 07005KT 030V120 8000 NSC 31/15 Q1016 NOSIG', 'VTUO 150300Z 08005KT 030V120 7000 NSC 29/15 Q1017 NOSIG', 'VTUO 150200Z 13007KT 6000 NSC 26/17 Q1016 NOSIG', 'VTUO 150100Z 13007KT 5000 HZ NSC 24/17 Q1016 NOSIG', 'VTUO 150000Z VRB01KT 5000 BR NSC 21/17 Q1015 NOSIG', 'VTUO 142300Z 00000KT 7000 NSC 20/17 Q1015 NOSIG', 'VTUO 142200Z VRB01KT 9000 NSC 21/16 Q1014 NOSIG', 'VTUO 141300Z 08003KT 9000 SCT015 28/14 Q1014 NOSIG', 'VTUO 141200Z 08002KT 9000 SCT015 30/12 Q1013 NOSIG', 'VTUO 141100Z 10003KT 9000 NSC 32/12 Q1012 NOSIG', 'VTUO 141000Z 04005KT CAVOK 33/12 Q1012 NOSIG', 'VTUO 140900Z 06004KT 360V140 CAVOK 33/11 Q1012 NOSIG', 'VTUO 140800Z VRB02KT CAVOK 33/12 Q1012 NOSIG', 'VTUO 140700Z 03004KT CAVOK 32/12 Q1013 NOSIG', 'VTUO 140600Z 05005KT 360V120 CAVOK 32/13 Q1015 NOSIG', 'VTUO 140500Z 36004KT CAVOK 31/14 Q1016 NOSIG', 'VTUO 140400Z 14004KT 9000 NSC 29/15 Q1017 NOSIG', 'VTUO 140300Z VRB02KT 9000 NSC 27/17 Q1018 NOSIG', 'VTUO 140200Z 06003KT 020V140 8000 NSC 24/18 Q1018 NOSIG', 'VTUO 140100Z 10007KT 7000 NSC 21/18 Q1017 NOSIG', 'VTUO 140000Z 10006KT 6000 NSC 20/18 Q1017 NOSIG', 'VTUO 132300Z 10004KT 9000 NSC 20/18 Q1016 NOSIG', 'VTUO 132200Z 10007KT CAVOK 20/18 Q1015 NOSIG', 'VTUO 131300Z 11003KT CAVOK 27/14 Q1016 NOSIG', 'VTUO 131200Z 13003KT 9000 NSC 28/14 Q1015 NOSIG', 'VTUO 131100Z 12003KT 9000 NSC 30/14 Q1014 NOSIG', 'VTUO 131000Z 08005KT 050V110 CAVOK 31/13 Q1014 NOSIG', 'VTUO 130900Z VRB04KT CAVOK 31/13 Q1014 NOSIG', 'VTUO 130800Z VRB03KT CAVOK 31/13 Q1014 NOSIG', 'VTUO 130700Z 04005KT 010V100 CAVOK 30/12 Q1015 NOSIG', 'VTUO 130600Z 32003KT 260V060 CAVOK 30/14 Q1017 NOSIG', 'VTUO 130500Z VRB02KT CAVOK 28/15 Q1018 NOSIG', 'VTUO 130400Z VRB02KT CAVOK 26/16 Q1019 NOSIG', 'VTUO 130300Z 05004KT 010V070 CAVOK 23/17 Q1020 NOSIG', 'VTUO 130200Z 07007KT CAVOK 21/17 Q1019 NOSIG', 'VTUO 130100Z 07005KT 8000 NSC 19/17 Q1019 NOSIG', 'VTUO 130000Z 10005KT 8000 NSC 18/16 Q1019 NOSIG', 'VTUO 122300Z 08007KT 8000 NSC 18/16 Q1018 NOSIG', 'VTUO 122200Z 07006KT CAVOK 18/16 Q1017 NOSIG', 'VTUO 121300Z 10004KT CAVOK 26/13 Q1018 NOSIG', 'VTUO 121200Z 10004KT CAVOK 26/12 Q1017 NOSIG', 'VTUO 121100Z 05008KT CAVOK 28/12 Q1017 NOSIG', 'VTUO 121000Z 04006KT 340V080 CAVOK 30/12 Q1016 NOSIG']","['2024-02-15 08:00:00', '2024-02-15 07:00:00', '2024-02-15 06:00:00', '2024-02-15 05:00:00', '2024-02-15 04:00:00', '2024-02-15 03:00:00', '2024-02-15 02:00:00', '2024-02-15 01:00:00', '2024-02-15 00:00:00', '2024-02-14 23:00:00', '2024-02-14 22:00:00', '2024-02-14 13:00:00', '2024-02-14 12:00:00', '2024-02-14 11:00:00', '2024-02-14 10:00:00', '2024-02-14 09:00:00', '2024-02-14 08:00:00', '2024-02-14 07:00:00', '2024-02-14 06:00:00', '2024-02-14 05:00:00', '2024-02-14 04:00:00', '2024-02-14 03:00:00', '2024-02-14 02:00:00', '2024-02-14 01:00:00', '2024-02-14 00:00:00', '2024-02-13 23:00:00', '2024-02-13 22:00:00', '2024-02-13 13:00:00', '2024-02-13 12:00:00', '2024-02-13 11:00:00', '2024-02-13 10:00:00', '2024-02-13 09:00:00', '2024-02-13 08:00:00', '2024-02-13 07:00:00', '2024-02-13 06:00:00', '2024-02-13 05:00:00', '2024-02-13 04:00:00', '2024-02-13 03:00:00', '2024-02-13 02:00:00', '2024-02-13 01:00:00', '2024-02-13 00:00:00', '2024-02-12 23:00:00', '2024-02-12 22:00:00', '2024-02-12 13:00:00', '2024-02-12 12:00:00', '2024-02-12 11:00:00', '2024-02-12 10:00:00']"
Thailand, Chiang Mai International Airport (CNX/VTCC) ,"['VTCC 150830Z VRB06KT 9000 NSC 35/12 Q1013 NOSIG', 'VTCC 150800Z VRB02KT 9000 FEW030 35/12 Q1013 NOSIG', 'VTCC 150730Z VRB05KT 9000 FEW030 34/11 Q1014 NOSIG', 'VTCC 150700Z VRB03KT 9000 FEW030 34/11 Q1014 NOSIG', 'VTCC 150630Z VRB04KT 9000 FEW030 33/11 Q1015 NOSIG', 'VTCC 150600Z VRB03KT 8000 FEW030 32/11 Q1016 NOSIG', 'VTCC 150530Z VRB04KT 8000 FEW030 31/12 Q1016 NOSIG', 'VTCC 150500Z 07003KT 360V170 8000 NSC 30/12 Q1017 NOSIG', 'VTCC 150430Z VRB03KT 8000 NSC 29/12 Q1017 NOSIG', 'VTCC 150400Z 05003KT 330V100 8000 NSC 28/12 Q1018 NOSIG', 'VTCC 150330Z VRB02KT 8000 NSC 28/13 Q1018 NOSIG', 'VTCC 150300Z VRB02KT 8000 NSC 26/14 Q1018 NOSIG', 'VTCC 150230Z VRB02KT 8000 NSC 25/16 Q1018 NOSIG', 'VTCC 150200Z VRB01KT 7000 NSC 23/16 Q1018 NOSIG', 'VTCC 150130Z VRB01KT 7000 NSC 22/16 Q1018 NOSIG', 'VTCC 150100Z 20003KT 180V240 7000 NSC 20/17 Q1017 NOSIG', 'VTCC 150030Z VRB01KT 7000 NSC 19/15 Q1017 NOSIG', 'VTCC 150000Z VRB01KT 7000 NSC 18/15 Q1017 NOSIG', 'VTCC 142330Z VRB01KT 8000 NSC 18/16 Q1016 NOSIG', 'VTCC 142300Z 21001KT 9000 NSC 19/16 Q1016 NOSIG', 'VTCC 142230Z 00000KT 9000 NSC 19/15 Q1016 NOSIG', 'VTCC 142200Z VRB01KT 9000 NSC 19/15 Q1015 NOSIG', 'VTCC 142130Z 26002KT 9000 NSC 20/16 Q1015 NOSIG', 'VTCC 142100Z 16003KT 130V210 9000 NSC 20/16 Q1015 NOSIG', 'VTCC 142030Z 02002KT 9000 NSC 20/15 Q1015 NOSIG', 'VTCC 142000Z 19002KT 9000 NSC 20/15 Q1015 NOSIG', 'VTCC 141930Z VRB02KT 9000 NSC 20/15 Q1015 NOSIG', 'VTCC 141900Z VRB01KT 9000 NSC 21/16 Q1015 NOSIG', 'VTCC 141830Z 24002KT 9000 NSC 21/16 Q1015 NOSIG', 'VTCC 141800Z 23002KT 9000 NSC 22/16 Q1015 NOSIG', 'VTCC 141730Z VRB01KT 9000 NSC 22/16 Q1015 NOSIG', 'VTCC 141700Z VRB02KT 9000 NSC 22/16 Q1015 NOSIG', 'VTCC 141630Z VRB02KT 9000 NSC 23/16 Q1015 NOSIG', 'VTCC 141600Z 15003KT 9000 NSC 24/16 Q1015 NOSIG', 'VTCC 141530Z VRB01KT 9000 NSC 24/15 Q1015 NOSIG', 'VTCC 141500Z VRB02KT 9000 NSC 25/16 Q1015 NOSIG', 'VTCC 141430Z VRB02KT 9000 NSC 26/16 Q1015 NOSIG', 'VTCC 141400Z VRB01KT 9000 FEW035 26/15 Q1014 NOSIG', 'VTCC 141330Z 28003KT 260V320 9000 FEW035 26/15 Q1014 NOSIG', 'VTCC 141300Z 34003KT 9000 FEW035 27/14 Q1014 NOSIG', 'VTCC 141230Z VRB01KT 9000 FEW035 28/14 Q1013 NOSIG', 'VTCC 141200Z 35002KT 9000 FEW035 28/15 Q1013 NOSIG', 'VTCC 141130Z 34004KT 310V010 9000 FEW035 30/14 Q1012 NOSIG', 'VTCC 141100Z VRB02KT 9000 FEW035 32/13 Q1012 NOSIG', 'VTCC 141030Z VRB02KT 9000 FEW035 33/12 Q1012 NOSIG', 'VTCC 141000Z 17005KT 140V210 9000 FEW035 33/13 Q1012 NOSIG', 'VTCC 140930Z 10004KT 030V180 9000 FEW035 33/13 Q1012 NOSIG', 'VTCC 140900Z 11006KT 050V190 9000 FEW035 33/13 Q1012 NOSIG', 'VTCC 140830Z VRB03KT 9000 FEW035 33/13 Q1012 NOSIG', 'VTCC 140800Z 14006KT 070V170 9000 FEW035 33/13 Q1013 NOSIG', 'VTCC 140730Z VRB03KT 9000 FEW035 33/13 Q1013 NOSIG', 'VTCC 140700Z 22006KT 170V280 9000 FEW035 32/13 Q1014 NOSIG', 'VTCC 140630Z 20004KT 110V270 9000 FEW035 32/15 Q1015 NOSIG', 'VTCC 140600Z VRB03KT 9000 NSC 32/16 Q1015 NOSIG', 'VTCC 140530Z 07005KT 030V140 9000 NSC 30/15 Q1016 NOSIG', 'VTCC 140500Z VRB03KT 9000 NSC 30/15 Q1017 NOSIG', 'VTCC 140430Z VRB03KT 9000 NSC 30/16 Q1017 NOSIG', 'VTCC 140400Z VRB02KT 9000 FEW030 29/16 Q1018 NOSIG', 'VTCC 140330Z VRB02KT 8000 NSC 27/16 Q1018 NOSIG', 'VTCC 140300Z VRB02KT 8000 NSC 27/17 Q1019 NOSIG', 'VTCC 140230Z VRB02KT 8000 NSC 25/16 Q1019 NOSIG', 'VTCC 140200Z VRB02KT 8000 NSC 24/17 Q1018 NOSIG', 'VTCC 140130Z 19003KT 150V220 8000 NSC 22/17 Q1018 NOSIG', 'VTCC 140100Z VRB02KT 8000 NSC 20/16 Q1018 NOSIG', 'VTCC 140030Z 00000KT 8000 NSC 19/15 Q1017 NOSIG', 'VTCC 140000Z VRB01KT 8000 NSC 18/16 Q1017 NOSIG', 'VTCC 132330Z 00000KT 8000 NSC 18/16 Q1016 NOSIG', 'VTCC 132300Z VRB01KT 8000 NSC 19/16 Q1016 NOSIG', 'VTCC 132230Z 28002KT 8000 NSC 19/16 Q1016 NOSIG', 'VTCC 132200Z 00000KT 9000 NSC 19/16 Q1015 NOSIG', 'VTCC 132130Z VRB01KT 9000 NSC 20/16 Q1015 NOSIG', 'VTCC 132100Z VRB01KT 9000 NSC 20/16 Q1015 NOSIG', 'VTCC 132030Z 03002KT 9000 NSC 20/16 Q1015 NOSIG', 'VTCC 132000Z 36005KT 9000 NSC 20/16 Q1016 NOSIG', 'VTCC 131930Z 02004KT 9000 NSC 21/16 Q1016 NOSIG', 'VTCC 131900Z VRB01KT 9000 NSC 21/16 Q1016 NOSIG', 'VTCC 131830Z 00000KT 9000 NSC 21/16 Q1016 NOSIG', 'VTCC 131800Z 00000KT 9000 NSC 22/16 Q1016 NOSIG', 'VTCC 131730Z VRB02KT 9000 NSC 23/16 Q1016 NOSIG', 'VTCC 131700Z VRB02KT 9000 NSC 23/15 Q1016 NOSIG', 'VTCC 131630Z VRB02KT 9000 NSC 23/15 Q1016 NOSIG', 'VTCC 131600Z VRB02KT 9000 NSC 24/15 Q1016 NOSIG', 'VTCC 131530Z VRB01KT 9000 NSC 24/15 Q1016 NOSIG', 'VTCC 131500Z 28003KT 9000 NSC 25/15 Q1016 NOSIG', 'VTCC 131430Z VRB02KT 9000 NSC 25/15 Q1016 NOSIG', 'VTCC 131400Z 34004KT 260V010 9000 NSC 24/15 Q1016 NOSIG', 'VTCC 131330Z 27005KT 9000 NSC 26/15 Q1015 NOSIG', 'VTCC 131300Z 18003KT 9000 NSC 26/15 Q1015 NOSIG', 'VTCC 131230Z 29003KT 260V320 9000 NSC 27/15 Q1014 NOSIG', 'VTCC 131200Z 26003KT 9000 NSC 29/15 Q1014 NOSIG', 'VTCC 131130Z VRB01KT 9000 NSC 31/13 Q1014 NOSIG', 'VTCC 131100Z 15003KT 120V180 9000 NSC 32/12 Q1014 NOSIG', 'VTCC 131030Z 17003KT 110V250 9000 NSC 32/12 Q1014 NOSIG', 'VTCC 131000Z 16004KT 090V180 9000 NSC 33/12 Q1013 NOSIG', 'VTCC 130930Z VRB02KT 9000 FEW030 33/12 Q1013 NOSIG', 'VTCC 130900Z 13005KT 090V230 9000 FEW030 33/13 Q1013 NOSIG', 'VTCC 130830Z 12004KT 080V170 9000 FEW030 33/13 Q1014 NOSIG', 'VTCC 130800Z 18006KT 150V220 9000 FEW030 33/13 Q1014 NOSIG', 'VTCC 130730Z 13005KT 050V190 9000 FEW030 32/12 Q1014 NOSIG', 'VTCC 130700Z 15006KT 100V200 9000 FEW030 32/15 Q1015 NOSIG', 'VTCC 130630Z 16004KT 090V230 9000 FEW030 32/15 Q1016 NOSIG', 'VTCC 130600Z 20004KT 110V270 9000 FEW030 31/16 Q1017 NOSIG', 'VTCC 130530Z VRB04KT 9000 FEW030 31/16 Q1018 NOSIG', 'VTCC 130500Z 19004KT 090V260 9000 FEW035 30/16 Q1018 NOSIG', 'VTCC 130430Z VRB03KT 9000 FEW035 29/17 Q1019 NOSIG', 'VTCC 130400Z VRB03KT 9000 FEW035 28/17 Q1020 NOSIG', 'VTCC 130330Z 34003KT 290V090 9000 NSC 27/18 Q1020 NOSIG', 'VTCC 130300Z VRB03KT 9000 NSC 25/17 Q1020 NOSIG', 'VTCC 130230Z 36003KT 300V040 9000 NSC 25/17 Q1020 NOSIG', 'VTCC 130200Z 01003KT 340V050 9000 NSC 23/17 Q1020 NOSIG', 'VTCC 130130Z 02004KT 350V050 9000 NSC 22/17 Q1020 NOSIG', 'VTCC 130100Z 02003KT 330V050 9000 NSC 21/17 Q1019 NOSIG', 'VTCC 130030Z 04003KT 9000 NSC 20/17 Q1019 NOSIG', 'VTCC 130000Z 05003KT 7000 NSC 20/17 Q1018 NOSIG', 'VTCC 122330Z 36003KT 7000 NSC 20/17 Q1018 NOSIG', 'VTCC 122300Z 33002KT 7000 NSC 19/17 Q1017 NOSIG', 'VTCC 122230Z 35002KT 7000 NSC 19/17 Q1017 NOSIG', 'VTCC 122200Z 25002KT 7000 NSC 20/17 Q1017 NOSIG', 'VTCC 122130Z 25002KT 7000 NSC 20/18 Q1017 NOSIG', 'VTCC 122100Z 26002KT 7000 NSC 21/18 Q1017 NOSIG', 'VTCC 122030Z 35002KT 7000 NSC 21/17 Q1017 NOSIG', 'VTCC 122000Z VRB02KT 7000 NSC 21/17 Q1018 NOSIG', 'VTCC 121930Z 02004KT 7000 NSC 22/18 Q1018 NOSIG', 'VTCC 121900Z 01004KT 7000 NSC 21/18 Q1018 NOSIG', 'VTCC 121830Z VRB01KT 8000 NSC 22/18 Q1018 NOSIG', 'VTCC 121800Z VRB02KT 8000 NSC 23/17 Q1018 NOSIG', 'VTCC 121730Z VRB02KT 8000 NSC 24/17 Q1018 NOSIG', 'VTCC 121700Z 26004KT 8000 NSC 24/17 Q1019 NOSIG', 'VTCC 121630Z 26005KT 8000 NSC 24/17 Q1019 NOSIG', 'VTCC 121600Z 25004KT 230V290 8000 NSC 24/17 Q1019 NOSIG', 'VTCC 121530Z 26005KT 8000 NSC 25/17 Q1019 NOSIG', 'VTCC 121500Z 24004KT 190V270 8000 NSC 25/17 Q1018 NOSIG', 'VTCC 121430Z VRB02KT 8000 NSC 25/17 Q1018 NOSIG', 'VTCC 121400Z 28004KT 260V340 9000 NSC 25/17 Q1018 NOSIG', 'VTCC 121330Z 28004KT 250V340 9000 NSC 26/18 Q1017 NOSIG', 'VTCC 121300Z 23003KT 180V280 9000 NSC 26/18 Q1017 NOSIG', 'VTCC 121230Z VRB02KT 9000 NSC 27/18 Q1016 NOSIG', 'VTCC 121200Z VRB02KT 9000 NSC 28/17 Q1016 NOSIG', 'VTCC 121130Z 00000KT 9000 NSC 30/15 Q1016 NOSIG', 'VTCC 121100Z 12003KT 9000 NSC 30/15 Q1016 NOSIG', 'VTCC 121030Z 19003KT 160V240 9000 NSC 31/15 Q1016 NOSIG', 'VTCC 121000Z 18005KT 140V220 8000 FEW032 31/16 Q1015 NOSIG', 'VTCC 120930Z 18005KT 140V240 8000 FEW032 31/16 Q1015 NOSIG']","['2024-02-15 08:30:00', '2024-02-15 08:00:00', '2024-02-15 07:30:00', '2024-02-15 07:00:00', '2024-02-15 06:30:00', '2024-02-15 06:00:00', '2024-02-15 05:30:00', '2024-02-15 05:00:00', '2024-02-15 04:30:00', '2024-02-15 04:00:00', '2024-02-15 03:30:00', '2024-02-15 03:00:00', '2024-02-15 02:30:00', '2024-02-15 02:00:00', '2024-02-15 01:30:00', '2024-02-15 01:00:00', '2024-02-15 00:30:00', '2024-02-15 00:00:00', '2024-02-14 23:30:00', '2024-02-14 23:00:00', '2024-02-14 22:30:00', '2024-02-14 22:00:00', '2024-02-14 21:30:00', '2024-02-14 21:00:00', '2024-02-14 20:30:00', '2024-02-14 20:00:00', '2024-02-14 19:30:00', '2024-02-14 19:00:00', '2024-02-14 18:30:00', '2024-02-14 18:00:00', '2024-02-14 17:30:00', '2024-02-14 17:00:00', '2024-02-14 16:30:00', '2024-02-14 16:00:00', '2024-02-14 15:30:00', '2024-02-14 15:00:00', '2024-02-14 14:30:00', '2024-02-14 14:00:00', '2024-02-14 13:30:00', '2024-02-14 13:00:00', '2024-02-14 12:30:00', '2024-02-14 12:00:00', '2024-02-14 11:30:00', '2024-02-14 11:00:00', '2024-02-14 10:30:00', '2024-02-14 10:00:00', '2024-02-14 09:30:00', '2024-02-14 09:00:00', '2024-02-14 08:30:00', '2024-02-14 08:00:00', '2024-02-14 07:30:00', '2024-02-14 07:00:00', '2024-02-14 06:30:00', '2024-02-14 06:00:00', '2024-02-14 05:30:00', '2024-02-14 05:00:00', '2024-02-14 04:30:00', '2024-02-14 04:00:00', '2024-02-14 03:30:00', '2024-02-14 03:00:00', '2024-02-14 02:30:00', '2024-02-14 02:00:00', '2024-02-14 01:30:00', '2024-02-14 01:00:00', '2024-02-14 00:30:00', '2024-02-14 00:00:00', '2024-02-13 23:30:00', '2024-02-13 23:00:00', '2024-02-13 22:30:00', '2024-02-13 22:00:00', '2024-02-13 21:30:00', '2024-02-13 21:00:00', '2024-02-13 20:30:00', '2024-02-13 20:00:00', '2024-02-13 19:30:00', '2024-02-13 19:00:00', '2024-02-13 18:30:00', '2024-02-13 18:00:00', '2024-02-13 17:30:00', '2024-02-13 17:00:00', '2024-02-13 16:30:00', '2024-02-13 16:00:00', '2024-02-13 15:30:00', '2024-02-13 15:00:00', '2024-02-13 14:30:00', '2024-02-13 14:00:00', '2024-02-13 13:30:00', '2024-02-13 13:00:00', '2024-02-13 12:30:00', '2024-02-13 12:00:00', '2024-02-13 11:30:00', '2024-02-13 11:00:00', '2024-02-13 10:30:00', '2024-02-13 10:00:00', '2024-02-13 09:30:00', '2024-02-13 09:00:00', '2024-02-13 08:30:00', '2024-02-13 08:00:00', '2024-02-13 07:30:00', '2024-02-13 07:00:00', '2024-02-13 06:30:00', '2024-02-13 06:00:00', '2024-02-13 05:30:00', '2024-02-13 05:00:00', '2024-02-13 04:30:00', '2024-02-13 04:00:00', '2024-02-13 03:30:00', '2024-02-13 03:00:00', '2024-02-13 02:30:00', '2024-02-13 02:00:00', '2024-02-13 01:30:00', '2024-02-13 01:00:00', '2024-02-13 00:30:00', '2024-02-13 00:00:00', '2024-02-12 23:30:00', '2024-02-12 23:00:00', '2024-02-12 22:30:00', '2024-02-12 22:00:00', '2024-02-12 21:30:00', '2024-02-12 21:00:00', '2024-02-12 20:30:00', '2024-02-12 20:00:00', '2024-02-12 19:30:00', '2024-02-12 19:00:00', '2024-02-12 18:30:00', '2024-02-12 18:00:00', '2024-02-12 17:30:00', '2024-02-12 17:00:00', '2024-02-12 16:30:00', '2024-02-12 16:00:00', '2024-02-12 15:30:00', '2024-02-12 15:00:00', '2024-02-12 14:30:00', '2024-02-12 14:00:00', '2024-02-12 13:30:00', '2024-02-12 13:00:00', '2024-02-12 12:30:00', '2024-02-12 12:00:00', '2024-02-12 11:30:00', '2024-02-12 11:00:00', '2024-02-12 10:30:00', '2024-02-12 10:00:00', '2024-02-12 09:30:00']"
Thailand, Chiang Rai International Airport (CEI/VTCT) ,"['VTCT 150800Z VRB03KT 9999 FEW030 32/12 Q1014 NOSIG', 'VTCT 150700Z 10004KT 030V160 9000 NSC 30/12 Q1015 NOSIG', 'VTCT 150600Z 09005KT 040V120 9000 NSC 29/14 Q1017 NOSIG', 'VTCT 150500Z 09006KT 060V210 9000 NSC 27/13 Q1018 NOSIG', 'VTCT 150400Z VRB04KT 9000 NSC 24/14 Q1019 NOSIG', 'VTCT 150300Z 09004KT 020V120 9000 NSC 22/14 Q1019 NOSIG', 'VTCT 150200Z VRB02KT 9000 NSC 20/13 Q1019 NOSIG', 'VTCT 150100Z 00000KT 9000 NSC 18/15 Q1018 NOSIG', 'VTCT 150000Z 00000KT 9000 NSC 14/13 Q1017 NOSIG', 'VTCT 142300Z 00000KT 8000 NSC 15/14 Q1017 NOSIG', 'VTCT 142200Z 32001KT 8000 NSC 15/14 Q1016 NOSIG', 'VTCT 142100Z 01003KT 8000 NSC 16/16 Q1015 NOSIG', 'VTCT 142000Z 00000KT CAVOK 16/14 Q1015 NOSIG', 'VTCT 141900Z 03002KT CAVOK 17/14 Q1015 NOSIG', 'VTCT 141800Z 00000KT CAVOK 19/15 Q1016 NOSIG', 'VTCT 141700Z 00000KT CAVOK 18/16 Q1015 NOSIG', 'VTCT 141600Z 00000KT CAVOK 19/15 Q1016 NOSIG', 'VTCT 141500Z 00000KT CAVOK 21/15 Q1015 NOSIG', 'VTCT 141400Z 28003KT CAVOK 23/15 Q1015 NOSIG', 'VTCT 141300Z VRB01KT CAVOK 24/14 Q1014 NOSIG', 'VTCT 141200Z 35004KT CAVOK 25/14 Q1014 NOSIG', 'VTCT 141100Z 04004KT CAVOK 30/14 Q1013 NOSIG', 'VTCT 141000Z 08005KT CAVOK 32/13 Q1013 NOSIG', 'VTCT 140900Z VRB05KT 9000 NSC 32/14 Q1012 NOSIG', 'VTCT 140800Z 13008KT 100V170 8000 NSC 32/14 Q1013 NOSIG', 'VTCT 140700Z 12006KT 090V150 7000 NSC 31/15 Q1014 NOSIG', 'VTCT 140600Z 11004KT 7000 NSC 30/16 Q1015 NOSIG', 'VTCT 140500Z 09004KT 7000 NSC 28/17 Q1017 NOSIG', 'VTCT 140400Z VRB03KT 7000 NSC 26/17 Q1018 NOSIG', 'VTCT 140300Z 00000KT 6000 NSC 23/18 Q1019 NOSIG', 'VTCT 140200Z 00000KT 6000 NSC 21/17 Q1019 NOSIG', 'VTCT 140100Z 00000KT 6000 NSC 17/17 Q1018 NOSIG', 'VTCT 140000Z 00000KT 4000 BR NSC 16/16 Q1017 BECMG 7000 NSW', 'VTCT 132300Z 00000KT 6000 NSC 16/16 Q1016 NOSIG', 'VTCT 132200Z 00000KT 6000 NSC 17/17 Q1016 NOSIG', 'VTCT 132100Z 30001KT 7000 NSC 17/17 Q1016 NOSIG', 'VTCT 132000Z 00000KT 7000 NSC 17/16 Q1016 NOSIG', 'VTCT 131900Z 32003KT 7000 NSC 18/17 Q1016 NOSIG', 'VTCT 131800Z 25002KT 7000 NSC 19/18 Q1016 NOSIG', 'VTCT 131700Z 00000KT 8000 NSC 20/18 Q1016 NOSIG', 'VTCT 131600Z 00000KT 9000 NSC 20/17 Q1016 NOSIG', 'VTCT 131500Z 00000KT 9000 NSC 22/18 Q1016 NOSIG', 'VTCT 131400Z 00000KT CAVOK 22/18 Q1016 NOSIG', 'VTCT 131300Z 00000KT CAVOK 23/17 Q1015 NOSIG', 'VTCT 131200Z 33003KT CAVOK 24/17 Q1014 NOSIG', 'VTCT 131100Z 00000KT CAVOK 29/16 Q1014 NOSIG', 'VTCT 131000Z 10003KT 9999 FEW040 31/15 Q1014 NOSIG', 'VTCT 130900Z 12003KT 070V180 9000 FEW040 31/16 Q1014 NOSIG', 'VTCT 130800Z VRB03KT 9000 FEW040 31/17 Q1014 NOSIG', 'VTCT 130700Z 12005KT 050V190 9000 FEW040 30/17 Q1016 NOSIG', 'VTCT 130600Z VRB01KT 8000 FEW040 29/18 Q1017 NOSIG', 'VTCT 130500Z VRB04KT 8000 FEW040 27/18 Q1019 NOSIG', 'VTCT 130400Z VRB02KT 7000 NSC 25/18 Q1020 NOSIG', 'VTCT 130300Z VRB01KT 6000 NSC 23/18 Q1021 NOSIG', 'VTCT 130200Z 00000KT 5000 BR NSC 21/17 Q1021 NOSIG', 'VTCT 130100Z 00000KT 4000 BR NSC 18/18 Q1020 NOSIG', 'VTCT 130000Z 00000KT 4000 BR FEW040 17/17 Q1019 NOSIG', 'VTCT 122300Z 33001KT 6000 FEW040 17/17 Q1018 NOSIG', 'VTCT 122200Z 00000KT 7000 FEW040 17/17 Q1017 NOSIG', 'VTCT 122100Z 00000KT 7000 FEW040 18/17 Q1017 NOSIG', 'VTCT 122000Z 00000KT 7000 FEW040 18/18 Q1018 NOSIG', 'VTCT 121900Z 00000KT 8000 FEW040 19/18 Q1018 NOSIG', 'VTCT 121800Z 00000KT 8000 FEW040 19/18 Q1019 NOSIG', 'VTCT 121700Z 00000KT 9000 FEW040 19/17 Q1019 NOSIG', 'VTCT 121600Z 00000KT 9000 FEW040 20/18 Q1019 NOSIG', 'VTCT 121500Z 00000KT 9000 FEW040 21/18 Q1019 NOSIG', 'VTCT 121400Z 00000KT 9000 NSC 22/17 Q1018 NOSIG', 'VTCT 121300Z 34004KT CAVOK 23/17 Q1018 NOSIG', 'VTCT 121200Z 00000KT CAVOK 25/19 Q1017 NOSIG', 'VTCT 121100Z 00000KT CAVOK 28/16 Q1016 NOSIG', 'VTCT 121000Z 13003KT 9000 NSC 29/16 Q1016 NOSIG']","['2024-02-15 08:00:00', '2024-02-15 07:00:00', '2024-02-15 06:00:00', '2024-02-15 05:00:00', '2024-02-15 04:00:00', '2024-02-15 03:00:00', '2024-02-15 02:00:00', '2024-02-15 01:00:00', '2024-02-15 00:00:00', '2024-02-14 23:00:00', '2024-02-14 22:00:00', '2024-02-14 21:00:00', '2024-02-14 20:00:00', '2024-02-14 19:00:00', '2024-02-14 18:00:00', '2024-02-14 17:00:00', '2024-02-14 16:00:00', '2024-02-14 15:00:00', '2024-02-14 14:00:00', '2024-02-14 13:00:00', '2024-02-14 12:00:00', '2024-02-14 11:00:00', '2024-02-14 10:00:00', '2024-02-14 09:00:00', '2024-02-14 08:00:00', '2024-02-14 07:00:00', '2024-02-14 06:00:00', '2024-02-14 05:00:00', '2024-02-14 04:00:00', '2024-02-14 03:00:00', '2024-02-14 02:00:00', '2024-02-14 01:00:00', '2024-02-14 00:00:00', '2024-02-13 23:00:00', '2024-02-13 22:00:00', '2024-02-13 21:00:00', '2024-02-13 20:00:00', '2024-02-13 19:00:00', '2024-02-13 18:00:00', '2024-02-13 17:00:00', '2024-02-13 16:00:00', '2024-02-13 15:00:00', '2024-02-13 14:00:00', '2024-02-13 13:00:00', '2024-02-13 12:00:00', '2024-02-13 11:00:00', '2024-02-13 10:00:00', '2024-02-13 09:00:00', '2024-02-13 08:00:00', '2024-02-13 07:00:00', '2024-02-13 06:00:00', '2024-02-13 05:00:00', '2024-02-13 04:00:00', '2024-02-13 03:00:00', '2024-02-13 02:00:00', '2024-02-13 01:00:00', '2024-02-13 00:00:00', '2024-02-12 23:00:00', '2024-02-12 22:00:00', '2024-02-12 21:00:00', '2024-02-12 20:00:00', '2024-02-12 19:00:00', '2024-02-12 18:00:00', '2024-02-12 17:00:00', '2024-02-12 16:00:00', '2024-02-12 15:00:00', '2024-02-12 14:00:00', '2024-02-12 13:00:00', '2024-02-12 12:00:00', '2024-02-12 11:00:00', '2024-02-12 10:00:00']"
Thailand, Chumphon Airport (CJM/VTSE) ,"['VTSE 150800Z 15005KT 100V190 9000 -RA BKN020 OVC100 29/25 Q1012 NOSIG', 'VTSE 150700Z 13007KT 100V160 9999 SCT020 31/25 Q1012 NOSIG', 'VTSE 150600Z 11007KT 060V150 9999 SCT020 32/25 Q1013 NOSIG', 'VTSE 150500Z 10006KT 060V150 9999 SCT020 32/25 Q1014 NOSIG', 'VTSE 150400Z 13005KT 9999 FEW020 31/25 Q1014 NOSIG', 'VTSE 150300Z VRB02KT 9999 FEW020 31/25 Q1015 NOSIG', 'VTSE 150200Z 00000KT 9000 FEW020 30/25 Q1014 NOSIG', 'VTSE 150100Z 00000KT 9000 FEW020 26/25 Q1013 NOSIG', 'VTSE 150000Z VRB01KT 7000 FEW020 24/24 Q1013 NOSIG', 'VTSE 142300Z VRB01KT 7000 BKN020 OVC100 24/24 Q1013 NOSIG', 'VTSE 141100Z 08005KT 9000 SCT020 BKN080 27/24 Q1012 NOSIG', 'VTSE 141000Z 12006KT 9000 SCT020 BKN080 28/25 Q1011 NOSIG', 'VTSE 140900Z 08006KT 8000 3900SW -RA FEW018TCU SCT020 BKN080 28/24 Q1011 NOSIG', 'VTSE 140800Z 07007KT 050V110 9000 FEW018TCU SCT020 BKN080 30/24 Q1011 NOSIG', 'VTSE 140700Z 08008KT 040V110 9000 SCT020 SCT080 33/24 Q1012 NOSIG', 'VTSE 140600Z 07008KT 040V100 9000 FEW020 SCT080 32/24 Q1013 NOSIG', 'VTSE 140500Z 07007KT 030V110 9000 FEW020 32/25 Q1014 NOSIG', 'VTSE 140400Z 05008KT 9000 FEW020 32/24 Q1015 NOSIG', 'VTSE 140300Z 05007KT 020V080 9000 FEW020 30/24 Q1015 NOSIG', 'VTSE 140200Z 02003KT 330V050 9000 NSC 28/23 Q1015 NOSIG', 'VTSE 140100Z VRB02KT 8000 NSC 25/23 Q1014 NOSIG', 'VTSE 140000Z 00000KT 7000 FEW020 23/22 Q1013 NOSIG', 'VTSE 132300Z VRB01KT 5000 BR SCT020 23/22 Q1013 NOSIG', 'VTSE 131100Z 06006KT 030V100 9000 SCT020 29/22 Q1012 NOSIG', 'VTSE 131000Z 05008KT 030V090 9000 FEW020 30/22 Q1012 NOSIG', 'VTSE 130900Z 05011KT 9000 FEW020 31/22 Q1012 NOSIG', 'VTSE 130800Z 04011KT 010V070 9000 SCT020 31/22 Q1012 NOSIG', 'VTSE 130700Z 05012KT 020V080 9000 SCT020 32/22 Q1013 NOSIG', 'VTSE 130600Z 06010KT 040V100 9000 SCT020 31/22 Q1014 NOSIG', 'VTSE 130500Z 07010KT 040V100 9000 SCT020 32/23 Q1015 NOSIG', 'VTSE 130400Z 08009KT 050V110 9000 FEW020 32/23 Q1015 NOSIG', 'VTSE 130300Z 04006KT 360V090 9000 SCT020 29/23 Q1016 NOSIG', 'VTSE 130200Z 00000KT 9000 SCT020 26/23 Q1015 NOSIG', 'VTSE 130100Z VRB02KT 9000 SCT020 24/23 Q1015 NOSIG', 'VTSE 130000Z 30004KT 270V360 8000 FEW020 23/22 Q1014 NOSIG', 'VTSE 122300Z VRB02KT 6000 SCT020 SCT080 23/23 Q1014 NOSIG', 'VTSE 121100Z 03006KT 9000 FEW018TCU 28/22 Q1014 NOSIG', 'VTSE 121000Z 04007KT 010V070 9000 FEW018TCU 29/22 Q1014 NOSIG']","['2024-02-15 08:00:00', '2024-02-15 07:00:00', '2024-02-15 06:00:00', '2024-02-15 05:00:00', '2024-02-15 04:00:00', '2024-02-15 03:00:00', '2024-02-15 02:00:00', '2024-02-15 01:00:00', '2024-02-15 00:00:00', '2024-02-14 23:00:00', '2024-02-14 11:00:00', '2024-02-14 10:00:00', '2024-02-14 09:00:00', '2024-02-14 08:00:00', '2024-02-14 07:00:00', '2024-02-14 06:00:00', '2024-02-14 05:00:00', '2024-02-14 04:00:00', '2024-02-14 03:00:00', '2024-02-14 02:00:00', '2024-02-14 01:00:00', '2024-02-14 00:00:00', '2024-02-13 23:00:00', '2024-02-13 11:00:00', '2024-02-13 10:00:00', '2024-02-13 09:00:00', '2024-02-13 08:00:00', '2024-02-13 07:00:00', '2024-02-13 06:00:00', '2024-02-13 05:00:00', '2024-02-13 04:00:00', '2024-02-13 03:00:00', '2024-02-13 02:00:00', '2024-02-13 01:00:00', '2024-02-13 00:00:00', '2024-02-12 23:00:00', '2024-02-12 11:00:00', '2024-02-12 10:00:00']"
Thailand, Hat Yai International Airport (HDY/VTSS) ,"['VTSS 150830Z 06011KT 9999 FEW020 33/24 Q1011 NOSIG', 'VTSS 150800Z 06014KT 9999 FEW020 33/23 Q1011 NOSIG', 'VTSS 150730Z 07013KT 9999 SCT020 34/23 Q1012 NOSIG', 'VTSS 150700Z 07014KT 9999 SCT020 33/23 Q1012 NOSIG', 'VTSS 150630Z 08013KT 9999 SCT020 33/23 Q1012 NOSIG', 'VTSS 150600Z 09014KT 050V110 9999 SCT020 33/24 Q1013 NOSIG', 'VTSS 150530Z 09016KT 050V120 9999 SCT020 33/23 Q1013 NOSIG', 'VTSS 150500Z 08014KT 9999 SCT020 33/24 Q1013 NOSIG', 'VTSS 150430Z 07017KT 9999 SCT020 32/23 Q1013 NOSIG', 'VTSS 150400Z 07015KT 9999 SCT020 33/24 Q1014 NOSIG', 'VTSS 150330Z 07015KT 9999 SCT020 31/25 Q1014 NOSIG', 'VTSS 150300Z 07013KT 9999 SCT020 31/25 Q1014 NOSIG', 'VTSS 150230Z 08013KT 9999 SCT020 30/25 Q1014 NOSIG', 'VTSS 150200Z 09011KT 9999 SCT020 29/25 Q1014 NOSIG', 'VTSS 150130Z VRB02KT 9999 SCT020 28/25 Q1014 NOSIG', 'VTSS 150100Z VRB02KT 9999 SCT020 27/25 Q1013 NOSIG', 'VTSS 150030Z 02003KT 340V050 9999 SCT020 26/25 Q1013 NOSIG', 'VTSS 150000Z 34004KT 9999 SCT020 25/24 Q1012 NOSIG', 'VTSS 142330Z 35003KT 9999 SCT020 26/24 Q1012 NOSIG', 'VTSS 142300Z 31003KT 270V330 9999 SCT020 25/24 Q1012 NOSIG', 'VTSS 142230Z VRB02KT 9999 FEW020 25/24 Q1012 NOSIG', 'VTSS 142200Z VRB02KT 9999 FEW020 25/24 Q1012 NOSIG', 'VTSS 142130Z 34004KT 9999 FEW020 25/24 Q1012 NOSIG', 'VTSS 142100Z 32003KT 290V030 9999 SCT020 25/24 Q1012 NOSIG', 'VTSS 142030Z 33004KT 9999 SCT020 25/23 Q1012 NOSIG', 'VTSS 142000Z VRB02KT 9999 FEW020 24/23 Q1012 NOSIG', 'VTSS 141930Z 34003KT 320V050 9999 FEW020 24/23 Q1012 NOSIG', 'VTSS 141900Z VRB02KT 9999 FEW020 24/23 Q1012 NOSIG', 'VTSS 141830Z 05004KT 9999 FEW020 25/23 Q1013 NOSIG', 'VTSS 141800Z 05003KT 9999 FEW020 25/23 Q1013 NOSIG', 'VTSS 141730Z 06003KT 310V110 9999 FEW020 25/23 Q1013 NOSIG', 'VTSS 141700Z 08006KT 9999 FEW020 26/23 Q1013 NOSIG', 'VTSS 141630Z 07005KT 9999 FEW020 26/24 Q1013 NOSIG', 'VTSS 141600Z 06006KT 9999 FEW020 27/24 Q1013 NOSIG', 'VTSS 141530Z 07007KT 030V090 9999 FEW020 27/24 Q1013 NOSIG', 'VTSS 141500Z 07009KT 9999 FEW020 27/24 Q1013 NOSIG', 'VTSS 141430Z 06009KT 9999 FEW020 28/24 Q1013 NOSIG', 'VTSS 141400Z 06009KT 9999 FEW020 28/24 Q1013 NOSIG', 'VTSS 141330Z 06010KT 9999 FEW020 28/24 Q1013 NOSIG', 'VTSS 141300Z 07011KT 9999 FEW020 28/24 Q1012 NOSIG', 'VTSS 141230Z 07011KT 9999 FEW020 28/24 Q1012 NOSIG', 'VTSS 141200Z 07013KT 9999 FEW020 SCT100 28/24 Q1012 NOSIG', 'VTSS 141130Z 07012KT 9999 FEW020 SCT100 29/24 Q1011 NOSIG', 'VTSS 141100Z 07014KT 9999 FEW020 SCT100 29/24 Q1011 NOSIG', 'VTSS 141030Z 07015KT 9999 FEW020 SCT100 30/24 Q1010 NOSIG', 'VTSS 141000Z 08014KT 9999 FEW020 BKN100 30/24 Q1010 NOSIG', 'VTSS 140930Z 06012KT 9999 SCT020 BKN100 30/24 Q1010 NOSIG', 'VTSS 140900Z 07014KT 9999 SCT020 BKN100 30/24 Q1010 NOSIG', 'VTSS 140830Z 07014KT 9999 SCT020 BKN100 31/24 Q1010 NOSIG', 'VTSS 140800Z 07014KT 9999 SCT020 SCT100 32/24 Q1010 NOSIG', 'VTSS 140730Z 06015KT 9999 SCT020 SCT100 31/24 Q1010 NOSIG', 'VTSS 140700Z 07015KT 9999 SCT020 SCT100 32/24 Q1010 NOSIG', 'VTSS 140630Z 07017KT 9999 SCT020 SCT100 33/25 Q1011 NOSIG', 'VTSS 140600Z 07015KT 9999 SCT020 SCT100 32/25 Q1012 NOSIG', 'VTSS 140530Z 06016KT 9999 SCT020 SCT100 32/26 Q1012 NOSIG', 'VTSS 140500Z 07018KT 9999 FEW020 SCT100 32/26 Q1013 NOSIG', 'VTSS 140430Z 08017KT 9999 FEW020 SCT100 32/26 Q1013 NOSIG', 'VTSS 140400Z 07013KT 9999 FEW020 SCT100 31/27 Q1013 NOSIG', 'VTSS 140330Z 08012KT 9999 FEW020 BKN100 30/26 Q1014 NOSIG', 'VTSS 140300Z 07008KT 9999 SCT020 BKN100 29/26 Q1014 NOSIG', 'VTSS 140230Z 06005KT 020V090 9999 SCT020 BKN100 27/25 Q1014 NOSIG', 'VTSS 140200Z 06005KT 030V090 9999 SCT020 BKN100 27/26 Q1014 NOSIG', 'VTSS 140130Z 06005KT 030V090 9999 SCT020 SCT028 BKN100 26/25 Q1014 NOSIG', 'VTSS 140100Z 02003KT 360V140 9000 -RA SCT020 SCT028 BKN100 25/24 Q1013 NOSIG', 'VTSS 140030Z VRB02KT 8000 -RA SCT020 SCT028 BKN100 25/24 Q1013 NOSIG', 'VTSS 140000Z 29003KT 270V340 9999 SCT020 BKN100 25/24 Q1013 NOSIG', 'VTSS 132330Z VRB01KT 9999 SCT020 BKN100 25/24 Q1013 NOSIG', 'VTSS 132300Z 36003KT 320V050 9999 SCT020 BKN100 25/24 Q1012 NOSIG', 'VTSS 132230Z 00000KT 9999 SCT020 SCT028 BKN100 25/24 Q1012 NOSIG', 'VTSS 132200Z 07003KT 040V120 9999 -RA SCT020 SCT028 BKN100 25/24 Q1012 NOSIG', 'VTSS 132130Z 00000KT 9999 -RA SCT020 SCT028 BKN100 24/23 Q1012 NOSIG', 'VTSS 132100Z VRB02KT 9999 SCT020 SCT028 BKN100 25/23 Q1012 NOSIG', 'VTSS 132030Z 20002KT 9999 SCT020 SCT028 BKN100 25/23 Q1012 NOSIG', 'VTSS 132000Z 09006KT 9999 -RA FEW009 SCT020 BKN100 25/23 Q1012 NOSIG', 'VTSS 131930Z 12005KT 080V170 8000 -RA FEW007 SCT020 BKN100 25/23 Q1013 NOSIG', 'VTSS 131900Z VRB02KT 9999 -RA SCT020 SCT028 BKN100 25/24 Q1013 NOSIG', 'VTSS 131830Z VRB03KT 9999 SCT020 SCT028 BKN100 26/23 Q1013 NOSIG', 'VTSS 131800Z 05003KT 9999 -RA SCT020 SCT028 BKN100 27/23 Q1014 NOSIG', 'VTSS 131730Z 05004KT 360V080 9999 FEW020 SCT100 27/23 Q1014 NOSIG', 'VTSS 131700Z 04004KT 010V070 9999 FEW020 SCT100 27/23 Q1014 NOSIG', 'VTSS 131630Z 06006KT 020V090 9999 FEW020 SCT100 27/23 Q1014 NOSIG', 'VTSS 131600Z 05007KT 9999 FEW020 SCT100 27/23 Q1014 NOSIG', 'VTSS 131530Z 06008KT 020V080 9999 FEW020 SCT100 27/23 Q1014 NOSIG', 'VTSS 131500Z 07006KT 9999 FEW020 27/23 Q1014 NOSIG', 'VTSS 131430Z 07009KT 9999 FEW020 27/23 Q1014 NOSIG', 'VTSS 131400Z 07010KT 9999 FEW020 SCT100 28/23 Q1014 NOSIG', 'VTSS 131330Z 07009KT 9999 FEW020 SCT100 27/23 Q1013 NOSIG', 'VTSS 131300Z 07010KT 9999 FEW020 SCT100 28/23 Q1013 NOSIG', 'VTSS 131230Z 08009KT 9999 FEW020 SCT100 28/23 Q1013 NOSIG', 'VTSS 131200Z 07014KT 9999 FEW020 SCT100 28/23 Q1012 NOSIG', 'VTSS 131130Z 08014KT 9999 FEW020 SCT100 29/22 Q1012 NOSIG', 'VTSS 131100Z 07014KT 9999 FEW020 SCT100 29/22 Q1012 NOSIG', 'VTSS 131030Z 08014KT 9999 FEW020 SCT100 30/22 Q1012 NOSIG', 'VTSS 131000Z 08014KT 9999 SCT020 SCT100 30/22 Q1011 NOSIG', 'VTSS 130930Z 09016KT 9999 SCT020 SCT100 30/22 Q1011 NOSIG', 'VTSS 130900Z 08016KT 9999 SCT020 SCT100 31/22 Q1011 NOSIG', 'VTSS 130830Z 08016KT 9999 SCT020 SCT100 31/22 Q1011 NOSIG', 'VTSS 130800Z 09020KT 9999 SCT020 SCT100 32/22 Q1011 NOSIG', 'VTSS 130730Z 10015KT 9999 SCT020 SCT100 32/22 Q1012 NOSIG', 'VTSS 130700Z 08019KT 9999 SCT020 SCT100 32/22 Q1012 NOSIG', 'VTSS 130630Z 06017KT 9999 SCT020 SCT100 33/22 Q1013 NOSIG', 'VTSS 130600Z 09021KT 050V110 9999 SCT020 SCT100 33/22 Q1013 NOSIG', 'VTSS 130530Z 08018KT 050V120 9999 SCT020 SCT100 33/23 Q1014 NOSIG', 'VTSS 130500Z 07018KT 9999 FEW020 SCT100 32/23 Q1014 NOSIG', 'VTSS 130430Z 07019KT 9999 FEW020 SCT100 32/23 Q1014 NOSIG', 'VTSS 130400Z 08018KT 9999 FEW020 SCT100 32/23 Q1015 NOSIG', 'VTSS 130330Z 08019KT 9999 FEW020 SCT100 32/23 Q1015 NOSIG', 'VTSS 130300Z 07015KT 9999 FEW020 SCT100 31/24 Q1015 NOSIG', 'VTSS 130230Z 07015KT 050V110 9999 FEW020 SCT100 30/24 Q1015 NOSIG', 'VTSS 130200Z 08011KT 9999 FEW020 SCT100 29/25 Q1015 NOSIG', 'VTSS 130130Z 07008KT 030V100 9999 FEW020 SCT100 27/24 Q1015 NOSIG', 'VTSS 130100Z 25003KT 220V300 9999 FEW020 26/24 Q1014 NOSIG', 'VTSS 130030Z VRB02KT 9999 FEW020 24/23 Q1014 NOSIG', 'VTSS 130000Z 27003KT 9999 FEW020 23/22 Q1014 NOSIG', 'VTSS 122330Z 27003KT 9999 FEW020 23/22 Q1014 NOSIG', 'VTSS 122300Z 25003KT 9999 FEW020 23/22 Q1014 NOSIG', 'VTSS 122230Z 28003KT 250V310 9999 FEW020 23/22 Q1013 NOSIG', 'VTSS 122200Z 27004KT 9999 FEW020 23/22 Q1013 NOSIG', 'VTSS 122130Z VRB02KT 9999 FEW020 23/22 Q1013 NOSIG', 'VTSS 122100Z VRB01KT 9999 FEW020 23/22 Q1013 NOSIG', 'VTSS 122030Z 00000KT 9999 FEW020 24/22 Q1014 NOSIG', 'VTSS 122000Z VRB01KT 9999 FEW020 24/22 Q1014 NOSIG', 'VTSS 121930Z VRB01KT 9999 FEW020 24/22 Q1014 NOSIG', 'VTSS 121900Z VRB02KT 9999 FEW020 25/23 Q1014 NOSIG', 'VTSS 121830Z VRB02KT 9999 FEW020 25/23 Q1015 NOSIG', 'VTSS 121800Z 07004KT 9999 FEW020 25/23 Q1015 NOSIG', 'VTSS 121730Z 07003KT 040V110 9999 FEW020 26/23 Q1016 NOSIG', 'VTSS 121700Z 05004KT 9999 FEW020 26/23 Q1016 NOSIG', 'VTSS 121630Z 04004KT 9999 FEW020 26/23 Q1016 NOSIG', 'VTSS 121600Z 04004KT 9999 FEW020 26/23 Q1016 NOSIG', 'VTSS 121530Z 05004KT 9999 FEW020 26/23 Q1016 NOSIG', 'VTSS 121500Z VRB02KT 9999 FEW020 26/23 Q1016 NOSIG', 'VTSS 121430Z VRB02KT 9999 FEW020 26/22 Q1016 NOSIG', 'VTSS 121400Z 09003KT 060V120 9999 FEW020 27/22 Q1016 NOSIG', 'VTSS 121330Z 05005KT 9999 FEW020 27/22 Q1015 NOSIG', 'VTSS 121300Z 05005KT 9999 FEW020 27/22 Q1015 NOSIG', 'VTSS 121230Z 07009KT 9999 FEW020 28/22 Q1015 NOSIG', 'VTSS 121200Z 07011KT 9999 FEW020 28/22 Q1014 NOSIG', 'VTSS 121130Z 07012KT 9999 FEW020 28/21 Q1014 NOSIG', 'VTSS 121100Z 06014KT 9999 FEW020 29/21 Q1013 NOSIG', 'VTSS 121030Z 07015KT 9999 FEW020 30/21 Q1013 NOSIG', 'VTSS 121000Z 07018KT 9999 FEW020 31/21 Q1013 NOSIG', 'VTSS 120930Z 07019KT 9999 FEW020 31/21 Q1012 NOSIG']","['2024-02-15 08:30:00', '2024-02-15 08:00:00', '2024-02-15 07:30:00', '2024-02-15 07:00:00', '2024-02-15 06:30:00', '2024-02-15 06:00:00', '2024-02-15 05:30:00', '2024-02-15 05:00:00', '2024-02-15 04:30:00', '2024-02-15 04:00:00', '2024-02-15 03:30:00', '2024-02-15 03:00:00', '2024-02-15 02:30:00', '2024-02-15 02:00:00', '2024-02-15 01:30:00', '2024-02-15 01:00:00', '2024-02-15 00:30:00', '2024-02-15 00:00:00', '2024-02-14 23:30:00', '2024-02-14 23:00:00', '2024-02-14 22:30:00', '2024-02-14 22:00:00', '2024-02-14 21:30:00', '2024-02-14 21:00:00', '2024-02-14 20:30:00', '2024-02-14 20:00:00', '2024-02-14 19:30:00', '2024-02-14 19:00:00', '2024-02-14 18:30:00', '2024-02-14 18:00:00', '2024-02-14 17:30:00', '2024-02-14 17:00:00', '2024-02-14 16:30:00', '2024-02-14 16:00:00', '2024-02-14 15:30:00', '2024-02-14 15:00:00', '2024-02-14 14:30:00', '2024-02-14 14:00:00', '2024-02-14 13:30:00', '2024-02-14 13:00:00', '2024-02-14 12:30:00', '2024-02-14 12:00:00', '2024-02-14 11:30:00', '2024-02-14 11:00:00', '2024-02-14 10:30:00', '2024-02-14 10:00:00', '2024-02-14 09:30:00', '2024-02-14 09:00:00', '2024-02-14 08:30:00', '2024-02-14 08:00:00', '2024-02-14 07:30:00', '2024-02-14 07:00:00', '2024-02-14 06:30:00', '2024-02-14 06:00:00', '2024-02-14 05:30:00', '2024-02-14 05:00:00', '2024-02-14 04:30:00', '2024-02-14 04:00:00', '2024-02-14 03:30:00', '2024-02-14 03:00:00', '2024-02-14 02:30:00', '2024-02-14 02:00:00', '2024-02-14 01:30:00', '2024-02-14 01:00:00', '2024-02-14 00:30:00', '2024-02-14 00:00:00', '2024-02-13 23:30:00', '2024-02-13 23:00:00', '2024-02-13 22:30:00', '2024-02-13 22:00:00', '2024-02-13 21:30:00', '2024-02-13 21:00:00', '2024-02-13 20:30:00', '2024-02-13 20:00:00', '2024-02-13 19:30:00', '2024-02-13 19:00:00', '2024-02-13 18:30:00', '2024-02-13 18:00:00', '2024-02-13 17:30:00', '2024-02-13 17:00:00', '2024-02-13 16:30:00', '2024-02-13 16:00:00', '2024-02-13 15:30:00', '2024-02-13 15:00:00', '2024-02-13 14:30:00', '2024-02-13 14:00:00', '2024-02-13 13:30:00', '2024-02-13 13:00:00', '2024-02-13 12:30:00', '2024-02-13 12:00:00', '2024-02-13 11:30:00', '2024-02-13 11:00:00', '2024-02-13 10:30:00', '2024-02-13 10:00:00', '2024-02-13 09:30:00', '2024-02-13 09:00:00', '2024-02-13 08:30:00', '2024-02-13 08:00:00', '2024-02-13 07:30:00', '2024-02-13 07:00:00', '2024-02-13 06:30:00', '2024-02-13 06:00:00', '2024-02-13 05:30:00', '2024-02-13 05:00:00', '2024-02-13 04:30:00', '2024-02-13 04:00:00', '2024-02-13 03:30:00', '2024-02-13 03:00:00', '2024-02-13 02:30:00', '2024-02-13 02:00:00', '2024-02-13 01:30:00', '2024-02-13 01:00:00', '2024-02-13 00:30:00', '2024-02-13 00:00:00', '2024-02-12 23:30:00', '2024-02-12 23:00:00', '2024-02-12 22:30:00', '2024-02-12 22:00:00', '2024-02-12 21:30:00', '2024-02-12 21:00:00', '2024-02-12 20:30:00', '2024-02-12 20:00:00', '2024-02-12 19:30:00', '2024-02-12 19:00:00', '2024-02-12 18:30:00', '2024-02-12 18:00:00', '2024-02-12 17:30:00', '2024-02-12 17:00:00', '2024-02-12 16:30:00', '2024-02-12 16:00:00', '2024-02-12 15:30:00', '2024-02-12 15:00:00', '2024-02-12 14:30:00', '2024-02-12 14:00:00', '2024-02-12 13:30:00', '2024-02-12 13:00:00', '2024-02-12 12:30:00', '2024-02-12 12:00:00', '2024-02-12 11:30:00', '2024-02-12 11:00:00', '2024-02-12 10:30:00', '2024-02-12 10:00:00', '2024-02-12 09:30:00']"
Thailand, Hua Hin Airport (HHQ/VTPH) ,"['VTPH 150800Z 14008KT 6000 FEW030 33/25 Q1011 NOSIG', 'VTPH 150700Z 13007KT 6000 FEW030 33/24 Q1012 NOSIG', 'VTPH 150600Z 11005KT 070V140 6000 FEW030 33/24 Q1013 NOSIG', 'VTPH 150500Z 08006KT 6000 FEW030 32/23 Q1014 NOSIG', 'VTPH 150400Z 07005KT 020V110 6000 FEW030 31/22 Q1015 NOSIG', 'VTPH 150300Z 07005KT 040V100 6000 FEW030 31/20 Q1015 NOSIG', 'VTPH 150200Z VRB01KT 6000 FEW030 30/19 Q1015 NOSIG', 'VTPH 150100Z 00000KT 6000 FEW030 26/19 Q1014 NOSIG', 'VTPH 150000Z 26003KT 240V300 6000 FEW030 24/20 Q1013 NOSIG', 'VTPH 142300Z 26003KT 200V290 6000 FEW030 24/20 Q1013 NOSIG', 'VTPH 142200Z 00000KT 6000 FEW030 23/20 Q1012 NOSIG', 'VTPH 141100Z 14006KT 6000 FEW030 30/23 Q1011 NOSIG', 'VTPH 141000Z 13005KT 6000 FEW030 31/22 Q1011 NOSIG', 'VTPH 140900Z 12005KT 090V150 6000 FEW030 32/22 Q1011 NOSIG', 'VTPH 140800Z 07005KT 040V120 6000 FEW030 32/23 Q1011 NOSIG', 'VTPH 140700Z 06006KT 360V090 6000 FEW030 32/22 Q1012 NOSIG', 'VTPH 140600Z 05007KT 360V070 6000 FEW030 32/20 Q1013 NOSIG', 'VTPH 140500Z 04006KT 340V080 6000 FEW030 32/18 Q1014 NOSIG', 'VTPH 140400Z 04006KT 360V060 6000 FEW030 32/18 Q1015 NOSIG', 'VTPH 140300Z 06005KT 020V090 6000 FEW030 31/19 Q1016 NOSIG', 'VTPH 140200Z 34003KT 280V040 7000 FEW030 28/17 Q1015 NOSIG', 'VTPH 140100Z 00000KT 7000 FEW030 25/19 Q1015 NOSIG', 'VTPH 140000Z 00000KT 8000 FEW030 22/18 Q1014 NOSIG', 'VTPH 132300Z 00000KT 8000 FEW030 22/18 Q1013 NOSIG', 'VTPH 132200Z 00000KT 6000 FEW030 22/18 Q1013 NOSIG', 'VTPH 131100Z 02004KT 360V060 6000 FEW030 29/20 Q1012 NOSIG', 'VTPH 131000Z 04006KT 340V070 6000 FEW030 30/20 Q1012 NOSIG', 'VTPH 130900Z 03008KT 350V060 6000 FEW030 30/20 Q1012 NOSIG', 'VTPH 130800Z 03010KT 350V060 6000 FEW030 31/20 Q1012 NOSIG', 'VTPH 130700Z 03009KT 350V050 5000 HZ FEW030 31/20 Q1013 NOSIG', 'VTPH 130600Z 03010KT 350V060 5000 HZ FEW030 31/20 Q1015 NOSIG', 'VTPH 130500Z 01010KT 340V050 3000 HZ FEW030 31/20 Q1016 NOSIG', 'VTPH 130400Z 01009KT 340V050 3000 HZ FEW030 30/19 Q1016 NOSIG', 'VTPH 130300Z 35006KT 290V050 3000 HZ FEW030 30/19 Q1017 NOSIG', 'VTPH 130200Z VRB04KT 4000 HZ FEW030 27/18 Q1016 NOSIG', 'VTPH 130100Z VRB03KT 4000 HZ FEW030 26/17 Q1016 NOSIG', 'VTPH 130000Z VRB02KT 3000 HZ FEW030 23/17 Q1015 NOSIG', 'VTPH 122300Z VRB02KT 4000 BR FEW030 23/17 Q1015 NOSIG', 'VTPH 122200Z VRB02KT 4000 FEW030 24/18 Q1014 NOSIG', 'VTPH 121100Z 36005KT 4000 HZ FEW030 28/18 Q1015 NOSIG', 'VTPH 121000Z 02010KT 350V050 4000 HZ FEW030 29/18 Q1015 NOSIG']","['2024-02-15 08:00:00', '2024-02-15 07:00:00', '2024-02-15 06:00:00', '2024-02-15 05:00:00', '2024-02-15 04:00:00', '2024-02-15 03:00:00', '2024-02-15 02:00:00', '2024-02-15 01:00:00', '2024-02-15 00:00:00', '2024-02-14 23:00:00', '2024-02-14 22:00:00', '2024-02-14 11:00:00', '2024-02-14 10:00:00', '2024-02-14 09:00:00', '2024-02-14 08:00:00', '2024-02-14 07:00:00', '2024-02-14 06:00:00', '2024-02-14 05:00:00', '2024-02-14 04:00:00', '2024-02-14 03:00:00', '2024-02-14 02:00:00', '2024-02-14 01:00:00', '2024-02-14 00:00:00', '2024-02-13 23:00:00', '2024-02-13 22:00:00', '2024-02-13 11:00:00', '2024-02-13 10:00:00', '2024-02-13 09:00:00', '2024-02-13 08:00:00', '2024-02-13 07:00:00', '2024-02-13 06:00:00', '2024-02-13 05:00:00', '2024-02-13 04:00:00', '2024-02-13 03:00:00', '2024-02-13 02:00:00', '2024-02-13 01:00:00', '2024-02-13 00:00:00', '2024-02-12 23:00:00', '2024-02-12 22:00:00', '2024-02-12 11:00:00', '2024-02-12 10:00:00']"
Thailand, Khon Kaen Airport (KKC/VTUK) ,"['VTUK 150800Z 35005KT 300V060 CAVOK 35/12 Q1013 NOSIG', 'VTUK 150700Z 10004KT 020V180 CAVOK 34/13 Q1014 NOSIG', 'VTUK 150600Z VRB04KT CAVOK 33/15 Q1015 NOSIG', 'VTUK 150500Z VRB02KT 9000 NSC 32/15 Q1016 NOSIG', 'VTUK 150400Z VRB02KT 9000 NSC 30/14 Q1017 NOSIG', 'VTUK 150300Z VRB03KT 8000 NSC 28/14 Q1018 NOSIG', 'VTUK 150200Z VRB02KT 7000 NSC 27/15 Q1017 NOSIG', 'VTUK 150100Z VRB02KT 7000 NSC 23/15 Q1017 NOSIG', 'VTUK 150000Z VRB03KT 9000 NSC 20/14 Q1016 NOSIG', 'VTUK 142300Z 36002KT 9000 NSC 21/13 Q1015 NOSIG', 'VTUK 142200Z 31001KT CAVOK 20/13 Q1014 NOSIG', 'VTUK 142100Z 02002KT CAVOK 21/13 Q1014 NOSIG', 'VTUK 142000Z 32004KT CAVOK 21/13 Q1014 NOSIG', 'VTUK 141900Z 35003KT CAVOK 21/14 Q1014 NOSIG', 'VTUK 141800Z 30004KT CAVOK 22/14 Q1015 NOSIG', 'VTUK 141700Z 30002KT CAVOK 23/14 Q1015 NOSIG', 'VTUK 141600Z 12002KT CAVOK 25/14 Q1015 NOSIG', 'VTUK 141500Z 10003KT CAVOK 26/14 Q1015 NOSIG', 'VTUK 141400Z 11004KT CAVOK 26/14 Q1015 NOSIG', 'VTUK 141300Z 10004KT CAVOK 27/11 Q1014 NOSIG', 'VTUK 141200Z 14004KT CAVOK 29/08 Q1014 NOSIG', 'VTUK 141100Z 10003KT 070V140 CAVOK 31/09 Q1013 NOSIG', 'VTUK 141000Z 09003KT 030V170 CAVOK 33/07 Q1013 NOSIG', 'VTUK 140900Z 07004KT 020V130 CAVOK 33/09 Q1013 NOSIG', 'VTUK 140800Z VRB04KT CAVOK 33/12 Q1013 NOSIG', 'VTUK 140700Z 19005KT 120V220 CAVOK 32/12 Q1014 NOSIG', 'VTUK 140600Z VRB03KT CAVOK 32/15 Q1015 NOSIG', 'VTUK 140500Z 20003KT 100V260 CAVOK 30/16 Q1017 NOSIG', 'VTUK 140400Z VRB02KT 9000 NSC 27/16 Q1018 NOSIG', 'VTUK 140300Z 19003KT 150V280 8000 NSC 25/16 Q1019 NOSIG', 'VTUK 140200Z VRB02KT 8000 NSC 23/16 Q1019 NOSIG', 'VTUK 140100Z VRB02KT 6000 NSC 21/16 Q1018 NOSIG', 'VTUK 140000Z 33003KT 8000 NSC 17/15 Q1017 NOSIG', 'VTUK 132300Z VRB01KT 9000 NSC 18/15 Q1016 NOSIG', 'VTUK 132200Z 08003KT 9000 NSC 21/15 Q1016 NOSIG', 'VTUK 132100Z 09004KT CAVOK 21/15 Q1015 NOSIG', 'VTUK 132000Z 08004KT CAVOK 20/14 Q1016 NOSIG', 'VTUK 131900Z 36002KT CAVOK 21/14 Q1016 NOSIG', 'VTUK 131800Z 03004KT CAVOK 22/14 Q1016 NOSIG', 'VTUK 131700Z 00000KT CAVOK 22/14 Q1017 NOSIG', 'VTUK 131600Z 03005KT CAVOK 25/14 Q1017 NOSIG', 'VTUK 131500Z 01006KT CAVOK 25/14 Q1017 NOSIG', 'VTUK 131400Z 04004KT 360V070 CAVOK 26/14 Q1017 NOSIG', 'VTUK 131300Z 36005KT CAVOK 27/13 Q1016 NOSIG', 'VTUK 131200Z 35004KT CAVOK 29/14 Q1015 NOSIG', 'VTUK 131100Z 03006KT CAVOK 31/12 Q1015 NOSIG', 'VTUK 131000Z 06005KT 020V110 CAVOK 31/13 Q1015 NOSIG', 'VTUK 130900Z 09005KT 020V160 CAVOK 31/13 Q1015 NOSIG', 'VTUK 130800Z 05007KT 320V100 CAVOK 32/14 Q1015 NOSIG', 'VTUK 130700Z VRB04KT CAVOK 31/14 Q1016 NOSIG', 'VTUK 130600Z 02007KT 310V110 CAVOK 30/14 Q1017 NOSIG', 'VTUK 130500Z 03010KT CAVOK 28/14 Q1019 NOSIG', 'VTUK 130400Z 03004KT 310V090 CAVOK 26/15 Q1020 NOSIG', 'VTUK 130300Z 02004KT 340V100 9000 NSC 25/15 Q1021 NOSIG', 'VTUK 130200Z VRB03KT 9000 NSC 23/15 Q1020 NOSIG', 'VTUK 130100Z VRB02KT 9000 NSC 20/15 Q1020 NOSIG', 'VTUK 130000Z 36002KT 8000 NSC 17/14 Q1019 NOSIG', 'VTUK 122300Z 05003KT 8000 NSC 19/14 Q1019 NOSIG', 'VTUK 122200Z 06003KT 8000 NSC 19/14 Q1018 NOSIG', 'VTUK 122100Z VRB02KT 8000 NSC 20/15 Q1018 NOSIG', 'VTUK 122000Z 09003KT 050V120 9000 NSC 20/14 Q1019 NOSIG', 'VTUK 121900Z 09004KT 060V130 9000 NSC 21/15 Q1019 NOSIG', 'VTUK 121800Z 10004KT 070V130 9000 NSC 22/15 Q1019 NOSIG', 'VTUK 121700Z 10002KT 9000 NSC 22/15 Q1019 NOSIG', 'VTUK 121600Z 05004KT 9000 NSC 24/15 Q1020 NOSIG', 'VTUK 121500Z 03005KT 9000 NSC 25/14 Q1020 NOSIG', 'VTUK 121400Z 04003KT CAVOK 25/15 Q1019 NOSIG', 'VTUK 121300Z 07002KT CAVOK 27/14 Q1019 NOSIG', 'VTUK 121200Z 11003KT CAVOK 27/14 Q1018 NOSIG', 'VTUK 121100Z 08002KT CAVOK 28/14 Q1018 NOSIG', 'VTUK 121000Z 07005KT 360V120 CAVOK 29/14 Q1017 NOSIG']","['2024-02-15 08:00:00', '2024-02-15 07:00:00', '2024-02-15 06:00:00', '2024-02-15 05:00:00', '2024-02-15 04:00:00', '2024-02-15 03:00:00', '2024-02-15 02:00:00', '2024-02-15 01:00:00', '2024-02-15 00:00:00', '2024-02-14 23:00:00', '2024-02-14 22:00:00', '2024-02-14 21:00:00', '2024-02-14 20:00:00', '2024-02-14 19:00:00', '2024-02-14 18:00:00', '2024-02-14 17:00:00', '2024-02-14 16:00:00', '2024-02-14 15:00:00', '2024-02-14 14:00:00', '2024-02-14 13:00:00', '2024-02-14 12:00:00', '2024-02-14 11:00:00', '2024-02-14 10:00:00', '2024-02-14 09:00:00', '2024-02-14 08:00:00', '2024-02-14 07:00:00', '2024-02-14 06:00:00', '2024-02-14 05:00:00', '2024-02-14 04:00:00', '2024-02-14 03:00:00', '2024-02-14 02:00:00', '2024-02-14 01:00:00', '2024-02-14 00:00:00', '2024-02-13 23:00:00', '2024-02-13 22:00:00', '2024-02-13 21:00:00', '2024-02-13 20:00:00', '2024-02-13 19:00:00', '2024-02-13 18:00:00', '2024-02-13 17:00:00', '2024-02-13 16:00:00', '2024-02-13 15:00:00', '2024-02-13 14:00:00', '2024-02-13 13:00:00', '2024-02-13 12:00:00', '2024-02-13 11:00:00', '2024-02-13 10:00:00', '2024-02-13 09:00:00', '2024-02-13 08:00:00', '2024-02-13 07:00:00', '2024-02-13 06:00:00', '2024-02-13 05:00:00', '2024-02-13 04:00:00', '2024-02-13 03:00:00', '2024-02-13 02:00:00', '2024-02-13 01:00:00', '2024-02-13 00:00:00', '2024-02-12 23:00:00', '2024-02-12 22:00:00', '2024-02-12 21:00:00', '2024-02-12 20:00:00', '2024-02-12 19:00:00', '2024-02-12 18:00:00', '2024-02-12 17:00:00', '2024-02-12 16:00:00', '2024-02-12 15:00:00', '2024-02-12 14:00:00', '2024-02-12 13:00:00', '2024-02-12 12:00:00', '2024-02-12 11:00:00', '2024-02-12 10:00:00']"
Thailand, Koh Samui Airport (USM/VTSM) ,"['VTSM 150800Z 15012KT 9999 FEW020 31/25 Q1013 NOSIG', 'VTSM 150700Z 14010KT 9999 SCT020 31/25 Q1014 NOSIG', 'VTSM 150600Z 15008KT 9999 SCT020 30/24 Q1014 NOSIG', 'VTSM 150500Z 15008KT 9999 BKN020 30/25 Q1015 NOSIG', 'VTSM 150400Z 17012KT 9999 SCT020 30/25 Q1015 NOSIG', 'VTSM 150300Z 14012KT 9999 SCT020 30/25 Q1016 NOSIG', 'VTSM 150200Z 16012KT 9999 VCSH FEW018TCU SCT020 28/25 Q1015 NOSIG', 'VTSM 150100Z 14008KT 9999 VCSH FEW018TCU BKN020 28/25 Q1014 TEMPO FM0115 TL0135 4500 RA', 'VTSM 150000Z 14006KT 9999 -RA FEW018TCU BKN020 27/25 Q1014 NOSIG', 'VTSM 142300Z 14006KT 9999 VCSH FEW018TCU SCT020 28/25 Q1013 TEMPO FM2320 TL2350 4500 RA', 'VTSM 142200Z 15005KT 9999 SCT020 28/25 Q1013 TEMPO FM2245 TL2330 4500 RA', 'VTSM 141500Z 15007KT 9999 FEW020 28/25 Q1014 NOSIG', 'VTSM 141400Z 14010KT 9999 FEW020 29/25 Q1014 NOSIG', 'VTSM 141300Z 14006KT 9999 FEW020 29/25 Q1013 NOSIG', 'VTSM 141200Z 14009KT 9999 FEW020 29/25 Q1013 NOSIG', 'VTSM 141100Z 13009KT 9999 FEW020 29/24 Q1013 NOSIG', 'VTSM 141000Z 14010KT 9999 FEW020 30/25 Q1012 NOSIG', 'VTSM 140900Z 12010KT 090V150 9999 FEW020 30/24 Q1012 NOSIG', 'VTSM 140800Z 12012KT 9999 FEW020 31/24 Q1012 NOSIG', 'VTSM 140700Z 12014KT 9999 FEW018TCU SCT020 30/25 Q1013 NOSIG', 'VTSM 140600Z 10011KT 9999 VCSH FEW018TCU SCT020 31/25 Q1014 NOSIG', 'VTSM 140500Z 12014KT 9999 FEW018TCU 31/24 Q1015 NOSIG', 'VTSM 140400Z 10010KT 9999 VCSH FEW018TCU SCT020 30/25 Q1015 NOSIG', 'VTSM 140300Z 08007KT 9999 VCSH FEW018TCU SCT020 29/25 Q1016 NOSIG', 'VTSM 140200Z 10009KT 9999 SCT020 29/24 Q1015 NOSIG', 'VTSM 140100Z 09006KT 9999 FEW020 28/24 Q1014 NOSIG', 'VTSM 140000Z 09004KT 9999 FEW020 27/24 Q1014 NOSIG', 'VTSM 132300Z 06003KT 9999 FEW020 27/24 Q1013 NOSIG', 'VTSM 132200Z 09003KT 9999 FEW020 26/24 Q1013 NOSIG', 'VTSM 131500Z 21003KT 9999 SCT020 26/25 Q1015 NOSIG', 'VTSM 131400Z 26003KT 9999 -RA SCT020 27/25 Q1015 NOSIG', 'VTSM 131300Z 24003KT 9999 FEW018TCU SCT020 27/25 Q1014 NOSIG', 'VTSM 131200Z 02005KT 9999 FEW018TCU SCT020 27/25 Q1014 RERA NOSIG', 'VTSM 131100Z 09005KT 9999 VCSH FEW018TCU SCT020 30/24 Q1013 TEMPO FM1110 TL1140 4000 RA', 'VTSM 131000Z 08005KT 9999 SCT020 30/24 Q1013 NOSIG', 'VTSM 130900Z 07006KT 9999 SCT020 31/24 Q1013 NOSIG', 'VTSM 130800Z 12006KT 9999 FEW020 31/24 Q1013 NOSIG', 'VTSM 130700Z 09009KT 9999 FEW020 31/23 Q1014 NOSIG', 'VTSM 130600Z 12006KT 9999 SCT020 31/24 Q1015 NOSIG', 'VTSM 130500Z 12006KT 9999 FEW020 31/23 Q1016 NOSIG', 'VTSM 130400Z 12008KT 9999 FEW020 31/23 Q1016 NOSIG', 'VTSM 130300Z 10008KT 9999 FEW020 30/23 Q1016 NOSIG', 'VTSM 130200Z 10009KT 9999 FEW020 29/23 Q1016 NOSIG', 'VTSM 130100Z 13006KT 9999 SCT020 28/23 Q1015 NOSIG', 'VTSM 130000Z 12004KT 9999 FEW020 27/23 Q1015 NOSIG', 'VTSM 122300Z 09007KT 9999 FEW020 27/23 Q1015 NOSIG', 'VTSM 122200Z 10003KT 9999 FEW020 27/23 Q1014 NOSIG', 'VTSM 121500Z 08006KT 9999 FEW020 28/23 Q1017 NOSIG', 'VTSM 121400Z 04005KT 9999 FEW020 28/24 Q1017 NOSIG', 'VTSM 121300Z 06006KT 9999 FEW020 28/23 Q1016 NOSIG', 'VTSM 121200Z 07004KT 9999 FEW020 28/24 Q1015 NOSIG', 'VTSM 121100Z 20001KT 9999 FEW020 28/24 Q1015 NOSIG', 'VTSM 121000Z 20003KT 9999 FEW020 SCT100 28/23 Q1015 NOSIG']","['2024-02-15 08:00:00', '2024-02-15 07:00:00', '2024-02-15 06:00:00', '2024-02-15 05:00:00', '2024-02-15 04:00:00', '2024-02-15 03:00:00', '2024-02-15 02:00:00', '2024-02-15 01:00:00', '2024-02-15 00:00:00', '2024-02-14 23:00:00', '2024-02-14 22:00:00', '2024-02-14 15:00:00', '2024-02-14 14:00:00', '2024-02-14 13:00:00', '2024-02-14 12:00:00', '2024-02-14 11:00:00', '2024-02-14 10:00:00', '2024-02-14 09:00:00', '2024-02-14 08:00:00', '2024-02-14 07:00:00', '2024-02-14 06:00:00', '2024-02-14 05:00:00', '2024-02-14 04:00:00', '2024-02-14 03:00:00', '2024-02-14 02:00:00', '2024-02-14 01:00:00', '2024-02-14 00:00:00', '2024-02-13 23:00:00', '2024-02-13 22:00:00', '2024-02-13 15:00:00', '2024-02-13 14:00:00', '2024-02-13 13:00:00', '2024-02-13 12:00:00', '2024-02-13 11:00:00', '2024-02-13 10:00:00', '2024-02-13 09:00:00', '2024-02-13 08:00:00', '2024-02-13 07:00:00', '2024-02-13 06:00:00', '2024-02-13 05:00:00', '2024-02-13 04:00:00', '2024-02-13 03:00:00', '2024-02-13 02:00:00', '2024-02-13 01:00:00', '2024-02-13 00:00:00', '2024-02-12 23:00:00', '2024-02-12 22:00:00', '2024-02-12 15:00:00', '2024-02-12 14:00:00', '2024-02-12 13:00:00', '2024-02-12 12:00:00', '2024-02-12 11:00:00', '2024-02-12 10:00:00']"
Thailand, Krabi Airport (KBV/VTSG) ,"['VTSG 150800Z 07008KT 350V110 9999 BKN048 34/21 Q1011 NOSIG', 'VTSG 150700Z 08009KT 020V110 9999 BKN048 35/22 Q1011 NOSIG', 'VTSG 150600Z 08010KT 040V120 9999 BKN048 36/22 Q1012 NOSIG', 'VTSG 150500Z 05009KT 010V100 9999 BKN048 35/22 Q1013 NOSIG', 'VTSG 150400Z 06007KT 010V100 9999 BKN030 34/23 Q1014 NOSIG', 'VTSG 150300Z 05008KT 340V100 9999 FEW030 31/23 Q1014 NOSIG', 'VTSG 150200Z 06008KT 020V100 9999 FEW030 30/23 Q1014 NOSIG', 'VTSG 150100Z 02004KT 340V080 CAVOK 27/23 Q1013 NOSIG', 'VTSG 150000Z 01004KT CAVOK 24/22 Q1012 NOSIG', 'VTSG 142300Z 05004KT 9999 FEW030 25/22 Q1012 NOSIG', 'VTSG 142200Z 01003KT 9999 FEW030 24/22 Q1012 NOSIG', 'VTSG 142100Z 04004KT 9000 NSC 24/22 Q1012 NOSIG', 'VTSG 142000Z 05003KT 010V080 9999 FEW024 25/23 Q1012 NOSIG', 'VTSG 141900Z 06004KT 030V100 9999 FEW024 26/23 Q1012 NOSIG', 'VTSG 141800Z 05004KT 020V090 9999 FEW024 25/22 Q1013 NOSIG', 'VTSG 141700Z 31003KT 9999 FEW030 24/22 Q1013 NOSIG', 'VTSG 141600Z VRB01KT 9999 FEW030 25/22 Q1013 NOSIG', 'VTSG 141500Z 05003KT 010V080 9999 FEW030 27/22 Q1013 NOSIG', 'VTSG 141400Z 08006KT 050V110 9999 FEW030 28/22 Q1013 NOSIG', 'VTSG 141300Z 08006KT 040V110 9999 FEW030 28/22 Q1012 NOSIG', 'VTSG 141200Z 05006KT 360V080 9999 SCT030 29/22 Q1011 NOSIG', 'VTSG 141100Z 06005KT 030V090 9999 FEW020 SCT040 31/23 Q1011 NOSIG', 'VTSG 141000Z 08006KT 350V120 9999 FEW018 SCT044 32/23 Q1010 NOSIG', 'VTSG 140900Z 07010KT 040V110 9999 -RA SCT018 BKN073 31/22 Q1010 NOSIG', 'VTSG 140800Z 09010KT 050V120 9999 BKN030 33/23 Q1010 NOSIG', 'VTSG 140700Z 06003KT 360V110 9999 SCT030 BKN074 31/25 Q1011 NOSIG', 'VTSG 140600Z 06005KT 010V090 9999 -RA FEW018 BKN030 30/25 Q1012 NOSIG', 'VTSG 140500Z 05006KT 010V110 9999 -RA FEW018 BKN034 29/24 Q1013 NOSIG', 'VTSG 140400Z 08006KT 020V130 9999 -RA FEW018 BKN033 29/24 Q1014 NOSIG', 'VTSG 140300Z 06006KT 010V110 9999 FEW026 30/24 Q1014 NOSIG', 'VTSG 140200Z 03004KT 350V080 9999 FEW020 BKN075 27/24 Q1014 NOSIG', 'VTSG 140100Z 01003KT 330V050 7000 -RA FEW020 SCT033 BKN050 24/23 Q1014 NOSIG', 'VTSG 140000Z 08003KT 9000 FEW030 23/22 Q1013 NOSIG', 'VTSG 132300Z 01005KT 330V030 9000 NSC 23/22 Q1012 NOSIG', 'VTSG 132200Z 02005KT 9000 NSC 23/22 Q1012 NOSIG', 'VTSG 132100Z 03004KT 360V060 9000 NSC 23/22 Q1012 NOSIG', 'VTSG 132000Z 02003KT CAVOK 23/22 Q1013 NOSIG', 'VTSG 131900Z 02003KT CAVOK 23/22 Q1013 NOSIG', 'VTSG 131800Z 02002KT 9999 FEW030 24/22 Q1014 NOSIG', 'VTSG 131700Z 05004KT 9999 FEW030 25/22 Q1015 NOSIG', 'VTSG 131600Z 07005KT 040V100 9999 FEW030 26/22 Q1014 NOSIG', 'VTSG 131500Z 07006KT 9999 FEW030 27/22 Q1014 NOSIG', 'VTSG 131400Z 08006KT 040V100 9999 FEW030 27/21 Q1014 NOSIG', 'VTSG 131300Z 09005KT 9999 FEW030 28/21 Q1013 NOSIG', 'VTSG 131200Z 08007KT 050V110 9999 FEW030 29/21 Q1012 NOSIG', 'VTSG 131100Z 10009KT 070V130 9999 FEW030 31/21 Q1011 NOSIG', 'VTSG 131000Z 09009KT 060V120 9999 FEW048 33/21 Q1011 NOSIG', 'VTSG 130900Z 10011KT 060V140 9999 FEW048 34/21 Q1010 NOSIG', 'VTSG 130800Z 10010KT 060V140 9999 FEW048 SCT060 34/21 Q1011 NOSIG', 'VTSG 130700Z 11013KT 070V140 9999 SCT048 BKN060 35/22 Q1011 NOSIG', 'VTSG 130600Z 08011KT 030V120 9999 BKN048 34/21 Q1013 NOSIG', 'VTSG 130500Z 08008KT 030V120 9999 BKN040 32/22 Q1014 NOSIG', 'VTSG 130400Z 09010KT 040V120 9999 BKN040 32/23 Q1015 NOSIG', 'VTSG 130300Z 07006KT 360V110 9999 BKN026 30/23 Q1015 NOSIG', 'VTSG 130200Z 03005KT 350V080 9999 FEW030 28/23 Q1015 NOSIG', 'VTSG 130100Z 02004KT 340V050 CAVOK 25/23 Q1015 NOSIG', 'VTSG 130000Z 02006KT 7000 FEW030 22/22 Q1014 NOSIG', 'VTSG 122300Z 03004KT 360V060 6000 FEW030 22/22 Q1014 NOSIG', 'VTSG 122200Z 02004KT 350V050 5000 BR FEW030 22/22 Q1013 NOSIG', 'VTSG 122100Z 03003KT 5000 BR FEW030 22/22 Q1013 NOSIG', 'VTSG 122000Z 03004KT 350V060 6000 FEW030 23/22 Q1014 NOSIG', 'VTSG 121900Z 02004KT 7000 FEW030 23/22 Q1015 NOSIG', 'VTSG 121800Z VRB02KT 8000 FEW030 23/22 Q1015 NOSIG', 'VTSG 121700Z 03003KT 340V070 8000 FEW030 24/23 Q1016 NOSIG', 'VTSG 121600Z 03005KT 350V070 9999 FEW030 24/23 Q1016 NOSIG', 'VTSG 121500Z 03005KT 340V080 9999 FEW030 BKN090 26/23 Q1016 NOSIG', 'VTSG 121400Z 03004KT 360V080 9999 SCT030 BKN090 26/23 Q1016 NOSIG', 'VTSG 121300Z 03004KT 340V070 9999 SCT035 26/23 Q1015 NOSIG', 'VTSG 121200Z 03003KT 320V070 9999 -RA SCT030 BKN040 28/23 Q1014 NOSIG', 'VTSG 121100Z 05006KT 010V080 9999 FEW030 SCT070 30/22 Q1013 NOSIG', 'VTSG 121000Z 09007KT 050V120 9999 FEW030 SCT067 31/22 Q1013 NOSIG']","['2024-02-15 08:00:00', '2024-02-15 07:00:00', '2024-02-15 06:00:00', '2024-02-15 05:00:00', '2024-02-15 04:00:00', '2024-02-15 03:00:00', '2024-02-15 02:00:00', '2024-02-15 01:00:00', '2024-02-15 00:00:00', '2024-02-14 23:00:00', '2024-02-14 22:00:00', '2024-02-14 21:00:00', '2024-02-14 20:00:00', '2024-02-14 19:00:00', '2024-02-14 18:00:00', '2024-02-14 17:00:00', '2024-02-14 16:00:00', '2024-02-14 15:00:00', '2024-02-14 14:00:00', '2024-02-14 13:00:00', '2024-02-14 12:00:00', '2024-02-14 11:00:00', '2024-02-14 10:00:00', '2024-02-14 09:00:00', '2024-02-14 08:00:00', '2024-02-14 07:00:00', '2024-02-14 06:00:00', '2024-02-14 05:00:00', '2024-02-14 04:00:00', '2024-02-14 03:00:00', '2024-02-14 02:00:00', '2024-02-14 01:00:00', '2024-02-14 00:00:00', '2024-02-13 23:00:00', '2024-02-13 22:00:00', '2024-02-13 21:00:00', '2024-02-13 20:00:00', '2024-02-13 19:00:00', '2024-02-13 18:00:00', '2024-02-13 17:00:00', '2024-02-13 16:00:00', '2024-02-13 15:00:00', '2024-02-13 14:00:00', '2024-02-13 13:00:00', '2024-02-13 12:00:00', '2024-02-13 11:00:00', '2024-02-13 10:00:00', '2024-02-13 09:00:00', '2024-02-13 08:00:00', '2024-02-13 07:00:00', '2024-02-13 06:00:00', '2024-02-13 05:00:00', '2024-02-13 04:00:00', '2024-02-13 03:00:00', '2024-02-13 02:00:00', '2024-02-13 01:00:00', '2024-02-13 00:00:00', '2024-02-12 23:00:00', '2024-02-12 22:00:00', '2024-02-12 21:00:00', '2024-02-12 20:00:00', '2024-02-12 19:00:00', '2024-02-12 18:00:00', '2024-02-12 17:00:00', '2024-02-12 16:00:00', '2024-02-12 15:00:00', '2024-02-12 14:00:00', '2024-02-12 13:00:00', '2024-02-12 12:00:00', '2024-02-12 11:00:00', '2024-02-12 10:00:00']"
Thailand, Lampang Airport (LPT/VTCL) ,"['VTCL 150800Z 28005KT 240V340 CAVOK 35/17 Q1013 NOSIG', 'VTCL 150700Z VRB02KT CAVOK 34/15 Q1014 NOSIG', 'VTCL 150600Z VRB02KT CAVOK 33/17 Q1015 NOSIG', 'VTCL 150500Z VRB02KT 9000 NSC 31/17 Q1016 NOSIG', 'VTCL 150400Z VRB02KT 9000 NSC 29/16 Q1017 NOSIG', 'VTCL 150300Z VRB02KT 9000 NSC 25/17 Q1018 NOSIG', 'VTCL 150200Z VRB01KT 7000 NSC 22/16 Q1017 NOSIG', 'VTCL 150100Z 00000KT 7000 NSC 18/17 Q1016 NOSIG', 'VTCL 150000Z 00000KT 7000 NSC 17/16 Q1016 NOSIG', 'VTCL 142300Z 00000KT 9000 NSC 18/16 Q1015 NOSIG', 'VTCL 141300Z 14002KT CAVOK 26/17 Q1013 NOSIG', 'VTCL 141200Z 10004KT CAVOK 27/16 Q1012 NOSIG', 'VTCL 141100Z VRB01KT CAVOK 33/14 Q1012 NOSIG', 'VTCL 141000Z 00000KT CAVOK 35/13 Q1012 NOSIG', 'VTCL 140900Z 00000KT CAVOK 35/14 Q1012 NOSIG', 'VTCL 140800Z 28006KT CAVOK 35/15 Q1012 NOSIG', 'VTCL 140700Z VRB03KT CAVOK 33/16 Q1013 NOSIG', 'VTCL 140600Z 26004KT 180V300 CAVOK 32/13 Q1015 NOSIG', 'VTCL 140500Z VRB03KT CAVOK 31/18 Q1016 NOSIG', 'VTCL 140400Z VRB01KT CAVOK 28/18 Q1017 NOSIG', 'VTCL 140300Z VRB02KT CAVOK 25/17 Q1018 NOSIG', 'VTCL 140200Z VRB02KT CAVOK 22/17 Q1018 NOSIG', 'VTCL 140100Z 00000KT 8000 NSC 19/16 Q1017 NOSIG', 'VTCL 140000Z 00000KT 8000 NSC 17/16 Q1016 NOSIG', 'VTCL 132300Z 00000KT CAVOK 17/15 Q1015 NOSIG', 'VTCL 131300Z 13005KT CAVOK 26/15 Q1014 NOSIG', 'VTCL 131200Z 14005KT CAVOK 27/14 Q1014 NOSIG', 'VTCL 131100Z 00000KT CAVOK 31/11 Q1013 NOSIG', 'VTCL 131000Z 00000KT 9999 FEW030 34/10 Q1013 NOSIG', 'VTCL 130900Z VRB02KT 9999 FEW030 34/12 Q1013 NOSIG', 'VTCL 130800Z VRB04KT 9999 FEW030 33/16 Q1014 NOSIG', 'VTCL 130700Z 33004KT 270V060 9999 FEW030 32/16 Q1015 NOSIG', 'VTCL 130600Z VRB02KT CAVOK 31/17 Q1017 NOSIG', 'VTCL 130500Z 30004KT 260V020 9999 FEW030 30/18 Q1018 NOSIG', 'VTCL 130400Z 00000KT 8000 NSC 28/19 Q1019 NOSIG', 'VTCL 130300Z 05003KT 360V120 7000 NSC 26/18 Q1020 NOSIG', 'VTCL 130200Z 00000KT 6000 NSC 22/17 Q1020 NOSIG', 'VTCL 130100Z 00000KT 5000 BR NSC 19/17 Q1019 NOSIG', 'VTCL 130000Z 00000KT 7000 NSC 17/16 Q1018 BECMG FM0010 4000 BR', 'VTCL 122300Z 00000KT 9000 NSC 17/16 Q1017 BECMG FM2310 4000 BR', 'VTCL 121300Z VRB02KT CAVOK 26/17 Q1016 NOSIG', 'VTCL 121200Z 12002KT CAVOK 27/18 Q1016 NOSIG', 'VTCL 121100Z 00000KT CAVOK 30/17 Q1016 NOSIG', 'VTCL 121000Z 00000KT CAVOK 32/18 Q1015 NOSIG']","['2024-02-15 08:00:00', '2024-02-15 07:00:00', '2024-02-15 06:00:00', '2024-02-15 05:00:00', '2024-02-15 04:00:00', '2024-02-15 03:00:00', '2024-02-15 02:00:00', '2024-02-15 01:00:00', '2024-02-15 00:00:00', '2024-02-14 23:00:00', '2024-02-14 13:00:00', '2024-02-14 12:00:00', '2024-02-14 11:00:00', '2024-02-14 10:00:00', '2024-02-14 09:00:00', '2024-02-14 08:00:00', '2024-02-14 07:00:00', '2024-02-14 06:00:00', '2024-02-14 05:00:00', '2024-02-14 04:00:00', '2024-02-14 03:00:00', '2024-02-14 02:00:00', '2024-02-14 01:00:00', '2024-02-14 00:00:00', '2024-02-13 23:00:00', '2024-02-13 13:00:00', '2024-02-13 12:00:00', '2024-02-13 11:00:00', '2024-02-13 10:00:00', '2024-02-13 09:00:00', '2024-02-13 08:00:00', '2024-02-13 07:00:00', '2024-02-13 06:00:00', '2024-02-13 05:00:00', '2024-02-13 04:00:00', '2024-02-13 03:00:00', '2024-02-13 02:00:00', '2024-02-13 01:00:00', '2024-02-13 00:00:00', '2024-02-12 23:00:00', '2024-02-12 13:00:00', '2024-02-12 12:00:00', '2024-02-12 11:00:00', '2024-02-12 10:00:00']"
Thailand, Loei Airport (LOE/VTUL) ,"['VTUL 150800Z 36006KT 330V030 8000 NSC 35/13 Q1013 NOSIG', 'VTUL 150700Z 03005KT 340V070 8000 NSC 34/14 Q1013 NOSIG', 'VTUL 150600Z VRB03KT 8000 NSC 33/14 Q1015 NOSIG', 'VTUL 150500Z VRB03KT 8000 NSC 32/15 Q1016 NOSIG', 'VTUL 150400Z 03003KT 320V130 8000 NSC 29/17 Q1017 NOSIG', 'VTUL 150300Z 03004KT 340V080 8000 NSC 25/18 Q1018 NOSIG', 'VTUL 150200Z 04004KT 010V070 8000 NSC 21/18 Q1018 NOSIG', 'VTUL 150100Z 00000KT 8000 NSC 17/16 Q1017 NOSIG', 'VTUL 150000Z 00000KT 8000 NSC 14/14 Q1016 NOSIG', 'VTUL 142300Z 00000KT 8000 NSC 14/14 Q1015 NOSIG', 'VTUL 142200Z 00000KT 8000 NSC 15/14 Q1015 NOSIG', 'VTUL 141200Z VRB02KT 8000 NSC 25/18 Q1013 NOSIG', 'VTUL 141100Z 00000KT 8000 NSC 30/16 Q1012 NOSIG', 'VTUL 141000Z VRB02KT 8000 NSC 33/15 Q1012 NOSIG', 'VTUL 140900Z 01004KT 310V090 8000 NSC 33/15 Q1012 NOSIG', 'VTUL 140800Z VRB03KT 8000 NSC 33/16 Q1012 NOSIG', 'VTUL 140700Z 21004KT 100V250 8000 NSC 33/16 Q1014 NOSIG', 'VTUL 140600Z VRB02KT 8000 NSC 32/16 Q1015 NOSIG', 'VTUL 140500Z VRB04KT 8000 NSC 31/16 Q1017 NOSIG', 'VTUL 140400Z VRB04KT 8000 NSC 28/17 Q1018 NOSIG', 'VTUL 140300Z VRB02KT 8000 NSC 25/17 Q1019 NOSIG', 'VTUL 140200Z 00000KT 8000 NSC 21/17 Q1019 NOSIG', 'VTUL 140100Z 00000KT 8000 NSC 17/16 Q1018 NOSIG', 'VTUL 140000Z 00000KT 8000 NSC 14/14 Q1017 NOSIG', 'VTUL 132300Z VRB02KT 8000 NSC 14/14 Q1017 NOSIG', 'VTUL 132200Z 00000KT 8000 NSC 14/14 Q1016 NOSIG', 'VTUL 131200Z 00000KT 9000 NSC 24/17 Q1015 NOSIG', 'VTUL 131100Z 17002KT 9000 NSC 29/16 Q1015 NOSIG', 'VTUL 131000Z VRB02KT 9000 NSC 32/15 Q1014 NOSIG', 'VTUL 130900Z VRB02KT 9000 NSC 33/15 Q1014 NOSIG', 'VTUL 130800Z 19004KT 130V230 9000 NSC 32/15 Q1014 NOSIG', 'VTUL 130700Z 15004KT 080V200 9000 NSC 31/16 Q1016 NOSIG', 'VTUL 130600Z VRB02KT 8000 NSC 31/17 Q1017 NOSIG', 'VTUL 130500Z 22004KT 160V270 8000 NSC 29/15 Q1019 NOSIG', 'VTUL 130400Z VRB02KT 7000 NSC 27/16 Q1020 NOSIG', 'VTUL 130300Z VRB03KT 6000 NSC 24/16 Q1021 NOSIG', 'VTUL 130200Z 00000KT 6000 NSC 21/17 Q1021 NOSIG', 'VTUL 130100Z 00000KT 6000 NSC 16/15 Q1020 NOSIG', 'VTUL 130000Z 00000KT 6000 NSC 14/14 Q1020 NOSIG', 'VTUL 122300Z 00000KT 7000 NSC 14/14 Q1019 NOSIG', 'VTUL 122200Z 00000KT 8000 NSC 14/14 Q1018 NOSIG', 'VTUL 121200Z 00000KT 9000 NSC 24/17 Q1018 NOSIG', 'VTUL 121100Z 14002KT 9000 NSC 28/15 Q1017 NOSIG', 'VTUL 121000Z VRB01KT 9000 NSC 30/14 Q1017 NOSIG']","['2024-02-15 08:00:00', '2024-02-15 07:00:00', '2024-02-15 06:00:00', '2024-02-15 05:00:00', '2024-02-15 04:00:00', '2024-02-15 03:00:00', '2024-02-15 02:00:00', '2024-02-15 01:00:00', '2024-02-15 00:00:00', '2024-02-14 23:00:00', '2024-02-14 22:00:00', '2024-02-14 12:00:00', '2024-02-14 11:00:00', '2024-02-14 10:00:00', '2024-02-14 09:00:00', '2024-02-14 08:00:00', '2024-02-14 07:00:00', '2024-02-14 06:00:00', '2024-02-14 05:00:00', '2024-02-14 04:00:00', '2024-02-14 03:00:00', '2024-02-14 02:00:00', '2024-02-14 01:00:00', '2024-02-14 00:00:00', '2024-02-13 23:00:00', '2024-02-13 22:00:00', '2024-02-13 12:00:00', '2024-02-13 11:00:00', '2024-02-13 10:00:00', '2024-02-13 09:00:00', '2024-02-13 08:00:00', '2024-02-13 07:00:00', '2024-02-13 06:00:00', '2024-02-13 05:00:00', '2024-02-13 04:00:00', '2024-02-13 03:00:00', '2024-02-13 02:00:00', '2024-02-13 01:00:00', '2024-02-13 00:00:00', '2024-02-12 23:00:00', '2024-02-12 22:00:00', '2024-02-12 12:00:00', '2024-02-12 11:00:00', '2024-02-12 10:00:00']"
Thailand, Mae Hong Son Airport (HGN/VTCH) ,"['VTCH 150800Z VRB03KT 7000 FEW025 33/14 Q1013 NOSIG', 'VTCH 150700Z VRB03KT 7000 FEW025 32/12 Q1014 NOSIG', 'VTCH 150600Z VRB02KT 7000 FEW025 30/13 Q1016 NOSIG', 'VTCH 150500Z VRB02KT 7000 NSC 27/14 Q1018 NOSIG', 'VTCH 150400Z VRB02KT 7000 NSC 25/14 Q1019 NOSIG', 'VTCH 150300Z VRB02KT 7000 NSC 22/14 Q1019 NOSIG', 'VTCH 150200Z 00000KT 6000 NSC 19/15 Q1019 NOSIG', 'VTCH 150100Z 00000KT 6000 FEW015 16/14 Q1018 NOSIG', 'VTCH 150000Z VRB02KT 5000 BR FEW012 14/13 Q1018 NOSIG', 'VTCH 142300Z 00000KT 3000 BR FEW010 14/13 Q1017 NOSIG', 'VTCH 142200Z 00000KT 3000 BR FEW010 14/13 Q1016 NOSIG', 'VTCH 141100Z 12005KT 100V160 CAVOK 30/11 Q1013 NOSIG', 'VTCH 141000Z 14004KT 050V200 CAVOK 33/10 Q1012 NOSIG', 'VTCH 140900Z VRB04KT 9000 NSC 34/10 Q1013 NOSIG', 'VTCH 140800Z VRB03KT 8000 NSC 34/09 Q1013 NOSIG', 'VTCH 140700Z 27004KT 220V330 8000 NSC 32/13 Q1014 NOSIG', 'VTCH 140600Z VRB03KT 8000 FEW025 30/15 Q1016 NOSIG', 'VTCH 140500Z VRB03KT 7000 NSC 28/16 Q1017 NOSIG', 'VTCH 140400Z 00000KT 7000 NSC 26/17 Q1019 NOSIG', 'VTCH 140300Z VRB01KT 7000 FEW025 22/17 Q1019 NOSIG', 'VTCH 140200Z VRB02KT 6000 FEW025 20/16 Q1019 NOSIG', 'VTCH 140100Z 00000KT 4000 BR FEW012 17/16 Q1018 BECMG 6000 NSW', 'VTCH 140000Z 00000KT 2500 BR FEW010 15/14 Q1018 BECMG 5000 BR', 'VTCH 132300Z 00000KT 4000 BR FEW010 15/14 Q1017 NOSIG', 'VTCH 132200Z 00000KT 4000 BR FEW010 16/15 Q1016 NOSIG', 'VTCH 131100Z 14004KT 120V180 9999 FEW025 30/16 Q1013', 'VTCH 131000Z VRB02KT 9999 FEW025 33/14 Q1013', 'VTCH 130900Z VRB03KT 8000 FEW025 34/14 Q1013', 'VTCH 130800Z VRB03KT 8000 FEW025 34/15 Q1014', 'VTCH 130700Z VRB02KT 8000 FEW025 33/14 Q1015', 'VTCH 130600Z VRB03KT 7000 FEW025 31/18 Q1017', 'VTCH 130500Z VRB03KT 7000 FEW025 28/18 Q1019', 'VTCH 130400Z VRB02KT 7000 FEW025 26/18 Q1020', 'VTCH 130300Z VRB02KT 6000 FEW025 24/18 Q1021', 'VTCH 130200Z 00000KT 5000 BR FEW025 21/18 Q1020', 'VTCH 130100Z 00000KT 4000 BR FEW015 18/17 Q1020', 'VTCH 130000Z 00000KT 3000 BR FEW010 16/15 Q1019', 'VTCH 122300Z 00000KT 3000 BR FEW010 16/15 Q1018', 'VTCH 122200Z 00000KT 4000 BR FEW010 16/16 Q1017', 'VTCH 121100Z 13003KT 9999 FEW025 31/18 Q1015', 'VTCH 121000Z 18003KT 120V270 9999 FEW025 33/15 Q1014']","['2024-02-15 08:00:00', '2024-02-15 07:00:00', '2024-02-15 06:00:00', '2024-02-15 05:00:00', '2024-02-15 04:00:00', '2024-02-15 03:00:00', '2024-02-15 02:00:00', '2024-02-15 01:00:00', '2024-02-15 00:00:00', '2024-02-14 23:00:00', '2024-02-14 22:00:00', '2024-02-14 11:00:00', '2024-02-14 10:00:00', '2024-02-14 09:00:00', '2024-02-14 08:00:00', '2024-02-14 07:00:00', '2024-02-14 06:00:00', '2024-02-14 05:00:00', '2024-02-14 04:00:00', '2024-02-14 03:00:00', '2024-02-14 02:00:00', '2024-02-14 01:00:00', '2024-02-14 00:00:00', '2024-02-13 23:00:00', '2024-02-13 22:00:00', '2024-02-13 11:00:00', '2024-02-13 10:00:00', '2024-02-13 09:00:00', '2024-02-13 08:00:00', '2024-02-13 07:00:00', '2024-02-13 06:00:00', '2024-02-13 05:00:00', '2024-02-13 04:00:00', '2024-02-13 03:00:00', '2024-02-13 02:00:00', '2024-02-13 01:00:00', '2024-02-13 00:00:00', '2024-02-12 23:00:00', '2024-02-12 22:00:00', '2024-02-12 11:00:00', '2024-02-12 10:00:00']"
Thailand, Mae Sot Airport (MAQ/VTPM) ,"['VTPM 150800Z 35005KT 250V040 CAVOK 35/08 Q1012 NOSIG', 'VTPM 150700Z 29004KT 230V340 CAVOK 34/10 Q1013 NOSIG', 'VTPM 150600Z VRB04KT 9000 NSC 33/13 Q1015 NOSIG', 'VTPM 150500Z VRB03KT 7000 NSC 31/14 Q1016 NOSIG', 'VTPM 150400Z 01003KT 320V040 6000 NSC 28/15 Q1017 NOSIG', 'VTPM 150300Z VRB02KT 4500 HZ NSC 25/17 Q1018 NOSIG', 'VTPM 150200Z VRB02KT 4000 HZ NSC 23/17 Q1017 NOSIG', 'VTPM 150100Z 00000KT 3500 HZ NSC 20/16 Q1017 NOSIG', 'VTPM 150000Z 00000KT 5000 BR NSC 18/15 Q1016 NOSIG', 'VTPM 142300Z 13003KT 7000 NSC 19/16 Q1015 NOSIG', 'VTPM 142200Z 13002KT 7000 NSC 19/16 Q1014 NOSIG', 'VTPM 141100Z 24007KT CAVOK 33/12 Q1012 NOSIG', 'VTPM 141000Z 26004KT CAVOK 35/06 Q1011 NOSIG', 'VTPM 140900Z VRB03KT CAVOK 35/04 Q1011 NOSIG', 'VTPM 140800Z VRB05KT 9999 FEW035 35/08 Q1012 NOSIG', 'VTPM 140700Z 03004KT 340V090 9999 FEW035 33/11 Q1013 NOSIG', 'VTPM 140600Z VRB04KT 9999 FEW035 32/12 Q1015 NOSIG', 'VTPM 140500Z VRB03KT CAVOK 30/13 Q1016 NOSIG', 'VTPM 140400Z VRB02KT 9000 NSC 29/13 Q1017 NOSIG', 'VTPM 140300Z VRB02KT 7000 NSC 26/14 Q1018 NOSIG', 'VTPM 140200Z VRB02KT 8000 NSC 23/15 Q1017 NOSIG', 'VTPM 140100Z VRB01KT 8000 NSC 20/16 Q1017 NOSIG', 'VTPM 140000Z VRB02KT 7000 NSC 19/15 Q1016 NOSIG', 'VTPM 132300Z 13002KT 6000 NSC 19/15 Q1015 BECMG 4000 BR', 'VTPM 132200Z VRB02KT 7000 NSC 18/17 Q1015 NOSIG', 'VTPM 131100Z 08003KT 050V120 CAVOK 33/08 Q1013 NOSIG', 'VTPM 131000Z 33004KT 270V050 CAVOK 34/09 Q1012 NOSIG', 'VTPM 130900Z 29004KT 240V030 CAVOK 35/08 Q1012 NOSIG', 'VTPM 130800Z VRB04KT 9999 FEW035 34/09 Q1013 NOSIG', 'VTPM 130700Z VRB04KT 9999 FEW035 34/11 Q1014 NOSIG', 'VTPM 130600Z VRB02KT 9999 FEW035 32/12 Q1016 NOSIG', 'VTPM 130500Z VRB03KT 8000 NSC 30/15 Q1017 NOSIG', 'VTPM 130400Z VRB03KT 7000 NSC 28/15 Q1019 NOSIG', 'VTPM 130300Z VRB02KT 7000 NSC 26/16 Q1019 NOSIG', 'VTPM 130200Z 14004KT 100V170 7000 NSC 23/16 Q1019 NOSIG', 'VTPM 130100Z VRB01KT 6000 NSC 21/17 Q1019 NOSIG', 'VTPM 130000Z 19002KT 4000 BR NSC 18/17 Q1018 NOSIG', 'VTPM 122300Z VRB01KT 5000 BR NSC 19/17 Q1017 NOSIG', 'VTPM 122200Z 16002KT 6000 NSC 18/18 Q1016 BECMG 4000 BR', 'VTPM 121100Z 08007KT 040V100 9999 FEW035 31/14 Q1015 NOSIG', 'VTPM 121000Z 07003KT 020V140 9999 FEW035 33/13 Q1014 NOSIG']","['2024-02-15 08:00:00', '2024-02-15 07:00:00', '2024-02-15 06:00:00', '2024-02-15 05:00:00', '2024-02-15 04:00:00', '2024-02-15 03:00:00', '2024-02-15 02:00:00', '2024-02-15 01:00:00', '2024-02-15 00:00:00', '2024-02-14 23:00:00', '2024-02-14 22:00:00', '2024-02-14 11:00:00', '2024-02-14 10:00:00', '2024-02-14 09:00:00', '2024-02-14 08:00:00', '2024-02-14 07:00:00', '2024-02-14 06:00:00', '2024-02-14 05:00:00', '2024-02-14 04:00:00', '2024-02-14 03:00:00', '2024-02-14 02:00:00', '2024-02-14 01:00:00', '2024-02-14 00:00:00', '2024-02-13 23:00:00', '2024-02-13 22:00:00', '2024-02-13 11:00:00', '2024-02-13 10:00:00', '2024-02-13 09:00:00', '2024-02-13 08:00:00', '2024-02-13 07:00:00', '2024-02-13 06:00:00', '2024-02-13 05:00:00', '2024-02-13 04:00:00', '2024-02-13 03:00:00', '2024-02-13 02:00:00', '2024-02-13 01:00:00', '2024-02-13 00:00:00', '2024-02-12 23:00:00', '2024-02-12 22:00:00', '2024-02-12 11:00:00', '2024-02-12 10:00:00']"
Thailand, Nakhon Phanom Airport (KOP/VTUW) ,"['VTUW 150800Z 10007KT CAVOK 34/12 Q1012 NOSIG', 'VTUW 150700Z VRB03KT CAVOK 34/12 Q1013 NOSIG', 'VTUW 150600Z VRB03KT CAVOK 33/12 Q1014 NOSIG', 'VTUW 150500Z VRB02KT CAVOK 32/15 Q1016 NOSIG', 'VTUW 150400Z VRB03KT CAVOK 30/17 Q1017 NOSIG', 'VTUW 150300Z VRB03KT 9000 NSC 27/19 Q1017 NOSIG', 'VTUW 150200Z 15004KT 110V190 9000 NSC 24/18 Q1017 NOSIG', 'VTUW 150100Z 19003KT 140V220 CAVOK 21/18 Q1017 NOSIG', 'VTUW 150000Z 22002KT CAVOK 17/17 Q1016 NOSIG', 'VTUW 142300Z 00000KT 8000 NSC 17/17 Q1015 NOSIG', 'VTUW 142200Z VRB01KT CAVOK 18/18 Q1015 NOSIG', 'VTUW 141400Z 09002KT CAVOK 23/12 Q1014 NOSIG', 'VTUW 141300Z 00000KT CAVOK 24/12 Q1014 NOSIG', 'VTUW 141200Z 00000KT CAVOK 27/12 Q1013 NOSIG', 'VTUW 141100Z 13003KT CAVOK 30/09 Q1013 NOSIG', 'VTUW 141000Z 12003KT 040V190 CAVOK 33/09 Q1012 NOSIG', 'VTUW 140900Z 12003KT 030V190 CAVOK 33/10 Q1012 NOSIG', 'VTUW 140800Z VRB02KT CAVOK 33/10 Q1012 NOSIG', 'VTUW 140700Z 13004KT 090V190 CAVOK 33/11 Q1013 NOSIG', 'VTUW 140600Z 08007KT 060V120 CAVOK 31/12 Q1015 NOSIG', 'VTUW 140500Z 11006KT 060V170 CAVOK 30/12 Q1016 NOSIG', 'VTUW 140400Z 10008KT 050V140 CAVOK 28/13 Q1018 NOSIG', 'VTUW 140300Z 12007KT 090V150 CAVOK 27/15 Q1018 NOSIG', 'VTUW 140200Z 12004KT CAVOK 24/16 Q1018 NOSIG', 'VTUW 140100Z 14004KT CAVOK 20/16 Q1018 NOSIG', 'VTUW 140000Z 00000KT 8000 NSC 17/16 Q1017 NOSIG', 'VTUW 132300Z 16002KT CAVOK 16/16 Q1016 NOSIG', 'VTUW 132200Z 19003KT CAVOK 16/16 Q1015 NOSIG', 'VTUW 131400Z 12008KT CAVOK 25/16 Q1016 NOSIG', 'VTUW 131300Z 12006KT CAVOK 26/12 Q1016 NOSIG', 'VTUW 131200Z 11002KT CAVOK 26/14 Q1015 NOSIG', 'VTUW 131100Z 11003KT CAVOK 29/11 Q1014 NOSIG', 'VTUW 131000Z 09004KT 030V150 CAVOK 31/11 Q1014 NOSIG', 'VTUW 130900Z VRB04KT CAVOK 32/10 Q1014 NOSIG', 'VTUW 130800Z 07006KT 010V110 CAVOK 32/10 Q1014 NOSIG', 'VTUW 130700Z VRB03KT CAVOK 31/12 Q1015 NOSIG', 'VTUW 130600Z 12006KT 100V160 CAVOK 31/12 Q1017 NOSIG', 'VTUW 130500Z VRB05KT CAVOK 29/13 Q1018 NOSIG', 'VTUW 130400Z 10005KT 050V150 CAVOK 27/14 Q1019 NOSIG', 'VTUW 130300Z 08006KT 040V120 CAVOK 27/14 Q1020 NOSIG', 'VTUW 130200Z 07008KT 050V110 CAVOK 24/15 Q1020 NOSIG', 'VTUW 130100Z 00000KT CAVOK 21/16 Q1020 NOSIG', 'VTUW 130000Z 00000KT 8000 NSC 15/15 Q1019 NOSIG', 'VTUW 122300Z 15002KT 8000 NSC 15/15 Q1019 NOSIG', 'VTUW 122200Z 00000KT CAVOK 15/14 Q1018 NOSIG', 'VTUW 121400Z 11009KT CAVOK 22/15 Q1020 NOSIG', 'VTUW 121300Z 11010KT CAVOK 23/14 Q1019 NOSIG', 'VTUW 121200Z 11012KT CAVOK 25/13 Q1018 NOSIG', 'VTUW 121100Z 12009KT CAVOK 27/13 Q1018 NOSIG', 'VTUW 121000Z 12005KT CAVOK 29/11 Q1017 NOSIG']","['2024-02-15 08:00:00', '2024-02-15 07:00:00', '2024-02-15 06:00:00', '2024-02-15 05:00:00', '2024-02-15 04:00:00', '2024-02-15 03:00:00', '2024-02-15 02:00:00', '2024-02-15 01:00:00', '2024-02-15 00:00:00', '2024-02-14 23:00:00', '2024-02-14 22:00:00', '2024-02-14 14:00:00', '2024-02-14 13:00:00', '2024-02-14 12:00:00', '2024-02-14 11:00:00', '2024-02-14 10:00:00', '2024-02-14 09:00:00', '2024-02-14 08:00:00', '2024-02-14 07:00:00', '2024-02-14 06:00:00', '2024-02-14 05:00:00', '2024-02-14 04:00:00', '2024-02-14 03:00:00', '2024-02-14 02:00:00', '2024-02-14 01:00:00', '2024-02-14 00:00:00', '2024-02-13 23:00:00', '2024-02-13 22:00:00', '2024-02-13 14:00:00', '2024-02-13 13:00:00', '2024-02-13 12:00:00', '2024-02-13 11:00:00', '2024-02-13 10:00:00', '2024-02-13 09:00:00', '2024-02-13 08:00:00', '2024-02-13 07:00:00', '2024-02-13 06:00:00', '2024-02-13 05:00:00', '2024-02-13 04:00:00', '2024-02-13 03:00:00', '2024-02-13 02:00:00', '2024-02-13 01:00:00', '2024-02-13 00:00:00', '2024-02-12 23:00:00', '2024-02-12 22:00:00', '2024-02-12 14:00:00', '2024-02-12 13:00:00', '2024-02-12 12:00:00', '2024-02-12 11:00:00', '2024-02-12 10:00:00']"
Thailand, Nakhon Ratchasima Airport (NAK/VTUQ) ,"['VTUQ 150800Z 02007KT 340V060 9000 NSC 36/10 Q1012 NOSIG', 'VTUQ 150700Z 04006KT 320V110 9000 NSC 36/11 Q1013 NOSIG', 'VTUQ 150600Z VRB03KT 9000 NSC 35/11 Q1014 NOSIG', 'VTUQ 150500Z VRB04KT 9000 NSC 34/12 Q1015 NOSIG', 'VTUQ 150400Z VRB03KT 8000 NSC 33/13 Q1016 NOSIG', 'VTUQ 150300Z VRB04KT 9000 NSC 31/14 Q1017 NOSIG', 'VTUQ 150200Z VRB02KT 7000 NSC 29/15 Q1017 NOSIG', 'VTUQ 150100Z 32003KT 7000 NSC 24/16 Q1016 NOSIG', 'VTUQ 150000Z VRB02KT 7000 NSC 18/16 Q1015 NOSIG', 'VTUQ 142300Z 16003KT 8000 NSC 18/15 Q1015 NOSIG', 'VTUQ 142200Z 00000KT 9000 NSC 18/16 Q1014 NOSIG', 'VTUQ 141400Z 09003KT CAVOK 23/16 Q1014 NOSIG', 'VTUQ 141300Z 06004KT CAVOK 24/15 Q1014 NOSIG', 'VTUQ 141200Z 00000KT CAVOK 25/14 Q1013 NOSIG', 'VTUQ 141100Z 35004KT CAVOK 31/12 Q1012 NOSIG', 'VTUQ 141000Z 36005KT 270V040 CAVOK 33/13 Q1012 NOSIG', 'VTUQ 140900Z 04004KT 320V090 CAVOK 34/13 Q1011 NOSIG', 'VTUQ 140800Z 04005KT 330V110 CAVOK 34/12 Q1012 NOSIG', 'VTUQ 140700Z 15006KT 040V190 CAVOK 34/13 Q1013 NOSIG', 'VTUQ 140600Z VRB03KT CAVOK 33/13 Q1014 NOSIG', 'VTUQ 140500Z VRB04KT CAVOK 32/14 Q1016 NOSIG', 'VTUQ 140400Z 12005KT 040V170 9000 NSC 30/15 Q1017 NOSIG', 'VTUQ 140300Z 07005KT 020V130 8000 NSC 27/16 Q1018 NOSIG', 'VTUQ 140200Z 10006KT 070V140 8000 NSC 26/15 Q1018 NOSIG', 'VTUQ 140100Z 00000KT 6000 NSC 23/15 Q1017 NOSIG', 'VTUQ 140000Z 00000KT 7000 NSC 17/14 Q1016 NOSIG', 'VTUQ 132300Z 00000KT 7000 NSC 17/14 Q1016 NOSIG', 'VTUQ 132200Z 22004KT 8000 NSC 17/14 Q1015 NOSIG', 'VTUQ 131400Z VRB01KT CAVOK 20/14 Q1016 NOSIG', 'VTUQ 131300Z VRB01KT CAVOK 21/14 Q1016 NOSIG', 'VTUQ 131200Z 00000KT CAVOK 23/12 Q1014 NOSIG', 'VTUQ 131100Z 04004KT 010V080 CAVOK 30/11 Q1014 NOSIG', 'VTUQ 131000Z 05005KT 340V090 CAVOK 32/11 Q1014 NOSIG', 'VTUQ 130900Z 06007KT 030V090 9000 NSC 32/12 Q1014 NOSIG', 'VTUQ 130800Z VRB04KT 9000 NSC 32/13 Q1014 NOSIG', 'VTUQ 130700Z 01006KT 260V060 9000 NSC 31/13 Q1015 NOSIG', 'VTUQ 130600Z VRB05KT 9000 NSC 30/14 Q1017 NOSIG', 'VTUQ 130500Z 06005KT 340V150 9000 NSC 29/13 Q1018 NOSIG', 'VTUQ 130400Z VRB04KT 9000 NSC 27/14 Q1019 NOSIG', 'VTUQ 130300Z VRB03KT 8000 NSC 25/15 Q1020 NOSIG', 'VTUQ 130200Z 09005KT 050V130 8000 NSC 23/15 Q1020 NOSIG', 'VTUQ 130100Z 09006KT 6000 NSC 20/14 Q1019 NOSIG', 'VTUQ 130000Z 00000KT 4000 BR NSC 16/14 Q1019 NOSIG', 'VTUQ 122300Z 00000KT 8000 NSC 17/14 Q1018 NOSIG', 'VTUQ 122200Z 08001KT 8000 NSC 18/14 Q1017 NOSIG', 'VTUQ 121400Z 00000KT 9000 NSC 20/15 Q1018 NOSIG', 'VTUQ 121300Z 00000KT 9000 NSC 21/14 Q1018 NOSIG', 'VTUQ 121200Z 00000KT 9000 NSC 24/14 Q1017 NOSIG', 'VTUQ 121100Z 05005KT 010V070 9000 NSC 28/13 Q1017 NOSIG', 'VTUQ 121000Z 02005KT 340V070 9000 NSC 29/13 Q1017 NOSIG']","['2024-02-15 08:00:00', '2024-02-15 07:00:00', '2024-02-15 06:00:00', '2024-02-15 05:00:00', '2024-02-15 04:00:00', '2024-02-15 03:00:00', '2024-02-15 02:00:00', '2024-02-15 01:00:00', '2024-02-15 00:00:00', '2024-02-14 23:00:00', '2024-02-14 22:00:00', '2024-02-14 14:00:00', '2024-02-14 13:00:00', '2024-02-14 12:00:00', '2024-02-14 11:00:00', '2024-02-14 10:00:00', '2024-02-14 09:00:00', '2024-02-14 08:00:00', '2024-02-14 07:00:00', '2024-02-14 06:00:00', '2024-02-14 05:00:00', '2024-02-14 04:00:00', '2024-02-14 03:00:00', '2024-02-14 02:00:00', '2024-02-14 01:00:00', '2024-02-14 00:00:00', '2024-02-13 23:00:00', '2024-02-13 22:00:00', '2024-02-13 14:00:00', '2024-02-13 13:00:00', '2024-02-13 12:00:00', '2024-02-13 11:00:00', '2024-02-13 10:00:00', '2024-02-13 09:00:00', '2024-02-13 08:00:00', '2024-02-13 07:00:00', '2024-02-13 06:00:00', '2024-02-13 05:00:00', '2024-02-13 04:00:00', '2024-02-13 03:00:00', '2024-02-13 02:00:00', '2024-02-13 01:00:00', '2024-02-13 00:00:00', '2024-02-12 23:00:00', '2024-02-12 22:00:00', '2024-02-12 14:00:00', '2024-02-12 13:00:00', '2024-02-12 12:00:00', '2024-02-12 11:00:00', '2024-02-12 10:00:00']"
Thailand, Nakhon Si Thammarat Airport (NST/VTSF) ,"['VTSF 150800Z 12010KT 070V160 9999 SCT020 30/23 Q1012 NOSIG', 'VTSF 150700Z 12008KT 080V170 9999 BKN020 31/24 Q1012 NOSIG', 'VTSF 150600Z 10009KT 9999 BKN020 30/24 Q1013 NOSIG', 'VTSF 150500Z 10008KT 050V150 9999 BKN020 31/24 Q1014 NOSIG', 'VTSF 150400Z 12006KT 030V180 9999 BKN020 30/25 Q1014 NOSIG', 'VTSF 150300Z 11005KT 060V160 9999 BKN020 29/24 Q1015 NOSIG', 'VTSF 150200Z VRB03KT 9999 BKN018 29/24 Q1014 NOSIG', 'VTSF 150100Z 00000KT 9999 FEW018 27/25 Q1014 NOSIG', 'VTSF 150000Z 00000KT 7000 FEW018 24/23 Q1013 NOSIG', 'VTSF 142300Z 00000KT 7000 FEW018 24/24 Q1012 NOSIG', 'VTSF 142200Z 00000KT 7000 FEW018 25/25 Q1013 NOSIG', 'VTSF 141500Z 00000KT 9999 FEW018 26/25 Q1013 NOSIG', 'VTSF 141400Z 00000KT 9999 FEW018 26/25 Q1013 NOSIG', 'VTSF 141300Z 00000KT 9999 SCT018 27/25 Q1013 NOSIG', 'VTSF 141200Z 10004KT 070V140 9999 SCT018 27/25 Q1012 NOSIG', 'VTSF 141100Z 10004KT 050V130 9999 SCT018 28/25 Q1012 NOSIG', 'VTSF 141000Z 10007KT 060V130 9999 BKN018 29/25 Q1011 NOSIG', 'VTSF 140900Z 09010KT 9999 BKN018 30/25 Q1011 NOSIG', 'VTSF 140800Z 09010KT 050V130 9999 SCT018 30/25 Q1011 NOSIG', 'VTSF 140700Z 08011KT 040V120 9999 SCT018 30/24 Q1012 NOSIG', 'VTSF 140600Z 09010KT 030V120 9999 SCT018 31/24 Q1013 NOSIG', 'VTSF 140500Z 09009KT 9999 BKN018 30/25 Q1014 NOSIG', 'VTSF 140400Z 10009KT 070V130 9999 BKN018 29/25 Q1014 NOSIG', 'VTSF 140300Z VRB02KT 9999 BKN018 BKN020 27/25 Q1015 NOSIG', 'VTSF 140200Z 27003KT 180V350 9999 -RA BKN018 BKN020 26/25 Q1014 NOSIG', 'VTSF 140100Z VRB02KT 9999 FEW016CB BKN018 BKN020 25/24 Q1014 RERA NOSIG', 'VTSF 140000Z 22003KT 9000 -RA FEW016CB BKN018 BKN020 25/24 Q1013 NOSIG', 'VTSF 132300Z 00000KT 8000 -RA FEW016CB BKN018 24/24 Q1012 NOSIG', 'VTSF 132200Z 00000KT 8000 FEW018 24/23 Q1012 NOSIG', 'VTSF 131500Z 00000KT 7000 SCT018 25/24 Q1014 NOSIG', 'VTSF 131400Z 00000KT 8000 SCT018 25/25 Q1014 NOSIG', 'VTSF 131300Z 00000KT 9999 BKN018 25/24 Q1013 RERA NOSIG', 'VTSF 131200Z 09006KT 060V130 5000 RA FEW016CB BKN018 BKN020 26/24 Q1013 NOSIG', 'VTSF 131100Z 12005KT 080V150 9999 SCT018 29/23 Q1012 NOSIG', 'VTSF 131000Z 13006KT 090V170 9999 SCT018 29/23 Q1012 NOSIG', 'VTSF 130900Z 11008KT 050V140 9999 SCT018 30/23 Q1011 NOSIG', 'VTSF 130800Z 12008KT 080V170 9999 SCT018 30/24 Q1012 NOSIG', 'VTSF 130700Z 09009KT 060V140 9999 SCT018 31/25 Q1012 NOSIG', 'VTSF 130600Z 08011KT 050V120 9999 FEW018 31/23 Q1013 NOSIG', 'VTSF 130500Z 09009KT 040V140 9999 SCT018 30/24 Q1015 NOSIG', 'VTSF 130400Z 07008KT 9999 SCT018 30/24 Q1015 NOSIG', 'VTSF 130300Z 11006KT 040V160 9999 SCT018 29/24 Q1015 NOSIG', 'VTSF 130200Z 00000KT 9999 FEW020 29/24 Q1015 NOSIG', 'VTSF 130100Z VRB02KT 9999 FEW020 25/24 Q1014 NOSIG', 'VTSF 130000Z 00000KT 6000 -RA SCT020 BKN060 23/23 Q1014 NOSIG', 'VTSF 122300Z 00000KT 9000 FEW018 22/22 Q1014 NOSIG', 'VTSF 122200Z 00000KT 9000 FEW018 22/22 Q1013 NOSIG', 'VTSF 121500Z VRB02KT 9999 SCT020 BKN100 25/24 Q1016 NOSIG', 'VTSF 121400Z 00000KT 9999 SCT020 BKN100 25/24 Q1016 NOSIG', 'VTSF 121300Z 32003KT 290V360 9000 FEW016CB SCT020 BKN030 25/24 Q1015 NOSIG', 'VTSF 121200Z 35004KT 9999 -RA SCT018 BKN030 24/24 Q1014 RERA NOSIG', 'VTSF 121100Z 36008KT 3000 RA FEW016CB BKN018 OVC020 25/25 Q1014 BECMG TL1120 8000 NSW', 'VTSF 121000Z 34007KT 300V010 5000 RA SCT011 FEW016CB BKN018 26/25 Q1013 NOSIG']","['2024-02-15 08:00:00', '2024-02-15 07:00:00', '2024-02-15 06:00:00', '2024-02-15 05:00:00', '2024-02-15 04:00:00', '2024-02-15 03:00:00', '2024-02-15 02:00:00', '2024-02-15 01:00:00', '2024-02-15 00:00:00', '2024-02-14 23:00:00', '2024-02-14 22:00:00', '2024-02-14 15:00:00', '2024-02-14 14:00:00', '2024-02-14 13:00:00', '2024-02-14 12:00:00', '2024-02-14 11:00:00', '2024-02-14 10:00:00', '2024-02-14 09:00:00', '2024-02-14 08:00:00', '2024-02-14 07:00:00', '2024-02-14 06:00:00', '2024-02-14 05:00:00', '2024-02-14 04:00:00', '2024-02-14 03:00:00', '2024-02-14 02:00:00', '2024-02-14 01:00:00', '2024-02-14 00:00:00', '2024-02-13 23:00:00', '2024-02-13 22:00:00', '2024-02-13 15:00:00', '2024-02-13 14:00:00', '2024-02-13 13:00:00', '2024-02-13 12:00:00', '2024-02-13 11:00:00', '2024-02-13 10:00:00', '2024-02-13 09:00:00', '2024-02-13 08:00:00', '2024-02-13 07:00:00', '2024-02-13 06:00:00', '2024-02-13 05:00:00', '2024-02-13 04:00:00', '2024-02-13 03:00:00', '2024-02-13 02:00:00', '2024-02-13 01:00:00', '2024-02-13 00:00:00', '2024-02-12 23:00:00', '2024-02-12 22:00:00', '2024-02-12 15:00:00', '2024-02-12 14:00:00', '2024-02-12 13:00:00', '2024-02-12 12:00:00', '2024-02-12 11:00:00', '2024-02-12 10:00:00']"
Thailand, Nan Airport (NNT/VTCN) ,"['VTCN 150800Z VRB04KT CAVOK 35/12 Q1012 NOSIG', 'VTCN 150700Z 25003KT 200V320 CAVOK 34/15 Q1013 NOSIG', 'VTCN 150600Z 20004KT 110V280 CAVOK 33/16 Q1015 NOSIG', 'VTCN 150500Z VRB03KT CAVOK 30/17 Q1016 NOSIG', 'VTCN 150400Z VRB02KT CAVOK 28/17 Q1017 NOSIG', 'VTCN 150300Z VRB01KT CAVOK 24/18 Q1018 NOSIG', 'VTCN 150200Z 00000KT 8000 NSC 20/17 Q1017 NOSIG', 'VTCN 150100Z 00000KT 7000 NSC 17/16 Q1017 NOSIG', 'VTCN 150000Z 00000KT 6000 NSC 15/15 Q1016 NOSIG', 'VTCN 142300Z 00000KT 8000 NSC 16/15 Q1015 NOSIG', 'VTCN 142200Z 34002KT 8000 NSC 16/15 Q1015 NOSIG', 'VTCN 141300Z 02002KT CAVOK 24/17 Q1013 NOSIG', 'VTCN 141200Z 04003KT CAVOK 27/17 Q1012 NOSIG', 'VTCN 141100Z 00000KT CAVOK 30/17 Q1011 NOSIG', 'VTCN 141000Z 08004KT 040V100 CAVOK 34/13 Q1011 NOSIG', 'VTCN 140900Z 18003KT 090V250 CAVOK 35/14 Q1011 NOSIG', 'VTCN 140800Z VRB04KT CAVOK 35/14 Q1011 NOSIG', 'VTCN 140700Z VRB04KT CAVOK 34/15 Q1013 NOSIG', 'VTCN 140600Z 22004KT 160V310 CAVOK 32/15 Q1014 NOSIG', 'VTCN 140500Z VRB03KT CAVOK 31/16 Q1016 NOSIG', 'VTCN 140400Z VRB02KT CAVOK 28/16 Q1017 NOSIG', 'VTCN 140300Z VRB02KT CAVOK 24/17 Q1018 NOSIG', 'VTCN 140200Z VRB02KT CAVOK 20/16 Q1018 NOSIG', 'VTCN 140100Z 04002KT 8000 NSC 17/16 Q1017 NOSIG', 'VTCN 140000Z 00000KT 7000 NSC 15/15 Q1017 NOSIG', 'VTCN 132300Z 00000KT 7000 NSC 15/15 Q1016 NOSIG', 'VTCN 132200Z 31002KT 8000 NSC 16/15 Q1015 NOSIG', 'VTCN 131300Z 00000KT CAVOK 23/17 Q1015 NOSIG', 'VTCN 131200Z 00000KT CAVOK 26/16 Q1014 NOSIG', 'VTCN 131100Z 14002KT CAVOK 31/14 Q1013 NOSIG', 'VTCN 131000Z 14004KT 100V210 CAVOK 33/12 Q1013 NOSIG', 'VTCN 130900Z VRB03KT CAVOK 33/12 Q1013 NOSIG', 'VTCN 130800Z 21005KT 180V260 CAVOK 33/15 Q1013 NOSIG', 'VTCN 130700Z VRB05KT CAVOK 32/15 Q1015 NOSIG', 'VTCN 130600Z VRB04KT CAVOK 31/15 Q1016 NOSIG', 'VTCN 130500Z VRB04KT CAVOK 30/15 Q1018 NOSIG', 'VTCN 130400Z VRB02KT CAVOK 28/16 Q1019 NOSIG', 'VTCN 130300Z 05004KT 010V090 CAVOK 24/18 Q1020 NOSIG', 'VTCN 130200Z VRB02KT 8000 NSC 20/17 Q1020 NOSIG', 'VTCN 130100Z 03002KT 6000 NSC 16/16 Q1020 NOSIG', 'VTCN 130000Z 04002KT 5000 BR NSC 15/15 Q1019 NOSIG', 'VTCN 122300Z 00000KT 6000 NSC 16/15 Q1018 NOSIG', 'VTCN 122200Z 04002KT 6000 NSC 16/16 Q1017 NOSIG', 'VTCN 121300Z 00000KT CAVOK 23/18 Q1017 NOSIG', 'VTCN 121200Z 00000KT CAVOK 25/18 Q1016 NOSIG', 'VTCN 121100Z 13002KT CAVOK 30/16 Q1016 NOSIG', 'VTCN 121000Z 15004KT 080V200 CAVOK 31/16 Q1015 NOSIG']","['2024-02-15 08:00:00', '2024-02-15 07:00:00', '2024-02-15 06:00:00', '2024-02-15 05:00:00', '2024-02-15 04:00:00', '2024-02-15 03:00:00', '2024-02-15 02:00:00', '2024-02-15 01:00:00', '2024-02-15 00:00:00', '2024-02-14 23:00:00', '2024-02-14 22:00:00', '2024-02-14 13:00:00', '2024-02-14 12:00:00', '2024-02-14 11:00:00', '2024-02-14 10:00:00', '2024-02-14 09:00:00', '2024-02-14 08:00:00', '2024-02-14 07:00:00', '2024-02-14 06:00:00', '2024-02-14 05:00:00', '2024-02-14 04:00:00', '2024-02-14 03:00:00', '2024-02-14 02:00:00', '2024-02-14 01:00:00', '2024-02-14 00:00:00', '2024-02-13 23:00:00', '2024-02-13 22:00:00', '2024-02-13 13:00:00', '2024-02-13 12:00:00', '2024-02-13 11:00:00', '2024-02-13 10:00:00', '2024-02-13 09:00:00', '2024-02-13 08:00:00', '2024-02-13 07:00:00', '2024-02-13 06:00:00', '2024-02-13 05:00:00', '2024-02-13 04:00:00', '2024-02-13 03:00:00', '2024-02-13 02:00:00', '2024-02-13 01:00:00', '2024-02-13 00:00:00', '2024-02-12 23:00:00', '2024-02-12 22:00:00', '2024-02-12 13:00:00', '2024-02-12 12:00:00', '2024-02-12 11:00:00', '2024-02-12 10:00:00']"
Thailand, Narathiwat Airport (NAW/VTSC) ,"['VTSC 150800Z 09010KT 9999 FEW022 30/23 Q1012 NOSIG', 'VTSC 150700Z 09011KT 9999 FEW022 31/23 Q1013 NOSIG', 'VTSC 150600Z 10010KT 050V130 9999 FEW022 31/24 Q1013 NOSIG', 'VTSC 150500Z 10011KT 040V140 9999 FEW022 31/23 Q1014 NOSIG', 'VTSC 150400Z 11011KT 070V130 9999 FEW020 31/24 Q1015 NOSIG', 'VTSC 150300Z 11010KT 060V130 9999 FEW020 30/24 Q1015 NOSIG', 'VTSC 150200Z 10009KT 070V130 9999 FEW018 29/24 Q1014 NOSIG', 'VTSC 150100Z 11007KT 060V140 9999 FEW018 28/24 Q1014 NOSIG', 'VTSC 150000Z 11007KT 080V140 9999 FEW018 27/24 Q1013 NOSIG', 'VTSC 142300Z 10008KT 9999 FEW018 SCT100 27/24 Q1013 NOSIG', 'VTSC 142200Z 08007KT 060V120 9999 FEW018 SCT100 27/24 Q1012 NOSIG', 'VTSC 141100Z 08009KT 050V120 9999 VCSH FEW016TCU 28/24 Q1012 NOSIG', 'VTSC 141000Z 08010KT 040V110 9999 FEW020 29/24 Q1011 NOSIG', 'VTSC 140900Z 08010KT 9999 -RA FEW020 30/24 Q1011 NOSIG', 'VTSC 140800Z 09012KT 060V130 9999 FEW020 30/24 Q1011 NOSIG', 'VTSC 140700Z 09012KT 9999 FEW020 31/24 Q1011 NOSIG', 'VTSC 140600Z 09011KT 060V120 9999 FEW020 30/24 Q1013 NOSIG', 'VTSC 140500Z 09012KT 060V120 9999 FEW020 30/24 Q1013 NOSIG', 'VTSC 140400Z 09014KT 9999 FEW018 30/24 Q1014 NOSIG', 'VTSC 140300Z 09012KT 060V130 9999 FEW018 29/24 Q1014 NOSIG', 'VTSC 140200Z 09011KT 9999 FEW018 29/24 Q1014 NOSIG', 'VTSC 140100Z 08013KT 050V110 9999 4000SW -RA FEW018 28/24 Q1014 NOSIG', 'VTSC 140000Z 08010KT 9999 SCT018 28/24 Q1013 NOSIG', 'VTSC 132300Z 07013KT 9999 FEW018 SCT100 27/23 Q1012 NOSIG', 'VTSC 132200Z 08010KT 9999 FEW018 SCT100 27/23 Q1012 NOSIG', 'VTSC 131100Z 07011KT 040V110 9999 FEW018 28/23 Q1013 NOSIG', 'VTSC 131000Z 08010KT 9999 FEW018 29/23 Q1012 NOSIG', 'VTSC 130900Z 08011KT 9999 FEW020 29/23 Q1012 NOSIG', 'VTSC 130800Z 08011KT 9999 FEW020 30/23 Q1012 NOSIG', 'VTSC 130700Z 08011KT 050V120 9999 FEW020 30/24 Q1013 NOSIG', 'VTSC 130600Z 09011KT 9999 FEW020 28/23 Q1014 NOSIG', 'VTSC 130500Z 09010KT 060V120 9999 FEW020 30/24 Q1015 NOSIG', 'VTSC 130400Z 09008KT 9999 FEW020 28/24 Q1016 NOSIG', 'VTSC 130300Z 10011KT 9999 FEW020 29/23 Q1016 NOSIG', 'VTSC 130200Z 11010KT 080V140 9999 FEW020 29/23 Q1015 NOSIG', 'VTSC 130100Z 10007KT 070V130 9999 FEW018 27/23 Q1015 NOSIG', 'VTSC 130000Z 11007KT 080V140 9999 FEW020 27/22 Q1014 NOSIG', 'VTSC 122300Z 10008KT 060V120 9999 FEW020 27/22 Q1014 NOSIG', 'VTSC 122200Z 10008KT 060V140 9999 FEW020 27/22 Q1014 NOSIG', 'VTSC 121100Z 09008KT 060V120 9999 FEW020 28/22 Q1014 NOSIG', 'VTSC 121000Z 09010KT 9999 FEW020 28/22 Q1014 NOSIG']","['2024-02-15 08:00:00', '2024-02-15 07:00:00', '2024-02-15 06:00:00', '2024-02-15 05:00:00', '2024-02-15 04:00:00', '2024-02-15 03:00:00', '2024-02-15 02:00:00', '2024-02-15 01:00:00', '2024-02-15 00:00:00', '2024-02-14 23:00:00', '2024-02-14 22:00:00', '2024-02-14 11:00:00', '2024-02-14 10:00:00', '2024-02-14 09:00:00', '2024-02-14 08:00:00', '2024-02-14 07:00:00', '2024-02-14 06:00:00', '2024-02-14 05:00:00', '2024-02-14 04:00:00', '2024-02-14 03:00:00', '2024-02-14 02:00:00', '2024-02-14 01:00:00', '2024-02-14 00:00:00', '2024-02-13 23:00:00', '2024-02-13 22:00:00', '2024-02-13 11:00:00', '2024-02-13 10:00:00', '2024-02-13 09:00:00', '2024-02-13 08:00:00', '2024-02-13 07:00:00', '2024-02-13 06:00:00', '2024-02-13 05:00:00', '2024-02-13 04:00:00', '2024-02-13 03:00:00', '2024-02-13 02:00:00', '2024-02-13 01:00:00', '2024-02-13 00:00:00', '2024-02-12 23:00:00', '2024-02-12 22:00:00', '2024-02-12 11:00:00', '2024-02-12 10:00:00']"
Thailand, Phitsanulok Airport (PHS/VTPP) ,"['VTPP 150800Z 27005KT 230V320 5000 HZ NSC 35/16 Q1011 NOSIG', 'VTPP 150700Z VRB04KT 5000 HZ NSC 34/19 Q1012 NOSIG', 'VTPP 150600Z 16005KT 130V200 5000 HZ NSC 34/18 Q1014 NOSIG', 'VTPP 150500Z VRB02KT 5000 HZ NSC 33/18 Q1015 NOSIG', 'VTPP 150400Z VRB02KT 5000 HZ NSC 31/18 Q1016 NOSIG', 'VTPP 150300Z VRB02KT 5000 HZ NSC 29/20 Q1016 NOSIG', 'VTPP 150200Z VRB01KT 4500 HZ NSC 26/19 Q1016 BECMG TL0300 5000 HZ', 'VTPP 150100Z VRB01KT 4000 BR NSC 23/20 Q1015 NOSIG', 'VTPP 150000Z 00000KT 4000 BR MIFG NSC 20/20 Q1014 NOSIG', 'VTPP 142300Z VRB01KT 5000 BR MIFG NSC 20/20 Q1013 NOSIG', 'VTPP 142200Z VRB01KT 6000 NSC 20/20 Q1013 NOSIG', 'VTPP 141200Z 34001KT 6000 NSC 28/20 Q1012 NOSIG', 'VTPP 141100Z 28003KT 6000 NSC 32/19 Q1011 NOSIG', 'VTPP 141000Z 27004KT 7000 NSC 34/18 Q1011 NOSIG', 'VTPP 140900Z VRB04KT 6000 NSC 34/18 Q1011 NOSIG', 'VTPP 140800Z 28003KT 220V360 6000 NSC 34/19 Q1011 NOSIG', 'VTPP 140700Z 19004KT 140V240 6000 NSC 33/18 Q1012 NOSIG', 'VTPP 140600Z 20006KT 150V240 5000 HZ NSC 33/16 Q1014 NOSIG', 'VTPP 140500Z VRB04KT 5000 HZ NSC 31/18 Q1015 NOSIG', 'VTPP 140400Z 20004KT 150V250 5000 HZ NSC 30/18 Q1016 NOSIG', 'VTPP 140300Z 17004KT 100V260 5000 HZ NSC 28/19 Q1016 NOSIG', 'VTPP 140200Z VRB02KT 4500 HZ NSC 25/20 Q1016 BECMG TL0300 5000 HZ', 'VTPP 140100Z 00000KT 4000 BR NSC 23/20 Q1016 BECMG 5000 HZ', 'VTPP 140000Z 00000KT 4000 BR MIFG NSC 20/20 Q1015 NOSIG', 'VTPP 132300Z 09001KT 5000 BR NSC 20/19 Q1014 NOSIG', 'VTPP 132200Z VRB01KT 6000 NSC 20/20 Q1014 NOSIG', 'VTPP 131200Z 00000KT 6000 NSC 27/20 Q1014 NOSIG', 'VTPP 131100Z 28003KT 6000 NSC 31/19 Q1013 NOSIG', 'VTPP 131000Z 27004KT 260V320 6000 NSC 32/18 Q1012 NOSIG', 'VTPP 130900Z 28006KT 220V030 6000 NSC 32/19 Q1012 NOSIG', 'VTPP 130800Z 27006KT 240V320 6000 NSC 32/19 Q1013 NOSIG', 'VTPP 130700Z 23006KT 190V270 5000 HZ NSC 32/18 Q1014 NOSIG', 'VTPP 130600Z 26004KT 220V300 5000 HZ NSC 32/18 Q1016 NOSIG', 'VTPP 130500Z 25005KT 180V310 5000 HZ NSC 30/19 Q1017 NOSIG', 'VTPP 130400Z 29003KT 180V350 5000 HZ NSC 29/18 Q1018 NOSIG', 'VTPP 130300Z 33003KT 280V070 4500 HZ NSC 27/20 Q1019 BECMG TL0400 5000 HZ', 'VTPP 130200Z VRB01KT 4500 HZ NSC 25/20 Q1018 BECMG 5000 HZ', 'VTPP 130100Z 02002KT 4000 BR NSC 23/20 Q1018 BECMG TL0200 5000 HZ', 'VTPP 130000Z VRB01KT 4000 BR MIFG NSC 20/19 Q1017 BECMG 5000 BR', 'VTPP 122300Z VRB01KT 5000 BR FEW025 20/19 Q1016 NOSIG', 'VTPP 122200Z VRB01KT 6000 FEW025 20/19 Q1016 NOSIG', 'VTPP 121200Z 36001KT 7000 NSC 27/19 Q1016 NOSIG', 'VTPP 121100Z 29003KT 7000 NSC 30/18 Q1015 NOSIG', 'VTPP 121000Z 28005KT 7000 NSC 31/16 Q1015 NOSIG']","['2024-02-15 08:00:00', '2024-02-15 07:00:00', '2024-02-15 06:00:00', '2024-02-15 05:00:00', '2024-02-15 04:00:00', '2024-02-15 03:00:00', '2024-02-15 02:00:00', '2024-02-15 01:00:00', '2024-02-15 00:00:00', '2024-02-14 23:00:00', '2024-02-14 22:00:00', '2024-02-14 12:00:00', '2024-02-14 11:00:00', '2024-02-14 10:00:00', '2024-02-14 09:00:00', '2024-02-14 08:00:00', '2024-02-14 07:00:00', '2024-02-14 06:00:00', '2024-02-14 05:00:00', '2024-02-14 04:00:00', '2024-02-14 03:00:00', '2024-02-14 02:00:00', '2024-02-14 01:00:00', '2024-02-14 00:00:00', '2024-02-13 23:00:00', '2024-02-13 22:00:00', '2024-02-13 12:00:00', '2024-02-13 11:00:00', '2024-02-13 10:00:00', '2024-02-13 09:00:00', '2024-02-13 08:00:00', '2024-02-13 07:00:00', '2024-02-13 06:00:00', '2024-02-13 05:00:00', '2024-02-13 04:00:00', '2024-02-13 03:00:00', '2024-02-13 02:00:00', '2024-02-13 01:00:00', '2024-02-13 00:00:00', '2024-02-12 23:00:00', '2024-02-12 22:00:00', '2024-02-12 12:00:00', '2024-02-12 11:00:00', '2024-02-12 10:00:00']"
Thailand, Phrae Airport (PRH/VTCP) ,"['VTCP 150800Z 21005KT 150V270 7000 NSC 35/12 Q1012 NOSIG', 'VTCP 150700Z 20005KT 160V280 7000 NSC 35/12 Q1013 NOSIG', 'VTCP 150600Z 23004KT 140V300 4000 HZ NSC 34/15 Q1014 NOSIG', 'VTCP 150500Z VRB02KT 3000 HZ NSC 31/17 Q1016 NOSIG', 'VTCP 150400Z VRB01KT 2000 HZ NSC 28/17 Q1017 NOSIG', 'VTCP 150300Z 30003KT 200V010 2000 HZ NSC 25/17 Q1017 NOSIG', 'VTCP 150200Z 00000KT 3000 HZ NSC 22/17 Q1017 NOSIG', 'VTCP 150100Z 00000KT 3000 BR NSC 20/17 Q1016 NOSIG', 'VTCP 150000Z 00000KT 1500 BR NSC 17/17 Q1016 BECMG TL0100 3000 BR', 'VTCP 142300Z 00000KT 5000 BR NSC 17/16 Q1015 NOSIG', 'VTCP 142200Z 00000KT 5000 BR NSC 18/17 Q1014 NOSIG', 'VTCP 141100Z 20006KT CAVOK 32/18 Q1012 NOSIG', 'VTCP 141000Z 19005KT 160V230 CAVOK 34/14 Q1011 NOSIG', 'VTCP 140900Z 20007KT 120V230 CAVOK 35/14 Q1011 NOSIG', 'VTCP 140800Z VRB06KT 8000 FEW045 35/14 Q1011 NOSIG', 'VTCP 140700Z 19009KT 150V260 8000 NSC 34/17 Q1013 NOSIG', 'VTCP 140600Z 19008KT 160V220 7000 FEW045 33/15 Q1014 NOSIG', 'VTCP 140500Z VRB04KT 5000 HZ FEW045 31/17 Q1016 NOSIG', 'VTCP 140400Z VRB02KT 3000 HZ NSC 28/18 Q1017 NOSIG', 'VTCP 140300Z VRB01KT 3000 HZ NSC 25/17 Q1018 NOSIG', 'VTCP 140200Z VRB01KT 3000 HZ NSC 22/18 Q1017 NOSIG', 'VTCP 140100Z 00000KT 4000 BR NSC 19/17 Q1017 NOSIG', 'VTCP 140000Z 00000KT 3000 BR NSC 17/17 Q1016 NOSIG', 'VTCP 132300Z 00000KT 5000 BR NSC 18/17 Q1015 NOSIG', 'VTCP 132200Z 00000KT 5000 BR NSC 18/17 Q1015 NOSIG', 'VTCP 131100Z VRB02KT 9999 FEW045 32/15 Q1013 NOSIG', 'VTCP 131000Z VRB02KT 9999 FEW045 34/13 Q1013 NOSIG', 'VTCP 130900Z 21002KT 9999 FEW045 34/13 Q1013 NOSIG', 'VTCP 130800Z 16004KT 9999 FEW045 33/15 Q1013 NOSIG', 'VTCP 130700Z 22005KT 130V260 8000 FEW045 33/16 Q1014 NOSIG', 'VTCP 130600Z VRB04KT 7000 FEW045 32/17 Q1016 NOSIG', 'VTCP 130500Z VRB03KT 7000 FEW045 30/18 Q1018 NOSIG', 'VTCP 130400Z VRB02KT 6000 NSC 27/18 Q1019 NOSIG', 'VTCP 130300Z VRB02KT 5000 HZ NSC 25/18 Q1020 NOSIG', 'VTCP 130200Z VRB01KT 4000 BR NSC 22/18 Q1020 BECMG 6000 NSW', 'VTCP 130100Z VRB02KT 3000 BR NSC 19/18 Q1019 BECMG 6000 NSW', 'VTCP 130000Z 16002KT 2500 BR NSC 18/17 Q1018 BECMG 6000 NSW', 'VTCP 122300Z 18002KT 4000 BR NSC 18/17 Q1017 NOSIG', 'VTCP 122200Z 35002KT 4000 BR NSC 18/18 Q1017 NOSIG', 'VTCP 121100Z 19004KT 9999 FEW045 30/17 Q1015 NOSIG', 'VTCP 121000Z 20005KT 160V230 9999 FEW045 32/16 Q1015 NOSIG']","['2024-02-15 08:00:00', '2024-02-15 07:00:00', '2024-02-15 06:00:00', '2024-02-15 05:00:00', '2024-02-15 04:00:00', '2024-02-15 03:00:00', '2024-02-15 02:00:00', '2024-02-15 01:00:00', '2024-02-15 00:00:00', '2024-02-14 23:00:00', '2024-02-14 22:00:00', '2024-02-14 11:00:00', '2024-02-14 10:00:00', '2024-02-14 09:00:00', '2024-02-14 08:00:00', '2024-02-14 07:00:00', '2024-02-14 06:00:00', '2024-02-14 05:00:00', '2024-02-14 04:00:00', '2024-02-14 03:00:00', '2024-02-14 02:00:00', '2024-02-14 01:00:00', '2024-02-14 00:00:00', '2024-02-13 23:00:00', '2024-02-13 22:00:00', '2024-02-13 11:00:00', '2024-02-13 10:00:00', '2024-02-13 09:00:00', '2024-02-13 08:00:00', '2024-02-13 07:00:00', '2024-02-13 06:00:00', '2024-02-13 05:00:00', '2024-02-13 04:00:00', '2024-02-13 03:00:00', '2024-02-13 02:00:00', '2024-02-13 01:00:00', '2024-02-13 00:00:00', '2024-02-12 23:00:00', '2024-02-12 22:00:00', '2024-02-12 11:00:00', '2024-02-12 10:00:00']"
Thailand, Phuket International Airport (HKT/VTSP) ,"['VTSP 150830Z VRB04KT 9999 FEW020 SCT060 31/25 Q1010 WS ALL RWY NOSIG', 'VTSP 150800Z 09009KT 020V130 9999 FEW020 35/22 Q1010 NOSIG', 'VTSP 150730Z 10012KT 070V130 9999 FEW020 35/22 Q1010 NOSIG', 'VTSP 150700Z 10012KT 070V130 9999 FEW020 35/22 Q1011 NOSIG', 'VTSP 150630Z 08010KT 050V120 9999 FEW020 34/22 Q1011 NOSIG', 'VTSP 150600Z 08011KT 050V110 9999 FEW020 33/23 Q1012 NOSIG', 'VTSP 150530Z 08010KT 040V100 9999 FEW020 33/23 Q1012 NOSIG', 'VTSP 150500Z 09009KT 050V120 9999 FEW020 33/23 Q1012 NOSIG', 'VTSP 150430Z 08009KT 020V110 9999 FEW020 32/22 Q1013 NOSIG', 'VTSP 150400Z 11009KT 9999 FEW020 31/22 Q1013 NOSIG', 'VTSP 150330Z 09009KT 050V110 9999 FEW020 31/22 Q1013 NOSIG', 'VTSP 150300Z 08007KT 360V110 9999 FEW020 31/23 Q1013 NOSIG', 'VTSP 150230Z VRB03KT 9999 FEW020 30/23 Q1013 NOSIG', 'VTSP 150200Z VRB03KT 9999 FEW020 29/23 Q1013 NOSIG', 'VTSP 150130Z 05003KT 340V120 9999 FEW020 29/23 Q1013 NOSIG', 'VTSP 150100Z 04003KT 320V110 9999 FEW020 28/23 Q1012 NOSIG', 'VTSP 150030Z VRB02KT 9999 FEW020 26/23 Q1012 NOSIG', 'VTSP 150000Z VRB02KT 9999 FEW020 25/23 Q1012 NOSIG', 'VTSP 142330Z VRB02KT 9999 FEW020 26/23 Q1012 NOSIG', 'VTSP 142300Z VRB02KT 9999 FEW020 26/23 Q1011 NOSIG', 'VTSP 142230Z 04003KT 350V090 9999 FEW020 26/23 Q1011 NOSIG', 'VTSP 142200Z 06004KT 350V130 9999 FEW020 27/23 Q1011 NOSIG', 'VTSP 142130Z 09010KT 9999 FEW020 28/23 Q1011 NOSIG', 'VTSP 142100Z 10014KT 9999 FEW020 28/23 Q1010 NOSIG', 'VTSP 142030Z 10010KT 9999 FEW020 28/23 Q1011 NOSIG', 'VTSP 142000Z 09011KT 9999 FEW020 28/23 Q1011 NOSIG', 'VTSP 141930Z 09013KT 9999 FEW020 28/23 Q1011 NOSIG', 'VTSP 141900Z 09014KT 9999 FEW020 28/23 Q1011 NOSIG', 'VTSP 141830Z 10014KT 9999 FEW020 28/22 Q1011 NOSIG', 'VTSP 141800Z 10012KT 9999 FEW020 29/22 Q1012 NOSIG', 'VTSP 141730Z 10010KT 9999 FEW020 29/23 Q1012 NOSIG', 'VTSP 141700Z 11011KT 9999 FEW020 29/23 Q1012 NOSIG', 'VTSP 141630Z 11010KT 080V140 9999 FEW020 29/22 Q1012 NOSIG', 'VTSP 141600Z 11010KT 9999 FEW020 29/22 Q1012 NOSIG', 'VTSP 141530Z 10009KT 070V130 9999 FEW020 29/22 Q1012 NOSIG', 'VTSP 141500Z 10007KT 060V130 9999 FEW020 30/22 Q1012 NOSIG', 'VTSP 141430Z 10005KT 050V150 9999 FEW020 30/23 Q1012 NOSIG', 'VTSP 141400Z 05004KT 340V100 9999 FEW020 30/23 Q1012 NOSIG', 'VTSP 141330Z 06004KT 020V090 9999 FEW020 30/23 Q1011 NOSIG', 'VTSP 141300Z 06003KT 010V120 9999 FEW020 30/23 Q1011 NOSIG', 'VTSP 141230Z 08005KT 040V120 9999 FEW020 31/23 Q1011 NOSIG', 'VTSP 141200Z 07005KT 030V110 9999 FEW020 31/23 Q1011 NOSIG', 'VTSP 141130Z 08005KT 020V120 9999 FEW020 31/23 Q1010 NOSIG', 'VTSP 141100Z 07007KT 010V110 9999 FEW020 SCT100 32/23 Q1010 NOSIG', 'VTSP 141030Z 09009KT 9999 FEW020 33/23 Q1010 NOSIG', 'VTSP 141000Z 10010KT 9999 FEW020 33/22 Q1009 NOSIG', 'VTSP 140930Z 09009KT 030V120 9999 FEW020 34/23 Q1009 NOSIG', 'VTSP 140900Z 08009KT 050V110 9999 FEW020 33/23 Q1009 NOSIG', 'VTSP 140830Z 07009KT 010V110 9999 FEW020 33/23 Q1009 NOSIG', 'VTSP 140800Z 08010KT 040V120 9999 FEW020 33/23 Q1009 NOSIG', 'VTSP 140730Z 09010KT 020V120 9999 FEW020 34/23 Q1010 NOSIG', 'VTSP 140700Z 09014KT 9999 FEW020 33/23 Q1010 NOSIG', 'VTSP 140630Z 09011KT 9999 FEW020 33/23 Q1011 NOSIG', 'VTSP 140600Z 10012KT 9999 FEW020 33/23 Q1011 NOSIG', 'VTSP 140530Z 08012KT 030V110 9999 FEW020 32/23 Q1012 NOSIG', 'VTSP 140500Z 09012KT 040V120 9999 FEW020 33/23 Q1013 NOSIG', 'VTSP 140430Z 09012KT 9999 FEW020 32/23 Q1013 NOSIG', 'VTSP 140400Z 08015KT 9999 FEW020 31/23 Q1013 NOSIG', 'VTSP 140330Z 08015KT 9999 FEW020 31/23 Q1013 NOSIG', 'VTSP 140300Z 08013KT 050V110 9999 FEW020 30/23 Q1013 NOSIG', 'VTSP 140230Z 09013KT 9999 FEW020 30/23 Q1013 NOSIG', 'VTSP 140200Z 08011KT 050V110 9999 FEW020 28/23 Q1013 NOSIG', 'VTSP 140130Z VRB05KT 9999 FEW020 29/24 Q1013 NOSIG', 'VTSP 140100Z 07005KT 010V100 9999 FEW020 27/23 Q1013 NOSIG', 'VTSP 140030Z 08004KT 040V110 9999 FEW020 27/23 Q1012 NOSIG', 'VTSP 140000Z VRB02KT 9999 FEW020 26/23 Q1012 NOSIG', 'VTSP 132330Z 09003KT 010V140 9999 FEW020 26/23 Q1012 NOSIG', 'VTSP 132300Z 09003KT 040V150 9999 FEW020 26/23 Q1012 NOSIG', 'VTSP 132230Z 08004KT 9999 FEW020 26/23 Q1011 NOSIG', 'VTSP 132200Z 07004KT 020V090 9999 FEW020 26/23 Q1011 NOSIG', 'VTSP 132130Z 06004KT 360V110 9999 FEW020 26/23 Q1011 NOSIG', 'VTSP 132100Z 07004KT 020V120 9999 FEW020 26/23 Q1011 NOSIG', 'VTSP 132030Z 06003KT 360V100 9999 FEW020 26/23 Q1012 NOSIG', 'VTSP 132000Z VRB02KT 9999 FEW020 26/23 Q1012 NOSIG', 'VTSP 131930Z VRB02KT 9999 FEW020 26/23 Q1012 NOSIG', 'VTSP 131900Z VRB02KT 9999 FEW020 26/22 Q1012 NOSIG', 'VTSP 131830Z VRB02KT 9999 FEW020 26/22 Q1013 NOSIG', 'VTSP 131800Z VRB02KT 9999 FEW020 26/22 Q1013 NOSIG', 'VTSP 131730Z VRB02KT 9999 FEW020 26/22 Q1013 NOSIG', 'VTSP 131700Z VRB02KT 9999 FEW020 27/22 Q1014 NOSIG', 'VTSP 131630Z 10006KT 9999 FEW020 28/22 Q1014 NOSIG', 'VTSP 131600Z 07003KT 020V110 9999 FEW020 27/22 Q1013 NOSIG', 'VTSP 131530Z 08003KT 040V110 9999 FEW020 28/22 Q1013 NOSIG', 'VTSP 131500Z 08005KT 030V120 9999 FEW020 29/22 Q1013 NOSIG', 'VTSP 131430Z VRB02KT 9999 FEW020 29/22 Q1013 NOSIG', 'VTSP 131400Z 10007KT 060V120 9999 FEW020 SCT060 30/21 Q1013 NOSIG', 'VTSP 131330Z VRB04KT 9999 FEW020 SCT060 31/21 Q1013 NOSIG', 'VTSP 131300Z VRB04KT 9999 FEW020 30/21 Q1012 NOSIG', 'VTSP 131230Z VRB02KT 9999 FEW020 SCT050 29/23 Q1012 NOSIG', 'VTSP 131200Z 32006KT 290V020 9999 FEW020 SCT050 29/23 Q1011 NOSIG', 'VTSP 131130Z VRB03KT 9999 FEW020 SCT050 30/24 Q1011 NOSIG', 'VTSP 131100Z 10007KT 080V140 9999 FEW020 33/22 Q1010 NOSIG', 'VTSP 131030Z 09008KT 050V130 9999 FEW020 33/22 Q1010 NOSIG', 'VTSP 131000Z 10008KT 050V140 9999 FEW020 33/21 Q1010 NOSIG', 'VTSP 130930Z 08005KT 020V150 9999 FEW020 34/22 Q1010 NOSIG', 'VTSP 130900Z 06006KT 350V130 9999 FEW020 33/22 Q1010 NOSIG', 'VTSP 130830Z 07005KT 350V160 9999 FEW020 33/22 Q1010 NOSIG', 'VTSP 130800Z VRB08KT 9999 FEW020 34/22 Q1010 NOSIG', 'VTSP 130730Z 08008KT 020V110 9999 FEW020 33/22 Q1010 NOSIG', 'VTSP 130700Z 08009KT 050V120 9999 FEW020 33/22 Q1011 NOSIG', 'VTSP 130630Z 09009KT 040V120 9999 FEW020 33/22 Q1012 NOSIG', 'VTSP 130600Z 09011KT 040V120 9999 FEW020 33/22 Q1012 NOSIG', 'VTSP 130530Z 09010KT 030V120 9999 FEW020 32/22 Q1013 NOSIG', 'VTSP 130500Z 08011KT 010V120 9999 FEW020 32/22 Q1013 NOSIG', 'VTSP 130430Z 08010KT 040V110 9999 FEW020 32/22 Q1014 NOSIG', 'VTSP 130400Z 07010KT 040V110 9999 FEW020 31/22 Q1014 NOSIG', 'VTSP 130330Z 09014KT 9999 FEW020 31/22 Q1014 NOSIG', 'VTSP 130300Z 08014KT 9999 FEW020 30/22 Q1014 NOSIG', 'VTSP 130230Z 09015KT 060V120 9999 FEW020 29/22 Q1014 NOSIG', 'VTSP 130200Z 09013KT 9999 FEW020 29/22 Q1014 NOSIG', 'VTSP 130130Z 08010KT 9999 FEW020 28/22 Q1014 NOSIG', 'VTSP 130100Z 08011KT 030V120 9999 FEW020 28/22 Q1013 NOSIG', 'VTSP 130030Z 07007KT 030V100 9999 FEW020 27/22 Q1013 NOSIG', 'VTSP 130000Z 08009KT 9999 FEW020 26/22 Q1013 NOSIG', 'VTSP 122330Z 07007KT 040V100 9999 FEW020 26/22 Q1013 NOSIG', 'VTSP 122300Z 09009KT 9999 FEW020 26/23 Q1012 NOSIG', 'VTSP 122230Z 10011KT 9999 FEW020 26/22 Q1012 NOSIG', 'VTSP 122200Z 10012KT 9999 FEW020 26/23 Q1012 NOSIG', 'VTSP 122130Z 09010KT 9999 FEW020 26/23 Q1012 NOSIG', 'VTSP 122100Z 08009KT 9999 FEW020 26/23 Q1012 NOSIG', 'VTSP 122030Z 07006KT 030V090 9999 FEW020 26/23 Q1013 NOSIG', 'VTSP 122000Z 06005KT 360V110 9999 FEW020 26/23 Q1013 NOSIG', 'VTSP 121930Z 06005KT 350V100 9999 FEW020 26/23 Q1014 NOSIG', 'VTSP 121900Z 07007KT 9999 FEW020 26/23 Q1014 NOSIG', 'VTSP 121830Z 08008KT 9999 FEW020 27/23 Q1014 NOSIG', 'VTSP 121800Z 08008KT 9999 FEW020 27/23 Q1014 NOSIG', 'VTSP 121730Z 07009KT 030V090 9999 FEW020 27/23 Q1015 NOSIG', 'VTSP 121700Z 08009KT 9999 FEW020 27/23 Q1015 NOSIG', 'VTSP 121630Z 07007KT 9999 FEW020 27/23 Q1015 NOSIG', 'VTSP 121600Z 08006KT 040V100 9999 FEW020 27/23 Q1015 NOSIG', 'VTSP 121530Z 06004KT 360V120 9999 FEW020 27/23 Q1015 NOSIG', 'VTSP 121500Z 06004KT 360V110 9999 FEW020 27/23 Q1015 NOSIG', 'VTSP 121430Z 07005KT 020V110 9999 FEW020 27/23 Q1015 NOSIG', 'VTSP 121400Z 06005KT 020V100 9999 FEW020 27/23 Q1015 NOSIG', 'VTSP 121330Z 07005KT 020V100 9999 FEW020 28/23 Q1014 NOSIG', 'VTSP 121300Z 06005KT 330V090 9999 FEW020 28/23 Q1014 NOSIG', 'VTSP 121230Z 06004KT 360V120 9999 FEW020 28/23 Q1013 NOSIG', 'VTSP 121200Z 06004KT 010V100 9999 FEW020 29/23 Q1013 NOSIG', 'VTSP 121130Z 06004KT 350V110 9999 FEW020 30/23 Q1013 NOSIG', 'VTSP 121100Z 08004KT 360V140 9999 FEW020 30/23 Q1012 NOSIG', 'VTSP 121030Z 32005KT 270V010 9999 FEW020 SCT045 30/23 Q1012 NOSIG', 'VTSP 121000Z 31008KT 9999 FEW020 SCT045 31/23 Q1012 NOSIG', 'VTSP 120930Z 31007KT 250V360 9999 FEW020 SCT050 32/23 Q1012 NOSIG']","['2024-02-15 08:30:00', '2024-02-15 08:00:00', '2024-02-15 07:30:00', '2024-02-15 07:00:00', '2024-02-15 06:30:00', '2024-02-15 06:00:00', '2024-02-15 05:30:00', '2024-02-15 05:00:00', '2024-02-15 04:30:00', '2024-02-15 04:00:00', '2024-02-15 03:30:00', '2024-02-15 03:00:00', '2024-02-15 02:30:00', '2024-02-15 02:00:00', '2024-02-15 01:30:00', '2024-02-15 01:00:00', '2024-02-15 00:30:00', '2024-02-15 00:00:00', '2024-02-14 23:30:00', '2024-02-14 23:00:00', '2024-02-14 22:30:00', '2024-02-14 22:00:00', '2024-02-14 21:30:00', '2024-02-14 21:00:00', '2024-02-14 20:30:00', '2024-02-14 20:00:00', '2024-02-14 19:30:00', '2024-02-14 19:00:00', '2024-02-14 18:30:00', '2024-02-14 18:00:00', '2024-02-14 17:30:00', '2024-02-14 17:00:00', '2024-02-14 16:30:00', '2024-02-14 16:00:00', '2024-02-14 15:30:00', '2024-02-14 15:00:00', '2024-02-14 14:30:00', '2024-02-14 14:00:00', '2024-02-14 13:30:00', '2024-02-14 13:00:00', '2024-02-14 12:30:00', '2024-02-14 12:00:00', '2024-02-14 11:30:00', '2024-02-14 11:00:00', '2024-02-14 10:30:00', '2024-02-14 10:00:00', '2024-02-14 09:30:00', '2024-02-14 09:00:00', '2024-02-14 08:30:00', '2024-02-14 08:00:00', '2024-02-14 07:30:00', '2024-02-14 07:00:00', '2024-02-14 06:30:00', '2024-02-14 06:00:00', '2024-02-14 05:30:00', '2024-02-14 05:00:00', '2024-02-14 04:30:00', '2024-02-14 04:00:00', '2024-02-14 03:30:00', '2024-02-14 03:00:00', '2024-02-14 02:30:00', '2024-02-14 02:00:00', '2024-02-14 01:30:00', '2024-02-14 01:00:00', '2024-02-14 00:30:00', '2024-02-14 00:00:00', '2024-02-13 23:30:00', '2024-02-13 23:00:00', '2024-02-13 22:30:00', '2024-02-13 22:00:00', '2024-02-13 21:30:00', '2024-02-13 21:00:00', '2024-02-13 20:30:00', '2024-02-13 20:00:00', '2024-02-13 19:30:00', '2024-02-13 19:00:00', '2024-02-13 18:30:00', '2024-02-13 18:00:00', '2024-02-13 17:30:00', '2024-02-13 17:00:00', '2024-02-13 16:30:00', '2024-02-13 16:00:00', '2024-02-13 15:30:00', '2024-02-13 15:00:00', '2024-02-13 14:30:00', '2024-02-13 14:00:00', '2024-02-13 13:30:00', '2024-02-13 13:00:00', '2024-02-13 12:30:00', '2024-02-13 12:00:00', '2024-02-13 11:30:00', '2024-02-13 11:00:00', '2024-02-13 10:30:00', '2024-02-13 10:00:00', '2024-02-13 09:30:00', '2024-02-13 09:00:00', '2024-02-13 08:30:00', '2024-02-13 08:00:00', '2024-02-13 07:30:00', '2024-02-13 07:00:00', '2024-02-13 06:30:00', '2024-02-13 06:00:00', '2024-02-13 05:30:00', '2024-02-13 05:00:00', '2024-02-13 04:30:00', '2024-02-13 04:00:00', '2024-02-13 03:30:00', '2024-02-13 03:00:00', '2024-02-13 02:30:00', '2024-02-13 02:00:00', '2024-02-13 01:30:00', '2024-02-13 01:00:00', '2024-02-13 00:30:00', '2024-02-13 00:00:00', '2024-02-12 23:30:00', '2024-02-12 23:00:00', '2024-02-12 22:30:00', '2024-02-12 22:00:00', '2024-02-12 21:30:00', '2024-02-12 21:00:00', '2024-02-12 20:30:00', '2024-02-12 20:00:00', '2024-02-12 19:30:00', '2024-02-12 19:00:00', '2024-02-12 18:30:00', '2024-02-12 18:00:00', '2024-02-12 17:30:00', '2024-02-12 17:00:00', '2024-02-12 16:30:00', '2024-02-12 16:00:00', '2024-02-12 15:30:00', '2024-02-12 15:00:00', '2024-02-12 14:30:00', '2024-02-12 14:00:00', '2024-02-12 13:30:00', '2024-02-12 13:00:00', '2024-02-12 12:30:00', '2024-02-12 12:00:00', '2024-02-12 11:30:00', '2024-02-12 11:00:00', '2024-02-12 10:30:00', '2024-02-12 10:00:00', '2024-02-12 09:30:00']"
Thailand, Ranong Airport (UNN/VTSR) ,"['VTSR 150800Z VRB06G18KT 9999 FEW025 32/23 Q1011 NOSIG', 'VTSR 150700Z VRB07KT 9999 FEW025 32/23 Q1012 NOSIG', 'VTSR 150600Z 12006KT 040V170 9999 -RA SCT020 32/23 Q1013 NOSIG', 'VTSR 150500Z 11007KT 030V170 9999 SCT025 32/23 Q1013 NOSIG', 'VTSR 150400Z 04008KT 360V110 9999 SCT025 32/23 Q1014 NOSIG', 'VTSR 150300Z 36006KT 310V050 9999 FEW025 31/23 Q1014 NOSIG', 'VTSR 150200Z VRB04KT 9999 FEW025 31/23 Q1014 NOSIG', 'VTSR 150100Z 10004KT 040V130 9999 FEW020 27/22 Q1013 NOSIG', 'VTSR 150000Z 13004KT 060V190 9999 FEW025 26/22 Q1013 NOSIG', 'VTSR 142300Z 09003KT 030V150 9000 FEW025 26/22 Q1012 NOSIG', 'VTSR 142200Z 08005KT 010V160 9000 FEW025 27/22 Q1012 NOSIG', 'VTSR 141100Z 07006KT 030V140 9000 BKN020 28/22 Q1011 NOSIG', 'VTSR 141000Z VRB06KT 8000 -RA BKN020 29/22 Q1011 NOSIG', 'VTSR 140900Z 06008KT 030V120 9000 BKN020 29/22 Q1010 NOSIG', 'VTSR 140800Z 08008KT 020V150 9000 BKN020 30/22 Q1011 NOSIG', 'VTSR 140700Z 05005KT 350V110 9000 -RA BKN020 31/22 Q1011 NOSIG', 'VTSR 140600Z 07004KT 350V140 9000 BKN020 31/22 Q1012 NOSIG', 'VTSR 140500Z 12008KT 010V170 8000 BKN025 31/22 Q1013 NOSIG', 'VTSR 140400Z 33007KT 290V050 8000 SCT025 31/22 Q1014 NOSIG', 'VTSR 140300Z 33005KT 290V360 8000 SCT025 BKN100 29/23 Q1015 NOSIG', 'VTSR 140200Z 34006KT 270V030 9000 SCT025 27/22 Q1014 NOSIG', 'VTSR 140100Z VRB03KT 9000 BKN025 26/22 Q1014 NOSIG', 'VTSR 140000Z VRB02KT 9000 BKN025 25/22 Q1013 NOSIG', 'VTSR 132300Z 24003KT 140V310 9999 FEW025 24/22 Q1012 NOSIG', 'VTSR 132200Z 00000KT 9000 FEW025 24/23 Q1011 NOSIG', 'VTSR 131100Z 09006KT 030V160 9999 FEW025 31/21 Q1012 NOSIG', 'VTSR 131000Z 11005KT 040V160 9999 FEW025 32/21 Q1011 NOSIG', 'VTSR 130900Z VRB05KT 9999 FEW025 33/21 Q1011 NOSIG', 'VTSR 130800Z 12008KT 040V210 9999 FEW025 33/21 Q1011 NOSIG', 'VTSR 130700Z 08006KT 010V170 9999 SCT025 33/21 Q1012 NOSIG', 'VTSR 130600Z VRB07KT 9999 SCT025 33/21 Q1013 NOSIG', 'VTSR 130500Z 12008KT 050V200 9999 SCT025 32/21 Q1014 NOSIG', 'VTSR 130400Z 07005KT 330V140 9999 SCT025 30/21 Q1015 NOSIG', 'VTSR 130300Z VRB06KT 9999 SCT025 29/21 Q1015 NOSIG', 'VTSR 130200Z 05007KT 320V120 9999 FEW025 30/21 Q1015 NOSIG', 'VTSR 130100Z VRB02KT 9999 FEW025 28/21 Q1014 NOSIG', 'VTSR 130000Z VRB05G17KT 9999 FEW025 27/20 Q1013 NOSIG', 'VTSR 122300Z VRB05KT 9999 FEW025 26/21 Q1013 NOSIG', 'VTSR 122200Z VRB06KT 9999 FEW025 27/21 Q1013 NOSIG', 'VTSR 121100Z VRB03KT 9999 BKN025 30/21 Q1013 NOSIG', 'VTSR 121000Z 10008KT 030V130 9999 BKN025 30/21 Q1013 NOSIG']","['2024-02-15 08:00:00', '2024-02-15 07:00:00', '2024-02-15 06:00:00', '2024-02-15 05:00:00', '2024-02-15 04:00:00', '2024-02-15 03:00:00', '2024-02-15 02:00:00', '2024-02-15 01:00:00', '2024-02-15 00:00:00', '2024-02-14 23:00:00', '2024-02-14 22:00:00', '2024-02-14 11:00:00', '2024-02-14 10:00:00', '2024-02-14 09:00:00', '2024-02-14 08:00:00', '2024-02-14 07:00:00', '2024-02-14 06:00:00', '2024-02-14 05:00:00', '2024-02-14 04:00:00', '2024-02-14 03:00:00', '2024-02-14 02:00:00', '2024-02-14 01:00:00', '2024-02-14 00:00:00', '2024-02-13 23:00:00', '2024-02-13 22:00:00', '2024-02-13 11:00:00', '2024-02-13 10:00:00', '2024-02-13 09:00:00', '2024-02-13 08:00:00', '2024-02-13 07:00:00', '2024-02-13 06:00:00', '2024-02-13 05:00:00', '2024-02-13 04:00:00', '2024-02-13 03:00:00', '2024-02-13 02:00:00', '2024-02-13 01:00:00', '2024-02-13 00:00:00', '2024-02-12 23:00:00', '2024-02-12 22:00:00', '2024-02-12 11:00:00', '2024-02-12 10:00:00']"
Thailand, Rayong Pattaya U-Tapao International Airport (UTP/VTBU) ,"['VTBU 150830Z 18010KT 160V220 7000 FEW020 32/25 Q1012 NOSIG', 'VTBU 150800Z 20010KT 170V230 7000 FEW020 32/26 Q1012 NOSIG', 'VTBU 150730Z 19011KT 7000 FEW020 33/24 Q1012 NOSIG', 'VTBU 150700Z 19012KT 7000 FEW020 34/24 Q1012 NOSIG', 'VTBU 150630Z 19010KT 6000 FEW020 34/24 Q1013 NOSIG', 'VTBU 150600Z 18009KT 150V220 6000 FEW020 33/24 Q1013 NOSIG', 'VTBU 150530Z 20008KT 170V230 6000 FEW020 33/24 Q1014 NOSIG', 'VTBU 150500Z 19008KT 150V220 6000 FEW020 33/24 Q1014 NOSIG', 'VTBU 150430Z 19008KT 150V220 6000 FEW020 32/23 Q1015 NOSIG', 'VTBU 150400Z 19007KT 150V230 6000 FEW020 33/24 Q1015 NOSIG', 'VTBU 150330Z 15006KT 120V180 6000 FEW020 32/24 Q1015 NOSIG', 'VTBU 150300Z VRB02KT 6000 FEW020 31/24 Q1016 NOSIG', 'VTBU 150230Z VRB02KT 5000 HZ FEW020 30/24 Q1016 NOSIG', 'VTBU 150200Z VRB02KT 5000 HZ FEW020 29/25 Q1015 NOSIG', 'VTBU 150130Z 35004KT 4000 BR FEW020 27/25 Q1015 NOSIG', 'VTBU 150100Z 02004KT 4000 BR FEW020 25/24 Q1015 NOSIG', 'VTBU 150030Z 35004KT 4000 BR FEW020 24/23 Q1014 NOSIG', 'VTBU 150000Z 35003KT 4000 BR FEW020 24/23 Q1014 NOSIG', 'VTBU 142330Z 02004KT 4000 BR FEW020 24/23 Q1014 NOSIG', 'VTBU 142300Z 01004KT 4000 BR NSC 23/22 Q1014 NOSIG', 'VTBU 142230Z 01004KT 4000 BR NSC 24/23 Q1013 NOSIG', 'VTBU 142200Z 35004KT 4000 BR NSC 24/23 Q1013 NOSIG', 'VTBU 142130Z 34004KT 4000 BR NSC 24/23 Q1013 NOSIG', 'VTBU 142100Z 02004KT 4000 BR NSC 24/23 Q1013 NOSIG', 'VTBU 142030Z 01004KT 4000 BR NSC 24/23 Q1013 NOSIG', 'VTBU 142000Z 35004KT 4000 BR NSC 24/23 Q1013 NOSIG', 'VTBU 141930Z 35004KT 4000 BR NSC 24/23 Q1013 NOSIG', 'VTBU 141900Z 35004KT 4000 BR NSC 24/23 Q1013 NOSIG', 'VTBU 141830Z 35004KT 4000 BR NSC 24/23 Q1013 NOSIG', 'VTBU 141800Z 02004KT 4000 BR NSC 24/23 Q1014 NOSIG', 'VTBU 141730Z 01004KT 4000 BR NSC 24/23 Q1014 NOSIG', 'VTBU 141700Z 01004KT 4000 BR NSC 24/23 Q1014 NOSIG', 'VTBU 141630Z 01004KT 4000 BR NSC 24/22 Q1014 NOSIG', 'VTBU 141600Z 35004KT 4000 BR NSC 24/23 Q1014 NOSIG', 'VTBU 141530Z 34004KT 4000 BR NSC 24/22 Q1014 NOSIG', 'VTBU 141500Z 26003KT 4000 BR NSC 24/22 Q1014 NOSIG', 'VTBU 141430Z 27004KT 4000 BR NSC 25/23 Q1014 NOSIG', 'VTBU 141400Z 27004KT 4000 BR NSC 25/22 Q1014 NOSIG', 'VTBU 141330Z 26004KT 4000 HZ NSC 27/23 Q1014 NOSIG', 'VTBU 141300Z 23004KT 4000 HZ NSC 27/23 Q1013 NOSIG', 'VTBU 141230Z 22004KT 4000 HZ NSC 28/23 Q1013 NOSIG', 'VTBU 141200Z 22005KT 4000 HZ NSC 28/23 Q1013 NOSIG', 'VTBU 141130Z 22007KT 4000 HZ NSC 29/23 Q1012 NOSIG', 'VTBU 141100Z 22007KT 5000 HZ NSC 29/23 Q1012 NOSIG', 'VTBU 141030Z 20008KT 5000 HZ FEW030 30/23 Q1012 NOSIG', 'VTBU 141000Z 19009KT 5000 HZ FEW030 30/23 Q1011 NOSIG', 'VTBU 140930Z 19008KT 5000 HZ FEW030 31/22 Q1011 NOSIG', 'VTBU 140900Z 19010KT 5000 HZ FEW030 32/23 Q1011 NOSIG', 'VTBU 140830Z 18011KT 5000 HZ FEW030 32/23 Q1012 NOSIG', 'VTBU 140800Z 20009KT 5000 HZ FEW030 32/23 Q1012 NOSIG', 'VTBU 140730Z 17010KT 5000 HZ FEW030 32/23 Q1012 NOSIG', 'VTBU 140700Z 17011KT 5000 HZ FEW030 33/23 Q1012 NOSIG', 'VTBU 140630Z 17012KT 5000 HZ FEW030 33/24 Q1013 NOSIG', 'VTBU 140600Z 16011KT 5000 HZ FEW030 33/24 Q1014 NOSIG', 'VTBU 140530Z 16010KT 5000 HZ FEW030 33/23 Q1014 NOSIG', 'VTBU 140500Z 16010KT 5000 HZ FEW030 33/23 Q1015 NOSIG', 'VTBU 140430Z 16009KT 5000 HZ FEW030 33/24 Q1015 NOSIG', 'VTBU 140400Z 17007KT 4000 HZ FEW030 33/23 Q1016 NOSIG', 'VTBU 140330Z 15005KT 4000 HZ FEW030 32/23 Q1016 NOSIG', 'VTBU 140300Z VRB02KT 4000 HZ NSC 32/23 Q1016 NOSIG', 'VTBU 140230Z VRB02KT 3000 HZ NSC 30/23 Q1016 NOSIG', 'VTBU 140200Z VRB02KT 3000 HZ NSC 29/23 Q1016 NOSIG', 'VTBU 140130Z VRB02KT 2000 BR NSC 26/23 Q1016 NOSIG', 'VTBU 140100Z 01003KT 2000 BR NSC 24/21 Q1015 NOSIG', 'VTBU 140030Z 36003KT 2000 BR NSC 23/21 Q1015 NOSIG', 'VTBU 140000Z 36003KT 2000 BR NSC 22/20 Q1015 NOSIG', 'VTBU 132330Z 35004KT 2000 BR NSC 22/20 Q1014 NOSIG', 'VTBU 132300Z 01004KT 3000 BR NSC 22/20 Q1014 NOSIG', 'VTBU 132230Z 01005KT 4000 BR NSC 22/20 Q1014 NOSIG', 'VTBU 132200Z 36004KT 4000 BR NSC 22/20 Q1013 NOSIG', 'VTBU 132130Z 36004KT 4000 BR NSC 22/20 Q1013 NOSIG', 'VTBU 132100Z 36006KT 4000 BR NSC 22/20 Q1013 NOSIG', 'VTBU 132030Z 36004KT 4000 BR NSC 22/20 Q1013 NOSIG', 'VTBU 132000Z 34003KT 4000 BR NSC 22/20 Q1013 NOSIG', 'VTBU 131930Z 36005KT 4000 BR NSC 22/20 Q1013 NOSIG', 'VTBU 131900Z 34003KT 4000 BR NSC 21/19 Q1014 NOSIG', 'VTBU 131830Z 36002KT 4000 BR NSC 22/20 Q1014 NOSIG', 'VTBU 131800Z 33002KT 4000 BR NSC 22/20 Q1014 NOSIG', 'VTBU 131730Z 28002KT 4000 BR NSC 22/20 Q1015 NOSIG', 'VTBU 131700Z 01004KT 4000 BR NSC 22/20 Q1015 NOSIG', 'VTBU 131630Z 01005KT 4000 BR NSC 22/20 Q1015 NOSIG', 'VTBU 131600Z 36003KT 4000 BR NSC 22/20 Q1015 NOSIG', 'VTBU 131530Z 36004KT 4000 BR NSC 22/19 Q1016 NOSIG', 'VTBU 131500Z 33003KT 4000 BR NSC 22/19 Q1016 NOSIG', 'VTBU 131430Z 03003KT 4000 BR NSC 22/19 Q1015 NOSIG', 'VTBU 131400Z 01003KT 4000 HZ NSC 23/19 Q1015 NOSIG', 'VTBU 131330Z 29002KT 5000 HZ NSC 23/18 Q1014 NOSIG', 'VTBU 131300Z 26003KT 5000 HZ NSC 23/19 Q1014 NOSIG', 'VTBU 131230Z 27004KT 5000 HZ NSC 24/18 Q1014 NOSIG', 'VTBU 131200Z 27004KT 5000 HZ NSC 26/18 Q1013 NOSIG', 'VTBU 131130Z 29004KT 5000 HZ NSC 29/18 Q1013 NOSIG', 'VTBU 131100Z 30004KT 6000 NSC 31/18 Q1012 NOSIG', 'VTBU 131030Z 31006KT 6000 NSC 32/17 Q1012 NOSIG', 'VTBU 131000Z 30006KT 7000 NSC 33/17 Q1012 NOSIG', 'VTBU 130930Z 25008KT 7000 NSC 33/19 Q1012 NOSIG', 'VTBU 130900Z 26008KT 7000 NSC 33/20 Q1012 NOSIG', 'VTBU 130830Z 26006KT 7000 NSC 33/19 Q1012 NOSIG', 'VTBU 130800Z 25006KT 7000 FEW025 34/19 Q1012 NOSIG', 'VTBU 130730Z 26008KT 7000 FEW025 34/19 Q1013 NOSIG', 'VTBU 130700Z 24006KT 7000 FEW025 34/19 Q1013 NOSIG', 'VTBU 130630Z 20008KT 7000 FEW025 33/19 Q1014 NOSIG', 'VTBU 130600Z 19008KT 7000 NSC 33/19 Q1014 NOSIG', 'VTBU 130530Z 19008KT 7000 NSC 33/18 Q1015 NOSIG', 'VTBU 130500Z 18006KT 7000 NSC 33/17 Q1015 NOSIG', 'VTBU 130430Z 15006KT 7000 NSC 34/16 Q1016 NOSIG', 'VTBU 130400Z 08006KT 7000 NSC 32/16 Q1016 NOSIG', 'VTBU 130330Z 06006KT 7000 NSC 32/16 Q1017 NOSIG', 'VTBU 130300Z 05008KT 6000 NSC 30/16 Q1017 NOSIG', 'VTBU 130230Z 05006KT 6000 NSC 30/16 Q1017 NOSIG', 'VTBU 130200Z 02006KT 5000 HZ NSC 27/18 Q1017 NOSIG', 'VTBU 130130Z 01006KT 4000 HZ NSC 25/18 Q1016 NOSIG', 'VTBU 130100Z 36006KT 4000 HZ NSC 23/18 Q1016 NOSIG', 'VTBU 130030Z 36006KT 4000 BR NSC 21/18 Q1016 NOSIG', 'VTBU 130000Z 36006KT 4000 BR NSC 20/18 Q1016 NOSIG', 'VTBU 122330Z 35004KT 4000 BR NSC 20/18 Q1015 NOSIG', 'VTBU 122300Z 35006KT 4000 BR NSC 20/17 Q1015 NOSIG', 'VTBU 122230Z 36006KT 4000 BR NSC 21/18 Q1015 NOSIG', 'VTBU 122200Z 36006KT 4000 BR NSC 20/18 Q1015 NOSIG', 'VTBU 122130Z 36005KT 4000 BR NSC 20/18 Q1015 NOSIG', 'VTBU 122100Z 36005KT 4000 BR NSC 20/18 Q1015 NOSIG', 'VTBU 122030Z 35005KT 4000 BR NSC 20/18 Q1015 NOSIG', 'VTBU 122000Z 34005KT 4000 BR NSC 21/18 Q1016 NOSIG', 'VTBU 121930Z 34005KT 4000 BR NSC 21/18 Q1016 NOSIG', 'VTBU 121900Z 34005KT 4000 BR NSC 21/19 Q1016 NOSIG', 'VTBU 121830Z 34005KT 4000 BR NSC 22/19 Q1016 NOSIG', 'VTBU 121800Z 34005KT 4000 BR NSC 22/20 Q1017 NOSIG', 'VTBU 121730Z 34005KT 4000 BR NSC 22/20 Q1017 NOSIG', 'VTBU 121700Z 36006KT 4000 BR NSC 22/20 Q1017 NOSIG', 'VTBU 121630Z 35005KT 4000 BR NSC 22/20 Q1017 NOSIG', 'VTBU 121600Z 36003KT 4000 BR NSC 22/21 Q1017 NOSIG', 'VTBU 121530Z 35004KT 4000 BR NSC 22/21 Q1017 NOSIG', 'VTBU 121500Z 01003KT 4000 BR NSC 22/20 Q1017 NOSIG', 'VTBU 121430Z 01003KT 4000 BR NSC 22/20 Q1017 NOSIG', 'VTBU 121400Z 02003KT 4000 BR NSC 24/20 Q1017 NOSIG', 'VTBU 121330Z 01004KT 4000 BR NSC 22/20 Q1016 NOSIG', 'VTBU 121300Z 36002KT 4000 BR NSC 24/20 Q1016 NOSIG', 'VTBU 121230Z 30002KT 4000 HZ NSC 25/20 Q1015 NOSIG', 'VTBU 121200Z 26004KT 4000 HZ NSC 26/20 Q1015 NOSIG', 'VTBU 121130Z 25003KT 4000 HZ NSC 28/20 Q1015 NOSIG', 'VTBU 121100Z 30006KT 4000 HZ NSC 29/19 Q1015 NOSIG', 'VTBU 121030Z 32008KT 4000 HZ NSC 30/20 Q1015 NOSIG', 'VTBU 121000Z 30009KT 5000 HZ NSC 31/19 Q1015 NOSIG', 'VTBU 120930Z 31011KT 5000 HZ FEW025 31/19 Q1015 NOSIG']","['2024-02-15 08:30:00', '2024-02-15 08:00:00', '2024-02-15 07:30:00', '2024-02-15 07:00:00', '2024-02-15 06:30:00', '2024-02-15 06:00:00', '2024-02-15 05:30:00', '2024-02-15 05:00:00', '2024-02-15 04:30:00', '2024-02-15 04:00:00', '2024-02-15 03:30:00', '2024-02-15 03:00:00', '2024-02-15 02:30:00', '2024-02-15 02:00:00', '2024-02-15 01:30:00', '2024-02-15 01:00:00', '2024-02-15 00:30:00', '2024-02-15 00:00:00', '2024-02-14 23:30:00', '2024-02-14 23:00:00', '2024-02-14 22:30:00', '2024-02-14 22:00:00', '2024-02-14 21:30:00', '2024-02-14 21:00:00', '2024-02-14 20:30:00', '2024-02-14 20:00:00', '2024-02-14 19:30:00', '2024-02-14 19:00:00', '2024-02-14 18:30:00', '2024-02-14 18:00:00', '2024-02-14 17:30:00', '2024-02-14 17:00:00', '2024-02-14 16:30:00', '2024-02-14 16:00:00', '2024-02-14 15:30:00', '2024-02-14 15:00:00', '2024-02-14 14:30:00', '2024-02-14 14:00:00', '2024-02-14 13:30:00', '2024-02-14 13:00:00', '2024-02-14 12:30:00', '2024-02-14 12:00:00', '2024-02-14 11:30:00', '2024-02-14 11:00:00', '2024-02-14 10:30:00', '2024-02-14 10:00:00', '2024-02-14 09:30:00', '2024-02-14 09:00:00', '2024-02-14 08:30:00', '2024-02-14 08:00:00', '2024-02-14 07:30:00', '2024-02-14 07:00:00', '2024-02-14 06:30:00', '2024-02-14 06:00:00', '2024-02-14 05:30:00', '2024-02-14 05:00:00', '2024-02-14 04:30:00', '2024-02-14 04:00:00', '2024-02-14 03:30:00', '2024-02-14 03:00:00', '2024-02-14 02:30:00', '2024-02-14 02:00:00', '2024-02-14 01:30:00', '2024-02-14 01:00:00', '2024-02-14 00:30:00', '2024-02-14 00:00:00', '2024-02-13 23:30:00', '2024-02-13 23:00:00', '2024-02-13 22:30:00', '2024-02-13 22:00:00', '2024-02-13 21:30:00', '2024-02-13 21:00:00', '2024-02-13 20:30:00', '2024-02-13 20:00:00', '2024-02-13 19:30:00', '2024-02-13 19:00:00', '2024-02-13 18:30:00', '2024-02-13 18:00:00', '2024-02-13 17:30:00', '2024-02-13 17:00:00', '2024-02-13 16:30:00', '2024-02-13 16:00:00', '2024-02-13 15:30:00', '2024-02-13 15:00:00', '2024-02-13 14:30:00', '2024-02-13 14:00:00', '2024-02-13 13:30:00', '2024-02-13 13:00:00', '2024-02-13 12:30:00', '2024-02-13 12:00:00', '2024-02-13 11:30:00', '2024-02-13 11:00:00', '2024-02-13 10:30:00', '2024-02-13 10:00:00', '2024-02-13 09:30:00', '2024-02-13 09:00:00', '2024-02-13 08:30:00', '2024-02-13 08:00:00', '2024-02-13 07:30:00', '2024-02-13 07:00:00', '2024-02-13 06:30:00', '2024-02-13 06:00:00', '2024-02-13 05:30:00', '2024-02-13 05:00:00', '2024-02-13 04:30:00', '2024-02-13 04:00:00', '2024-02-13 03:30:00', '2024-02-13 03:00:00', '2024-02-13 02:30:00', '2024-02-13 02:00:00', '2024-02-13 01:30:00', '2024-02-13 01:00:00', '2024-02-13 00:30:00', '2024-02-13 00:00:00', '2024-02-12 23:30:00', '2024-02-12 23:00:00', '2024-02-12 22:30:00', '2024-02-12 22:00:00', '2024-02-12 21:30:00', '2024-02-12 21:00:00', '2024-02-12 20:30:00', '2024-02-12 20:00:00', '2024-02-12 19:30:00', '2024-02-12 19:00:00', '2024-02-12 18:30:00', '2024-02-12 18:00:00', '2024-02-12 17:30:00', '2024-02-12 17:00:00', '2024-02-12 16:30:00', '2024-02-12 16:00:00', '2024-02-12 15:30:00', '2024-02-12 15:00:00', '2024-02-12 14:30:00', '2024-02-12 14:00:00', '2024-02-12 13:30:00', '2024-02-12 13:00:00', '2024-02-12 12:30:00', '2024-02-12 12:00:00', '2024-02-12 11:30:00', '2024-02-12 11:00:00', '2024-02-12 10:30:00', '2024-02-12 10:00:00', '2024-02-12 09:30:00']"
Thailand, Roi Et Airport (ROI/VTUV) ,"['VTUV 150800Z 06004KT 320V110 CAVOK 35/15 Q1012 NOSIG', 'VTUV 150700Z 03004KT 310V080 CAVOK 34/15 Q1013 NOSIG', 'VTUV 150600Z VRB03KT CAVOK 33/16 Q1014 NOSIG', 'VTUV 150500Z 15005KT 080V230 CAVOK 31/18 Q1015 NOSIG', 'VTUV 150400Z 11007KT 060V150 9000 NSC 29/18 Q1016 NOSIG', 'VTUV 150300Z 12006KT 080V160 9000 NSC 27/18 Q1017 NOSIG', 'VTUV 150200Z 11005KT 060V140 8000 NSC 25/18 Q1016 NOSIG', 'VTUV 150100Z 07003KT 040V100 7000 NSC 21/17 Q1016 NOSIG', 'VTUV 150000Z 11002KT 5000 BR NSC 17/17 Q1015 NOSIG', 'VTUV 142300Z 05003KT 8000 NSC 17/16 Q1014 NOSIG', 'VTUV 142200Z 03003KT 020V100 9000 NSC 17/15 Q1014 NOSIG', 'VTUV 141400Z 00000KT 9000 NSC 23/16 Q1014 NOSIG', 'VTUV 141300Z 00000KT 9000 NSC 25/15 Q1013 NOSIG', 'VTUV 141200Z 22003KT 9000 NSC 26/15 Q1013 NOSIG', 'VTUV 141100Z 25003KT 9000 NSC 31/16 Q1012 NOSIG', 'VTUV 141000Z 28003KT 260V320 CAVOK 32/13 Q1012 NOSIG', 'VTUV 140900Z 29004KT 250V350 CAVOK 33/15 Q1012 NOSIG', 'VTUV 140800Z 36006KT 320V130 CAVOK 32/13 Q1012 NOSIG', 'VTUV 140700Z VRB04KT CAVOK 32/14 Q1013 NOSIG', 'VTUV 140600Z VRB05KT CAVOK 31/15 Q1014 NOSIG', 'VTUV 140500Z 06008KT 020V110 CAVOK 30/15 Q1016 NOSIG', 'VTUV 140400Z 07007KT 020V120 9000 NSC 29/17 Q1017 NOSIG', 'VTUV 140300Z 07005KT 020V130 9000 NSC 25/17 Q1018 NOSIG', 'VTUV 140200Z 09006KT 050V140 9000 NSC 23/17 Q1018 NOSIG', 'VTUV 140100Z 10004KT 070V140 8000 NSC 20/17 Q1017 NOSIG', 'VTUV 140000Z 14003KT 6000 NSC 16/16 Q1016 NOSIG', 'VTUV 132300Z 13001KT 9000 NSC 17/16 Q1015 NOSIG', 'VTUV 132200Z 09003KT 070V130 9000 NSC 18/16 Q1015 NOSIG', 'VTUV 131400Z 12002KT 9000 NSC 22/19 Q1016 NOSIG', 'VTUV 131300Z 33004KT 290V060 9000 NSC 25/19 Q1015 NOSIG', 'VTUV 131200Z 30003KT CAVOK 25/19 Q1014 NOSIG', 'VTUV 131100Z 32003KT 300V020 CAVOK 30/18 Q1014 NOSIG', 'VTUV 131000Z 31004KT CAVOK 31/17 Q1014 NOSIG', 'VTUV 130900Z 29005KT 250V320 CAVOK 31/16 Q1014 NOSIG', 'VTUV 130800Z VRB04KT CAVOK 31/16 Q1014 NOSIG', 'VTUV 130700Z VRB03KT CAVOK 31/16 Q1015 NOSIG', 'VTUV 130600Z VRB03KT CAVOK 30/16 Q1016 NOSIG', 'VTUV 130500Z 12005KT 040V180 CAVOK 28/16 Q1018 NOSIG', 'VTUV 130400Z 06005KT 350V160 CAVOK 26/16 Q1019 NOSIG', 'VTUV 130300Z 08007KT 050V120 CAVOK 24/16 Q1019 NOSIG', 'VTUV 130200Z 05008KT CAVOK 22/15 Q1019 NOSIG', 'VTUV 130100Z 03005KT 9000 NSC 19/15 Q1019 NOSIG', 'VTUV 130000Z 04003KT 9000 NSC 16/15 Q1018 NOSIG', 'VTUV 122300Z 08003KT 9000 NSC 17/15 Q1018 NOSIG', 'VTUV 122200Z 05004KT 9000 NSC 17/15 Q1018 NOSIG', 'VTUV 121400Z 07004KT 9000 NSC 23/15 Q1018 NOSIG', 'VTUV 121300Z 08003KT 9000 NSC 24/15 Q1018 NOSIG', 'VTUV 121200Z 07003KT 9000 NSC 25/14 Q1017 NOSIG', 'VTUV 121100Z 09003KT 9000 NSC 28/14 Q1017 NOSIG', 'VTUV 121000Z 06005KT 350V090 CAVOK 30/14 Q1016 NOSIG']","['2024-02-15 08:00:00', '2024-02-15 07:00:00', '2024-02-15 06:00:00', '2024-02-15 05:00:00', '2024-02-15 04:00:00', '2024-02-15 03:00:00', '2024-02-15 02:00:00', '2024-02-15 01:00:00', '2024-02-15 00:00:00', '2024-02-14 23:00:00', '2024-02-14 22:00:00', '2024-02-14 14:00:00', '2024-02-14 13:00:00', '2024-02-14 12:00:00', '2024-02-14 11:00:00', '2024-02-14 10:00:00', '2024-02-14 09:00:00', '2024-02-14 08:00:00', '2024-02-14 07:00:00', '2024-02-14 06:00:00', '2024-02-14 05:00:00', '2024-02-14 04:00:00', '2024-02-14 03:00:00', '2024-02-14 02:00:00', '2024-02-14 01:00:00', '2024-02-14 00:00:00', '2024-02-13 23:00:00', '2024-02-13 22:00:00', '2024-02-13 14:00:00', '2024-02-13 13:00:00', '2024-02-13 12:00:00', '2024-02-13 11:00:00', '2024-02-13 10:00:00', '2024-02-13 09:00:00', '2024-02-13 08:00:00', '2024-02-13 07:00:00', '2024-02-13 06:00:00', '2024-02-13 05:00:00', '2024-02-13 04:00:00', '2024-02-13 03:00:00', '2024-02-13 02:00:00', '2024-02-13 01:00:00', '2024-02-13 00:00:00', '2024-02-12 23:00:00', '2024-02-12 22:00:00', '2024-02-12 14:00:00', '2024-02-12 13:00:00', '2024-02-12 12:00:00', '2024-02-12 11:00:00', '2024-02-12 10:00:00']"
Thailand, Sakon Nakhon Airport (SNO/VTUI) ,"['VTUI 150800Z VRB05KT CAVOK 39/12 Q1012 NOSIG', 'VTUI 150700Z 13003KT 070V190 CAVOK 37/14 Q1013 NOSIG', 'VTUI 150600Z VRB01KT CAVOK 35/15 Q1015 NOSIG', 'VTUI 150500Z 08004KT 050V120 CAVOK 32/16 Q1016 NOSIG', 'VTUI 150400Z 09003KT 060V140 8000 NSC 31/17 Q1017 NOSIG', 'VTUI 150300Z VRB03KT 8000 NSC 29/18 Q1017 NOSIG', 'VTUI 150200Z VRB05KT 8000 NSC 26/18 Q1017 NOSIG', 'VTUI 150100Z 00000KT 8000 NSC 23/18 Q1016 NOSIG', 'VTUI 150000Z 00000KT 8000 NSC 17/15 Q1016 NOSIG', 'VTUI 142300Z 00000KT 9000 NSC 17/15 Q1015 NOSIG', 'VTUI 142200Z 00000KT 9000 NSC 16/15 Q1014 NOSIG', 'VTUI 141500Z 00000KT CAVOK 21/15 Q1014 NOSIG', 'VTUI 141400Z 00000KT CAVOK 20/16 Q1014 NOSIG', 'VTUI 141300Z 00000KT CAVOK 21/16 Q1013 NOSIG', 'VTUI 141200Z 00000KT CAVOK 23/15 Q1013 NOSIG', 'VTUI 141100Z 00000KT CAVOK 29/14 Q1012 NOSIG', 'VTUI 141000Z 00000KT CAVOK 37/12 Q1012 NOSIG', 'VTUI 140900Z VRB01KT CAVOK 39/09 Q1012 NOSIG', 'VTUI 140800Z VRB01KT CAVOK 38/09 Q1012 NOSIG', 'VTUI 140700Z VRB01KT CAVOK 36/12 Q1013 NOSIG', 'VTUI 140600Z 08004KT 350V120 CAVOK 32/15 Q1015 NOSIG', 'VTUI 140500Z 11004KT 050V160 CAVOK 31/17 Q1016 NOSIG', 'VTUI 140400Z 10005KT 060V150 CAVOK 28/17 Q1018 NOSIG', 'VTUI 140300Z 10006KT 070V130 CAVOK 26/16 Q1018 NOSIG', 'VTUI 140200Z 11007KT 080V140 CAVOK 24/16 Q1018 NOSIG', 'VTUI 140100Z 14003KT 100V180 CAVOK 23/16 Q1017 NOSIG', 'VTUI 140000Z 00000KT 8000 NSC 16/14 Q1017 NOSIG', 'VTUI 132300Z 00000KT CAVOK 16/14 Q1016 NOSIG', 'VTUI 132200Z 19002KT CAVOK 17/15 Q1015 NOSIG', 'VTUI 131500Z 00000KT CAVOK 20/16 Q1017 NOSIG', 'VTUI 131400Z 00000KT CAVOK 21/17 Q1016 NOSIG', 'VTUI 131300Z 00000KT CAVOK 22/15 Q1015 NOSIG', 'VTUI 131200Z 00000KT CAVOK 23/16 Q1015 NOSIG', 'VTUI 131100Z 00000KT CAVOK 29/14 Q1014 NOSIG', 'VTUI 131000Z 13003KT 090V160 CAVOK 34/12 Q1014 NOSIG', 'VTUI 130900Z 14004KT 090V170 CAVOK 37/12 Q1014 NOSIG', 'VTUI 130800Z VRB01KT CAVOK 36/11 Q1015 NOSIG', 'VTUI 130700Z 10005KT 020V150 CAVOK 34/12 Q1016 NOSIG', 'VTUI 130600Z 13003KT 070V170 CAVOK 31/14 Q1017 NOSIG', 'VTUI 130500Z VRB03KT CAVOK 29/15 Q1018 NOSIG', 'VTUI 130400Z 08005KT 040V120 CAVOK 28/15 Q1020 NOSIG', 'VTUI 130300Z 11006KT 9000 NSC 25/15 Q1020 NOSIG', 'VTUI 130200Z 11006KT 080V160 9000 NSC 23/15 Q1020 NOSIG', 'VTUI 130100Z 00000KT 9000 NSC 22/15 Q1020 NOSIG', 'VTUI 130000Z 00000KT 9000 NSC 16/14 Q1019 NOSIG', 'VTUI 122300Z 00000KT 9000 NSC 16/14 Q1018 NOSIG', 'VTUI 122200Z 18002KT 9000 NSC 16/14 Q1018 NOSIG', 'VTUI 121500Z 12007KT CAVOK 22/15 Q1020 NOSIG', 'VTUI 121400Z 11007KT 080V140 CAVOK 24/16 Q1019 NOSIG', 'VTUI 121300Z 11004KT CAVOK 25/15 Q1018 NOSIG', 'VTUI 121200Z 00000KT CAVOK 25/13 Q1017 NOSIG', 'VTUI 121100Z 12003KT CAVOK 27/13 Q1017 NOSIG', 'VTUI 121000Z 11003KT 090V150 9000 NSC 31/12 Q1017 NOSIG']","['2024-02-15 08:00:00', '2024-02-15 07:00:00', '2024-02-15 06:00:00', '2024-02-15 05:00:00', '2024-02-15 04:00:00', '2024-02-15 03:00:00', '2024-02-15 02:00:00', '2024-02-15 01:00:00', '2024-02-15 00:00:00', '2024-02-14 23:00:00', '2024-02-14 22:00:00', '2024-02-14 15:00:00', '2024-02-14 14:00:00', '2024-02-14 13:00:00', '2024-02-14 12:00:00', '2024-02-14 11:00:00', '2024-02-14 10:00:00', '2024-02-14 09:00:00', '2024-02-14 08:00:00', '2024-02-14 07:00:00', '2024-02-14 06:00:00', '2024-02-14 05:00:00', '2024-02-14 04:00:00', '2024-02-14 03:00:00', '2024-02-14 02:00:00', '2024-02-14 01:00:00', '2024-02-14 00:00:00', '2024-02-13 23:00:00', '2024-02-13 22:00:00', '2024-02-13 15:00:00', '2024-02-13 14:00:00', '2024-02-13 13:00:00', '2024-02-13 12:00:00', '2024-02-13 11:00:00', '2024-02-13 10:00:00', '2024-02-13 09:00:00', '2024-02-13 08:00:00', '2024-02-13 07:00:00', '2024-02-13 06:00:00', '2024-02-13 05:00:00', '2024-02-13 04:00:00', '2024-02-13 03:00:00', '2024-02-13 02:00:00', '2024-02-13 01:00:00', '2024-02-13 00:00:00', '2024-02-12 23:00:00', '2024-02-12 22:00:00', '2024-02-12 15:00:00', '2024-02-12 14:00:00', '2024-02-12 13:00:00', '2024-02-12 12:00:00', '2024-02-12 11:00:00', '2024-02-12 10:00:00']"
Thailand, Sukhothai Airport (THS/VTPO) ,"['VTPO 150800Z 28004KT 6000 NSC 34/18 Q1011 NOSIG', 'VTPO 150700Z 29004KT 6000 NSC 34/19 Q1012 NOSIG', 'VTPO 150600Z 26004KT 6000 NSC 32/20 Q1014 NOSIG', 'VTPO 150500Z 33002KT 6000 NSC 31/21 Q1015 NOSIG', 'VTPO 150400Z 02002KT 6000 NSC 28/20 Q1016 NOSIG', 'VTPO 150300Z 36003KT 6000 NSC 26/20 Q1016 NOSIG', 'VTPO 150200Z 02002KT 5000 BR NSC 23/20 Q1016 NOSIG', 'VTPO 150100Z 36002KT 4000 BR NSC 21/20 Q1015 NOSIG', 'VTPO 150000Z 00000KT 4000 BR NSC 20/20 Q1014 NOSIG', 'VTPO 142300Z 00000KT 6000 NSC 20/19 Q1013 NOSIG', 'VTPO 142200Z 00000KT 6000 NSC 20/19 Q1013 NOSIG', 'VTPO 141100Z 14001KT 8000 NSC 33/20 Q1011 NOSIG', 'VTPO 141000Z 14002KT 8000 NSC 34/19 Q1011 NOSIG', 'VTPO 140900Z 27001KT 7000 NSC 34/18 Q1011 NOSIG', 'VTPO 140800Z 21004KT 6000 NSC 33/20 Q1011 NOSIG', 'VTPO 140700Z 20003KT 6000 NSC 33/20 Q1013 NOSIG', 'VTPO 140600Z 22006KT 6000 NSC 32/19 Q1014 NOSIG', 'VTPO 140500Z 24002KT 5000 HZ NSC 30/20 Q1015 NOSIG', 'VTPO 140400Z 29003KT 5000 HZ NSC 28/21 Q1016 NOSIG', 'VTPO 140300Z 02001KT 5000 HZ NSC 25/21 Q1017 NOSIG', 'VTPO 140200Z 35002KT 5000 BR NSC 23/20 Q1016 NOSIG', 'VTPO 140100Z 00000KT 4000 BR NSC 21/20 Q1016 NOSIG', 'VTPO 140000Z 00000KT 4000 BR NSC 20/20 Q1015 NOSIG', 'VTPO 132300Z 35001KT 6000 NSC 20/20 Q1014 NOSIG', 'VTPO 132200Z 00000KT 6000 NSC 21/20 Q1014 NOSIG', 'VTPO 131100Z 21003KT 9000 NSC 31/20 Q1013 NOSIG', 'VTPO 131000Z 19003KT 9000 NSC 32/20 Q1012 NOSIG', 'VTPO 130900Z 23004KT 9000 NSC 32/20 Q1012 NOSIG', 'VTPO 130800Z 29003KT 8000 NSC 31/19 Q1013 NOSIG', 'VTPO 130700Z 28002KT 8000 NSC 31/18 Q1014 NOSIG', 'VTPO 130600Z 28003KT 8000 NSC 30/20 Q1016 NOSIG', 'VTPO 130500Z 29004KT 7000 NSC 30/19 Q1017 NOSIG', 'VTPO 130400Z 29004KT 7000 NSC 27/19 Q1018 NOSIG', 'VTPO 130300Z 36002KT 7000 NSC 25/20 Q1019 NOSIG', 'VTPO 130200Z 35003KT 6000 NSC 23/20 Q1019 NOSIG', 'VTPO 130100Z 34002KT 5000 BR NSC 21/20 Q1018 NOSIG', 'VTPO 130000Z 00000KT 5000 BR NSC 21/20 Q1017 NOSIG', 'VTPO 122300Z 00000KT 7000 NSC 21/20 Q1016 NOSIG', 'VTPO 122200Z 34001KT 7000 NSC 21/20 Q1016 NOSIG', 'VTPO 121100Z VRB02KT 9000 NSC 30/20 Q1015 NOSIG', 'VTPO 121000Z 23003KT 9000 NSC 31/19 Q1015 NOSIG']","['2024-02-15 08:00:00', '2024-02-15 07:00:00', '2024-02-15 06:00:00', '2024-02-15 05:00:00', '2024-02-15 04:00:00', '2024-02-15 03:00:00', '2024-02-15 02:00:00', '2024-02-15 01:00:00', '2024-02-15 00:00:00', '2024-02-14 23:00:00', '2024-02-14 22:00:00', '2024-02-14 11:00:00', '2024-02-14 10:00:00', '2024-02-14 09:00:00', '2024-02-14 08:00:00', '2024-02-14 07:00:00', '2024-02-14 06:00:00', '2024-02-14 05:00:00', '2024-02-14 04:00:00', '2024-02-14 03:00:00', '2024-02-14 02:00:00', '2024-02-14 01:00:00', '2024-02-14 00:00:00', '2024-02-13 23:00:00', '2024-02-13 22:00:00', '2024-02-13 11:00:00', '2024-02-13 10:00:00', '2024-02-13 09:00:00', '2024-02-13 08:00:00', '2024-02-13 07:00:00', '2024-02-13 06:00:00', '2024-02-13 05:00:00', '2024-02-13 04:00:00', '2024-02-13 03:00:00', '2024-02-13 02:00:00', '2024-02-13 01:00:00', '2024-02-13 00:00:00', '2024-02-12 23:00:00', '2024-02-12 22:00:00', '2024-02-12 11:00:00', '2024-02-12 10:00:00']"
Thailand, Surat Thani Airport (URT/VTSB) ,"['VTSB 150800Z 03010KT 360V060 9999 FEW020 33/22 Q1010 NOSIG', 'VTSB 150700Z 03009KT 9999 FEW020 33/23 Q1011 NOSIG', 'VTSB 150600Z 03009KT 9999 FEW020 32/23 Q1012 NOSIG', 'VTSB 150500Z 05007KT 020V080 9999 FEW020 33/23 Q1013 NOSIG', 'VTSB 150400Z 07006KT 040V110 9999 FEW020 32/23 Q1013 NOSIG', 'VTSB 150300Z VRB04KT 9999 FEW020 32/24 Q1014 NOSIG', 'VTSB 150200Z 05004KT 010V080 9999 FEW020 29/25 Q1014 NOSIG', 'VTSB 150100Z VRB01KT 9000 FEW020 26/25 Q1013 NOSIG', 'VTSB 150000Z VRB01KT 8000 FEW020 24/23 Q1012 NOSIG', 'VTSB 142300Z 26002KT 8000 FEW020 24/23 Q1012 NOSIG', 'VTSB 142200Z VRB01KT 8000 FEW020 24/23 Q1012 NOSIG', 'VTSB 141500Z 01006KT 9999 FEW020 26/24 Q1013 NOSIG', 'VTSB 141400Z 01005KT 9999 FEW020 27/24 Q1013 NOSIG', 'VTSB 141300Z 02004KT 340V040 9999 FEW020 27/23 Q1012 NOSIG', 'VTSB 141200Z 05004KT 9999 FEW020 28/23 Q1011 NOSIG', 'VTSB 141100Z 07008KT 9999 FEW020 30/22 Q1011 NOSIG', 'VTSB 141000Z 06011KT 9999 FEW020 32/22 Q1010 NOSIG', 'VTSB 140900Z 03006KT 9999 FEW020 31/24 Q1010 NOSIG', 'VTSB 140800Z 04004KT 350V060 9999 FEW020 SCT100 30/25 Q1010 NOSIG', 'VTSB 140700Z 02005KT 350V050 9999 -RA SCT020 BKN100 28/26 Q1011 NOSIG', 'VTSB 140600Z 01005KT 350V060 9999 FEW020 BKN100 28/25 Q1012 NOSIG', 'VTSB 140500Z 07009KT 9999 -RA SCT020 BKN100 30/23 Q1013 NOSIG', 'VTSB 140400Z 05005KT 9000 FEW020 BKN080 28/24 Q1014 NOSIG', 'VTSB 140300Z 04005KT 010V080 8000 SCT020 BKN080 28/25 Q1014 NOSIG', 'VTSB 140200Z 36004KT 6000 -RA SCT020 BKN080 26/25 Q1014 NOSIG', 'VTSB 140100Z VRB02KT 6000 FEW020 BKN080 25/24 Q1013 NOSIG', 'VTSB 140000Z VRB01KT 6000 FEW020 24/24 Q1012 NOSIG', 'VTSB 132300Z 00000KT 7000 FEW020 24/24 Q1012 NOSIG', 'VTSB 132200Z VRB02KT 7000 FEW020 25/24 Q1012 NOSIG', 'VTSB 131500Z 04003KT 9999 FEW020 26/23 Q1014 NOSIG', 'VTSB 131400Z VRB02KT 9999 FEW020 27/24 Q1014 NOSIG', 'VTSB 131300Z 04004KT 9999 FEW020 28/24 Q1013 NOSIG', 'VTSB 131200Z 03006KT 9999 FEW020 28/23 Q1012 NOSIG', 'VTSB 131100Z 02010KT 9999 FEW020 30/23 Q1011 NOSIG', 'VTSB 131000Z 03011KT 9999 FEW020 31/22 Q1011 NOSIG', 'VTSB 130900Z 03010G21KT 9999 FEW020 31/22 Q1011 NOSIG', 'VTSB 130800Z 03010KT 9999 FEW020 32/21 Q1011 NOSIG', 'VTSB 130700Z 03008KT 9999 FEW020 32/22 Q1012 NOSIG', 'VTSB 130600Z 03009KT 9999 FEW020 32/22 Q1013 NOSIG', 'VTSB 130500Z 03008KT 9999 FEW020 30/22 Q1014 NOSIG', 'VTSB 130400Z 06006KT 030V110 9999 SCT020 31/22 Q1015 NOSIG', 'VTSB 130300Z 05007KT 020V090 9999 SCT020 29/23 Q1015 NOSIG', 'VTSB 130200Z 02004KT 320V070 8000 FEW020 27/24 Q1015 NOSIG', 'VTSB 130100Z 32003KT 6000 FEW020 24/23 Q1015 NOSIG', 'VTSB 130000Z VRB02KT 6000 FEW020 22/22 Q1014 NOSIG', 'VTSB 122300Z VRB01KT 6000 FEW020 22/22 Q1014 NOSIG', 'VTSB 122200Z 35001KT 6000 FEW020 22/22 Q1013 NOSIG', 'VTSB 121500Z 32003KT 9999 FEW020 24/24 Q1016 NOSIG', 'VTSB 121400Z 32004KT 9999 FEW020 25/24 Q1016 NOSIG', 'VTSB 121300Z 02004KT 9999 FEW020 26/24 Q1015 NOSIG', 'VTSB 121200Z 02004KT 340V050 9999 FEW020 SCT100 26/24 Q1014 NOSIG', 'VTSB 121100Z 04007KT 9999 -RA SCT020 BKN100 27/24 Q1014 NOSIG', 'VTSB 121000Z 05007KT 9999 FEW020 BKN100 28/23 Q1013 NOSIG']","['2024-02-15 08:00:00', '2024-02-15 07:00:00', '2024-02-15 06:00:00', '2024-02-15 05:00:00', '2024-02-15 04:00:00', '2024-02-15 03:00:00', '2024-02-15 02:00:00', '2024-02-15 01:00:00', '2024-02-15 00:00:00', '2024-02-14 23:00:00', '2024-02-14 22:00:00', '2024-02-14 15:00:00', '2024-02-14 14:00:00', '2024-02-14 13:00:00', '2024-02-14 12:00:00', '2024-02-14 11:00:00', '2024-02-14 10:00:00', '2024-02-14 09:00:00', '2024-02-14 08:00:00', '2024-02-14 07:00:00', '2024-02-14 06:00:00', '2024-02-14 05:00:00', '2024-02-14 04:00:00', '2024-02-14 03:00:00', '2024-02-14 02:00:00', '2024-02-14 01:00:00', '2024-02-14 00:00:00', '2024-02-13 23:00:00', '2024-02-13 22:00:00', '2024-02-13 15:00:00', '2024-02-13 14:00:00', '2024-02-13 13:00:00', '2024-02-13 12:00:00', '2024-02-13 11:00:00', '2024-02-13 10:00:00', '2024-02-13 09:00:00', '2024-02-13 08:00:00', '2024-02-13 07:00:00', '2024-02-13 06:00:00', '2024-02-13 05:00:00', '2024-02-13 04:00:00', '2024-02-13 03:00:00', '2024-02-13 02:00:00', '2024-02-13 01:00:00', '2024-02-13 00:00:00', '2024-02-12 23:00:00', '2024-02-12 22:00:00', '2024-02-12 15:00:00', '2024-02-12 14:00:00', '2024-02-12 13:00:00', '2024-02-12 12:00:00', '2024-02-12 11:00:00', '2024-02-12 10:00:00']"
Thailand, Trang Airport (TST/VTST) ,"['VTST 150800Z 06011G24KT 020V080 9999 FEW030 33/16 Q1010 NOSIG', 'VTST 150700Z 06014G28KT 9999 FEW030 33/16 Q1011 NOSIG', 'VTST 150600Z 06013G26KT 9999 FEW030 33/15 Q1012 NOSIG', 'VTST 150500Z 05013KT 010V080 9999 FEW030 33/18 Q1012 NOSIG', 'VTST 150400Z 06010G25KT 010V080 9999 FEW030 33/19 Q1013 NOSIG', 'VTST 150300Z 06014KT 9999 FEW030 32/20 Q1013 NOSIG', 'VTST 150200Z 05007KT 010V080 9999 FEW030 30/22 Q1012 NOSIG', 'VTST 150100Z 04007KT 010V090 9999 FEW030 28/23 Q1012 NOSIG', 'VTST 150000Z 04004KT 360V100 9999 FEW030 27/23 Q1011 NOSIG', 'VTST 142300Z 04004KT 010V070 9000 FEW030 27/22 Q1011 NOSIG', 'VTST 142200Z VRB02KT 9000 FEW030 27/23 Q1010 NOSIG', 'VTST 141300Z 05007KT 9999 FEW030 28/24 Q1011 NOSIG', 'VTST 141200Z 05004KT 360V110 9999 FEW030 28/24 Q1011 NOSIG', 'VTST 141100Z 06009KT 360V080 9999 FEW030 30/23 Q1010 NOSIG', 'VTST 141000Z 05008KT 010V080 9999 SCT030 30/23 Q1009 NOSIG', 'VTST 140900Z 06010G20KT 360V090 9999 VCSH SCT030 31/22 Q1009 NOSIG', 'VTST 140800Z 06008KT 9999 VCSH SCT030 31/22 Q1009 NOSIG', 'VTST 140700Z 05009KT 360V080 9999 SCT030 32/21 Q1010 NOSIG', 'VTST 140600Z 06011KT 9999 SCT030 33/20 Q1011 NOSIG', 'VTST 140500Z 05005KT 360V100 9999 SCT030 31/22 Q1012 NOSIG', 'VTST 140400Z 07006KT 040V120 9999 SCT030 30/23 Q1013 NOSIG', 'VTST 140300Z 05005KT 030V100 9999 SCT030 29/24 Q1013 NOSIG', 'VTST 140200Z 05004KT 010V110 9999 SCT030 29/24 Q1013 NOSIG', 'VTST 140100Z VRB02KT 9999 -RA SCT030 28/23 Q1012 NOSIG', 'VTST 140000Z 05003KT 340V100 9999 SCT030 27/23 Q1012 NOSIG', 'VTST 132300Z 03005KT 330V060 9000 FEW030 27/23 Q1011 NOSIG', 'VTST 132200Z 03004KT 330V080 9000 FEW030 26/24 Q1011 NOSIG', 'VTST 131300Z 04004KT 9999 FEW030 28/22 Q1012 NOSIG', 'VTST 131200Z 05006KT 020V080 9999 FEW030 29/19 Q1011 NOSIG', 'VTST 131100Z 06012KT 9999 FEW030 30/18 Q1011 NOSIG', 'VTST 131000Z 06010KT 9999 FEW030 31/17 Q1010 NOSIG', 'VTST 130900Z 06012KT 360V090 9999 FEW030 32/16 Q1010 NOSIG', 'VTST 130800Z 05009KT 020V080 9999 FEW030 33/16 Q1010 NOSIG', 'VTST 130700Z 04009KT 360V080 9999 FEW030 32/17 Q1011 NOSIG', 'VTST 130600Z 06013G24KT 030V100 9999 SCT030 33/15 Q1012 NOSIG', 'VTST 130500Z 06015G26KT 9999 FEW030 32/15 Q1013 NOSIG', 'VTST 130400Z 06012G24KT 030V090 9999 FEW030 32/18 Q1014 NOSIG', 'VTST 130300Z 06011G24KT 010V090 9999 FEW030 31/18 Q1014 NOSIG', 'VTST 130200Z 08009KT 020V130 9999 FEW030 30/18 Q1013 NOSIG', 'VTST 130100Z 07008KT 050V110 9999 FEW030 28/21 Q1013 NOSIG', 'VTST 130000Z 06007KT 020V080 8000 FEW030 27/20 Q1012 NOSIG', 'VTST 122300Z 05003KT 360V080 8000 FEW030 26/21 Q1012 NOSIG', 'VTST 122200Z 05005KT 330V080 9999 FEW030 27/21 Q1012 NOSIG', 'VTST 121300Z 06006KT 9999 FEW030 28/20 Q1014 NOSIG', 'VTST 121200Z 05006KT 9999 FEW030 28/19 Q1013 NOSIG', 'VTST 121100Z 05007G17KT 010V090 9000 FEW030 29/18 Q1013 NOSIG', 'VTST 121000Z 06010KT 9000 FEW030 31/18 Q1012 NOSIG']","['2024-02-15 08:00:00', '2024-02-15 07:00:00', '2024-02-15 06:00:00', '2024-02-15 05:00:00', '2024-02-15 04:00:00', '2024-02-15 03:00:00', '2024-02-15 02:00:00', '2024-02-15 01:00:00', '2024-02-15 00:00:00', '2024-02-14 23:00:00', '2024-02-14 22:00:00', '2024-02-14 13:00:00', '2024-02-14 12:00:00', '2024-02-14 11:00:00', '2024-02-14 10:00:00', '2024-02-14 09:00:00', '2024-02-14 08:00:00', '2024-02-14 07:00:00', '2024-02-14 06:00:00', '2024-02-14 05:00:00', '2024-02-14 04:00:00', '2024-02-14 03:00:00', '2024-02-14 02:00:00', '2024-02-14 01:00:00', '2024-02-14 00:00:00', '2024-02-13 23:00:00', '2024-02-13 22:00:00', '2024-02-13 13:00:00', '2024-02-13 12:00:00', '2024-02-13 11:00:00', '2024-02-13 10:00:00', '2024-02-13 09:00:00', '2024-02-13 08:00:00', '2024-02-13 07:00:00', '2024-02-13 06:00:00', '2024-02-13 05:00:00', '2024-02-13 04:00:00', '2024-02-13 03:00:00', '2024-02-13 02:00:00', '2024-02-13 01:00:00', '2024-02-13 00:00:00', '2024-02-12 23:00:00', '2024-02-12 22:00:00', '2024-02-12 13:00:00', '2024-02-12 12:00:00', '2024-02-12 11:00:00', '2024-02-12 10:00:00']"
Thailand, Trat Airport (TDX/VTBO) ,"['VTBO 150800Z 20013KT 7000 FEW020 31/25 Q1012', 'VTBO 150700Z 21012KT 7000 FEW020 33/24 Q1013', 'VTBO 150600Z 22007KT 6000 FEW020 31/24 Q1013', 'VTBO 150500Z 02004KT 6000 FEW020 32/24 Q1014', 'VTBO 150400Z 35002KT 6000 FEW020 31/24 Q1015', 'VTBO 150300Z 30005KT 5000 HZ FEW020 30/25 Q1016', 'VTBO 150200Z 04003KT 5000 HZ NSC 29/24 Q1015', 'VTBO 150100Z 00000KT 4000 BR NSC 25/24 Q1015', 'VTBO 150000Z 04002KT 3000 BR NSC 24/23 Q1014', 'VTBO 142300Z 00000KT 3000 BR NSC 24/23 Q1014', 'VTBO 142200Z 00000KT 4000 BR NSC 24/23 Q1013', 'VTBO 141100Z 22009KT 7000 NSC 29/23 Q1012', 'VTBO 141000Z 22012KT 7000 NSC 30/24 Q1011', 'VTBO 140900Z 20015KT 7000 NSC 31/23 Q1011', 'VTBO 140800Z 20012KT 7000 FEW020 31/24 Q1011', 'VTBO 140700Z 23010KT 7000 FEW020 31/23 Q1012', 'VTBO 140600Z 23008KT 7000 FEW020 31/24 Q1013', 'VTBO 140500Z 20002KT 6000 FEW020 32/22 Q1014', 'VTBO 140400Z 35003KT 6000 FEW020 31/23 Q1015', 'VTBO 140300Z 33004KT 6000 FEW020 30/24 Q1016', 'VTBO 140200Z 02002KT 5000 HZ FEW020 28/24 Q1016', 'VTBO 140100Z 07002KT 3000 BR NSC 25/23 Q1015', 'VTBO 140000Z 00000KT 3000 BR NSC 23/22 Q1015', 'VTBO 132300Z 00000KT 4000 BR NSC 23/22 Q1014', 'VTBO 132200Z 00000KT 4000 BR NSC 23/22 Q1014', 'VTBO 131100Z 03002KT 8000 NSC 33/17 Q1012', 'VTBO 131000Z 01006KT 8000 NSC 35/16 Q1011', 'VTBO 130900Z 03005KT 8000 NSC 36/17 Q1011', 'VTBO 130800Z 34006KT 7000 NSC 35/16 Q1011', 'VTBO 130700Z 35006KT 7000 NSC 35/17 Q1013', 'VTBO 130600Z 04010KT 7000 NSC 35/16 Q1013', 'VTBO 130500Z 05013KT 7000 NSC 34/18 Q1015', 'VTBO 130400Z 04011KT 7000 NSC 32/18 Q1016', 'VTBO 130300Z 01007KT 7000 NSC 30/19 Q1017', 'VTBO 130200Z 05012KT 7000 NSC 28/18 Q1016', 'VTBO 130100Z 04006KT 7000 NSC 25/18 Q1016', 'VTBO 130000Z 06004KT 6000 NSC 23/17 Q1016', 'VTBO 122300Z 05004KT 4000 HZ NSC 22/17 Q1015', 'VTBO 122200Z 04004KT 5000 HZ NSC 22/18 Q1015', 'VTBO 121100Z 03005KT 6000 NSC 31/17 Q1015', 'VTBO 121000Z 03013KT 7000 NSC 33/17 Q1014']","['2024-02-15 08:00:00', '2024-02-15 07:00:00', '2024-02-15 06:00:00', '2024-02-15 05:00:00', '2024-02-15 04:00:00', '2024-02-15 03:00:00', '2024-02-15 02:00:00', '2024-02-15 01:00:00', '2024-02-15 00:00:00', '2024-02-14 23:00:00', '2024-02-14 22:00:00', '2024-02-14 11:00:00', '2024-02-14 10:00:00', '2024-02-14 09:00:00', '2024-02-14 08:00:00', '2024-02-14 07:00:00', '2024-02-14 06:00:00', '2024-02-14 05:00:00', '2024-02-14 04:00:00', '2024-02-14 03:00:00', '2024-02-14 02:00:00', '2024-02-14 01:00:00', '2024-02-14 00:00:00', '2024-02-13 23:00:00', '2024-02-13 22:00:00', '2024-02-13 11:00:00', '2024-02-13 10:00:00', '2024-02-13 09:00:00', '2024-02-13 08:00:00', '2024-02-13 07:00:00', '2024-02-13 06:00:00', '2024-02-13 05:00:00', '2024-02-13 04:00:00', '2024-02-13 03:00:00', '2024-02-13 02:00:00', '2024-02-13 01:00:00', '2024-02-13 00:00:00', '2024-02-12 23:00:00', '2024-02-12 22:00:00', '2024-02-12 11:00:00', '2024-02-12 10:00:00']"
Thailand, Ubon Ratchathani Airport (UBP/VTUU) ,"['VTUU 150800Z 07006KT 010V130 CAVOK 35/17 Q1012 NOSIG', 'VTUU 150700Z VRB04KT CAVOK 35/17 Q1013 NOSIG', 'VTUU 150600Z VRB07KT CAVOK 34/17 Q1014 NOSIG', 'VTUU 150500Z 07006KT 040V170 CAVOK 34/18 Q1015 NOSIG', 'VTUU 150400Z 10004KT 020V190 CAVOK 31/20 Q1016 NOSIG', 'VTUU 150300Z 12005KT 080V210 CAVOK 29/20 Q1016 NOSIG', 'VTUU 150200Z 11004KT 060V170 9000 NSC 27/19 Q1017 NOSIG', 'VTUU 150100Z VRB02KT 9000 NSC 24/19 Q1016 NOSIG', 'VTUU 150000Z 04002KT 6000 NSC 19/19 Q1016 NOSIG', 'VTUU 142300Z 00000KT 7000 NSC 19/19 Q1015 NOSIG', 'VTUU 142200Z 12004KT 8000 NSC 21/19 Q1014 NOSIG', 'VTUU 142100Z 02003KT 8000 NSC 21/18 Q1013 NOSIG', 'VTUU 142000Z 05002KT 8000 NSC 21/18 Q1013 NOSIG', 'VTUU 141900Z 06003KT 8000 NSC 21/18 Q1013 NOSIG', 'VTUU 141800Z 02003KT 8000 NSC 22/18 Q1013 NOSIG', 'VTUU 141700Z 05002KT 8000 NSC 22/18 Q1014 NOSIG', 'VTUU 141600Z 00000KT 8000 NSC 23/18 Q1014 NOSIG', 'VTUU 141500Z 01002KT 8000 NSC 24/17 Q1014 NOSIG', 'VTUU 141400Z 33003KT 9000 NSC 26/17 Q1014 NOSIG', 'VTUU 141300Z VRB01KT 9000 NSC 26/17 Q1014 NOSIG', 'VTUU 141200Z 32002KT 9000 NSC 28/16 Q1013 NOSIG', 'VTUU 141100Z 01003KT 9000 NSC 31/17 Q1012 NOSIG', 'VTUU 141000Z 32004KT 270V020 9000 NSC 33/17 Q1012 NOSIG', 'VTUU 140900Z 01005KT 330V060 9000 NSC 34/16 Q1011 NOSIG', 'VTUU 140800Z VRB04KT 9000 NSC 34/17 Q1012 NOSIG', 'VTUU 140700Z 32005KT 260V050 CAVOK 34/17 Q1013 NOSIG', 'VTUU 140600Z VRB04KT CAVOK 33/17 Q1014 NOSIG', 'VTUU 140500Z VRB04KT 9000 NSC 31/18 Q1016 NOSIG', 'VTUU 140400Z 09004KT 030V150 9000 NSC 29/19 Q1017 NOSIG', 'VTUU 140300Z 08004KT 040V130 9000 NSC 26/19 Q1017 NOSIG', 'VTUU 140200Z 07004KT 040V110 9000 NSC 25/19 Q1017 NOSIG', 'VTUU 140100Z 05003KT 360V100 9000 NSC 21/19 Q1017 NOSIG', 'VTUU 140000Z 05002KT 9000 NSC 18/18 Q1017 NOSIG', 'VTUU 132300Z 02003KT 9000 NSC 18/18 Q1016 NOSIG', 'VTUU 132200Z VRB02KT CAVOK 18/18 Q1015 NOSIG', 'VTUU 132100Z 02004KT CAVOK 19/18 Q1015 NOSIG', 'VTUU 132000Z 09004KT CAVOK 20/18 Q1015 NOSIG', 'VTUU 131900Z 02005KT CAVOK 21/18 Q1015 NOSIG', 'VTUU 131800Z 03006KT CAVOK 21/17 Q1015 NOSIG', 'VTUU 131700Z 05007KT CAVOK 23/17 Q1016 NOSIG', 'VTUU 131600Z 04005KT CAVOK 24/17 Q1016 NOSIG', 'VTUU 131500Z 03007KT CAVOK 25/16 Q1016 NOSIG', 'VTUU 131400Z 35004KT CAVOK 26/15 Q1016 NOSIG', 'VTUU 131300Z VRB02KT CAVOK 25/16 Q1015 NOSIG', 'VTUU 131200Z 34003KT CAVOK 26/16 Q1014 NOSIG', 'VTUU 131100Z 02004KT CAVOK 30/15 Q1014 NOSIG', 'VTUU 131000Z 03006KT 330V080 CAVOK 33/15 Q1013 NOSIG', 'VTUU 130900Z 36005KT 310V040 CAVOK 33/15 Q1013 NOSIG', 'VTUU 130800Z 34006KT 250V040 CAVOK 33/16 Q1014 NOSIG', 'VTUU 130700Z VRB04KT CAVOK 32/16 Q1015 NOSIG', 'VTUU 130600Z VRB05KT CAVOK 31/17 Q1016 NOSIG', 'VTUU 130500Z VRB03KT CAVOK 30/17 Q1017 NOSIG', 'VTUU 130400Z 07005KT 010V150 CAVOK 28/17 Q1018 NOSIG', 'VTUU 130300Z 11004KT 020V170 CAVOK 26/17 Q1019 NOSIG', 'VTUU 130200Z 04005KT 350V090 9000 NSC 23/17 Q1019 NOSIG', 'VTUU 130100Z 05006KT 9000 NSC 20/17 Q1019 NOSIG', 'VTUU 130000Z 03004KT 6000 NSC 17/17 Q1018 NOSIG', 'VTUU 122300Z 02004KT 8000 NSC 17/17 Q1018 NOSIG', 'VTUU 122200Z 02003KT 8000 NSC 17/16 Q1017 NOSIG', 'VTUU 122100Z 03004KT 9000 NSC 18/17 Q1017 NOSIG', 'VTUU 122000Z 02005KT 9000 NSC 18/16 Q1017 NOSIG', 'VTUU 121900Z 01005KT 9000 NSC 19/16 Q1018 NOSIG', 'VTUU 121800Z 01005KT 9000 NSC 20/16 Q1018 NOSIG', 'VTUU 121700Z 36004KT 9000 NSC 21/16 Q1018 NOSIG', 'VTUU 121600Z 02005KT 9000 NSC 22/15 Q1019 NOSIG', 'VTUU 121500Z 04009KT 9000 NSC 23/15 Q1019 NOSIG', 'VTUU 121400Z 04007KT 9000 NSC 24/15 Q1018 NOSIG', 'VTUU 121300Z 04005KT 9000 NSC 24/15 Q1018 NOSIG', 'VTUU 121200Z 04005KT 9000 NSC 26/16 Q1017 NOSIG', 'VTUU 121100Z 03005KT 9000 NSC 28/16 Q1016 NOSIG', 'VTUU 121000Z 01008KT 340V040 9000 NSC 30/15 Q1016 NOSIG']","['2024-02-15 08:00:00', '2024-02-15 07:00:00', '2024-02-15 06:00:00', '2024-02-15 05:00:00', '2024-02-15 04:00:00', '2024-02-15 03:00:00', '2024-02-15 02:00:00', '2024-02-15 01:00:00', '2024-02-15 00:00:00', '2024-02-14 23:00:00', '2024-02-14 22:00:00', '2024-02-14 21:00:00', '2024-02-14 20:00:00', '2024-02-14 19:00:00', '2024-02-14 18:00:00', '2024-02-14 17:00:00', '2024-02-14 16:00:00', '2024-02-14 15:00:00', '2024-02-14 14:00:00', '2024-02-14 13:00:00', '2024-02-14 12:00:00', '2024-02-14 11:00:00', '2024-02-14 10:00:00', '2024-02-14 09:00:00', '2024-02-14 08:00:00', '2024-02-14 07:00:00', '2024-02-14 06:00:00', '2024-02-14 05:00:00', '2024-02-14 04:00:00', '2024-02-14 03:00:00', '2024-02-14 02:00:00', '2024-02-14 01:00:00', '2024-02-14 00:00:00', '2024-02-13 23:00:00', '2024-02-13 22:00:00', '2024-02-13 21:00:00', '2024-02-13 20:00:00', '2024-02-13 19:00:00', '2024-02-13 18:00:00', '2024-02-13 17:00:00', '2024-02-13 16:00:00', '2024-02-13 15:00:00', '2024-02-13 14:00:00', '2024-02-13 13:00:00', '2024-02-13 12:00:00', '2024-02-13 11:00:00', '2024-02-13 10:00:00', '2024-02-13 09:00:00', '2024-02-13 08:00:00', '2024-02-13 07:00:00', '2024-02-13 06:00:00', '2024-02-13 05:00:00', '2024-02-13 04:00:00', '2024-02-13 03:00:00', '2024-02-13 02:00:00', '2024-02-13 01:00:00', '2024-02-13 00:00:00', '2024-02-12 23:00:00', '2024-02-12 22:00:00', '2024-02-12 21:00:00', '2024-02-12 20:00:00', '2024-02-12 19:00:00', '2024-02-12 18:00:00', '2024-02-12 17:00:00', '2024-02-12 16:00:00', '2024-02-12 15:00:00', '2024-02-12 14:00:00', '2024-02-12 13:00:00', '2024-02-12 12:00:00', '2024-02-12 11:00:00', '2024-02-12 10:00:00']"
Thailand, Udon Thani International Airport (UTH/VTUD) ,"['VTUD 150800Z 33006KT 280V050 CAVOK 36/12 Q1012 NOSIG', 'VTUD 150700Z VRB05KT CAVOK 35/13 Q1013 NOSIG', 'VTUD 150600Z VRB04KT CAVOK 34/13 Q1014 NOSIG', 'VTUD 150500Z VRB03KT CAVOK 33/14 Q1016 NOSIG', 'VTUD 150400Z 05004KT 310V100 7000 NSC 30/14 Q1017 NOSIG', 'VTUD 150300Z VRB02KT 6000 NSC 28/15 Q1017 NOSIG', 'VTUD 150200Z VRB02KT 5000 NSC 25/17 Q1017 NOSIG', 'VTUD 150100Z 00000KT 4000 BR NSC 21/16 Q1016 NOSIG', 'VTUD 150000Z 00000KT 3100 BR NSC 17/16 Q1016 NOSIG', 'VTUD 142300Z VRB01KT 7000 NSC 17/15 Q1014 NOSIG', 'VTUD 142200Z 00000KT CAVOK 18/16 Q1014 NOSIG', 'VTUD 141500Z 18002KT CAVOK 23/16 Q1014 NOSIG', 'VTUD 141400Z 00000KT CAVOK 24/15 Q1014 NOSIG', 'VTUD 141300Z VRB01KT CAVOK 25/15 Q1013 NOSIG', 'VTUD 141200Z 00000KT CAVOK 27/14 Q1013 NOSIG', 'VTUD 141100Z 02002KT CAVOK 32/12 Q1012 NOSIG', 'VTUD 141000Z VRB03KT CAVOK 34/10 Q1012 NOSIG', 'VTUD 140900Z 34005KT 290V030 CAVOK 34/12 Q1012 NOSIG', 'VTUD 140800Z VRB02KT CAVOK 35/12 Q1012 NOSIG', 'VTUD 140700Z 28005KT 220V350 CAVOK 33/13 Q1013 NOSIG', 'VTUD 140600Z VRB03KT CAVOK 32/14 Q1015 NOSIG', 'VTUD 140500Z VRB04KT CAVOK 31/15 Q1016 NOSIG', 'VTUD 140400Z VRB04KT CAVOK 29/15 Q1017 NOSIG', 'VTUD 140300Z VRB02KT 7000 NSC 26/16 Q1018 NOSIG', 'VTUD 140200Z VRB02KT 6000 NSC 23/17 Q1018 NOSIG', 'VTUD 140100Z VRB02KT 4000 BR NSC 19/16 Q1017 BECMG TL0130 6000 NSW', 'VTUD 140000Z VRB02KT 4000 BR NSC 16/15 Q1017 BECMG TL0100 6000 NSW', 'VTUD 132300Z 30002KT 5000 BR NSC 16/15 Q1016 NOSIG', 'VTUD 132200Z VRB02KT 5000 BR NSC 17/15 Q1015 NOSIG', 'VTUD 131500Z VRB01KT 9000 NSC 21/16 Q1017 NOSIG', 'VTUD 131400Z 00000KT CAVOK 23/15 Q1016 NOSIG', 'VTUD 131300Z VRB01KT CAVOK 24/15 Q1016 NOSIG', 'VTUD 131200Z VRB01KT 9999 FEW003 26/15 Q1015 NOSIG', 'VTUD 131100Z VRB01KT CAVOK 30/14 Q1014 NOSIG', 'VTUD 131000Z VRB02KT CAVOK 32/14 Q1014 NOSIG', 'VTUD 130900Z 26003KT 150V320 CAVOK 32/13 Q1014 NOSIG', 'VTUD 130800Z VRB03KT CAVOK 32/14 Q1014 NOSIG', 'VTUD 130700Z 01005KT 290V070 CAVOK 31/15 Q1016 NOSIG', 'VTUD 130600Z 03006KT 350V080 CAVOK 30/14 Q1017 NOSIG', 'VTUD 130500Z 06005KT 360V150 CAVOK 29/14 Q1018 NOSIG', 'VTUD 130400Z VRB05KT CAVOK 27/15 Q1020 NOSIG', 'VTUD 130300Z VRB03KT CAVOK 25/14 Q1020 NOSIG', 'VTUD 130200Z VRB02KT CAVOK 23/15 Q1020 NOSIG', 'VTUD 130100Z 07003KT 040V100 7000 NSC 20/15 Q1019 NOSIG', 'VTUD 130000Z 00000KT 5000 BR NSC 16/15 Q1019 NOSIG', 'VTUD 122300Z 00000KT 7000 NSC 16/14 Q1018 NOSIG', 'VTUD 122200Z 08002KT 8000 NSC 17/15 Q1018 NOSIG', 'VTUD 121500Z VRB01KT CAVOK 22/15 Q1019 NOSIG', 'VTUD 121400Z 00000KT CAVOK 23/16 Q1018 NOSIG', 'VTUD 121300Z 19003KT CAVOK 23/15 Q1018 NOSIG', 'VTUD 121200Z VRB01KT CAVOK 25/14 Q1017 NOSIG', 'VTUD 121100Z 10004KT 070V130 CAVOK 28/13 Q1017 NOSIG', 'VTUD 121000Z VRB02KT CAVOK 30/13 Q1017 NOSIG']","['2024-02-15 08:00:00', '2024-02-15 07:00:00', '2024-02-15 06:00:00', '2024-02-15 05:00:00', '2024-02-15 04:00:00', '2024-02-15 03:00:00', '2024-02-15 02:00:00', '2024-02-15 01:00:00', '2024-02-15 00:00:00', '2024-02-14 23:00:00', '2024-02-14 22:00:00', '2024-02-14 15:00:00', '2024-02-14 14:00:00', '2024-02-14 13:00:00', '2024-02-14 12:00:00', '2024-02-14 11:00:00', '2024-02-14 10:00:00', '2024-02-14 09:00:00', '2024-02-14 08:00:00', '2024-02-14 07:00:00', '2024-02-14 06:00:00', '2024-02-14 05:00:00', '2024-02-14 04:00:00', '2024-02-14 03:00:00', '2024-02-14 02:00:00', '2024-02-14 01:00:00', '2024-02-14 00:00:00', '2024-02-13 23:00:00', '2024-02-13 22:00:00', '2024-02-13 15:00:00', '2024-02-13 14:00:00', '2024-02-13 13:00:00', '2024-02-13 12:00:00', '2024-02-13 11:00:00', '2024-02-13 10:00:00', '2024-02-13 09:00:00', '2024-02-13 08:00:00', '2024-02-13 07:00:00', '2024-02-13 06:00:00', '2024-02-13 05:00:00', '2024-02-13 04:00:00', '2024-02-13 03:00:00', '2024-02-13 02:00:00', '2024-02-13 01:00:00', '2024-02-13 00:00:00', '2024-02-12 23:00:00', '2024-02-12 22:00:00', '2024-02-12 15:00:00', '2024-02-12 14:00:00', '2024-02-12 13:00:00', '2024-02-12 12:00:00', '2024-02-12 11:00:00', '2024-02-12 10:00:00']"
Thailand, Yala Betong International Airport (BTZ/VTSY) ,"['VTSY 150800Z 07009KT 030V110 9999 FEW040 33/19 Q1012 NOSIG', 'VTSY 150700Z 09009KT 030V120 9999 FEW040 34/20 Q1012 NOSIG', 'VTSY 150600Z 05006KT 010V090 9999 SCT040 30/21 Q1014 NOSIG', 'VTSY 150500Z 07006KT 010V120 9999 SCT030 31/21 Q1014 NOSIG', 'VTSY 150400Z 08005KT 340V130 9999 SCT030 29/23 Q1015 NOSIG', 'VTSY 150300Z 00000KT 9999 SCT030 28/24 Q1015 NOSIG', 'VTSY 150200Z 00000KT 9999 FEW005 SCT030 25/23 Q1015 NOSIG', 'VTSY 150100Z 00000KT 7000 FEW005 SCT030 BKN050 24/23 Q1015 NOSIG', 'VTSY 150000Z 00000KT 5000 -RA BR FEW005 SCT030 BKN050 23/23 Q1014 NOSIG', 'VTSY 141000Z 04004KT 300V090 9999 SCT030 SCT050 30/23 Q1011 NOSIG', 'VTSY 140900Z VRB04KT 9999 SCT030 SCT050 31/23 Q1010 NOSIG', 'VTSY 140800Z 13004KT 100V190 9999 SCT030 SCT050 31/23 Q1011 NOSIG', 'VTSY 140700Z 08004KT 040V110 9999 BKN030 28/23 Q1012 NOSIG', 'VTSY 140600Z 08005KT 360V130 9999 SCT030 SCT050 30/22 Q1012 NOSIG', 'VTSY 140500Z 09007KT 040V160 9999 SCT030 31/23 Q1014 NOSIG', 'VTSY 140400Z VRB02KT 9999 SCT030 SCT050 29/24 Q1015 NOSIG', 'VTSY 140300Z 05004KT 020V080 8000 -RA BKN030 26/23 Q1015 NOSIG', 'VTSY 140200Z 00000KT 9999 SCT030 BKN050 25/23 Q1015 NOSIG', 'VTSY 140100Z VRB01KT 8000 FEW005 SCT030 BKN050 23/23 Q1014 NOSIG', 'VTSY 140000Z 00000KT 5000 -RA BR SCT005 SCT030 BKN050 23/23 Q1014 NOSIG', 'VTSY 131000Z 32003KT 250V050 8000 -RA SCT030 BKN050 24/23 Q1012 NOSIG', 'VTSY 130900Z 02004KT 290V070 9999 SCT030 SCT050 29/23 Q1012 NOSIG', 'VTSY 130800Z 04006KT 340V080 8000 -RA SCT030 BKN050 26/23 Q1012 NOSIG', 'VTSY 130700Z 01006KT 320V060 9999 SCT030 BKN050 30/22 Q1013 NOSIG', 'VTSY 130600Z 03007KT 280V090 9999 SCT030 BKN050 32/21 Q1013 NOSIG', 'VTSY 130500Z 06006KT 350V110 9999 SCT030 SCT050 31/21 Q1015 NOSIG', 'VTSY 130400Z 03004KT 330V120 9999 SCT030 SCT050 30/21 Q1016 NOSIG', 'VTSY 130300Z VRB03KT 9999 SCT030 28/21 Q1016 NOSIG', 'VTSY 130200Z VRB01KT 9999 FEW020 SCT050 26/22 Q1015 NOSIG', 'VTSY 130100Z VRB01KT 9999 FEW010 SCT050 24/21 Q1015 NOSIG', 'VTSY 130000Z 00000KT 8000 FEW005 BKN050 21/20 Q1015 NOSIG', 'VTSY 121000Z VRB06KT 9999 FEW030 SCT050 30/20 Q1013 NOSIG']","['2024-02-15 08:00:00', '2024-02-15 07:00:00', '2024-02-15 06:00:00', '2024-02-15 05:00:00', '2024-02-15 04:00:00', '2024-02-15 03:00:00', '2024-02-15 02:00:00', '2024-02-15 01:00:00', '2024-02-15 00:00:00', '2024-02-14 10:00:00', '2024-02-14 09:00:00', '2024-02-14 08:00:00', '2024-02-14 07:00:00', '2024-02-14 06:00:00', '2024-02-14 05:00:00', '2024-02-14 04:00:00', '2024-02-14 03:00:00', '2024-02-14 02:00:00', '2024-02-14 01:00:00', '2024-02-14 00:00:00', '2024-02-13 10:00:00', '2024-02-13 09:00:00', '2024-02-13 08:00:00', '2024-02-13 07:00:00', '2024-02-13 06:00:00', '2024-02-13 05:00:00', '2024-02-13 04:00:00', '2024-02-13 03:00:00', '2024-02-13 02:00:00', '2024-02-13 01:00:00', '2024-02-13 00:00:00', '2024-02-12 10:00:00']"
Togo, Lome Tokoin Airport (LFW/DXXX) ,"['DXXX 150800Z 26008KT 8000 FEW012 30/27 Q1013 NOSIG', 'DXXX 150700Z 23004KT 8000 FEW012 29/27 Q1012 NOSIG', 'DXXX 150600Z 24003KT 8000 FEW012 29/27 Q1012 NOSIG', 'DXXX 150500Z 23004KT 9999 FEW012 29/27 Q1011 NOSIG', 'DXXX 150400Z 25005KT 220V280 9999 FEW012 29/27 Q1011 NOSIG', 'DXXX 150300Z 23010KT 9999 FEW012 29/27 Q1010 NOSIG', 'DXXX 150200Z 23011KT 9999 FEW013 29/27 Q1011 NOSIG', 'DXXX 150100Z 23009KT 9999 FEW013 29/27 Q1011 NOSIG', 'DXXX 150000Z 23008KT 9999 FEW013 29/27 Q1011 NOSIG', 'DXXX 142300Z 23010KT 9999 FEW013 29/27 Q1012 NOSIG', 'DXXX 142200Z 24010KT 9999 FEW013 30/27 Q1012 NOSIG', 'DXXX 142100Z 23009KT 9999 FEW013 30/27 Q1011 NOSIG', 'DXXX 142000Z 22009KT 9999 FEW013 30/27 Q1011 NOSIG', 'DXXX 141900Z 21009KT 9999 FEW013 30/27 Q1010 NOSIG', 'DXXX 141800Z 21009KT 9999 FEW013 30/27 Q1010 NOSIG', 'DXXX 141700Z 21011KT 9999 FEW014 31/27 Q1009 NOSIG', 'DXXX 141600Z 21014KT 9999 FEW014 32/27 Q1009 NOSIG', 'DXXX 141400Z 21014KT 9999 FEW015 34/26 Q1010 NOSIG', 'DXXX 141300Z 21012KT 9999 FEW015 34/27 Q1011 NOSIG', 'DXXX 141200Z 20011KT 9999 SCT015 34/27 Q1012 NOSIG', 'DXXX 141100Z 22010KT 190V290 9999 SCT015 34/26 Q1013 NOSIG', 'DXXX 141000Z 26008KT 210V300 9999 SCT015 34/26 Q1013 NOSIG', 'DXXX 140900Z 26011KT 9999 SCT013 32/26 Q1013 NOSIG', 'DXXX 140800Z 26009KT 230V300 8000 FEW013 30/27 Q1013 NOSIG', 'DXXX 140700Z 27006KT 8000 FEW012 29/27 Q1012 NOSIG', 'DXXX 140600Z 25004KT 8000 FEW012 29/27 Q1012 NOSIG', 'DXXX 140500Z 24006KT 9999 FEW012 29/27 Q1012 NOSIG', 'DXXX 140400Z 25008KT 9999 FEW012 29/27 Q1011 NOSIG', 'DXXX 140300Z 25010KT 9999 SCT012 29/27 Q1011 NOSIG', 'DXXX 140200Z 24010KT 9999 SCT012 29/27 Q1011 NOSIG', 'DXXX 140100Z 24010KT 9999 FEW013 29/27 Q1012 NOSIG', 'DXXX 140000Z 23011KT 9999 FEW013 29/27 Q1012 NOSIG', 'DXXX 132300Z 23010KT 9999 SCT013 29/27 Q1012 NOSIG', 'DXXX 132200Z 23009KT 9999 SCT014 30/28 Q1012 NOSIG', 'DXXX 132100Z 22008KT 9999 FEW014 30/28 Q1012 NOSIG', 'DXXX 132000Z 21009KT 9999 FEW014 30/28 Q1011 NOSIG', 'DXXX 131900Z 21010KT 9999 FEW014 30/27 Q1010 NOSIG', 'DXXX 131800Z 22011KT 9999 FEW015 30/27 Q1010 NOSIG', 'DXXX 131700Z 21011KT 9999 FEW015 31/27 Q1009 NOSIG', 'DXXX 131600Z 22013KT 180V240 CAVOK 32/27 Q1009 NOSIG', 'DXXX 131500Z 21013KT 9999 FEW015 33/26 Q1009 NOSIG', 'DXXX 131400Z 21011KT 9999 FEW015 34/26 Q1010 NOSIG', 'DXXX 131300Z 21012KT 9999 FEW015 34/26 Q1011 NOSIG', 'DXXX 131200Z 20010KT 160V250 9999 FEW015 33/27 Q1012 NOSIG', 'DXXX 131100Z 21010KT 9999 FEW015 34/26 Q1013 NOSIG', 'DXXX 131000Z 26008KT 9999 SCT015 33/26 Q1013 NOSIG', 'DXXX 130900Z 25011KT 9999 SCT013 31/27 Q1013 NOSIG', 'DXXX 130800Z 25008KT 8000 SCT013 30/27 Q1012 NOSIG', 'DXXX 130700Z 25004KT 7000 SCT013 29/27 Q1012 NOSIG', 'DXXX 130600Z 26004KT 9999 SCT013 29/27 Q1011 NOSIG', 'DXXX 130500Z 26005KT 9999 SCT013 29/27 Q1011 NOSIG', 'DXXX 130400Z 27006KT 9999 SCT013 29/27 Q1010 NOSIG', 'DXXX 130300Z 26005KT 9999 SCT013 29/27 Q1010 NOSIG', 'DXXX 130200Z 25007KT 9999 SCT013 29/27 Q1010 NOSIG', 'DXXX 130100Z 24008KT 9999 FEW013 29/27 Q1011 NOSIG', 'DXXX 130000Z 24009KT 9999 FEW013 29/27 Q1011 NOSIG', 'DXXX 122300Z 24010KT 9999 FEW013 29/27 Q1012 NOSIG', 'DXXX 122200Z 23009KT 9999 FEW013 30/27 Q1012 NOSIG', 'DXXX 122100Z 23009KT 9999 FEW013 30/27 Q1012 NOSIG', 'DXXX 122000Z 21008KT 9999 FEW013 30/27 Q1011 NOSIG', 'DXXX 121900Z 20009KT CAVOK 30/27 Q1010 NOSIG', 'DXXX 121800Z 20009KT 170V230 CAVOK 30/27 Q1009 NOSIG', 'DXXX 121700Z 21010KT 170V230 CAVOK 31/27 Q1008 NOSIG', 'DXXX 121600Z 20011KT 170V230 CAVOK 32/27 Q1008 NOSIG', 'DXXX 121500Z 20012KT CAVOK 32/26 Q1008 NOSIG', 'DXXX 121400Z 19011KT CAVOK 33/26 Q1009 NOSIG', 'DXXX 121300Z 20009KT 160V250 9999 FEW017 34/26 Q1010 NOSIG', 'DXXX 121200Z 21009KT 9999 FEW016 34/26 Q1011 NOSIG', 'DXXX 121100Z 21008KT 170V240 9999 SCT014 33/26 Q1012 NOSIG', 'DXXX 121000Z 26006KT 210V310 9999 SCT014 32/26 Q1012 NOSIG']","['2024-02-15 08:00:00', '2024-02-15 07:00:00', '2024-02-15 06:00:00', '2024-02-15 05:00:00', '2024-02-15 04:00:00', '2024-02-15 03:00:00', '2024-02-15 02:00:00', '2024-02-15 01:00:00', '2024-02-15 00:00:00', '2024-02-14 23:00:00', '2024-02-14 22:00:00', '2024-02-14 21:00:00', '2024-02-14 20:00:00', '2024-02-14 19:00:00', '2024-02-14 18:00:00', '2024-02-14 17:00:00', '2024-02-14 16:00:00', '2024-02-14 14:00:00', '2024-02-14 13:00:00', '2024-02-14 12:00:00', '2024-02-14 11:00:00', '2024-02-14 10:00:00', '2024-02-14 09:00:00', '2024-02-14 08:00:00', '2024-02-14 07:00:00', '2024-02-14 06:00:00', '2024-02-14 05:00:00', '2024-02-14 04:00:00', '2024-02-14 03:00:00', '2024-02-14 02:00:00', '2024-02-14 01:00:00', '2024-02-14 00:00:00', '2024-02-13 23:00:00', '2024-02-13 22:00:00', '2024-02-13 21:00:00', '2024-02-13 20:00:00', '2024-02-13 19:00:00', '2024-02-13 18:00:00', '2024-02-13 17:00:00', '2024-02-13 16:00:00', '2024-02-13 15:00:00', '2024-02-13 14:00:00', '2024-02-13 13:00:00', '2024-02-13 12:00:00', '2024-02-13 11:00:00', '2024-02-13 10:00:00', '2024-02-13 09:00:00', '2024-02-13 08:00:00', '2024-02-13 07:00:00', '2024-02-13 06:00:00', '2024-02-13 05:00:00', '2024-02-13 04:00:00', '2024-02-13 03:00:00', '2024-02-13 02:00:00', '2024-02-13 01:00:00', '2024-02-13 00:00:00', '2024-02-12 23:00:00', '2024-02-12 22:00:00', '2024-02-12 21:00:00', '2024-02-12 20:00:00', '2024-02-12 19:00:00', '2024-02-12 18:00:00', '2024-02-12 17:00:00', '2024-02-12 16:00:00', '2024-02-12 15:00:00', '2024-02-12 14:00:00', '2024-02-12 13:00:00', '2024-02-12 12:00:00', '2024-02-12 11:00:00', '2024-02-12 10:00:00']"
Trinidad-and-tobago, Port of Spain Piarco International Airport (POS/TTPP) ,"['TTPP 150800Z 00000KT 9999 FEW016 25/22 Q1014 NOSIG', 'TTPP 150700Z 11003KT 8000 FEW016 25/23 Q1014 NOSIG', 'TTPP 150600Z 13003KT 8000 FEW016 25/23 Q1014 NOSIG', 'TTPP 150500Z 11003KT 8000 SCT016 25/23 Q1015 NOSIG', 'TTPP 150400Z 12003KT 8000 FEW016 26/23 Q1015 NOSIG', 'TTPP 150300Z 13003KT 8000 FEW018 26/24 Q1015 NOSIG', 'TTPP 150200Z 10006KT 8000 FEW018 26/24 Q1015 NOSIG', 'TTPP 150100Z 11006KT 8000 FEW018 26/24 Q1015 NOSIG', 'TTPP 150000Z 12006KT 8000 FEW018 27/24 Q1015 NOSIG', 'TTPP 142300Z 10006KT 8000 FEW018 28/25 Q1014 NOSIG', 'TTPP 142200Z 10010KT 8000 FEW018 29/25 Q1014 NOSIG', 'TTPP 142100Z 13011KT 8000 FEW020 30/24 Q1013 NOSIG', 'TTPP 142000Z 09015KT 8000 VCSH SCT022 30/25 Q1013 NOSIG RMK VCSH-NE', 'TTPP 141900Z 10014KT 8000 SCT024 31/25 Q1014 NOSIG', 'TTPP 141800Z 12014KT 6000 BKN020 31/25 Q1014 NOSIG RMK FU NW', 'TTPP 141700Z 13012KT 7000 VCSH BKN020 30/25 Q1015 NOSIG RMK VCSH N,NE ,E/ FU SW', 'TTPP 141600Z 12016KT 8000 -SHRA VCSH BKN020 30/25 Q1016 NOSIG RMK VCSH NE TO S', 'TTPP 141500Z 12017KT 8000 VCSH SCT020 30/25 Q1017 NOSIG RMK VCSH SE', 'TTPP 141400Z 12014KT 9000 SCT022 30/25 Q1017 NOSIG', 'TTPP 141300Z 11013KT 9000 FEW020 28/23 Q1017 NOSIG', 'TTPP 141200Z 10007KT 9000 FEW018 27/23 Q1016 NOSIG', 'TTPP 141100Z 12003KT 9000 FEW016 25/23 Q1015 NOSIG', 'TTPP 141000Z 12006KT 9000 FEW016 25/23 Q1015 NOSIG', 'TTPP 140900Z 13007KT 9000 FEW016 26/23 Q1015 NOSIG', 'TTPP 140800Z 10007KT 9000 VCSH FEW016 26/23 Q1014 NOSIG RMK VCSH NE', 'TTPP 140700Z 11011KT 9000 FEW016 26/23 Q1014 NOSIG', 'TTPP 140600Z 11010KT 9000 FEW016 26/23 Q1015 NOSIG', 'TTPP 140500Z 12007KT 9000 FEW016 26/23 Q1015 NOSIG', 'TTPP 140400Z 10007KT 9000 FEW016 26/23 Q1015 NOSIG', 'TTPP 140300Z 12002KT 9000 FEW016 26/23 Q1015 NOSIG', 'TTPP 140200Z 00000KT 9000 SCT016 26/23 Q1015 NOSIG', 'TTPP 140100Z 10003KT 9000 SCT016 26/23 Q1015 NOSIG', 'TTPP 140000Z 13007KT 9000 -SHRA VCSH BKN018 27/23 Q1014 NOSIG RMK VCSH NE, E, SE, S', 'TTPP 132300Z 09010KT 9999 FEW020 27/23 Q1013 NOSIG', 'TTPP 132200Z 12012KT 9999 FEW023 28/22 Q1013 NOSIG', 'TTPP 132100Z 11012KT 9999 FEW023 29/22 Q1013 NOSIG', 'TTPP 132000Z 12016KT 9999 FEW025 29/22 Q1013 NOSIG', 'TTPP 131900Z 11015KT 9999 FEW025 30/21 Q1013 NOSIG', 'TTPP 131800Z 09017KT 9999 FEW022 31/23 Q1014 NOSIG', 'TTPP 131700Z 10016KT 9999 FEW025 31/22 Q1014 NOSIG', 'TTPP 131600Z 11014KT 9000 VCSH SCT025 30/22 Q1015 NOSIG RMK VCSH SE', 'TTPP 131500Z 11015KT 9000 SCT025 29/22 Q1016 NOSIG', 'TTPP 131400Z 10015KT 8000 VCSH FEW018 29/23 Q1017 NOSIG RMK VCSH N', 'TTPP 131300Z 10013KT 9000 VCSH FEW018 28/23 Q1016 NOSIG RMK HZ VCSH E', 'TTPP 131200Z 11006KT 6000 FEW018 26/23 Q1016 NOSIG', 'TTPP 131100Z 11011KT 6000 -SHRA VCSH FEW012 25/22 Q1015 NOSIG RMK VCSH N NE E S', 'TTPP 131000Z 11007KT 6000 VCSH FEW012 25/22 Q1014 NOSIG RMK VCSH E ESE', 'TTPP 130900Z 11007KT 6000 FEW012 25/22 Q1014 NOSIG', 'TTPP 130800Z 11007KT 6000 FEW012 25/22 Q1013 NOSIG RMK DUHZ', 'TTPP 130700Z 12006KT 9999 FEW016 24/23 Q1013 NOSIG', 'TTPP 130600Z 09005KT 9999 VCSH FEW016 24/23 Q1014 NOSIG RMK VCSH SE', 'TTPP 130500Z 00000KT 9999 VCSH FEW016 25/23 Q1014 RESH NOSIG RMK VCSH NNE, NE', 'TTPP 130400Z 11005KT 9999 -SHRA VCSH SCT016 25/22 Q1015 NOSIG RMK VCSH NW, N, NE, SE, S', 'TTPP 130300Z 09010KT 9999 SCT018 26/23 Q1014 NOSIG', 'TTPP 130200Z 08010KT 9999 FEW018 26/22 Q1015 NOSIG', 'TTPP 130100Z 10007KT 9999 SCT018 26/22 Q1014 NOSIG', 'TTPP 130000Z 11006KT 9999 VCSH SCT018 26/24 Q1014 NOSIG RMK VCSH E, SE', 'TTPP 122300Z 13003KT 9999 VCSH FEW018 27/23 Q1013 NOSIG RMK VCSH NE', 'TTPP 122200Z 11009KT 6000 VCSH FEW020 28/22 Q1013 NOSIG RMK VCSH N,NE,E', 'TTPP 122100Z 11012KT 9999 FEW022 29/21 Q1013 NOSIG', 'TTPP 122000Z 11016KT 9999 SCT022 29/21 Q1012 NOSIG', 'TTPP 121900Z 10015KT 9999 VCSH BKN022 30/21 Q1012 NOSIG RMK VCSH ESE', 'TTPP 121800Z 11014KT 9999 BKN022 30/23 Q1013 NOSIG', 'TTPP 121700Z 13016KT 9999 SCT022 29/24 Q1014 NOSIG', 'TTPP 121600Z 10014KT 9999 VCSH FEW022 SCT038 29/21 Q1015 NOSIG RMK VCSH NE,S-SW', 'TTPP 121500Z 10008KT 9999 SCT020 29/24 Q1016 NOSIG', 'TTPP 121400Z 13012KT 9999 VCSH SCT020 29/24 Q1016 NOSIG RMK VCSH SE', 'TTPP 121300Z 10013KT 9999 FEW020 28/24 Q1015 NOSIG', 'TTPP 121200Z 12003KT 9999 FEW020 26/24 Q1015 NOSIG', 'TTPP 121100Z 00000KT 8000 -SHRA VCSH FEW016 SCT036 24/23 Q1015 NOSIG RMK VCSH NE E', 'TTPP 121000Z 00000KT 8000 FEW016 24/23 Q1014 NOSIG']","['2024-02-15 08:00:00', '2024-02-15 07:00:00', '2024-02-15 06:00:00', '2024-02-15 05:00:00', '2024-02-15 04:00:00', '2024-02-15 03:00:00', '2024-02-15 02:00:00', '2024-02-15 01:00:00', '2024-02-15 00:00:00', '2024-02-14 23:00:00', '2024-02-14 22:00:00', '2024-02-14 21:00:00', '2024-02-14 20:00:00', '2024-02-14 19:00:00', '2024-02-14 18:00:00', '2024-02-14 17:00:00', '2024-02-14 16:00:00', '2024-02-14 15:00:00', '2024-02-14 14:00:00', '2024-02-14 13:00:00', '2024-02-14 12:00:00', '2024-02-14 11:00:00', '2024-02-14 10:00:00', '2024-02-14 09:00:00', '2024-02-14 08:00:00', '2024-02-14 07:00:00', '2024-02-14 06:00:00', '2024-02-14 05:00:00', '2024-02-14 04:00:00', '2024-02-14 03:00:00', '2024-02-14 02:00:00', '2024-02-14 01:00:00', '2024-02-14 00:00:00', '2024-02-13 23:00:00', '2024-02-13 22:00:00', '2024-02-13 21:00:00', '2024-02-13 20:00:00', '2024-02-13 19:00:00', '2024-02-13 18:00:00', '2024-02-13 17:00:00', '2024-02-13 16:00:00', '2024-02-13 15:00:00', '2024-02-13 14:00:00', '2024-02-13 13:00:00', '2024-02-13 12:00:00', '2024-02-13 11:00:00', '2024-02-13 10:00:00', '2024-02-13 09:00:00', '2024-02-13 08:00:00', '2024-02-13 07:00:00', '2024-02-13 06:00:00', '2024-02-13 05:00:00', '2024-02-13 04:00:00', '2024-02-13 03:00:00', '2024-02-13 02:00:00', '2024-02-13 01:00:00', '2024-02-13 00:00:00', '2024-02-12 23:00:00', '2024-02-12 22:00:00', '2024-02-12 21:00:00', '2024-02-12 20:00:00', '2024-02-12 19:00:00', '2024-02-12 18:00:00', '2024-02-12 17:00:00', '2024-02-12 16:00:00', '2024-02-12 15:00:00', '2024-02-12 14:00:00', '2024-02-12 13:00:00', '2024-02-12 12:00:00', '2024-02-12 11:00:00', '2024-02-12 10:00:00']"
Trinidad-and-tobago, Scarborough International Airport (TAB/TTCP) ,"['TTCP 150800Z 10011KT 9999 FEW016 27/22 Q1014 NOSIG', 'TTCP 150600Z 10011KT 9999 FEW016 27/23 Q1014 NOSIG', 'TTCP 150500Z 10012KT 9999 FEW016 27/23 Q1014 NOSIG', 'TTCP 150400Z 10013KT 9999 FEW016 27/23 Q1015 NOSIG', 'TTCP 150300Z 10013KT 9999 FEW016 27/24 Q1015 NOSIG', 'TTCP 150200Z 09014KT 9999 FEW018 27/23 Q1015 NOSIG', 'TTCP 150100Z 09013KT 9999 FEW018 27/24 Q1015 NOSIG', 'TTCP 150000Z 09013KT 9999 FEW018 28/24 Q1015 NOSIG', 'TTCP 142300Z 10012KT 9999 FEW018 28/23 Q1014 NOSIG', 'TTCP 142200Z 10011KT 9999 FEW020 29/24 Q1014 NOSIG', 'TTCP 142100Z 10012KT 9999 FEW022 30/24 Q1014 NOSIG', 'TTCP 142000Z 10014KT 9999 FEW022 30/24 Q1014 NOSIG', 'TTCP 141900Z 09015KT 9999 FEW022 31/24 Q1014 NOSIG', 'TTCP 141800Z 10013KT 9999 FEW022 32/24 Q1015 NOSIG', 'TTCP 141700Z 07006KT 9999 FEW022 31/24 Q1015 NOSIG', 'TTCP 141600Z 07005KT 9999 FEW024 31/24 Q1016 NOSIG', 'TTCP 141500Z 07006KT 9999 FEW022 31/24 Q1017 NOSIG', 'TTCP 141400Z 06009KT 9999 FEW022 30/24 Q1017 NOSIG', 'TTCP 141300Z 10013KT 9999 FEW020 30/24 Q1017 NOSIG', 'TTCP 141200Z 09010KT 9999 FEW018 27/24 Q1016 NOSIG', 'TTCP 141100Z 09010KT 9999 FEW018 27/23 Q1015 NOSIG', 'TTCP 141000Z 08009KT 9999 FEW016 27/23 Q1015 NOSIG', 'TTCP 140900Z 10009KT 9999 FEW016 27/22 Q1015 NOSIG', 'TTCP 140800Z 06006KT 9999 FEW016 26/22 Q1014 NOSIG', 'TTCP 140700Z 06006KT 9999 FEW016 27/23 Q1015 NOSIG', 'TTCP 140600Z 06006KT 9999 FEW016 27/23 Q1015 NOSIG', 'TTCP 140500Z 06004KT 9999 FEW016 27/23 Q1015 NOSIG', 'TTCP 140400Z 05005KT 9999 FEW016 SCT038 27/23 Q1016 NOSIG', 'TTCP 140300Z 06007KT 9999 FEW016 27/23 Q1015 NOSIG', 'TTCP 140200Z 05005KT 9999 FEW018 SCT038 27/23 Q1016 NOSIG', 'TTCP 140100Z 05005KT 9999 FEW018 27/23 Q1015 NOSIG', 'TTCP 140000Z 06006KT 9999 FEW018 27/23 Q1014 NOSIG', 'TTCP 132300Z 07008KT 9999 FEW020 28/23 Q1014 NOSIG', 'TTCP 132200Z 09011KT 9999 FEW020 29/23 Q1014 NOSIG', 'TTCP 132100Z 09014KT 9999 FEW022 30/23 Q1013 NOSIG', 'TTCP 132000Z 09016KT 9999 FEW022 30/23 Q1013 NOSIG', 'TTCP 131900Z 09016KT 9999 FEW022 30/23 Q1013 NOSIG', 'TTCP 131700Z 10015KT 9999 FEW022 31/24 Q1014 NOSIG', 'TTCP 131600Z 10016KT 9999 FEW022 30/24 Q1015 NOSIG', 'TTCP 131500Z 10015KT 9999 FEW020 30/23 Q1016 NOSIG', 'TTCP 131400Z 09018KT 9999 FEW020 30/23 Q1016 NOSIG', 'TTCP 131300Z 09016KT 9999 FEW020 29/23 Q1016 NOSIG', 'TTCP 131200Z 09014KT 9999 FEW018 28/23 Q1015 NOSIG', 'TTCP 131100Z 08011KT 9999 FEW016 27/22 Q1015 NOSIG', 'TTCP 131000Z 06007KT 9999 FEW016 27/22 Q1014 NOSIG', 'TTCP 130900Z 07008KT 9999 FEW016 27/22 Q1014 NOSIG', 'TTCP 130800Z 08012KT 9999 FEW016 27/22 Q1013 NOSIG', 'TTCP 130700Z 08011KT 9999 FEW016 27/23 Q1013 NOSIG', 'TTCP 130600Z 08009KT 9999 FEW016 27/22 Q1014 NOSIG', 'TTCP 130500Z 09013KT 9999 FEW016 27/22 Q1014 NOSIG', 'TTCP 130400Z 06008KT 9999 FEW016 27/22 Q1015 NOSIG', 'TTCP 130300Z 04006KT 9999 FEW016 26/22 Q1015 NOSIG', 'TTCP 130200Z 06005KT 9999 FEW016 26/22 Q1015 NOSIG', 'TTCP 130100Z 07008KT 9999 FEW016 27/22 Q1015 NOSIG', 'TTCP 130000Z 07008KT 9999 FEW016 27/22 Q1014 NOSIG', 'TTCP 122300Z 06006KT 9999 FEW018 28/23 Q1014 NOSIG', 'TTCP 122200Z 09012KT 9999 FEW020 28/23 Q1013 NOSIG', 'TTCP 122100Z 09017KT 9999 FEW020 29/23 Q1013 NOSIG', 'TTCP 122000Z 09014KT 9999 FEW020 30/23 Q1013 NOSIG', 'TTCP 121900Z 10015KT 9999 FEW020 30/23 Q1013 NOSIG', 'TTCP 121800Z 09016KT 9999 FEW020 31/23 Q1013 NOSIG', 'TTCP 121700Z 09016KT 9999 FEW020 31/23 Q1015 NOSIG', 'TTCP 121600Z 10015KT 9999 FEW020 30/23 Q1015 NOSIG', 'TTCP 121500Z 10014KT 9999 FEW020 31/22 Q1016 NOSIG', 'TTCP 121400Z 09015KT 9999 FEW020 30/22 Q1016 NOSIG', 'TTCP 121300Z 09016KT 9999 FEW020 29/23 Q1016 NOSIG', 'TTCP 121200Z 09010KT 9999 FEW018 28/23 Q1015 NOSIG', 'TTCP 121100Z 09010KT 9999 FEW016 27/22 Q1014 NOSIG', 'TTCP 121000Z 08008KT 9999 FEW016 26/22 Q1014 NOSIG']","['2024-02-15 08:00:00', '2024-02-15 06:00:00', '2024-02-15 05:00:00', '2024-02-15 04:00:00', '2024-02-15 03:00:00', '2024-02-15 02:00:00', '2024-02-15 01:00:00', '2024-02-15 00:00:00', '2024-02-14 23:00:00', '2024-02-14 22:00:00', '2024-02-14 21:00:00', '2024-02-14 20:00:00', '2024-02-14 19:00:00', '2024-02-14 18:00:00', '2024-02-14 17:00:00', '2024-02-14 16:00:00', '2024-02-14 15:00:00', '2024-02-14 14:00:00', '2024-02-14 13:00:00', '2024-02-14 12:00:00', '2024-02-14 11:00:00', '2024-02-14 10:00:00', '2024-02-14 09:00:00', '2024-02-14 08:00:00', '2024-02-14 07:00:00', '2024-02-14 06:00:00', '2024-02-14 05:00:00', '2024-02-14 04:00:00', '2024-02-14 03:00:00', '2024-02-14 02:00:00', '2024-02-14 01:00:00', '2024-02-14 00:00:00', '2024-02-13 23:00:00', '2024-02-13 22:00:00', '2024-02-13 21:00:00', '2024-02-13 20:00:00', '2024-02-13 19:00:00', '2024-02-13 17:00:00', '2024-02-13 16:00:00', '2024-02-13 15:00:00', '2024-02-13 14:00:00', '2024-02-13 13:00:00', '2024-02-13 12:00:00', '2024-02-13 11:00:00', '2024-02-13 10:00:00', '2024-02-13 09:00:00', '2024-02-13 08:00:00', '2024-02-13 07:00:00', '2024-02-13 06:00:00', '2024-02-13 05:00:00', '2024-02-13 04:00:00', '2024-02-13 03:00:00', '2024-02-13 02:00:00', '2024-02-13 01:00:00', '2024-02-13 00:00:00', '2024-02-12 23:00:00', '2024-02-12 22:00:00', '2024-02-12 21:00:00', '2024-02-12 20:00:00', '2024-02-12 19:00:00', '2024-02-12 18:00:00', '2024-02-12 17:00:00', '2024-02-12 16:00:00', '2024-02-12 15:00:00', '2024-02-12 14:00:00', '2024-02-12 13:00:00', '2024-02-12 12:00:00', '2024-02-12 11:00:00', '2024-02-12 10:00:00']"
Tunisia, Djerba Zarzis International Airport (DJE/DTTJ) ,"['DTTJ 150830Z VRB02KT 9999 FEW023 17/11 Q1026 NOSIG', 'DTTJ 150800Z 24004KT 200V270 9999 FEW023 15/11 Q1026 NOSIG', 'DTTJ 150730Z 00000KT 9999 FEW023 13/10 Q1026 NOSIG', 'DTTJ 150700Z VRB02KT 9999 FEW023 10/09 Q1026 NOSIG', 'DTTJ 150630Z VRB02KT CAVOK 10/09 Q1025 NOSIG', 'DTTJ 150600Z VRB01KT CAVOK 09/07 Q1025 NOSIG', 'DTTJ 150530Z 27001KT CAVOK 09/08 Q1025 NOSIG', 'DTTJ 150500Z VRB02KT CAVOK 11/09 Q1025 NOSIG', 'DTTJ 150430Z VRB01KT CAVOK 11/09 Q1025 NOSIG', 'DTTJ 150400Z VRB01KT CAVOK 12/10 Q1025 NOSIG', 'DTTJ 150330Z 24003KT 190V260 CAVOK 11/09 Q1025 NOSIG', 'DTTJ 150300Z VRB02KT CAVOK 10/08 Q1025 NOSIG', 'DTTJ 150230Z 21003KT CAVOK 11/08 Q1025 NOSIG', 'DTTJ 150200Z 19003KT CAVOK 10/07 Q1025 NOSIG', 'DTTJ 150130Z 21002KT CAVOK 11/08 Q1025 NOSIG', 'DTTJ 150100Z 21001KT CAVOK 11/07 Q1026 NOSIG', 'DTTJ 150030Z 24002KT CAVOK 12/08 Q1026 NOSIG', 'DTTJ 150000Z 24002KT CAVOK 12/08 Q1026 NOSIG', 'DTTJ 142330Z 22002KT CAVOK 12/08 Q1026 NOSIG', 'DTTJ 142300Z 21003KT CAVOK 12/07 Q1026 NOSIG', 'DTTJ 142230Z 20003KT CAVOK 12/07 Q1026 NOSIG', 'DTTJ 142200Z 21004KT CAVOK 13/07 Q1026 NOSIG', 'DTTJ 142130Z 20003KT CAVOK 13/07 Q1026 NOSIG', 'DTTJ 142100Z 20003KT CAVOK 13/07 Q1026 NOSIG', 'DTTJ 142030Z /////KT CAVOK Q1026 NOSIG', 'DTTJ 142000Z 20003KT 150V220 CAVOK 13/07 Q1026 NOSIG', 'DTTJ 141930Z 07005KT CAVOK 14/08 Q1026 NOSIG', 'DTTJ 141900Z 07004KT CAVOK 14/07 Q1025 NOSIG', 'DTTJ 141830Z 07005KT CAVOK 15/07 Q1025 NOSIG', 'DTTJ 141800Z 08003KT 060V120 CAVOK 15/08 Q1025 NOSIG', 'DTTJ 141730Z 17001KT CAVOK 15/08 Q1025 NOSIG', 'DTTJ 141700Z 24003KT CAVOK 16/08 Q1025 NOSIG', 'DTTJ 141630Z 26004KT CAVOK 17/06 Q1025 NOSIG', 'DTTJ 141600Z 25004KT 220V280 CAVOK 17/08 Q1024 NOSIG', 'DTTJ 141530Z 26007KT 230V290 CAVOK 17/08 Q1025 NOSIG', 'DTTJ 141500Z 28007KT 250V310 CAVOK 17/08 Q1025 NOSIG', 'DTTJ 141430Z 29008KT 260V320 CAVOK 17/09 Q1025 NOSIG', 'DTTJ 141400Z 33007KT CAVOK 17/07 Q1025 NOSIG', 'DTTJ 141330Z 34007KT 310V030 CAVOK 17/07 Q1025 NOSIG', 'DTTJ 141300Z 36009KT CAVOK 17/07 Q1025 NOSIG', 'DTTJ 141230Z 36010KT CAVOK 17/07 Q1025', 'DTTJ 141200Z 35013KT 9999 FEW020 17/07 Q1025', 'DTTJ 141130Z 36014KT 9999 FEW020 17/07 Q1025', 'DTTJ 141100Z 36015KT 9999 FEW020 17/07 Q1026', 'DTTJ 141030Z 36016KT 9999 FEW020 16/08 Q1026', 'DTTJ 141000Z 36016KT 9999 FEW020 16/08 Q1026', 'DTTJ 140930Z 35018KT 9999 FEW020 16/08 Q1026', 'DTTJ 140900Z 36020KT 9999 FEW020 16/07 Q1026', 'DTTJ 140830Z 36019KT 9999 FEW020 15/08 Q1026', 'DTTJ 140800Z 36019KT 9999 FEW020 15/08 Q1025', 'DTTJ 140730Z 36019KT 9999 FEW020 15/08 Q1025', 'DTTJ 140700Z 35019KT 9999 FEW020 15/07 Q1025', 'DTTJ 140630Z 36021KT 9999 FEW020 14/07 Q1025', 'DTTJ 140600Z 36020KT 9999 FEW020 14/08 Q1024', 'DTTJ 140530Z 01020KT 9999 FEW020 14/08 Q1024', 'DTTJ 140500Z 01017KT 9999 R27///// FEW020 15/08 Q1024', 'DTTJ 140430Z 36017KT 9999 FEW020 15/08 Q1023', 'DTTJ 140400Z 01017KT 9999 FEW020 15/09 Q1023', 'DTTJ 140300Z 36017KT 9999 R27///// FEW020 15/09 Q1022', 'DTTJ 140230Z 36016KT 9999 FEW020 15/08 Q1023', 'DTTJ 140200Z 36018KT 9999 FEW020 15/08 Q1023', 'DTTJ 140130Z /////KT 9999 R27///// FEW020 Q1023', 'DTTJ 140030Z 01012KT 9999 FEW020 16/09 Q1023', 'DTTJ 140000Z 01010KT 9999 FEW020 16/09 Q1023', 'DTTJ 132330Z 02008KT 9999 FEW020 16/09 Q1022', 'DTTJ 132300Z 04009KT 9999 FEW020 15/09 Q1022', 'DTTJ 132230Z VRB02KT 9999 FEW020 16/11 Q1022', 'DTTJ 132200Z 01006KT 9999 FEW020 16/10 Q1022', 'DTTJ 132130Z 35008KT 9999 FEW020 16/09 Q1022', 'DTTJ 132100Z VRB01KT 9999 FEW020 14/07 Q1021', 'DTTJ 132030Z 34004KT 9999 FEW020 16/08 Q1021', 'DTTJ 132000Z 36002KT 9999 FEW020 15/07 Q1021', 'DTTJ 131930Z 32002KT 9999 FEW020 16/07 Q1020', 'DTTJ 131900Z 25002KT 9999 FEW020 17/07 Q1020', 'DTTJ 131830Z 17002KT 9999 FEW020 16/07 Q1020', 'DTTJ 131800Z /////KT 9999 R27///// FEW020 Q1020', 'DTTJ 131730Z 20003KT 9999 FEW020 18/07 Q1019', 'DTTJ 131700Z 24001KT 9999 FEW020 19/07 Q1019', 'DTTJ 131630Z VRB02KT 9999 FEW020 20/07 Q1019', 'DTTJ 131600Z 23004KT 9999 FEW020 21/07 Q1019', 'DTTJ 131530Z 25005KT 9999 FEW020 20/07 Q1019', 'DTTJ 131500Z 24006KT 9999 FEW020 SCT040 20/08 Q1019', 'DTTJ 131430Z 26006KT 220V280 9999 FEW020 SCT040 19/07 Q1018', 'DTTJ 131400Z 28006KT 220V340 9999 FEW020 SCT040 20/07 Q1019', 'DTTJ 131330Z 28003KT 180V350 CAVOK 20/08 Q1019', 'DTTJ 131300Z 33007KT 300V010 CAVOK 20/08 Q1019', 'DTTJ 131230Z 31008KT 280V340 CAVOK 19/08 Q1019', 'DTTJ 131200Z 31007KT 270V340 CAVOK 19/09 Q1020', 'DTTJ 131130Z 31010KT CAVOK 18/09 Q1020', 'DTTJ 131100Z 32008KT CAVOK 18/09 Q1020', 'DTTJ 131030Z 32009KT CAVOK 18/10 Q1020', 'DTTJ 131000Z 32011KT CAVOK 18/10 Q1020', 'DTTJ 130930Z 31011KT CAVOK 18/10 Q1020', 'DTTJ 130900Z 31012KT CAVOK 18/11 Q1019', 'DTTJ 130830Z 31011KT CAVOK 18/10 Q1019', 'DTTJ 130800Z 33013KT 8000 NSC 17/10 Q1018', 'DTTJ 130730Z 32013KT 8000 NSC 17/10 Q1017', 'DTTJ 130700Z 32016KT 8000 NSC 16/10 Q1017', 'DTTJ 130630Z 33010KT 8000 NSC 15/11 Q1017', 'DTTJ 130600Z 33009KT 8000 NSC 15/11 Q1017', 'DTTJ 130530Z 30004KT 8000 FEW026 15/11 Q1016', 'DTTJ 130500Z 33010KT 8000 SCT026 15/11 Q1016', 'DTTJ 130430Z 31012KT 8000 SCT026 15/11 Q1015', 'DTTJ 130400Z 31009KT 8000 SCT026 16/11 Q1015', 'DTTJ 130300Z 33007KT 8000 SCT026 16/12 Q1015', 'DTTJ 130230Z 34013KT 8000 SCT026 16/12 Q1015', 'DTTJ 130200Z 35008KT 8000 SCT026 15/12 Q1014', 'DTTJ 130130Z VRB02KT 8000 SCT026 15/12 Q1014', 'DTTJ 130100Z 36006KT 8000 SCT026 16/13 Q1013', 'DTTJ 130030Z 34008KT 8000 SCT026 17/13 Q1013', 'DTTJ 130000Z 32009KT 8000 SCT026 16/13 Q1013', 'DTTJ 122330Z 31009KT 8000 SCT026 17/12 Q1013', 'DTTJ 122300Z 32011KT 8000 SCT026 16/12 Q1013', 'DTTJ 122230Z 30006KT 270V340 8000 SCT026 17/12 Q1012', 'DTTJ 122200Z 26007KT 9999 SCT026 17/11 Q1012 NOSIG', 'DTTJ 122130Z 24007KT 9999 SCT026 18/10 Q1012 NOSIG', 'DTTJ 122100Z 24007KT 9999 SCT026 18/10 Q1012 NOSIG', 'DTTJ 122030Z 20005KT 180V250 9999 SCT026 17/11 Q1012 NOSIG', 'DTTJ 122000Z 26004KT 9999 SCT026 19/10 Q1012 NOSIG', 'DTTJ 121930Z 24004KT 9999 SCT026 17/11 Q1012 NOSIG', 'DTTJ 121900Z 21004KT 9999 SCT026 17/11 Q1012 NOSIG', 'DTTJ 121830Z 18004KT 130V230 9999 SCT026 17/10 Q1012 NOSIG', 'DTTJ 121800Z 22004KT 170V260 9999 SCT026 17/10 Q1011 NOSIG', 'DTTJ 121730Z 25004KT 210V280 9999 SCT026 18/10 Q1011 NOSIG', 'DTTJ 121700Z 25004KT 220V290 9999 R27///// SCT026 18/10 Q1011 NOSIG', 'DTTJ 121630Z 27003KT 9999 SCT026 18/10 Q1011 NOSIG', 'DTTJ 121600Z 25009KT 9999 SCT026 19/09 Q1011 NOSIG', 'DTTJ 121530Z 26011KT 9999 BKN026 18/10 Q1011 NOSIG', 'DTTJ 121500Z 25010KT 9999 BKN026 18/11 Q1011 NOSIG', 'DTTJ 121430Z 25010KT CAVOK 19/09 Q1011 NOSIG', 'DTTJ 121400Z 26010KT CAVOK 18/09 Q1011 NOSIG', 'DTTJ 121330Z 25010KT CAVOK 19/08 Q1012 NOSIG', 'DTTJ 121300Z 25011KT CAVOK 19/07 Q1012 NOSIG', 'DTTJ 121230Z 27009KT CAVOK 19/06 Q1013 NOSIG', 'DTTJ 121200Z 26010KT CAVOK 19/05 Q1013 NOSIG', 'DTTJ 121130Z 26010KT 8000 NSC 18/05 Q1013 NOSIG', 'DTTJ 121100Z 25010KT 8000 NSC 18/06 Q1014 NOSIG', 'DTTJ 121030Z 27009KT 8000 NSC 17/05 Q1014 NOSIG', 'DTTJ 121000Z 27011KT 8000 NSC 16/07 Q1014 NOSIG', 'DTTJ 120930Z 28012KT 8000 NSC 15/07 Q1015 NOSIG']","['2024-02-15 08:30:00', '2024-02-15 08:00:00', '2024-02-15 07:30:00', '2024-02-15 07:00:00', '2024-02-15 06:30:00', '2024-02-15 06:00:00', '2024-02-15 05:30:00', '2024-02-15 05:00:00', '2024-02-15 04:30:00', '2024-02-15 04:00:00', '2024-02-15 03:30:00', '2024-02-15 03:00:00', '2024-02-15 02:30:00', '2024-02-15 02:00:00', '2024-02-15 01:30:00', '2024-02-15 01:00:00', '2024-02-15 00:30:00', '2024-02-15 00:00:00', '2024-02-14 23:30:00', '2024-02-14 23:00:00', '2024-02-14 22:30:00', '2024-02-14 22:00:00', '2024-02-14 21:30:00', '2024-02-14 21:00:00', '2024-02-14 20:30:00', '2024-02-14 20:00:00', '2024-02-14 19:30:00', '2024-02-14 19:00:00', '2024-02-14 18:30:00', '2024-02-14 18:00:00', '2024-02-14 17:30:00', '2024-02-14 17:00:00', '2024-02-14 16:30:00', '2024-02-14 16:00:00', '2024-02-14 15:30:00', '2024-02-14 15:00:00', '2024-02-14 14:30:00', '2024-02-14 14:00:00', '2024-02-14 13:30:00', '2024-02-14 13:00:00', '2024-02-14 12:30:00', '2024-02-14 12:00:00', '2024-02-14 11:30:00', '2024-02-14 11:00:00', '2024-02-14 10:30:00', '2024-02-14 10:00:00', '2024-02-14 09:30:00', '2024-02-14 09:00:00', '2024-02-14 08:30:00', '2024-02-14 08:00:00', '2024-02-14 07:30:00', '2024-02-14 07:00:00', '2024-02-14 06:30:00', '2024-02-14 06:00:00', '2024-02-14 05:30:00', '2024-02-14 05:00:00', '2024-02-14 04:30:00', '2024-02-14 04:00:00', '2024-02-14 03:00:00', '2024-02-14 02:30:00', '2024-02-14 02:00:00', '2024-02-14 01:30:00', '2024-02-14 00:30:00', '2024-02-14 00:00:00', '2024-02-13 23:30:00', '2024-02-13 23:00:00', '2024-02-13 22:30:00', '2024-02-13 22:00:00', '2024-02-13 21:30:00', '2024-02-13 21:00:00', '2024-02-13 20:30:00', '2024-02-13 20:00:00', '2024-02-13 19:30:00', '2024-02-13 19:00:00', '2024-02-13 18:30:00', '2024-02-13 18:00:00', '2024-02-13 17:30:00', '2024-02-13 17:00:00', '2024-02-13 16:30:00', '2024-02-13 16:00:00', '2024-02-13 15:30:00', '2024-02-13 15:00:00', '2024-02-13 14:30:00', '2024-02-13 14:00:00', '2024-02-13 13:30:00', '2024-02-13 13:00:00', '2024-02-13 12:30:00', '2024-02-13 12:00:00', '2024-02-13 11:30:00', '2024-02-13 11:00:00', '2024-02-13 10:30:00', '2024-02-13 10:00:00', '2024-02-13 09:30:00', '2024-02-13 09:00:00', '2024-02-13 08:30:00', '2024-02-13 08:00:00', '2024-02-13 07:30:00', '2024-02-13 07:00:00', '2024-02-13 06:30:00', '2024-02-13 06:00:00', '2024-02-13 05:30:00', '2024-02-13 05:00:00', '2024-02-13 04:30:00', '2024-02-13 04:00:00', '2024-02-13 03:00:00', '2024-02-13 02:30:00', '2024-02-13 02:00:00', '2024-02-13 01:30:00', '2024-02-13 01:00:00', '2024-02-13 00:30:00', '2024-02-13 00:00:00', '2024-02-12 23:30:00', '2024-02-12 23:00:00', '2024-02-12 22:30:00', '2024-02-12 22:00:00', '2024-02-12 21:30:00', '2024-02-12 21:00:00', '2024-02-12 20:30:00', '2024-02-12 20:00:00', '2024-02-12 19:30:00', '2024-02-12 19:00:00', '2024-02-12 18:30:00', '2024-02-12 18:00:00', '2024-02-12 17:30:00', '2024-02-12 17:00:00', '2024-02-12 16:30:00', '2024-02-12 16:00:00', '2024-02-12 15:30:00', '2024-02-12 15:00:00', '2024-02-12 14:30:00', '2024-02-12 14:00:00', '2024-02-12 13:30:00', '2024-02-12 13:00:00', '2024-02-12 12:30:00', '2024-02-12 12:00:00', '2024-02-12 11:30:00', '2024-02-12 11:00:00', '2024-02-12 10:30:00', '2024-02-12 10:00:00', '2024-02-12 09:30:00']"
Tunisia, Enfidha Hammamet International Airport (NBE/DTNH) ,"['DTNH 150830Z 22003KT 190V270 CAVOK 12/09 Q1026 NOSIG', 'DTNH 150800Z VRB02KT CAVOK 09/08 Q1025 NOSIG', 'DTNH 150730Z VRB02KT CAVOK 07/07 Q1025 NOSIG', 'DTNH 150700Z VRB02KT CAVOK 06/05 Q1025 NOSIG', 'DTNH 150630Z 25004KT CAVOK 04/04 Q1025 NOSIG', 'DTNH 150600Z 28004KT 9999 FEW026 04/04 Q1025', 'DTNH 150530Z 27003KT 9999 FEW026 05/04 Q1025', 'DTNH 150500Z 28006KT 9999 FEW026 05/04 Q1025', 'DTNH 150430Z 26006KT 9999 FEW026 05/04 Q1025', 'DTNH 150400Z 25006KT 9999 FEW026 05/04 Q1025', 'DTNH 150330Z 26008KT 9999 FEW026 05/04 Q1025', 'DTNH 150300Z 25006KT 9999 FEW026 05/04 Q1025', 'DTNH 150230Z 24004KT 9999 FEW026 07/06 Q1025', 'DTNH 150200Z AUTO 24006KT /// 07/06 Q1025', 'DTNH 150130Z 26005KT 9999 FEW026 07/05 Q1025 NOSIG', 'DTNH 150100Z 16001KT 9999 FEW026 08/06 Q1025 NOSIG', 'DTNH 150030Z 34007KT 9999 FEW026 09/07 Q1025 NOSIG', 'DTNH 150000Z 36003KT 320V030 9999 FEW026 10/07 Q1026 NOSIG', 'DTNH 142330Z 01006KT 9999 FEW026 10/07 Q1026 NOSIG', 'DTNH 142300Z 36003KT 310V050 9999 FEW026 11/08 Q1026 NOSIG', 'DTNH 142230Z VRB02KT 9999 FEW026 10/07 Q1026 NOSIG', 'DTNH 142200Z 35007KT 9999 FEW026 11/08 Q1026 NOSIG', 'DTNH 142130Z 36006KT 9999 FEW026 12/08 Q1026 NOSIG', 'DTNH 142100Z 02004KT 9999 FEW026 12/08 Q1026 NOSIG', 'DTNH 142030Z 05003KT 330V110 9999 FEW026 12/08 Q1026 NOSIG', 'DTNH 142000Z 35007KT 9999 FEW026 13/08 Q1026 NOSIG', 'DTNH 141930Z 35006KT 9999 FEW026 13/07 Q1026 NOSIG', 'DTNH 141900Z 35007KT 9999 FEW026 13/08 Q1026 NOSIG', 'DTNH 141830Z 36010KT 9999 FEW026 14/08 Q1026 NOSIG', 'DTNH 141800Z 36007KT 9999 FEW026 15/08 Q1025 NOSIG', 'DTNH 141730Z 35010KT 9999 FEW026 16/08 Q1025 NOSIG', 'DTNH 141700Z 36012KT 9999 FEW026 17/08 Q1025 NOSIG', 'DTNH 141630Z 34015KT 9999 FEW026 18/08 Q1025 NOSIG', 'DTNH 141600Z 35016KT 9999 FEW026 19/07 Q1024 NOSIG', 'DTNH 141530Z 35014KT 9999 FEW026 19/07 Q1024 NOSIG', 'DTNH 141500Z 35015KT 9999 FEW026 19/06 Q1024 NOSIG', 'DTNH 141430Z 35014KT 320V020 9999 FEW026 20/06 Q1024 NOSIG', 'DTNH 141400Z 35013KT 9999 FEW033 20/06 Q1024 NOSIG', 'DTNH 141330Z 34015KT 9999 FEW033 20/07 Q1024 NOSIG', 'DTNH 141300Z 34016KT 9999 FEW033 19/07 Q1024 NOSIG', 'DTNH 141200Z 32016KT 9999 SCT033 18/07 Q1025 NOSIG', 'DTNH 141130Z 34015KT 9999 SCT033 18/07 Q1025 NOSIG', 'DTNH 141100Z 34016KT 9999 SCT033 18/08 Q1025 NOSIG', 'DTNH 141030Z 35016KT 9999 SCT033 18/07 Q1026 NOSIG', 'DTNH 141000Z 35018KT 9999 SCT033 17/08 Q1025 NOSIG', 'DTNH 140900Z 33018KT 8000 NSC 16/08 Q1025 NOSIG', 'DTNH 140830Z 34014KT 8000 NSC 16/08 Q1025 NOSIG', 'DTNH 140800Z 34009KT 8000 NSC 15/08 Q1025 NOSIG', 'DTNH 140730Z 31003KT 270V350 8000 NSC 14/08 Q1025 NOSIG', 'DTNH 140700Z 33006KT 8000 NSC 13/07 Q1025 NOSIG', 'DTNH 140630Z 33009KT 8000 NSC 12/07 Q1025 NOSIG', 'DTNH 140600Z 33010KT 8000 NSC 12/07 Q1024 NOSIG', 'DTNH 140530Z 33010KT 8000 NSC 12/08 Q1024 NOSIG', 'DTNH 140500Z 33012KT 8000 NSC 11/08 Q1024 NOSIG', 'DTNH 140430Z 35009KT 8000 NSC 12/08 Q1023 NOSIG', 'DTNH 140400Z 33011KT 8000 NSC 12/08 Q1023 NOSIG', 'DTNH 140330Z 33012KT 8000 NSC 12/08 Q1023 NOSIG', 'DTNH 140300Z 34010KT 8000 NSC 13/08 Q1023 NOSIG', 'DTNH 140230Z 31004KT 240V350 8000 NSC 12/07 Q1023 NOSIG', 'DTNH 140200Z 34003KT 260V060 8000 NSC 11/07 Q1023 NOSIG', 'DTNH 140130Z 35009KT 8000 NSC 12/07 Q1023 NOSIG', 'DTNH 140100Z 34009KT 8000 NSC 12/07 Q1023 NOSIG', 'DTNH 140000Z 02007KT 310V110 8000 SCT030 13/07 Q1023 NOSIG', 'DTNH 132330Z VRB03KT 8000 SCT030 13/07 Q1023 NOSIG', 'DTNH 132300Z 36008KT 8000 SCT030 13/08 Q1023 NOSIG', 'DTNH 132230Z 35010KT 8000 SCT030 13/08 Q1023 NOSIG', 'DTNH 132200Z AUTO 34010KT /// 13/08 Q1022', 'DTNH 132130Z AUTO 35011KT /// 14/08 Q1022', 'DTNH 132100Z 35014KT 9999 FEW030 SCT040 14/08 Q1022 NOSIG', 'DTNH 132030Z 33010KT 9999 FEW030 SCT040 15/08 Q1022 NOSIG', 'DTNH 132000Z 31016KT 9999 FEW030 SCT040 16/07 Q1022 NOSIG', 'DTNH 131930Z 31014KT 9999 FEW030 SCT040 16/07 Q1021 NOSIG', 'DTNH 131900Z 31015KT 9999 FEW030 SCT040 16/06 Q1021 NOSIG', 'DTNH 131830Z 31015KT 9999 FEW030 SCT040 16/06 Q1021 NOSIG', 'DTNH 131800Z 31009KT 9999 SCT030 SCT040 17/06 Q1020 NOSIG', 'DTNH 131730Z 31012KT 9999 SCT030 SCT040 17/06 Q1020 NOSIG', 'DTNH 131700Z 32018KT 9999 SCT030 SCT040 18/06 Q1020 NOSIG', 'DTNH 131630Z 31018KT 9999 SCT030 SCT040 19/06 Q1019 NOSIG', 'DTNH 131600Z 31019KT 9999 SCT030 SCT040 20/06 Q1019 NOSIG', 'DTNH 131530Z 31021KT 9999 SCT030 SCT040 20/06 Q1018 NOSIG', 'DTNH 131500Z 31018KT 9999 SCT030 SCT040 20/06 Q1018 NOSIG', 'DTNH 131430Z 31018KT 270V330 9999 SCT030 SCT040 20/07 Q1018 NOSIG', 'DTNH 131400Z 30017KT 9999 SCT030 SCT040 20/08 Q1018 NOSIG', 'DTNH 131330Z 31019KT 9999 SCT030 SCT040 21/08 Q1017 NOSIG', 'DTNH 131300Z 31020KT 9999 SCT020 SCT026 20/08 Q1017', 'DTNH 131230Z 30017KT 270V330 9999 SCT020 SCT026 19/08 Q1018', 'DTNH 131200Z 30016KT 9999 SCT020 SCT026 19/09 Q1018', 'DTNH 131130Z 30016KT 270V330 CAVOK 19/09 Q1018', 'DTNH 131100Z 31015KT CAVOK 19/09 Q1019', 'DTNH 131030Z 32016KT 9999 FEW020 19/09 Q1019', 'DTNH 131000Z 31014KT 9999 FEW020 17/07 Q1019', 'DTNH 130930Z 30012KT 270V330 9999 FEW020 18/10 Q1019', 'DTNH 130900Z 30010KT 9999 FEW020 16/09 Q1019', 'DTNH 130830Z 30005KT 260V010 9999 FEW020 16/10 Q1018', 'DTNH 130800Z 33013KT 9999 FEW020 16/09 Q1018', 'DTNH 130730Z 34013KT 9999 FEW020 15/10 Q1017', 'DTNH 130700Z 33011KT 300V010 9999 FEW020 15/10 Q1017', 'DTNH 130630Z AUTO 33010KT /// 14/09 Q1017', 'DTNH 130600Z AUTO 33014G24KT /// 14/09 Q1016', 'DTNH 130530Z AUTO 33014KT /// 14/10 Q1016', 'DTNH 130500Z AUTO 34018KT /// 14/11 Q1015', 'DTNH 130430Z 34015KT 9999 SCT020 SCT030 15/11 Q1015 NOSIG', 'DTNH 130400Z VRB02KT 9999 SCT020 SCT030 14/11 Q1014 NOSIG', 'DTNH 130330Z 30008KT 9999 SCT020 SCT030 15/10 Q1014 NOSIG', 'DTNH 130300Z 28004KT 9999 SCT020 SCT030 13/11 Q1013 NOSIG', 'DTNH 130230Z 26006KT 9999 SCT020 SCT030 13/10 Q1013 NOSIG', 'DTNH 130200Z 30007KT 9999 SCT026 12/10 Q1013', 'DTNH 130130Z 27006KT 9999 SCT026 11/10 Q1013', 'DTNH 130100Z VRB02KT 9999 SCT026 12/11 Q1013', 'DTNH 130030Z 29005KT 9999 SCT026 13/11 Q1013', 'DTNH 130000Z 27008KT 240V310 9999 SCT026 13/12 Q1013', 'DTNH 122330Z AUTO 25007KT /// 14/12 Q1013', 'DTNH 122300Z AUTO 26007KT /// 14/13 Q1013', 'DTNH 122230Z AUTO 26008KT /// 14/13 Q1012', 'DTNH 122200Z 28005KT 9999 SCT020 SCT026 14/12 Q1012', 'DTNH 122130Z 27005KT 9999 SCT020 SCT026 14/12 Q1012', 'DTNH 122100Z 29006KT 9999 SCT020 SCT026 15/13 Q1012', 'DTNH 122030Z 27008KT 9999 SCT020 SCT030 14/12 Q1012 NOSIG', 'DTNH 122000Z 27007KT 9999 SCT020 SCT030 15/13 Q1012 NOSIG', 'DTNH 121930Z 30003KT 9999 SCT020 SCT030 15/13 Q1011 NOSIG', 'DTNH 121900Z 28004KT 9999 SCT020 SCT030 15/13 Q1011 NOSIG', 'DTNH 121830Z 29008KT 9999 SCT020 SCT030 15/13 Q1011 NOSIG', 'DTNH 121800Z 29007KT 9999 SCT020 SCT030 15/13 Q1011 NOSIG', 'DTNH 121730Z 27010KT 9999 SCT020 SCT030 16/12 Q1010 NOSIG', 'DTNH 121700Z 30006KT 9999 SCT020 SCT030 18/06 Q1010 NOSIG', 'DTNH 121630Z 29005KT 9999 SCT020 SCT030 18/05 Q1010 NOSIG', 'DTNH 121600Z 28005KT 250V320 9999 SCT020 SCT030 19/04 Q1009 NOSIG', 'DTNH 121530Z 28006KT 240V300 9999 SCT020 SCT030 20/04 Q1010 NOSIG', 'DTNH 121500Z 26007KT 9999 SCT020 SCT030 20/03 Q1010 NOSIG', 'DTNH 121430Z 24010KT 210V280 9999 SCT020 SCT030 19/03 Q1010 NOSIG', 'DTNH 121400Z 23009KT 200V260 9999 SCT020 SCT030 19/04 Q1010 NOSIG', 'DTNH 121300Z 25008KT 200V300 9999 FEW033 19/04 Q1010', 'DTNH 121230Z 22008KT 180V260 9999 FEW033 18/04 Q1011', 'DTNH 121200Z 23008KT 9999 FEW033 17/05 Q1011', 'DTNH 121130Z 23006KT 9999 FEW033 16/04 Q1012', 'DTNH 121100Z 24012KT 9999 FEW033 16/05 Q1012', 'DTNH 121030Z 25008KT 9999 FEW033 16/04 Q1012', 'DTNH 121000Z 25009KT 9999 FEW033 15/05 Q1013', 'DTNH 120930Z 27007KT 9999 FEW033 14/05 Q1013']","['2024-02-15 08:30:00', '2024-02-15 08:00:00', '2024-02-15 07:30:00', '2024-02-15 07:00:00', '2024-02-15 06:30:00', '2024-02-15 06:00:00', '2024-02-15 05:30:00', '2024-02-15 05:00:00', '2024-02-15 04:30:00', '2024-02-15 04:00:00', '2024-02-15 03:30:00', '2024-02-15 03:00:00', '2024-02-15 02:30:00', '2024-02-15 02:00:00', '2024-02-15 01:30:00', '2024-02-15 01:00:00', '2024-02-15 00:30:00', '2024-02-15 00:00:00', '2024-02-14 23:30:00', '2024-02-14 23:00:00', '2024-02-14 22:30:00', '2024-02-14 22:00:00', '2024-02-14 21:30:00', '2024-02-14 21:00:00', '2024-02-14 20:30:00', '2024-02-14 20:00:00', '2024-02-14 19:30:00', '2024-02-14 19:00:00', '2024-02-14 18:30:00', '2024-02-14 18:00:00', '2024-02-14 17:30:00', '2024-02-14 17:00:00', '2024-02-14 16:30:00', '2024-02-14 16:00:00', '2024-02-14 15:30:00', '2024-02-14 15:00:00', '2024-02-14 14:30:00', '2024-02-14 14:00:00', '2024-02-14 13:30:00', '2024-02-14 13:00:00', '2024-02-14 12:00:00', '2024-02-14 11:30:00', '2024-02-14 11:00:00', '2024-02-14 10:30:00', '2024-02-14 10:00:00', '2024-02-14 09:00:00', '2024-02-14 08:30:00', '2024-02-14 08:00:00', '2024-02-14 07:30:00', '2024-02-14 07:00:00', '2024-02-14 06:30:00', '2024-02-14 06:00:00', '2024-02-14 05:30:00', '2024-02-14 05:00:00', '2024-02-14 04:30:00', '2024-02-14 04:00:00', '2024-02-14 03:30:00', '2024-02-14 03:00:00', '2024-02-14 02:30:00', '2024-02-14 02:00:00', '2024-02-14 01:30:00', '2024-02-14 01:00:00', '2024-02-14 00:00:00', '2024-02-13 23:30:00', '2024-02-13 23:00:00', '2024-02-13 22:30:00', '2024-02-13 22:00:00', '2024-02-13 21:30:00', '2024-02-13 21:00:00', '2024-02-13 20:30:00', '2024-02-13 20:00:00', '2024-02-13 19:30:00', '2024-02-13 19:00:00', '2024-02-13 18:30:00', '2024-02-13 18:00:00', '2024-02-13 17:30:00', '2024-02-13 17:00:00', '2024-02-13 16:30:00', '2024-02-13 16:00:00', '2024-02-13 15:30:00', '2024-02-13 15:00:00', '2024-02-13 14:30:00', '2024-02-13 14:00:00', '2024-02-13 13:30:00', '2024-02-13 13:00:00', '2024-02-13 12:30:00', '2024-02-13 12:00:00', '2024-02-13 11:30:00', '2024-02-13 11:00:00', '2024-02-13 10:30:00', '2024-02-13 10:00:00', '2024-02-13 09:30:00', '2024-02-13 09:00:00', '2024-02-13 08:30:00', '2024-02-13 08:00:00', '2024-02-13 07:30:00', '2024-02-13 07:00:00', '2024-02-13 06:30:00', '2024-02-13 06:00:00', '2024-02-13 05:30:00', '2024-02-13 05:00:00', '2024-02-13 04:30:00', '2024-02-13 04:00:00', '2024-02-13 03:30:00', '2024-02-13 03:00:00', '2024-02-13 02:30:00', '2024-02-13 02:00:00', '2024-02-13 01:30:00', '2024-02-13 01:00:00', '2024-02-13 00:30:00', '2024-02-13 00:00:00', '2024-02-12 23:30:00', '2024-02-12 23:00:00', '2024-02-12 22:30:00', '2024-02-12 22:00:00', '2024-02-12 21:30:00', '2024-02-12 21:00:00', '2024-02-12 20:30:00', '2024-02-12 20:00:00', '2024-02-12 19:30:00', '2024-02-12 19:00:00', '2024-02-12 18:30:00', '2024-02-12 18:00:00', '2024-02-12 17:30:00', '2024-02-12 17:00:00', '2024-02-12 16:30:00', '2024-02-12 16:00:00', '2024-02-12 15:30:00', '2024-02-12 15:00:00', '2024-02-12 14:30:00', '2024-02-12 14:00:00', '2024-02-12 13:00:00', '2024-02-12 12:30:00', '2024-02-12 12:00:00', '2024-02-12 11:30:00', '2024-02-12 11:00:00', '2024-02-12 10:30:00', '2024-02-12 10:00:00', '2024-02-12 09:30:00']"
Tunisia, Gabes Matmata International Airport (GAE/DTTG) ,"['DTTG 150800Z 26005KT CAVOK 10/02 Q1026', 'DTTG 150700Z 25002KT CAVOK 07/01 Q1026', 'DTTG 150600Z 23006KT CAVOK 08/01 Q1026', 'DTTG 150500Z 22005KT CAVOK 06/01 Q1025', 'DTTG 150400Z 19003KT CAVOK 05/M00 Q1025', 'DTTG 150300Z 15003KT CAVOK 07/00 Q1025', 'DTTG 150200Z 13003KT 120V180 CAVOK 07/01 Q1025', 'DTTG 150000Z 24005KT 9999 FEW020 09/02 Q1026', 'DTTG 142300Z VRB02KT 9999 FEW020 10/02 Q1026', 'DTTG 142200Z 18007KT 9999 FEW020 11/02 Q1026', 'DTTG 142100Z 17007KT 9999 FEW020 12/02 Q1026', 'DTTG 142000Z 15007KT 9999 FEW020 13/02 Q1026', 'DTTG 141900Z 12005KT 9999 FEW020 12/02 Q1025', 'DTTG 141800Z 11006KT 9999 FEW020 14/03 Q1025', 'DTTG 141700Z 09005KT 9999 FEW020 17/03 Q1025', 'DTTG 141600Z 07004KT 030V100 9999 FEW020 19/03 Q1024', 'DTTG 141500Z 35006KT 300V030 9999 FEW020 20/01 Q1024', 'DTTG 141400Z 36006KT 300V040 9999 FEW020 19/02 Q1025', 'DTTG 141300Z VRB04G14KT 9999 FEW020 19/02 Q1025', 'DTTG 141200Z 01006KT 330V040 9999 FEW020 18/03 Q1026', 'DTTG 141100Z 05005KT 350V100 9999 FEW020 17/05 Q1026', 'DTTG 140900Z 05005KT 010V100 9999 FEW020 15/06 Q1027', 'DTTG 140800Z 09004KT 9999 FEW030 13/07 Q1026', 'DTTG 140700Z 10005KT 9999 FEW030 09/06 Q1025', 'DTTG 140600Z 11005KT 9999 FEW030 07/05 Q1025', 'DTTG 140500Z 11006KT 9999 FEW030 08/06 Q1024', 'DTTG 140400Z 10004KT 9999 FEW030 08/05 Q1024', 'DTTG 140300Z 11007KT 9999 FEW030 10/06 Q1023', 'DTTG 140200Z 11006KT 9999 FEW030 11/05 Q1023', 'DTTG 140100Z 10007KT 9999 FEW030 11/04 Q1023', 'DTTG 140000Z 09005KT 9999 FEW030 12/04 Q1023', 'DTTG 132300Z 04003KT 9999 FEW030 12/04 Q1023', 'DTTG 132200Z 02004KT 9999 FEW030 13/03 Q1022', 'DTTG 132100Z 01005KT 9999 FEW030 14/03 Q1022', 'DTTG 132000Z VRB02KT 9999 FEW030 15/03 Q1021', 'DTTG 131900Z 22003KT 160V270 9999 FEW030 16/03 Q1021', 'DTTG 131800Z 31004KT 240V330 9999 FEW030 18/03 Q1020', 'DTTG 131700Z 27002KT 9999 FEW030 21/03 Q1019', 'DTTG 131600Z 29003KT 9999 FEW030 22/03 Q1019', 'DTTG 131500Z 27005KT 210V320 9999 SCT030 23/03 Q1019', 'DTTG 131400Z 28009KT 230V310 9999 SCT030 22/03 Q1019', 'DTTG 131300Z 33010KT 290V010 9999 FEW030 22/03 Q1019', 'DTTG 131200Z 32011KT 290V360 9999 FEW030 21/03 Q1020', 'DTTG 131100Z 33010KT 300V360 CAVOK 21/03 Q1020', 'DTTG 131000Z 32008KT 290V350 CAVOK 20/03 Q1020', 'DTTG 130900Z 27007KT CAVOK 19/03 Q1020', 'DTTG 130800Z 25003KT 210V290 CAVOK 17/03 Q1019', 'DTTG 130700Z 31008KT 280V340 CAVOK 16/03 Q1018', 'DTTG 130600Z 26006KT 9999 FEW030 15/03 Q1018', 'DTTG 130400Z 29011KT 9999 FEW020 15/03 Q1016', 'DTTG 130300Z 26009KT 9999 FEW020 15/04 Q1016', 'DTTG 130200Z 28010KT 9999 FEW020 16/08 Q1015', 'DTTG 130100Z 28011KT 9999 FEW020 SCT030 17/10 Q1015', 'DTTG 130000Z 28012KT 9999 FEW020 SCT030 18/09 Q1014', 'DTTG 122300Z 26014KT 9999 FEW020 SCT030 17/10 Q1013', 'DTTG 122200Z 26011KT 9999 FEW020 SCT030 19/10 Q1013', 'DTTG 122100Z 25008KT 9999 FEW020 SCT030 19/10 Q1013', 'DTTG 122000Z 25010KT 9999 FEW020 SCT030 20/08 Q1013', 'DTTG 121900Z 26010KT 8000 FEW020 SCT030 19/06 Q1012', 'DTTG 121800Z 28012KT 8000 FEW020 SCT030 20/06 Q1012', 'DTTG 121700Z 24009KT 7000 FEW020 SCT030 20/06 Q1011', 'DTTG 121600Z 25020KT 4000 SA FEW020 SCT030 22/06 Q1011', 'DTTG 121500Z 28015KT 4000 SA SCT030 21/06 Q1012 NOSIG', 'DTTG 121400Z 25017KT 4000 SA SCT030 20/03 Q1011 NOSIG', 'DTTG 121300Z 25017KT 3000 SA SCT030 20/03 Q1013 NOSIG', 'DTTG 121200Z 25021KT 3000 SA SCT030 20/02 Q1013 NOSIG', 'DTTG 121100Z 23016KT 5000 SCT030 18/02 Q1014 NOSIG', 'DTTG 121000Z 23015KT 5000 SCT030 16/01 Q1014 NOSIG']","['2024-02-15 08:00:00', '2024-02-15 07:00:00', '2024-02-15 06:00:00', '2024-02-15 05:00:00', '2024-02-15 04:00:00', '2024-02-15 03:00:00', '2024-02-15 02:00:00', '2024-02-15 00:00:00', '2024-02-14 23:00:00', '2024-02-14 22:00:00', '2024-02-14 21:00:00', '2024-02-14 20:00:00', '2024-02-14 19:00:00', '2024-02-14 18:00:00', '2024-02-14 17:00:00', '2024-02-14 16:00:00', '2024-02-14 15:00:00', '2024-02-14 14:00:00', '2024-02-14 13:00:00', '2024-02-14 12:00:00', '2024-02-14 11:00:00', '2024-02-14 09:00:00', '2024-02-14 08:00:00', '2024-02-14 07:00:00', '2024-02-14 06:00:00', '2024-02-14 05:00:00', '2024-02-14 04:00:00', '2024-02-14 03:00:00', '2024-02-14 02:00:00', '2024-02-14 01:00:00', '2024-02-14 00:00:00', '2024-02-13 23:00:00', '2024-02-13 22:00:00', '2024-02-13 21:00:00', '2024-02-13 20:00:00', '2024-02-13 19:00:00', '2024-02-13 18:00:00', '2024-02-13 17:00:00', '2024-02-13 16:00:00', '2024-02-13 15:00:00', '2024-02-13 14:00:00', '2024-02-13 13:00:00', '2024-02-13 12:00:00', '2024-02-13 11:00:00', '2024-02-13 10:00:00', '2024-02-13 09:00:00', '2024-02-13 08:00:00', '2024-02-13 07:00:00', '2024-02-13 06:00:00', '2024-02-13 04:00:00', '2024-02-13 03:00:00', '2024-02-13 02:00:00', '2024-02-13 01:00:00', '2024-02-13 00:00:00', '2024-02-12 23:00:00', '2024-02-12 22:00:00', '2024-02-12 21:00:00', '2024-02-12 20:00:00', '2024-02-12 19:00:00', '2024-02-12 18:00:00', '2024-02-12 17:00:00', '2024-02-12 16:00:00', '2024-02-12 15:00:00', '2024-02-12 14:00:00', '2024-02-12 13:00:00', '2024-02-12 12:00:00', '2024-02-12 11:00:00', '2024-02-12 10:00:00']"
Tunisia, Monastir Habib Bourguiba International Airport (MIR/DTMB) ,"['DTMB 150830Z 00000KT 8000 NSC 13/10 Q1026', 'DTMB 150800Z 21003KT 8000 NSC 11/10 Q1026', 'DTMB 150730Z VRB01KT 8000 NSC 10/09 Q1026', 'DTMB 150700Z VRB02KT 8000 NSC 09/09 Q1025', 'DTMB 150630Z VRB02KT 8000 NSC 07/07 Q1025', 'DTMB 150600Z 20003KT 8000 NSC 08/08 Q1025', 'DTMB 150530Z AUTO VRB02KT NCD 09/08 Q1025', 'DTMB 150500Z AUTO 29006KT NCD 09/08 Q1025', 'DTMB 150430Z AUTO 29007KT NCD 10/09 Q1025', 'DTMB 150400Z 26005KT 8000 NSC 09/08 Q1025', 'DTMB 150330Z 26003KT 8000 NSC 09/08 Q1025', 'DTMB 150300Z 21003KT 180V260 8000 NSC 10/08 Q1025', 'DTMB 150230Z 27003KT 8000 NSC 11/09 Q1025', 'DTMB 150200Z 29005KT 8000 NSC 12/09 Q1025', 'DTMB 150130Z 29005KT 8000 NSC 14/11 Q1025', 'DTMB 150100Z 33004KT 280V350 8000 NSC 14/11 Q1026', 'DTMB 150030Z 35004KT 8000 NSC 14/11 Q1026', 'DTMB 150000Z 01006KT 8000 NSC 14/11 Q1026', 'DTMB 142330Z 35007KT CAVOK 14/10 Q1026', 'DTMB 142300Z 36009KT CAVOK 14/10 Q1026', 'DTMB 142230Z 36009KT CAVOK 14/11 Q1026', 'DTMB 142200Z 01011KT CAVOK 15/11 Q1026', 'DTMB 142130Z 36011KT CAVOK 15/11 Q1026', 'DTMB 142100Z 01011KT CAVOK 15/11 Q1026', 'DTMB 142030Z 01015KT CAVOK 15/11 Q1026', 'DTMB 142000Z 01015KT CAVOK 15/11 Q1026', 'DTMB 141930Z 01014KT 9999 FEW030 15/11 Q1026', 'DTMB 141900Z 01015KT 9999 FEW030 15/11 Q1026', 'DTMB 141830Z 01013KT 9999 FEW030 16/11 Q1026', 'DTMB 141800Z 02013KT 9999 FEW030 16/12 Q1025', 'DTMB 141730Z 02012KT 9999 FEW030 16/12 Q1025', 'DTMB 141700Z 02010KT 9999 FEW030 16/12 Q1025', 'DTMB 141630Z 03008KT 9999 FEW030 17/11 Q1025', 'DTMB 141600Z 04008KT 9999 FEW030 17/11 Q1025', 'DTMB 141530Z 03008KT 9999 FEW030 17/11 Q1025', 'DTMB 141500Z 02010KT 9999 FEW030 18/10 Q1025', 'DTMB 141430Z 01010KT 9999 FEW030 17/10 Q1024', 'DTMB 141400Z 01011KT 9999 FEW030 18/10 Q1024', 'DTMB 141330Z 35011KT 9999 FEW030 17/09 Q1025', 'DTMB 141300Z 36013KT 9999 SCT030 17/10 Q1025', 'DTMB 141230Z 36013KT 9999 SCT030 17/10 Q1025', 'DTMB 141200Z 35012KT 9999 SCT030 17/09 Q1025', 'DTMB 141130Z 35012KT 9999 SCT030 17/10 Q1025', 'DTMB 141100Z 35013KT 9999 SCT030 16/10 Q1026', 'DTMB 141030Z 34013KT 9999 SCT030 16/10 Q1026', 'DTMB 141000Z 33014KT 9999 SCT030 16/10 Q1026', 'DTMB 140930Z 34014KT 9999 SCT030 15/10 Q1026', 'DTMB 140900Z 34014KT 9999 SCT030 15/10 Q1026', 'DTMB 140830Z 34014KT 310V010 9999 SCT030 15/10 Q1026', 'DTMB 140800Z 34015KT 310V010 9999 SCT030 15/10 Q1025', 'DTMB 140730Z 33013KT 9999 SCT030 14/10 Q1025', 'DTMB 140700Z 32010KT 9999 SCT030 14/10 Q1025', 'DTMB 140630Z 33010KT 9999 FEW033 14/10 Q1025', 'DTMB 140600Z 33013KT 9999 FEW033 14/10 Q1024', 'DTMB 140530Z 34013KT 9999 FEW033 14/10 Q1024', 'DTMB 140500Z 34015KT 9999 FEW033 14/10 Q1024', 'DTMB 140430Z 34016KT 9999 FEW033 14/10 Q1023', 'DTMB 140400Z 34017KT 9999 FEW033 14/10 Q1023', 'DTMB 140330Z 34013KT 9999 FEW026 14/10 Q1023', 'DTMB 140300Z 33017KT 9999 FEW026 14/10 Q1023', 'DTMB 140230Z 33016KT 9999 FEW026 SCT040 14/10 Q1023', 'DTMB 140200Z 33017KT 9999 FEW026 SCT040 14/10 Q1023', 'DTMB 140130Z 33018KT 9999 FEW026 SCT040 14/09 Q1023', 'DTMB 140100Z 33018KT 9999 FEW026 SCT040 15/10 Q1023', 'DTMB 140030Z 34017KT 310V010 9999 FEW026 SCT040 15/09 Q1023', 'DTMB 140000Z 34014KT 8000 FEW026 SCT040 15/09 Q1023', 'DTMB 132330Z 34019KT 0800 FEW026 SCT040 15/09 Q1023', 'DTMB 132300Z 35016KT 0800 FEW026 SCT040 15/10 Q1022', 'DTMB 132230Z 34018KT 9999 FEW026 15/10 Q1022', 'DTMB 132200Z 34012KT 9999 FEW026 15/10 Q1022', 'DTMB 132130Z 34013KT 320V020 9999 FEW026 16/11 Q1022', 'DTMB 132100Z 34013KT 9999 FEW026 16/10 Q1022', 'DTMB 132030Z 33013KT 9999 FEW026 16/10 Q1022', 'DTMB 132000Z 32014KT 9999 FEW026 16/10 Q1021', 'DTMB 131930Z 32013KT 9999 FEW026 17/09 Q1021', 'DTMB 131900Z 33013KT 9999 FEW026 17/10 Q1021', 'DTMB 131830Z 33012KT 8000 BKN026 17/09 Q1021', 'DTMB 131800Z 33014KT 8000 BKN026 17/10 Q1020', 'DTMB 131730Z 34012KT 8000 BKN026 17/10 Q1020', 'DTMB 131700Z 34012KT 8000 BKN026 18/10 Q1020', 'DTMB 131630Z 34014KT 8000 BKN026 18/11 Q1019', 'DTMB 131600Z 33012KT 9999 BKN026 18/11 Q1019', 'DTMB 131530Z 34012KT 9999 BKN026 18/11 Q1019', 'DTMB 131500Z 33014KT 9999 BKN026 18/11 Q1018', 'DTMB 131430Z 34010KT 9999 BKN026 18/11 Q1018', 'DTMB 131400Z 33012KT 9999 BKN026 18/11 Q1018', 'DTMB 131330Z 32014KT 9999 SCT026 19/11 Q1018', 'DTMB 131300Z 32015KT 8000 FEW026 18/11 Q1018', 'DTMB 131230Z 34010KT 310V010 8000 FEW026 18/12 Q1018', 'DTMB 131200Z 34010KT 8000 FEW026 18/11 Q1018', 'DTMB 131130Z 33011KT 8000 FEW026 18/12 Q1019', 'DTMB 131100Z 34011KT 8000 FEW026 18/12 Q1019', 'DTMB 131030Z 33012KT 8000 FEW026 18/12 Q1019', 'DTMB 131000Z 33008KT 300V010 8000 FEW026 17/12 Q1019', 'DTMB 130930Z 29009KT 270V330 8000 FEW026 17/12 Q1019', 'DTMB 130900Z 33012KT 8000 FEW026 16/12 Q1019', 'DTMB 130830Z 33015KT 8000 FEW026 16/12 Q1018', 'DTMB 130800Z 34012KT 8000 FEW026 16/12 Q1018', 'DTMB 130730Z 33013KT 8000 FEW026 SCT040 16/12 Q1018', 'DTMB 130700Z 33014KT 8000 FEW026 SCT040 15/12 Q1017', 'DTMB 130630Z 34017KT 9999 FEW033 SCT046 15/12 Q1016', 'DTMB 130600Z 34019KT 9999 FEW033 SCT046 15/12 Q1016', 'DTMB 130530Z 33014KT 9999 FEW033 SCT046 16/12 Q1016', 'DTMB 130500Z 31007KT 9999 FEW033 SCT046 15/12 Q1015', 'DTMB 130430Z 31004KT 9999 FEW026 SCT043 15/11 Q1015', 'DTMB 130400Z 30005KT 9999 FEW026 SCT043 14/12 Q1014', 'DTMB 130330Z 30006KT 9999 FEW026 SCT043 14/12 Q1014', 'DTMB 130300Z 30006KT 9999 FEW026 SCT033 15/12 Q1014', 'DTMB 130230Z 30008KT 9999 FEW026 SCT033 14/12 Q1014', 'DTMB 130200Z 28006KT 9999 FEW026 SCT033 14/12 Q1014', 'DTMB 130130Z 29010KT 8000 SCT026 SCT040 14/13 Q1014', 'DTMB 130100Z 28011KT 8000 SCT026 SCT040 14/13 Q1013', 'DTMB 130030Z 30009KT 8000 SCT026 SCT040 15/13 Q1013', 'DTMB 130000Z 29011KT 8000 SCT026 SCT040 15/13 Q1013', 'DTMB 122330Z 28011KT 8000 SCT026 SCT040 15/13 Q1013', 'DTMB 122300Z 27011KT 8000 -RA SCT026 SCT040 15/14 Q1013', 'DTMB 122230Z 29012KT 8000 SCT026 SCT040 15/14 Q1013', 'DTMB 122200Z 27010KT 8000 SCT026 SCT040 14/14 Q1012', 'DTMB 122130Z 29012KT 8000 -RA SCT026 SCT040 15/13 Q1012', 'DTMB 122100Z AUTO 27010KT NCD 15/13 Q1012', 'DTMB 122030Z 27006KT 9999 FEW026 SCT043 16/12 Q1012', 'DTMB 122000Z 26005KT 9999 FEW026 SCT043 16/12 Q1012', 'DTMB 121930Z 27004KT 9999 FEW026 SCT043 16/12 Q1012', 'DTMB 121900Z 27005KT 9999 SCT020 SCT040 16/12 Q1011', 'DTMB 121830Z 29005KT 9999 SCT020 SCT040 16/12 Q1011', 'DTMB 121800Z 28007KT 9999 SCT020 SCT040 17/12 Q1011', 'DTMB 121730Z 27007KT CAVOK 18/09 Q1011', 'DTMB 121700Z 29005KT 9999 SCT040 18/08 Q1010', 'DTMB 121630Z 24007KT 200V280 9999 SCT040 18/05 Q1010', 'DTMB 121600Z 24007KT 9999 SCT040 19/04 Q1010', 'DTMB 121530Z 24010KT 9999 SCT040 19/04 Q1010', 'DTMB 121500Z 25007KT 9999 SCT040 19/04 Q1010', 'DTMB 121430Z 26007KT 9999 SCT040 19/04 Q1010', 'DTMB 121400Z 24007KT 210V270 9999 SCT040 19/04 Q1010', 'DTMB 121330Z 26006KT 200V280 9999 SCT040 18/03 Q1010', 'DTMB 121300Z 23008KT 9999 SCT040 17/05 Q1011', 'DTMB 121230Z 23011KT 9999 SCT040 17/07 Q1011', 'DTMB 121200Z 27009KT 9999 SCT040 17/04 Q1012', 'DTMB 121130Z 28011KT CAVOK 18/04 Q1012', 'DTMB 121100Z 28011KT CAVOK 17/04 Q1012', 'DTMB 121030Z 28010KT 8000 FEW040 18/03 Q1013', 'DTMB 121000Z 28010KT 8000 FEW040 17/04 Q1013', 'DTMB 120930Z 29005KT 260V330 8000 FEW040 16/05 Q1013']","['2024-02-15 08:30:00', '2024-02-15 08:00:00', '2024-02-15 07:30:00', '2024-02-15 07:00:00', '2024-02-15 06:30:00', '2024-02-15 06:00:00', '2024-02-15 05:30:00', '2024-02-15 05:00:00', '2024-02-15 04:30:00', '2024-02-15 04:00:00', '2024-02-15 03:30:00', '2024-02-15 03:00:00', '2024-02-15 02:30:00', '2024-02-15 02:00:00', '2024-02-15 01:30:00', '2024-02-15 01:00:00', '2024-02-15 00:30:00', '2024-02-15 00:00:00', '2024-02-14 23:30:00', '2024-02-14 23:00:00', '2024-02-14 22:30:00', '2024-02-14 22:00:00', '2024-02-14 21:30:00', '2024-02-14 21:00:00', '2024-02-14 20:30:00', '2024-02-14 20:00:00', '2024-02-14 19:30:00', '2024-02-14 19:00:00', '2024-02-14 18:30:00', '2024-02-14 18:00:00', '2024-02-14 17:30:00', '2024-02-14 17:00:00', '2024-02-14 16:30:00', '2024-02-14 16:00:00', '2024-02-14 15:30:00', '2024-02-14 15:00:00', '2024-02-14 14:30:00', '2024-02-14 14:00:00', '2024-02-14 13:30:00', '2024-02-14 13:00:00', '2024-02-14 12:30:00', '2024-02-14 12:00:00', '2024-02-14 11:30:00', '2024-02-14 11:00:00', '2024-02-14 10:30:00', '2024-02-14 10:00:00', '2024-02-14 09:30:00', '2024-02-14 09:00:00', '2024-02-14 08:30:00', '2024-02-14 08:00:00', '2024-02-14 07:30:00', '2024-02-14 07:00:00', '2024-02-14 06:30:00', '2024-02-14 06:00:00', '2024-02-14 05:30:00', '2024-02-14 05:00:00', '2024-02-14 04:30:00', '2024-02-14 04:00:00', '2024-02-14 03:30:00', '2024-02-14 03:00:00', '2024-02-14 02:30:00', '2024-02-14 02:00:00', '2024-02-14 01:30:00', '2024-02-14 01:00:00', '2024-02-14 00:30:00', '2024-02-14 00:00:00', '2024-02-13 23:30:00', '2024-02-13 23:00:00', '2024-02-13 22:30:00', '2024-02-13 22:00:00', '2024-02-13 21:30:00', '2024-02-13 21:00:00', '2024-02-13 20:30:00', '2024-02-13 20:00:00', '2024-02-13 19:30:00', '2024-02-13 19:00:00', '2024-02-13 18:30:00', '2024-02-13 18:00:00', '2024-02-13 17:30:00', '2024-02-13 17:00:00', '2024-02-13 16:30:00', '2024-02-13 16:00:00', '2024-02-13 15:30:00', '2024-02-13 15:00:00', '2024-02-13 14:30:00', '2024-02-13 14:00:00', '2024-02-13 13:30:00', '2024-02-13 13:00:00', '2024-02-13 12:30:00', '2024-02-13 12:00:00', '2024-02-13 11:30:00', '2024-02-13 11:00:00', '2024-02-13 10:30:00', '2024-02-13 10:00:00', '2024-02-13 09:30:00', '2024-02-13 09:00:00', '2024-02-13 08:30:00', '2024-02-13 08:00:00', '2024-02-13 07:30:00', '2024-02-13 07:00:00', '2024-02-13 06:30:00', '2024-02-13 06:00:00', '2024-02-13 05:30:00', '2024-02-13 05:00:00', '2024-02-13 04:30:00', '2024-02-13 04:00:00', '2024-02-13 03:30:00', '2024-02-13 03:00:00', '2024-02-13 02:30:00', '2024-02-13 02:00:00', '2024-02-13 01:30:00', '2024-02-13 01:00:00', '2024-02-13 00:30:00', '2024-02-13 00:00:00', '2024-02-12 23:30:00', '2024-02-12 23:00:00', '2024-02-12 22:30:00', '2024-02-12 22:00:00', '2024-02-12 21:30:00', '2024-02-12 21:00:00', '2024-02-12 20:30:00', '2024-02-12 20:00:00', '2024-02-12 19:30:00', '2024-02-12 19:00:00', '2024-02-12 18:30:00', '2024-02-12 18:00:00', '2024-02-12 17:30:00', '2024-02-12 17:00:00', '2024-02-12 16:30:00', '2024-02-12 16:00:00', '2024-02-12 15:30:00', '2024-02-12 15:00:00', '2024-02-12 14:30:00', '2024-02-12 14:00:00', '2024-02-12 13:30:00', '2024-02-12 13:00:00', '2024-02-12 12:30:00', '2024-02-12 12:00:00', '2024-02-12 11:30:00', '2024-02-12 11:00:00', '2024-02-12 10:30:00', '2024-02-12 10:00:00', '2024-02-12 09:30:00']"
Tunisia, SfaxThyna International Airport (SFA/DTTX) ,"['DTTX 150800Z 25003KT 220V280 CAVOK 12/09 Q1026', 'DTTX 150700Z 27003KT CAVOK 09/08 Q1025', 'DTTX 150600Z 30005KT CAVOK 08/07 Q1025', 'DTTX 150500Z 29004KT 9999 FEW033 09/08 Q1025', 'DTTX 150400Z 26003KT 9999 FEW033 09/07 Q1025', 'DTTX 150300Z 28002KT 9999 FEW033 09/07 Q1025', 'DTTX 150200Z 30005KT 9999 FEW033 10/08 Q1025', 'DTTX 150100Z 29005KT 9999 FEW033 10/08 Q1026', 'DTTX 150000Z 29004KT 9999 FEW033 11/08 Q1026', 'DTTX 142200Z 27004KT 9999 FEW033 12/09 Q1026', 'DTTX 142100Z 28003KT 9999 FEW033 14/10 Q1026', 'DTTX 142000Z VRB02KT 9999 FEW033 14/10 Q1026', 'DTTX 141900Z 23003KT 190V270 9999 FEW033 14/10 Q1026', 'DTTX 141800Z 17005KT 9999 FEW033 15/11 Q1025', 'DTTX 141700Z 13005KT 9999 FEW033 16/11 Q1025', 'DTTX 141600Z 02007KT 340V130 9999 FEW033 17/11 Q1024', 'DTTX 141500Z 35010KT 9999 FEW033 20/04 Q1024', 'DTTX 141400Z 33011KT 310V010 9999 FEW033 20/05 Q1024', 'DTTX 141300Z 32011KT 290V350 9999 FEW033 19/05 Q1024', 'DTTX 141200Z 32011KT 290V350 9999 FEW033 18/05 Q1025', 'DTTX 141100Z 34010KT 310V010 9999 FEW033 17/07 Q1025', 'DTTX 141000Z 33014KT 9999 FEW033 17/07 Q1025', 'DTTX 140900Z 33015KT 9999 FEW033 15/07 Q1026', 'DTTX 140800Z 32009KT 290V350 9999 FEW020 14/08 Q1025', 'DTTX 140700Z 31006KT 9999 FEW020 11/07 Q1025', 'DTTX 140600Z 28003KT 9999 FEW020 09/07 Q1024', 'DTTX 140500Z 28003KT 250V320 9999 FEW020 10/06 Q1024', 'DTTX 140400Z 30005KT 9999 FEW020 11/08 Q1023', 'DTTX 140300Z 33006KT 300V360 9999 FEW020 12/08 Q1023', 'DTTX 140200Z 27003KT 220V320 9999 FEW020 13/07 Q1023', 'DTTX 140100Z 35004KT 300V040 9999 FEW020 13/07 Q1023', 'DTTX 140000Z 24003KT 210V270 9999 FEW020 13/08 Q1023', 'DTTX 132300Z 32007KT 9999 FEW020 14/07 Q1022', 'DTTX 132200Z 33006KT 9999 FEW020 15/08 Q1022', 'DTTX 132100Z 33003KT 300V360 9999 FEW020 16/08 Q1022', 'DTTX 132000Z 33007KT 9999 FEW020 17/08 Q1021', 'DTTX 131900Z 32007KT 9999 FEW020 18/07 Q1021', 'DTTX 131800Z 32004KT 9999 FEW020 19/07 Q1020', 'DTTX 131700Z 33011KT 9999 FEW020 20/07 Q1019', 'DTTX 131600Z 30011KT 9999 FEW020 21/07 Q1018', 'DTTX 131500Z 30011KT 270V330 9999 FEW020 21/07 Q1018', 'DTTX 131400Z 30010KT 260V320 9999 FEW020 21/08 Q1018', 'DTTX 131300Z 29010KT 250V330 9999 FEW020 21/08 Q1018', 'DTTX 131200Z 31013KT 270V340 9999 FEW020 21/08 Q1019', 'DTTX 131100Z 32011KT 280V350 9999 FEW020 20/09 Q1019', 'DTTX 131000Z 32012KT 9999 FEW030 19/09 Q1019', 'DTTX 130900Z 33012KT 9999 FEW030 18/09 Q1019', 'DTTX 130800Z 32010KT 9999 SCT030 17/10 Q1018', 'DTTX 130700Z 28007KT 9999 SCT030 14/09 Q1017', 'DTTX 130600Z 26007KT 9999 SCT030 14/10 Q1016', 'DTTX 130500Z 25004KT 9999 SCT030 13/12 Q1016', 'DTTX 130400Z 27004KT 9999 SCT030 13/11 Q1015', 'DTTX 130300Z 26004KT 9999 SCT030 13/12 Q1014', 'DTTX 130200Z 26003KT 9999 SCT030 14/12 Q1014', 'DTTX 130100Z 31005KT 9999 SCT030 14/12 Q1014', 'DTTX 130000Z 27003KT 9999 SCT030 14/12 Q1013', 'DTTX 122300Z 29004KT 9999 SCT030 15/11 Q1013', 'DTTX 122200Z 31005KT 9999 SCT030 15/11 Q1013', 'DTTX 122100Z 31004KT 9999 SCT030 16/10 Q1012', 'DTTX 122000Z 34002KT 9999 SCT030 16/09 Q1012', 'DTTX 121900Z 32002KT 9999 SCT030 17/09 Q1011', 'DTTX 121800Z 33004KT 9999 SCT030 18/07 Q1011', 'DTTX 121700Z 31005KT 9999 FEW030 19/07 Q1010', 'DTTX 121600Z 24008KT 9999 FEW030 20/06 Q1010', 'DTTX 121500Z 24008KT 210V270 9999 FEW030 21/03 Q1010', 'DTTX 121400Z 15007KT 130V200 9999 FEW030 18/09 Q1011', 'DTTX 121300Z 17009KT 9999 FEW030 19/04 Q1011', 'DTTX 121200Z 21006KT 160V240 9999 FEW030 20/05 Q1012', 'DTTX 121100Z 25004KT 200V290 9999 FEW030 20/02 Q1013', 'DTTX 121000Z 21007KT 190V270 9999 FEW030 18/02 Q1014']","['2024-02-15 08:00:00', '2024-02-15 07:00:00', '2024-02-15 06:00:00', '2024-02-15 05:00:00', '2024-02-15 04:00:00', '2024-02-15 03:00:00', '2024-02-15 02:00:00', '2024-02-15 01:00:00', '2024-02-15 00:00:00', '2024-02-14 22:00:00', '2024-02-14 21:00:00', '2024-02-14 20:00:00', '2024-02-14 19:00:00', '2024-02-14 18:00:00', '2024-02-14 17:00:00', '2024-02-14 16:00:00', '2024-02-14 15:00:00', '2024-02-14 14:00:00', '2024-02-14 13:00:00', '2024-02-14 12:00:00', '2024-02-14 11:00:00', '2024-02-14 10:00:00', '2024-02-14 09:00:00', '2024-02-14 08:00:00', '2024-02-14 07:00:00', '2024-02-14 06:00:00', '2024-02-14 05:00:00', '2024-02-14 04:00:00', '2024-02-14 03:00:00', '2024-02-14 02:00:00', '2024-02-14 01:00:00', '2024-02-14 00:00:00', '2024-02-13 23:00:00', '2024-02-13 22:00:00', '2024-02-13 21:00:00', '2024-02-13 20:00:00', '2024-02-13 19:00:00', '2024-02-13 18:00:00', '2024-02-13 17:00:00', '2024-02-13 16:00:00', '2024-02-13 15:00:00', '2024-02-13 14:00:00', '2024-02-13 13:00:00', '2024-02-13 12:00:00', '2024-02-13 11:00:00', '2024-02-13 10:00:00', '2024-02-13 09:00:00', '2024-02-13 08:00:00', '2024-02-13 07:00:00', '2024-02-13 06:00:00', '2024-02-13 05:00:00', '2024-02-13 04:00:00', '2024-02-13 03:00:00', '2024-02-13 02:00:00', '2024-02-13 01:00:00', '2024-02-13 00:00:00', '2024-02-12 23:00:00', '2024-02-12 22:00:00', '2024-02-12 21:00:00', '2024-02-12 20:00:00', '2024-02-12 19:00:00', '2024-02-12 18:00:00', '2024-02-12 17:00:00', '2024-02-12 16:00:00', '2024-02-12 15:00:00', '2024-02-12 14:00:00', '2024-02-12 13:00:00', '2024-02-12 12:00:00', '2024-02-12 11:00:00', '2024-02-12 10:00:00']"
Tunisia, Tabarka Ain Draham Airport (TBJ/DTKA) ,"['DTKA 150800Z 11008KT 9999 FEW020 09/05 Q1024 NOSIG', 'DTKA 150700Z 11008KT 9999 FEW020 05/04 Q1024 NOSIG', 'DTKA 150600Z 11007KT 9999 FEW020 05/04 Q1024 NOSIG', 'DTKA 150500Z 12007KT 9999 FEW020 05/04 Q1024 NOSIG', 'DTKA 150400Z 11006KT 9999 FEW020 05/05 Q1024', 'DTKA 150300Z 11007KT 9999 FEW020 06/05 Q1024', 'DTKA 150200Z 11007KT 9999 FEW020 06/05 Q1024', 'DTKA 150100Z 11006KT 9999 FEW020 07/06 Q1025', 'DTKA 150000Z 11005KT 9999 FEW020 06/06 Q1025', 'DTKA 142300Z 19005KT 9999 FEW020 06/05 Q1026', 'DTKA 142200Z 20005KT 9999 FEW020 08/07 Q1026 NOSIG', 'DTKA 142100Z 19005KT 9999 FEW020 08/07 Q1027 NOSIG', 'DTKA 142000Z 20005KT 9999 FEW020 09/08 Q1027 NOSIG', 'DTKA 141900Z 21004KT 9999 FEW020 10/08 Q1027 NOSIG', 'DTKA 141800Z 30003KT 9999 FEW020 13/09 Q1027 NOSIG', 'DTKA 141700Z 31004KT 280V340 9999 FEW020 14/10 Q1026 NOSIG', 'DTKA 141600Z 30006KT 9999 SCT020 15/10 Q1026 NOSIG', 'DTKA 141500Z 30009KT 9999 SCT020 16/10 Q1026 NOSIG', 'DTKA 141400Z 30011KT 9999 SCT020 16/10 Q1026 NOSIG', 'DTKA 141300Z 29010KT 9999 SCT020 16/10 Q1026 NOSIG', 'DTKA 141200Z 29010KT 260V320 9999 SCT020 16/10 Q1027 NOSIG', 'DTKA 141100Z 28010KT 9999 SCT020 16/11 Q1027 NOSIG', 'DTKA 141000Z 29007KT 250V310 9999 SCT020 15/09 Q1027 NOSIG', 'DTKA 140900Z 32009KT 9999 SCT020 15/09 Q1027 NOSIG', 'DTKA 140800Z 31010KT 9999 SCT020 14/08 Q1026 NOSIG', 'DTKA 140700Z 32008KT 9999 SCT020 13/08 Q1026 NOSIG', 'DTKA 140600Z 32009KT 9999 SCT020 13/09 Q1026 NOSIG', 'DTKA 140500Z 32011KT 9999 SCT020 13/08 Q1025 NOSIG', 'DTKA 140400Z 31011KT 9999 SCT020 13/09 Q1025 NOSIG', 'DTKA 140300Z 32011KT 9999 SCT020 13/09 Q1025 NOSIG', 'DTKA 140200Z AUTO 32011KT CAVOK 13/09 Q1025', 'DTKA 140100Z 31010KT 9999 SCT020 13/09 Q1024 NOSIG', 'DTKA 140000Z 32012KT 9999 SCT020 13/08 Q1025 NOSIG', 'DTKA 132300Z 32012KT 9999 SCT020 13/09 Q1024 NOSIG', 'DTKA 132200Z 32011KT 9999 SCT020 14/09 Q1024 NOSIG', 'DTKA 132100Z 30012KT 9999 SCT020 14/11 Q1024 NOSIG', 'DTKA 132000Z 29013KT 9999 SCT020 14/11 Q1024 NOSIG', 'DTKA 131900Z 30013KT 9999 SCT020 14/11 Q1023 NOSIG', 'DTKA 131800Z 30014KT 9999 SCT020 14/11 Q1023 NOSIG', 'DTKA 131700Z 29014KT 9999 SCT020 15/12 Q1022 NOSIG', 'DTKA 131600Z 29014KT 9999 FEW020 16/12 Q1021 NOSIG', 'DTKA 131500Z 29013KT 260V320 9999 FEW020 17/12 Q1021 NOSIG', 'DTKA 131400Z 28014KT 9999 FEW020 17/11 Q1020 NOSIG', 'DTKA 131300Z 28013KT 9999 FEW020 17/11 Q1020 NOSIG', 'DTKA 131200Z 29014KT 9999 FEW020 17/11 Q1020 NOSIG', 'DTKA 131100Z 30014KT 9999 SCT020 17/10 Q1020 NOSIG', 'DTKA 131000Z 30014KT 9999 SCT020 16/11 Q1020 NOSIG', 'DTKA 130900Z 31011KT 9999 SCT020 SCT030 15/11 Q1020 NOSIG', 'DTKA 130800Z 31011KT 9999 SCT020 SCT030 14/11 Q1020 NOSIG', 'DTKA 130700Z 31014KT 9999 SCT020 SCT030 14/11 Q1019 NOSIG', 'DTKA 130600Z 31012KT 9999 SCT020 SCT030 14/11 Q1018 NOSIG', 'DTKA 130500Z 32011KT 9999 SCT020 SCT030 14/11 Q1017 NOSIG', 'DTKA 130400Z 31012KT 270V330 9999 SCT020 SCT030 14/12 Q1017 NOSIG', 'DTKA 130300Z 30014KT 9999 SCT020 SCT030 14/12 Q1016 NOSIG', 'DTKA 130200Z 29013KT 9999 SCT020 SCT030 15/13 Q1016 NOSIG', 'DTKA 130100Z 28010KT 9999 SCT020 SCT030 15/13 Q1015 NOSIG', 'DTKA 130000Z 29012KT 9999 SCT020 SCT030 15/13 Q1015 NOSIG', 'DTKA 122300Z 32012KT 9999 SCT020 SCT030 15/13 Q1014 NOSIG', 'DTKA 122200Z 31010KT 9999 SCT020 SCT030 15/13 Q1014 NOSIG', 'DTKA 122100Z 30012KT 9999 SCT020 SCT030 15/14 Q1013 NOSIG', 'DTKA 122000Z 27010KT 9999 SCT020 SCT030 15/13 Q1012 NOSIG', 'DTKA 121900Z 28011KT 240V300 9999 SCT020 SCT030 14/12 Q1011 NOSIG', 'DTKA 121800Z 25004KT 200V290 9999 SCT020 SCT030 14/12 Q1010 NOSIG', 'DTKA 121700Z 25006KT 200V280 9999 SCT020 SCT030 13/12 Q1010 NOSIG', 'DTKA 121600Z VRB01KT 9999 SCT020 BKN030 14/11 Q1010 NOSIG', 'DTKA 121500Z 27006KT 230V300 9999 SCT020 BKN030 15/10 Q1010 NOSIG', 'DTKA 121400Z 26003KT 220V330 9999 SCT020 BKN030 15/09 Q1010 NOSIG', 'DTKA 121300Z 25005KT 190V310 9999 SCT020 BKN030 15/09 Q1010 NOSIG', 'DTKA 121200Z 24007KT 190V300 9999 SCT020 BKN030 16/08 Q1010 NOSIG', 'DTKA 121100Z 23003KT 150V280 9999 SCT020 BKN030 13/08 Q1011 NOSIG', 'DTKA 121000Z 24007KT 180V280 9999 SCT020 BKN030 12/07 Q1012 NOSIG']","['2024-02-15 08:00:00', '2024-02-15 07:00:00', '2024-02-15 06:00:00', '2024-02-15 05:00:00', '2024-02-15 04:00:00', '2024-02-15 03:00:00', '2024-02-15 02:00:00', '2024-02-15 01:00:00', '2024-02-15 00:00:00', '2024-02-14 23:00:00', '2024-02-14 22:00:00', '2024-02-14 21:00:00', '2024-02-14 20:00:00', '2024-02-14 19:00:00', '2024-02-14 18:00:00', '2024-02-14 17:00:00', '2024-02-14 16:00:00', '2024-02-14 15:00:00', '2024-02-14 14:00:00', '2024-02-14 13:00:00', '2024-02-14 12:00:00', '2024-02-14 11:00:00', '2024-02-14 10:00:00', '2024-02-14 09:00:00', '2024-02-14 08:00:00', '2024-02-14 07:00:00', '2024-02-14 06:00:00', '2024-02-14 05:00:00', '2024-02-14 04:00:00', '2024-02-14 03:00:00', '2024-02-14 02:00:00', '2024-02-14 01:00:00', '2024-02-14 00:00:00', '2024-02-13 23:00:00', '2024-02-13 22:00:00', '2024-02-13 21:00:00', '2024-02-13 20:00:00', '2024-02-13 19:00:00', '2024-02-13 18:00:00', '2024-02-13 17:00:00', '2024-02-13 16:00:00', '2024-02-13 15:00:00', '2024-02-13 14:00:00', '2024-02-13 13:00:00', '2024-02-13 12:00:00', '2024-02-13 11:00:00', '2024-02-13 10:00:00', '2024-02-13 09:00:00', '2024-02-13 08:00:00', '2024-02-13 07:00:00', '2024-02-13 06:00:00', '2024-02-13 05:00:00', '2024-02-13 04:00:00', '2024-02-13 03:00:00', '2024-02-13 02:00:00', '2024-02-13 01:00:00', '2024-02-13 00:00:00', '2024-02-12 23:00:00', '2024-02-12 22:00:00', '2024-02-12 21:00:00', '2024-02-12 20:00:00', '2024-02-12 19:00:00', '2024-02-12 18:00:00', '2024-02-12 17:00:00', '2024-02-12 16:00:00', '2024-02-12 15:00:00', '2024-02-12 14:00:00', '2024-02-12 13:00:00', '2024-02-12 12:00:00', '2024-02-12 11:00:00', '2024-02-12 10:00:00']"
Tunisia, Tozeur Nefta International Airport (TOE/DTTZ) ,"['DTTZ 150800Z 13005KT CAVOK 13/02 Q1025', 'DTTZ 150700Z 11006KT CAVOK 11/02 Q1025', 'DTTZ 150600Z 11007KT CAVOK 10/02 Q1025', 'DTTZ 150500Z 11007KT CAVOK 11/01 Q1025', 'DTTZ 150400Z 09005KT CAVOK 11/01 Q1024', 'DTTZ 150300Z 11004KT CAVOK 12/02 Q1024', 'DTTZ 150200Z 09005KT CAVOK 12/02 Q1025', 'DTTZ 150100Z 25005KT 180V290 CAVOK 13/02 Q1025', 'DTTZ 150000Z 20008KT CAVOK 15/02 Q1025', 'DTTZ 142300Z 20008KT CAVOK 15/02 Q1025', 'DTTZ 142200Z 21007KT CAVOK 15/02 Q1025', 'DTTZ 142100Z 23008KT CAVOK 16/02 Q1025', 'DTTZ 142000Z 25008KT CAVOK 16/02 Q1025', 'DTTZ 141900Z 24008KT CAVOK 16/02 Q1025', 'DTTZ 141800Z 26006KT CAVOK 17/02 Q1024', 'DTTZ 141700Z 27007KT CAVOK 20/02 Q1024', 'DTTZ 141600Z 27005KT 240V310 CAVOK 22/02 Q1024', 'DTTZ 141500Z 27006KT 240V310 CAVOK 22/02 Q1024', 'DTTZ 141400Z 24004KT 190V290 CAVOK 22/02 Q1024', 'DTTZ 141300Z VRB03KT CAVOK 21/03 Q1025', 'DTTZ 141200Z 09003KT 020V140 CAVOK 22/03 Q1026', 'DTTZ 141100Z 12005KT 090V150 CAVOK 20/04 Q1026', 'DTTZ 141000Z 12008KT CAVOK 18/06 Q1026', 'DTTZ 140900Z 12007KT CAVOK 17/07 Q1026', 'DTTZ 140800Z 10012KT CAVOK 16/03 Q1026', 'DTTZ 140700Z 09008KT CAVOK 15/03 Q1025', 'DTTZ 140600Z 06010KT CAVOK 13/03 Q1023', 'DTTZ 140500Z 06010KT CAVOK 14/03 Q1023', 'DTTZ 140400Z 06008KT CAVOK 15/02 Q1022', 'DTTZ 140200Z 05006KT CAVOK 14/00 Q1023', 'DTTZ 140000Z 03006KT 360V080 CAVOK 15/01 Q1022', 'DTTZ 132300Z 05006KT 020V090 CAVOK 16/01 Q1022', 'DTTZ 132200Z 31005KT CAVOK 16/03 Q1022', 'DTTZ 132100Z 27007KT CAVOK 17/03 Q1022', 'DTTZ 132000Z 25010KT CAVOK 17/04 Q1021', 'DTTZ 131900Z 25009KT CAVOK 19/04 Q1021', 'DTTZ 131800Z 24009KT CAVOK 20/03 Q1020', 'DTTZ 131700Z 26010KT CAVOK 22/02 Q1020', 'DTTZ 131600Z 25012KT CAVOK 23/02 Q1019', 'DTTZ 131500Z 26013KT CAVOK 24/02 Q1019', 'DTTZ 131400Z 26013KT CAVOK 24/03 Q1019', 'DTTZ 131300Z 25010KT 230V290 CAVOK 23/03 Q1020', 'DTTZ 131200Z 29013KT CAVOK 23/04 Q1020', 'DTTZ 131100Z 30010KT 270V330 CAVOK 22/06 Q1021', 'DTTZ 131000Z 31010KT 270V340 9999 FEW033 20/07 Q1021', 'DTTZ 130900Z 34008KT 9999 FEW033 19/07 Q1020', 'DTTZ 130800Z 33011KT 9999 FEW033 17/06 Q1019', 'DTTZ 130700Z 28008KT 9999 FEW033 14/06 Q1019', 'DTTZ 130600Z 01006KT 320V090 9999 FEW033 12/06 Q1018', 'DTTZ 130500Z 32010KT 9999 FEW033 12/07 Q1017', 'DTTZ 130400Z 36005KT 9999 FEW033 13/08 Q1017', 'DTTZ 130300Z 27007KT 9999 FEW033 13/11 Q1016', 'DTTZ 130200Z 25008KT 9999 FEW033 14/12 Q1016', 'DTTZ 130100Z 27007KT 9999 FEW033 15/12 Q1015', 'DTTZ 130000Z 27013KT 9999 FEW033 17/13 Q1015', 'DTTZ 122300Z 27010KT 9999 FEW033 16/13 Q1014', 'DTTZ 122200Z 27013KT 9999 FEW033 17/13 Q1014', 'DTTZ 122100Z 26013KT 9999 FEW033 18/13 Q1013', 'DTTZ 122000Z 29015KT 9999 FEW033 19/13 Q1013', 'DTTZ 121900Z 28013KT 9999 FEW033 20/12 Q1012', 'DTTZ 121800Z 27014KT 9999 FEW033 20/12 Q1012', 'DTTZ 121700Z 27012KT 9999 FEW033 21/11 Q1011', 'DTTZ 121600Z 27017KT 8000 FEW033 22/09 Q1011', 'DTTZ 121500Z 28016KT 8000 FEW033 23/07 Q1011', 'DTTZ 121400Z 29011KT 9999 FEW033 21/06 Q1012', 'DTTZ 121300Z 27010KT 240V310 9999 FEW033 22/06 Q1012', 'DTTZ 121200Z 27009KT 240V300 9999 FEW033 20/05 Q1013', 'DTTZ 121100Z 29009KT 9999 FEW033 19/05 Q1014', 'DTTZ 121000Z 24008KT 9999 FEW033 18/04 Q1014']","['2024-02-15 08:00:00', '2024-02-15 07:00:00', '2024-02-15 06:00:00', '2024-02-15 05:00:00', '2024-02-15 04:00:00', '2024-02-15 03:00:00', '2024-02-15 02:00:00', '2024-02-15 01:00:00', '2024-02-15 00:00:00', '2024-02-14 23:00:00', '2024-02-14 22:00:00', '2024-02-14 21:00:00', '2024-02-14 20:00:00', '2024-02-14 19:00:00', '2024-02-14 18:00:00', '2024-02-14 17:00:00', '2024-02-14 16:00:00', '2024-02-14 15:00:00', '2024-02-14 14:00:00', '2024-02-14 13:00:00', '2024-02-14 12:00:00', '2024-02-14 11:00:00', '2024-02-14 10:00:00', '2024-02-14 09:00:00', '2024-02-14 08:00:00', '2024-02-14 07:00:00', '2024-02-14 06:00:00', '2024-02-14 05:00:00', '2024-02-14 04:00:00', '2024-02-14 02:00:00', '2024-02-14 00:00:00', '2024-02-13 23:00:00', '2024-02-13 22:00:00', '2024-02-13 21:00:00', '2024-02-13 20:00:00', '2024-02-13 19:00:00', '2024-02-13 18:00:00', '2024-02-13 17:00:00', '2024-02-13 16:00:00', '2024-02-13 15:00:00', '2024-02-13 14:00:00', '2024-02-13 13:00:00', '2024-02-13 12:00:00', '2024-02-13 11:00:00', '2024-02-13 10:00:00', '2024-02-13 09:00:00', '2024-02-13 08:00:00', '2024-02-13 07:00:00', '2024-02-13 06:00:00', '2024-02-13 05:00:00', '2024-02-13 04:00:00', '2024-02-13 03:00:00', '2024-02-13 02:00:00', '2024-02-13 01:00:00', '2024-02-13 00:00:00', '2024-02-12 23:00:00', '2024-02-12 22:00:00', '2024-02-12 21:00:00', '2024-02-12 20:00:00', '2024-02-12 19:00:00', '2024-02-12 18:00:00', '2024-02-12 17:00:00', '2024-02-12 16:00:00', '2024-02-12 15:00:00', '2024-02-12 14:00:00', '2024-02-12 13:00:00', '2024-02-12 12:00:00', '2024-02-12 11:00:00', '2024-02-12 10:00:00']"
Tunisia, Tunis Carthage International Airport (TUN/DTTA) ,"['DTTA 150800Z 16004KT 9999 FEW023 12/09 Q1025', 'DTTA 150730Z 16004KT 9999 FEW023 11/09 Q1025', 'DTTA 150700Z 17005KT 9999 FEW023 09/08 Q1025', 'DTTA 150630Z 17004KT 9999 FEW023 09/08 Q1025', 'DTTA 150600Z 18005KT 9999 FEW023 09/08 Q1025', 'DTTA 150530Z 16004KT 9999 FEW023 09/08 Q1025', 'DTTA 150500Z 16004KT 9999 FEW023 09/08 Q1025', 'DTTA 150430Z 17005KT 9999 FEW023 08/08 Q1025', 'DTTA 150400Z 18002KT 9999 FEW023 08/07 Q1024', 'DTTA 150330Z 18004KT 9999 FEW023 09/08 Q1025', 'DTTA 150300Z 17006KT 9999 FEW023 10/08 Q1025', 'DTTA 150230Z AUTO 17006KT /// 08/07 Q1025', 'DTTA 150200Z 15003KT 9999 FEW026 08/05 Q1025', 'DTTA 150130Z 18002KT 9999 FEW026 11/08 Q1025', 'DTTA 150100Z 20002KT 9999 FEW026 11/08 Q1025', 'DTTA 150030Z 19001KT 9999 FEW026 11/09 Q1026', 'DTTA 150000Z 23003KT 9999 FEW026 11/09 Q1026', 'DTTA 142330Z 23004KT 9999 FEW026 11/09 Q1026', 'DTTA 142300Z 24004KT 9999 FEW026 12/09 Q1026', 'DTTA 142230Z 23005KT 9999 FEW026 12/09 Q1026', 'DTTA 142200Z 22005KT 9999 FEW026 12/09 Q1026', 'DTTA 142130Z 23004KT 9999 FEW026 12/09 Q1026', 'DTTA 142100Z 24003KT 220V280 9999 FEW026 11/09 Q1027', 'DTTA 142030Z 24002KT 9999 FEW026 12/09 Q1027', 'DTTA 142000Z 26003KT 220V300 9999 FEW026 12/09 Q1026', 'DTTA 141930Z 31001KT 9999 FEW026 13/09 Q1026', 'DTTA 141900Z 32003KT 9999 FEW026 13/09 Q1026', 'DTTA 141830Z 32006KT 9999 FEW026 13/10 Q1026', 'DTTA 141800Z 32006KT 9999 FEW026 14/09 Q1026', 'DTTA 141730Z 33005KT 280V360 9999 FEW026 14/09 Q1026', 'DTTA 141700Z 32009KT 9999 FEW026 14/09 Q1026', 'DTTA 141630Z 33011KT 9999 FEW026 15/09 Q1026', 'DTTA 141600Z 32011KT 290V350 9999 FEW026 16/09 Q1026', 'DTTA 141530Z 31013KT 9999 SCT026 16/09 Q1025', 'DTTA 141500Z 31011KT 270V340 9999 SCT026 16/09 Q1025', 'DTTA 141430Z 31013KT 280V340 9999 SCT026 17/09 Q1025', 'DTTA 141400Z 30012KT 270V340 9999 SCT026 18/09 Q1025', 'DTTA 141330Z 29012KT 260V330 9999 SCT026 17/09 Q1025', 'DTTA 141230Z 31011KT 9999 SCT026 17/08 Q1025', 'DTTA 141200Z 30011KT 270V340 9999 SCT026 SCT040 17/09 Q1025', 'DTTA 141130Z 29011KT 270V330 9999 SCT026 17/09 Q1025', 'DTTA 141100Z 30012KT 250V340 9999 SCT023 SCT033 17/09 Q1026', 'DTTA 141030Z 30012KT 260V330 9999 SCT023 17/08 Q1026', 'DTTA 141000Z 30010KT 270V340 9999 SCT023 16/09 Q1026', 'DTTA 140930Z 30010KT 270V330 9999 SCT023 16/10 Q1026', 'DTTA 140900Z 30008KT 270V330 9999 FEW023 15/10 Q1026', 'DTTA 140830Z 29007KT 270V330 9999 FEW023 15/09 Q1026', 'DTTA 140800Z 28005KT 9999 FEW023 14/09 Q1026', 'DTTA 140730Z 29005KT 190V320 9999 FEW020 13/09 Q1026', 'DTTA 140700Z 28005KT 230V350 9999 FEW020 13/09 Q1025', 'DTTA 140630Z 28003KT 240V300 9999 FEW020 11/08 Q1025', 'DTTA 140600Z 30005KT 270V330 9999 FEW020 12/09 Q1025', 'DTTA 140530Z 30006KT 9999 FEW020 12/09 Q1024', 'DTTA 140500Z 30006KT 9999 FEW020 12/08 Q1024', 'DTTA 140430Z 29005KT 9999 FEW020 12/08 Q1024', 'DTTA 140400Z 30007KT 9999 FEW020 12/08 Q1024', 'DTTA 140330Z 29007KT 9999 FEW020 12/08 Q1024', 'DTTA 140300Z 29008KT 9999 FEW020 12/08 Q1023', 'DTTA 140230Z 29008KT 9999 FEW020 12/08 Q1023', 'DTTA 140200Z 30007KT 270V330 9999 FEW020 12/08 Q1023', 'DTTA 140130Z 30009KT 270V330 9999 FEW020 12/09 Q1023', 'DTTA 140100Z 31011KT 9999 FEW020 13/08 Q1023', 'DTTA 140030Z 31010KT 9999 FEW020 13/08 Q1023', 'DTTA 140000Z 30011KT 9999 FEW020 13/08 Q1023', 'DTTA 132300Z 30010KT 9999 FEW020 13/08 Q1023', 'DTTA 132230Z 28008KT 9999 FEW020 14/08 Q1023', 'DTTA 132200Z 27007KT 9999 FEW020 13/08 Q1023', 'DTTA 132100Z 29007KT 250V320 9999 FEW020 13/09 Q1023', 'DTTA 132030Z 31014KT 9999 FEW020 14/08 Q1022', 'DTTA 132000Z 32014KT 9999 FEW020 14/08 Q1022', 'DTTA 131930Z 30009KT 270V330 9999 FEW020 14/09 Q1022', 'DTTA 131900Z 30009KT 260V330 9999 FEW020 14/09 Q1022', 'DTTA 131830Z 29011KT 250V330 9999 FEW020 14/10 Q1022', 'DTTA 131800Z VRB06KT 9999 FEW020 15/10 Q1021', 'DTTA 131730Z 30010KT 260V330 9999 SCT020 15/11 Q1021', 'DTTA 131700Z 31009KT 270V340 9999 SCT020 16/10 Q1020', 'DTTA 131630Z 30012G22KT 270V340 9999 SCT020 16/11 Q1020', 'DTTA 131600Z 29016G28KT 260V340 9999 SCT020 17/09 Q1019', 'DTTA 131530Z 30016KT 260V340 9999 SCT020 17/10 Q1019', 'DTTA 131500Z 30016G28KT 260V330 9999 SCT020 18/09 Q1019', 'DTTA 131430Z 30018G30KT 270V330 9999 SCT020 19/10 Q1018', 'DTTA 131400Z 30017G30KT 270V340 9999 SCT020 18/08 Q1018', 'DTTA 131330Z 30017KT 270V330 9999 SCT020 18/10 Q1018', 'DTTA 131300Z 30014KT 9999 SCT020 18/10 Q1018', 'DTTA 131230Z 30011KT 270V330 9999 SCT020 19/11 Q1018', 'DTTA 131200Z 30011KT 260V340 9999 SCT020 19/10 Q1018', 'DTTA 131130Z 30014KT 270V340 9999 SCT020 18/11 Q1018', 'DTTA 131100Z 29015KT 260V330 9999 SCT020 17/11 Q1019', 'DTTA 131030Z 29011KT 260V330 9999 SCT020 17/11 Q1019', 'DTTA 131000Z 30011KT 9999 FEW020 17/12 Q1019', 'DTTA 130930Z 29013KT 260V320 9999 FEW020 17/11 Q1019', 'DTTA 130900Z 28011KT 9999 FEW020 16/11 Q1018', 'DTTA 130830Z 28011KT 260V330 9999 FEW020 16/11 Q1018', 'DTTA 130800Z 28009KT 9999 SCT020 15/11 Q1018', 'DTTA 130730Z 30008KT 9999 SCT020 15/11 Q1018', 'DTTA 130700Z 29006KT 260V320 9999 SCT020 14/11 Q1017', 'DTTA 130630Z 28007KT 240V310 9999 SCT020 14/11 Q1017', 'DTTA 130600Z 23005KT 9999 SCT020 14/11 Q1016', 'DTTA 130530Z 22004KT 180V260 9999 SCT020 SCT033 14/11 Q1016', 'DTTA 130500Z 21003KT 170V240 9999 SCT020 BKN033 14/11 Q1016', 'DTTA 130430Z 30008KT 260V330 9999 SCT020 BKN033 14/10 Q1015', 'DTTA 130400Z 31011KT 9999 SCT020 BKN033 14/11 Q1015', 'DTTA 130330Z 31011KT 9999 SCT020 BKN033 14/11 Q1014', 'DTTA 130300Z 31010KT 9999 SCT020 BKN033 14/12 Q1014', 'DTTA 130230Z 30010KT 9999 SCT020 BKN033 14/12 Q1014', 'DTTA 130200Z 31009KT 270V340 9999 SCT020 BKN033 14/11 Q1014', 'DTTA 130130Z 29006KT 260V320 9999 SCT020 SCT033 14/11 Q1014', 'DTTA 130100Z 29008KT 260V330 9999 SCT020 SCT033 14/11 Q1013', 'DTTA 130030Z 28008KT 9999 SCT020 SCT033 14/11 Q1013', 'DTTA 130000Z 29010KT 9999 SCT020 SCT033 14/12 Q1013', 'DTTA 122330Z 28010KT 250V310 9999 SCT020 BKN033 14/12 Q1013', 'DTTA 122300Z 27009KT 9999 SCT020 BKN033 14/12 Q1013', 'DTTA 122230Z 26007KT 230V290 9999 SCT020 BKN033 15/12 Q1012', 'DTTA 122200Z 25005KT 210V290 9999 SCT023 BKN040 14/12 Q1012', 'DTTA 122130Z VRB02KT 9999 SCT023 BKN040 14/11 Q1012', 'DTTA 122100Z 23006KT 9999 SCT023 BKN040 14/11 Q1012', 'DTTA 122030Z 23008KT 9999 SCT023 BKN040 14/11 Q1011', 'DTTA 122000Z 24008KT 9999 SCT023 BKN040 15/11 Q1011', 'DTTA 121930Z 24008KT 9999 SCT023 BKN040 15/11 Q1011', 'DTTA 121900Z 21005KT 9999 SCT023 BKN040 15/10 Q1011', 'DTTA 121830Z 22006KT 9999 SCT023 BKN040 15/10 Q1011', 'DTTA 121800Z 22008KT 9999 SCT023 BKN040 15/09 Q1010', 'DTTA 121730Z 22006KT 200V260 9999 SCT023 BKN040 15/09 Q1010', 'DTTA 121700Z 23007KT 9999 SCT023 BKN040 15/09 Q1010', 'DTTA 121630Z 24006KT 200V260 9999 SCT023 BKN040 15/09 Q1010', 'DTTA 121600Z 21009KT 9999 SCT023 BKN040 16/08 Q1010', 'DTTA 121530Z 22008KT 9999 SCT023 BKN040 16/08 Q1010', 'DTTA 121500Z 23009KT 9999 SCT023 BKN040 16/08 Q1010', 'DTTA 121430Z 21010KT 9999 SCT023 BKN040 15/08 Q1010', 'DTTA 121400Z 22010KT 190V250 9999 SCT023 BKN040 15/07 Q1010', 'DTTA 121330Z 22009KT 9999 SCT023 BKN040 15/08 Q1010', 'DTTA 121300Z 23010KT 9999 SCT023 SCT040 15/08 Q1010', 'DTTA 121230Z 21012KT 9999 SCT023 SCT040 16/08 Q1011', 'DTTA 121200Z 22011KT 9999 SCT023 SCT040 15/08 Q1011', 'DTTA 121130Z 23012KT 9999 SCT023 16/08 Q1011', 'DTTA 121100Z 23010KT 200V260 9999 SCT023 16/09 Q1012', 'DTTA 121030Z 23010KT 200V260 9999 SCT023 16/08 Q1012', 'DTTA 121000Z 23010KT 200V260 9999 SCT023 15/07 Q1012', 'DTTA 120930Z 20008KT 9999 SCT023 15/06 Q1012']","['2024-02-15 08:00:00', '2024-02-15 07:30:00', '2024-02-15 07:00:00', '2024-02-15 06:30:00', '2024-02-15 06:00:00', '2024-02-15 05:30:00', '2024-02-15 05:00:00', '2024-02-15 04:30:00', '2024-02-15 04:00:00', '2024-02-15 03:30:00', '2024-02-15 03:00:00', '2024-02-15 02:30:00', '2024-02-15 02:00:00', '2024-02-15 01:30:00', '2024-02-15 01:00:00', '2024-02-15 00:30:00', '2024-02-15 00:00:00', '2024-02-14 23:30:00', '2024-02-14 23:00:00', '2024-02-14 22:30:00', '2024-02-14 22:00:00', '2024-02-14 21:30:00', '2024-02-14 21:00:00', '2024-02-14 20:30:00', '2024-02-14 20:00:00', '2024-02-14 19:30:00', '2024-02-14 19:00:00', '2024-02-14 18:30:00', '2024-02-14 18:00:00', '2024-02-14 17:30:00', '2024-02-14 17:00:00', '2024-02-14 16:30:00', '2024-02-14 16:00:00', '2024-02-14 15:30:00', '2024-02-14 15:00:00', '2024-02-14 14:30:00', '2024-02-14 14:00:00', '2024-02-14 13:30:00', '2024-02-14 12:30:00', '2024-02-14 12:00:00', '2024-02-14 11:30:00', '2024-02-14 11:00:00', '2024-02-14 10:30:00', '2024-02-14 10:00:00', '2024-02-14 09:30:00', '2024-02-14 09:00:00', '2024-02-14 08:30:00', '2024-02-14 08:00:00', '2024-02-14 07:30:00', '2024-02-14 07:00:00', '2024-02-14 06:30:00', '2024-02-14 06:00:00', '2024-02-14 05:30:00', '2024-02-14 05:00:00', '2024-02-14 04:30:00', '2024-02-14 04:00:00', '2024-02-14 03:30:00', '2024-02-14 03:00:00', '2024-02-14 02:30:00', '2024-02-14 02:00:00', '2024-02-14 01:30:00', '2024-02-14 01:00:00', '2024-02-14 00:30:00', '2024-02-14 00:00:00', '2024-02-13 23:00:00', '2024-02-13 22:30:00', '2024-02-13 22:00:00', '2024-02-13 21:00:00', '2024-02-13 20:30:00', '2024-02-13 20:00:00', '2024-02-13 19:30:00', '2024-02-13 19:00:00', '2024-02-13 18:30:00', '2024-02-13 18:00:00', '2024-02-13 17:30:00', '2024-02-13 17:00:00', '2024-02-13 16:30:00', '2024-02-13 16:00:00', '2024-02-13 15:30:00', '2024-02-13 15:00:00', '2024-02-13 14:30:00', '2024-02-13 14:00:00', '2024-02-13 13:30:00', '2024-02-13 13:00:00', '2024-02-13 12:30:00', '2024-02-13 12:00:00', '2024-02-13 11:30:00', '2024-02-13 11:00:00', '2024-02-13 10:30:00', '2024-02-13 10:00:00', '2024-02-13 09:30:00', '2024-02-13 09:00:00', '2024-02-13 08:30:00', '2024-02-13 08:00:00', '2024-02-13 07:30:00', '2024-02-13 07:00:00', '2024-02-13 06:30:00', '2024-02-13 06:00:00', '2024-02-13 05:30:00', '2024-02-13 05:00:00', '2024-02-13 04:30:00', '2024-02-13 04:00:00', '2024-02-13 03:30:00', '2024-02-13 03:00:00', '2024-02-13 02:30:00', '2024-02-13 02:00:00', '2024-02-13 01:30:00', '2024-02-13 01:00:00', '2024-02-13 00:30:00', '2024-02-13 00:00:00', '2024-02-12 23:30:00', '2024-02-12 23:00:00', '2024-02-12 22:30:00', '2024-02-12 22:00:00', '2024-02-12 21:30:00', '2024-02-12 21:00:00', '2024-02-12 20:30:00', '2024-02-12 20:00:00', '2024-02-12 19:30:00', '2024-02-12 19:00:00', '2024-02-12 18:30:00', '2024-02-12 18:00:00', '2024-02-12 17:30:00', '2024-02-12 17:00:00', '2024-02-12 16:30:00', '2024-02-12 16:00:00', '2024-02-12 15:30:00', '2024-02-12 15:00:00', '2024-02-12 14:30:00', '2024-02-12 14:00:00', '2024-02-12 13:30:00', '2024-02-12 13:00:00', '2024-02-12 12:30:00', '2024-02-12 12:00:00', '2024-02-12 11:30:00', '2024-02-12 11:00:00', '2024-02-12 10:30:00', '2024-02-12 10:00:00', '2024-02-12 09:30:00']"
Turkey, Adana Sakirpasa Airport (ADA/LTAF) ,"['LTAF 150850Z 06006KT 9999 FEW035 SCT180 17/11 Q1012 TEMPO FM1000 -TSRA', 'LTAF 150820Z 06007KT 9999 FEW035 SCT180 16/12 Q1012 TEMPO FM1000 -TSRA', 'LTAF 150750Z 06009KT 9999 FEW035 SCT180 15/12 Q1012 NOSIG', 'LTAF 150720Z 03006KT 350V050 8000 FEW035 SCT180 13/11 Q1012 TEMPO TL0800 4000 BR', 'LTAF 150650Z 04004KT 360V060 9000 FEW035 12/11 Q1012 TEMPO 4000 BR', 'LTAF 150620Z 02005KT 6000 FEW035 11/10 Q1012 TEMPO TL0800 4000 BR', 'LTAF 150550Z 06005KT 7000 FEW035 09/09 Q1012 TEMPO 4000 BR', 'LTAF 150520Z 03003KT 8000 FEW035 09/09 Q1011 TEMPO FM0600 4000 BR', 'LTAF 150450Z 05004KT 9999 FEW035 08/08 Q1011 TEMPO FM0600 4000 BR', 'LTAF 150420Z 04004KT 9000 FEW035 09/09 Q1011 NOSIG', 'LTAF 150350Z 06002KT 7000 3000S BR FEW030 07/07 Q1010 NOSIG', 'LTAF 150320Z 00000KT 4900 2200S BR FEW030 09/08 Q1010 BECMG TL0420 9999 NSW', 'LTAF 150250Z 01002KT 6000 2500S BR FEW030 08/08 Q1010 NOSIG', 'LTAF 150220Z VRB01KT 8000 FEW030 09/09 Q1010 NOSIG', 'LTAF 150150Z VRB01KT 8000 FEW030 09/09 Q1010 NOSIG', 'LTAF 150120Z 36001KT 7000 2200S BR SCT030 09/08 Q1009 NOSIG', 'LTAF 150050Z 00000KT 8000 3500S BR SCT030 10/09 Q1009 NOSIG', 'LTAF 150020Z 00000KT 9999 SCT030 BKN100 10/09 Q1009 NOSIG', 'LTAF 142350Z VRB01KT 9999 SCT030 BKN100 11/10 Q1009 NOSIG', 'LTAF 142320Z VRB02KT 9999 SCT030 BKN100 10/10 Q1009 NOSIG', 'LTAF 142250Z 36003KT 320V030 9999 SCT030 BKN100 10/09 Q1009 NOSIG', 'LTAF 142220Z 00000KT 9999 SCT030 BKN100 11/10 Q1009 NOSIG', 'LTAF 142150Z 01001KT 9999 SCT030 BKN090 11/11 Q1009 NOSIG', 'LTAF 142120Z 04005KT 9999 SCT030 BKN090 12/11 Q1009 NOSIG', 'LTAF 142050Z 05004KT 9999 SCT030 BKN090 12/11 Q1009 NOSIG', 'LTAF 142020Z 02004KT 9999 SCT030 BKN090 13/11 Q1008 NOSIG', 'LTAF 141950Z 01004KT 340V040 9999 SCT030 BKN090 13/11 Q1008 NOSIG', 'LTAF 141920Z 02007KT 9999 SCT030 BKN090 13/11 Q1008 NOSIG', 'LTAF 141850Z 02006KT 9999 SCT030 BKN090 13/12 Q1008 RESHRA NOSIG', 'LTAF 141820Z 03006KT 7000 -SHRA FEW025CB BKN030 BKN090 12/12 Q1008 NOSIG', 'LTAF 141750Z 02006KT 6000 -SHRA FEW025CB BKN030 BKN090 13/12 Q1008 NOSIG', 'LTAF 141720Z VRB02KT 6000 -SHRA FEW025CB BKN030 BKN090 13/12 Q1008 RETSRA NOSIG', 'LTAF 141650Z VRB05KT 4000 -TSRA BR FEW025CB BKN030 BKN090 13/12 Q1008 BECMG TL1750 9999 NSW', 'LTAF 141620Z 07007KT 9999 FEW025CB SCT030 BKN090 13/12 Q1007 NOSIG', 'LTAF 141550Z 06008KT 9999 SCT030 BKN090 14/12 Q1007 NOSIG', 'LTAF 141520Z 05007KT 9999 SCT030 BKN090 13/12 Q1006 NOSIG', 'LTAF 141450Z 06008KT 9999 SCT030 BKN090 14/12 Q1006 NOSIG', 'LTAF 141420Z 05007KT 9999 FEW025CB SCT030 BKN090 14/12 Q1006 RESHRA NOSIG', 'LTAF 141350Z 01005KT 340V040 9999 -SHRA FEW025CB SCT030 BKN090 14/12 Q1006 TEMPO -TSRA', 'LTAF 141320Z 03005KT 9999 -SHRA FEW025CB BKN030 BKN090 13/12 Q1006 RETSRA TEMPO -TSRA', 'LTAF 141250Z 06004KT 040V100 9999 -TSRA FEW025CB BKN030 BKN090 13/12 Q1006 BECMG TL1350 NSW', 'LTAF 141220Z 03008KT 9999 -TSRA FEW025CB BKN030 BKN090 14/12 Q1006 RESHRA BECMG TL1320 NSW', 'LTAF 141150Z 01009KT 9999 FEW025CB SCT030 BKN090 14/12 Q1006 TEMPO -TSRA', 'LTAF 141120Z 02009KT 9999 FEW025CB SCT030 BKN090 14/12 Q1006 TEMPO -TSRA', 'LTAF 141050Z 36007KT 9999 FEW025CB SCT030 BKN090 14/12 Q1006 RESHRA TEMPO -TSRA', 'LTAF 141020Z 01008KT 9999 -SHRA FEW025CB SCT030 BKN090 14/12 Q1006 TEMPO -TSRA', 'LTAF 140950Z 01006KT 7000 -SHRA FEW025CB BKN030 BKN090 14/12 Q1007 TEMPO -TSRA', 'LTAF 140920Z 02004KT 8000 -SHRA FEW025CB BKN030 BKN090 13/11 Q1007 RETSRA TEMPO -TSRA', 'LTAF 140850Z 10003KT 050V170 6000 -TSRA FEW025CB BKN030 BKN090 13/11 Q1007 BECMG TL0950 NSW', 'LTAF 140820Z 16006KT 120V200 7000 -TSRA FEW025CB BKN030 BKN090 13/12 Q1008 BECMG TL0920 NSW', 'LTAF 140750Z 17012KT 9999 -TSRA FEW025CB BKN030 BKN090 14/11 Q1008 BECMG TL0850 NSW', 'LTAF 140720Z 09006KT 060V130 9999 -TSRA FEW025CB BKN030 BKN090 15/11 Q1007 RESHRA BECMG TL0820 NSW', 'LTAF 140650Z 07006KT 040V120 9999 -SHRA SCT035 BKN100 15/11 Q1006 TEMPO FM0800 -TSRA', 'LTAF 140620Z 06009KT 9999 -SHRA SCT035 BKN100 16/10 Q1006 TEMPO FM0800 -TSRA', 'LTAF 140550Z 05009KT 9999 SCT035 BKN100 16/10 Q1005 NOSIG', 'LTAF 140520Z 04010KT 9999 SCT035 BKN100 16/09 Q1005 NOSIG', 'LTAF 140450Z 03010KT 9999 SCT035 BKN100 15/09 Q1005 NOSIG', 'LTAF 140420Z 03009KT 9999 SCT035 BKN100 15/09 Q1005 RESHRA NOSIG', 'LTAF 140350Z 03007KT 9999 SCT035 BKN100 15/09 Q1005 NOSIG', 'LTAF 140320Z 04008KT 9999 SCT035 BKN100 14/10 Q1005 NOSIG', 'LTAF 140250Z 04006KT 9999 SCT035 BKN100 14/10 Q1005 NOSIG', 'LTAF 140220Z 03010KT 9999 SCT035 BKN100 15/10 Q1005 NOSIG', 'LTAF 140150Z 03007KT 9999 SCT035 BKN100 16/10 Q1006 NOSIG', 'LTAF 140120Z 02008KT 9999 SCT035 BKN100 16/10 Q1006 NOSIG', 'LTAF 140050Z 36007KT 9999 SCT035 BKN100 16/10 Q1006 NOSIG', 'LTAF 140020Z 01007KT 9999 SCT035 BKN100 15/10 Q1007 NOSIG', 'LTAF 132350Z 02008KT 9999 SCT035 BKN100 15/11 Q1007 NOSIG', 'LTAF 132320Z 35006KT 320V020 9999 SCT035 BKN100 15/11 Q1007 NOSIG', 'LTAF 132250Z 35008KT 9999 SCT035 BKN100 15/11 Q1007 NOSIG', 'LTAF 132220Z 01009KT 9999 SCT035 BKN090 15/11 Q1007 RESHRA NOSIG', 'LTAF 132150Z 36007KT 9999 -SHRA SCT035 BKN090 15/12 Q1008 NOSIG', 'LTAF 132120Z 01008KT 9999 -SHRA SCT035 BKN090 15/11 Q1009 NOSIG', 'LTAF 132050Z 35006KT 9999 -SHRA SCT035 BKN090 16/11 Q1009 NOSIG', 'LTAF 132020Z 04004KT 360V070 9999 -SHRA SCT035 BKN090 16/11 Q1009 NOSIG', 'LTAF 131950Z 02006KT 9999 -SHRA SCT035 BKN090 17/09 Q1009 NOSIG', 'LTAF 131920Z 04007KT 9999 SCT035 BKN090 17/10 Q1009 NOSIG', 'LTAF 131850Z 05006KT 9999 SCT035 BKN100 17/10 Q1010 NOSIG', 'LTAF 131820Z 03006KT 9999 SCT035 BKN100 17/09 Q1010 NOSIG', 'LTAF 131750Z 04004KT 9999 SCT035 BKN100 16/10 Q1010 NOSIG', 'LTAF 131720Z 03004KT 9999 SCT035 BKN100 16/10 Q1010 NOSIG', 'LTAF 131650Z 04005KT 9999 FEW035 BKN100 16/10 Q1010 NOSIG', 'LTAF 131620Z 05004KT 9999 FEW035 BKN100 17/10 Q1010 NOSIG', 'LTAF 131550Z 04004KT 9999 FEW035 BKN100 17/10 Q1009 NOSIG', 'LTAF 131520Z 05004KT 9999 FEW035 BKN100 18/11 Q1009 NOSIG', 'LTAF 131450Z 04003KT 9999 FEW035 BKN100 20/11 Q1009 NOSIG', 'LTAF 131420Z 08004KT 9999 FEW035 BKN100 20/11 Q1009 NOSIG', 'LTAF 131350Z 08005KT 060V150 9999 FEW035 BKN100 21/10 Q1009 NOSIG', 'LTAF 131320Z 06007KT 9999 FEW035 BKN100 21/09 Q1009 NOSIG', 'LTAF 131250Z 06008KT 030V100 9999 FEW035 BKN100 21/09 Q1009 NOSIG', 'LTAF 131220Z 06009KT 030V110 9999 SCT035 BKN100 21/09 Q1009 NOSIG', 'LTAF 131150Z 03009KT 9999 SCT035 BKN100 21/09 Q1009 NOSIG', 'LTAF 131120Z 05015KT 9999 SCT035 BKN100 21/09 Q1009 NOSIG', 'LTAF 131050Z 05015KT 9999 SCT035 BKN100 21/09 Q1010 NOSIG', 'LTAF 131020Z 06009KT 9999 SCT035 BKN100 20/09 Q1011 NOSIG', 'LTAF 130950Z VRB03KT 9999 SCT035 BKN100 20/09 Q1012 NOSIG', 'LTAF 130920Z 04008KT 9999 SCT035 BKN100 19/10 Q1012 NOSIG', 'LTAF 130850Z 03007KT 9999 SCT035 BKN100 19/09 Q1012 NOSIG', 'LTAF 130820Z 03008KT 9999 SCT035 BKN100 19/10 Q1012 NOSIG', 'LTAF 130750Z 04009KT 9999 SCT035 BKN100 18/09 Q1012 NOSIG', 'LTAF 130720Z 04009KT 9999 SCT035 BKN100 18/09 Q1012 NOSIG', 'LTAF 130650Z 03008KT 9999 SCT035 BKN100 18/08 Q1012 NOSIG', 'LTAF 130620Z 03007KT 9999 SCT035 BKN100 18/08 Q1012 NOSIG', 'LTAF 130550Z 02006KT 9999 SCT035 BKN100 17/08 Q1012 NOSIG', 'LTAF 130520Z 02006KT 9999 SCT035 BKN100 17/08 Q1012 NOSIG', 'LTAF 130450Z 02007KT 9999 SCT035 BKN100 17/08 Q1012 NOSIG', 'LTAF 130420Z 02009KT 9999 SCT035 BKN100 17/08 Q1012 NOSIG', 'LTAF 130350Z 02011KT 9999 SCT035 BKN100 17/08 Q1012 NOSIG', 'LTAF 130320Z 02010KT 9999 SCT035 BKN100 17/08 Q1013 NOSIG', 'LTAF 130250Z 03010KT 9999 SCT035 BKN100 16/07 Q1013 NOSIG', 'LTAF 130220Z 03011KT 9999 SCT035 BKN100 16/07 Q1013 NOSIG', 'LTAF 130150Z 03010KT 9999 SCT035 BKN100 16/07 Q1013 NOSIG', 'LTAF 130120Z 02010KT 9999 SCT035 BKN100 17/07 Q1013 NOSIG', 'LTAF 130050Z 05007KT 9999 SCT035 BKN100 15/07 Q1014 NOSIG', 'LTAF 130020Z 04009KT 9999 FEW035 BKN100 16/07 Q1014 NOSIG', 'LTAF 122350Z 03006KT 9999 FEW035 BKN100 16/08 Q1015 NOSIG', 'LTAF 122320Z 02007KT 9999 FEW035 BKN100 16/08 Q1015 NOSIG', 'LTAF 122250Z 03009KT 9999 FEW035 BKN100 16/08 Q1015 NOSIG', 'LTAF 122220Z 04009KT 9999 FEW035 BKN100 16/08 Q1015 NOSIG', 'LTAF 122150Z 02007KT 9999 FEW035 BKN100 16/08 Q1016 NOSIG', 'LTAF 122120Z 03006KT 9999 FEW035 BKN100 15/08 Q1016 NOSIG', 'LTAF 122050Z 03005KT 9999 FEW035 BKN100 15/08 Q1016 NOSIG', 'LTAF 122020Z 03005KT 9999 FEW035 BKN100 15/08 Q1017 NOSIG', 'LTAF 121950Z 04007KT 9999 FEW035 BKN100 15/09 Q1017 NOSIG', 'LTAF 121920Z 03006KT 9999 FEW035 BKN100 16/08 Q1017 NOSIG', 'LTAF 121850Z 03005KT CAVOK 14/09 Q1017 NOSIG', 'LTAF 121820Z 03004KT CAVOK 14/08 Q1017 NOSIG', 'LTAF 121750Z 04005KT CAVOK 15/08 Q1017 NOSIG', 'LTAF 121720Z 36003KT 6000 NSC 15/08 Q1017 NOSIG', 'LTAF 121650Z 03004KT 4500 HZ NSC 15/08 Q1017 BECMG TL1750 9999 NSW', 'LTAF 121620Z 36002KT 4500 HZ NSC 16/08 Q1017 BECMG TL1720 9999 NSW', 'LTAF 121550Z 35004KT 300V010 4800 HZ NSC 18/08 Q1017 BECMG TL1650 9999 NSW', 'LTAF 121520Z 02005KT 4700 HZ NSC 19/08 Q1017 BECMG TL1620 9999 NSW', 'LTAF 121450Z 04004KT CAVOK 18/09 Q1017 NOSIG', 'LTAF 121420Z 05005KT CAVOK 20/08 Q1017 NOSIG', 'LTAF 121350Z 08006KT 040V110 CAVOK 21/08 Q1017 NOSIG', 'LTAF 121320Z 04006KT CAVOK 20/08 Q1017 NOSIG', 'LTAF 121250Z 04007KT CAVOK 21/08 Q1018 NOSIG', 'LTAF 121220Z 01004KT 330V050 CAVOK 20/08 Q1018 NOSIG', 'LTAF 121150Z 02006KT 350V070 CAVOK 20/08 Q1018 NOSIG', 'LTAF 121120Z 05006KT CAVOK 21/08 Q1019 NOSIG', 'LTAF 121050Z 06006KT CAVOK 20/09 Q1019 NOSIG', 'LTAF 121020Z 05006KT 010V080 CAVOK 20/09 Q1019 NOSIG', 'LTAF 120950Z 36004KT CAVOK 20/09 Q1020 NOSIG', 'LTAF 120920Z 04006KT CAVOK 19/10 Q1020 NOSIG']","['2024-02-15 08:50:00', '2024-02-15 08:20:00', '2024-02-15 07:50:00', '2024-02-15 07:20:00', '2024-02-15 06:50:00', '2024-02-15 06:20:00', '2024-02-15 05:50:00', '2024-02-15 05:20:00', '2024-02-15 04:50:00', '2024-02-15 04:20:00', '2024-02-15 03:50:00', '2024-02-15 03:20:00', '2024-02-15 02:50:00', '2024-02-15 02:20:00', '2024-02-15 01:50:00', '2024-02-15 01:20:00', '2024-02-15 00:50:00', '2024-02-15 00:20:00', '2024-02-14 23:50:00', '2024-02-14 23:20:00', '2024-02-14 22:50:00', '2024-02-14 22:20:00', '2024-02-14 21:50:00', '2024-02-14 21:20:00', '2024-02-14 20:50:00', '2024-02-14 20:20:00', '2024-02-14 19:50:00', '2024-02-14 19:20:00', '2024-02-14 18:50:00', '2024-02-14 18:20:00', '2024-02-14 17:50:00', '2024-02-14 17:20:00', '2024-02-14 16:50:00', '2024-02-14 16:20:00', '2024-02-14 15:50:00', '2024-02-14 15:20:00', '2024-02-14 14:50:00', '2024-02-14 14:20:00', '2024-02-14 13:50:00', '2024-02-14 13:20:00', '2024-02-14 12:50:00', '2024-02-14 12:20:00', '2024-02-14 11:50:00', '2024-02-14 11:20:00', '2024-02-14 10:50:00', '2024-02-14 10:20:00', '2024-02-14 09:50:00', '2024-02-14 09:20:00', '2024-02-14 08:50:00', '2024-02-14 08:20:00', '2024-02-14 07:50:00', '2024-02-14 07:20:00', '2024-02-14 06:50:00', '2024-02-14 06:20:00', '2024-02-14 05:50:00', '2024-02-14 05:20:00', '2024-02-14 04:50:00', '2024-02-14 04:20:00', '2024-02-14 03:50:00', '2024-02-14 03:20:00', '2024-02-14 02:50:00', '2024-02-14 02:20:00', '2024-02-14 01:50:00', '2024-02-14 01:20:00', '2024-02-14 00:50:00', '2024-02-14 00:20:00', '2024-02-13 23:50:00', '2024-02-13 23:20:00', '2024-02-13 22:50:00', '2024-02-13 22:20:00', '2024-02-13 21:50:00', '2024-02-13 21:20:00', '2024-02-13 20:50:00', '2024-02-13 20:20:00', '2024-02-13 19:50:00', '2024-02-13 19:20:00', '2024-02-13 18:50:00', '2024-02-13 18:20:00', '2024-02-13 17:50:00', '2024-02-13 17:20:00', '2024-02-13 16:50:00', '2024-02-13 16:20:00', '2024-02-13 15:50:00', '2024-02-13 15:20:00', '2024-02-13 14:50:00', '2024-02-13 14:20:00', '2024-02-13 13:50:00', '2024-02-13 13:20:00', '2024-02-13 12:50:00', '2024-02-13 12:20:00', '2024-02-13 11:50:00', '2024-02-13 11:20:00', '2024-02-13 10:50:00', '2024-02-13 10:20:00', '2024-02-13 09:50:00', '2024-02-13 09:20:00', '2024-02-13 08:50:00', '2024-02-13 08:20:00', '2024-02-13 07:50:00', '2024-02-13 07:20:00', '2024-02-13 06:50:00', '2024-02-13 06:20:00', '2024-02-13 05:50:00', '2024-02-13 05:20:00', '2024-02-13 04:50:00', '2024-02-13 04:20:00', '2024-02-13 03:50:00', '2024-02-13 03:20:00', '2024-02-13 02:50:00', '2024-02-13 02:20:00', '2024-02-13 01:50:00', '2024-02-13 01:20:00', '2024-02-13 00:50:00', '2024-02-13 00:20:00', '2024-02-12 23:50:00', '2024-02-12 23:20:00', '2024-02-12 22:50:00', '2024-02-12 22:20:00', '2024-02-12 21:50:00', '2024-02-12 21:20:00', '2024-02-12 20:50:00', '2024-02-12 20:20:00', '2024-02-12 19:50:00', '2024-02-12 19:20:00', '2024-02-12 18:50:00', '2024-02-12 18:20:00', '2024-02-12 17:50:00', '2024-02-12 17:20:00', '2024-02-12 16:50:00', '2024-02-12 16:20:00', '2024-02-12 15:50:00', '2024-02-12 15:20:00', '2024-02-12 14:50:00', '2024-02-12 14:20:00', '2024-02-12 13:50:00', '2024-02-12 13:20:00', '2024-02-12 12:50:00', '2024-02-12 12:20:00', '2024-02-12 11:50:00', '2024-02-12 11:20:00', '2024-02-12 10:50:00', '2024-02-12 10:20:00', '2024-02-12 09:50:00', '2024-02-12 09:20:00']"
Turkey, Adana Incirlik Airport (UAB/LTAG) ,"['LTAG 150850Z 06005KT 9999 FEW040 SCT180 17/12 Q1012 NOSIG', 'LTAG 150820Z 04005KT 9999 FEW040 SCT180 15/11 Q1012 NOSIG', 'LTAG 150750Z 02004KT 9999 FEW040 SCT180 13/11 Q1012 NOSIG', 'LTAG 150720Z 02004KT 9999 FEW040 SCT180 12/10 Q1012 NOSIG', 'LTAG 150650Z 00000KT 9999 FEW040 SCT200 10/09 Q1011 NOSIG', 'LTAG 150620Z 00000KT 9999 FEW040 09/08 Q1011 NOSIG', 'LTAG 150550Z 01004KT 9999 FEW040 09/07 Q1011 NOSIG', 'LTAG 150520Z 02005KT 9999 FEW040 09/07 Q1011 NOSIG', 'LTAG 150450Z 01005KT 9999 FEW035 SCT100 08/07 Q1010 NOSIG', 'LTAG 150420Z 02002KT 9999 FEW035 SCT100 07/06 Q1010 NOSIG', 'LTAG 150350Z 03002KT 9999 FEW035 SCT100 07/07 Q1009 NOSIG', 'LTAG 150320Z 02002KT 9999 FEW035 SCT100 08/07 Q1009 NOSIG', 'LTAG 150250Z 32002KT 9999 FEW035 SCT100 08/07 Q1009 NOSIG', 'LTAG 150220Z 28003KT 9999 FEW035 SCT100 10/08 Q1009 NOSIG', 'LTAG 150150Z 01003KT 9999 FEW035 SCT100 08/07 Q1009 NOSIG', 'LTAG 150120Z 02004KT 9999 FEW035 SCT100 10/09 Q1009 NOSIG', 'LTAG 150050Z 31002KT 9999 FEW035 SCT100 10/09 Q1009 NOSIG', 'LTAG 150020Z 31002KT 9999 SCT035 BKN100 12/11 Q1008 NOSIG', 'LTAG 142350Z 31002KT 9999 SCT035 BKN100 12/11 Q1008 NOSIG', 'LTAG 142320Z 34002KT 9999 SCT035 BKN100 12/10 Q1008 NOSIG', 'LTAG 142250Z 33001KT 9999 SCT035 BKN100 12/11 Q1008 NOSIG', 'LTAG 142220Z 02003KT 9999 SCT035 BKN100 12/10 Q1008 NOSIG', 'LTAG 142150Z 01003KT 9999 SCT035 BKN100 12/10 Q1008 NOSIG', 'LTAG 142120Z 01003KT 9999 SCT035 BKN100 12/10 Q1008 NOSIG', 'LTAG 142050Z 02004KT 9999 SCT035 BKN100 12/10 Q1008 NOSIG', 'LTAG 142020Z 32003KT 9999 SCT035 BKN100 12/10 Q1008 NOSIG', 'LTAG 141950Z 36005KT 9999 SCT035 BKN100 12/10 Q1007 NOSIG', 'LTAG 141920Z 01004KT 9999 SCT030 BKN090 12/11 Q1007 NOSIG', 'LTAG 141850Z 01005KT 9999 BKN030 BKN090 12/11 Q1008 RESHRA NOSIG', 'LTAG 141820Z 01008KT 9999 -SHRA BKN030 BKN090 13/11 Q1007 NOSIG', 'LTAG 141750Z 03009KT 9999 -SHRA BKN030 BKN090 13/11 Q1007 RESHRA NOSIG', 'LTAG 141720Z 03004KT 6000 SHRA BKN030 BKN090 13/11 Q1007 BECMG TL1820 NSW', 'LTAG 141650Z 05005KT 9999 SCT035 BKN100 13/11 Q1007 NOSIG', 'LTAG 141620Z 06005KT 9999 SCT035 BKN100 13/11 Q1006 NOSIG', 'LTAG 141550Z 06006KT 9999 BKN030 BKN090 13/11 Q1006 NOSIG', 'LTAG 141520Z 05007KT 9999 BKN030 BKN090 13/11 Q1006 NOSIG', 'LTAG 141450Z 04008KT 9999 BKN030 BKN090 14/11 Q1006 NOSIG', 'LTAG 141420Z 02008KT 9999 FEW025CB BKN030 BKN090 14/12 Q1006 TEMPO TL1500 -TSRA', 'LTAG 141350Z 03007KT 9999 FEW025CB BKN030 BKN090 14/12 Q1006 TEMPO TL1500 -TSRA', 'LTAG 141320Z 03006KT 9999 FEW025CB BKN030 BKN090 15/12 Q1006 RESHRA TEMPO TL1500 -TSRA', 'LTAG 141250Z 35005KT 9999 -SHRA FEW025CB BKN030 BKN090 14/12 Q1006 TEMPO -TSRA', 'LTAG 141220Z 32009KT 9999 -SHRA FEW025CB BKN030 BKN090 14/11 Q1006 TEMPO -TSRA', 'LTAG 141150Z 35010KT 9999 BKN030 BKN100 14/11 Q1005 RESHRA TEMPO -TSRA', 'LTAG 141120Z 34007KT 9999 -SHRA FEW025CB BKN030 BKN090 14/11 Q1005 TEMPO FM1200 -TSRA', 'LTAG 141050Z 34007KT 9999 -SHRA FEW025CB BKN030 BKN090 14/11 Q1006 TEMPO FM1200 -TSRA', 'LTAG 141020Z 02006KT 9999 -SHRA FEW025CB BKN030 BKN090 14/11 Q1006 TEMPO TL1100 4000 TSRA', 'LTAG 140950Z 35006KT 9999 -SHRA FEW025CB BKN030 BKN090 14/11 Q1006 TEMPO TL1100 4000 TSRA', 'LTAG 140920Z 33004KT 9999 -SHRA FEW025CB BKN030 BKN090 14/11 Q1006 RETSRA TEMPO TL1100 VRB15G25KT 4000 TSRA', 'LTAG 140850Z 26002KT 8000 -TSRA FEW025CB BKN030 BKN090 13/11 Q1007 BECMG TL0950 NSW TEMPO VRB15G25KT 4000 TSRA', 'LTAG 140820Z 20008KT 8000 -TSRA FEW025CB BKN030 BKN090 14/11 Q1007 BECMG TL0920 NSW TEMPO 4000 TSRA', 'LTAG 140750Z 19009KT 8000 -TSRA FEW025CB BKN030 BKN090 13/11 Q1007 RETSRA BECMG TL0850 NSW TEMPO 4000 TSRA', 'LTAG 140720Z 06007KT 4000 TSRA SCT025CB BKN030 BKN090 15/11 Q1006 RESHRA BECMG TL0820 9999 NSW TEMPO FM0830 -TSRA 3CB025 5CU030 7AC090', 'LTAG 140650Z 04007KT 6000 -SHRA FEW025CB BKN030 BKN090 15/10 Q1005 TEMPO FM0800 -TSRA', 'LTAG 140620Z 04013KT 9999 -SHRA BKN030 BKN090 16/08 Q1005 TEMPO FM0800 -TSRA', 'LTAG 140550Z 03015KT CAVOK 16/08 Q1005 NOSIG', 'LTAG 140520Z 02014KT CAVOK 16/08 Q1004 NOSIG', 'LTAG 140450Z 01013KT CAVOK 16/08 Q1004 NOSIG', 'LTAG 140420Z 01013KT CAVOK 16/08 Q1004 NOSIG', 'LTAG 140350Z 02015KT CAVOK 16/08 Q1004 NOSIG', 'LTAG 140320Z 02012KT CAVOK 16/08 Q1004 NOSIG', 'LTAG 140250Z 02012KT CAVOK 16/08 Q1005 NOSIG', 'LTAG 140220Z 36008KT CAVOK 16/08 Q1005 NOSIG', 'LTAG 140150Z 34009KT CAVOK 16/08 Q1005 NOSIG', 'LTAG 140120Z 05012KT 9999 FEW035 BKN080 BKN180 16/09 Q1005 NOSIG', 'LTAG 140050Z 01009KT 9999 FEW035 BKN080 BKN170 16/09 Q1007 NOSIG', 'LTAG 140020Z 35009KT 9999 FEW035 BKN080 BKN170 16/09 Q1007 NOSIG', 'LTAG 132350Z 35009KT 9999 FEW035 BKN080 BKN170 16/09 Q1007 NOSIG', 'LTAG 132320Z 35008KT 9999 FEW035 BKN080 BKN170 16/10 Q1007 NOSIG', 'LTAG 132250Z 33009KT 9999 FEW035 BKN080 BKN170 15/10 Q1007 NOSIG', 'LTAG 132220Z 33009KT 9999 FEW035 BKN080 BKN170 15/10 Q1007 NOSIG', 'LTAG 132150Z 34010KT 9999 FEW035 BKN080 BKN170 15/11 Q1008 NOSIG', 'LTAG 132120Z 34009KT 9999 FEW035 BKN080 BKN170 16/10 Q1008 RESHRA NOSIG', 'LTAG 132050Z 35010KT 9999 -SHRA FEW035 BKN080 BKN170 16/10 Q1008 NOSIG', 'LTAG 132020Z 35010KT 9999 -SHRA FEW035 BKN080 BKN170 15/09 Q1009 NOSIG', 'LTAG 131950Z 35009KT 9999 -SHRA FEW035 BKN080 BKN170 16/09 Q1009 NOSIG', 'LTAG 131850Z 02006KT 9999 FEW035 BKN100 BKN170 16/09 Q1009 NOSIG', 'LTAG 131820Z 02009KT 9999 FEW035 BKN100 BKN170 16/08 Q1009 NOSIG', 'LTAG 131750Z 01006KT 9999 FEW035 BKN100 BKN170 16/09 Q1009 NOSIG', 'LTAG 131650Z 02006KT 9999 FEW035 BKN110 BKN170 16/09 Q1009 NOSIG', 'LTAG 131620Z 01006KT 9999 FEW035 BKN110 BKN170 15/10 Q1009 NOSIG', 'LTAG 131550Z 02008KT 9999 FEW035 BKN110 BKN170 16/10 Q1009 NOSIG', 'LTAG 131520Z 02006KT 9999 FEW035 BKN110 BKN170 18/09 Q1009 NOSIG', 'LTAG 131450Z 03004KT 9999 FEW035 BKN110 BKN170 19/10 Q1008 NOSIG', 'LTAG 131420Z 05005KT 9999 FEW035 BKN110 BKN170 20/09 Q1008 NOSIG', 'LTAG 131350Z 05007KT 9999 FEW035 BKN110 BKN170 20/09 Q1008 NOSIG 2CU035 5AC110 7CS170', 'LTAG 131320Z 05010KT 9999 FEW035 BKN110 BKN170 21/09 Q1008 NOSIG', 'LTAG 131250Z 04014KT 9999 FEW035 BKN110 BKN170 21/09 Q1008 NOSIG', 'LTAG 131220Z 03018KT 9999 FEW035 BKN110 BKN170 21/09 Q1008 NOSIG', 'LTAG 131150Z 05018KT 9999 FEW035 BKN110 BKN170 20/08 Q1009 NOSIG', 'LTAG 131120Z 05015KT 9999 FEW035 BKN110 BKN170 21/08 Q1009 NOSIG', 'LTAG 131050Z 05011KT 9999 FEW035 BKN110 BKN170 20/08 Q1010 NOSIG', 'LTAG 131020Z 04011KT 9999 FEW035 BKN110 BKN180 20/09 Q1010 NOSIG', 'LTAG 130950Z 04013KT 9999 FEW035 BKN100 BKN180 19/09 Q1011 NOSIG', 'LTAG 130920Z 03012KT 9999 FEW030 BKN110 BKN180 19/08 Q1011 NOSIG', 'LTAG 130850Z 03012KT 9999 FEW030 BKN110 BKN180 19/08 Q1011 NOSIG', 'LTAG 130820Z 03014KT 9999 FEW030 BKN110 BKN180 18/08 Q1011 NOSIG', 'LTAG 130750Z 02011KT 9999 SCT030 BKN100 18/08 Q1012 NOSIG', 'LTAG 130720Z 03010KT 9999 SCT030 BKN100 18/08 Q1012 NOSIG', 'LTAG 130650Z 02011KT 9999 SCT030 BKN100 18/08 Q1012 NOSIG', 'LTAG 130620Z 02010KT 9999 SCT035 BKN100 17/08 Q1012 NOSIG', 'LTAG 130550Z 36008KT 9999 SCT035 BKN100 17/08 Q1012 NOSIG', 'LTAG 130520Z 36010KT 9999 SCT035 BKN100 16/07 Q1012 NOSIG', 'LTAG 130450Z 01011KT 9999 SCT035 BKN100 16/07 Q1012 NOSIG', 'LTAG 130420Z 02010KT 9999 SCT035 BKN100 16/07 Q1012 NOSIG', 'LTAG 130350Z 36011KT 9999 SCT035 BKN100 16/07 Q1012 NOSIG', 'LTAG 130320Z 36009KT 9999 SCT035 BKN100 16/07 Q1012 NOSIG', 'LTAG 130250Z 01011KT 9999 SCT035 BKN100 16/07 Q1012 NOSIG', 'LTAG 130220Z 02009KT 9999 SCT035 BKN100 16/06 Q1012 NOSIG', 'LTAG 130150Z 02013KT 9999 SCT035 BKN100 16/06 Q1012 NOSIG', 'LTAG 130120Z 36011KT 9999 FEW035 BKN100 16/06 Q1013 NOSIG', 'LTAG 130050Z 02010KT 9999 FEW035 BKN100 15/06 Q1013 NOSIG', 'LTAG 130020Z 02007KT 9999 FEW035 BKN100 15/06 Q1014 NOSIG', 'LTAG 122350Z 01007KT 9999 FEW035 BKN100 15/07 Q1014 NOSIG', 'LTAG 122320Z 01007KT 9999 FEW035 BKN100 16/07 Q1014 NOSIG', 'LTAG 122250Z 02010KT CAVOK 15/07 Q1014 NOSIG', 'LTAG 122220Z 02009KT CAVOK 15/08 Q1015 NOSIG', 'LTAG 122150Z 01008KT CAVOK 15/08 Q1015 NOSIG', 'LTAG 122120Z 01008KT CAVOK 15/08 Q1015 NOSIG', 'LTAG 122050Z 01008KT CAVOK 15/08 Q1016 NOSIG', 'LTAG 122020Z 02008KT CAVOK 15/08 Q1016 NOSIG', 'LTAG 121950Z 02007KT CAVOK 14/08 Q1016 NOSIG', 'LTAG 121920Z 02007KT CAVOK 14/08 Q1016 NOSIG', 'LTAG 121850Z 02006KT CAVOK 13/08 Q1016 NOSIG', 'LTAG 121820Z 01008KT CAVOK 13/08 Q1016 NOSIG', 'LTAG 121750Z 02005KT CAVOK 13/09 Q1017 NOSIG', 'LTAG 121720Z 01005KT CAVOK 13/09 Q1017 NOSIG', 'LTAG 121650Z 01006KT CAVOK 14/09 Q1017 NOSIG', 'LTAG 121620Z 01005KT CAVOK 15/09 Q1017 NOSIG', 'LTAG 121550Z 36005KT CAVOK 16/08 Q1017 NOSIG', 'LTAG 121520Z 36005KT CAVOK 18/08 Q1017 NOSIG', 'LTAG 121450Z 01004KT CAVOK 19/08 Q1017 NOSIG', 'LTAG 121420Z 01004KT CAVOK 20/08 Q1017 NOSIG', 'LTAG 121350Z 03005KT CAVOK 20/08 Q1017 NOSIG', 'LTAG 121320Z 03006KT CAVOK 20/08 Q1017 NOSIG', 'LTAG 121250Z 06006KT CAVOK 21/06 Q1018 NOSIG', 'LTAG 121220Z 02005KT CAVOK 21/06 Q1018 NOSIG', 'LTAG 121150Z 04005KT CAVOK 21/07 Q1018 NOSIG', 'LTAG 121120Z 36005KT CAVOK 21/07 Q1018 NOSIG', 'LTAG 121050Z 02006KT CAVOK 20/08 Q1019 NOSIG', 'LTAG 121020Z 02005KT CAVOK 20/08 Q1019 NOSIG', 'LTAG 120950Z 04007KT CAVOK 19/08 Q1020 NOSIG', 'LTAG 120920Z 04009KT CAVOK 20/08 Q1020 NOSIG']","['2024-02-15 08:50:00', '2024-02-15 08:20:00', '2024-02-15 07:50:00', '2024-02-15 07:20:00', '2024-02-15 06:50:00', '2024-02-15 06:20:00', '2024-02-15 05:50:00', '2024-02-15 05:20:00', '2024-02-15 04:50:00', '2024-02-15 04:20:00', '2024-02-15 03:50:00', '2024-02-15 03:20:00', '2024-02-15 02:50:00', '2024-02-15 02:20:00', '2024-02-15 01:50:00', '2024-02-15 01:20:00', '2024-02-15 00:50:00', '2024-02-15 00:20:00', '2024-02-14 23:50:00', '2024-02-14 23:20:00', '2024-02-14 22:50:00', '2024-02-14 22:20:00', '2024-02-14 21:50:00', '2024-02-14 21:20:00', '2024-02-14 20:50:00', '2024-02-14 20:20:00', '2024-02-14 19:50:00', '2024-02-14 19:20:00', '2024-02-14 18:50:00', '2024-02-14 18:20:00', '2024-02-14 17:50:00', '2024-02-14 17:20:00', '2024-02-14 16:50:00', '2024-02-14 16:20:00', '2024-02-14 15:50:00', '2024-02-14 15:20:00', '2024-02-14 14:50:00', '2024-02-14 14:20:00', '2024-02-14 13:50:00', '2024-02-14 13:20:00', '2024-02-14 12:50:00', '2024-02-14 12:20:00', '2024-02-14 11:50:00', '2024-02-14 11:20:00', '2024-02-14 10:50:00', '2024-02-14 10:20:00', '2024-02-14 09:50:00', '2024-02-14 09:20:00', '2024-02-14 08:50:00', '2024-02-14 08:20:00', '2024-02-14 07:50:00', '2024-02-14 07:20:00', '2024-02-14 06:50:00', '2024-02-14 06:20:00', '2024-02-14 05:50:00', '2024-02-14 05:20:00', '2024-02-14 04:50:00', '2024-02-14 04:20:00', '2024-02-14 03:50:00', '2024-02-14 03:20:00', '2024-02-14 02:50:00', '2024-02-14 02:20:00', '2024-02-14 01:50:00', '2024-02-14 01:20:00', '2024-02-14 00:50:00', '2024-02-14 00:20:00', '2024-02-13 23:50:00', '2024-02-13 23:20:00', '2024-02-13 22:50:00', '2024-02-13 22:20:00', '2024-02-13 21:50:00', '2024-02-13 21:20:00', '2024-02-13 20:50:00', '2024-02-13 20:20:00', '2024-02-13 19:50:00', '2024-02-13 18:50:00', '2024-02-13 18:20:00', '2024-02-13 17:50:00', '2024-02-13 16:50:00', '2024-02-13 16:20:00', '2024-02-13 15:50:00', '2024-02-13 15:20:00', '2024-02-13 14:50:00', '2024-02-13 14:20:00', '2024-02-13 13:50:00', '2024-02-13 13:20:00', '2024-02-13 12:50:00', '2024-02-13 12:20:00', '2024-02-13 11:50:00', '2024-02-13 11:20:00', '2024-02-13 10:50:00', '2024-02-13 10:20:00', '2024-02-13 09:50:00', '2024-02-13 09:20:00', '2024-02-13 08:50:00', '2024-02-13 08:20:00', '2024-02-13 07:50:00', '2024-02-13 07:20:00', '2024-02-13 06:50:00', '2024-02-13 06:20:00', '2024-02-13 05:50:00', '2024-02-13 05:20:00', '2024-02-13 04:50:00', '2024-02-13 04:20:00', '2024-02-13 03:50:00', '2024-02-13 03:20:00', '2024-02-13 02:50:00', '2024-02-13 02:20:00', '2024-02-13 01:50:00', '2024-02-13 01:20:00', '2024-02-13 00:50:00', '2024-02-13 00:20:00', '2024-02-12 23:50:00', '2024-02-12 23:20:00', '2024-02-12 22:50:00', '2024-02-12 22:20:00', '2024-02-12 21:50:00', '2024-02-12 21:20:00', '2024-02-12 20:50:00', '2024-02-12 20:20:00', '2024-02-12 19:50:00', '2024-02-12 19:20:00', '2024-02-12 18:50:00', '2024-02-12 18:20:00', '2024-02-12 17:50:00', '2024-02-12 17:20:00', '2024-02-12 16:50:00', '2024-02-12 16:20:00', '2024-02-12 15:50:00', '2024-02-12 15:20:00', '2024-02-12 14:50:00', '2024-02-12 14:20:00', '2024-02-12 13:50:00', '2024-02-12 13:20:00', '2024-02-12 12:50:00', '2024-02-12 12:20:00', '2024-02-12 11:50:00', '2024-02-12 11:20:00', '2024-02-12 10:50:00', '2024-02-12 10:20:00', '2024-02-12 09:50:00', '2024-02-12 09:20:00']"
Turkey, Adiyaman Airport (ADF/LTCP) ,"['LTCP 150850Z 08006KT 9999 SCT009 BKN035 10/09 Q1014', 'LTCP 150750Z 12006KT 080V150 9999 FEW006 SCT015 BKN035 09/09 Q1014', 'LTCP 150650Z 07008KT 9999 FEW004 SCT015 BKN035 09/09 Q1014', 'LTCP 150550Z 09006KT 9999 FEW006 SCT015 BKN033 08/08 Q1014', 'LTCP 150450Z 09004KT 9999 SCT004 SCT015 BKN030 07/07 Q1013', 'LTCP 150350Z 08006KT 9999 FEW005 SCT015 BKN035 07/07 Q1012', 'LTCP 150250Z 04003KT 9999 FEW015 BKN035 BKN090 07/07 Q1011', 'LTCP 141250Z 08012KT 6000 SHRA FEW010 BKN030 BKN090 10/10 Q1009', 'LTCP 141150Z 07011KT 9000 -SHRA FEW009 BKN030 BKN090 10/10 Q1009 RESHRA', 'LTCP 141050Z 09011KT 6000 -SHRA FEW011 BKN030 BKN090 10/10 Q1010', 'LTCP 140950Z 09014KT 7000 FEW013 BKN030 BKN090 11/10 Q1010', 'LTCP 140850Z 09013KT 9000 FEW013 BKN030 BKN090 11/09 Q1011 RESHRA', 'LTCP 140750Z 07014KT 9000 FEW015 BKN030 BKN090 10/10 Q1011', 'LTCP 140650Z 06011KT 9000 FEW015 BKN030 BKN090 10/09 Q1011 RESHRA', 'LTCP 140550Z 04013KT 4000 -SHRA BR FEW011 BKN030 BKN090 09/09 Q1012 RESHRA', 'LTCP 140450Z 34007KT 3400 -SHRA FEW011 BKN030 BKN090 08/08 Q1012 RETSRA', 'LTCP 140350Z 20017KT 8000 TSRA FEW027CB BKN030 BKN090 10/09 Q1012 RESHRA', 'LTCP 140250Z 09013KT 9999 BKN030 BKN090 11/08 Q1011', 'LTCP 131450Z 09008KT 9999 SCT040 BKN100 13/08 Q1015', 'LTCP 131350Z 08009KT 9999 SCT040 BKN100 13/08 Q1015', 'LTCP 131250Z 08010KT 9999 SCT040 BKN100 14/08 Q1016', 'LTCP 131150Z 09011KT 9999 SCT040 BKN100 14/08 Q1016', 'LTCP 131050Z 10012KT 9999 SCT040 BKN100 14/07 Q1017', 'LTCP 130950Z 10013KT 9999 SCT040 BKN100 14/07 Q1017', 'LTCP 130850Z 09013KT 9999 SCT040 BKN100 14/07 Q1018', 'LTCP 130750Z 09016KT 9999 SCT040 BKN100 12/07 Q1019', 'LTCP 130650Z 09012KT 9999 SCT040 BKN100 11/07 Q1019', 'LTCP 130550Z 09010KT 9999 SCT040 BKN100 11/07 Q1019', 'LTCP 130450Z 09010KT 9999 SCT040 BKN100 10/07 Q1019', 'LTCP 130350Z 08008KT 9999 SCT040 BKN100 10/07 Q1019', 'LTCP 130250Z 07008KT 9999 SCT040 BKN100 10/07 Q1019', 'LTCP 121250Z 10005KT 060V130 9999 FEW035 SCT100 BKN200 15/06 Q1021', 'LTCP 121150Z 09007KT 050V110 9999 SCT035 BKN180 15/06 Q1021', 'LTCP 121050Z 10006KT 030V160 9999 SCT035 BKN180 15/07 Q1022', 'LTCP 120950Z 12006KT 090V150 9999 SCT035 BKN180 14/08 Q1023']","['2024-02-15 08:50:00', '2024-02-15 07:50:00', '2024-02-15 06:50:00', '2024-02-15 05:50:00', '2024-02-15 04:50:00', '2024-02-15 03:50:00', '2024-02-15 02:50:00', '2024-02-14 12:50:00', '2024-02-14 11:50:00', '2024-02-14 10:50:00', '2024-02-14 09:50:00', '2024-02-14 08:50:00', '2024-02-14 07:50:00', '2024-02-14 06:50:00', '2024-02-14 05:50:00', '2024-02-14 04:50:00', '2024-02-14 03:50:00', '2024-02-14 02:50:00', '2024-02-13 14:50:00', '2024-02-13 13:50:00', '2024-02-13 12:50:00', '2024-02-13 11:50:00', '2024-02-13 10:50:00', '2024-02-13 09:50:00', '2024-02-13 08:50:00', '2024-02-13 07:50:00', '2024-02-13 06:50:00', '2024-02-13 05:50:00', '2024-02-13 04:50:00', '2024-02-13 03:50:00', '2024-02-13 02:50:00', '2024-02-12 12:50:00', '2024-02-12 11:50:00', '2024-02-12 10:50:00', '2024-02-12 09:50:00']"
Turkey, Agri Airport (AJI/LTCO) ,"['LTCO 150850Z 03004KT 320V090 9999 SCT035 BKN070 07/03 Q1015', 'LTCO 150750Z 12004KT 090V160 9999 SCT035 BKN070 06/03 Q1015', 'LTCO 150650Z VRB02KT 6000 BKN035 BKN070 04/03 Q1015', 'LTCO 150550Z VRB02KT 4500 BR BKN035 BKN070 02/02 Q1014', 'LTCO 141350Z 05004KT 9999 BKN030 BKN070 05/02 Q1015', 'LTCO 141250Z 30003KT 9999 BKN030 BKN070 05/01 Q1015', 'LTCO 141150Z VRB02KT 9999 BKN030 BKN070 05/01 Q1015', 'LTCO 141050Z VRB03KT 6000 BKN030 BKN070 05/01 Q1015', 'LTCO 140950Z 29003KT 240V340 4500 BR BKN030 BKN070 05/00 Q1016', 'LTCO 140850Z 04003KT 350V110 3500 BR BKN030 BKN070 03/M00 Q1017', 'LTCO 140750Z 06005KT 020V090 2500 BR FEW009 BKN030 BKN070 01/M00 Q1018', 'LTCO 140650Z 00000KT 2500 BR FEW009 BKN030 BKN070 00/M01 Q1018', 'LTCO 140550Z 20003KT 170V240 1600 BR FEW009 BKN030 BKN070 M01/M01 Q1018', 'LTCO 131650Z 24002KT 6000 SCT080 M00/M01 Q1020', 'LTCO 131550Z 32004KT 8000 SCT080 BKN180 00/M01 Q1020', 'LTCO 131450Z 36003KT 6000 SCT080 BKN180 02/M00 Q1020', 'LTCO 131350Z 35003KT 8000 SCT080 BKN180 03/M00 Q1021', 'LTCO 131250Z 35004KT 320V020 7000 FEW040 SCT080 BKN180 03/M00 Q1020', 'LTCO 131150Z 35004KT 320V020 4500 BR FEW040 SCT080 BKN180 03/M00 Q1020', 'LTCO 131050Z 06003KT 340V130 4500 BR SCT040 BKN080 03/M01 Q1021', 'LTCO 130950Z VRB03KT 4500 BR BKN035 03/M01 Q1021', 'LTCO 130850Z 33003KT 220V030 2500 BR SCT004 BKN035 00/M01 Q1022', 'LTCO 130750Z VRB02KT 0600 R16/0900U R34/0750U FZFG VV003 M02/M02 Q1023', 'LTCO 130650Z VRB01KT 0400 0300N R16/0300N R34/0450U FZFG VV002 M03/M03 Q1023', 'LTCO 130550Z VRB02KT 0400 0300N R16/0300N R34/0500U FZFG VV002 M04/M05 Q1024', 'LTCO 130450Z 09002KT 0350 0250N R16/0275D R34/P1500D BCFG VV002 M05/M05 Q1023', 'LTCO 130350Z 00000KT 0600 R16/1200D R34/1300U BCFG VV004 M05/M05 Q1023', 'LTCO 121350Z 20007KT 9999 SCT040 03/M02 Q1024', 'LTCO 121250Z 22005KT 180V240 9999 SCT040 04/M02 Q1025', 'LTCO 121150Z 23004KT 190V260 9999 SCT040 04/M02 Q1025', 'LTCO 121050Z 22005KT 140V250 9999 SCT040 04/M02 Q1025', 'LTCO 120950Z 20005KT 150V260 9999 SCT040 04/M02 Q1026']","['2024-02-15 08:50:00', '2024-02-15 07:50:00', '2024-02-15 06:50:00', '2024-02-15 05:50:00', '2024-02-14 13:50:00', '2024-02-14 12:50:00', '2024-02-14 11:50:00', '2024-02-14 10:50:00', '2024-02-14 09:50:00', '2024-02-14 08:50:00', '2024-02-14 07:50:00', '2024-02-14 06:50:00', '2024-02-14 05:50:00', '2024-02-13 16:50:00', '2024-02-13 15:50:00', '2024-02-13 14:50:00', '2024-02-13 13:50:00', '2024-02-13 12:50:00', '2024-02-13 11:50:00', '2024-02-13 10:50:00', '2024-02-13 09:50:00', '2024-02-13 08:50:00', '2024-02-13 07:50:00', '2024-02-13 06:50:00', '2024-02-13 05:50:00', '2024-02-13 04:50:00', '2024-02-13 03:50:00', '2024-02-12 13:50:00', '2024-02-12 12:50:00', '2024-02-12 11:50:00', '2024-02-12 10:50:00', '2024-02-12 09:50:00']"
Turkey, Ankara Esenboga International Airport (ESB/LTAC) ,"['LTAC 150850Z 23004KT 160V330 9999 SCT040 BKN100 10/05 Q1011 NOSIG', 'LTAC 150820Z 24004KT 200V300 9999 SCT017 BKN080 08/04 Q1011 NOSIG', 'LTAC 150750Z VRB02KT 9999 SCT017 BKN080 09/05 Q1011 NOSIG', 'LTAC 150720Z VRB01KT 9999 SCT017 BKN080 07/04 Q1011 NOSIG', 'LTAC 150650Z VRB02KT 9999 SCT017 BKN080 06/04 Q1011 NOSIG', 'LTAC 150620Z VRB02KT 9999 SCT017 BKN080 06/04 Q1010 NOSIG', 'LTAC 150550Z VRB02KT 9999 SCT020 BKN080 05/03 Q1010 NOSIG', 'LTAC 150520Z VRB01KT 9999 SCT020 BKN080 05/04 Q1009 NOSIG', 'LTAC 150450Z 00000KT 9999 SCT025 BKN080 05/04 Q1009 NOSIG', 'LTAC 150420Z 01003KT 9999 SCT025 BKN080 05/03 Q1009 NOSIG', 'LTAC 150350Z VRB02KT 9999 SCT025 BKN080 06/03 Q1009 NOSIG', 'LTAC 150320Z VRB02KT 9999 SCT025 BKN080 05/04 Q1009 NOSIG', 'LTAC 150250Z 06003KT 9999 SCT025 BKN080 05/04 Q1008 NOSIG', 'LTAC 150220Z 02004KT 9999 SCT025 BKN080 05/03 Q1008 NOSIG', 'LTAC 150150Z 03004KT 9999 SCT025 BKN080 05/03 Q1008 NOSIG', 'LTAC 150120Z 01004KT 9999 SCT025 BKN080 05/04 Q1008 NOSIG', 'LTAC 150050Z 03008KT 9999 SCT025 BKN080 05/04 Q1008 NOSIG', 'LTAC 150020Z 03007KT 9999 SCT025 BKN080 05/04 Q1008 NOSIG', 'LTAC 142350Z 03007KT 9999 SCT025 BKN080 05/03 Q1008 NOSIG', 'LTAC 142320Z 03009KT 9999 SCT025 BKN080 05/03 Q1008 NOSIG', 'LTAC 142250Z 02010KT 9999 BKN023 BKN080 05/03 Q1008 NOSIG', 'LTAC 142220Z 03012KT 9999 BKN023 BKN080 06/03 Q1008 NOSIG', 'LTAC 142150Z 05010KT 9999 BKN023 BKN080 06/04 Q1008 NOSIG', 'LTAC 142120Z 05012KT 9999 BKN023 BKN080 06/04 Q1008 RESHRA NOSIG', 'LTAC 142050Z 04009KT 9999 -SHRA FEW010 BKN025 BKN080 06/04 Q1008 NOSIG', 'LTAC 142020Z 35003KT 280V030 9999 -SHRA FEW010 BKN025 BKN080 06/04 Q1008 NOSIG', 'LTAC 141950Z 05012KT 9999 -SHRA BKN030 BKN080 06/05 Q1008 NOSIG', 'LTAC 141920Z 06014KT 9999 -SHRA BKN030 BKN080 07/05 Q1007 NOSIG', 'LTAC 141850Z 05014KT 9999 -SHRA BKN025 BKN080 07/05 Q1007 NOSIG', 'LTAC 141820Z 05014KT 9999 -SHRA BKN025 BKN080 07/06 Q1007 NOSIG', 'LTAC 141750Z 07012KT 9999 -SHRA BKN025 BKN080 07/06 Q1007 NOSIG', 'LTAC 141720Z 06012KT 9999 -SHRA BKN025 BKN080 08/06 Q1007 NOSIG', 'LTAC 141650Z 06006KT 9999 -SHRA FEW025CB SCT030 BKN090 08/06 Q1007 NOSIG', 'LTAC 141620Z 08007KT 9999 -SHRA FEW025CB SCT030 BKN090 08/05 Q1007 NOSIG', 'LTAC 141550Z 09006KT 9999 SCT025 BKN090 08/05 Q1007 TEMPO 01015G25KT ?TSRA FEW025CB', 'LTAC 141520Z 07008KT 050V110 9999 SCT035 BKN090 08/05 Q1007 TEMPO 01015G25KT ?TSRA FEW025CB', 'LTAC 141450Z 06010KT 9999 SCT033 BKN090 09/05 Q1006 NOSIG', 'LTAC 141420Z 05010KT 9999 SCT040 BKN090 08/05 Q1006 NOSIG', 'LTAC 141350Z 05012KT 9999 BKN030 BKN090 09/05 Q1006 NOSIG', 'LTAC 141320Z 06011KT 9999 BKN029 BKN080 09/04 Q1006 NOSIG', 'LTAC 141250Z 05010KT 9999 BKN025 BKN080 08/06 Q1006 NOSIG', 'LTAC 141220Z 05011KT 9999 BKN025 BKN080 08/06 Q1006 NOSIG', 'LTAC 141150Z 05011KT 9999 FEW019 BKN025 BKN080 08/06 Q1007 NOSIG', 'LTAC 141120Z 06011KT 9999 FEW019 BKN025 BKN080 08/05 Q1007 NOSIG', 'LTAC 141050Z 06011KT 9999 FEW015 BKN025 BKN080 09/06 Q1007 NOSIG', 'LTAC 141020Z 04009KT 9999 FEW013 BKN025 BKN080 09/06 Q1007 NOSIG', 'LTAC 140950Z 36004KT 330V030 9999 FEW015 BKN025 BKN080 08/06 Q1007 NOSIG', 'LTAC 140920Z 36004KT 9999 FEW011 BKN025 BKN080 07/06 Q1008 NOSIG', 'LTAC 140850Z VRB02KT 7000 FEW017 BKN025 BKN080 07/05 Q1008 NOSIG', 'LTAC 140820Z 34003KT 310V010 6000 FEW017 BKN025 BKN080 06/06 Q1008 NOSIG', 'LTAC 140750Z 00000KT 3200 BR FEW017 BKN025 BKN080 06/06 Q1008 RESHRA BECMG 9999 NSW', 'LTAC 140720Z 00000KT 2300 -SHRA BR SCT004 BKN025 BKN080 06/05 Q1008 BECMG TL0820 4000', 'LTAC 140650Z 28001KT 1900 -SHRA BR SCT004 BKN025 BKN080 05/05 Q1008 BECMG TL0800 4000', 'LTAC 140620Z 25002KT 1600 -SHRA BR SCT003 BKN025 BKN080 05/04 Q1009 BECMG TL0720 4000', 'LTAC 140550Z 17003KT 150V210 2200 -SHRA BR SCT004 BKN025 BKN080 04/04 Q1009 BECMG 8000', 'LTAC 140520Z 22004KT 2700 -SHRA BR FEW005 BKN030 BKN080 04/04 Q1008 BECMG 8000', 'LTAC 140450Z 20002KT 3800 -SHRA BR FEW005 SCT035 BKN090 04/04 Q1008 BECMG 8000', 'LTAC 140420Z 01003KT 330V090 4400 -SHRA BR FEW005 SCT035 BKN090 04/04 Q1008 BECMG 8000', 'LTAC 140350Z 33004KT 300V360 6000 FEW005 SCT035 BKN090 04/03 Q1008 NOSIG', 'LTAC 140320Z 21003KT 3200 BR FEW005 SCT035 BKN090 04/04 Q1008 BECMG 8000', 'LTAC 140250Z 15004KT 4000 BR FEW009 SCT035 BKN090 04/04 Q1008 NOSIG', 'LTAC 140220Z 00000KT 6000 FEW015 SCT035 BKN090 04/03 Q1008 NOSIG', 'LTAC 140150Z 00000KT 9000 FEW015 SCT035 BKN090 05/04 Q1008 NOSIG', 'LTAC 140120Z 00000KT 9000 FEW015 SCT035 BKN090 05/04 Q1008 NOSIG', 'LTAC 140050Z 00000KT 9000 FEW015 SCT035 BKN090 05/04 Q1009 NOSIG', 'LTAC 140020Z 23003KT 6000 FEW015 SCT035 BKN090 05/04 Q1009 NOSIG', 'LTAC 132350Z VRB01KT 8000 FEW015 SCT035 BKN090 05/05 Q1009 NOSIG', 'LTAC 132320Z 00000KT 9000 FEW009 SCT035 BKN090 05/05 Q1009 NOSIG', 'LTAC 132250Z 33002KT 7000 FEW009 SCT035 BKN090 05/05 Q1009 NOSIG', 'LTAC 132220Z 33003KT 7000 FEW017 BKN030 BKN080 06/05 Q1009 NOSIG', 'LTAC 132150Z 00000KT 9999 FEW021 BKN030 BKN080 06/05 Q1009 RESHRA NOSIG', 'LTAC 132120Z VRB02KT 9999 FEW005 BKN030 BKN080 06/05 Q1009 NOSIG', 'LTAC 132050Z VRB02KT 9999 FEW005 BKN030 BKN080 06/05 Q1009 NOSIG', 'LTAC 132020Z VRB02KT 9999 -SHRA FEW005 BKN030 BKN080 06/05 Q1010 NOSIG', 'LTAC 131950Z VRB02KT 9999 -SHRA FEW005 BKN030 BKN080 06/05 Q1010 NOSIG', 'LTAC 131920Z 24003KT 6000 -SHRA FEW005 BKN025 BKN080 06/05 Q1010 NOSIG', 'LTAC 131850Z 25005KT 6000 -SHRA FEW015 BKN025 BKN080 06/05 Q1010 NOSIG', 'LTAC 131820Z VRB02KT 6000 -SHRA FEW015 BKN025 BKN080 07/06 Q1010 NOSIG', 'LTAC 131750Z 33004KT 8000 -SHRA FEW015 BKN025 BKN080 07/06 Q1010 NOSIG', 'LTAC 131720Z 02002KT 9999 -SHRA BKN025 BKN080 07/06 Q1010 RESHRA NOSIG', 'LTAC 131650Z 31004KT 270V330 7000 SHRA BKN025 BKN080 07/06 Q1010 NOSIG', 'LTAC 131620Z 36004KT 340V070 7000 SHRA BKN025 BKN080 07/06 Q1010 NOSIG', 'LTAC 131550Z 11004KT 080V150 9999 -SHRA BKN035 BKN080 08/05 Q1010 NOSIG', 'LTAC 131520Z 12005KT 100V160 9999 -SHRA BKN035 BKN080 08/05 Q1009 NOSIG', 'LTAC 131450Z 08005KT 9999 BKN040 BKN080 08/05 Q1009 NOSIG', 'LTAC 131420Z VRB01KT 9999 BKN040 BKN080 09/04 Q1009 NOSIG', 'LTAC 131350Z VRB02KT 9999 BKN040 BKN080 09/05 Q1010 NOSIG', 'LTAC 131320Z 28009KT 9999 BKN040 BKN080 09/05 Q1010 RESHRA NOSIG', 'LTAC 131250Z 27012KT 9999 -SHRA BKN040 BKN080 09/05 Q1010 NOSIG', 'LTAC 131220Z 27010KT 9999 -SHRA BKN040 BKN080 10/05 Q1009 NOSIG', 'LTAC 131150Z 25012KT 9999 -SHRA BKN040 BKN080 11/04 Q1009 NOSIG', 'LTAC 131120Z 23008KT 9999 BKN040 BKN080 12/03 Q1010 NOSIG', 'LTAC 131050Z 22007KT 180V250 9999 BKN040 BKN080 11/04 Q1010 RESHRA NOSIG', 'LTAC 131020Z 23008KT 9999 -SHRA BKN040 BKN080 10/04 Q1011 NOSIG', 'LTAC 130950Z 24012KT 9999 -SHRA BKN040 BKN080 11/03 Q1011 NOSIG', 'LTAC 130920Z 23015KT 9999 -SHRA BKN040 BKN080 11/03 Q1011 NOSIG', 'LTAC 130850Z 23016KT 9999 SCT040 BKN100 11/02 Q1011 NOSIG', 'LTAC 130820Z 23018KT 9999 SCT040 BKN100 11/02 Q1011 NOSIG', 'LTAC 130750Z 23014KT 9999 SCT040 BKN100 11/02 Q1011 NOSIG', 'LTAC 130720Z 23007KT 190V250 9999 SCT040 BKN100 11/02 Q1011 NOSIG', 'LTAC 130650Z 23009KT 9999 SCT040 BKN100 11/01 Q1011 NOSIG', 'LTAC 130620Z 22008KT 9999 SCT040 BKN100 10/01 Q1011 NOSIG', 'LTAC 130550Z 19010KT 9999 SCT040 BKN100 09/01 Q1011 NOSIG', 'LTAC 130520Z 24004KT 9999 SCT040 BKN080 08/01 Q1011 NOSIG', 'LTAC 130450Z 22004KT 9999 SCT040 BKN080 08/01 Q1011 NOSIG', 'LTAC 130420Z 16004KT 130V190 9999 SCT040 BKN080 09/01 Q1011 NOSIG', 'LTAC 130350Z 17007KT 140V200 9999 SCT040 BKN100 10/01 Q1011 NOSIG', 'LTAC 130320Z 15005KT 100V180 9999 FEW010 SCT035 BKN090 09/01 Q1011 RESHRA NOSIG', 'LTAC 130250Z 19017G29KT 9999 -SHRA FEW010 SCT030 BKN080 09/02 Q1012 NOSIG', 'LTAC 130220Z 21014G33KT 140V290 9999 -SHRA FEW010 SCT030 BKN080 10/01 Q1012 NOSIG', 'LTAC 130150Z 17006KT 9999 SCT035 BKN080 09/00 Q1011 NOSIG', 'LTAC 130120Z 19005KT 130V220 9999 SCT035 BKN080 10/M00 Q1012 NOSIG', 'LTAC 130050Z 19007KT 9999 SCT035 BKN080 10/M00 Q1011 NOSIG', 'LTAC 130020Z 20008KT 9999 SCT035 BKN080 10/M00 Q1012 NOSIG', 'LTAC 122350Z 20007KT 9999 SCT040 BKN100 10/00 Q1012 NOSIG', 'LTAC 122320Z 17007KT 9999 SCT040 BKN100 09/01 Q1012 NOSIG', 'LTAC 122250Z 19008KT 9999 SCT040 BKN100 10/00 Q1012 NOSIG', 'LTAC 122220Z 21006KT 9999 SCT040 BKN100 10/01 Q1012 NOSIG', 'LTAC 122150Z VRB04KT 9999 SCT040 BKN100 09/00 Q1012 NOSIG', 'LTAC 122120Z VRB04KT 9999 SCT040 BKN100 09/M00 Q1012 NOSIG', 'LTAC 122050Z VRB02KT 9999 SCT040 BKN100 08/00 Q1013 NOSIG', 'LTAC 122020Z 28006KT 260V330 9999 SCT040 BKN100 08/01 Q1013 NOSIG', 'LTAC 121950Z VRB04KT 9999 SCT040 BKN100 10/00 Q1013 NOSIG', 'LTAC 121920Z 03003KT 9999 SCT040 BKN100 10/00 Q1013 NOSIG', 'LTAC 121850Z 23005KT 210V300 9999 SCT040 BKN100 10/M00 Q1014 NOSIG', 'LTAC 121820Z 25005KT 210V290 9999 SCT040 BKN100 10/00 Q1014 NOSIG', 'LTAC 121750Z 10004KT 070V140 9999 SCT040 BKN100 10/02 Q1013 NOSIG', 'LTAC 121720Z 11006KT 070V160 9999 SCT040 BKN100 11/02 Q1014 NOSIG', 'LTAC 121650Z 18004KT 130V230 9999 SCT040 BKN100 11/01 Q1014 NOSIG', 'LTAC 121620Z 26004KT 170V300 9999 SCT040 BKN100 10/02 Q1014 NOSIG', 'LTAC 121550Z 20004KT 160V230 9999 SCT040 BKN100 11/02 Q1014 NOSIG', 'LTAC 121520Z 21007KT 9999 SCT040 BKN100 12/02 Q1014 NOSIG', 'LTAC 121450Z 17008KT 150V210 9999 SCT040 BKN100 13/02 Q1014 NOSIG', 'LTAC 121420Z 17013KT 9999 SCT040 BKN100 13/02 Q1014 NOSIG', 'LTAC 121350Z 19010KT 9999 SCT040 BKN100 14/03 Q1014 NOSIG', 'LTAC 121320Z 19012KT 9999 SCT040 BKN100 14/02 Q1014 NOSIG', 'LTAC 121250Z 17015KT 9999 SCT040 BKN100 14/02 Q1014 NOSIG', 'LTAC 121220Z 21012KT 170V230 9999 FEW040 BKN100 15/03 Q1014 NOSIG', 'LTAC 121150Z 21011KT 9999 FEW040 BKN200 15/02 Q1014 NOSIG', 'LTAC 121120Z 19007KT 110V240 9999 FEW040 BKN200 15/03 Q1015 NOSIG', 'LTAC 121050Z 20011KT 140V230 9999 FEW040 BKN200 15/02 Q1015 NOSIG', 'LTAC 121020Z 21010KT 9999 FEW040 BKN200 15/02 Q1015 NOSIG', 'LTAC 120950Z 19007KT 140V250 9999 FEW040 BKN200 14/02 Q1016 NOSIG', 'LTAC 120920Z VRB02KT 9999 FEW040 BKN200 13/02 Q1017 NOSIG']","['2024-02-15 08:50:00', '2024-02-15 08:20:00', '2024-02-15 07:50:00', '2024-02-15 07:20:00', '2024-02-15 06:50:00', '2024-02-15 06:20:00', '2024-02-15 05:50:00', '2024-02-15 05:20:00', '2024-02-15 04:50:00', '2024-02-15 04:20:00', '2024-02-15 03:50:00', '2024-02-15 03:20:00', '2024-02-15 02:50:00', '2024-02-15 02:20:00', '2024-02-15 01:50:00', '2024-02-15 01:20:00', '2024-02-15 00:50:00', '2024-02-15 00:20:00', '2024-02-14 23:50:00', '2024-02-14 23:20:00', '2024-02-14 22:50:00', '2024-02-14 22:20:00', '2024-02-14 21:50:00', '2024-02-14 21:20:00', '2024-02-14 20:50:00', '2024-02-14 20:20:00', '2024-02-14 19:50:00', '2024-02-14 19:20:00', '2024-02-14 18:50:00', '2024-02-14 18:20:00', '2024-02-14 17:50:00', '2024-02-14 17:20:00', '2024-02-14 16:50:00', '2024-02-14 16:20:00', '2024-02-14 15:50:00', '2024-02-14 15:20:00', '2024-02-14 14:50:00', '2024-02-14 14:20:00', '2024-02-14 13:50:00', '2024-02-14 13:20:00', '2024-02-14 12:50:00', '2024-02-14 12:20:00', '2024-02-14 11:50:00', '2024-02-14 11:20:00', '2024-02-14 10:50:00', '2024-02-14 10:20:00', '2024-02-14 09:50:00', '2024-02-14 09:20:00', '2024-02-14 08:50:00', '2024-02-14 08:20:00', '2024-02-14 07:50:00', '2024-02-14 07:20:00', '2024-02-14 06:50:00', '2024-02-14 06:20:00', '2024-02-14 05:50:00', '2024-02-14 05:20:00', '2024-02-14 04:50:00', '2024-02-14 04:20:00', '2024-02-14 03:50:00', '2024-02-14 03:20:00', '2024-02-14 02:50:00', '2024-02-14 02:20:00', '2024-02-14 01:50:00', '2024-02-14 01:20:00', '2024-02-14 00:50:00', '2024-02-14 00:20:00', '2024-02-13 23:50:00', '2024-02-13 23:20:00', '2024-02-13 22:50:00', '2024-02-13 22:20:00', '2024-02-13 21:50:00', '2024-02-13 21:20:00', '2024-02-13 20:50:00', '2024-02-13 20:20:00', '2024-02-13 19:50:00', '2024-02-13 19:20:00', '2024-02-13 18:50:00', '2024-02-13 18:20:00', '2024-02-13 17:50:00', '2024-02-13 17:20:00', '2024-02-13 16:50:00', '2024-02-13 16:20:00', '2024-02-13 15:50:00', '2024-02-13 15:20:00', '2024-02-13 14:50:00', '2024-02-13 14:20:00', '2024-02-13 13:50:00', '2024-02-13 13:20:00', '2024-02-13 12:50:00', '2024-02-13 12:20:00', '2024-02-13 11:50:00', '2024-02-13 11:20:00', '2024-02-13 10:50:00', '2024-02-13 10:20:00', '2024-02-13 09:50:00', '2024-02-13 09:20:00', '2024-02-13 08:50:00', '2024-02-13 08:20:00', '2024-02-13 07:50:00', '2024-02-13 07:20:00', '2024-02-13 06:50:00', '2024-02-13 06:20:00', '2024-02-13 05:50:00', '2024-02-13 05:20:00', '2024-02-13 04:50:00', '2024-02-13 04:20:00', '2024-02-13 03:50:00', '2024-02-13 03:20:00', '2024-02-13 02:50:00', '2024-02-13 02:20:00', '2024-02-13 01:50:00', '2024-02-13 01:20:00', '2024-02-13 00:50:00', '2024-02-13 00:20:00', '2024-02-12 23:50:00', '2024-02-12 23:20:00', '2024-02-12 22:50:00', '2024-02-12 22:20:00', '2024-02-12 21:50:00', '2024-02-12 21:20:00', '2024-02-12 20:50:00', '2024-02-12 20:20:00', '2024-02-12 19:50:00', '2024-02-12 19:20:00', '2024-02-12 18:50:00', '2024-02-12 18:20:00', '2024-02-12 17:50:00', '2024-02-12 17:20:00', '2024-02-12 16:50:00', '2024-02-12 16:20:00', '2024-02-12 15:50:00', '2024-02-12 15:20:00', '2024-02-12 14:50:00', '2024-02-12 14:20:00', '2024-02-12 13:50:00', '2024-02-12 13:20:00', '2024-02-12 12:50:00', '2024-02-12 12:20:00', '2024-02-12 11:50:00', '2024-02-12 11:20:00', '2024-02-12 10:50:00', '2024-02-12 10:20:00', '2024-02-12 09:50:00', '2024-02-12 09:20:00']"
Turkey, Antakya Hatay Airport (HTY/LTDA) ,"['LTDA 150850Z 06003KT 010V120 9000 SCT030 BKN080 15/10 Q1013 NOSIG', 'LTDA 150750Z 02004KT 9000 SCT030 BKN080 14/10 Q1013 NOSIG', 'LTDA 150650Z VRB01KT 6000 SCT030 BKN080 12/11 Q1013 NOSIG', 'LTDA 150550Z VRB02KT 4000 BR SCT030 BKN080 09/09 Q1013 NOSIG', 'LTDA 150450Z 04004KT 360V090 4000 BR SCT030 BKN080 08/08 Q1012 NOSIG', 'LTDA 150350Z 32006KT 4000 BR SCT030 BKN080 08/08 Q1011 NOSIG', 'LTDA 150250Z VRB02KT 2000 R22/1100N R04/1100U BR SCT030 BKN080 09/08 Q1011 NOSIG', 'LTDA 150150Z VRB01KT 4000 BR SCT030 BKN080 10/09 Q1010 NOSIG', 'LTDA 150050Z 01005KT 5000 BR SCT030 BKN080 10/10 Q1010 NOSIG', 'LTDA 142350Z 33003KT 270V050 4000 BR SCT030 BKN080 09/09 Q1010 NOSIG', 'LTDA 142250Z 01002KT 4000 BR SCT030 BKN080 11/10 Q1010 NOSIG', 'LTDA 142150Z 27003KT 4000 BR SCT030 BKN080 12/11 Q1010 NOSIG', 'LTDA 142050Z VRB01KT 4000 BR SCT030 BKN080 12/11 Q1009 NOSIG', 'LTDA 141950Z VRB01KT 6000 SCT030 BKN080 12/12 Q1009 RESHRA NOSIG', 'LTDA 141850Z 24004KT 6000 -SHRA SCT030 BKN080 13/12 Q1009 NOSIG', 'LTDA 141750Z 06003KT 6000 -SHRA SCT030 BKN080 13/12 Q1009 NOSIG', 'LTDA 141550Z 18005KT 6000 SCT030 BKN080 14/12 Q1008 NOSIG', 'LTDA 141450Z 22004KT 6000 SCT030 BKN080 14/12 Q1007 NOSIG', 'LTDA 141350Z 00000KT 7000 SCT030 BKN080 15/12 Q1007 NOSIG', 'LTDA 141250Z 17003KT 7000 SCT030 BKN080 15/12 Q1007 NOSIG', 'LTDA 141150Z VRB02KT 7000 SCT030 BKN080 15/12 Q1007 NOSIG', 'LTDA 141050Z 06003KT 8000 SCT030 BKN080 15/12 Q1007 RESHRA NOSIG', 'LTDA 140950Z 31006KT 7000 -SHRA SCT030 BKN080 13/12 Q1007 NOSIG', 'LTDA 140850Z 22006KT 9000 -SHRA SCT030 BKN080 13/12 Q1009 NOSIG', 'LTDA 140750Z 20011KT 9999 -SHRA SCT030 BKN080 13/11 Q1009 NOSIG', 'LTDA 140650Z 14004KT 060V200 9999 -SHRA SCT030 BKN080 14/11 Q1008 NOSIG', 'LTDA 140550Z 03009KT 9999 SCT030 BKN080 13/11 Q1008 NOSIG', 'LTDA 140450Z 04012KT 9999 SCT030 BKN080 13/10 Q1008 NOSIG', 'LTDA 140350Z 03010KT 9999 SCT030 BKN080 13/10 Q1007 NOSIG', 'LTDA 140250Z 05010KT 9999 SCT030 BKN080 13/11 Q1007 NOSIG', 'LTDA 140150Z 02012KT 9999 SCT030 BKN080 14/11 Q1007 RESHRA NOSIG', 'LTDA 140050Z 03009KT 9999 SCT030 BKN080 14/11 Q1008 NOSIG', 'LTDA 132350Z 05010KT 9999 SCT030 BKN080 15/11 Q1008 NOSIG', 'LTDA 132250Z 04008KT 9999 SCT030 BKN080 15/10 Q1009 NOSIG', 'LTDA 132150Z 04009KT 9999 SCT030 BKN030 15/10 Q1009 NOSIG', 'LTDA 132050Z 02008KT 9999 SCT030 BKN030 16/11 Q1009', 'LTDA 131850Z 03009KT 9999 SCT030 BKN080 16/10 Q1011 NOSIG', 'LTDA 131750Z 03009KT 9999 SCT030 BKN080 16/11 Q1012 NOSIG', 'LTDA 131650Z 04009KT 9999 SCT030 BKN080 16/11 Q1012 NOSIG', 'LTDA 131550Z 03010KT 9999 SCT030 BKN080 16/11 Q1011 NOSIG', 'LTDA 131450Z 04012KT 9999 SCT030 BKN080 17/10 Q1011 NOSIG', 'LTDA 131350Z 04012KT 9999 SCT030 BKN080 17/11 Q1011 NOSIG', 'LTDA 131250Z 03012KT 9999 SCT030 BKN080 18/11 Q1011 NOSIG', 'LTDA 131150Z 03012KT 9999 SCT030 BKN080 18/10 Q1012 NOSIG', 'LTDA 131050Z 03015KT 9999 SCT035 BKN090 18/10 Q1013 NOSIG', 'LTDA 130950Z 04013KT 9999 SCT040 BKN100 18/10 Q1014 NOSIG', 'LTDA 130850Z 04013KT 9999 SCT040 BKN100 17/10 Q1015 NOSIG', 'LTDA 130750Z 05010KT 9999 SCT040 BKN100 16/11 Q1015 NOSIG', 'LTDA 130650Z 05008KT 9999 SCT040 BKN100 15/10 Q1015 NOSIG', 'LTDA 130550Z 32005KT 220V020 9999 SCT040 BKN100 13/10 Q1015 NOSIG', 'LTDA 130450Z 08004KT 060V120 9999 SCT040 BKN100 13/10 Q1015 NOSIG', 'LTDA 130350Z 05006KT 9999 SCT040 BKN100 13/10 Q1015 NOSIG', 'LTDA 130250Z 05010KT 9999 SCT040 BKN100 14/09 Q1015 NOSIG', 'LTDA 130150Z 04010KT 9999 SCT040 BKN100 14/09 Q1015 NOSIG', 'LTDA 130050Z 05008KT 9999 SCT040 BKN100 14/09 Q1016 NOSIG', 'LTDA 122350Z 04003KT 360V070 9999 SCT040 BKN100 14/09 Q1017 NOSIG', 'LTDA 122250Z 33004KT 300V020 9999 SCT040 BKN100 13/09 Q1017 NOSIG', 'LTDA 122150Z 12004KT 9999 SCT040 BKN100 15/11 Q1017 NOSIG', 'LTDA 122050Z VRB01KT 9999 SCT040 BKN100 15/09 Q1017 NOSIG', 'LTDA 121950Z 03005KT 9999 SCT040 BKN100 15/10 Q1018 NOSIG', 'LTDA 121850Z 04006KT 9999 SCT040 BKN100 14/10 Q1018 NOSIG', 'LTDA 121750Z VRB02KT 9999 SCT040 BKN100 14/11 Q1018 NOSIG', 'LTDA 121650Z 03005KT 9999 SCT040 BKN100 15/11 Q1018 NOSIG', 'LTDA 121550Z 05008KT 9999 SCT040 BKN100 16/11 Q1018 NOSIG', 'LTDA 121450Z 04005KT 9999 SCT040 BKN100 18/12 Q1018 NOSIG', 'LTDA 121350Z 04008KT 9999 SCT040 BKN100 19/11 Q1018 NOSIG', 'LTDA 121250Z 04006KT 9999 SCT040 BKN100 19/11 Q1019 NOSIG', 'LTDA 121150Z 02006KT 9999 SCT040 BKN100 19/11 Q1019 NOSIG', 'LTDA 121050Z VRB02KT 9999 FEW040 SCT100 19/12 Q1020 NOSIG', 'LTDA 120950Z VRB02KT 9999 FEW040 SCT100 17/11 Q1021 NOSIG']","['2024-02-15 08:50:00', '2024-02-15 07:50:00', '2024-02-15 06:50:00', '2024-02-15 05:50:00', '2024-02-15 04:50:00', '2024-02-15 03:50:00', '2024-02-15 02:50:00', '2024-02-15 01:50:00', '2024-02-15 00:50:00', '2024-02-14 23:50:00', '2024-02-14 22:50:00', '2024-02-14 21:50:00', '2024-02-14 20:50:00', '2024-02-14 19:50:00', '2024-02-14 18:50:00', '2024-02-14 17:50:00', '2024-02-14 15:50:00', '2024-02-14 14:50:00', '2024-02-14 13:50:00', '2024-02-14 12:50:00', '2024-02-14 11:50:00', '2024-02-14 10:50:00', '2024-02-14 09:50:00', '2024-02-14 08:50:00', '2024-02-14 07:50:00', '2024-02-14 06:50:00', '2024-02-14 05:50:00', '2024-02-14 04:50:00', '2024-02-14 03:50:00', '2024-02-14 02:50:00', '2024-02-14 01:50:00', '2024-02-14 00:50:00', '2024-02-13 23:50:00', '2024-02-13 22:50:00', '2024-02-13 21:50:00', '2024-02-13 20:50:00', '2024-02-13 18:50:00', '2024-02-13 17:50:00', '2024-02-13 16:50:00', '2024-02-13 15:50:00', '2024-02-13 14:50:00', '2024-02-13 13:50:00', '2024-02-13 12:50:00', '2024-02-13 11:50:00', '2024-02-13 10:50:00', '2024-02-13 09:50:00', '2024-02-13 08:50:00', '2024-02-13 07:50:00', '2024-02-13 06:50:00', '2024-02-13 05:50:00', '2024-02-13 04:50:00', '2024-02-13 03:50:00', '2024-02-13 02:50:00', '2024-02-13 01:50:00', '2024-02-13 00:50:00', '2024-02-12 23:50:00', '2024-02-12 22:50:00', '2024-02-12 21:50:00', '2024-02-12 20:50:00', '2024-02-12 19:50:00', '2024-02-12 18:50:00', '2024-02-12 17:50:00', '2024-02-12 16:50:00', '2024-02-12 15:50:00', '2024-02-12 14:50:00', '2024-02-12 13:50:00', '2024-02-12 12:50:00', '2024-02-12 11:50:00', '2024-02-12 10:50:00', '2024-02-12 09:50:00']"
Turkey, Antalya Airport (AYT/LTAI) ,"['LTAI 150850Z 34007KT 9999 SCT030 BKN090 13/06 Q1011 NOSIG', 'LTAI 150820Z 33009KT 9999 SCT030 BKN090 13/07 Q1011 NOSIG', 'LTAI 150750Z 32008KT 270V340 9999 SCT030 BKN090 13/07 Q1011 NOSIG', 'LTAI 150720Z 33009KT 9999 SCT030 BKN090 12/07 Q1010 RESHRA NOSIG', 'LTAI 150650Z 35008KT 300V010 9999 -SHRA SCT030 BKN090 11/07 Q1010 NOSIG', 'LTAI 150620Z 35007KT 9999 SCT030 BKN090 10/07 Q1010 NOSIG', 'LTAI 150550Z 34008KT 9999 SCT030 BKN090 10/06 Q1010 NOSIG', 'LTAI 150520Z 35008KT 9999 SCT030 BKN090 09/07 Q1010 NOSIG', 'LTAI 150450Z 35007KT 9999 SCT030 BKN090 08/07 Q1010 NOSIG', 'LTAI 150420Z 36005KT 340V040 9999 SCT030 BKN090 08/06 Q1009 NOSIG', 'LTAI 150350Z 04006KT 9999 SCT030 BKN090 09/06 Q1009 NOSIG', 'LTAI 150320Z 35007KT 9999 SCT030 BKN090 08/06 Q1009 NOSIG', 'LTAI 150250Z 36005KT 9999 SCT030 BKN090 08/07 Q1009 NOSIG', 'LTAI 150220Z 35006KT 9999 SCT030 BKN090 07/06 Q1008 NOSIG', 'LTAI 150150Z 36005KT 9999 SCT030 BKN090 08/07 Q1008 NOSIG', 'LTAI 150120Z 36004KT 9999 SCT030 BKN080 08/08 Q1008 NOSIG', 'LTAI 150050Z 36005KT 330V040 9999 SCT030 BKN080 09/08 Q1008 NOSIG', 'LTAI 150020Z 35007KT 9999 SCT030 BKN080 09/07 Q1008 NOSIG', 'LTAI 142350Z 34007KT 9999 SCT030 BKN080 09/08 Q1008 NOSIG', 'LTAI 142320Z 34007KT 9999 SCT030 BKN080 09/08 Q1008 NOSIG', 'LTAI 142250Z 32008KT 9999 SCT030 BKN080 09/07 Q1008 NOSIG', 'LTAI 142220Z 32005KT 9999 SCT030 BKN090 09/08 Q1008 NOSIG', 'LTAI 142150Z 34004KT 9999 SCT030 BKN100 08/08 Q1008 NOSIG', 'LTAI 142120Z 34003KT 250V050 9999 SCT030 BKN100 08/08 Q1008 NOSIG', 'LTAI 142050Z 34007KT 9999 SCT030 BKN100 09/08 Q1008 NOSIG', 'LTAI 142020Z 34006KT 9999 SCT030 BKN100 09/08 Q1008 NOSIG', 'LTAI 141950Z 33005KT 9999 SCT030 BKN100 09/09 Q1008 NOSIG', 'LTAI 141920Z 34005KT 300V010 9999 SCT030 BKN100 09/09 Q1008 NOSIG', 'LTAI 141850Z 35006KT 9999 SCT030 BKN100 09/08 Q1008 NOSIG', 'LTAI 141820Z 35007KT 9999 SCT030 BKN100 09/09 Q1008 NOSIG', 'LTAI 141750Z 34006KT 9999 SCT030 BKN090 08/08 Q1008 NOSIG', 'LTAI 141720Z VRB02KT 9999 SCT030 BKN090 09/09 Q1007 NOSIG', 'LTAI 141650Z 01003KT 350V050 9999 SCT030 BKN090 10/09 Q1007 NOSIG', 'LTAI 141620Z 34005KT 9999 BKN030 BKN090 10/09 Q1007 NOSIG', 'LTAI 141550Z 35006KT 330V030 9999 BKN030 BKN090 11/08 Q1007 NOSIG', 'LTAI 141520Z 35008KT 9999 BKN030 BKN090 11/09 Q1007 NOSIG', 'LTAI 141450Z 35009KT 9999 BKN030 BKN090 11/10 Q1006 NOSIG', 'LTAI 141420Z 35009KT 9999 BKN030 BKN090 11/11 Q1006 NOSIG', 'LTAI 141350Z 02007KT 9999 BKN030 BKN090 11/11 Q1006 NOSIG', 'LTAI 141320Z 35007KT 9999 BKN030 BKN090 11/10 Q1006 RESHRA NOSIG', 'LTAI 141250Z 34007KT 9999 -SHRA BKN030 BKN090 11/10 Q1005 NOSIG', 'LTAI 141220Z 33009KT 9999 -SHRA BKN030 BKN090 11/09 Q1005 NOSIG', 'LTAI 141150Z 33010KT 9999 -SHRA BKN030 BKN090 11/10 Q1005 NOSIG', 'LTAI 141120Z 30007KT 9999 -SHRA BKN030 BKN090 11/10 Q1005 NOSIG', 'LTAI 141050Z 30010KT 9999 -SHRA BKN030 BKN090 11/09 Q1005 NOSIG', 'LTAI 141020Z 29010KT 9999 -SHRA BKN030 BKN090 11/09 Q1005 NOSIG', 'LTAI 140950Z 29013KT 9999 -SHRA FEW020CB BKN030 11/09 Q1004 NOSIG', 'LTAI 140920Z 29012KT 9999 -SHRA FEW020CB BKN030 11/08 Q1004 NOSIG', 'LTAI 140850Z 28012KT 9999 -SHRA FEW020CB BKN030 11/09 Q1004 BECMG TL0920 34012KT', 'LTAI 140820Z 28009KT 9999 -SHRA FEW020CB BKN030 11/09 Q1004 NOSIG', 'LTAI 140750Z 32008KT 9999 -SHRA FEW020CB BKN030 11/08 Q1004 NOSIG', 'LTAI 140720Z 30008KT 250V320 9999 -SHRA FEW020CB BKN030 11/09 Q1004 NOSIG', 'LTAI 140650Z 31009KT 9999 -SHRA FEW020CB BKN030 11/08 Q1004 NOSIG', 'LTAI 140620Z 32011KT 9999 -SHRA FEW020CB BKN030 11/07 Q1004 NOSIG', 'LTAI 140550Z 31008KT 280V340 9999 -SHRA BKN035 10/08 Q1004 NOSIG', 'LTAI 140520Z 32009KT 9999 -SHRA BKN035 10/08 Q1005 NOSIG', 'LTAI 140450Z 33013KT 9999 -SHRA FEW020CB BKN030 10/09 Q1005 NOSIG', 'LTAI 140420Z 33011KT 8000 -SHRA FEW015CB BKN025 10/09 Q1005 NOSIG', 'LTAI 140350Z 30007KT 250V340 9999 -SHRA FEW015CB BKN025 09/09 Q1006 WS ALL RWY NOSIG', 'LTAI 140320Z 01016KT 9999 -SHRA VCTS FEW015CB BKN025 10/08 Q1005 RETSRA NOSIG', 'LTAI 140250Z 35009KT 9999 -TSRA FEW015CB BKN025 09/09 Q1007 BECMG NSW', 'LTAI 140220Z 33007KT 8000 -TSRA FEW015CB BKN025 09/09 Q1007 BECMG TL0300 NSW', 'LTAI 140150Z 31007KT 250V340 8000 -TSRA FEW015CB BKN025 09/09 Q1007 BECMG TL0300 NSW', 'LTAI 140120Z 36009KT 280V040 8000 -TSRA FEW015CB BKN025 09/09 Q1007 BECMG TL0300 NSW', 'LTAI 140050Z 01016KT 7000 -TSRA FEW015CB BKN025 09/09 Q1006 RETSRA NOSIG', 'LTAI 140020Z 36008KT 6000 -TSRA SCT015CB BKN025 10/10 Q1008 NOSIG', 'LTAI 132350Z 34007KT 6000 -TSRA SCT015CB BKN025 10/10 Q1008 NOSIG', 'LTAI 132320Z 36006KT 8000 -TSRA SCT015CB BKN025 10/10 Q1009 NOSIG', 'LTAI 132250Z 33008KT 8000 -TSRA SCT015CB BKN025 10/10 Q1009 NOSIG', 'LTAI 132220Z 31011KT 9999 -TSRA SCT015CB BKN025 10/10 Q1009 RETSRA NOSIG', 'LTAI 132150Z 32010KT 4200 TSRA SCT015CB BKN025 10/10 Q1009 BECMG TL2220 9999 NSW', 'LTAI 132120Z 33007KT 4800 TSRA SCT015CB BKN025 10/10 Q1009 BECMG TL2150 9999 NSW', 'LTAI 132050Z 36008KT 6000 -TSRA SCT015CB BKN025 10/10 Q1009 TEMPO 2500 TSRA', 'LTAI 132020Z 33009KT 7000 -TSRA SCT015CB BKN025 10/09 Q1009 RETSRA NOSIG', 'LTAI 131958Z 33007KT 4500 TSRA SCT015CB BKN025 10/10 Q1009 BECMG TL2020 9999 NSW', 'LTAI 131920Z 33010KT 9999 -SHRA VCTS FEW015CB BKN025 10/08 Q1009 NOSIG', 'LTAI 131850Z 01012KT 9999 -SHRA VCTS FEW015CB BKN025 10/08 Q1009 RETSRA NOSIG', 'LTAI 131820Z 36012KT 9999 -TSRA FEW015CB BKN025 10/10 Q1008 NOSIG', 'LTAI 131750Z 34014KT 9999 -TSRA SCT015CB BKN025 10/10 Q1009 NOSIG', 'LTAI 131720Z 34016KT 8000 -TSRA SCT015CB BKN025 10/10 Q1009 RETSRA NOSIG', 'LTAI 131650Z 34011KT 9999 -TSRA FEW015CB BKN025 10/09 Q1010 NOSIG', 'LTAI 131628Z 34016KT 9999 -TSRA FEW015CB BKN025 10/09 Q1009 WS R36R NOSIG', 'LTAI 131550Z 03015KT 9999 -TSRA FEW015CB BKN025 11/10 Q1009 NOSIG', 'LTAI 131520Z 02017KT 9999 -TSRA FEW015CB BKN025 11/11 Q1009 RETSRA NOSIG', 'LTAI 131450Z 33010KT 280V010 5000 TSRA SCT015CB BKN025 11/11 Q1009 BECMG TL1550 9999 NSW', 'LTAI 131420Z 34013KT 4000 TSRA SCT015CB BKN025 11/11 Q1009 BECMG TL1520 9999 NSW', 'LTAI 131350Z 32012KT 2500 TSRA SCT015CB BKN025 12/12 Q1009 BECMG TL1450 9999 NSW', 'LTAI 131320Z 33012KT 6000 -TSRA SCT015CB BKN025 12/12 Q1008 TEMPO 2500 TSRA', 'LTAI 131250Z 35015KT 6000 -TSRA SCT015CB BKN025 12/12 Q1008 RETSRA TEMPO 2500 TSRA', 'LTAI 131220Z 01012KT 8000 -TSRA SCT017CB BKN025 12/12 Q1008 TEMPO 2500 TSRA', 'LTAI 131150Z 01009KT 8000 -TSRA SCT017CB BKN025 12/12 Q1008 RESHRA TEMPO 2500 TSRA', 'LTAI 131120Z 01012KT 9999 -SHRA FEW020CB BKN025 12/12 Q1008 BECMG -TSRA', 'LTAI 131057Z 36009KT 9999 -SHRA FEW020CB BKN025 12/12 Q1009 BECMG -TSRA', 'LTAI 131020Z 02007KT 8000 -TSRA SCT015CB BKN025 12/12 Q1009 NOSIG', 'LTAI 130950Z 03009KT 360V060 8000 -TSRA FEW008 SCT015CB BKN025 11/11 Q1009 NOSIG', 'LTAI 130920Z 01009KT 8000 -TSRA FEW007 SCT015CB BKN025 11/11 Q1009 NOSIG', 'LTAI 130850Z 36007KT 280V050 8000 -TSRA FEW004 SCT015CB BKN025 11/11 Q1010 RETSRA NOSIG', 'LTAI 130820Z 36006KT 4000 TSRA FEW004 SCT015CB BKN025 11/11 Q1010 RETSRA BECMG TL0900 9999 NSW', 'LTAI 130754Z 31011KT 1200 R36C/1200N R18C/P1500N R36R////// R18L////// +TSRA SCT015CB BKN025 11/11 Q1009 BECMG TL0820 9999 NSW', 'LTAI 130720Z 35013KT 7000 -TSRA SCT015CB BKN025 12/12 Q1010 TEMPO TL0900 4000 TSRA', 'LTAI 130650Z 35013KT 7000 -TSRA SCT015CB BKN025 11/11 Q1010 TEMPO 4000 TSRA', 'LTAI 130620Z 34017KT 6000 -TSRA SCT015CB BKN025 11/11 Q1009 RETSRA WS R36 TEMPO 4000 TSRA', 'LTAI 130550Z 35019KT 4300 TSRA SCT006 SCT012CB BKN020 11/11 Q1009 WS R36 BECMG TL0620 36009KT 9999 NSW', 'LTAI 130520Z 34010KT 270V360 4200 TSRA SCT015CB BKN025 11/11 Q1009 BECMG TL0600 9999 -TSRA', 'LTAI 130450Z 36008KT 320V020 6000 -TSRA SCT015CB BKN025 12/12 Q1009 RETSRA NOSIG', 'LTAI 130420Z 36013KT 6000 -TSRA SCT015CB BKN025 11/11 Q1009 WS R36 BECMG 4000 TSRA', 'LTAI 130350Z 34016G26KT 6000 -TSRA SCT012CB BKN020 12/11 Q1009 RETSRA WS R36C BECMG 4000 TSRA', 'LTAI 130320Z 02008KT 340V080 4000 TSRA SCT012CB BKN020 12/12 Q1009 RETSGRRA WS R36 NOSIG', 'LTAI 130250Z 31006KT 220V010 3200 TSRA FEW008 SCT012CB BKN020 12/12 Q1009 WS R36C TEMPO VRB20G30KT 0500 +TSGRRA BKN010CB', 'LTAI 130220Z 31010KT 270V340 4500 TSRA FEW008 SCT012CB BKN020 12/12 Q1009 WS ALL RWY TEMPO FM0300 VRB20G30KT 0500 +TSGRRA BKN010CB', 'LTAI 130150Z 29017KT 4300 TSRA SCT015CB BKN025 12/12 Q1009 WS ALL RWY BECMG TL0220 36009KT TEMPO FM0300 0500 +TSGRRA BKN010CB', 'LTAI 130127Z 26010KT 3700 TSRA SCT015CB BKN025 14/12 Q1009 WS ALL RWY BECMG TL0150 36009KT TEMPO FM0300 0500 +TSGRRA BKN010CB', 'LTAI 130054Z 31012G22KT 260V340 9999 -TSRA SCT015CB BKN025 14/12 Q1009 WS R36R BECMG TL0120 36009KT 4000 TSRA', 'LTAI 130020Z 13012G22KT 090V160 9999 -TSRA SCT018CB BKN025 19/11 Q1009 BECMG 36009KT', 'LTAI 122350Z 15017KT 120V200 9999 -TSRA SCT018CB BKN025 19/11 Q1010 NOSIG', 'LTAI 122320Z 14019G31KT 9999 -TSRA SCT018CB BKN025 18/12 Q1009 NOSIG', 'LTAI 122250Z 14019G32KT 9999 -TSRA SCT020CB BKN030 18/12 Q1009 NOSIG', 'LTAI 122220Z 14024KT 9999 TSRA FEW020CB BKN030 18/13 Q1010 RETS NOSIG', 'LTAI 122150Z 15025G35KT 9999 TS FEW020CB BKN030 18/13 Q1010 BECMG -TSRA', 'LTAI 122120Z 15027KT 9999 TS FEW020CB BKN030 18/13 Q1010 BECMG -TSRA', 'LTAI 122050Z 14024KT 9999 VCTS FEW020CB BKN030 18/13 Q1011 NOSIG', 'LTAI 122020Z 14022KT 9999 VCTS FEW020CB BKN030 18/13 Q1011 NOSIG', 'LTAI 121950Z 14023KT 9999 VCTS FEW020CB BKN030 18/12 Q1012 NOSIG', 'LTAI 121920Z 14025KT 9999 VCTS FEW020CB SCT030 BKN090 18/12 Q1012 NOSIG', 'LTAI 121850Z 14021KT 9999 VCTS FEW020CB SCT030 BKN090 18/12 Q1012 NOSIG', 'LTAI 121826Z 14022G32KT 9999 FEW020CB SCT030 BKN090 18/12 Q1012 NOSIG', 'LTAI 121750Z 15020KT 9999 FEW020CB SCT030 BKN090 18/12 Q1013 NOSIG', 'LTAI 121720Z 15019KT 9999 SCT030 BKN090 18/12 Q1013 NOSIG', 'LTAI 121650Z 15017KT 9999 SCT030 BKN090 18/12 Q1013 NOSIG', 'LTAI 121620Z 15015KT 9999 SCT030 BKN090 18/12 Q1013 BECMG TL1800 15025G35KT', 'LTAI 121550Z 15017KT 9999 SCT030 BKN090 18/12 Q1013 NOSIG', 'LTAI 121520Z 15014KT 9999 SCT030 BKN090 18/12 Q1013 NOSIG', 'LTAI 121450Z 15015KT 9999 SCT030 BKN090 18/12 Q1013 NOSIG', 'LTAI 121420Z 15011KT 9999 SCT030 BKN090 18/13 Q1014 NOSIG', 'LTAI 121350Z 14014KT 9999 SCT030 BKN090 18/13 Q1014 NOSIG', 'LTAI 121320Z 14014KT 9999 SCT030 BKN090 18/13 Q1015 NOSIG', 'LTAI 121250Z 14013KT 9999 SCT030 BKN090 18/12 Q1015 NOSIG', 'LTAI 121220Z 14011KT 9999 SCT030 BKN090 18/11 Q1015 NOSIG', 'LTAI 121150Z 14010KT 9999 BKN030 BKN090 18/12 Q1016 NOSIG', 'LTAI 121120Z 13010KT 9999 BKN030 BKN090 17/12 Q1016 NOSIG', 'LTAI 121050Z 13010KT 9999 BKN030 BKN090 18/12 Q1017 NOSIG', 'LTAI 121020Z 12010KT 9999 FEW020CB BKN030 18/12 Q1017 NOSIG', 'LTAI 120950Z 17008KT 140V200 9999 FEW020CB BKN025 17/13 Q1018 NOSIG', 'LTAI 120925Z 23010KT 9999 FEW020CB BKN025 17/14 Q1018 NOSIG']","['2024-02-15 08:50:00', '2024-02-15 08:20:00', '2024-02-15 07:50:00', '2024-02-15 07:20:00', '2024-02-15 06:50:00', '2024-02-15 06:20:00', '2024-02-15 05:50:00', '2024-02-15 05:20:00', '2024-02-15 04:50:00', '2024-02-15 04:20:00', '2024-02-15 03:50:00', '2024-02-15 03:20:00', '2024-02-15 02:50:00', '2024-02-15 02:20:00', '2024-02-15 01:50:00', '2024-02-15 01:20:00', '2024-02-15 00:50:00', '2024-02-15 00:20:00', '2024-02-14 23:50:00', '2024-02-14 23:20:00', '2024-02-14 22:50:00', '2024-02-14 22:20:00', '2024-02-14 21:50:00', '2024-02-14 21:20:00', '2024-02-14 20:50:00', '2024-02-14 20:20:00', '2024-02-14 19:50:00', '2024-02-14 19:20:00', '2024-02-14 18:50:00', '2024-02-14 18:20:00', '2024-02-14 17:50:00', '2024-02-14 17:20:00', '2024-02-14 16:50:00', '2024-02-14 16:20:00', '2024-02-14 15:50:00', '2024-02-14 15:20:00', '2024-02-14 14:50:00', '2024-02-14 14:20:00', '2024-02-14 13:50:00', '2024-02-14 13:20:00', '2024-02-14 12:50:00', '2024-02-14 12:20:00', '2024-02-14 11:50:00', '2024-02-14 11:20:00', '2024-02-14 10:50:00', '2024-02-14 10:20:00', '2024-02-14 09:50:00', '2024-02-14 09:20:00', '2024-02-14 08:50:00', '2024-02-14 08:20:00', '2024-02-14 07:50:00', '2024-02-14 07:20:00', '2024-02-14 06:50:00', '2024-02-14 06:20:00', '2024-02-14 05:50:00', '2024-02-14 05:20:00', '2024-02-14 04:50:00', '2024-02-14 04:20:00', '2024-02-14 03:50:00', '2024-02-14 03:20:00', '2024-02-14 02:50:00', '2024-02-14 02:20:00', '2024-02-14 01:50:00', '2024-02-14 01:20:00', '2024-02-14 00:50:00', '2024-02-14 00:20:00', '2024-02-13 23:50:00', '2024-02-13 23:20:00', '2024-02-13 22:50:00', '2024-02-13 22:20:00', '2024-02-13 21:50:00', '2024-02-13 21:20:00', '2024-02-13 20:50:00', '2024-02-13 20:20:00', '2024-02-13 19:58:00', '2024-02-13 19:20:00', '2024-02-13 18:50:00', '2024-02-13 18:20:00', '2024-02-13 17:50:00', '2024-02-13 17:20:00', '2024-02-13 16:50:00', '2024-02-13 16:28:00', '2024-02-13 15:50:00', '2024-02-13 15:20:00', '2024-02-13 14:50:00', '2024-02-13 14:20:00', '2024-02-13 13:50:00', '2024-02-13 13:20:00', '2024-02-13 12:50:00', '2024-02-13 12:20:00', '2024-02-13 11:50:00', '2024-02-13 11:20:00', '2024-02-13 10:57:00', '2024-02-13 10:20:00', '2024-02-13 09:50:00', '2024-02-13 09:20:00', '2024-02-13 08:50:00', '2024-02-13 08:20:00', '2024-02-13 07:54:00', '2024-02-13 07:20:00', '2024-02-13 06:50:00', '2024-02-13 06:20:00', '2024-02-13 05:50:00', '2024-02-13 05:20:00', '2024-02-13 04:50:00', '2024-02-13 04:20:00', '2024-02-13 03:50:00', '2024-02-13 03:20:00', '2024-02-13 02:50:00', '2024-02-13 02:20:00', '2024-02-13 01:50:00', '2024-02-13 01:27:00', '2024-02-13 00:54:00', '2024-02-13 00:20:00', '2024-02-12 23:50:00', '2024-02-12 23:20:00', '2024-02-12 22:50:00', '2024-02-12 22:20:00', '2024-02-12 21:50:00', '2024-02-12 21:20:00', '2024-02-12 20:50:00', '2024-02-12 20:20:00', '2024-02-12 19:50:00', '2024-02-12 19:20:00', '2024-02-12 18:50:00', '2024-02-12 18:26:00', '2024-02-12 17:50:00', '2024-02-12 17:20:00', '2024-02-12 16:50:00', '2024-02-12 16:20:00', '2024-02-12 15:50:00', '2024-02-12 15:20:00', '2024-02-12 14:50:00', '2024-02-12 14:20:00', '2024-02-12 13:50:00', '2024-02-12 13:20:00', '2024-02-12 12:50:00', '2024-02-12 12:20:00', '2024-02-12 11:50:00', '2024-02-12 11:20:00', '2024-02-12 10:50:00', '2024-02-12 10:20:00', '2024-02-12 09:50:00', '2024-02-12 09:25:00']"
Turkey, Batman Airport (BAL/LTCJ) ,"['LTCJ 150850Z 03004KT 330V090 9999 SCT040 SCT100 BKN180 14/09 Q1014 NOSIG', 'LTCJ 150820Z 02005KT 340V050 9999 SCT040 SCT100 BKN180 14/09 Q1015 NOSIG', 'LTCJ 150750Z 02005KT 360V060 9999 SCT035 BKN100 13/10 Q1015 NOSIG', 'LTCJ 150720Z 04005KT 9999 SCT035 BKN100 12/09 Q1015 NOSIG', 'LTCJ 150650Z 03005KT 9999 SCT035 BKN100 11/09 Q1015 NOSIG', 'LTCJ 150620Z 02005KT 9999 SCT035 BKN100 11/09 Q1014 NOSIG', 'LTCJ 150550Z 02006KT 9999 SCT035 BKN090 10/09 Q1014 NOSIG', 'LTCJ 150520Z 01005KT 9999 SCT035 BKN090 10/09 Q1014 NOSIG', 'LTCJ 150450Z 36005KT 9999 SCT035 BKN090 09/09 Q1013 NOSIG', 'LTCJ 150420Z 35006KT 310V010 9999 SCT035 BKN090 08/08 Q1013 NOSIG', 'LTCJ 150350Z 36006KT 9999 SCT035 BKN090 09/09 Q1012 NOSIG', 'LTCJ 150320Z 04007KT 9999 SCT035 BKN090 09/09 Q1012 RESHRA NOSIG', 'LTCJ 150250Z 02007KT 9000 -SHRA SCT035 BKN090 09/09 Q1012 NOSIG', 'LTCJ 150220Z 36005KT 320V030 9999 -SHRA SCT035 BKN090 09/09 Q1011 NOSIG', 'LTCJ 150150Z 01005KT 340V050 9999 SCT040 BKN100 09/09 Q1011 NOSIG', 'LTCJ 150120Z 02004KT 350V070 9999 SCT040 BKN100 09/09 Q1011 NOSIG', 'LTCJ 150050Z 31004KT 250V360 9999 SCT040 BKN100 09/08 Q1011 NOSIG', 'LTCJ 150020Z 11003KT 040V170 9999 SCT040 BKN100 09/08 Q1011 RESHRA NOSIG', 'LTCJ 142350Z 05006KT 9999 -SHRA BKN035 BKN090 09/09 Q1010 RESHRA NOSIG', 'LTCJ 142320Z 02004KT 330V070 8000 SHRA BKN035 BKN090 09/09 Q1010 NOSIG', 'LTCJ 142250Z 26005KT 230V290 6000 SHRA BKN035 BKN090 10/10 Q1011 NOSIG', 'LTCJ 142220Z 12006KT 6000 SHRA BKN035 BKN090 10/10 Q1010 NOSIG', 'LTCJ 142150Z 12009KT 7000 -SHRA BKN035 BKN090 10/10 Q1010 NOSIG', 'LTCJ 142120Z 12009KT 9999 -SHRA BKN035 BKN090 11/09 Q1010 NOSIG', 'LTCJ 142050Z 12008KT 9999 -SHRA FEW025CB BKN035 11/09 Q1010 NOSIG', 'LTCJ 142020Z 07007KT 050V110 9999 -SHRA FEW025CB BKN035 11/10 Q1011 NOSIG', 'LTCJ 141950Z 06007KT 9999 FEW025CB BKN035 11/10 Q1010 RESHRA NOSIG', 'LTCJ 141920Z 07006KT 050V120 9999 -SHRA BKN030 BKN090 11/10 Q1011 NOSIG', 'LTCJ 141850Z 09007KT 050V120 9999 -SHRA BKN035 BKN090 11/09 Q1011 NOSIG', 'LTCJ 141820Z 09009KT 9999 BKN035 BKN090 12/09 Q1011 NOSIG', 'LTCJ 141750Z 09010KT 060V120 9999 BKN035 BKN090 12/09 Q1011 NOSIG', 'LTCJ 141720Z 08008KT 050V130 9999 BKN035 BKN090 12/08 Q1011 NOSIG', 'LTCJ 141650Z 07012KT 9999 BKN035 BKN090 12/08 Q1011 RESHRA NOSIG', 'LTCJ 141620Z 07009KT 9999 -SHRA BKN035 BKN090 11/09 Q1011 NOSIG', 'LTCJ 141550Z 08008KT 030V120 9000 -SHRA BKN035 BKN090 12/09 Q1011 NOSIG', 'LTCJ 141520Z 08006KT 040V110 9999 SCT040 BKN100 13/08 Q1011 NOSIG', 'LTCJ 141450Z 08006KT 030V130 9999 SCT035 BKN080 13/07 Q1011 NOSIG', 'LTCJ 141420Z 11009KT 080V140 9999 BKN035 BKN080 14/07 Q1011 RESHRA NOSIG', 'LTCJ 141350Z 11008KT 080V140 9999 -SHRA BKN035 BKN080 13/08 Q1011 NOSIG', 'LTCJ 141320Z 13014G26KT 9999 SCT035 BKN080 14/07 Q1011 NOSIG', 'LTCJ 141250Z 12011KT 080V150 9999 SCT035 BKN080 14/08 Q1011 NOSIG', 'LTCJ 141220Z 12009KT 090V150 9999 SCT035 BKN080 13/09 Q1011 NOSIG', 'LTCJ 141150Z 12008KT 090V150 9999 SCT035 BKN080 13/09 Q1011 NOSIG', 'LTCJ 141120Z 12010KT 9999 BKN035 BKN080 14/08 Q1011 NOSIG', 'LTCJ 141050Z 12008KT 100V160 9999 BKN035 BKN080 13/09 Q1012 NOSIG', 'LTCJ 141020Z 14008KT 9999 BKN035 BKN080 13/09 Q1012 NOSIG', 'LTCJ 140950Z 10008KT 9999 BKN035 BKN080 13/09 Q1012 NOSIG', 'LTCJ 140920Z 13012KT 9999 BKN035 BKN080 13/09 Q1012 NOSIG', 'LTCJ 140850Z 13017G28KT 9999 BKN035 BKN080 15/09 Q1012 NOSIG', 'LTCJ 140820Z 13012KT 9999 BKN035 BKN080 14/08 Q1012 RESHRA NOSIG', 'LTCJ 140739Z 13020KT 9000 -SHRA BKN035 BKN080 14/08 Q1013 NOSIG', 'LTCJ 140720Z 13013KT 9999 SCT040 BKN100 14/08 Q1013 RESHRA NOSIG', 'LTCJ 140658Z 14014G24KT 9999 SCT040 BKN100 15/07 Q1013 NOSIG', 'LTCJ 140620Z 08006KT 9999 SCT040 BKN100 14/06 Q1013 NOSIG', 'LTCJ 140550Z 07007KT 9999 SCT040 BKN100 14/06 Q1013 NOSIG', 'LTCJ 140520Z 36003KT 330V040 9999 SCT040 BKN100 12/07 Q1013 NOSIG', 'LTCJ 140450Z 36004KT 330V030 9999 SCT040 BKN100 11/06 Q1013 NOSIG', 'LTCJ 140420Z 36004KT 9999 SCT040 BKN100 12/06 Q1013 NOSIG', 'LTCJ 140350Z 01005KT 9999 SCT040 BKN100 12/06 Q1014 NOSIG', 'LTCJ 140320Z 36005KT 9999 SCT040 BKN100 12/06 Q1014 NOSIG', 'LTCJ 140250Z 05007KT 9999 SCT040 BKN100 13/05 Q1014 NOSIG', 'LTCJ 140220Z 04007KT 9999 SCT040 BKN100 12/05 Q1013 NOSIG', 'LTCJ 140150Z 05009KT 9999 SCT040 BKN100 13/05 Q1013 NOSIG', 'LTCJ 140120Z 11006KT 9999 SCT040 BKN100 14/05 Q1014 NOSIG', 'LTCJ 140050Z 01003KT 330V060 9999 SCT040 BKN100 11/07 Q1014 NOSIG', 'LTCJ 140020Z 01003KT 9999 SCT040 BKN100 11/07 Q1014 NOSIG', 'LTCJ 132350Z 35004KT 310V020 9999 SCT040 BKN100 11/06 Q1015 NOSIG', 'LTCJ 132320Z 36005KT 9999 SCT040 BKN100 11/06 Q1015 NOSIG', 'LTCJ 132250Z 36004KT 9999 SCT040 BKN100 11/07 Q1015 NOSIG', 'LTCJ 132220Z 03007KT 9999 SCT040 BKN100 10/07 Q1015 NOSIG', 'LTCJ 132150Z 02005KT 9999 SCT040 BKN100 10/07 Q1015 NOSIG', 'LTCJ 132120Z 01006KT 9999 SCT040 BKN100 10/07 Q1015 NOSIG', 'LTCJ 132050Z 02006KT 9999 SCT040 BKN100 10/07 Q1016 NOSIG', 'LTCJ 132020Z 03006KT 9999 SCT040 BKN100 10/07 Q1016 NOSIG', 'LTCJ 131950Z 01004KT 9999 SCT040 BKN100 10/07 Q1016 NOSIG', 'LTCJ 131920Z 01004KT 340V040 9999 SCT040 BKN100 10/07 Q1016 NOSIG', 'LTCJ 131850Z 36004KT 9999 FEW040 BKN100 BKN180 11/07 Q1016 NOSIG', 'LTCJ 131820Z 01003KT 330V050 //// FEW040 SCT100 10/08 Q1017 NOSIG', 'LTCJ 131750Z 02002KT 9999 FEW040 SCT100 10/07 Q1017 NOSIG', 'LTCJ 131720Z 02004KT 9999 FEW040 SCT100 BKN180 10/07 Q1017 NOSIG', 'LTCJ 131650Z 02003KT 9999 FEW040 SCT100 BKN180 11/07 Q1017 NOSIG', 'LTCJ 131620Z 36003KT 9999 FEW040 SCT100 BKN180 11/08 Q1017 NOSIG', 'LTCJ 131550Z 07005KT 9999 FEW040 SCT100 BKN180 10/08 Q1017 NOSIG', 'LTCJ 131520Z VRB02KT 9999 FEW040 SCT100 BKN180 12/08 Q1016 NOSIG', 'LTCJ 131450Z 00000KT 9999 FEW040 SCT100 BKN180 12/08 Q1016 NOSIG', 'LTCJ 131420Z 00000KT 9999 FEW040 SCT100 BKN180 14/07 Q1016 NOSIG', 'LTCJ 131350Z 00000KT 9999 FEW040 SCT100 BKN180 15/08 Q1016 NOSIG', 'LTCJ 131320Z 00000KT 9999 FEW040 SCT100 BKN180 15/07 Q1016 NOSIG', 'LTCJ 131250Z VRB02KT 9999 FEW040 SCT100 BKN180 15/07 Q1016 NOSIG', 'LTCJ 131220Z 23004KT 200V260 9999 FEW040 SCT100 BKN180 15/08 Q1017 NOSIG', 'LTCJ 131150Z 24004KT CAVOK 15/08 Q1017 NOSIG', 'LTCJ 131050Z 24005KT 220V280 CAVOK 14/07 Q1017 NOSIG', 'LTCJ 131020Z 24007KT CAVOK 14/07 Q1018 NOSIG', 'LTCJ 130950Z 25004KT 210V290 CAVOK 14/05 Q1018 NOSIG', 'LTCJ 130920Z VRB01KT CAVOK 15/06 Q1018 NOSIG', 'LTCJ 130850Z VRB02KT CAVOK 14/07 Q1019 NOSIG', 'LTCJ 130820Z 23004KT 190V270 CAVOK 13/07 Q1019 NOSIG', 'LTCJ 130750Z 24003KT 170V300 CAVOK 12/07 Q1020 NOSIG', 'LTCJ 130720Z VRB02KT CAVOK 11/06 Q1019 NOSIG', 'LTCJ 130650Z VRB02KT CAVOK 10/06 Q1020 NOSIG', 'LTCJ 130620Z VRB01KT CAVOK 09/06 Q1020 NOSIG', 'LTCJ 130550Z VRB02KT 9000 NSC 07/06 Q1020 NOSIG', 'LTCJ 130520Z 19003KT 6000 NSC 06/06 Q1020 NOSIG', 'LTCJ 130450Z 22003KT 8000 NSC 05/05 Q1020 NOSIG', 'LTCJ 130420Z 27004KT CAVOK 05/05 Q1020 NOSIG', 'LTCJ 130350Z 08006KT CAVOK 06/05 Q1020 NOSIG', 'LTCJ 130320Z 02002KT CAVOK 05/05 Q1020 NOSIG', 'LTCJ 130250Z 04004KT CAVOK 05/05 Q1020 NOSIG', 'LTCJ 130220Z VRB01KT CAVOK 04/04 Q1020 NOSIG', 'LTCJ 130150Z 00000KT CAVOK 05/05 Q1020 NOSIG', 'LTCJ 130120Z 00000KT CAVOK 05/05 Q1020 NOSIG', 'LTCJ 130050Z 18003KT CAVOK 05/05 Q1021 NOSIG', 'LTCJ 130020Z 21002KT CAVOK 06/06 Q1021 NOSIG', 'LTCJ 122350Z 23002KT CAVOK 06/06 Q1020 NOSIG', 'LTCJ 122320Z 00000KT CAVOK 06/06 Q1021 NOSIG', 'LTCJ 122250Z VRB02KT CAVOK 06/06 Q1021 NOSIG', 'LTCJ 122220Z 06005KT CAVOK 06/06 Q1021 NOSIG', 'LTCJ 122150Z 04004KT CAVOK 06/06 Q1021 NOSIG', 'LTCJ 122120Z 04004KT CAVOK 06/05 Q1021 NOSIG', 'LTCJ 122050Z 04005KT CAVOK 06/06 Q1021 NOSIG', 'LTCJ 122020Z 03005KT CAVOK 07/06 Q1021 NOSIG', 'LTCJ 121950Z VRB01KT CAVOK 07/06 Q1021 NOSIG', 'LTCJ 121920Z 02002KT CAVOK 08/07 Q1021 NOSIG', 'LTCJ 121850Z 03004KT CAVOK 07/05 Q1021 NOSIG', 'LTCJ 121820Z 05004KT CAVOK 08/06 Q1021 NOSIG', 'LTCJ 121750Z 02005KT CAVOK 08/06 Q1021 NOSIG', 'LTCJ 121720Z 03005KT CAVOK 09/06 Q1021 NOSIG', 'LTCJ 121650Z 03004KT CAVOK 09/05 Q1021 NOSIG', 'LTCJ 121620Z 04004KT CAVOK 10/05 Q1021 NOSIG', 'LTCJ 121550Z 02003KT CAVOK 11/06 Q1021 NOSIG', 'LTCJ 121520Z 08004KT CAVOK 11/06 Q1021 NOSIG', 'LTCJ 121450Z VRB02KT CAVOK 13/06 Q1021 NOSIG', 'LTCJ 121420Z 02003KT CAVOK 15/07 Q1021 NOSIG', 'LTCJ 121350Z 01003KT CAVOK 17/06 Q1021 NOSIG', 'LTCJ 121320Z 36004KT CAVOK 17/05 Q1021 NOSIG', 'LTCJ 121250Z 02004KT 320V050 CAVOK 18/05 Q1021 NOSIG', 'LTCJ 121220Z VRB01KT CAVOK 17/04 Q1021 NOSIG', 'LTCJ 121150Z 04003KT 350V100 CAVOK 17/04 Q1022 NOSIG', 'LTCJ 121120Z 02004KT 320V060 CAVOK 16/04 Q1022 NOSIG', 'LTCJ 121050Z VRB01KT CAVOK 17/06 Q1022 NOSIG', 'LTCJ 121020Z VRB02KT CAVOK 15/08 Q1023 NOSIG', 'LTCJ 120950Z 06003KT 010V150 CAVOK 14/07 Q1023 NOSIG', 'LTCJ 120920Z VRB02KT CAVOK 13/07 Q1024 NOSIG']","['2024-02-15 08:50:00', '2024-02-15 08:20:00', '2024-02-15 07:50:00', '2024-02-15 07:20:00', '2024-02-15 06:50:00', '2024-02-15 06:20:00', '2024-02-15 05:50:00', '2024-02-15 05:20:00', '2024-02-15 04:50:00', '2024-02-15 04:20:00', '2024-02-15 03:50:00', '2024-02-15 03:20:00', '2024-02-15 02:50:00', '2024-02-15 02:20:00', '2024-02-15 01:50:00', '2024-02-15 01:20:00', '2024-02-15 00:50:00', '2024-02-15 00:20:00', '2024-02-14 23:50:00', '2024-02-14 23:20:00', '2024-02-14 22:50:00', '2024-02-14 22:20:00', '2024-02-14 21:50:00', '2024-02-14 21:20:00', '2024-02-14 20:50:00', '2024-02-14 20:20:00', '2024-02-14 19:50:00', '2024-02-14 19:20:00', '2024-02-14 18:50:00', '2024-02-14 18:20:00', '2024-02-14 17:50:00', '2024-02-14 17:20:00', '2024-02-14 16:50:00', '2024-02-14 16:20:00', '2024-02-14 15:50:00', '2024-02-14 15:20:00', '2024-02-14 14:50:00', '2024-02-14 14:20:00', '2024-02-14 13:50:00', '2024-02-14 13:20:00', '2024-02-14 12:50:00', '2024-02-14 12:20:00', '2024-02-14 11:50:00', '2024-02-14 11:20:00', '2024-02-14 10:50:00', '2024-02-14 10:20:00', '2024-02-14 09:50:00', '2024-02-14 09:20:00', '2024-02-14 08:50:00', '2024-02-14 08:20:00', '2024-02-14 07:39:00', '2024-02-14 07:20:00', '2024-02-14 06:58:00', '2024-02-14 06:20:00', '2024-02-14 05:50:00', '2024-02-14 05:20:00', '2024-02-14 04:50:00', '2024-02-14 04:20:00', '2024-02-14 03:50:00', '2024-02-14 03:20:00', '2024-02-14 02:50:00', '2024-02-14 02:20:00', '2024-02-14 01:50:00', '2024-02-14 01:20:00', '2024-02-14 00:50:00', '2024-02-14 00:20:00', '2024-02-13 23:50:00', '2024-02-13 23:20:00', '2024-02-13 22:50:00', '2024-02-13 22:20:00', '2024-02-13 21:50:00', '2024-02-13 21:20:00', '2024-02-13 20:50:00', '2024-02-13 20:20:00', '2024-02-13 19:50:00', '2024-02-13 19:20:00', '2024-02-13 18:50:00', '2024-02-13 18:20:00', '2024-02-13 17:50:00', '2024-02-13 17:20:00', '2024-02-13 16:50:00', '2024-02-13 16:20:00', '2024-02-13 15:50:00', '2024-02-13 15:20:00', '2024-02-13 14:50:00', '2024-02-13 14:20:00', '2024-02-13 13:50:00', '2024-02-13 13:20:00', '2024-02-13 12:50:00', '2024-02-13 12:20:00', '2024-02-13 11:50:00', '2024-02-13 10:50:00', '2024-02-13 10:20:00', '2024-02-13 09:50:00', '2024-02-13 09:20:00', '2024-02-13 08:50:00', '2024-02-13 08:20:00', '2024-02-13 07:50:00', '2024-02-13 07:20:00', '2024-02-13 06:50:00', '2024-02-13 06:20:00', '2024-02-13 05:50:00', '2024-02-13 05:20:00', '2024-02-13 04:50:00', '2024-02-13 04:20:00', '2024-02-13 03:50:00', '2024-02-13 03:20:00', '2024-02-13 02:50:00', '2024-02-13 02:20:00', '2024-02-13 01:50:00', '2024-02-13 01:20:00', '2024-02-13 00:50:00', '2024-02-13 00:20:00', '2024-02-12 23:50:00', '2024-02-12 23:20:00', '2024-02-12 22:50:00', '2024-02-12 22:20:00', '2024-02-12 21:50:00', '2024-02-12 21:20:00', '2024-02-12 20:50:00', '2024-02-12 20:20:00', '2024-02-12 19:50:00', '2024-02-12 19:20:00', '2024-02-12 18:50:00', '2024-02-12 18:20:00', '2024-02-12 17:50:00', '2024-02-12 17:20:00', '2024-02-12 16:50:00', '2024-02-12 16:20:00', '2024-02-12 15:50:00', '2024-02-12 15:20:00', '2024-02-12 14:50:00', '2024-02-12 14:20:00', '2024-02-12 13:50:00', '2024-02-12 13:20:00', '2024-02-12 12:50:00', '2024-02-12 12:20:00', '2024-02-12 11:50:00', '2024-02-12 11:20:00', '2024-02-12 10:50:00', '2024-02-12 10:20:00', '2024-02-12 09:50:00', '2024-02-12 09:20:00']"
Turkey, Bingol Airport (BGG/LTCU) ,"['LTCU 150850Z 33005KT 4800 -RA BR SCT014 BKN030 OVC080 06/04 Q1015', 'LTCU 150750Z VRB03KT 4800 -RA BR SCT014 BKN030 OVC080 06/05 Q1016', 'LTCU 150650Z 03007KT 4800 -RA BR SCT016 BKN030 OVC080 06/04 Q1015', 'LTCU 150550Z 01005KT 4400 -RA BR SCT014 BKN030 OVC080 05/04 Q1015', 'LTCU 150450Z 28003KT 4200 -RA BR SCT014 BKN030 OVC080 05/04 Q1014', 'LTCU 141350Z 31004KT 4500 -RA BR SCT016 BKN030 OVC080 07/06 Q1012', 'LTCU 141250Z 27004KT 4000 -RA BR SCT016 BKN030 OVC080 07/06 Q1012', 'LTCU 141150Z 30004KT 2200 -RA BR SCT012 BKN030 OVC080 07/06 Q1013', 'LTCU 141050Z 30003KT 270V330 3200 -RA BR FEW016 BKN030 OVC080 07/06 Q1013', 'LTCU 140950Z VRB02KT 4800 -RA BR BKN030 OVC080 07/06 Q1013', 'LTCU 140850Z 04006KT 010V110 6000 -RA BKN030 OVC080 08/05 Q1014', 'LTCU 140750Z 02010KT 6000 -RA BKN030 OVC080 08/04 Q1014', 'LTCU 140550Z 33006KT 290V360 6000 BKN035 OVC100 07/03 Q1015', 'LTCU 140450Z 02007KT 330V060 6000 BKN035 OVC100 07/03 Q1015', 'LTCU 131350Z 02008KT 9999 SCT035 BKN100 10/02 Q1018', 'LTCU 131250Z 01008KT 9999 SCT035 BKN100 11/02 Q1018', 'LTCU 131150Z 22003KT 160V240 9999 SCT035 BKN100 11/03 Q1019', 'LTCU 131050Z VRB03KT 9999 SCT035 BKN100 11/02 Q1019', 'LTCU 130950Z 29004KT 230V350 9999 SCT035 BKN100 09/01 Q1020', 'LTCU 130850Z VRB02KT 9999 SCT035 BKN100 07/01 Q1021', 'LTCU 130750Z 13003KT 060V170 9999 FEW035 BKN100 06/02 Q1022', 'LTCU 130650Z 12004KT 100V170 9999 FEW035 06/02 Q1022', 'LTCU 130550Z 30005KT 9999 FEW035 05/00 Q1022', 'LTCU 130450Z VRB02KT 9999 FEW035 02/00 Q1022', 'LTCU 121350Z 02009KT 9999 FEW035 BKN200 09/01 Q1023', 'LTCU 121250Z 01011KT 9999 FEW035 BKN200 10/01 Q1023', 'LTCU 121150Z 01009KT 9999 FEW035 BKN200 11/02 Q1024', 'LTCU 121050Z 02006KT 340V080 9999 FEW035 BKN200 11/02 Q1024', 'LTCU 120950Z VRB03KT 9999 FEW035 BKN200 10/02 Q1025']","['2024-02-15 08:50:00', '2024-02-15 07:50:00', '2024-02-15 06:50:00', '2024-02-15 05:50:00', '2024-02-15 04:50:00', '2024-02-14 13:50:00', '2024-02-14 12:50:00', '2024-02-14 11:50:00', '2024-02-14 10:50:00', '2024-02-14 09:50:00', '2024-02-14 08:50:00', '2024-02-14 07:50:00', '2024-02-14 05:50:00', '2024-02-14 04:50:00', '2024-02-13 13:50:00', '2024-02-13 12:50:00', '2024-02-13 11:50:00', '2024-02-13 10:50:00', '2024-02-13 09:50:00', '2024-02-13 08:50:00', '2024-02-13 07:50:00', '2024-02-13 06:50:00', '2024-02-13 05:50:00', '2024-02-13 04:50:00', '2024-02-12 13:50:00', '2024-02-12 12:50:00', '2024-02-12 11:50:00', '2024-02-12 10:50:00', '2024-02-12 09:50:00']"
Turkey, Bodrum Milas Airport (BJV/LTFE) ,"['LTFE 150850Z 02013KT 9999 FEW035 SCT100 14/04 Q1010 NOSIG', 'LTFE 150820Z 03012KT 9999 FEW035 SCT100 14/05 Q1010 NOSIG', 'LTFE 150750Z 03015KT 9999 FEW035 SCT100 13/04 Q1010 NOSIG', 'LTFE 150720Z 04013KT 9999 FEW035 SCT100 13/04 Q1010 NOSIG', 'LTFE 150650Z 04009KT 9999 FEW035 SCT100 12/05 Q1010 NOSIG', 'LTFE 150620Z 04006KT 010V080 9999 FEW035 SCT100 11/05 Q1010 NOSIG', 'LTFE 150550Z 02008KT 9999 FEW035 SCT100 10/04 Q1010 NOSIG', 'LTFE 150520Z 01003KT 340V070 9999 FEW035 SCT100 09/04 Q1010 NOSIG', 'LTFE 150450Z VRB02KT 9999 FEW035 SCT100 08/04 Q1010 NOSIG', 'LTFE 150420Z 17004KT 9999 FEW035 SCT100 07/04 Q1010 NOSIG', 'LTFE 150350Z VRB02KT 9999 FEW035 SCT100 08/04 Q1009 NOSIG', 'LTFE 150320Z 04005KT 9999 FEW035 SCT100 08/04 Q1009 NOSIG', 'LTFE 150250Z 04004KT 010V080 9999 FEW035 SCT100 09/04 Q1009 NOSIG', 'LTFE 150220Z 02005KT 360V060 9999 FEW035 SCT100 09/04 Q1009 NOSIG', 'LTFE 150150Z 03003KT 340V070 9999 FEW035 SCT100 09/05 Q1009 NOSIG', 'LTFE 150120Z 01005KT 340V040 9999 FEW035 SCT100 09/05 Q1009 NOSIG', 'LTFE 150050Z 01002KT 9999 FEW035 SCT100 09/05 Q1009 NOSIG', 'LTFE 150020Z 35004KT 9999 FEW035 SCT100 09/05 Q1009 NOSIG', 'LTFE 142350Z 36003KT 310V100 9999 FEW035 SCT100 10/06 Q1009 NOSIG', 'LTFE 142320Z 01004KT 320V060 9999 FEW035 SCT100 10/05 Q1009 NOSIG', 'LTFE 142250Z 34004KT 310V060 9999 FEW035 SCT100 11/06 Q1009 NOSIG', 'LTFE 142220Z 03003KT 320V070 9999 SCT035 SCT100 11/05 Q1009 NOSIG', 'LTFE 142150Z 03003KT 350V080 9999 SCT035 SCT100 11/06 Q1009 NOSIG', 'LTFE 142120Z 02004KT 350V050 9999 SCT035 SCT100 11/06 Q1009 NOSIG', 'LTFE 142050Z 13003KT 070V170 9999 SCT035 SCT100 11/07 Q1009 NOSIG', 'LTFE 142020Z VRB03KT 9999 SCT035 SCT100 12/07 Q1008 NOSIG', 'LTFE 141950Z 02005KT 330V070 9999 SCT035 SCT100 12/07 Q1008 NOSIG', 'LTFE 141920Z VRB01KT 9999 SCT035 SCT100 12/07 Q1008 NOSIG', 'LTFE 141850Z 34004KT 280V060 9999 SCT035 SCT100 13/07 Q1008 NOSIG', 'LTFE 141820Z 12004KT 040V150 9999 SCT035 SCT100 13/07 Q1008 NOSIG', 'LTFE 141750Z 11004KT 050V140 9999 SCT035 SCT100 12/06 Q1007 NOSIG', 'LTFE 141720Z 36005KT 9999 SCT035 SCT100 14/07 Q1007 NOSIG', 'LTFE 141650Z 34008KT 300V020 9999 SCT035 SCT100 14/06 Q1007 NOSIG', 'LTFE 141620Z 33007KT 290V010 9999 SCT035 SCT100 15/06 Q1007 NOSIG', 'LTFE 141550Z 34008KT 300V030 9999 SCT035 SCT100 15/06 Q1007 NOSIG', 'LTFE 141520Z 34012KT 310V010 9999 SCT035 SCT100 16/06 Q1006 NOSIG', 'LTFE 141450Z 34011KT 9999 SCT035 16/06 Q1006 NOSIG', 'LTFE 141420Z 34009KT 9000 FEW035 SCT100 16/07 Q1006 NOSIG', 'LTFE 141350Z 35009KT 9999 FEW035 SCT100 18/08 Q1006 NOSIG', 'LTFE 141320Z 34008KT 300V360 9999 FEW035 SCT100 18/07 Q1006 NOSIG', 'LTFE 141250Z 33008KT 290V010 9999 FEW035 SCT100 18/07 Q1006 NOSIG', 'LTFE 141220Z 35006KT 310V050 9999 FEW035 SCT100 18/07 Q1005 NOSIG', 'LTFE 141150Z 34007KT 280V010 9999 FEW035 SCT100 18/06 Q1005 NOSIG', 'LTFE 141120Z 34007KT 310V020 9999 FEW035 SCT100 18/07 Q1006 NOSIG', 'LTFE 141050Z 35006KT 320V020 9999 FEW035 SCT100 18/07 Q1006 NOSIG', 'LTFE 141020Z 35006KT 310V040 9999 FEW035 18/07 Q1006 NOSIG', 'LTFE 140950Z 29005KT 230V320 9999 FEW035 16/09 Q1006 NOSIG', 'LTFE 140920Z 23004KT 190V270 9999 FEW035 16/08 Q1007 NOSIG', 'LTFE 140850Z VRB02KT CAVOK 15/09 Q1007 NOSIG', 'LTFE 140820Z VRB02KT CAVOK 15/08 Q1007 NOSIG', 'LTFE 140750Z VRB02KT CAVOK 13/09 Q1008 NOSIG', 'LTFE 140720Z VRB02KT CAVOK 11/09 Q1007 NOSIG', 'LTFE 140650Z VRB02KT CAVOK 09/08 Q1007 NOSIG', 'LTFE 140620Z VRB02KT 6000 NSC 07/07 Q1008 NOSIG', 'LTFE 140550Z 12003KT 070V140 7000 3000NE BR NSC 05/05 Q1007 NOSIG', 'LTFE 140520Z 00000KT 7000 3000NE BR NSC 05/05 Q1007 NOSIG', 'LTFE 140450Z 13003KT 090V210 7000 3000NE BR NSC 04/04 Q1007 NOSIG', 'LTFE 140420Z 14004KT 6000 2500NW BCFG FEW001 05/05 Q1007 NOSIG', 'LTFE 140350Z 15003KT 6000 2000E BCFG FEW001 05/05 Q1007 NOSIG', 'LTFE 140320Z 13002KT 8000 NSC 05/05 Q1007 NOSIG', 'LTFE 140250Z VRB01KT 7000 NSC 05/05 Q1007 NOSIG', 'LTFE 140220Z VRB02KT 8000 NSC 05/05 Q1007 NOSIG', 'LTFE 140150Z 12003KT 6000 NSC 05/05 Q1007 NOSIG', 'LTFE 140120Z 11003KT CAVOK 06/06 Q1008 NOSIG', 'LTFE 140050Z 11003KT CAVOK 06/06 Q1008 NOSIG', 'LTFE 140020Z 12003KT 8000 NSC 06/06 Q1008 NOSIG', 'LTFE 132350Z VRB02KT CAVOK 06/06 Q1008 NOSIG', 'LTFE 132320Z 10003KT 060V120 CAVOK 07/06 Q1008 NOSIG', 'LTFE 132250Z VRB02KT CAVOK 06/06 Q1008 NOSIG', 'LTFE 132220Z 16003KT 110V180 CAVOK 06/06 Q1009 NOSIG', 'LTFE 132150Z 00000KT CAVOK 06/06 Q1009 NOSIG', 'LTFE 132120Z 09003KT CAVOK 07/07 Q1009 NOSIG', 'LTFE 132050Z VRB02KT CAVOK 07/07 Q1008 NOSIG', 'LTFE 132020Z VRB04KT CAVOK 08/08 Q1008 NOSIG', 'LTFE 131950Z 12003KT CAVOK 08/07 Q1008 NOSIG', 'LTFE 131920Z 10004KT 070V130 CAVOK 08/07 Q1008 NOSIG', 'LTFE 131850Z 13005KT CAVOK 09/08 Q1009 NOSIG', 'LTFE 131820Z 13004KT CAVOK 09/08 Q1009 NOSIG', 'LTFE 131750Z 14004KT 9999 FEW035 10/09 Q1009 NOSIG', 'LTFE 131720Z VRB02KT 9999 FEW035 11/09 Q1009 NOSIG', 'LTFE 131650Z 26006KT 9999 FEW035 12/08 Q1008 NOSIG', 'LTFE 131620Z 27007KT 9999 SCT035 13/09 Q1008 NOSIG', 'LTFE 131550Z 26006KT 9999 SCT035 13/09 Q1008 NOSIG', 'LTFE 131520Z 27008KT 9999 SCT035 14/09 Q1008 NOSIG', 'LTFE 131450Z 26010KT 9999 SCT035 15/08 Q1008 NOSIG', 'LTFE 131420Z 27008KT 9999 SCT035 SCT200 16/07 Q1007 NOSIG', 'LTFE 131350Z 26008KT 9999 SCT035 SCT200 17/08 Q1007 NOSIG', 'LTFE 131320Z 28008KT 9999 FEW035 SCT200 17/07 Q1007 NOSIG', 'LTFE 131250Z VRB03KT 9999 FEW035 BKN200 17/08 Q1007 NOSIG', 'LTFE 131220Z 29003KT 220V340 9999 FEW035 BKN200 16/08 Q1007 NOSIG', 'LTFE 131150Z 29004KT 260V320 9999 FEW035 SCT200 16/09 Q1007 NOSIG', 'LTFE 131120Z VRB01KT 9999 FEW035 SCT200 17/07 Q1008 NOSIG', 'LTFE 131050Z 05001KT 9999 FEW035 SCT200 17/10 Q1008 NOSIG', 'LTFE 131020Z 14003KT 070V180 9999 FEW035 SCT200 15/10 Q1008 NOSIG', 'LTFE 130950Z VRB01KT 9999 FEW035 SCT200 14/10 Q1009 NOSIG', 'LTFE 130920Z VRB02KT 9999 SCT035 BKN200 13/09 Q1009 NOSIG', 'LTFE 130850Z 11006KT 9999 SCT035 BKN200 12/10 Q1010 NOSIG', 'LTFE 130820Z 11004KT 9999 SCT035 BKN100 11/09 Q1010 NOSIG', 'LTFE 130750Z 13006KT 9999 SCT035 BKN100 10/09 Q1010 RESHRA NOSIG', 'LTFE 130720Z 09006KT 040V110 9999 -SHRA SCT035 BKN100 10/09 Q1010 NOSIG', 'LTFE 130650Z 03003KT 320V090 9999 -SHRA FEW020CB BKN035 BKN090 10/09 Q1011 NOSIG', 'LTFE 130620Z VRB04KT 9999 -SHRA FEW020CB BKN035 BKN090 10/08 Q1011 NOSIG', 'LTFE 130550Z 35007KT 320V020 9999 -SHRA FEW020CB BKN035 BKN090 10/08 Q1010 NOSIG', 'LTFE 130520Z 05006KT 360V090 9999 -SHRA FEW020CB BKN035 10/08 Q1009 NOSIG', 'LTFE 130450Z VRB04KT 9999 -SHRA FEW020CB BKN035 09/09 Q1009 RETSRA NOSIG', 'LTFE 130420Z 10005KT 070V130 9999 -TSRA FEW020CB BKN035 07/07 Q1009 NOSIG', 'LTFE 130350Z 13004KT 9999 FEW020CB BKN035 07/07 Q1009 NOSIG', 'LTFE 130320Z VRB02KT 9999 FEW020CB BKN035 07/06 Q1008 NOSIG', 'LTFE 130250Z VRB02KT 9999 FEW020CB BKN035 06/06 Q1008 RETS NOSIG', 'LTFE 130220Z VRB02KT 9999 TS FEW020CB BKN035 07/07 Q1008 TEMPO TL0300 -TSRA', 'LTFE 130150Z VRB02KT 9999 SCT035 BKN100 07/07 Q1008 TEMPO TL0300 2000 +TSRA', 'LTFE 130120Z 16006KT 9999 SCT035 BKN100 08/08 Q1008 TEMPO TL0300 -TSRA', 'LTFE 130050Z VRB01KT 9999 SCT035 BKN100 08/08 Q1009 TEMPO -TSRA', 'LTFE 130020Z 12004KT 090V150 9999 SCT035 BKN090 08/08 Q1009 TEMPO -TSRA', 'LTFE 122350Z 10005KT 9999 SCT035 BKN090 08/07 Q1009 TEMPO -TSRA', 'LTFE 122320Z 09004KT 060V130 9999 SCT035 BKN090 09/08 Q1009 NOSIG', 'LTFE 122250Z 14003KT 9999 FEW020CB BKN030 10/10 Q1009 TEMPO FM0000 -TSRA', 'LTFE 122220Z 04003KT 9999 FEW020CB BKN030 10/09 Q1009 TEMPO -TSRA', 'LTFE 122150Z 09006KT 9999 FEW020CB BKN030 10/10 Q1009 RETSRA TEMPO -TSRA', 'LTFE 122120Z 20004KT 180V260 6000 -TSRA FEW020CB BKN030 11/10 Q1009 RETS BECMG NSW TEMPO FM2200 -TSRA', 'LTFE 122050Z VRB01KT 6000 -TSRA FEW020CB BKN030 10/10 Q1009 BECMG NSW TEMPO FM2200 -TSRA', 'LTFE 122020Z 08007KT 030V170 6000 -TSRA SCT020CB BKN030 10/10 Q1010 TEMPO TL2200 2000 +TSRA', 'LTFE 121950Z 09006KT 6000 -TSRA SCT020CB BKN030 11/11 Q1011 TEMPO 2000 +TSRA', 'LTFE 121920Z 06003KT 6000 -TSRA SCT020CB BKN030 10/10 Q1011 RETSRA TEMPO 2000 +TSRA', 'LTFE 121850Z 31008KT 4000 TSRA SCT020CB BKN030 11/11 Q1010 RETSRA BECMG TL1920 16020G35KT TEMPO 2000 +TSRA', 'LTFE 121820Z 23016KT 190V250 2000 +TSRA SCT020CB BKN030 11/11 Q1009 BECMG TL1850 16020G35KT 9999 NSW TEMPO FM1900 2000 +TSRA', 'LTFE 121750Z 14007KT 090V180 6000 TSRA SCT020CB BKN030 14/12 Q1008 RESHRA BECMG TL1820 16020G35KT TEMPO 2000 +TSRA', 'LTFE 121725Z 13014KT 9999 -TSRA FEW020CB BKN030 15/11 Q1008 RESHRA TEMPO FM1800 2000 +TSRA', 'LTFE 121650Z 14018KT 9999 -SHRA FEW020CB SCT030 BKN090 17/10 Q1007 NOSIG', 'LTFE 121620Z 12012KT 9999 SCT030 BKN090 17/10 Q1008 TEMPO FM1800 2000 +TSRA', 'LTFE 121550Z 12014KT 9999 SCT035 BKN100 17/10 Q1008 NOSIG', 'LTFE 121520Z 11014KT 9999 SCT035 BKN100 17/11 Q1008 NOSIG', 'LTFE 121450Z 14014KT 9999 SCT035 BKN100 18/09 Q1008 NOSIG', 'LTFE 121420Z 15018KT 9999 SCT035 BKN100 18/09 Q1009 NOSIG', 'LTFE 121350Z 15017KT 9999 SCT035 BKN100 OVC180 18/10 Q1009 NOSIG', 'LTFE 121320Z 15018KT 9999 SCT035 BKN100 OVC180 18/09 Q1009 NOSIG', 'LTFE 121250Z 14017KT 9999 SCT035 BKN100 OVC180 18/09 Q1010 NOSIG', 'LTFE 121220Z 15013KT 9999 SCT035 BKN100 OVC180 18/09 Q1011 NOSIG', 'LTFE 121150Z 16015KT 9999 SCT035 BKN100 OVC180 18/09 Q1011 NOSIG', 'LTFE 121120Z 16018KT 9999 SCT035 SCT100 OVC180 17/10 Q1012 NOSIG', 'LTFE 121050Z 14021G31KT 9999 SCT035 SCT100 BKN180 18/09 Q1012 NOSIG', 'LTFE 121020Z 16024G34KT 9999 SCT035 SCT100 BKN180 18/09 Q1012 NOSIG', 'LTFE 120950Z 15024G34KT 9999 SCT035 SCT100 BKN180 18/09 Q1013 NOSIG', 'LTFE 120920Z 16019KT 9999 SCT035 SCT100 BKN180 18/09 Q1014 NOSIG']","['2024-02-15 08:50:00', '2024-02-15 08:20:00', '2024-02-15 07:50:00', '2024-02-15 07:20:00', '2024-02-15 06:50:00', '2024-02-15 06:20:00', '2024-02-15 05:50:00', '2024-02-15 05:20:00', '2024-02-15 04:50:00', '2024-02-15 04:20:00', '2024-02-15 03:50:00', '2024-02-15 03:20:00', '2024-02-15 02:50:00', '2024-02-15 02:20:00', '2024-02-15 01:50:00', '2024-02-15 01:20:00', '2024-02-15 00:50:00', '2024-02-15 00:20:00', '2024-02-14 23:50:00', '2024-02-14 23:20:00', '2024-02-14 22:50:00', '2024-02-14 22:20:00', '2024-02-14 21:50:00', '2024-02-14 21:20:00', '2024-02-14 20:50:00', '2024-02-14 20:20:00', '2024-02-14 19:50:00', '2024-02-14 19:20:00', '2024-02-14 18:50:00', '2024-02-14 18:20:00', '2024-02-14 17:50:00', '2024-02-14 17:20:00', '2024-02-14 16:50:00', '2024-02-14 16:20:00', '2024-02-14 15:50:00', '2024-02-14 15:20:00', '2024-02-14 14:50:00', '2024-02-14 14:20:00', '2024-02-14 13:50:00', '2024-02-14 13:20:00', '2024-02-14 12:50:00', '2024-02-14 12:20:00', '2024-02-14 11:50:00', '2024-02-14 11:20:00', '2024-02-14 10:50:00', '2024-02-14 10:20:00', '2024-02-14 09:50:00', '2024-02-14 09:20:00', '2024-02-14 08:50:00', '2024-02-14 08:20:00', '2024-02-14 07:50:00', '2024-02-14 07:20:00', '2024-02-14 06:50:00', '2024-02-14 06:20:00', '2024-02-14 05:50:00', '2024-02-14 05:20:00', '2024-02-14 04:50:00', '2024-02-14 04:20:00', '2024-02-14 03:50:00', '2024-02-14 03:20:00', '2024-02-14 02:50:00', '2024-02-14 02:20:00', '2024-02-14 01:50:00', '2024-02-14 01:20:00', '2024-02-14 00:50:00', '2024-02-14 00:20:00', '2024-02-13 23:50:00', '2024-02-13 23:20:00', '2024-02-13 22:50:00', '2024-02-13 22:20:00', '2024-02-13 21:50:00', '2024-02-13 21:20:00', '2024-02-13 20:50:00', '2024-02-13 20:20:00', '2024-02-13 19:50:00', '2024-02-13 19:20:00', '2024-02-13 18:50:00', '2024-02-13 18:20:00', '2024-02-13 17:50:00', '2024-02-13 17:20:00', '2024-02-13 16:50:00', '2024-02-13 16:20:00', '2024-02-13 15:50:00', '2024-02-13 15:20:00', '2024-02-13 14:50:00', '2024-02-13 14:20:00', '2024-02-13 13:50:00', '2024-02-13 13:20:00', '2024-02-13 12:50:00', '2024-02-13 12:20:00', '2024-02-13 11:50:00', '2024-02-13 11:20:00', '2024-02-13 10:50:00', '2024-02-13 10:20:00', '2024-02-13 09:50:00', '2024-02-13 09:20:00', '2024-02-13 08:50:00', '2024-02-13 08:20:00', '2024-02-13 07:50:00', '2024-02-13 07:20:00', '2024-02-13 06:50:00', '2024-02-13 06:20:00', '2024-02-13 05:50:00', '2024-02-13 05:20:00', '2024-02-13 04:50:00', '2024-02-13 04:20:00', '2024-02-13 03:50:00', '2024-02-13 03:20:00', '2024-02-13 02:50:00', '2024-02-13 02:20:00', '2024-02-13 01:50:00', '2024-02-13 01:20:00', '2024-02-13 00:50:00', '2024-02-13 00:20:00', '2024-02-12 23:50:00', '2024-02-12 23:20:00', '2024-02-12 22:50:00', '2024-02-12 22:20:00', '2024-02-12 21:50:00', '2024-02-12 21:20:00', '2024-02-12 20:50:00', '2024-02-12 20:20:00', '2024-02-12 19:50:00', '2024-02-12 19:20:00', '2024-02-12 18:50:00', '2024-02-12 18:20:00', '2024-02-12 17:50:00', '2024-02-12 17:25:00', '2024-02-12 16:50:00', '2024-02-12 16:20:00', '2024-02-12 15:50:00', '2024-02-12 15:20:00', '2024-02-12 14:50:00', '2024-02-12 14:20:00', '2024-02-12 13:50:00', '2024-02-12 13:20:00', '2024-02-12 12:50:00', '2024-02-12 12:20:00', '2024-02-12 11:50:00', '2024-02-12 11:20:00', '2024-02-12 10:50:00', '2024-02-12 10:20:00', '2024-02-12 09:50:00', '2024-02-12 09:20:00']"
Turkey, Bursa Yenisehir Airport (YEI/LTBR) ,"['LTBR 150850Z 32007KT 9999 -SHRA FEW017 BKN025 BKN080 07/06 Q1016 NOSIG', 'LTBR 150820Z 32008KT 9999 -SHRA FEW017 BKN025 BKN080 07/06 Q1016 NOSIG', 'LTBR 150750Z 33008KT 9999 -SHRA FEW017 BKN025 BKN080 07/05 Q1016 NOSIG', 'LTBR 150720Z 33007KT 9999 -SHRA FEW017 BKN025 BKN080 07/06 Q1015 NOSIG', 'LTBR 150650Z 33008KT 310V010 9999 -SHRA FEW017 BKN025 BKN080 07/06 Q1015 NOSIG', 'LTBR 150620Z 33008KT 9999 -SHRA FEW017 BKN025 BKN080 07/06 Q1015 NOSIG', 'LTBR 150550Z 32009KT 9999 -SHRA FEW017 BKN025 BKN080 07/06 Q1015 NOSIG', 'LTBR 150520Z 32009KT 9999 -SHRA FEW018 BKN023 BKN080 07/06 Q1015 NOSIG', 'LTBR 150450Z 32008KT 9999 -SHRA FEW017 BKN025 BKN080 07/06 Q1014 NOSIG', 'LTBR 150420Z 32008KT 300V360 9999 -SHRA FEW017 SCT025 BKN080 07/06 Q1014 NOSIG', 'LTBR 150350Z 32009KT 9000 -SHRA FEW017 BKN023 BKN080 07/06 Q1014 RESHRA NOSIG', 'LTBR 150320Z 32008KT 7000 SHRA FEW015 BKN025 BKN080 07/06 Q1014 BECMG TL0350 NSW', 'LTBR 150250Z 26007KT 220V280 6000 SHRA FEW013 BKN023 BKN080 06/06 Q1014 BECMG TL0350 NSW', 'LTBR 150220Z 25006KT 8000 -SHRA FEW013 BKN025 BKN080 06/06 Q1013 NOSIG', 'LTBR 150150Z 29007KT 9999 -SHRA FEW015 BKN023 BKN080 06/06 Q1013 NOSIG', 'LTBR 150120Z 29007KT 9999 -SHRA FEW015 BKN023 BKN080 06/06 Q1013 NOSIG', 'LTBR 150050Z 29007KT 9999 -SHRA FEW015 BKN023 BKN080 06/06 Q1013 NOSIG', 'LTBR 150020Z 28006KT 9999 -SHRA FEW015 BKN023 BKN080 06/06 Q1013 NOSIG', 'LTBR 142350Z 27005KT 9999 -SHRA FEW015 BKN023 BKN080 07/06 Q1013 NOSIG', 'LTBR 142320Z 32008KT 9999 -SHRA FEW015 BKN023 BKN080 07/06 Q1013 NOSIG', 'LTBR 142250Z 33009KT 9999 -SHRA FEW015 BKN023 BKN080 07/06 Q1013 NOSIG', 'LTBR 142220Z 32009KT 9999 -SHRA FEW015 BKN023 BKN080 07/06 Q1013 NOSIG', 'LTBR 142150Z 32010KT 9999 -SHRA FEW015 BKN023 BKN080 07/06 Q1013 NOSIG', 'LTBR 142120Z 32010KT 9999 -SHRA FEW015 BKN023 BKN080 07/07 Q1013 NOSIG', 'LTBR 142050Z 33010KT 9999 -SHRA FEW015 BKN023 BKN080 07/06 Q1013 NOSIG', 'LTBR 142020Z 33011KT 9999 -SHRA FEW015 BKN023 BKN080 07/06 Q1013 RESHRA NOSIG', 'LTBR 141950Z 33011KT 300V360 7000 SHRA FEW015 BKN023 BKN080 07/06 Q1013 BECMG TL2050 NSW', 'LTBR 141920Z 33011KT 9999 -SHRA FEW015 BKN025 BKN080 07/07 Q1013 TEMPO TL2100 SHRA', 'LTBR 141850Z 33012KT 9999 -SHRA FEW015 BKN025 BKN080 07/06 Q1013 TEMPO SHRA', 'LTBR 141820Z 33011KT 9999 -SHRA FEW015 BKN025 BKN080 07/07 Q1013 TEMPO SHRA', 'LTBR 141750Z 33010KT 9999 -SHRA FEW015 BKN025 BKN080 08/07 Q1013 TEMPO SHRA', 'LTBR 141720Z 32009KT 300V360 9999 -SHRA FEW015 BKN025 BKN080 08/07 Q1013 TEMPO FM1800 SHRA', 'LTBR 141650Z 33008KT 9999 -SHRA FEW015 BKN025 BKN080 08/07 Q1013 TEMPO FM1800 34018G28KT SHRA', 'LTBR 141620Z 32006KT 8000 -SHRA FEW015 BKN025 BKN080 08/07 Q1013 NOSIG', 'LTBR 141550Z 32006KT 280V340 8000 -SHRA FEW015 BKN027 BKN080 08/07 Q1013 NOSIG', 'LTBR 141520Z 31006KT 280V340 9999 -SHRA FEW015 BKN030 BKN080 08/07 Q1012 NOSIG', 'LTBR 141450Z 32008KT 290V360 9999 -SHRA FEW015 BKN030 BKN080 08/06 Q1012 NOSIG', 'LTBR 141420Z 34008KT 300V020 9999 -SHRA FEW015 BKN030 BKN080 08/07 Q1012 NOSIG', 'LTBR 141350Z 34008KT 9999 -SHRA FEW015 BKN030 BKN080 09/07 Q1011 NOSIG', 'LTBR 141320Z 34008KT 9999 -SHRA FEW015 BKN030 BKN080 09/07 Q1011 NOSIG', 'LTBR 141250Z 32009KT 9999 -SHRA FEW015 BKN030 BKN080 09/07 Q1011 NOSIG', 'LTBR 141220Z 34010KT 9999 -SHRA FEW015 BKN030 BKN080 10/07 Q1011 NOSIG', 'LTBR 141150Z 34013KT 9999 VCSH FEW015 BKN030 BKN080 10/07 Q1011 NOSIG', 'LTBR 141120Z 34010KT 9999 VCSH FEW015 BKN029 BKN080 10/07 Q1011 NOSIG', 'LTBR 141050Z 33011KT 9999 FEW015 BKN029 BKN080 10/07 Q1011 NOSIG', 'LTBR 141020Z 34009KT 290V040 9999 FEW015 SCT030 BKN080 10/07 Q1011 NOSIG', 'LTBR 140950Z 34006KT 310V010 8000 FEW013 SCT033 BKN080 10/07 Q1011 NOSIG', 'LTBR 140920Z 33004KT 7000 FEW013 SCT033 BKN080 10/07 Q1011 NOSIG', 'LTBR 140850Z 00000KT 6000 FEW013 SCT032 BKN080 10/07 Q1011 NOSIG', 'LTBR 140820Z VRB02KT 6000 FEW013 SCT032 BKN080 09/07 Q1011 NOSIG', 'LTBR 140750Z 00000KT 7000 FEW030 BKN080 08/07 Q1011 NOSIG', 'LTBR 140720Z 00000KT 6000 FEW040 BKN080 08/07 Q1011 NOSIG', 'LTBR 140650Z 00000KT 5000 BR FEW040 BKN080 07/07 Q1011 BECMG TL0720 9999 NSW', 'LTBR 140620Z VRB01KT 4100 BR SCT033 BKN080 06/06 Q1011 BECMG TL0720 9999 NSW', 'LTBR 140550Z VRB01KT 4500 BR SCT033 BKN080 06/06 Q1011 BECMG TL0650 9999 NSW', 'LTBR 140520Z 00000KT 4000 BR SCT033 BKN080 06/06 Q1011 BECMG TL0620 9999 NSW', 'LTBR 140450Z VRB02KT 4500 BR SCT033 BKN080 05/05 Q1011 BECMG TL0550 9999 NSW', 'LTBR 140420Z 12003KT 6000 SCT035 BKN080 05/05 Q1010 NOSIG', 'LTBR 140350Z 00000KT 4000 BR SCT035 BKN080 05/05 Q1010 NOSIG', 'LTBR 140320Z 03002KT 3500 BR SCT035 BKN080 04/04 Q1010 NOSIG', 'LTBR 140250Z 06002KT 3500 BR SCT032 BKN080 04/04 Q1010 NOSIG', 'LTBR 140150Z 06002KT 6000 SCT032 BKN080 04/04 Q1010 NOSIG', 'LTBR 140120Z 00000KT 7000 SCT032 BKN080 04/04 Q1010 NOSIG', 'LTBR 140050Z 16002KT 7000 SCT032 BKN080 05/05 Q1010 NOSIG', 'LTBR 140020Z 22002KT 7000 SCT032 BKN080 05/05 Q1010 NOSIG', 'LTBR 132350Z 00000KT 7000 SCT032 BKN090 05/05 Q1010 NOSIG', 'LTBR 132320Z VRB02KT 9999 SCT032 BKN090 04/04 Q1010 NOSIG', 'LTBR 132250Z VRB02KT 9999 SCT032 BKN090 04/04 Q1010 NOSIG', 'LTBR 132220Z VRB02KT 9999 SCT032 BKN090 05/05 Q1010 NOSIG', 'LTBR 132150Z 08003KT 9999 SCT032 BKN090 05/05 Q1010 NOSIG', 'LTBR 132120Z 36002KT 9999 SCT032 BKN090 05/05 Q1010 NOSIG', 'LTBR 132050Z VRB01KT 9999 SCT035 BKN100 05/05 Q1010 NOSIG', 'LTBR 132020Z VRB01KT 9999 SCT035 BKN100 05/05 Q1010 NOSIG', 'LTBR 131950Z 09002KT 9999 SCT035 BKN100 06/06 Q1010 NOSIG', 'LTBR 131920Z 00000KT 9999 SCT035 BKN100 07/06 Q1010 NOSIG', 'LTBR 131850Z 28003KT 9999 SCT035 BKN100 08/07 Q1010 NOSIG', 'LTBR 131820Z 27003KT 9999 SCT035 BKN100 09/07 Q1010 NOSIG', 'LTBR 131750Z VRB01KT 9999 SCT035 BKN100 10/07 Q1010 NOSIG', 'LTBR 131720Z VRB02KT 9999 SCT035 BKN100 09/07 Q1009 NOSIG', 'LTBR 131650Z VRB02KT 9999 SCT035 BKN100 11/07 Q1009 NOSIG', 'LTBR 131620Z VRB01KT 9999 SCT035 BKN100 10/07 Q1009 NOSIG', 'LTBR 131550Z VRB02KT 9999 SCT035 BKN100 11/08 Q1008 NOSIG', 'LTBR 131520Z 25004KT 200V280 9999 SCT035 BKN100 12/08 Q1008 NOSIG', 'LTBR 131450Z VRB04KT 9999 SCT035 BKN100 12/07 Q1008 NOSIG', 'LTBR 131420Z VRB04KT 9999 SCT035 BKN100 14/06 Q1008 NOSIG', 'LTBR 131350Z 28006KT 9999 SCT035 BKN100 13/08 Q1008 NOSIG', 'LTBR 131320Z 28009KT 9999 SCT035 BKN100 13/08 Q1007 NOSIG', 'LTBR 131220Z 30005KT 270V340 9999 SCT035 BKN100 14/06 Q1007 NOSIG', 'LTBR 131150Z 25006KT 9999 SCT035 BKN100 14/07 Q1007 TEMPO 33012KT', 'LTBR 131120Z 31005KT 9999 SCT035 BKN100 15/04 Q1007 NOSIG', 'LTBR 131050Z VRB02KT 9999 SCT035 BKN100 16/03 Q1007 NOSIG', 'LTBR 131020Z 33004KT 300V010 9999 SCT035 BKN100 15/04 Q1007 NOSIG', 'LTBR 130950Z VRB02KT 9999 FEW040 BKN100 15/04 Q1008 NOSIG', 'LTBR 130920Z 08004KT 360V170 9999 FEW040 BKN100 16/05 Q1008 NOSIG', 'LTBR 130850Z 02005KT 310V110 9999 FEW040 BKN100 14/05 Q1008 NOSIG', 'LTBR 130820Z VRB01KT 9999 FEW040 BKN100 13/06 Q1008 NOSIG', 'LTBR 130750Z VRB01KT 7000 FEW040 BKN100 11/08 Q1008 NOSIG', 'LTBR 130620Z VRB02KT 4500 2200SE BR FEW040 BKN100 05/05 Q1008 BECMG 9999 NSW', 'LTBR 130550Z 02002KT 4000 1800E BR FEW040 BKN100 05/05 Q1008 BECMG 9999 NSW', 'LTBR 130520Z VRB02KT 4000 BR FEW040 BKN100 05/05 Q1008 BECMG TL0600 9999 NSW', 'LTBR 130450Z VRB03KT 8000 FEW040 BKN100 04/04 Q1008 NOSIG', 'LTBR 130350Z 11003KT 080V230 6000 SCT035 BKN100 06/06 Q1007 NOSIG', 'LTBR 130320Z 03003KT 340V080 6000 SCT035 BKN100 07/07 Q1007 NOSIG', 'LTBR 130250Z 32004KT 270V360 6000 SCT035 BKN100 07/07 Q1006 NOSIG', 'LTBR 130220Z 26006KT 6000 SCT035 BKN100 08/08 Q1006 NOSIG', 'LTBR 130150Z VRB02KT 6000 SCT035 BKN100 08/08 Q1006 NOSIG', 'LTBR 130120Z VRB02KT 6000 SCT035 BKN100 08/08 Q1005 NOSIG', 'LTBR 130050Z VRB02KT 6000 SCT035 BKN100 09/09 Q1005 NOSIG', 'LTBR 122350Z VRB02KT 8000 SCT035 BKN100 09/09 Q1006 NOSIG', 'LTBR 122320Z VRB02KT 8000 SCT035 BKN100 08/08 Q1007 NOSIG', 'LTBR 122250Z 00000KT 8000 SCT035 BKN100 08/08 Q1007 NOSIG', 'LTBR 122220Z VRB02KT 8000 SCT035 BKN100 08/08 Q1007 NOSIG', 'LTBR 122150Z VRB01KT 9999 SCT035 BKN100 08/08 Q1007 NOSIG', 'LTBR 122120Z VRB02KT 9999 SCT035 BKN100 09/09 Q1007 NOSIG', 'LTBR 122050Z 22003KT 170V260 9999 SCT035 BKN100 09/09 Q1007 NOSIG', 'LTBR 122020Z 36003KT 9999 SCT035 BKN100 09/09 Q1008 NOSIG', 'LTBR 121950Z VRB02KT 9999 SCT035 BKN100 09/09 Q1008 RESHRA NOSIG', 'LTBR 121920Z VRB02KT 9999 SCT035 BKN100 10/09 Q1009 NOSIG', 'LTBR 121850Z 14005KT 110V170 9999 -SHRA SCT035 BKN100 10/08 Q1009 NOSIG', 'LTBR 121820Z 32006KT 9999 SCT035 BKN100 11/08 Q1009 NOSIG', 'LTBR 121750Z 25010KT 210V270 9999 SCT035 BKN100 11/08 Q1009 NOSIG', 'LTBR 121720Z 26009KT 9999 SCT035 BKN100 14/05 Q1008 NOSIG', 'LTBR 121650Z 29005KT 250V320 9999 SCT035 BKN100 15/04 Q1009 NOSIG', 'LTBR 121620Z 31004KT 280V350 9999 SCT035 BKN100 15/04 Q1009 NOSIG', 'LTBR 121550Z 24007KT 180V290 9999 SCT035 BKN100 15/04 Q1009 NOSIG', 'LTBR 121520Z 24005KT 220V280 9999 SCT035 BKN100 16/01 Q1008 NOSIG', 'LTBR 121450Z 20005KT 9999 SCT040 BKN100 17/00 Q1008 NOSIG', 'LTBR 121420Z VRB04KT 9999 SCT040 BKN100 18/00 Q1008 NOSIG', 'LTBR 121350Z 23003KT 170V260 9999 SCT040 BKN100 17/00 Q1008 NOSIG', 'LTBR 121320Z 17008KT 110V210 9999 SCT040 BKN100 18/M01 Q1008 NOSIG', 'LTBR 121250Z 17008KT 9999 SCT040 BKN100 18/M01 Q1008 NOSIG', 'LTBR 121220Z 17005KT 150V230 9999 SCT040 BKN100 19/01 Q1008 NOSIG', 'LTBR 121150Z 16010G22KT 120V190 9999 SCT040 BKN100 20/M00 Q1009 NOSIG', 'LTBR 121120Z 16009KT 9999 SCT040 BKN100 19/00 Q1009 NOSIG', 'LTBR 121050Z 18006KT 140V250 9999 SCT040 BKN100 18/02 Q1009 NOSIG', 'LTBR 121020Z 16013KT 9999 SCT040 BKN100 18/02 Q1010 NOSIG', 'LTBR 120950Z 15011KT 9999 SCT040 SCT100 19/03 Q1011 NOSIG', 'LTBR 120920Z 14010KT 9999 SCT040 SCT100 19/03 Q1011 NOSIG']","['2024-02-15 08:50:00', '2024-02-15 08:20:00', '2024-02-15 07:50:00', '2024-02-15 07:20:00', '2024-02-15 06:50:00', '2024-02-15 06:20:00', '2024-02-15 05:50:00', '2024-02-15 05:20:00', '2024-02-15 04:50:00', '2024-02-15 04:20:00', '2024-02-15 03:50:00', '2024-02-15 03:20:00', '2024-02-15 02:50:00', '2024-02-15 02:20:00', '2024-02-15 01:50:00', '2024-02-15 01:20:00', '2024-02-15 00:50:00', '2024-02-15 00:20:00', '2024-02-14 23:50:00', '2024-02-14 23:20:00', '2024-02-14 22:50:00', '2024-02-14 22:20:00', '2024-02-14 21:50:00', '2024-02-14 21:20:00', '2024-02-14 20:50:00', '2024-02-14 20:20:00', '2024-02-14 19:50:00', '2024-02-14 19:20:00', '2024-02-14 18:50:00', '2024-02-14 18:20:00', '2024-02-14 17:50:00', '2024-02-14 17:20:00', '2024-02-14 16:50:00', '2024-02-14 16:20:00', '2024-02-14 15:50:00', '2024-02-14 15:20:00', '2024-02-14 14:50:00', '2024-02-14 14:20:00', '2024-02-14 13:50:00', '2024-02-14 13:20:00', '2024-02-14 12:50:00', '2024-02-14 12:20:00', '2024-02-14 11:50:00', '2024-02-14 11:20:00', '2024-02-14 10:50:00', '2024-02-14 10:20:00', '2024-02-14 09:50:00', '2024-02-14 09:20:00', '2024-02-14 08:50:00', '2024-02-14 08:20:00', '2024-02-14 07:50:00', '2024-02-14 07:20:00', '2024-02-14 06:50:00', '2024-02-14 06:20:00', '2024-02-14 05:50:00', '2024-02-14 05:20:00', '2024-02-14 04:50:00', '2024-02-14 04:20:00', '2024-02-14 03:50:00', '2024-02-14 03:20:00', '2024-02-14 02:50:00', '2024-02-14 01:50:00', '2024-02-14 01:20:00', '2024-02-14 00:50:00', '2024-02-14 00:20:00', '2024-02-13 23:50:00', '2024-02-13 23:20:00', '2024-02-13 22:50:00', '2024-02-13 22:20:00', '2024-02-13 21:50:00', '2024-02-13 21:20:00', '2024-02-13 20:50:00', '2024-02-13 20:20:00', '2024-02-13 19:50:00', '2024-02-13 19:20:00', '2024-02-13 18:50:00', '2024-02-13 18:20:00', '2024-02-13 17:50:00', '2024-02-13 17:20:00', '2024-02-13 16:50:00', '2024-02-13 16:20:00', '2024-02-13 15:50:00', '2024-02-13 15:20:00', '2024-02-13 14:50:00', '2024-02-13 14:20:00', '2024-02-13 13:50:00', '2024-02-13 13:20:00', '2024-02-13 12:20:00', '2024-02-13 11:50:00', '2024-02-13 11:20:00', '2024-02-13 10:50:00', '2024-02-13 10:20:00', '2024-02-13 09:50:00', '2024-02-13 09:20:00', '2024-02-13 08:50:00', '2024-02-13 08:20:00', '2024-02-13 07:50:00', '2024-02-13 06:20:00', '2024-02-13 05:50:00', '2024-02-13 05:20:00', '2024-02-13 04:50:00', '2024-02-13 03:50:00', '2024-02-13 03:20:00', '2024-02-13 02:50:00', '2024-02-13 02:20:00', '2024-02-13 01:50:00', '2024-02-13 01:20:00', '2024-02-13 00:50:00', '2024-02-12 23:50:00', '2024-02-12 23:20:00', '2024-02-12 22:50:00', '2024-02-12 22:20:00', '2024-02-12 21:50:00', '2024-02-12 21:20:00', '2024-02-12 20:50:00', '2024-02-12 20:20:00', '2024-02-12 19:50:00', '2024-02-12 19:20:00', '2024-02-12 18:50:00', '2024-02-12 18:20:00', '2024-02-12 17:50:00', '2024-02-12 17:20:00', '2024-02-12 16:50:00', '2024-02-12 16:20:00', '2024-02-12 15:50:00', '2024-02-12 15:20:00', '2024-02-12 14:50:00', '2024-02-12 14:20:00', '2024-02-12 13:50:00', '2024-02-12 13:20:00', '2024-02-12 12:50:00', '2024-02-12 12:20:00', '2024-02-12 11:50:00', '2024-02-12 11:20:00', '2024-02-12 10:50:00', '2024-02-12 10:20:00', '2024-02-12 09:50:00', '2024-02-12 09:20:00']"
Turkey, Canakkale Airport (CKZ/LTBH) ,"['LTBH 150850Z 01013KT 9999 SCT030 BKN100 08/02 Q1019', 'LTBH 150750Z 01012KT 9999 SCT030 BKN100 08/03 Q1019', 'LTBH 150650Z 01015KT 9999 SCT030 BKN100 08/02 Q1019', 'LTBH 150550Z 01011KT 9999 SCT030 BKN100 08/02 Q1018', 'LTBH 150450Z 01012KT 9999 SCT030 BKN100 08/02 Q1018', 'LTBH 150350Z 02014KT 9999 SCT030 BKN100 08/02 Q1017', 'LTBH 150250Z 01013KT 9999 SCT030 BKN100 09/02 Q1017', 'LTBH 150150Z 02012KT 9999 SCT030 BKN100 08/04 Q1017', 'LTBH 150050Z 01013KT 9999 SCT035 BKN100 09/03 Q1017', 'LTBH 142350Z 01014KT 9999 SCT035 BKN100 09/03 Q1017', 'LTBH 142250Z 01013KT 9999 SCT035 BKN100 09/04 Q1017', 'LTBH 142150Z 01013G24KT 9999 SCT035 BKN100 09/04 Q1017', 'LTBH 142050Z 02010KT 9999 SCT035 BKN100 09/05 Q1017', 'LTBH 141950Z 02012KT 9999 SCT035 BKN100 09/05 Q1017', 'LTBH 141850Z 02011KT 9999 SCT035 BKN100 10/05 Q1017', 'LTBH 141750Z 02014KT 9999 SCT035 BKN100 10/05 Q1016', 'LTBH 141650Z 02012KT 9999 SCT030 BKN090 10/07 Q1016', 'LTBH 141550Z 02016KT 9999 SCT030 BKN090 10/06 Q1015', 'LTBH 141450Z 01011KT 9999 FEW019 SCT030 BKN090 11/06 Q1014', 'LTBH 141350Z 01010KT 9999 FEW019 SCT030 BKN090 11/07 Q1014', 'LTBH 141250Z 02011KT 9999 FEW019 SCT030 BKN090 11/07 Q1013', 'LTBH 141150Z 02010KT 9999 FEW019 SCT030 BKN090 10/07 Q1013', 'LTBH 141050Z 02012KT 9999 FEW015 SCT030 BKN090 10/08 Q1013', 'LTBH 140950Z 02012KT 9999 FEW015 SCT030 BKN090 09/08 Q1013', 'LTBH 140850Z 01013KT 4500 1500N R04/P1500D R22/1200D BR FEW009 SCT030 BKN090 10/08 Q1013', 'LTBH 140750Z 02010KT 9999 FEW015 SCT030 BKN090 10/07 Q1013', 'LTBH 140650Z 02009KT 9999 SCT030 BKN090 09/07 Q1013', 'LTBH 140550Z 01007KT 9999 SCT030 BKN090 10/07 Q1012', 'LTBH 140450Z 01005KT 9999 FEW015 SCT030 BKN100 09/07 Q1012', 'LTBH 140350Z 02004KT 9999 SCT030 BKN100 09/07 Q1011', 'LTBH 140250Z 03003KT 350V060 9999 SCT030 BKN100 07/06 Q1011', 'LTBH 140150Z 03005KT 9999 SCT030 BKN100 07/06 Q1011 RESHRA', 'LTBH 140050Z 04006KT 9999 -SHRA SCT030 BKN100 07/06 Q1011', 'LTBH 132350Z 02006KT 9999 -SHRA SCT030 BKN100 07/06 Q1011', 'LTBH 132250Z 03006KT CAVOK 07/06 Q1011', 'LTBH 132150Z 01004KT 9999 FEW015 SCT100 BKN200 07/06 Q1011', 'LTBH 132050Z 36004KT CAVOK 07/07 Q1011', 'LTBH 131950Z 02005KT CAVOK 07/06 Q1011', 'LTBH 131850Z 02005KT CAVOK 08/07 Q1010', 'LTBH 131750Z 08003KT CAVOK 08/07 Q1010', 'LTBH 131650Z 00000KT CAVOK 09/08 Q1010', 'LTBH 131550Z 00000KT CAVOK 11/09 Q1009', 'LTBH 131450Z 34001KT 9999 FEW035 SCT080 BKN200 12/08 Q1009', 'LTBH 131350Z VRB02KT 9999 FEW035 SCT080 BKN200 13/08 Q1009', 'LTBH 131250Z VRB03KT 9999 SCT035 BKN080 BKN200 13/09 Q1009', 'LTBH 131150Z 32003KT 270V010 9999 SCT035 BKN080 13/10 Q1009 RESHRA', 'LTBH 131050Z 36003KT 310V030 9999 -SHRA SCT030 BKN080 11/09 Q1009', 'LTBH 130950Z VRB02KT 9999 -SHRA FEW025TCU BKN030 BKN100 10/08 Q1009', 'LTBH 130850Z 17009KT 7000 -SHRA FEW025TCU BKN030 BKN100 10/08 Q1010 RETSRA', 'LTBH 130750Z 18005KT 7000 -SHRA SCT030 BKN100 11/08 Q1009', 'LTBH 130650Z 01004KT 9999 -SHRA SCT030 BKN100 11/07 Q1008', 'LTBH 130550Z 36004KT 320V040 9999 SCT035 BKN100 10/07 Q1008', 'LTBH 130450Z 00000KT 9999 SCT035 BKN100 09/06 Q1007', 'LTBH 130350Z 33001KT 9999 SCT035 BKN100 11/07 Q1007', 'LTBH 130250Z 14004KT 030V190 9999 SCT035 BKN100 11/06 Q1006', 'LTBH 130150Z 20005KT 170V240 9999 SCT035 BKN100 11/06 Q1006', 'LTBH 130050Z VRB06KT 9999 SCT035 BKN100 11/06 Q1006', 'LTBH 122350Z 18005KT 120V200 9999 SCT035 BKN100 11/07 Q1006', 'LTBH 122250Z 13005KT 9999 SCT035 BKN100 12/07 Q1007', 'LTBH 122150Z VRB02KT 9999 SCT035 BKN100 11/07 Q1006', 'LTBH 122050Z VRB01KT 9999 SCT035 BKN100 11/08 Q1007', 'LTBH 121950Z 02005KT 350V050 9999 SCT035 BKN100 12/06 Q1007', 'LTBH 121850Z 24006KT 160V320 9999 SCT035 BKN100 13/06 Q1006', 'LTBH 121750Z 14021KT 9999 SCT035 BKN100 13/06 Q1006', 'LTBH 121650Z 12011KT 090V150 9999 SCT035 BKN100 13/06 Q1006', 'LTBH 121550Z 12018KT 9999 SCT035 BKN100 13/06 Q1006', 'LTBH 121450Z 13017G29KT 9999 SCT035 BKN100 13/07 Q1006 RESHRA', 'LTBH 121350Z 13012KT 100V160 9999 SCT035 BKN100 12/08 Q1006 RESHRA', 'LTBH 121250Z 15015G27KT 100V180 9999 -SHRA BKN030 BKN100 12/07 Q1006', 'LTBH 121150Z 17018KT 4000 -SHRA FEW020CB BKN025 BKN080 11/09 Q1007 RETSRA', 'LTBH 121050Z 18018KT 140V210 3000 TSRA BR FEW015 SCT020CB BKN025 OVC080 12/09 Q1008 RETSRA', 'LTBH 120950Z 20016G26KT 2000 TSRA BR SCT020CB BKN025 OVC080 12/11 Q1009']","['2024-02-15 08:50:00', '2024-02-15 07:50:00', '2024-02-15 06:50:00', '2024-02-15 05:50:00', '2024-02-15 04:50:00', '2024-02-15 03:50:00', '2024-02-15 02:50:00', '2024-02-15 01:50:00', '2024-02-15 00:50:00', '2024-02-14 23:50:00', '2024-02-14 22:50:00', '2024-02-14 21:50:00', '2024-02-14 20:50:00', '2024-02-14 19:50:00', '2024-02-14 18:50:00', '2024-02-14 17:50:00', '2024-02-14 16:50:00', '2024-02-14 15:50:00', '2024-02-14 14:50:00', '2024-02-14 13:50:00', '2024-02-14 12:50:00', '2024-02-14 11:50:00', '2024-02-14 10:50:00', '2024-02-14 09:50:00', '2024-02-14 08:50:00', '2024-02-14 07:50:00', '2024-02-14 06:50:00', '2024-02-14 05:50:00', '2024-02-14 04:50:00', '2024-02-14 03:50:00', '2024-02-14 02:50:00', '2024-02-14 01:50:00', '2024-02-14 00:50:00', '2024-02-13 23:50:00', '2024-02-13 22:50:00', '2024-02-13 21:50:00', '2024-02-13 20:50:00', '2024-02-13 19:50:00', '2024-02-13 18:50:00', '2024-02-13 17:50:00', '2024-02-13 16:50:00', '2024-02-13 15:50:00', '2024-02-13 14:50:00', '2024-02-13 13:50:00', '2024-02-13 12:50:00', '2024-02-13 11:50:00', '2024-02-13 10:50:00', '2024-02-13 09:50:00', '2024-02-13 08:50:00', '2024-02-13 07:50:00', '2024-02-13 06:50:00', '2024-02-13 05:50:00', '2024-02-13 04:50:00', '2024-02-13 03:50:00', '2024-02-13 02:50:00', '2024-02-13 01:50:00', '2024-02-13 00:50:00', '2024-02-12 23:50:00', '2024-02-12 22:50:00', '2024-02-12 21:50:00', '2024-02-12 20:50:00', '2024-02-12 19:50:00', '2024-02-12 18:50:00', '2024-02-12 17:50:00', '2024-02-12 16:50:00', '2024-02-12 15:50:00', '2024-02-12 14:50:00', '2024-02-12 13:50:00', '2024-02-12 12:50:00', '2024-02-12 11:50:00', '2024-02-12 10:50:00', '2024-02-12 09:50:00']"
Turkey, Denizli Cardak Airport (DNZ/LTAY) ,"['LTAY 150850Z VRB01KT 4800 BR FEW010 BKN030 OVC080 04/04 Q1012 NOSIG', 'LTAY 150750Z VRB01KT 4800 BR FEW005 BKN030 OVC080 03/03 Q1012 TEMPO FM0810 2500 BR', 'LTAY 150650Z 27004KT 2500 BR FEW005 BKN030 OVC080 03/03 Q1012 NOSIG', 'LTAY 150550Z 25004KT 9999 FEW010 BKN030 OVC080 03/03 Q1011 NOSIG', 'LTAY 150450Z 25004KT 9999 FEW005 BKN025 OVC080 02/02 Q1010 NOSIG', 'LTAY 150350Z 24003KT 9999 FEW010 BKN025 OVC090 02/02 Q1010 RERA NOSIG', 'LTAY 150250Z 25004KT 9999 -RA FEW010 BKN020 OVC080 02/02 Q1010 NOSIG', 'LTAY 150150Z 25006KT 9999 -RA FEW005 BKN020 OVC080 02/02 Q1009 NOSIG', 'LTAY 150050Z 26008KT 9999 -RA FEW005 BKN020 OVC080 02/02 Q1009 NOSIG', 'LTAY 142350Z 27006KT 9999 -RA FEW005 BKN025 OVC080 03/03 Q1009 NOSIG', 'LTAY 142250Z 25006KT 9999 -RA FEW005 BKN020 OVC080 04/04 Q1009 NOSIG', 'LTAY 142150Z 28007KT 9999 -RA FEW005 BKN020 OVC080 04/04 Q1008 NOSIG', 'LTAY 142050Z 26006KT 9999 -RA FEW005 BKN020 OVC080 04/04 Q1008 RERA TEMPO TL2200 2500 BR', 'LTAY 141950Z 22008KT 9999 RA FEW005 BKN020 OVC080 04/04 Q1008 TEMPO 2500 BR BECMG TL2100 NSW', 'LTAY 141850Z 23008KT 9999 -RA FEW005 BKN020 OVC080 04/04 Q1008 TEMPO 2500 RA BR', 'LTAY 141750Z 28005KT 250V310 9999 -RA FEW010 BKN020 OVC080 04/04 Q1008 TEMPO 2500 RA BR', 'LTAY 141650Z 26007KT 9999 -RA FEW010 BKN020 OVC080 04/04 Q1008 NOSIG', 'LTAY 141550Z 27007KT 8000 -RA FEW010 BKN020 OVC080 05/05 Q1007 NOSIG', 'LTAY 141450Z 29005KT 230V340 9999 FEW010 BKN020 OVC080 06/06 Q1006 NOSIG', 'LTAY 141350Z 27006KT 7000 -RA FEW010 BKN020 OVC080 06/06 Q1006 NOSIG', 'LTAY 141250Z 26006KT 4500 -RA FEW010 BKN020 OVC080 06/06 Q1006 RERA BECMG TL1400 6000', 'LTAY 141150Z 27007KT 3800 RA BR FEW010 BKN020 OVC080 06/06 Q1006 BECMG TL1330 6000 NSW', 'LTAY 141050Z 27006KT 240V300 6000 -RA FEW010 BKN020 OVC080 06/06 Q1006 NOSIG', 'LTAY 140950Z 27007KT 6000 -RA FEW010 SCT030 BKN090 07/07 Q1006 NOSIG', 'LTAY 140850Z 00000KT 9999 -RA FEW010 SCT030 BKN090 06/06 Q1007 NOSIG', 'LTAY 140750Z 26002KT 9999 -RA FEW010 SCT030 BKN090 06/06 Q1007 NOSIG', 'LTAY 140650Z 00000KT 9999 FEW010 SCT035 BKN090 05/05 Q1008 NOSIG', 'LTAY 140550Z 00000KT 9999 FEW010 SCT035 BKN090 05/05 Q1007 NOSIG', 'LTAY 140450Z 13002KT 9999 FEW010 SCT030 BKN100 05/05 Q1007 NOSIG', 'LTAY 140350Z 00000KT 9999 FEW010 SCT030 BKN100 05/05 Q1007 NOSIG', 'LTAY 140250Z 09003KT 9999 FEW010 SCT030 BKN100 05/05 Q1007 NOSIG', 'LTAY 140150Z 11002KT 9999 SCT030 BKN100 05/05 Q1007 NOSIG', 'LTAY 140050Z 07002KT 9999 BKN030 BKN100 05/05 Q1008 TEMPO FM0200 2500 BR', 'LTAY 132350Z 02003KT 360V100 9999 BKN030 BKN100 05/05 Q1008 NOSIG', 'LTAY 132250Z 05004KT 010V100 9999 SCT030 BKN100 05/05 Q1008 NOSIG', 'LTAY 132150Z VRB04KT 9999 SCT030 BKN100 05/05 Q1009 NOSIG', 'LTAY 132050Z 01005KT 9999 SCT030 BKN100 06/04 Q1008 NOSIG', 'LTAY 131950Z VRB02KT 9999 SCT030 BKN100 05/05 Q1009 NOSIG', 'LTAY 131850Z VRB02KT 9999 SCT035 SCT100 06/03 Q1009 NOSIG', 'LTAY 131750Z 14011KT 9999 SCT035 SCT100 08/04 Q1009 NOSIG', 'LTAY 131650Z 13008KT 9999 SCT035 SCT100 08/04 Q1008 NOSIG', 'LTAY 131550Z 11006KT 9999 SCT035 BKN100 08/05 Q1008 NOSIG', 'LTAY 131450Z 09006KT 9999 SCT035 BKN100 10/05 Q1008 NOSIG', 'LTAY 131350Z 08007KT 9999 SCT035 BKN100 10/05 Q1008 NOSIG', 'LTAY 131250Z 08006KT 040V120 9999 SCT035 BKN100 10/06 Q1008 NOSIG', 'LTAY 131150Z 07005KT 9999 SCT035 BKN100 09/05 Q1008 NOSIG', 'LTAY 131050Z VRB01KT 9999 FEW010 SCT030 BKN090 09/07 Q1009 NOSIG', 'LTAY 130950Z VRB01KT 9999 FEW010 SCT030 BKN090 08/08 Q1010 RESHRA NOSIG', 'LTAY 130850Z VRB01KT 9999 -SHRA FEW010 BKN030 BKN090 07/06 Q1010 NOSIG', 'LTAY 130750Z 09009KT 9999 FEW010 BKN035 BKN090 07/07 Q1010 NOSIG', 'LTAY 130650Z 08010KT 9999 FEW010 SCT035 BKN090 06/06 Q1010 RESHRA NOSIG', 'LTAY 130450Z 08008KT 9999 -SHRA BKN030 BKN090 05/05 Q1010 NOSIG', 'LTAY 130350Z 11006KT 9999 -SHRA BKN030 BKN090 05/05 Q1010 NOSIG', 'LTAY 130250Z 12005KT 9999 BKN035 BKN090 05/05 Q1010 BECMG TL0400 4000 BR', 'LTAY 130150Z 00000KT 9999 BKN035 BKN090 05/05 Q1011 RESHRA BECMG TL0350 4000 BR', 'LTAY 130050Z 29007KT 9999 -SHRA BKN035 05/05 Q1011 NOSIG', 'LTAY 122350Z 28008KT 260V320 9999 -SHRA BKN035 05/05 Q1011 NOSIG', 'LTAY 122250Z 29014KT 9000 -SHRA BKN035 06/06 Q1011 NOSIG', 'LTAY 122150Z 14009KT 100V170 9999 BKN035 10/03 Q1009 NOSIG', 'LTAY 122050Z 15021KT 9999 BKN035 10/03 Q1009 NOSIG', 'LTAY 121950Z 16019KT 9999 BKN035 11/03 Q1010 RESHRA NOSIG', 'LTAY 121850Z 15015KT 9999 -SHRA BKN035 11/04 Q1010 BECMG VRB02KT', 'LTAY 121750Z 11005KT 060V160 9999 SCT035 BKN100 11/04 Q1011 NOSIG', 'LTAY 121650Z 12008KT 100V170 9999 SCT035 BKN100 11/04 Q1011 NOSIG', 'LTAY 121550Z 13012KT 9999 SCT035 BKN100 11/04 Q1011 NOSIG', 'LTAY 121450Z 15017KT 9999 SCT035 BKN100 12/04 Q1011 NOSIG', 'LTAY 121350Z 13018KT 9999 SCT035 BKN100 13/04 Q1012 NOSIG', 'LTAY 121250Z 14016KT 9999 SCT035 BKN100 13/04 Q1012 NOSIG', 'LTAY 121150Z 13016KT 9999 SCT035 BKN100 14/04 Q1013 NOSIG', 'LTAY 121050Z 14014KT 9999 SCT035 BKN100 14/04 Q1014 NOSIG', 'LTAY 120950Z 13010KT 100V160 9999 SCT035 BKN100 13/04 Q1016 NOSIG']","['2024-02-15 08:50:00', '2024-02-15 07:50:00', '2024-02-15 06:50:00', '2024-02-15 05:50:00', '2024-02-15 04:50:00', '2024-02-15 03:50:00', '2024-02-15 02:50:00', '2024-02-15 01:50:00', '2024-02-15 00:50:00', '2024-02-14 23:50:00', '2024-02-14 22:50:00', '2024-02-14 21:50:00', '2024-02-14 20:50:00', '2024-02-14 19:50:00', '2024-02-14 18:50:00', '2024-02-14 17:50:00', '2024-02-14 16:50:00', '2024-02-14 15:50:00', '2024-02-14 14:50:00', '2024-02-14 13:50:00', '2024-02-14 12:50:00', '2024-02-14 11:50:00', '2024-02-14 10:50:00', '2024-02-14 09:50:00', '2024-02-14 08:50:00', '2024-02-14 07:50:00', '2024-02-14 06:50:00', '2024-02-14 05:50:00', '2024-02-14 04:50:00', '2024-02-14 03:50:00', '2024-02-14 02:50:00', '2024-02-14 01:50:00', '2024-02-14 00:50:00', '2024-02-13 23:50:00', '2024-02-13 22:50:00', '2024-02-13 21:50:00', '2024-02-13 20:50:00', '2024-02-13 19:50:00', '2024-02-13 18:50:00', '2024-02-13 17:50:00', '2024-02-13 16:50:00', '2024-02-13 15:50:00', '2024-02-13 14:50:00', '2024-02-13 13:50:00', '2024-02-13 12:50:00', '2024-02-13 11:50:00', '2024-02-13 10:50:00', '2024-02-13 09:50:00', '2024-02-13 08:50:00', '2024-02-13 07:50:00', '2024-02-13 06:50:00', '2024-02-13 04:50:00', '2024-02-13 03:50:00', '2024-02-13 02:50:00', '2024-02-13 01:50:00', '2024-02-13 00:50:00', '2024-02-12 23:50:00', '2024-02-12 22:50:00', '2024-02-12 21:50:00', '2024-02-12 20:50:00', '2024-02-12 19:50:00', '2024-02-12 18:50:00', '2024-02-12 17:50:00', '2024-02-12 16:50:00', '2024-02-12 15:50:00', '2024-02-12 14:50:00', '2024-02-12 13:50:00', '2024-02-12 12:50:00', '2024-02-12 11:50:00', '2024-02-12 10:50:00', '2024-02-12 09:50:00']"
Turkey, Dalaman Airport (DLM/LTBS) ,"['LTBS 150850Z 01004KT 300V090 9999 FEW018CB SCT030 BKN100 11/08 Q1010 NOSIG', 'LTBS 150820Z 06004KT 020V110 9999 FEW018CB SCT030 BKN100 10/07 Q1010 RESHRA NOSIG', 'LTBS 150756Z 05004KT 010V080 9999 -SHRA FEW018CB SCT025 BKN100 10/07 Q1009 NOSIG', 'LTBS 150720Z 07005KT 9999 SCT030 BKN100 11/06 Q1009 NOSIG', 'LTBS 150650Z 05005KT 010V080 9999 SCT030 BKN100 10/06 Q1009 NOSIG', 'LTBS 150620Z 07006KT 020V100 9999 SCT030 SCT120 09/06 Q1009 NOSIG', 'LTBS 150550Z 06007KT 010V090 9999 SCT030 SCT120 09/05 Q1009 NOSIG', 'LTBS 150520Z 04005KT 350V070 9999 SCT030 SCT120 09/05 Q1008 NOSIG', 'LTBS 150450Z 05007KT 350V090 9999 SCT030 SCT120 10/05 Q1008 NOSIG', 'LTBS 150420Z 03006KT 350V070 9999 SCT030 SCT120 09/05 Q1008 NOSIG', 'LTBS 150350Z 06007KT 9999 SCT030 BKN120 08/05 Q1008 NOSIG', 'LTBS 150320Z 05005KT 9999 SCT030 BKN120 09/05 Q1008 NOSIG', 'LTBS 150250Z 03006KT 360V070 9999 SCT030 BKN120 09/05 Q1007 NOSIG', 'LTBS 150220Z 05006KT 9999 SCT030 BKN120 09/05 Q1007 NOSIG', 'LTBS 150150Z 06007KT 020V090 9999 SCT030 BKN120 10/05 Q1007 NOSIG', 'LTBS 150120Z 06007KT 9999 SCT030 BKN120 10/05 Q1007 NOSIG', 'LTBS 150050Z 04005KT 9999 SCT030 BKN120 10/05 Q1007 NOSIG', 'LTBS 150020Z 06005KT 9999 SCT030 BKN120 10/05 Q1007 NOSIG', 'LTBS 142350Z 05006KT 020V080 9999 SCT030 BKN100 10/06 Q1007 NOSIG', 'LTBS 142320Z 03006KT 360V070 9999 VCTS FEW020CB SCT030 BKN120 11/06 Q1007 NOSIG', 'LTBS 142250Z 05007KT 9999 VCTS FEW020CB SCT030 BKN120 10/06 Q1007 NOSIG', 'LTBS 142220Z 05006KT 9999 SCT030 BKN120 11/07 Q1007 NOSIG', 'LTBS 142150Z 36005KT 330V090 9999 SCT030 BKN120 11/07 Q1007 NOSIG', 'LTBS 142120Z 05006KT 350V100 9999 SCT030 BKN120 11/06 Q1007 NOSIG', 'LTBS 142050Z 02007KT 340V070 9999 SCT030 BKN120 11/06 Q1007 NOSIG', 'LTBS 142020Z 34009KT 9999 SCT030 BKN120 12/06 Q1007 NOSIG', 'LTBS 141950Z 34011KT 9999 SCT030 BKN120 13/06 Q1007 NOSIG', 'LTBS 141920Z 34010KT 9999 SCT030 SCT120 13/06 Q1007 NOSIG', 'LTBS 141850Z 35010KT 9999 SCT030 13/07 Q1006 NOSIG', 'LTBS 141820Z 34006KT 9999 SCT030 13/07 Q1006 NOSIG', 'LTBS 141750Z 01008KT 9999 SCT030 12/06 Q1006 NOSIG', 'LTBS 141720Z 35007KT 9999 SCT030 13/07 Q1006 NOSIG', 'LTBS 141650Z 04004KT 020V080 9999 SCT030 14/08 Q1005 NOSIG', 'LTBS 141620Z 36008KT 9999 SCT030 15/07 Q1005 NOSIG', 'LTBS 141550Z 36009KT 9999 SCT030 16/06 Q1005 NOSIG', 'LTBS 141520Z 33008KT 9999 SCT030 17/07 Q1004 NOSIG', 'LTBS 141450Z 33008KT 9999 SCT030 18/07 Q1004 NOSIG', 'LTBS 141420Z 29008KT 260V340 9999 FEW023TCU SCT025 19/07 Q1004 NOSIG', 'LTBS 141350Z 25012KT 9999 FEW025TCU 19/09 Q1004 BECMG TL1420 35009KT', 'LTBS 141320Z 27008KT 9999 FEW025TCU 19/07 Q1004 NOSIG', 'LTBS 141250Z 29009KT 9999 FEW030 BKN180 19/06 Q1003 NOSIG', 'LTBS 141220Z 27008KT 230V310 9999 FEW030 BKN180 19/06 Q1003 NOSIG', 'LTBS 141150Z 28007KT 250V320 9999 FEW030 BKN180 19/07 Q1004 NOSIG', 'LTBS 141120Z 29008KT 9999 FEW030 BKN180 19/06 Q1004 NOSIG', 'LTBS 141050Z 29008KT 260V320 9999 FEW030 BKN180 19/07 Q1004 NOSIG', 'LTBS 141020Z 32009KT 280V340 9999 FEW030 BKN180 19/06 Q1004 NOSIG', 'LTBS 140950Z 32010KT 290V350 CAVOK 18/07 Q1004 NOSIG', 'LTBS 140920Z 33009KT 300V360 CAVOK 17/07 Q1005 NOSIG', 'LTBS 140850Z 35010KT CAVOK 17/07 Q1005 NOSIG', 'LTBS 140820Z 34011KT CAVOK 16/07 Q1005 NOSIG', 'LTBS 140750Z 34008KT CAVOK 16/08 Q1005 NOSIG', 'LTBS 140720Z 34009KT CAVOK 14/08 Q1005 NOSIG', 'LTBS 140650Z 35010KT CAVOK 13/08 Q1005 NOSIG', 'LTBS 140620Z 03006KT 340V080 CAVOK 11/07 Q1005 NOSIG', 'LTBS 140550Z 01008KT 340V040 CAVOK 10/07 Q1005 NOSIG', 'LTBS 140520Z 35011KT 9999 SCT100 11/06 Q1005 NOSIG', 'LTBS 140450Z 01009KT 9999 SCT100 11/06 Q1005 NOSIG', 'LTBS 140420Z 35010KT 9999 SCT100 11/06 Q1005 NOSIG', 'LTBS 140350Z 01006KT CAVOK 09/07 Q1005 NOSIG', 'LTBS 140320Z 01009KT CAVOK 09/07 Q1005 NOSIG', 'LTBS 140250Z 35010KT CAVOK 10/07 Q1005 NOSIG', 'LTBS 140220Z 01009KT CAVOK 09/07 Q1005 NOSIG', 'LTBS 140150Z 07005KT CAVOK 10/07 Q1006 NOSIG', 'LTBS 140120Z VRB02KT CAVOK 09/07 Q1006 NOSIG', 'LTBS 140050Z 02004KT CAVOK 09/07 Q1006 NOSIG', 'LTBS 140020Z 05004KT CAVOK 08/07 Q1006 NOSIG', 'LTBS 132350Z 05005KT CAVOK 08/08 Q1006 NOSIG', 'LTBS 132320Z 06003KT CAVOK 09/08 Q1007 NOSIG', 'LTBS 132250Z 07004KT CAVOK 10/08 Q1007 NOSIG', 'LTBS 132220Z 04003KT 020V080 CAVOK 09/08 Q1007 NOSIG', 'LTBS 132150Z 06004KT CAVOK 10/08 Q1007 NOSIG', 'LTBS 132120Z 04004KT CAVOK 10/08 Q1007 NOSIG', 'LTBS 132050Z 05004KT CAVOK 10/09 Q1007 NOSIG', 'LTBS 132020Z 04002KT CAVOK 10/09 Q1007 NOSIG', 'LTBS 131950Z 06004KT CAVOK 11/09 Q1007 NOSIG', 'LTBS 131920Z 06005KT 030V090 9999 FEW030 10/10 Q1007 NOSIG', 'LTBS 131850Z 04004KT 010V070 9999 FEW030 10/09 Q1007 NOSIG', 'LTBS 131820Z 01005KT 9999 FEW030 11/10 Q1008 NOSIG', 'LTBS 131750Z 04006KT 350V060 9999 FEW030 12/10 Q1008 NOSIG', 'LTBS 131720Z 07004KT 9999 FEW030 12/10 Q1008 NOSIG', 'LTBS 131650Z 08003KT 9999 FEW030 13/11 Q1008 NOSIG', 'LTBS 131620Z VRB02KT 9999 FEW030 15/10 Q1007 NOSIG', 'LTBS 131550Z 25006KT 9999 FEW030 15/10 Q1007 NOSIG', 'LTBS 131520Z 24007KT 9999 FEW030 16/10 Q1007 NOSIG', 'LTBS 131450Z 24009KT 9999 FEW030 17/10 Q1007 NOSIG', 'LTBS 131420Z 24009KT 9999 FEW030 17/09 Q1006 NOSIG', 'LTBS 131350Z 23007KT 9999 FEW030 SCT180 17/09 Q1006 NOSIG', 'LTBS 131320Z 21006KT 170V230 9999 FEW030 SCT180 18/10 Q1007 NOSIG', 'LTBS 131250Z 23007KT 9999 FEW030 SCT180 18/10 Q1007 NOSIG', 'LTBS 131220Z 24007KT 9999 FEW030 SCT180 18/10 Q1007 NOSIG', 'LTBS 131150Z 23007KT 200V260 9999 FEW030 SCT180 17/11 Q1007 NOSIG', 'LTBS 131120Z 17003KT 110V270 9999 FEW030 SCT180 18/08 Q1007 NOSIG', 'LTBS 131050Z 04004KT 320V090 9999 FEW030 SCT180 17/10 Q1008 NOSIG', 'LTBS 131020Z VRB04KT 9999 FEW030 BKN180 16/10 Q1008 NOSIG', 'LTBS 130950Z 01007KT 9999 FEW030 SCT100 BKN180 15/10 Q1009 NOSIG', 'LTBS 130920Z 36008KT 9999 FEW030 SCT100 BKN180 14/10 Q1009 NOSIG', 'LTBS 130850Z 02005KT 9999 FEW025 SCT100 BKN180 13/10 Q1009 NOSIG', 'LTBS 130820Z 03006KT 9999 FEW025 SCT100 BKN180 12/10 Q1009 NOSIG', 'LTBS 130750Z 02006KT 9999 FEW025 SCT100 BKN180 12/10 Q1009 NOSIG', 'LTBS 130720Z 02006KT 9999 FEW020CB SCT025 BKN180 11/09 Q1009 NOSIG', 'LTBS 130650Z 05006KT 9999 FEW020CB SCT025 BKN180 10/09 Q1009 NOSIG', 'LTBS 130620Z 05005KT 9999 SCT025 SCT100 BKN180 09/09 Q1009 NOSIG', 'LTBS 130550Z 01010KT 9999 SCT025 BKN080 10/09 Q1009 NOSIG', 'LTBS 130520Z 36009KT 9999 SCT025 BKN080 10/09 Q1008 NOSIG', 'LTBS 130450Z 02009KT 9999 FEW015CB SCT025 BKN080 10/09 Q1008 NOSIG', 'LTBS 130420Z 04006KT 9999 FEW015CB SCT025 BKN080 09/08 Q1008 RETS NOSIG', 'LTBS 130350Z 36008KT 9999 TS FEW015CB SCT025 BKN080 10/09 Q1008 BECMG TL0420 NSW', 'LTBS 130250Z 36007KT 340V050 9999 TS FEW015CB SCT025 BKN080 10/09 Q1009 BECMG TL0320 NSW', 'LTBS 130220Z 36006KT 9999 TS FEW015CB SCT025 BKN080 09/09 Q1009 BECMG TL0250 NSW', 'LTBS 130150Z 35007KT 9999 TS FEW015CB SCT025 BKN080 10/09 Q1009 RETSRA BECMG TL0220 15015G25KT NSW', 'LTBS 130120Z 36009KT 9999 -TSRA FEW015CB SCT025 BKN080 09/09 Q1009 BECMG TL0150 15015G25KT NSW', 'LTBS 130020Z 06007KT 020V080 4000 TSRA SCT015CB SCT025 BKN080 09/08 Q1010 BECMG TL0050 15015G25KT 9999 NSW', 'LTBS 122350Z 33012KT 8000 -TSRA SCT015CB SCT025 BKN080 09/08 Q1010 BECMG TL0020 15015G25KT NSW', 'LTBS 122320Z 33012KT 7000 -TSRA SCT015CB SCT025 BKN080 09/07 Q1011 BECMG TL2350 15015G25KT NSW', 'LTBS 122250Z 33011KT 7000 -TSRA SCT015CB SCT025 BKN080 07/07 Q1011 RETSGRRA BECMG TL2320 15015G25KT NSW', 'LTBS 122220Z 02011KT 350V050 2500 +TSGRRA SCT015CB SCT025 BKN080 06/06 Q1012 BECMG TL2250 15015G25KT 9999 NSW', 'LTBS 122150Z 33017G30KT 290V020 6000 -TSRA FEW018CB SCT025 BKN080 15/09 Q1010 BECMG TL2320 15015G25KT TEMPO 4000 TSRA', 'LTBS 122120Z 14020KT 100V190 9999 VCTS FEW018CB SCT025 BKN120 18/11 Q1009 RESHRA TEMPO 4000 TSRA', 'LTBS 122050Z 14016KT 100V170 8000 -SHRA FEW018CB SCT025 BKN120 19/10 Q1008 TEMPO 4000 TSRA', 'LTBS 122020Z 13018G31KT 090V160 8000 -SHRA FEW018CB SCT025 BKN120 18/10 Q1008 TEMPO 4000 TSRA', 'LTBS 121950Z 13023G35KT 100V170 8000 -SHRA FEW018CB SCT025 BKN120 18/11 Q1009 TEMPO 4000 TSRA', 'LTBS 121920Z 14017G28KT 9999 FEW018CB SCT025 BKN120 19/10 Q1009 TEMPO 4000 TSRA', 'LTBS 121850Z 15015G25KT 110V180 9999 FEW018CB SCT025 BKN120 19/07 Q1009 TEMPO 4000 TSRA', 'LTBS 121820Z 15016G28KT 110V170 9999 SCT025 BKN120 20/06 Q1009 TEMPO FM1900 4000 TSRA', 'LTBS 121750Z 14012KT 9999 SCT025 BKN120 19/06 Q1009 TEMPO FM1900 4000 TSRA', 'LTBS 121720Z 15014KT 9999 SCT025 BKN120 19/09 Q1009 NOSIG', 'LTBS 121650Z 14016KT 110V170 9999 SCT025 BKN120 19/10 Q1009 NOSIG', 'LTBS 121620Z 14014KT 110V170 9999 SCT025 BKN120 19/10 Q1009 NOSIG', 'LTBS 121550Z 15012KT 110V180 9999 SCT025 BKN120 19/09 Q1010 NOSIG', 'LTBS 121520Z 16009KT 9999 SCT025 BKN120 19/07 Q1010 NOSIG', 'LTBS 121450Z 14012KT 9999 SCT025 BKN120 19/08 Q1010 NOSIG', 'LTBS 121420Z 16017G27KT 9999 SCT025 BKN120 19/08 Q1010 NOSIG', 'LTBS 121350Z 15011KT 110V190 9999 SCT025 BKN120 19/08 Q1011 NOSIG', 'LTBS 121320Z 15016KT 9999 SCT025 BKN120 19/08 Q1011 NOSIG', 'LTBS 121250Z 15015KT 9999 SCT025 BKN120 19/09 Q1011 NOSIG', 'LTBS 121220Z 15018KT 9999 SCT025 BKN120 19/10 Q1011 NOSIG', 'LTBS 121150Z 15019G29KT 9999 SCT025 BKN090 18/11 Q1012 NOSIG', 'LTBS 121120Z 15014G26KT 110V190 9999 SCT025 BKN090 18/11 Q1013 NOSIG', 'LTBS 121050Z 15014KT 120V180 9999 SCT025 BKN100 19/11 Q1014 NOSIG', 'LTBS 121020Z 15014KT 120V180 9999 SCT025 BKN100 19/10 Q1014 NOSIG', 'LTBS 120950Z 15018G29KT 9999 SCT025 BKN100 18/09 Q1014 NOSIG', 'LTBS 120920Z VRB03KT 9999 SCT025 BKN100 15/11 Q1015 NOSIG']","['2024-02-15 08:50:00', '2024-02-15 08:20:00', '2024-02-15 07:56:00', '2024-02-15 07:20:00', '2024-02-15 06:50:00', '2024-02-15 06:20:00', '2024-02-15 05:50:00', '2024-02-15 05:20:00', '2024-02-15 04:50:00', '2024-02-15 04:20:00', '2024-02-15 03:50:00', '2024-02-15 03:20:00', '2024-02-15 02:50:00', '2024-02-15 02:20:00', '2024-02-15 01:50:00', '2024-02-15 01:20:00', '2024-02-15 00:50:00', '2024-02-15 00:20:00', '2024-02-14 23:50:00', '2024-02-14 23:20:00', '2024-02-14 22:50:00', '2024-02-14 22:20:00', '2024-02-14 21:50:00', '2024-02-14 21:20:00', '2024-02-14 20:50:00', '2024-02-14 20:20:00', '2024-02-14 19:50:00', '2024-02-14 19:20:00', '2024-02-14 18:50:00', '2024-02-14 18:20:00', '2024-02-14 17:50:00', '2024-02-14 17:20:00', '2024-02-14 16:50:00', '2024-02-14 16:20:00', '2024-02-14 15:50:00', '2024-02-14 15:20:00', '2024-02-14 14:50:00', '2024-02-14 14:20:00', '2024-02-14 13:50:00', '2024-02-14 13:20:00', '2024-02-14 12:50:00', '2024-02-14 12:20:00', '2024-02-14 11:50:00', '2024-02-14 11:20:00', '2024-02-14 10:50:00', '2024-02-14 10:20:00', '2024-02-14 09:50:00', '2024-02-14 09:20:00', '2024-02-14 08:50:00', '2024-02-14 08:20:00', '2024-02-14 07:50:00', '2024-02-14 07:20:00', '2024-02-14 06:50:00', '2024-02-14 06:20:00', '2024-02-14 05:50:00', '2024-02-14 05:20:00', '2024-02-14 04:50:00', '2024-02-14 04:20:00', '2024-02-14 03:50:00', '2024-02-14 03:20:00', '2024-02-14 02:50:00', '2024-02-14 02:20:00', '2024-02-14 01:50:00', '2024-02-14 01:20:00', '2024-02-14 00:50:00', '2024-02-14 00:20:00', '2024-02-13 23:50:00', '2024-02-13 23:20:00', '2024-02-13 22:50:00', '2024-02-13 22:20:00', '2024-02-13 21:50:00', '2024-02-13 21:20:00', '2024-02-13 20:50:00', '2024-02-13 20:20:00', '2024-02-13 19:50:00', '2024-02-13 19:20:00', '2024-02-13 18:50:00', '2024-02-13 18:20:00', '2024-02-13 17:50:00', '2024-02-13 17:20:00', '2024-02-13 16:50:00', '2024-02-13 16:20:00', '2024-02-13 15:50:00', '2024-02-13 15:20:00', '2024-02-13 14:50:00', '2024-02-13 14:20:00', '2024-02-13 13:50:00', '2024-02-13 13:20:00', '2024-02-13 12:50:00', '2024-02-13 12:20:00', '2024-02-13 11:50:00', '2024-02-13 11:20:00', '2024-02-13 10:50:00', '2024-02-13 10:20:00', '2024-02-13 09:50:00', '2024-02-13 09:20:00', '2024-02-13 08:50:00', '2024-02-13 08:20:00', '2024-02-13 07:50:00', '2024-02-13 07:20:00', '2024-02-13 06:50:00', '2024-02-13 06:20:00', '2024-02-13 05:50:00', '2024-02-13 05:20:00', '2024-02-13 04:50:00', '2024-02-13 04:20:00', '2024-02-13 03:50:00', '2024-02-13 02:50:00', '2024-02-13 02:20:00', '2024-02-13 01:50:00', '2024-02-13 01:20:00', '2024-02-13 00:20:00', '2024-02-12 23:50:00', '2024-02-12 23:20:00', '2024-02-12 22:50:00', '2024-02-12 22:20:00', '2024-02-12 21:50:00', '2024-02-12 21:20:00', '2024-02-12 20:50:00', '2024-02-12 20:20:00', '2024-02-12 19:50:00', '2024-02-12 19:20:00', '2024-02-12 18:50:00', '2024-02-12 18:20:00', '2024-02-12 17:50:00', '2024-02-12 17:20:00', '2024-02-12 16:50:00', '2024-02-12 16:20:00', '2024-02-12 15:50:00', '2024-02-12 15:20:00', '2024-02-12 14:50:00', '2024-02-12 14:20:00', '2024-02-12 13:50:00', '2024-02-12 13:20:00', '2024-02-12 12:50:00', '2024-02-12 12:20:00', '2024-02-12 11:50:00', '2024-02-12 11:20:00', '2024-02-12 10:50:00', '2024-02-12 10:20:00', '2024-02-12 09:50:00', '2024-02-12 09:20:00']"
Turkey, Diyarbakir Airport (DIY/LTCC) ,"['LTCC 150850Z 18011KT 9999 SCT035 14/07 Q1014 NOSIG', 'LTCC 150820Z 17011KT 140V200 9999 SCT035 13/08 Q1014 NOSIG', 'LTCC 150750Z 16008KT 9999 SCT035 13/07 Q1014 NOSIG', 'LTCC 150720Z 17010KT 9999 SCT035 12/08 Q1014 NOSIG', 'LTCC 150650Z 18007KT 9999 SCT035 12/08 Q1014 NOSIG', 'LTCC 150620Z 17007KT 140V210 9999 SCT035 11/09 Q1014 NOSIG', 'LTCC 150550Z 19004KT 150V210 9999 SCT002 10/09 Q1014 NOSIG', 'LTCC 150520Z 12003KT 090V150 6000 SCT002 09/09 Q1013 NOSIG', 'LTCC 150450Z 10004KT 070V160 0200 R34/0225N R16/P1500N BCFG BKN002 08/08 Q1013 NOSIG', 'LTCC 150420Z 11005KT 1200 0300S R34/0500D R16/P1500N BCFG BKN002 08/08 Q1012 NOSIG', 'LTCC 150350Z 11006KT 1200 0400S R34/P1500N R16/P1500N BCFG BKN002 08/08 Q1012 NOSIG', 'LTCC 150320Z 11004KT 9999 FEW003 SCT040 BKN100 08/08 Q1012 NOSIG', 'LTCC 150250Z 10005KT 9999 FEW002 SCT040 BKN100 08/08 Q1011 RESHRA NOSIG', 'LTCC 150220Z 13003KT 9999 -SHRA FEW025CB BKN035 08/08 Q1011 NOSIG', 'LTCC 150150Z 13003KT 9999 -SHRA FEW025CB BKN035 08/08 Q1011 NOSIG', 'LTCC 150120Z 15002KT 9999 -SHRA FEW025CB BKN035 08/08 Q1011 NOSIG', 'LTCC 150050Z 13004KT 9999 -SHRA FEW025CB BKN035 08/08 Q1010 NOSIG', 'LTCC 150020Z 15004KT 9999 -SHRA FEW025CB BKN035 08/08 Q1010 NOSIG', 'LTCC 142350Z 10004KT 9999 -SHRA FEW025CB BKN035 08/08 Q1010 NOSIG', 'LTCC 142320Z 09002KT 9999 -SHRA FEW025CB BKN035 08/08 Q1010 NOSIG', 'LTCC 142250Z 09004KT 9999 -SHRA FEW025CB BKN035 08/08 Q1010 NOSIG', 'LTCC 142220Z 12004KT 9999 -SHRA FEW025CB BKN035 08/08 Q1010 NOSIG', 'LTCC 142150Z 13005KT 9999 -SHRA FEW025CB BKN035 08/08 Q1010 NOSIG', 'LTCC 142120Z 10006KT 9999 -SHRA FEW025CB BKN035 08/08 Q1009 NOSIG', 'LTCC 142050Z 09006KT 7000 -SHRA FEW025CB BKN035 08/08 Q1009 NOSIG', 'LTCC 142020Z 17004KT 7000 -SHRA FEW025CB BKN035 08/08 Q1010 NOSIG', 'LTCC 141950Z 11012KT 7000 -SHRA FEW025CB BKN035 09/09 Q1009 NOSIG', 'LTCC 141920Z 10014KT 9999 -SHRA FEW025CB BKN035 10/10 Q1009 NOSIG', 'LTCC 141850Z 10013KT 9999 -SHRA FEW025CB BKN035 10/10 Q1009 NOSIG', 'LTCC 141820Z 10015KT 9999 -SHRA FEW025CB BKN035 10/10 Q1009 NOSIG', 'LTCC 141750Z 10011KT 9999 -SHRA FEW025CB BKN035 10/10 Q1010 NOSIG', 'LTCC 141720Z 11012KT 9999 -SHRA FEW025CB SCT035 BKN090 10/10 Q1010 NOSIG', 'LTCC 141650Z 10011KT 9999 -SHRA FEW025CB SCT035 BKN090 10/10 Q1010 NOSIG', 'LTCC 141620Z 10012KT 9999 -SHRA FEW025CB SCT035 BKN090 10/10 Q1010 NOSIG', 'LTCC 141550Z 10012KT 9999 -SHRA FEW025CB SCT035 BKN090 10/09 Q1010 NOSIG', 'LTCC 141520Z 10012KT 9999 -SHRA FEW025CB SCT035 BKN090 10/10 Q1010 NOSIG', 'LTCC 141450Z 10008KT 9999 -SHRA FEW030CB BKN035 BKN090 11/09 Q1009 NOSIG', 'LTCC 141420Z 11008KT 080V140 9999 -SHRA FEW030CB BKN035 BKN090 11/09 Q1010 NOSIG', 'LTCC 141350Z 12004KT 090V150 9999 -SHRA FEW030CB BKN035 BKN090 11/10 Q1010 NOSIG', 'LTCC 141328Z 15014KT 9999 -SHRA FEW030CB BKN035 BKN090 12/09 Q1010 NOSIG', 'LTCC 141250Z 13010KT 9999 FEW030CB BKN035 BKN100 13/09 Q1010 NOSIG', 'LTCC 141220Z 14012KT 9999 FEW030CB BKN035 BKN100 13/09 Q1010 RESHRA NOSIG', 'LTCC 141150Z 13010KT 9999 -SHRA FEW030CB BKN035 BKN090 13/09 Q1010 NOSIG', 'LTCC 141120Z 12008KT 9999 -SHRA FEW030CB BKN035 BKN090 13/09 Q1010 NOSIG', 'LTCC 141050Z 13004KT 080V170 9999 BKN040 BKN100 13/10 Q1011 NOSIG', 'LTCC 141020Z 17011KT 9999 BKN035 BKN090 13/09 Q1011 NOSIG', 'LTCC 140950Z 17012KT 9999 FEW030CB SCT035 BKN090 13/09 Q1011 RESHRA NOSIG', 'LTCC 140920Z 17009KT 9999 -SHRA FEW030CB BKN035 BKN090 13/10 Q1011 NOSIG', 'LTCC 140850Z 15007KT 9999 -SHRA FEW030CB BKN035 BKN090 13/10 Q1012 NOSIG', 'LTCC 140820Z 12006KT 9999 -SHRA FEW030CB BKN035 BKN090 12/10 Q1012 NOSIG', 'LTCC 140750Z 12011KT 9999 SCT040 BKN100 13/09 Q1012 NOSIG', 'LTCC 140720Z 10008KT 9999 SCT040 BKN100 13/09 Q1012 NOSIG', 'LTCC 140650Z 10008KT 9999 SCT040 BKN100 12/08 Q1012 NOSIG', 'LTCC 140620Z 10005KT 070V140 9999 SCT040 BKN100 11/08 Q1012 NOSIG', 'LTCC 140550Z 09006KT 9999 SCT040 BKN100 11/08 Q1012 NOSIG', 'LTCC 140520Z 10004KT 9999 SCT040 BKN100 10/08 Q1013 NOSIG', 'LTCC 140450Z 04003KT 9999 SCT040 BKN100 09/08 Q1013 RESHRA NOSIG', 'LTCC 140420Z 16006KT 6000 -SHRA SCT040 BKN100 09/08 Q1013 BECMG TL 0450 NSW', 'LTCC 140350Z 12003KT 090V160 9999 SCT040 BKN100 09/07 Q1013 NOSIG', 'LTCC 140320Z 13003KT 040V180 9999 FEW040 BKN100 BKN200 09/07 Q1013 NOSIG', 'LTCC 140250Z VRB01KT 9999 FEW040 BKN100 BKN200 09/07 Q1013 NOSIG', 'LTCC 140220Z 21001KT 9999 FEW040 BKN100 BKN200 09/07 Q1013 NOSIG', 'LTCC 140150Z 27002KT 9999 FEW040 BKN100 BKN200 08/08 Q1013 NOSIG', 'LTCC 140120Z 27004KT 9999 FEW040 BKN100 BKN200 08/08 Q1013 NOSIG', 'LTCC 140050Z VRB01KT 9999 FEW040 BKN100 BKN200 07/07 Q1013 NOSIG', 'LTCC 140020Z 07002KT 9999 FEW040 BKN100 BKN200 09/07 Q1014 NOSIG', 'LTCC 132350Z 00000KT 9999 FEW040 BKN100 BKN200 09/07 Q1014 NOSIG', 'LTCC 132320Z VRB01KT 9999 FEW040 BKN100 BKN200 08/07 Q1015 NOSIG', 'LTCC 132250Z VRB01KT 9999 FEW040 BKN100 BKN200 08/08 Q1015 NOSIG', 'LTCC 132220Z 16002KT 9999 FEW040 BKN100 BKN200 08/08 Q1015 NOSIG', 'LTCC 132150Z VRB02KT 9999 FEW040 BKN100 BKN200 08/07 Q1015 NOSIG', 'LTCC 132120Z VRB01KT 9999 FEW040 BKN100 BKN200 10/07 Q1015 NOSIG', 'LTCC 132050Z 07003KT 9999 FEW040 BKN100 BKN200 09/07 Q1015 NOSIG', 'LTCC 132020Z 07002KT 9999 FEW040 BKN100 BKN200 09/07 Q1016 NOSIG', 'LTCC 131950Z VRB02KT 9999 FEW040 BKN100 BKN200 09/07 Q1016 NOSIG', 'LTCC 131920Z VRB01KT 9999 FEW040 BKN100 BKN200 10/07 Q1016 NOSIG', 'LTCC 131850Z 07002KT 9999 FEW040 BKN100 BKN200 10/07 Q1016 NOSIG', 'LTCC 131820Z VRB01KT 9999 FEW040 BKN100 BKN200 09/07 Q1017 NOSIG', 'LTCC 131750Z 01002KT 9999 FEW040 BKN100 BKN200 10/07 Q1016 NOSIG', 'LTCC 131720Z 31003KT 9999 FEW040 BKN100 BKN200 10/07 Q1017 NOSIG', 'LTCC 131650Z 30003KT 9999 FEW040 BKN100 BKN200 10/07 Q1016 NOSIG', 'LTCC 131620Z 00000KT 9999 FEW040 BKN100 BKN200 10/06 Q1016 NOSIG', 'LTCC 131550Z 00000KT 9999 FEW040 BKN100 BKN200 10/07 Q1016 NOSIG', 'LTCC 131520Z 14003KT 9999 FEW040 BKN100 BKN200 11/07 Q1016 NOSIG', 'LTCC 131450Z 12003KT 9999 FEW040 BKN100 BKN200 11/07 Q1016 NOSIG', 'LTCC 131420Z 11003KT 9999 FEW040 BKN100 BKN200 12/08 Q1016 NOSIG', 'LTCC 131350Z 13002KT 9999 FEW040 BKN100 BKN200 13/07 Q1016 NOSIG', 'LTCC 131320Z VRB02KT 9999 FEW040 BKN100 BKN200 13/07 Q1017 NOSIG', 'LTCC 131250Z 11003KT 080V140 9999 FEW040 BKN100 BKN200 13/07 Q1017 NOSIG', 'LTCC 131220Z VRB02KT 9999 FEW040 BKN100 BKN200 13/06 Q1017 NOSIG', 'LTCC 131150Z VRB02KT 9999 FEW040 BKN100 BKN200 13/07 Q1017 NOSIG', 'LTCC 131120Z 15004KT 100V200 9999 FEW040 BKN100 BKN200 13/07 Q1017 NOSIG', 'LTCC 131050Z VRB02KT 9999 FEW040 BKN100 BKN200 12/06 Q1018 NOSIG', 'LTCC 131020Z VRB02KT 9999 FEW040 BKN100 BKN200 12/06 Q1018 NOSIG', 'LTCC 130950Z 09003KT 060V140 CAVOK 11/07 Q1018 NOSIG', 'LTCC 130920Z VRB01KT 9999 FEW040 SCT100 BKN200 12/07 Q1019 NOSIG', 'LTCC 130850Z VRB02KT 8000 NSC 10/07 Q1019 NOSIG', 'LTCC 130820Z VRB02KT CAVOK 09/07 Q1020 NOSIG', 'LTCC 130750Z VRB01KT CAVOK 08/07 Q1020 NOSIG', 'LTCC 130720Z VRB01KT CAVOK 08/06 Q1020 NOSIG', 'LTCC 130650Z VRB01KT CAVOK 07/06 Q1020 NOSIG', 'LTCC 130620Z VRB01KT CAVOK 07/06 Q1020 NOSIG', 'LTCC 130550Z 25004KT CAVOK 06/06 Q1020 NOSIG', 'LTCC 130520Z VRB01KT CAVOK 05/05 Q1020 NOSIG', 'LTCC 130450Z 13002KT CAVOK 04/04 Q1020 NOSIG', 'LTCC 130420Z 13002KT CAVOK 04/04 Q1020 NOSIG', 'LTCC 130350Z 00000KT CAVOK 04/04 Q1020 NOSIG', 'LTCC 130320Z 11002KT CAVOK 05/05 Q1020 NOSIG', 'LTCC 130250Z VRB01KT CAVOK 04/04 Q1020 NOSIG', 'LTCC 130220Z 24002KT CAVOK 05/05 Q1020 NOSIG', 'LTCC 130150Z 26003KT CAVOK 05/05 Q1020 NOSIG', 'LTCC 130120Z 00000KT CAVOK 05/05 Q1020 NOSIG', 'LTCC 130050Z 28002KT CAVOK 06/05 Q1020 NOSIG', 'LTCC 130020Z 26003KT CAVOK 05/04 Q1020 NOSIG', 'LTCC 122350Z 28001KT CAVOK 06/05 Q1020 NOSIG', 'LTCC 122320Z 24002KT CAVOK 07/05 Q1020 NOSIG', 'LTCC 122250Z 27002KT CAVOK 06/05 Q1021 NOSIG', 'LTCC 122220Z 27001KT CAVOK 07/05 Q1020 NOSIG', 'LTCC 122150Z 25003KT CAVOK 07/05 Q1021 NOSIG', 'LTCC 122120Z 25004KT CAVOK 06/04 Q1021 NOSIG', 'LTCC 122050Z 26002KT CAVOK 06/04 Q1021 NOSIG', 'LTCC 122020Z 31001KT CAVOK 07/04 Q1021 NOSIG', 'LTCC 121950Z 30003KT CAVOK 06/04 Q1021 NOSIG', 'LTCC 121920Z 30003KT 260V320 CAVOK 08/05 Q1021 NOSIG', 'LTCC 121850Z VRB02KT CAVOK 08/05 Q1021 NOSIG', 'LTCC 121820Z 28005KT CAVOK 08/05 Q1021 NOSIG', 'LTCC 121750Z 27006KT CAVOK 09/05 Q1021 NOSIG', 'LTCC 121720Z 26004KT CAVOK 10/05 Q1021 NOSIG', 'LTCC 121650Z 00000KT CAVOK 10/05 Q1021 NOSIG', 'LTCC 121620Z 04001KT CAVOK 10/05 Q1021 NOSIG', 'LTCC 121550Z 07003KT CAVOK 12/05 Q1021 NOSIG', 'LTCC 121520Z 08003KT CAVOK 12/05 Q1021 NOSIG', 'LTCC 121450Z 08003KT CAVOK 13/06 Q1021 NOSIG', 'LTCC 121420Z 10003KT CAVOK 14/06 Q1021 NOSIG', 'LTCC 121350Z VRB02KT CAVOK 15/06 Q1021 NOSIG', 'LTCC 121320Z 09004KT 050V120 CAVOK 15/06 Q1021 NOSIG', 'LTCC 121250Z 10004KT 050V140 CAVOK 15/05 Q1021 NOSIG', 'LTCC 121220Z 10005KT 060V130 CAVOK 15/06 Q1021 NOSIG', 'LTCC 121150Z 09005KT 050V120 CAVOK 15/06 Q1022 NOSIG', 'LTCC 121120Z VRB05KT CAVOK 15/06 Q1022 NOSIG', 'LTCC 121050Z 06005KT 020V110 CAVOK 15/07 Q1022 NOSIG', 'LTCC 121020Z 10004KT 030V190 CAVOK 14/06 Q1023 NOSIG', 'LTCC 120950Z 14005KT 100V180 CAVOK 14/08 Q1023 NOSIG', 'LTCC 120920Z 10004KT 060V150 CAVOK 13/08 Q1024 NOSIG']","['2024-02-15 08:50:00', '2024-02-15 08:20:00', '2024-02-15 07:50:00', '2024-02-15 07:20:00', '2024-02-15 06:50:00', '2024-02-15 06:20:00', '2024-02-15 05:50:00', '2024-02-15 05:20:00', '2024-02-15 04:50:00', '2024-02-15 04:20:00', '2024-02-15 03:50:00', '2024-02-15 03:20:00', '2024-02-15 02:50:00', '2024-02-15 02:20:00', '2024-02-15 01:50:00', '2024-02-15 01:20:00', '2024-02-15 00:50:00', '2024-02-15 00:20:00', '2024-02-14 23:50:00', '2024-02-14 23:20:00', '2024-02-14 22:50:00', '2024-02-14 22:20:00', '2024-02-14 21:50:00', '2024-02-14 21:20:00', '2024-02-14 20:50:00', '2024-02-14 20:20:00', '2024-02-14 19:50:00', '2024-02-14 19:20:00', '2024-02-14 18:50:00', '2024-02-14 18:20:00', '2024-02-14 17:50:00', '2024-02-14 17:20:00', '2024-02-14 16:50:00', '2024-02-14 16:20:00', '2024-02-14 15:50:00', '2024-02-14 15:20:00', '2024-02-14 14:50:00', '2024-02-14 14:20:00', '2024-02-14 13:50:00', '2024-02-14 13:28:00', '2024-02-14 12:50:00', '2024-02-14 12:20:00', '2024-02-14 11:50:00', '2024-02-14 11:20:00', '2024-02-14 10:50:00', '2024-02-14 10:20:00', '2024-02-14 09:50:00', '2024-02-14 09:20:00', '2024-02-14 08:50:00', '2024-02-14 08:20:00', '2024-02-14 07:50:00', '2024-02-14 07:20:00', '2024-02-14 06:50:00', '2024-02-14 06:20:00', '2024-02-14 05:50:00', '2024-02-14 05:20:00', '2024-02-14 04:50:00', '2024-02-14 04:20:00', '2024-02-14 03:50:00', '2024-02-14 03:20:00', '2024-02-14 02:50:00', '2024-02-14 02:20:00', '2024-02-14 01:50:00', '2024-02-14 01:20:00', '2024-02-14 00:50:00', '2024-02-14 00:20:00', '2024-02-13 23:50:00', '2024-02-13 23:20:00', '2024-02-13 22:50:00', '2024-02-13 22:20:00', '2024-02-13 21:50:00', '2024-02-13 21:20:00', '2024-02-13 20:50:00', '2024-02-13 20:20:00', '2024-02-13 19:50:00', '2024-02-13 19:20:00', '2024-02-13 18:50:00', '2024-02-13 18:20:00', '2024-02-13 17:50:00', '2024-02-13 17:20:00', '2024-02-13 16:50:00', '2024-02-13 16:20:00', '2024-02-13 15:50:00', '2024-02-13 15:20:00', '2024-02-13 14:50:00', '2024-02-13 14:20:00', '2024-02-13 13:50:00', '2024-02-13 13:20:00', '2024-02-13 12:50:00', '2024-02-13 12:20:00', '2024-02-13 11:50:00', '2024-02-13 11:20:00', '2024-02-13 10:50:00', '2024-02-13 10:20:00', '2024-02-13 09:50:00', '2024-02-13 09:20:00', '2024-02-13 08:50:00', '2024-02-13 08:20:00', '2024-02-13 07:50:00', '2024-02-13 07:20:00', '2024-02-13 06:50:00', '2024-02-13 06:20:00', '2024-02-13 05:50:00', '2024-02-13 05:20:00', '2024-02-13 04:50:00', '2024-02-13 04:20:00', '2024-02-13 03:50:00', '2024-02-13 03:20:00', '2024-02-13 02:50:00', '2024-02-13 02:20:00', '2024-02-13 01:50:00', '2024-02-13 01:20:00', '2024-02-13 00:50:00', '2024-02-13 00:20:00', '2024-02-12 23:50:00', '2024-02-12 23:20:00', '2024-02-12 22:50:00', '2024-02-12 22:20:00', '2024-02-12 21:50:00', '2024-02-12 21:20:00', '2024-02-12 20:50:00', '2024-02-12 20:20:00', '2024-02-12 19:50:00', '2024-02-12 19:20:00', '2024-02-12 18:50:00', '2024-02-12 18:20:00', '2024-02-12 17:50:00', '2024-02-12 17:20:00', '2024-02-12 16:50:00', '2024-02-12 16:20:00', '2024-02-12 15:50:00', '2024-02-12 15:20:00', '2024-02-12 14:50:00', '2024-02-12 14:20:00', '2024-02-12 13:50:00', '2024-02-12 13:20:00', '2024-02-12 12:50:00', '2024-02-12 12:20:00', '2024-02-12 11:50:00', '2024-02-12 11:20:00', '2024-02-12 10:50:00', '2024-02-12 10:20:00', '2024-02-12 09:50:00', '2024-02-12 09:20:00']"
Turkey, Edremit Balikesir Koca Seyit Airport (EDO/LTFD) ,"['LTFD 150850Z 07014KT 9999 SCT035 BKN100 09/04 Q1017', 'LTFD 150750Z 07013KT 9999 SCT035 BKN100 08/04 Q1017', 'LTFD 150650Z 08011KT 9999 SCT035 BKN100 08/04 Q1016', 'LTFD 150550Z 08010KT 9999 SCT035 BKN090 07/05 Q1016', 'LTFD 150450Z 07010KT 9999 SCT035 BKN090 08/04 Q1016', 'LTFD 150350Z 07011KT 9999 SCT035 BKN100 08/04 Q1015', 'LTFD 150250Z 07009KT 9999 SCT035 BKN100 08/04 Q1015', 'LTFD 150150Z 07009KT 9999 SCT035 BKN100 08/04 Q1015', 'LTFD 150050Z 04013KT 9999 SCT035 BKN100 09/03 Q1015', 'LTFD 142350Z 05014KT 9999 SCT035 BKN100 09/03 Q1015', 'LTFD 142250Z 06011KT 9999 SCT035 BKN100 09/03 Q1015', 'LTFD 142150Z 06017KT 9999 SCT035 BKN100 09/03 Q1015', 'LTFD 142050Z 06013KT 9999 SCT035 BKN100 09/04 Q1015', 'LTFD 141950Z 05012KT 9999 SCT035 SCT100 BKN200 09/04 Q1015', 'LTFD 141850Z 05013KT 9999 SCT030 SCT100 BKN200 09/04 Q1014', 'LTFD 141750Z 06021KT 9999 SCT035 SCT100 BKN200 10/05 Q1014', 'LTFD 141650Z 06018KT 9999 SCT035 BKN100 10/05 Q1014', 'LTFD 141550Z 06017KT 9999 FEW030TCU SCT035 BKN100 10/06 Q1013', 'LTFD 141450Z 06017KT 9999 FEW030TCU SCT035 BKN100 11/06 Q1012', 'LTFD 141350Z 04017KT 9999 SCT035 BKN100 12/07 Q1012', 'LTFD 141250Z 05014KT 9999 SCT035 BKN100 12/06 Q1011', 'LTFD 141150Z 06018KT 9999 SCT035 BKN100 12/06 Q1011', 'LTFD 141050Z 06011KT 030V090 9999 SCT035 BKN100 11/08 Q1011', 'LTFD 140950Z 06018KT 9999 SCT035 BKN100 12/07 Q1012', 'LTFD 140850Z 07013KT 9999 SCT035 BKN100 13/07 Q1011', 'LTFD 140750Z 06014KT 9999 SCT035 BKN100 12/07 Q1011', 'LTFD 140650Z 07011KT 9999 SCT035 BKN100 11/07 Q1011', 'LTFD 140550Z 07006KT 9999 SCT035 09/06 Q1011', 'LTFD 140450Z 07008KT 9999 SCT035 08/06 Q1010', 'LTFD 140350Z 06008KT 9999 FEW035 08/06 Q1010', 'LTFD 140250Z 08009KT 9999 FEW035 08/06 Q1010', 'LTFD 140150Z 07008KT 9999 FEW035 08/05 Q1010', 'LTFD 140050Z VRB01KT CAVOK 04/04 Q1010', 'LTFD 132350Z VRB01KT CAVOK 04/04 Q1010', 'LTFD 132250Z 09003KT 060V150 CAVOK 04/04 Q1010', 'LTFD 132150Z 11003KT CAVOK 06/05 Q1010', 'LTFD 132050Z 09005KT CAVOK 06/06 Q1010', 'LTFD 131950Z 12003KT CAVOK 07/06 Q1010', 'LTFD 131850Z 10005KT 9999 FEW035 08/07 Q1010', 'LTFD 131750Z 07003KT 9999 FEW035 SCT100 09/08 Q1010', 'LTFD 131650Z VRB02KT 9999 FEW035 BKN100 11/08 Q1009', 'LTFD 131550Z 06003KT 9999 FEW035 BKN100 12/09 Q1009', 'LTFD 131450Z VRB02KT 9999 SCT035 BKN100 13/08 Q1009', 'LTFD 131350Z 29003KT 250V340 9999 SCT035 SCT100 BKN180 14/08 Q1009', 'LTFD 131250Z 19006KT 9999 SCT035 BKN100 14/08 Q1008', 'LTFD 131150Z 17006KT 9999 SCT035 BKN100 14/07 Q1008', 'LTFD 131050Z 26010KT 9999 SCT035 BKN100 13/07 Q1009', 'LTFD 130950Z 26004KT 230V300 9999 SCT035 BKN100 14/09 Q1010', 'LTFD 130850Z 08003KT 020V170 9999 SCT035 BKN100 13/08 Q1010', 'LTFD 130750Z VRB02KT 9999 SCT035 BKN100 11/08 Q1010', 'LTFD 130650Z 00000KT 9999 SCT035 BKN100 09/08 Q1009', 'LTFD 130550Z 06003KT 9999 SCT035 BKN100 08/07 Q1009', 'LTFD 130450Z 08005KT 9999 SCT035 BKN100 08/07 Q1008 REDZ', 'LTFD 130350Z 06006KT 9999 SCT035 BKN100 08/08 Q1008', 'LTFD 130250Z 36004KT 9999 SCT035 BKN100 08/08 Q1008', 'LTFD 130150Z 11003KT 080V160 9999 SCT035 BKN100 08/08 Q1008', 'LTFD 130050Z 00000KT 9999 SCT035 BKN100 08/08 Q1008', 'LTFD 122350Z 00000KT 9999 SCT035 BKN100 08/08 Q1008 RESHRA', 'LTFD 122250Z 01004KT 9999 -SHRA SCT030 BKN090 09/08 Q1008', 'LTFD 122150Z 06008KT 9999 BKN030 BKN090 09/08 Q1008 RESHRA', 'LTFD 122050Z 07009KT 7000 SHRA BKN030 BKN090 09/08 Q1008', 'LTFD 121950Z 05004KT 9999 -SHRA BKN030 BKN090 09/09 Q1009', 'LTFD 121850Z 03004KT 9999 -SHRA BKN030 BKN090 09/08 Q1010', 'LTFD 121750Z 11003KT 090V150 9999 -SHRA BKN030 BKN090 09/08 Q1010 RESHRA', 'LTFD 121550Z 16004KT 5000 SHRA BKN025 BKN080 10/10 Q1010', 'LTFD 121450Z 15005KT 4200 SHRA FEW020CB SCT025 BKN080 10/10 Q1010 RETSRA', 'LTFD 121350Z 13004KT 050V210 3000 TSRA SCT015CB SCT030 11/11 Q1010', 'LTFD 121250Z 25022KT 3000 TSRA SCT020CB SCT030 11/10 Q1009 RETS', 'LTFD 121150Z 19013KT 9999 SCT035 BKN100 18/07 Q1007', 'LTFD 121050Z 19014KT 9999 SCT035 BKN100 18/09 Q1008', 'LTFD 120950Z 18012G22KT 120V210 9999 SCT035 BKN100 19/09 Q1009']","['2024-02-15 08:50:00', '2024-02-15 07:50:00', '2024-02-15 06:50:00', '2024-02-15 05:50:00', '2024-02-15 04:50:00', '2024-02-15 03:50:00', '2024-02-15 02:50:00', '2024-02-15 01:50:00', '2024-02-15 00:50:00', '2024-02-14 23:50:00', '2024-02-14 22:50:00', '2024-02-14 21:50:00', '2024-02-14 20:50:00', '2024-02-14 19:50:00', '2024-02-14 18:50:00', '2024-02-14 17:50:00', '2024-02-14 16:50:00', '2024-02-14 15:50:00', '2024-02-14 14:50:00', '2024-02-14 13:50:00', '2024-02-14 12:50:00', '2024-02-14 11:50:00', '2024-02-14 10:50:00', '2024-02-14 09:50:00', '2024-02-14 08:50:00', '2024-02-14 07:50:00', '2024-02-14 06:50:00', '2024-02-14 05:50:00', '2024-02-14 04:50:00', '2024-02-14 03:50:00', '2024-02-14 02:50:00', '2024-02-14 01:50:00', '2024-02-14 00:50:00', '2024-02-13 23:50:00', '2024-02-13 22:50:00', '2024-02-13 21:50:00', '2024-02-13 20:50:00', '2024-02-13 19:50:00', '2024-02-13 18:50:00', '2024-02-13 17:50:00', '2024-02-13 16:50:00', '2024-02-13 15:50:00', '2024-02-13 14:50:00', '2024-02-13 13:50:00', '2024-02-13 12:50:00', '2024-02-13 11:50:00', '2024-02-13 10:50:00', '2024-02-13 09:50:00', '2024-02-13 08:50:00', '2024-02-13 07:50:00', '2024-02-13 06:50:00', '2024-02-13 05:50:00', '2024-02-13 04:50:00', '2024-02-13 03:50:00', '2024-02-13 02:50:00', '2024-02-13 01:50:00', '2024-02-13 00:50:00', '2024-02-12 23:50:00', '2024-02-12 22:50:00', '2024-02-12 21:50:00', '2024-02-12 20:50:00', '2024-02-12 19:50:00', '2024-02-12 18:50:00', '2024-02-12 17:50:00', '2024-02-12 15:50:00', '2024-02-12 14:50:00', '2024-02-12 13:50:00', '2024-02-12 12:50:00', '2024-02-12 11:50:00', '2024-02-12 10:50:00', '2024-02-12 09:50:00']"
Turkey, Elazig Airport (EZS/LTCA) ,"['LTCA 150850Z 15003KT 060V190 9999 FEW018 SCT035 BKN090 09/06 Q1014 NOSIG', 'LTCA 150750Z VRB02KT 9999 FEW018 SCT035 BKN090 08/06 Q1014 NOSIG', 'LTCA 150650Z 29003KT 250V340 9999 FEW008 SCT035 BKN100 08/06 Q1014 NOSIG', 'LTCA 150550Z 27003KT 240V310 9999 FEW016 SCT035 BKN100 07/06 Q1013 NOSIG', 'LTCA 150450Z 05002KT 7000 FEW008 SCT035 BKN100 05/05 Q1012 NOSIG', 'LTCA 150350Z 29002KT 7000 BKN030 OVC080 05/05 Q1011 RERA TEMPO 2500 BR', 'LTCA 150250Z 32002KT 7000 -RA BKN030 OVC080 05/05 Q1011 TEMPO FM0400 2500 BR', 'LTCA 150150Z 27004KT 7000 -RA FEW012 BKN030 OVC080 05/05 Q1010 NOSIG', 'LTCA 150050Z 31003KT 7000 -RA FEW012 BKN030 OVC080 05/05 Q1009 NOSIG', 'LTCA 142350Z 28003KT 7000 -RA FEW012 BKN030 OVC080 05/05 Q1009 NOSIG', 'LTCA 142250Z 27004KT 7000 -RA FEW012 BKN030 OVC080 05/05 Q1009 NOSIG', 'LTCA 142150Z 30003KT 7000 -RA FEW012 BKN030 OVC080 04/04 Q1009 RERASN TEMPO 4000', 'LTCA 142050Z 27005KT 7000 -RASN FEW012 BKN030 BKN090 04/04 Q1010 RESHRA TEMPO FM2200 4000', 'LTCA 141950Z 32008KT 7000 SHRA FEW012 BKN030 BKN090 04/04 Q1010 BECMG TL2050 NSW', 'LTCA 141850Z 13008KT 8000 -SHRA FEW012 BKN030 BKN090 05/05 Q1010 TEMPO 3500 -TSRA', 'LTCA 141750Z 15007KT 120V180 8000 -SHRA BKN030 BKN080 05/05 Q1010 TEMPO 09015G25KT 3500 -TSRA', 'LTCA 141650Z 15010KT 9999 -SHRA BKN030 BKN080 05/05 Q1011 TEMPO FM1800 09015G25KT 3500 -TSRA', 'LTCA 141550Z 14015KT 8000 -SHRA FEW015 BKN028 BKN080 05/05 Q1011 NOSIG', 'LTCA 141450Z 14011KT 6000 -SHRA FEW015 BKN028 BKN080 06/06 Q1012 NOSIG', 'LTCA 141350Z 14012KT 9999 -SHRA FEW015 BKN033 BKN080 07/06 Q1011 TEMPO TL1500 3500 SHRA', 'LTCA 141250Z 14012KT 9999 -SHRA FEW015 BKN033 BKN080 07/07 Q1010 TEMPO 3500 SHRA', 'LTCA 141150Z 13012KT 8000 -SHRA FEW015 BKN030 BKN080 08/07 Q1011 TEMPO 3500 SHRA', 'LTCA 141050Z 10007KT 070V140 8000 -SHRA FEW015 BKN030 BKN080 08/06 Q1011 TEMPO 3500 SHRA', 'LTCA 140950Z 12006KT 090V160 8000 -SHRA FEW020CB BKN030 BKN080 08/07 Q1012 RETSRA TEMPO 2500 TSRA', 'LTCA 140850Z 13009KT 6000 -TSRA FEW020CB BKN028 BKN080 07/07 Q1013 TEMPO 2500 TSRA', 'LTCA 140802Z 15004KT 2500 TSRA FEW020CB BKN028 BKN080 07/07 Q1013 BECMG TL0850 6000 NSW TEMPO FM0900 15015G25KT 2500 TSRA', 'LTCA 140750Z 16003KT 130V200 3500 TSRA FEW020CB BKN028 BKN080 07/07 Q1013 BECMG TL0850 6000 NSW TEMPO FM0900 15015G25KT 2500 TSRA', 'LTCA 140650Z 15008KT 6000 -TSRA FEW020CB BKN030 BKN080 08/06 Q1013 RERA BECMG TL0740 NSW TEMPO -TSRA', 'LTCA 140550Z 14010KT 110V170 7000 -RA BKN030 OVC080 09/05 Q1013 NOSIG', 'LTCA 140450Z 17006KT 9999 -RA BKN030 OVC080 08/06 Q1013 NOSIG', 'LTCA 140350Z 14010KT 9999 -RA BKN033 OVC090 08/06 Q1012 NOSIG', 'LTCA 140250Z 15011KT 9999 SCT035 BKN090 09/05 Q1012 BECMG TL0350 09008KT', 'LTCA 140050Z 14005KT 110V180 9999 BKN033 BKN100 09/05 Q1014 NOSIG', 'LTCA 132350Z 17007KT 9999 SCT035 BKN100 09/05 Q1014 NOSIG', 'LTCA 132250Z 15012KT 9999 SCT035 BKN100 10/05 Q1015 NOSIG', 'LTCA 132150Z 11006KT 9999 SCT035 BKN100 10/04 Q1015 NOSIG', 'LTCA 132050Z 15006KT 9999 SCT035 BKN100 10/04 Q1015 NOSIG', 'LTCA 131950Z 15008KT 9999 SCT035 BKN100 11/03 Q1016 NOSIG', 'LTCA 131850Z VRB02KT 9999 SCT035 BKN100 11/03 Q1016 NOSIG', 'LTCA 131750Z 16003KT 120V190 9999 SCT035 BKN100 11/03 Q1016 NOSIG', 'LTCA 131650Z 19005KT 150V220 9999 SCT035 BKN100 12/03 Q1016 NOSIG', 'LTCA 131550Z 19004KT 150V210 9999 SCT035 BKN100 11/04 Q1016 NOSIG', 'LTCA 131450Z 04004KT 010V070 9999 SCT035 BKN100 11/03 Q1016 NOSIG', 'LTCA 131350Z 16009KT 9999 SCT035 BKN100 12/03 Q1016 NOSIG', 'LTCA 131250Z 14012KT 9999 SCT035 BKN100 12/03 Q1016 NOSIG', 'LTCA 131150Z 14012KT 9999 SCT035 BKN100 12/03 Q1016 NOSIG', 'LTCA 131050Z 11011KT 9999 SCT035 BKN100 11/03 Q1017 NOSIG', 'LTCA 130950Z 13011KT 9999 SCT035 BKN100 11/03 Q1018 BECMG TL1050 27007KT', 'LTCA 130850Z 19004KT 150V290 9999 SCT035 BKN100 09/03 Q1019 NOSIG', 'LTCA 130750Z VRB02KT 9999 SCT035 BKN100 08/03 Q1020 NOSIG', 'LTCA 130650Z VRB01KT 9999 SCT035 BKN100 07/03 Q1020 NOSIG', 'LTCA 130550Z 26003KT 220V300 9999 SCT035 BKN100 06/03 Q1020 NOSIG', 'LTCA 130450Z VRB02KT 9999 SCT035 BKN100 BKN200 05/03 Q1020 NOSIG', 'LTCA 130350Z 11006KT 9999 FEW035 BKN100 BKN200 06/02 Q1020 NOSIG', 'LTCA 130250Z VRB02KT 9999 FEW035 BKN100 BKN200 05/03 Q1020 NOSIG', 'LTCA 130150Z 30004KT 9999 FEW035 BKN100 BKN200 05/03 Q1020 NOSIG', 'LTCA 130050Z VRB02KT 9999 FEW035 SCT100 BKN200 06/03 Q1020 NOSIG', 'LTCA 122350Z 21004KT 9999 FEW035 SCT100 BKN200 06/03 Q1021 NOSIG', 'LTCA 122250Z 19004KT 9999 FEW035 SCT100 BKN200 06/03 Q1021 NOSIG', 'LTCA 122150Z VRB02KT 9999 FEW035 SCT100 BKN200 05/03 Q1021 NOSIG', 'LTCA 122050Z 17004KT 140V200 9999 FEW035 SCT100 BKN200 06/03 Q1021 NOSIG', 'LTCA 121950Z 12004KT 9999 FEW035 BKN200 07/03 Q1021 NOSIG', 'LTCA 121850Z VRB01KT 9999 FEW035 BKN200 07/03 Q1021 NOSIG', 'LTCA 121750Z VRB02KT 9999 FEW035 BKN200 08/04 Q1021 NOSIG', 'LTCA 121650Z 15004KT 120V190 9999 FEW035 BKN200 09/03 Q1021 NOSIG', 'LTCA 121550Z VRB02KT 9999 FEW035 BKN200 08/04 Q1021 NOSIG', 'LTCA 121450Z 19003KT 9999 FEW035 BKN200 10/04 Q1021 NOSIG', 'LTCA 121350Z 13006KT 9999 SCT035 BKN200 12/04 Q1021 NOSIG', 'LTCA 121250Z 17006KT 9999 SCT035 BKN200 13/04 Q1021 NOSIG', 'LTCA 121150Z VRB02KT 9999 SCT035 BKN200 14/04 Q1022 NOSIG', 'LTCA 121050Z 16004KT 120V190 9999 SCT035 BKN200 11/03 Q1022 NOSIG', 'LTCA 120950Z 16005KT 100V210 9999 SCT035 BKN200 10/02 Q1024 NOSIG']","['2024-02-15 08:50:00', '2024-02-15 07:50:00', '2024-02-15 06:50:00', '2024-02-15 05:50:00', '2024-02-15 04:50:00', '2024-02-15 03:50:00', '2024-02-15 02:50:00', '2024-02-15 01:50:00', '2024-02-15 00:50:00', '2024-02-14 23:50:00', '2024-02-14 22:50:00', '2024-02-14 21:50:00', '2024-02-14 20:50:00', '2024-02-14 19:50:00', '2024-02-14 18:50:00', '2024-02-14 17:50:00', '2024-02-14 16:50:00', '2024-02-14 15:50:00', '2024-02-14 14:50:00', '2024-02-14 13:50:00', '2024-02-14 12:50:00', '2024-02-14 11:50:00', '2024-02-14 10:50:00', '2024-02-14 09:50:00', '2024-02-14 08:50:00', '2024-02-14 08:02:00', '2024-02-14 07:50:00', '2024-02-14 06:50:00', '2024-02-14 05:50:00', '2024-02-14 04:50:00', '2024-02-14 03:50:00', '2024-02-14 02:50:00', '2024-02-14 00:50:00', '2024-02-13 23:50:00', '2024-02-13 22:50:00', '2024-02-13 21:50:00', '2024-02-13 20:50:00', '2024-02-13 19:50:00', '2024-02-13 18:50:00', '2024-02-13 17:50:00', '2024-02-13 16:50:00', '2024-02-13 15:50:00', '2024-02-13 14:50:00', '2024-02-13 13:50:00', '2024-02-13 12:50:00', '2024-02-13 11:50:00', '2024-02-13 10:50:00', '2024-02-13 09:50:00', '2024-02-13 08:50:00', '2024-02-13 07:50:00', '2024-02-13 06:50:00', '2024-02-13 05:50:00', '2024-02-13 04:50:00', '2024-02-13 03:50:00', '2024-02-13 02:50:00', '2024-02-13 01:50:00', '2024-02-13 00:50:00', '2024-02-12 23:50:00', '2024-02-12 22:50:00', '2024-02-12 21:50:00', '2024-02-12 20:50:00', '2024-02-12 19:50:00', '2024-02-12 18:50:00', '2024-02-12 17:50:00', '2024-02-12 16:50:00', '2024-02-12 15:50:00', '2024-02-12 14:50:00', '2024-02-12 13:50:00', '2024-02-12 12:50:00', '2024-02-12 11:50:00', '2024-02-12 10:50:00', '2024-02-12 09:50:00']"
Turkey, Ercan International Airport (ECN/LCEN) ,"['LCEN 150850Z 08009KT 9999 FEW020CB SCT025 BKN080 14/11 Q1011 NOSIG', 'LCEN 150820Z 07006KT 9999 FEW020CB SCT025 BKN080 14/11 Q1011 NOSIG', 'LCEN 150750Z 04007KT 9999 FEW020CB SCT025 BKN080 13/11 Q1011 NOSIG', 'LCEN 150720Z 01007KT 9999 FEW020CB SCT025 BKN080 12/10 Q1011 NOSIG', 'LCEN 150700Z 06005KT 9999 FEW020CB SCT025 BKN080 12/10 Q1010 RESHRA NOSIG', 'LCEN 150620Z 21003KT 9999 -SHRA FEW020CB SCT025 BKN080 09/08 Q1011 NOSIG', 'LCEN 150550Z 21004KT 8000 -SHRA FEW020CB SCT025 BKN080 08/07 Q1010 NOSIG', 'LCEN 150520Z 24005KT 8000 FEW020CB SCT025 BKN180 07/07 Q1010 NOSIG', 'LCEN 150450Z 24005KT 8000 FEW020CB SCT025 BKN180 06/06 Q1010 NOSIG', 'LCEN 150420Z 24005KT 8000 FEW020TCU SCT025 07/06 Q1010 NOSIG', 'LCEN 150350Z 23004KT 8000 SCT025 SCT080 06/06 Q1010 NOSIG', 'LCEN 150320Z 27005KT 8000 FEW025 06/06 Q1009 NOSIG', 'LCEN 150250Z 26004KT 8000 FEW025 07/06 Q1009 NOSIG', 'LCEN 150220Z 21004KT 8000 FEW025 07/06 Q1009 NOSIG', 'LCEN 150150Z 25005KT 8000 FEW025 07/07 Q1009 NOSIG', 'LCEN 150120Z 26005KT 8000 FEW025 08/07 Q1009 NOSIG', 'LCEN 150050Z 24004KT 8000 FEW020 07/07 Q1009 NOSIG', 'LCEN 150020Z 24005KT 8000 FEW025 08/07 Q1009 NOSIG', 'LCEN 142350Z 00000KT 8000 FEW025 08/07 Q1009 NOSIG', 'LCEN 142320Z 26003KT 7000 FEW020 08/07 Q1009 NOSIG', 'LCEN 142250Z 36003KT 9999 FEW025 08/07 Q1009 NOSIG', 'LCEN 142220Z 25005KT 9000 FEW025 09/08 Q1008 NOSIG', 'LCEN 142150Z 27005KT 8000 FEW025 08/08 Q1009 NOSIG', 'LCEN 142120Z 25004KT 8000 FEW025 08/08 Q1009 NOSIG', 'LCEN 142050Z 23003KT 9999 FEW020 09/08 Q1009 NOSIG', 'LCEN 142020Z 33003KT 9999 FEW025CB 09/08 Q1008 NOSIG', 'LCEN 141950Z 26003KT 9999 FEW025CB 10/09 Q1008 NOSIG', 'LCEN 141920Z 30005KT 9999 FEW020CB 09/08 Q1009 NOSIG', 'LCEN 141850Z 25005KT 9999 SCT025 10/09 Q1008 NOSIG', 'LCEN 141820Z 25005KT 9999 SCT025 10/09 Q1008 NOSIG', 'LCEN 141750Z 23005KT 9999 SCT025 11/09 Q1008 NOSIG', 'LCEN 141720Z 24005KT 9999 FEW020CB SCT025 12/10 Q1008 NOSIG', 'LCEN 141650Z 20006KT 9999 FEW020CB SCT025 12/11 Q1008 RESHRA NOSIG', 'LCEN 141620Z 21004KT 9999 -SHRA FEW020CB SCT025 BKN080 13/11 Q1007 NOSIG', 'LCEN 141550Z 23004KT 9999 -SHRA FEW020CB SCT025 BKN080 13/11 Q1007 NOSIG', 'LCEN 141520Z 21006KT 9999 -SHRA FEW020CB SCT025 BKN080 13/11 Q1007 NOSIG', 'LCEN 141450Z 21004KT 9999 -SHRA FEW020CB SCT025 BKN080 14/11 Q1007 NOSIG', 'LCEN 141420Z 03004KT 9999 FEW020CB SCT025 14/11 Q1006 NOSIG', 'LCEN 141350Z 07005KT 9999 FEW020CB SCT025 14/09 Q1006 NOSIG', 'LCEN 141320Z 10006KT 9999 FEW020CB SCT025 14/12 Q1006 NOSIG', 'LCEN 141250Z 11007KT 9999 FEW020CB SCT025 BKN080 14/11 Q1006 RETSRA NOSIG', 'LCEN 141220Z 07005KT 9999 -TSRA FEW020CB SCT025 13/11 Q1005 NOSIG', 'LCEN 141150Z 24003KT 8000 -TSRA SCT020CB SCT025 13/10 Q1005 RETSRA NOSIG', 'LCEN 141120Z 11003KT 9999 TS FEW020CB SCT025 14/11 Q1005 RETSRA NOSIG', 'LCEN 141050Z 00000KT 9999 -TSRA FEW020CB SCT025 15/10 Q1005 RETS NOSIG', 'LCEN 141020Z 32005KT 9999 TS FEW020CB SCT025 15/10 Q1004 NOSIG', 'LCEN 140950Z 29006KT 9999 FEW020 SCT180 16/10 Q1005 NOSIG', 'LCEN 140920Z 28008KT 9999 FEW020 SCT180 15/10 Q1005 NOSIG', 'LCEN 140850Z 26011KT 9999 FEW020 SCT180 16/08 Q1005 NOSIG', 'LCEN 140820Z 27011KT 9999 FEW020 SCT180 15/09 Q1005 NOSIG', 'LCEN 140750Z 27013KT 9999 FEW020 SCT080 15/10 Q1005 NOSIG', 'LCEN 140720Z 27011KT 9999 FEW015 SCT030 BKN080 14/11 Q1005 NOSIG', 'LCEN 140650Z 28011KT 9999 FEW015 SCT030 BKN080 13/10 Q1005 NOSIG', 'LCEN 140620Z 28013KT 9999 FEW020CB SCT025 BKN080 12/10 Q1005 NOSIG', 'LCEN 140550Z 28015KT 9999 FEW020CB SCT025 BKN080 12/10 Q1005 NOSIG', 'LCEN 140520Z 27018KT 9999 FEW020CB SCT025 BKN080 12/10 Q1004 NOSIG', 'LCEN 140450Z 21011KT 9999 FEW020CB SCT025 BKN080 14/12 Q1003 NOSIG', 'LCEN 140420Z 17006KT 9999 FEW020CB SCT025 BKN100 14/12 Q1002 NOSIG', 'LCEN 140350Z 16008KT 9999 FEW020CB SCT025 BKN080 14/12 Q1001 NOSIG', 'LCEN 140320Z 15007KT 9999 FEW020CB SCT025 BKN080 14/12 Q1002 NOSIG', 'LCEN 140250Z 12007KT 9999 FEW020CB SCT025 BKN080 14/12 Q1002 RETSRA NOSIG', 'LCEN 140220Z 07011KT 8000 -TSRA FEW020CB SCT025 BKN080 14/12 Q1002 RETS NOSIG', 'LCEN 140150Z 07011KT 9999 TS FEW020 FEW025CB SCT100 14/11 Q1002 NOSIG', 'LCEN 140120Z 10007KT 9999 FEW020 FEW025CB BKN080 14/11 Q1002 NOSIG', 'LCEN 140050Z 08007KT 9999 FEW020 SCT100 15/11 Q1003 NOSIG', 'LCEN 140020Z 07006KT 9999 FEW020 SCT100 15/12 Q1003 NOSIG', 'LCEN 132350Z 05009KT 9999 FEW020 SCT100 15/11 Q1004 NOSIG', 'LCEN 132320Z 06009KT 9999 FEW020 SCT060 15/13 Q1004 RERA NOSIG', 'LCEN 132250Z 04010KT 9000 -RA FEW020 SCT060 15/13 Q1005 NOSIG', 'LCEN 132220Z 05007KT 9999 FEW020 SCT100 15/13 Q1005 NOSIG', 'LCEN 132150Z 09004KT 9999 FEW020 SCT100 15/13 Q1006 NOSIG', 'LCEN 132120Z 07005KT 9999 FEW020 SCT100 15/12 Q1006 NOSIG', 'LCEN 132050Z 02005KT 9999 FEW020 SCT025 BKN100 14/12 Q1006 NOSIG', 'LCEN 132020Z 06004KT 9999 FEW020 SCT025 BKN100 15/12 Q1007 NOSIG', 'LCEN 131950Z 28004KT 9999 FEW020 SCT025 BKN100 15/12 Q1007 NOSIG', 'LCEN 131920Z 23005KT 9999 FEW020 SCT025 BKN100 14/13 Q1007 NOSIG', 'LCEN 131850Z 24005KT 9999 FEW020 SCT025 BKN100 14/13 Q1007 NOSIG', 'LCEN 131820Z 00000KT 9999 FEW020 SCT025 BKN080 14/12 Q1007 NOSIG', 'LCEN 131750Z 06005KT 9999 FEW020 SCT025 BKN080 15/13 Q1007 NOSIG', 'LCEN 131720Z 08005KT 9999 FEW020 SCT025 BKN080 15/13 Q1007 NOSIG', 'LCEN 131650Z 10005KT 9999 FEW020 SCT025 BKN080 15/13 Q1007 NOSIG', 'LCEN 131620Z 08005KT 9999 FEW020 SCT025 BKN080 16/13 Q1007 NOSIG', 'LCEN 131550Z 11005KT 9999 FEW020 SCT025 BKN080 16/12 Q1008 NOSIG', 'LCEN 131520Z 01003KT 9999 FEW020 SCT025 BKN080 16/13 Q1007 NOSIG', 'LCEN 131450Z 05006KT 9999 FEW020 SCT025 BKN080 16/13 Q1008 RERA NOSIG', 'LCEN 131420Z 04007KT 9999 -RA FEW020 SCT025 BKN080 16/13 Q1008 NOSIG', 'LCEN 131350Z 12008KT 9999 -RA FEW020 SCT025 BKN080 17/14 Q1009 NOSIG', 'LCEN 131320Z 12010KT 9999 -RA FEW020 SCT025 BKN080 17/14 Q1008 NOSIG', 'LCEN 131250Z 05009KT 9999 FEW020 SCT025 BKN080 18/14 Q1008 NOSIG', 'LCEN 131220Z 07013KT 9999 FEW020 SCT025 BKN080 18/14 Q1008 NOSIG', 'LCEN 131150Z 07012KT 8000 FEW020 SCT025 BKN080 18/15 Q1008 NOSIG', 'LCEN 131120Z 06013KT 8000 FEW020 SCT025 BKN080 18/15 Q1008 NOSIG', 'LCEN 131050Z 07012KT 8000 FEW020 SCT025 BKN080 18/15 Q1009 NOSIG', 'LCEN 131020Z 07011KT 8000 FEW020 SCT025 BKN080 18/16 Q1009 NOSIG', 'LCEN 130950Z 06008KT 8000 FEW020 SCT025 BKN080 17/16 Q1010 RERA NOSIG', 'LCEN 130920Z 08005KT 8000 -RA FEW020 SCT025 BKN080 17/15 Q1010 NOSIG', 'LCEN 130850Z 08005KT 8000 -RA FEW020 SCT025 BKN080 16/15 Q1011 NOSIG', 'LCEN 130820Z 11006KT 8000 FEW020 BKN080 16/15 Q1011 NOSIG', 'LCEN 130750Z 07004KT 8000 FEW020 BKN100 15/15 Q1011 NOSIG', 'LCEN 130720Z 02003KT 8000 FEW020 BKN100 15/14 Q1011 NOSIG', 'LCEN 130650Z 00000KT 8000 FEW020 BKN100 14/14 Q1011 NOSIG', 'LCEN 130620Z 00000KT 5000 BR FEW020 BKN100 14/13 Q1011 NOSIG', 'LCEN 130550Z 00000KT 4000 BR FEW020 BKN100 BKN200 14/13 Q1011 NOSIG', 'LCEN 130520Z 00000KT 2500 BR FEW020 BKN100 BKN200 13/13 Q1011 NOSIG', 'LCEN 130450Z 14003KT 3000 BR FEW020 SCT110 BKN200 13/13 Q1010 NOSIG', 'LCEN 130420Z 00000KT 3000 BR FEW020 SCT130 BKN200 13/13 Q1011 NOSIG', 'LCEN 130350Z 09003KT 4000 BR FEW020 SCT130 BKN200 14/13 Q1011 NOSIG', 'LCEN 130320Z 10003KT 4000 BR FEW020 SCT100 BKN200 14/13 Q1011 NOSIG', 'LCEN 130250Z 13003KT 4000 BR FEW015 SCT100 BKN200 14/13 Q1011 NOSIG', 'LCEN 130220Z 19003KT 4000 BR FEW013 SCT100 BKN200 14/13 Q1011 NOSIG', 'LCEN 130150Z 12004KT 3000 BR SCT010 SCT100 BKN200 14/13 Q1011 NOSIG', 'LCEN 130120Z 10005KT 3000 BR FEW015 BKN130 BKN200 14/13 Q1011 NOSIG', 'LCEN 130050Z 00000KT 4000 BR FEW020 BKN120 BKN200 14/13 Q1012 NOSIG', 'LCEN 130020Z 24005KT 5000 BR FEW020 BKN140 BKN200 14/13 Q1012 NOSIG', 'LCEN 122350Z 25004KT 5000 BR FEW020 BKN140 BKN200 14/13 Q1012 NOSIG', 'LCEN 122320Z 10003KT 4000 BR FEW020 BKN140 BKN200 14/13 Q1012 NOSIG', 'LCEN 122250Z 25003KT 5000 BR FEW020 BKN140 BKN200 14/13 Q1013 NOSIG', 'LCEN 122220Z 00000KT 5000 BR FEW020 BKN130 BKN200 14/13 Q1013 NOSIG', 'LCEN 122150Z 24005KT 5000 BR FEW020 BKN140 BKN200 14/13 Q1014 NOSIG', 'LCEN 122120Z 24006KT 7000 FEW020 BKN140 BKN200 14/13 Q1014 NOSIG', 'LCEN 122050Z 00000KT 7000 FEW020 BKN140 BKN200 14/13 Q1014 NOSIG', 'LCEN 122020Z 00000KT 7000 FEW020 BKN150 BKN200 14/13 Q1014 NOSIG', 'LCEN 121950Z 07004KT 7000 FEW020 BKN150 BKN200 14/13 Q1015 NOSIG', 'LCEN 121920Z 08007KT 8000 FEW020 BKN150 BKN200 14/13 Q1015 NOSIG', 'LCEN 121850Z 07007KT 8000 FEW020 BKN150 15/13 Q1015 NOSIG', 'LCEN 121820Z 08005KT 6000 FEW020 SCT140 BKN200 15/13 Q1015 NOSIG', 'LCEN 121750Z 07004KT 6000 FEW020 SCT140 BKN200 15/14 Q1015 NOSIG', 'LCEN 121720Z 10005KT 7000 FEW020 SCT140 BKN200 15/14 Q1015 NOSIG', 'LCEN 121650Z 11008KT 8000 FEW020 SCT140 BKN200 16/14 Q1015 NOSIG', 'LCEN 121620Z 09008KT 9000 FEW020 SCT150 BKN200 16/14 Q1015 NOSIG', 'LCEN 121550Z 08009KT 9000 FEW020 SCT150 BKN200 16/14 Q1015 NOSIG', 'LCEN 121520Z 08009KT 9000 FEW020 SCT160 BKN180 16/14 Q1015 NOSIG', 'LCEN 121450Z 07011KT 9999 FEW020 SCT100 BKN180 17/14 Q1015 NOSIG', 'LCEN 121420Z 08009KT 9999 FEW020 SCT100 BKN180 17/13 Q1016 NOSIG', 'LCEN 121350Z 08013KT 9999 FEW020 BKN180 18/12 Q1015 NOSIG', 'LCEN 121320Z 08012KT 9999 FEW020 BKN180 18/13 Q1016 NOSIG', 'LCEN 121250Z 08013KT 9999 FEW020 BKN180 19/13 Q1016 NOSIG', 'LCEN 121220Z 08013KT 9999 FEW020 BKN200 19/13 Q1016 NOSIG', 'LCEN 121150Z 08013KT 9999 FEW020 BKN200 19/12 Q1016 NOSIG', 'LCEN 121120Z 08013KT 9000 FEW020 SCT160 BKN200 19/14 Q1017 NOSIG', 'LCEN 121050Z 08011KT 9000 FEW020 SCT160 OVC180 18/13 Q1017 NOSIG', 'LCEN 121020Z 07014KT 9000 FEW020 SCT160 BKN180 19/13 Q1018 NOSIG', 'LCEN 120950Z 08013KT 9000 FEW020 OVC180 19/13 Q1018 NOSIG', 'LCEN 120920Z 08011KT 9000 FEW010 BKN200 18/14 Q1019 NOSIG']","['2024-02-15 08:50:00', '2024-02-15 08:20:00', '2024-02-15 07:50:00', '2024-02-15 07:20:00', '2024-02-15 07:00:00', '2024-02-15 06:20:00', '2024-02-15 05:50:00', '2024-02-15 05:20:00', '2024-02-15 04:50:00', '2024-02-15 04:20:00', '2024-02-15 03:50:00', '2024-02-15 03:20:00', '2024-02-15 02:50:00', '2024-02-15 02:20:00', '2024-02-15 01:50:00', '2024-02-15 01:20:00', '2024-02-15 00:50:00', '2024-02-15 00:20:00', '2024-02-14 23:50:00', '2024-02-14 23:20:00', '2024-02-14 22:50:00', '2024-02-14 22:20:00', '2024-02-14 21:50:00', '2024-02-14 21:20:00', '2024-02-14 20:50:00', '2024-02-14 20:20:00', '2024-02-14 19:50:00', '2024-02-14 19:20:00', '2024-02-14 18:50:00', '2024-02-14 18:20:00', '2024-02-14 17:50:00', '2024-02-14 17:20:00', '2024-02-14 16:50:00', '2024-02-14 16:20:00', '2024-02-14 15:50:00', '2024-02-14 15:20:00', '2024-02-14 14:50:00', '2024-02-14 14:20:00', '2024-02-14 13:50:00', '2024-02-14 13:20:00', '2024-02-14 12:50:00', '2024-02-14 12:20:00', '2024-02-14 11:50:00', '2024-02-14 11:20:00', '2024-02-14 10:50:00', '2024-02-14 10:20:00', '2024-02-14 09:50:00', '2024-02-14 09:20:00', '2024-02-14 08:50:00', '2024-02-14 08:20:00', '2024-02-14 07:50:00', '2024-02-14 07:20:00', '2024-02-14 06:50:00', '2024-02-14 06:20:00', '2024-02-14 05:50:00', '2024-02-14 05:20:00', '2024-02-14 04:50:00', '2024-02-14 04:20:00', '2024-02-14 03:50:00', '2024-02-14 03:20:00', '2024-02-14 02:50:00', '2024-02-14 02:20:00', '2024-02-14 01:50:00', '2024-02-14 01:20:00', '2024-02-14 00:50:00', '2024-02-14 00:20:00', '2024-02-13 23:50:00', '2024-02-13 23:20:00', '2024-02-13 22:50:00', '2024-02-13 22:20:00', '2024-02-13 21:50:00', '2024-02-13 21:20:00', '2024-02-13 20:50:00', '2024-02-13 20:20:00', '2024-02-13 19:50:00', '2024-02-13 19:20:00', '2024-02-13 18:50:00', '2024-02-13 18:20:00', '2024-02-13 17:50:00', '2024-02-13 17:20:00', '2024-02-13 16:50:00', '2024-02-13 16:20:00', '2024-02-13 15:50:00', '2024-02-13 15:20:00', '2024-02-13 14:50:00', '2024-02-13 14:20:00', '2024-02-13 13:50:00', '2024-02-13 13:20:00', '2024-02-13 12:50:00', '2024-02-13 12:20:00', '2024-02-13 11:50:00', '2024-02-13 11:20:00', '2024-02-13 10:50:00', '2024-02-13 10:20:00', '2024-02-13 09:50:00', '2024-02-13 09:20:00', '2024-02-13 08:50:00', '2024-02-13 08:20:00', '2024-02-13 07:50:00', '2024-02-13 07:20:00', '2024-02-13 06:50:00', '2024-02-13 06:20:00', '2024-02-13 05:50:00', '2024-02-13 05:20:00', '2024-02-13 04:50:00', '2024-02-13 04:20:00', '2024-02-13 03:50:00', '2024-02-13 03:20:00', '2024-02-13 02:50:00', '2024-02-13 02:20:00', '2024-02-13 01:50:00', '2024-02-13 01:20:00', '2024-02-13 00:50:00', '2024-02-13 00:20:00', '2024-02-12 23:50:00', '2024-02-12 23:20:00', '2024-02-12 22:50:00', '2024-02-12 22:20:00', '2024-02-12 21:50:00', '2024-02-12 21:20:00', '2024-02-12 20:50:00', '2024-02-12 20:20:00', '2024-02-12 19:50:00', '2024-02-12 19:20:00', '2024-02-12 18:50:00', '2024-02-12 18:20:00', '2024-02-12 17:50:00', '2024-02-12 17:20:00', '2024-02-12 16:50:00', '2024-02-12 16:20:00', '2024-02-12 15:50:00', '2024-02-12 15:20:00', '2024-02-12 14:50:00', '2024-02-12 14:20:00', '2024-02-12 13:50:00', '2024-02-12 13:20:00', '2024-02-12 12:50:00', '2024-02-12 12:20:00', '2024-02-12 11:50:00', '2024-02-12 11:20:00', '2024-02-12 10:50:00', '2024-02-12 10:20:00', '2024-02-12 09:50:00', '2024-02-12 09:20:00']"
Turkey, Erzincan Airport (ERC/LTCD) ,"['LTCD 150850Z 00000KT 9999 SCT040 BKN080 09/02 Q1013 BECMG 12012KT', 'LTCD 150750Z 00000KT 9999 SCT040 BKN080 08/02 Q1012 TEMPO 12012KT', 'LTCD 150650Z 12009KT 9999 SCT040 BKN080 07/02 Q1012 NOSIG', 'LTCD 150550Z 14004KT 9999 SCT040 BKN080 07/03 Q1011 NOSIG', 'LTCD 150450Z 14012KT 9999 SCT040 BKN080 06/02 Q1010 NOSIG', 'LTCD 150350Z 14010KT 100V170 9999 BKN040 BKN080 07/02 Q1009 NOSIG', 'LTCD 150250Z VRB02KT 9999 BKN040 BKN080 06/03 Q1009 NOSIG', 'LTCD 150150Z VRB02KT 9999 BKN040 BKN080 06/03 Q1009 TEMPO 4000 BR', 'LTCD 150050Z VRB02KT 9999 BKN040 BKN080 05/03 Q1008 TEMPO 4000 BR', 'LTCD 142350Z VRB04KT 9999 BKN040 BKN080 05/03 Q1009 NOSIG', 'LTCD 142250Z VRB02KT 9999 BKN040 BKN080 04/03 Q1009 NOSIG', 'LTCD 142150Z VRB02KT 9999 FEW020 BKN035 OVC070 04/04 Q1010 RERA NOSIG', 'LTCD 142050Z VRB02KT 9999 -RA FEW020 BKN035 OVC070 05/04 Q1010 NOSIG', 'LTCD 141950Z VRB02KT 9999 -RA FEW020 BKN035 OVC070 05/04 Q1011 TEMPO 10015G25KT', 'LTCD 141850Z 31003KT 260V330 9999 -RA FEW020 BKN035 OVC070 05/04 Q1011 TEMPO 10015G25KT', 'LTCD 141750Z VRB02KT 9999 -RA FEW020 BKN035 OVC070 05/04 Q1012 NOSIG', 'LTCD 141650Z VRB03KT 9999 -RA FEW020 BKN035 OVC070 06/04 Q1012 NOSIG', 'LTCD 141550Z 09010KT 9999 -RA FEW020 BKN040 OVC070 06/04 Q1012 NOSIG', 'LTCD 141450Z 10004KT 9999 -RA FEW020 BKN040 OVC070 06/04 Q1012 NOSIG', 'LTCD 141350Z 12005KT 9999 -RA FEW020 BKN040 OVC070 07/04 Q1012 NOSIG', 'LTCD 141250Z 12011KT 9999 -RA FEW020 BKN040 OVC070 06/04 Q1012 TEMPO 13015G25KT', 'LTCD 141150Z 17005KT 9999 -RA FEW020 BKN040 OVC070 07/05 Q1012 TEMPO 13015G25KT', 'LTCD 141050Z 14008KT 9999 -RA BKN040 OVC070 07/05 Q1012 TEMPO 13015G25KT', 'LTCD 140950Z 13014KT 9999 -RA BKN040 BKN070 08/04 Q1012 TEMPO 13015G25KT', 'LTCD 140850Z 15014KT 9999 BKN040 BKN070 09/04 Q1013 TEMPO 13015G25KT', 'LTCD 140750Z 14015KT 9999 BKN040 BKN070 09/03 Q1013 TEMPO FM0900 13015G25KT', 'LTCD 140650Z 16012KT 9999 SCT045 BKN070 09/03 Q1013 NOSIG', 'LTCD 140550Z 14015KT 9999 -RA SCT045 BKN070 08/02 Q1014 NOSIG', 'LTCD 140450Z 13015KT 9999 SCT045 BKN070 09/01 Q1013 NOSIG', 'LTCD 140350Z 11019KT 9999 SCT045 BKN070 09/00 Q1013 NOSIG', 'LTCD 140250Z 13012KT 9999 SCT045 BKN070 09/01 Q1013 NOSIG', 'LTCD 140150Z 14005KT 110V170 9999 SCT045 BKN070 08/01 Q1014 NOSIG', 'LTCD 140050Z 15011KT 9999 SCT045 BKN070 08/02 Q1014 NOSIG', 'LTCD 132350Z 13011KT 9999 SCT045 BKN070 09/01 Q1015 NOSIG', 'LTCD 132250Z 14012KT 9999 SCT045 BKN070 08/02 Q1015 NOSIG', 'LTCD 132150Z 12014KT 9999 SCT045 BKN070 08/02 Q1016 NOSIG', 'LTCD 132050Z 12013KT 9999 SCT045 BKN070 08/02 Q1016 NOSIG', 'LTCD 131950Z 10018KT 9999 SCT045 BKN070 09/02 Q1016 NOSIG', 'LTCD 131850Z 12018KT 9999 SCT045 BKN070 09/00 Q1016 NOSIG', 'LTCD 131750Z 12010KT 9999 SCT045 BKN070 09/00 Q1016 NOSIG', 'LTCD 131650Z VRB01KT 9999 SCT045 BKN070 09/01 Q1016 BECMG 11015KT', 'LTCD 131550Z 12014KT 9999 SCT045 BKN070 09/02 Q1016 NOSIG', 'LTCD 131450Z 13018KT 9999 SCT045 BKN070 10/02 Q1016 NOSIG', 'LTCD 131350Z 12014KT 9999 SCT045 BKN070 11/01 Q1016 NOSIG', 'LTCD 131250Z 12016KT 9999 SCT045 BKN070 12/01 Q1016 NOSIG', 'LTCD 131150Z 13015KT 9999 SCT045 BKN070 12/01 Q1016 NOSIG', 'LTCD 131050Z 12018KT 9999 SCT045 BKN070 13/01 Q1016 NOSIG', 'LTCD 130950Z 12014KT 9999 SCT045 BKN070 12/01 Q1017 NOSIG', 'LTCD 130850Z 11016KT 9999 SCT045 BKN070 11/00 Q1018 NOSIG', 'LTCD 130750Z 11013KT 9999 SCT045 BKN070 11/01 Q1018 NOSIG', 'LTCD 130650Z 11014KT 9999 SCT045 BKN070 10/01 Q1019 NOSIG', 'LTCD 130625Z 12013KT 9999 SCT045 BKN070 10/01 Q1019 NOSIG', 'LTCD 130550Z VRB02KT 9999 SCT045 BKN070 09/01 Q1019 BECMG 11015KT', 'LTCD 130450Z 27002KT 9999 BKN090 07/M00 Q1019 BECMG TL0600 11015KT', 'LTCD 130350Z VRB02KT 9999 BKN090 04/M01 Q1018 NOSIG', 'LTCD 130250Z VRB02KT 9999 BKN090 04/M01 Q1019 NOSIG', 'LTCD 130150Z VRB02KT 9999 BKN090 05/M01 Q1019 NOSIG', 'LTCD 130050Z VRB02KT 9999 BKN090 02/M01 Q1019 NOSIG', 'LTCD 122350Z VRB02KT 9999 BKN090 04/M01 Q1020 NOSIG', 'LTCD 122250Z VRB02KT 9999 BKN090 07/M01 Q1020 NOSIG', 'LTCD 122150Z 16004KT 120V190 9999 BKN090 07/M00 Q1020 NOSIG', 'LTCD 122050Z VRB02KT 9999 BKN090 07/M01 Q1021 NOSIG', 'LTCD 121950Z VRB02KT 9999 BKN090 07/M01 Q1021 NOSIG', 'LTCD 121850Z VRB01KT 9999 BKN090 07/M01 Q1021 NOSIG', 'LTCD 121750Z VRB02KT 9999 BKN090 07/M00 Q1020 NOSIG', 'LTCD 121650Z 15004KT 110V200 9999 BKN090 09/M00 Q1020 NOSIG', 'LTCD 121550Z 11010KT 9999 BKN090 09/M00 Q1021 NOSIG', 'LTCD 121450Z 11010KT 9999 BKN090 10/M00 Q1021 NOSIG', 'LTCD 121350Z 11011KT 9999 BKN090 12/M00 Q1021 NOSIG', 'LTCD 121250Z 11009KT 9999 SCT090 BKN180 13/M02 Q1020 NOSIG', 'LTCD 121150Z 19003KT 140V240 CAVOK 13/M01 Q1021 NOSIG', 'LTCD 121050Z 13004KT 080V180 CAVOK 12/00 Q1022 NOSIG', 'LTCD 120950Z 11001KT CAVOK 12/00 Q1023 NOSIG']","['2024-02-15 08:50:00', '2024-02-15 07:50:00', '2024-02-15 06:50:00', '2024-02-15 05:50:00', '2024-02-15 04:50:00', '2024-02-15 03:50:00', '2024-02-15 02:50:00', '2024-02-15 01:50:00', '2024-02-15 00:50:00', '2024-02-14 23:50:00', '2024-02-14 22:50:00', '2024-02-14 21:50:00', '2024-02-14 20:50:00', '2024-02-14 19:50:00', '2024-02-14 18:50:00', '2024-02-14 17:50:00', '2024-02-14 16:50:00', '2024-02-14 15:50:00', '2024-02-14 14:50:00', '2024-02-14 13:50:00', '2024-02-14 12:50:00', '2024-02-14 11:50:00', '2024-02-14 10:50:00', '2024-02-14 09:50:00', '2024-02-14 08:50:00', '2024-02-14 07:50:00', '2024-02-14 06:50:00', '2024-02-14 05:50:00', '2024-02-14 04:50:00', '2024-02-14 03:50:00', '2024-02-14 02:50:00', '2024-02-14 01:50:00', '2024-02-14 00:50:00', '2024-02-13 23:50:00', '2024-02-13 22:50:00', '2024-02-13 21:50:00', '2024-02-13 20:50:00', '2024-02-13 19:50:00', '2024-02-13 18:50:00', '2024-02-13 17:50:00', '2024-02-13 16:50:00', '2024-02-13 15:50:00', '2024-02-13 14:50:00', '2024-02-13 13:50:00', '2024-02-13 12:50:00', '2024-02-13 11:50:00', '2024-02-13 10:50:00', '2024-02-13 09:50:00', '2024-02-13 08:50:00', '2024-02-13 07:50:00', '2024-02-13 06:50:00', '2024-02-13 06:25:00', '2024-02-13 05:50:00', '2024-02-13 04:50:00', '2024-02-13 03:50:00', '2024-02-13 02:50:00', '2024-02-13 01:50:00', '2024-02-13 00:50:00', '2024-02-12 23:50:00', '2024-02-12 22:50:00', '2024-02-12 21:50:00', '2024-02-12 20:50:00', '2024-02-12 19:50:00', '2024-02-12 18:50:00', '2024-02-12 17:50:00', '2024-02-12 16:50:00', '2024-02-12 15:50:00', '2024-02-12 14:50:00', '2024-02-12 13:50:00', '2024-02-12 12:50:00', '2024-02-12 11:50:00', '2024-02-12 10:50:00', '2024-02-12 09:50:00']"
Turkey, Erzurum Airport (ERZ/LTCE) ,"['LTCE 150850Z 23008KT 190V260 9999 BKN025 BKN070 06/M01 Q1013 NOSIG', 'LTCE 150820Z 06007KT 010V120 9999 BKN025 BKN070 06/01 Q1013 NOSIG', 'LTCE 150750Z 10006KT 060V160 9999 BKN025 BKN070 05/01 Q1013 NOSIG', 'LTCE 150720Z 09006KT 9999 BKN025 BKN070 04/01 Q1013 NOSIG', 'LTCE 150650Z 08006KT 9999 BKN025 BKN070 04/01 Q1013 NOSIG', 'LTCE 150620Z 09006KT 030V120 9999 BKN025 BKN070 05/01 Q1013 NOSIG', 'LTCE 150550Z 10008KT 070V130 9999 BKN025 BKN070 03/01 Q1012 NOSIG', 'LTCE 150520Z 10011KT 9999 BKN025 BKN070 03/00 Q1012 RERA NOSIG', 'LTCE 150450Z 09012KT 9999 -RA BKN025 BKN070 02/00 Q1012 NOSIG', 'LTCE 150420Z 09015KT 9999 BKN025 BKN070 02/00 Q1012 NOSIG', 'LTCE 150350Z 09016KT 9999 BKN025 BKN070 01/M00 Q1011 RESNRA NOSIG', 'LTCE 150320Z 07015KT 9999 -SNRA BKN025 BKN070 01/M00 Q1011 RESN NOSIG', 'LTCE 150250Z 08014KT 4000 -SN BKN025 BKN070 01/00 Q1011 RESNRA NOSIG', 'LTCE 150220Z 09014KT 9999 -SNRA BKN025 BKN070 02/00 Q1011 TEMPO FM0300 4000', 'LTCE 150150Z 07014KT 9999 BKN025 BKN070 02/01 Q1011 TEMPO FM0300 4000', 'LTCE 150120Z 10012KT 9999 BKN025 BKN070 02/00 Q1011 TEMPO FM0300 4000', 'LTCE 150050Z 09013KT 9999 BKN025 BKN070 02/01 Q1010 NOSIG', 'LTCE 150020Z 08012KT 9999 BKN025 BKN070 02/00 Q1011 NOSIG', 'LTCE 142350Z 09015KT 9999 BKN025 BKN070 02/00 Q1011 NOSIG', 'LTCE 142320Z 09012KT 9999 BKN025 BKN070 02/00 Q1012 NOSIG', 'LTCE 142250Z 10013KT 9999 BKN025 BKN070 02/00 Q1012 NOSIG', 'LTCE 142220Z 10017KT 9999 BKN025 BKN070 01/00 Q1012 NOSIG', 'LTCE 142150Z 09015KT 9999 BKN025 BKN070 02/01 Q1012 RERASN NOSIG', 'LTCE 142120Z 09012KT 9000 -RASN BKN025 BKN070 02/01 Q1012 NOSIG', 'LTCE 142050Z 09013KT 9999 -RASN BKN025 BKN070 03/01 Q1012 NOSIG', 'LTCE 142020Z 09010KT 9999 BKN025 BKN070 03/00 Q1013 NOSIG', 'LTCE 141950Z 10012KT 9999 BKN025 BKN070 04/00 Q1012 NOSIG', 'LTCE 141920Z 07011KT 9999 BKN025 BKN070 03/00 Q1013 NOSIG', 'LTCE 141850Z 09012KT 9999 BKN025 BKN070 03/00 Q1013 NOSIG', 'LTCE 141820Z 10012KT 9999 BKN025 BKN070 03/01 Q1013 NOSIG', 'LTCE 141750Z 10016KT 9999 BKN025 BKN070 04/00 Q1013 NOSIG', 'LTCE 141720Z 10008KT 9999 BKN025 BKN070 04/00 Q1014 NOSIG', 'LTCE 141650Z 09012KT 050V110 9999 BKN025 BKN070 04/00 Q1013 NOSIG', 'LTCE 141620Z 09015KT 9999 BKN025 BKN070 04/01 Q1013 NOSIG', 'LTCE 141550Z 07015KT 9999 BKN025 BKN070 04/01 Q1014 NOSIG', 'LTCE 141520Z 07012KT 9999 BKN025 BKN070 03/01 Q1014 NOSIG', 'LTCE 141450Z 09016G26KT 9999 BKN025 BKN070 04/01 Q1013 NOSIG', 'LTCE 141420Z 08011KT 9999 BKN025 BKN070 03/01 Q1014 NOSIG', 'LTCE 141350Z 08012KT 9999 BKN025 BKN070 03/01 Q1013 NOSIG', 'LTCE 141320Z 09014KT 9999 BKN025 BKN070 03/01 Q1014 NOSIG', 'LTCE 141250Z 09011KT 9999 BKN025 BKN070 03/01 Q1014 RERASN NOSIG', 'LTCE 141220Z 10012KT 9999 BKN025 BKN070 03/01 Q1013 NOSIG', 'LTCE 141150Z 10013KT 9999 BKN025 BKN070 03/01 Q1013 NOSIG', 'LTCE 141120Z 10014KT 070V130 9999 BKN025 BKN070 03/00 Q1013 NOSIG', 'LTCE 141050Z 10013KT 9999 BKN025 BKN070 03/01 Q1014 NOSIG', 'LTCE 141020Z 09016KT 9999 BKN035 BKN070 03/01 Q1014 NOSIG', 'LTCE 140950Z 10013KT 9999 BKN035 BKN070 04/01 Q1015 NOSIG', 'LTCE 140920Z 10015KT 9999 BKN035 BKN070 03/01 Q1015 NOSIG', 'LTCE 140850Z 10013KT 9999 BKN035 BKN070 04/01 Q1015 RERASN NOSIG', 'LTCE 140820Z 11016KT 8000 -RASN BKN025 BKN070 02/M00 Q1016 NOSIG', 'LTCE 140750Z 10013G23KT 9999 BKN035 BKN070 03/M00 Q1015 NOSIG', 'LTCE 140720Z 10013KT 9999 BKN035 BKN070 03/M00 Q1016 NOSIG', 'LTCE 140650Z 10014KT 9999 BKN035 BKN070 03/M01 Q1016 NOSIG', 'LTCE 140620Z 08015KT 9999 BKN035 BKN070 03/M00 Q1016 NOSIG', 'LTCE 140550Z 08015KT 9999 BKN035 BKN070 03/M01 Q1016 NOSIG', 'LTCE 140520Z 11006KT 080V140 9999 BKN035 BKN070 03/M02 Q1016 NOSIG', 'LTCE 140450Z 33004KT 290V050 9999 BKN035 BKN070 02/M01 Q1016 NOSIG', 'LTCE 140420Z 12004KT 090V170 9999 BKN035 BKN070 01/M01 Q1016 NOSIG', 'LTCE 140350Z 04003KT 350V110 9999 BKN035 BKN070 02/M02 Q1016 NOSIG', 'LTCE 140320Z 34004KT 320V020 9999 BKN035 BKN070 02/M02 Q1016 NOSIG', 'LTCE 140250Z 07005KT 9999 BKN035 BKN070 02/M02 Q1016 NOSIG', 'LTCE 140220Z 05006KT 350V070 9999 BKN035 BKN070 03/M02 Q1016 NOSIG', 'LTCE 140150Z 08004KT 050V110 9999 BKN035 BKN070 03/M02 Q1016 NOSIG', 'LTCE 140120Z 01003KT 330V070 9999 BKN035 BKN070 02/M02 Q1016 NOSIG', 'LTCE 140050Z 07004KT 040V100 9999 BKN035 BKN070 02/M02 Q1016 NOSIG', 'LTCE 140020Z 07005KT 020V110 9999 BKN035 BKN070 02/M02 Q1017 NOSIG', 'LTCE 132350Z 08006KT 9999 BKN035 BKN070 02/M02 Q1017 NOSIG', 'LTCE 132320Z 11004KT 010V150 9999 BKN035 BKN070 02/M02 Q1017 NOSIG', 'LTCE 132250Z 11006KT 070V150 9999 BKN035 BKN070 02/M02 Q1017 NOSIG', 'LTCE 132220Z VRB03KT 9999 BKN035 BKN070 02/M02 Q1017 NOSIG', 'LTCE 132150Z VRB02KT 9999 BKN035 BKN070 02/M02 Q1018 NOSIG', 'LTCE 132120Z VRB02KT 9999 BKN035 BKN070 02/M02 Q1018 NOSIG', 'LTCE 132050Z VRB01KT 9999 BKN035 BKN070 03/M03 Q1018 NOSIG', 'LTCE 132020Z VRB02KT 9999 SCT035 BKN070 02/M02 Q1018 NOSIG', 'LTCE 131950Z 07004KT 040V110 9999 SCT035 BKN070 03/M02 Q1018 NOSIG', 'LTCE 131920Z 01004KT 340V120 9999 SCT035 BKN070 02/M01 Q1018 NOSIG', 'LTCE 131850Z VRB03KT 9999 SCT035 BKN070 02/M01 Q1018 NOSIG', 'LTCE 131820Z VRB02KT 9999 SCT035 BKN070 02/M01 Q1019 NOSIG', 'LTCE 131750Z VRB02KT 9999 SCT035 BKN070 03/M02 Q1018 NOSIG', 'LTCE 131720Z VRB01KT 9999 SCT035 BKN070 03/M01 Q1018 NOSIG', 'LTCE 131650Z VRB01KT 9999 SCT035 BKN070 03/M01 Q1019 NOSIG', 'LTCE 131620Z 34007KT 9999 SCT035 BKN070 02/M01 Q1019 NOSIG', 'LTCE 131550Z VRB02KT 9999 SCT035 BKN070 03/M01 Q1019 NOSIG', 'LTCE 131520Z 01003KT 330V040 9999 SCT035 BKN070 04/M01 Q1018 NOSIG', 'LTCE 131450Z 35003KT 9999 SCT035 BKN070 04/M00 Q1018 NOSIG', 'LTCE 131420Z VRB02KT 9999 SCT035 BKN070 05/00 Q1018 NOSIG', 'LTCE 131350Z 09004KT 060V120 9999 SCT035 BKN070 05/00 Q1019 NOSIG', 'LTCE 131320Z 06004KT 9999 SCT035 BKN070 06/M01 Q1018 NOSIG', 'LTCE 131250Z 36004KT 9999 SCT035 BKN070 05/M00 Q1019 NOSIG', 'LTCE 131220Z 07006KT 9999 SCT035 BKN070 06/M02 Q1019 NOSIG', 'LTCE 131150Z 04006KT 9999 SCT035 BKN070 06/M01 Q1019 NOSIG', 'LTCE 131120Z 09004KT 060V120 9999 SCT035 BKN070 06/M02 Q1019 NOSIG', 'LTCE 131050Z 09004KT 050V120 9999 SCT035 BKN070 06/M03 Q1019 NOSIG', 'LTCE 131020Z 08003KT 360V140 9999 SCT040 BKN100 06/M02 Q1020 NOSIG', 'LTCE 130950Z VRB02KT 9999 SCT040 BKN100 06/M02 Q1020 NOSIG', 'LTCE 130920Z 04006KT 360V070 9999 SCT040 BKN100 06/M02 Q1020 NOSIG', 'LTCE 130850Z 33005KT 9999 SCT040 BKN100 04/M02 Q1020 NOSIG', 'LTCE 130820Z VRB04KT 9999 SCT040 BKN100 04/M02 Q1021 NOSIG', 'LTCE 130750Z 09005KT 050V130 9999 SCT040 BKN100 03/M03 Q1021 NOSIG', 'LTCE 130720Z VRB02KT 9999 SCT040 BKN100 02/M03 Q1021 NOSIG', 'LTCE 130650Z 04004KT 9999 SCT040 BKN100 01/M03 Q1021 NOSIG', 'LTCE 130620Z 06005KT 020V090 9999 SCT040 BKN100 01/M03 Q1021 NOSIG', 'LTCE 130550Z 08006KT 050V130 9999 SCT040 BKN100 00/M03 Q1021 NOSIG', 'LTCE 130520Z VRB03KT 9999 SCT040 BKN100 M01/M03 Q1021 NOSIG', 'LTCE 130450Z 00000KT 9999 SCT040 BKN100 M02/M04 Q1021 NOSIG', 'LTCE 130420Z VRB02KT 9999 SCT040 BKN100 M02/M04 Q1021 NOSIG', 'LTCE 130350Z 22004KT 9999 SCT040 BKN100 M02/M03 Q1021 NOSIG', 'LTCE 130320Z 15003KT 130V190 9999 SCT040 BKN100 M02/M04 Q1021 NOSIG', 'LTCE 130250Z VRB02KT 9999 SCT040 BKN100 M02/M04 Q1021 NOSIG', 'LTCE 130220Z 25003KT 140V310 CAVOK M02/M04 Q1021 NOSIG', 'LTCE 130150Z 00000KT 9999 SCT040 BKN100 M03/M04 Q1021 NOSIG', 'LTCE 130120Z VRB01KT 9999 SCT040 BKN100 M02/M04 Q1021 NOSIG', 'LTCE 130050Z VRB01KT 9999 SCT040 BKN100 M02/M04 Q1021 NOSIG', 'LTCE 130020Z 30004KT 270V340 9999 SCT040 BKN100 M02/M03 Q1021 NOSIG', 'LTCE 122350Z 12002KT 9999 SCT040 BKN100 M02/M03 Q1021 NOSIG', 'LTCE 122320Z VRB01KT 9999 SCT040 BKN100 M02/M03 Q1022 NOSIG', 'LTCE 122250Z VRB02KT 9999 SCT040 BKN100 M02/M03 Q1022 NOSIG', 'LTCE 122220Z VRB02KT 9999 SCT040 BKN100 M02/M03 Q1022 NOSIG', 'LTCE 122150Z VRB02KT 9999 SCT040 BKN100 M02/M04 Q1022 NOSIG', 'LTCE 122120Z VRB02KT 9999 SCT040 BKN100 M02/M03 Q1022 NOSIG', 'LTCE 122050Z VRB02KT 9999 SCT040 BKN100 M01/M03 Q1022 NOSIG', 'LTCE 122020Z VRB02KT 9999 SCT040 BKN100 M01/M03 Q1023 NOSIG', 'LTCE 121950Z 04003KT 360V090 9999 SCT040 BKN100 M01/M03 Q1022 NOSIG', 'LTCE 121920Z VRB02KT 9999 SCT040 BKN100 M01/M03 Q1023 NOSIG', 'LTCE 121850Z 09004KT 9999 SCT040 BKN100 00/M03 Q1023 NOSIG', 'LTCE 121820Z 08003KT 060V120 9999 SCT040 BKN100 M01/M03 Q1023 NOSIG', 'LTCE 121750Z 14004KT 9999 SCT040 BKN100 M01/M02 Q1023 NOSIG', 'LTCE 121720Z 09004KT 050V110 9999 SCT040 BKN100 M00/M02 Q1023 NOSIG', 'LTCE 121650Z VRB02KT 9999 SCT040 BKN100 M01/M02 Q1023 NOSIG', 'LTCE 121620Z VRB03KT 9999 SCT040 BKN100 M00/M02 Q1023 NOSIG', 'LTCE 121550Z 24003KT 9999 SCT040 BKN100 M00/M02 Q1023 NOSIG', 'LTCE 121520Z 29003KT 9999 SCT040 BKN100 00/M02 Q1023 NOSIG', 'LTCE 121450Z 35003KT 9999 SCT040 BKN100 01/M01 Q1022 NOSIG', 'LTCE 121420Z 07004KT 040V100 9999 SCT040 BKN100 02/M01 Q1022 NOSIG', 'LTCE 121350Z 10005KT 9999 SCT040 BKN100 03/M01 Q1022 NOSIG', 'LTCE 121320Z 09007KT 9999 SCT040 BKN100 04/M01 Q1022 NOSIG', 'LTCE 121250Z 09006KT 9999 SCT040 BKN100 04/M02 Q1023 NOSIG', 'LTCE 121220Z 05005KT 9999 SCT040 BKN100 04/M03 Q1023 NOSIG', 'LTCE 121150Z 07004KT 010V110 9999 SCT040 BKN100 05/M03 Q1023 NOSIG', 'LTCE 121120Z 02005KT 340V070 9999 SCT040 BKN100 04/M03 Q1023 NOSIG', 'LTCE 121050Z 05007KT 020V080 9999 SCT040 BKN100 04/M01 Q1024 NOSIG', 'LTCE 121020Z 09009KT 9999 SCT040 BKN100 04/M02 Q1024 NOSIG', 'LTCE 120950Z 07009KT 030V090 9999 SCT040 BKN100 03/M03 Q1024 NOSIG', 'LTCE 120920Z 06008KT 040V110 9999 SCT040 BKN100 03/M03 Q1024 NOSIG']","['2024-02-15 08:50:00', '2024-02-15 08:20:00', '2024-02-15 07:50:00', '2024-02-15 07:20:00', '2024-02-15 06:50:00', '2024-02-15 06:20:00', '2024-02-15 05:50:00', '2024-02-15 05:20:00', '2024-02-15 04:50:00', '2024-02-15 04:20:00', '2024-02-15 03:50:00', '2024-02-15 03:20:00', '2024-02-15 02:50:00', '2024-02-15 02:20:00', '2024-02-15 01:50:00', '2024-02-15 01:20:00', '2024-02-15 00:50:00', '2024-02-15 00:20:00', '2024-02-14 23:50:00', '2024-02-14 23:20:00', '2024-02-14 22:50:00', '2024-02-14 22:20:00', '2024-02-14 21:50:00', '2024-02-14 21:20:00', '2024-02-14 20:50:00', '2024-02-14 20:20:00', '2024-02-14 19:50:00', '2024-02-14 19:20:00', '2024-02-14 18:50:00', '2024-02-14 18:20:00', '2024-02-14 17:50:00', '2024-02-14 17:20:00', '2024-02-14 16:50:00', '2024-02-14 16:20:00', '2024-02-14 15:50:00', '2024-02-14 15:20:00', '2024-02-14 14:50:00', '2024-02-14 14:20:00', '2024-02-14 13:50:00', '2024-02-14 13:20:00', '2024-02-14 12:50:00', '2024-02-14 12:20:00', '2024-02-14 11:50:00', '2024-02-14 11:20:00', '2024-02-14 10:50:00', '2024-02-14 10:20:00', '2024-02-14 09:50:00', '2024-02-14 09:20:00', '2024-02-14 08:50:00', '2024-02-14 08:20:00', '2024-02-14 07:50:00', '2024-02-14 07:20:00', '2024-02-14 06:50:00', '2024-02-14 06:20:00', '2024-02-14 05:50:00', '2024-02-14 05:20:00', '2024-02-14 04:50:00', '2024-02-14 04:20:00', '2024-02-14 03:50:00', '2024-02-14 03:20:00', '2024-02-14 02:50:00', '2024-02-14 02:20:00', '2024-02-14 01:50:00', '2024-02-14 01:20:00', '2024-02-14 00:50:00', '2024-02-14 00:20:00', '2024-02-13 23:50:00', '2024-02-13 23:20:00', '2024-02-13 22:50:00', '2024-02-13 22:20:00', '2024-02-13 21:50:00', '2024-02-13 21:20:00', '2024-02-13 20:50:00', '2024-02-13 20:20:00', '2024-02-13 19:50:00', '2024-02-13 19:20:00', '2024-02-13 18:50:00', '2024-02-13 18:20:00', '2024-02-13 17:50:00', '2024-02-13 17:20:00', '2024-02-13 16:50:00', '2024-02-13 16:20:00', '2024-02-13 15:50:00', '2024-02-13 15:20:00', '2024-02-13 14:50:00', '2024-02-13 14:20:00', '2024-02-13 13:50:00', '2024-02-13 13:20:00', '2024-02-13 12:50:00', '2024-02-13 12:20:00', '2024-02-13 11:50:00', '2024-02-13 11:20:00', '2024-02-13 10:50:00', '2024-02-13 10:20:00', '2024-02-13 09:50:00', '2024-02-13 09:20:00', '2024-02-13 08:50:00', '2024-02-13 08:20:00', '2024-02-13 07:50:00', '2024-02-13 07:20:00', '2024-02-13 06:50:00', '2024-02-13 06:20:00', '2024-02-13 05:50:00', '2024-02-13 05:20:00', '2024-02-13 04:50:00', '2024-02-13 04:20:00', '2024-02-13 03:50:00', '2024-02-13 03:20:00', '2024-02-13 02:50:00', '2024-02-13 02:20:00', '2024-02-13 01:50:00', '2024-02-13 01:20:00', '2024-02-13 00:50:00', '2024-02-13 00:20:00', '2024-02-12 23:50:00', '2024-02-12 23:20:00', '2024-02-12 22:50:00', '2024-02-12 22:20:00', '2024-02-12 21:50:00', '2024-02-12 21:20:00', '2024-02-12 20:50:00', '2024-02-12 20:20:00', '2024-02-12 19:50:00', '2024-02-12 19:20:00', '2024-02-12 18:50:00', '2024-02-12 18:20:00', '2024-02-12 17:50:00', '2024-02-12 17:20:00', '2024-02-12 16:50:00', '2024-02-12 16:20:00', '2024-02-12 15:50:00', '2024-02-12 15:20:00', '2024-02-12 14:50:00', '2024-02-12 14:20:00', '2024-02-12 13:50:00', '2024-02-12 13:20:00', '2024-02-12 12:50:00', '2024-02-12 12:20:00', '2024-02-12 11:50:00', '2024-02-12 11:20:00', '2024-02-12 10:50:00', '2024-02-12 10:20:00', '2024-02-12 09:50:00', '2024-02-12 09:20:00']"
Turkey, Eskisehir Airport (AOE/LTBY) ,"['LTBY 150850Z 33009KT 9999 SCT020 BKN035 05/03 Q1013', 'LTBY 150750Z 32008KT 290V360 9999 FEW015 BKN030 05/03 Q1013 RERA', 'LTBY 150650Z 34009KT 290V360 9999 -RA FEW015 BKN030 05/02 Q1012', 'LTBY 150550Z 33010G21KT 270V020 9999 FEW015 BKN030 05/01 Q1011', 'LTBY 150450Z 29010KT 260V330 9999 FEW015 BKN030 04/01 Q1011', 'LTBY 150350Z 30010KT 250V340 9999 FEW015 SCT030 BKN090 04/02 Q1010', 'LTBY 150250Z 33008KT 290V360 9999 FEW015 SCT030 BKN090 04/02 Q1010', 'LTBY 150150Z 32007G18KT 240V030 9999 FEW015 SCT030 BKN090 04/02 Q1010', 'LTBY 150050Z 31007KT 270V020 9999 FEW015 SCT030 BKN090 04/01 Q1010', 'LTBY 142350Z 29007KT 240V010 9999 FEW015 SCT030 BKN090 04/01 Q1010', 'LTBY 142250Z 25008KT 210V280 9999 FEW015 SCT030 BKN090 04/02 Q1010', 'LTBY 142150Z 23008KT 9999 FEW015 SCT030 BKN090 04/03 Q1010 RERA', 'LTBY 142050Z 26005KT 200V330 9999 -RA FEW015 SCT030 BKN090 04/02 Q1010', 'LTBY 141950Z 25006KT 200V290 9999 -RA FEW015 SCT030 BKN090 04/03 Q1010', 'LTBY 141850Z VRB06KT 9999 -RA BKN030 BKN090 05/02 Q1009', 'LTBY 141750Z 33012G33KT 280V020 9999 -RA SCT030 BKN090 05/02 Q1008', 'LTBY 141650Z 33012G24KT 280V360 9999 -RA SCT030 BKN090 05/02 Q1009', 'LTBY 141550Z 35009G20KT 280V080 9999 -RA FEW015 BKN030 BKN100 06/03 Q1008', 'LTBY 141450Z 35010G22KT 300V030 9999 -RA FEW015 BKN030 BKN100 06/03 Q1008', 'LTBY 141350Z 33013KT 300V360 9999 -RA FEW015 BKN030 BKN100 06/04 Q1008', 'LTBY 141250Z 34011KT 300V360 9999 FEW015 BKN030 BKN100 08/04 Q1007', 'LTBY 141150Z 35011KT 8000 FEW015 BKN030 BKN100 07/04 Q1008', 'LTBY 141050Z 34008KT 8000 FEW015 BKN030 BKN100 08/04 Q1008', 'LTBY 140950Z 35008KT 8000 FEW022 BKN030 BKN100 08/04 Q1009', 'LTBY 140850Z 33006KT 300V010 6000 SCT020 BKN030 BKN100 08/04 Q1009', 'LTBY 140750Z 00000KT 6000 SCT020 BKN030 BKN100 08/05 Q1009', 'LTBY 140650Z VRB02KT 6000 SCT020 BKN030 BKN100 07/05 Q1009', 'LTBY 140550Z VRB02KT 6000 FEW015 BKN030 BKN100 05/04 Q1009', 'LTBY 140450Z 00000KT 9999 FEW015 BKN030 BKN100 04/03 Q1009', 'LTBY 140350Z 00000KT 9999 SCT035 BKN100 04/03 Q1009', 'LTBY 140250Z 24004KT 9999 SCT035 BKN100 04/04 Q1009', 'LTBY 140150Z 23002KT 9999 SCT035 BKN100 03/03 Q1009', 'LTBY 140050Z 21001KT 9999 SCT035 BKN100 02/02 Q1009', 'LTBY 132350Z 26003KT 9999 SCT035 BKN100 02/01 Q1009', 'LTBY 132250Z VRB02KT 9999 FEW040 BKN100 01/01 Q1010', 'LTBY 132150Z 00000KT 9999 SCT035 BKN100 02/02 Q1010', 'LTBY 132050Z 00000KT 9999 SCT035 BKN100 02/01 Q1009', 'LTBY 131950Z 07004KT 040V100 9999 SCT035 BKN100 04/03 Q1009', 'LTBY 131850Z 12004KT 9999 SCT035 BKN100 06/04 Q1010', 'LTBY 131750Z 09003KT 9999 SCT030 BKN090 06/04 Q1009', 'LTBY 131650Z 10004KT 060V140 9999 SCT030 BKN090 07/05 Q1009', 'LTBY 131550Z 08005KT 060V120 9999 SCT030 BKN090 08/06 Q1008', 'LTBY 131450Z 12004KT 080V140 9999 SCT030 BKN090 09/05 Q1008', 'LTBY 131350Z 09009KT 060V120 9999 SCT030 BKN090 10/05 Q1008', 'LTBY 131250Z 09009KT 9999 SCT030 BKN090 10/06 Q1008 RESHRA', 'LTBY 131150Z 10007KT 060V140 9999 -SHRA SCT035 BKN090 10/06 Q1008', 'LTBY 131050Z 11008KT 050V140 9999 SCT035 BKN090 10/04 Q1009', 'LTBY 130950Z 10006KT 050V160 9999 SCT040 BKN100 10/04 Q1010', 'LTBY 130850Z 15008KT 110V190 9999 SCT035 BKN090 09/03 Q1010', 'LTBY 130750Z 10005KT 060V130 9999 SCT035 BKN090 08/04 Q1010', 'LTBY 130650Z 14003KT 100V190 9999 SCT035 BKN090 08/03 Q1010', 'LTBY 130550Z 07007KT 020V100 9999 SCT035 BKN090 07/03 Q1010', 'LTBY 130450Z 10005KT 020V160 9999 SCT035 BKN090 07/02 Q1009', 'LTBY 130350Z 06005KT 030V110 9999 SCT035 BKN100 06/03 Q1009', 'LTBY 130250Z 12009KT 090V150 9999 SCT035 BKN100 07/04 Q1008', 'LTBY 130150Z 13009KT 080V160 9999 SCT035 BKN100 08/04 Q1009', 'LTBY 130050Z 12007KT 060V160 9999 SCT035 BKN100 08/05 Q1009 RESHRA', 'LTBY 122350Z 10004KT 9999 -SHRA SCT035 BKN100 06/05 Q1009', 'LTBY 122250Z 13004KT 080V150 9999 -SHRA SCT035 BKN100 08/05 Q1010', 'LTBY 122150Z 14003KT 9999 SCT035 BKN100 09/03 Q1010 RESHRA', 'LTBY 122050Z 10006KT 050V140 9999 SCT040 BKN100 09/01 Q1010', 'LTBY 121950Z 10005KT 070V140 9999 SCT040 BKN100 10/02 Q1011', 'LTBY 121850Z 10005KT 070V160 9999 SCT035 BKN100 10/01 Q1011', 'LTBY 121750Z 14008KT 110V180 9999 SCT035 BKN100 12/01 Q1011', 'LTBY 121650Z 14008KT 100V180 9999 SCT035 BKN100 12/01 Q1011', 'LTBY 121550Z 11006KT 050V150 9999 BKN035 BKN100 13/03 Q1011', 'LTBY 121450Z 15011KT 110V180 9999 BKN035 BKN100 14/03 Q1010', 'LTBY 121350Z 15011KT 9999 SCT035 BKN100 15/01 Q1010', 'LTBY 121250Z 16012KT 130V190 9999 SCT035 BKN100 16/M01 Q1011', 'LTBY 121150Z 16011KT 130V190 9999 SCT035 BKN100 17/01 Q1011', 'LTBY 121050Z 17010KT 130V200 9999 SCT035 BKN100 16/01 Q1013', 'LTBY 120950Z 12009KT 080V140 9999 FEW040 SCT100 16/01 Q1013']","['2024-02-15 08:50:00', '2024-02-15 07:50:00', '2024-02-15 06:50:00', '2024-02-15 05:50:00', '2024-02-15 04:50:00', '2024-02-15 03:50:00', '2024-02-15 02:50:00', '2024-02-15 01:50:00', '2024-02-15 00:50:00', '2024-02-14 23:50:00', '2024-02-14 22:50:00', '2024-02-14 21:50:00', '2024-02-14 20:50:00', '2024-02-14 19:50:00', '2024-02-14 18:50:00', '2024-02-14 17:50:00', '2024-02-14 16:50:00', '2024-02-14 15:50:00', '2024-02-14 14:50:00', '2024-02-14 13:50:00', '2024-02-14 12:50:00', '2024-02-14 11:50:00', '2024-02-14 10:50:00', '2024-02-14 09:50:00', '2024-02-14 08:50:00', '2024-02-14 07:50:00', '2024-02-14 06:50:00', '2024-02-14 05:50:00', '2024-02-14 04:50:00', '2024-02-14 03:50:00', '2024-02-14 02:50:00', '2024-02-14 01:50:00', '2024-02-14 00:50:00', '2024-02-13 23:50:00', '2024-02-13 22:50:00', '2024-02-13 21:50:00', '2024-02-13 20:50:00', '2024-02-13 19:50:00', '2024-02-13 18:50:00', '2024-02-13 17:50:00', '2024-02-13 16:50:00', '2024-02-13 15:50:00', '2024-02-13 14:50:00', '2024-02-13 13:50:00', '2024-02-13 12:50:00', '2024-02-13 11:50:00', '2024-02-13 10:50:00', '2024-02-13 09:50:00', '2024-02-13 08:50:00', '2024-02-13 07:50:00', '2024-02-13 06:50:00', '2024-02-13 05:50:00', '2024-02-13 04:50:00', '2024-02-13 03:50:00', '2024-02-13 02:50:00', '2024-02-13 01:50:00', '2024-02-13 00:50:00', '2024-02-12 23:50:00', '2024-02-12 22:50:00', '2024-02-12 21:50:00', '2024-02-12 20:50:00', '2024-02-12 19:50:00', '2024-02-12 18:50:00', '2024-02-12 17:50:00', '2024-02-12 16:50:00', '2024-02-12 15:50:00', '2024-02-12 14:50:00', '2024-02-12 13:50:00', '2024-02-12 12:50:00', '2024-02-12 11:50:00', '2024-02-12 10:50:00', '2024-02-12 09:50:00']"
Turkey, Gaziantep Oguzeli Airport (GZT/LTAJ) ,"['LTAJ 150850Z 05004KT 360V130 8000 SCT015 BKN070 10/08 Q1014 NOSIG', 'LTAJ 150820Z 03004KT 360V090 7000 SCT005 BKN020 09/08 Q1014 NOSIG', 'LTAJ 150750Z 05005KT 020V110 6000 BKN002 BKN012 08/08 Q1014 NOSIG', 'LTAJ 150720Z 02005KT 2000 BR BKN002 BKN012 08/07 Q1014 BECMG 9999 NSW SCT025 BKN080', 'LTAJ 150650Z 03006KT 1600 0800E R28/1000U R10/P1500U BCFG BKN002 BKN012 07/07 Q1014 BECMG 9999 NSW SCT025 BKN080', 'LTAJ 150620Z 00000KT 0400 R28/0650U R10/0400N FG VV002 07/06 Q1014 NOSIG', 'LTAJ 150550Z 00000KT 0400 R28/0450N R10/0300N FG VV002 06/06 Q1013 NOSIG', 'LTAJ 150520Z 00000KT 0300 R28/0450D R10/0375N FG VV002 05/05 Q1013 NOSIG', 'LTAJ 150450Z 33003KT 310V010 0400 R28/0900D R10/0375N FG VV003 04/03 Q1012 NOSIG', 'LTAJ 150420Z VRB01KT 0600 0200W R28/0750U R10/0250D FG FEW003 BKN025 BKN070 04/04 Q1012 NOSIG', 'LTAJ 150350Z 00000KT 4100 2000E R28/1100D R10/P1500N BR FEW003 BKN025 BKN070 04/04 Q1012 NOSIG', 'LTAJ 150320Z 32004KT 4000 BR FEW003 BKN025 BKN070 05/05 Q1011 NOSIG', 'LTAJ 150250Z 23004KT 4500 R28/1100U R10/P1500N BR FEW004 BKN025 BKN070 06/05 Q1011 NOSIG', 'LTAJ 150220Z VRB01KT 4500 BR SCT009 BKN025 BKN070 06/06 Q1011 NOSIG', 'LTAJ 150150Z 30004KT 270V330 4500 BR SCT005 BKN025 BKN070 07/07 Q1010 NOSIG', 'LTAJ 150120Z VRB02KT 4500 BR SCT004 BKN025 BKN070 07/07 Q1010 NOSIG', 'LTAJ 150050Z 25001KT 4500 BR FEW009 BKN025 BKN070 08/07 Q1010 NOSIG', 'LTAJ 150020Z 26004KT 4500 BR FEW009 BKN025 OVC070 08/07 Q1010 NOSIG', 'LTAJ 142350Z 19003KT 4500 BR FEW009 BKN025 OVC070 08/08 Q1010 NOSIG', 'LTAJ 142320Z 00000KT 4500 BR FEW009 BKN025 OVC070 08/08 Q1010 NOSIG', 'LTAJ 142250Z 29003KT 190V360 4500 BR FEW009 BKN025 OVC070 09/08 Q1010 NOSIG', 'LTAJ 142220Z 00000KT 4500 BR FEW009 BKN025 OVC070 08/08 Q1010 NOSIG', 'LTAJ 142150Z 00000KT 4500 BR FEW009 BKN025 OVC070 08/08 Q1010 NOSIG', 'LTAJ 142120Z 00000KT 4500 BR FEW009 BKN025 OVC070 08/08 Q1009 NOSIG', 'LTAJ 142050Z VRB02KT 4500 BR FEW009 BKN025 OVC070 08/08 Q1009 NOSIG', 'LTAJ 142020Z 26003KT 4500 BR FEW009 BKN025 OVC070 08/08 Q1009 NOSIG', 'LTAJ 141950Z 22001KT 4100 2000E R28/1100D R10/P1500N BR FEW001 BKN025 OVC070 08/08 Q1009 NOSIG', 'LTAJ 141920Z 00000KT 3100 0700E R28/P1500U R10/P1500N BCFG SCT004 BKN025 OVC070 09/09 Q1009 NOSIG', 'LTAJ 141850Z 00000KT 4500 BR SCT004 BKN025 OVC070 10/09 Q1009 NOSIG', 'LTAJ 141820Z 00000KT 4500 BR SCT004 BKN025 OVC070 10/09 Q1009 RERA NOSIG', 'LTAJ 141750Z 00000KT 4500 -RA BR SCT003 BKN025 OVC070 10/10 Q1009 NOSIG', 'LTAJ 141720Z 00000KT 4500 -RA BR SCT003 BKN025 OVC070 10/10 Q1009 NOSIG', 'LTAJ 141650Z 16003KT 130V190 4500 -RA BR SCT006 BKN025 OVC070 10/09 Q1009 RESHRA NOSIG', 'LTAJ 141620Z 17004KT 140V210 4500 -SHRA BR SCT006 BKN025 BKN070 10/10 Q1008 RETSRA NOSIG', 'LTAJ 141550Z 14005KT 4500 -TSRA BR BKN006 FEW015CB BKN025 10/10 Q1008 NOSIG', 'LTAJ 141520Z 01004KT 330V080 4500 -TSRA BR BKN007 FEW015CB BKN025 10/09 Q1008 NOSIG', 'LTAJ 141450Z 10013KT 4500 -TSRA SCT008 FEW015CB BKN025 10/09 Q1008 RETSRAGR NOSIG', 'LTAJ 141424Z 10016KT 5000 -TSRAGR BR SCT008 FEW015CB BKN025 10/09 Q1007 RESHRAGR NOSIG', 'LTAJ 141350Z 10010KT 5000 BR SCT008 FEW015CB BKN025 12/10 Q1007 NOSIG', 'LTAJ 141320Z 14003KT 100V200 5000 BR FEW009 BKN020 OVC070 14/10 Q1007 NOSIG', 'LTAJ 141250Z 09003KT 5000 BR FEW009 BKN018 OVC070 13/10 Q1007 NOSIG', 'LTAJ 141220Z 09006KT 060V130 5000 BR FEW009 BKN018 OVC070 13/10 Q1007 NOSIG', 'LTAJ 141150Z 11007KT 080V150 5000 BR BKN017 OVC070 13/10 Q1007 NOSIG', 'LTAJ 141120Z 09008KT 060V140 4500 BR BKN016 OVC070 13/11 Q1007 NOSIG', 'LTAJ 141050Z 09009KT 070V130 4500 BR SCT007 BKN020 OVC080 13/11 Q1008 NOSIG', 'LTAJ 141020Z 09009KT 3100 BR SCT007 BKN020 OVC080 12/11 Q1008 RERA NOSIG', 'LTAJ 140950Z 11008KT 070V130 4100 2000E -RA BR SCT007 BKN020 OVC080 11/10 Q1009 NOSIG', 'LTAJ 140920Z 10010KT 3000 -RA BR SCT007 BKN020 OVC080 11/10 Q1009 NOSIG', 'LTAJ 140850Z 09010KT 4000 BR SCT007 BKN020 OVC080 11/10 Q1009 NOSIG', 'LTAJ 140820Z 09011KT 4000 BR SCT007 BKN020 OVC080 11/10 Q1010 NOSIG', 'LTAJ 140750Z 08012KT 4000 BR SCT007 BKN020 OVC080 11/09 Q1010 NOSIG', 'LTAJ 140720Z 08012KT 4000 BR SCT007 BKN020 OVC080 11/09 Q1009 NOSIG', 'LTAJ 140650Z 06009KT 5000 BR SCT007 BKN020 OVC080 11/09 Q1010 NOSIG', 'LTAJ 140620Z 08010KT 5000 BR SCT007 BKN020 OVC080 10/09 Q1010 NOSIG', 'LTAJ 140550Z 09013KT 5000 BR SCT007 BKN020 OVC080 10/09 Q1010 NOSIG', 'LTAJ 140520Z 08011KT 6000 SCT007 BKN020 OVC080 10/09 Q1010 NOSIG', 'LTAJ 140450Z 07010KT 7000 FEW007 SCT030 OVC090 10/09 Q1010 NOSIG', 'LTAJ 140420Z 08007KT 7000 FEW006 SCT030 OVC090 10/08 Q1009 NOSIG', 'LTAJ 140350Z 10007KT 360V160 7000 FEW006 SCT030 BKN090 10/08 Q1009 NOSIG', 'LTAJ 140320Z 01006KT 310V060 7000 FEW006 SCT030 BKN090 09/08 Q1009 NOSIG', 'LTAJ 140250Z 09012KT 9999 FEW007 SCT030 BKN090 09/09 Q1009 NOSIG', 'LTAJ 140220Z 10012KT 9999 SCT030 BKN090 10/09 Q1009 NOSIG', 'LTAJ 140150Z 10014KT 9999 SCT030 BKN090 10/08 Q1009 NOSIG', 'LTAJ 140120Z 11018KT 9999 SCT030 BKN090 10/08 Q1009 NOSIG', 'LTAJ 140050Z 11011KT 9999 SCT030 BKN090 10/08 Q1010 NOSIG', 'LTAJ 140020Z 10008KT 9999 SCT030 BKN090 11/07 Q1010 NOSIG', 'LTAJ 132350Z 10011KT 9999 SCT030 BKN090 11/07 Q1010 NOSIG', 'LTAJ 132320Z 10010KT 9999 SCT030 BKN090 11/08 Q1011 NOSIG', 'LTAJ 132250Z 10010KT 9999 SCT030 BKN090 11/07 Q1011 NOSIG', 'LTAJ 132220Z 09012KT 9999 SCT030 BKN090 11/07 Q1011 RERA NOSIG', 'LTAJ 132150Z 09010KT 9999 -RA SCT030 BKN090 11/08 Q1012 NOSIG', 'LTAJ 132120Z 08012KT 9999 -RA SCT030 BKN090 11/08 Q1012 NOSIG', 'LTAJ 132050Z 09011KT 9999 -RA SCT030 BKN090 11/08 Q1012 NOSIG', 'LTAJ 132020Z 08009KT 9999 SCT030 BKN090 12/08 Q1013 NOSIG', 'LTAJ 131950Z 07011KT 9999 SCT030 BKN090 12/08 Q1013 NOSIG', 'LTAJ 131920Z 08013KT 9999 SCT030 BKN090 12/08 Q1013 RERA NOSIG', 'LTAJ 131850Z 08013KT 9999 -RA SCT030 BKN090 12/08 Q1014 NOSIG', 'LTAJ 131820Z 07013KT 9999 SCT030 BKN090 12/08 Q1014 NOSIG', 'LTAJ 131750Z 06011KT 9999 SCT030 BKN090 13/08 Q1014 NOSIG', 'LTAJ 131720Z 07010KT 9999 SCT030 BKN090 13/08 Q1014 NOSIG', 'LTAJ 131650Z 07010KT 9999 SCT030 BKN090 13/08 Q1014 NOSIG', 'LTAJ 131620Z 08010KT 9999 SCT030 BKN090 13/08 Q1014 NOSIG', 'LTAJ 131550Z 08009KT 9999 SCT030 BKN090 13/08 Q1014 NOSIG', 'LTAJ 131520Z 09010KT 9999 SCT030 BKN090 13/08 Q1014 NOSIG', 'LTAJ 131450Z 10011KT 9999 SCT030 BKN090 13/07 Q1014 NOSIG', 'LTAJ 131420Z 10013KT 9999 SCT030 BKN090 14/07 Q1014 NOSIG', 'LTAJ 131350Z 09012KT 9999 SCT030 BKN090 14/07 Q1014 NOSIG', 'LTAJ 131320Z 08013KT 9999 SCT030 BKN090 14/08 Q1014 NOSIG', 'LTAJ 131250Z 08013KT 9999 SCT030 BKN090 14/08 Q1014 NOSIG', 'LTAJ 131220Z 08012KT 9999 SCT030 BKN090 14/08 Q1014 NOSIG', 'LTAJ 131150Z 08013KT 9999 SCT035 BKN100 14/08 Q1014 NOSIG', 'LTAJ 131120Z 10011KT 9999 SCT035 BKN100 14/08 Q1015 NOSIG', 'LTAJ 131050Z 08007KT 040V110 9999 SCT035 BKN100 14/08 Q1015 NOSIG', 'LTAJ 131020Z 09009KT 040V110 9999 SCT035 BKN100 13/08 Q1016 NOSIG', 'LTAJ 130950Z 07008KT 040V100 9999 SCT035 BKN100 13/07 Q1016 NOSIG', 'LTAJ 130920Z 08007KT 9999 SCT035 BKN100 12/07 Q1017 NOSIG', 'LTAJ 130850Z 09007KT 9999 SCT035 BKN100 12/07 Q1017 NOSIG', 'LTAJ 130820Z 09010KT 9999 SCT035 BKN100 12/07 Q1017 NOSIG', 'LTAJ 130750Z 09007KT 9999 FEW035 BKN100 12/07 Q1017 NOSIG', 'LTAJ 130720Z 08009KT 050V110 9999 FEW035 BKN180 12/06 Q1017 NOSIG', 'LTAJ 130650Z 09011KT 9999 FEW035 BKN180 11/07 Q1017 NOSIG', 'LTAJ 130620Z 07007KT 9999 FEW035 BKN180 11/07 Q1017 NOSIG', 'LTAJ 130550Z 07007KT 9999 FEW035 BKN180 11/07 Q1017 NOSIG', 'LTAJ 130520Z 05005KT 010V100 9999 FEW035 BKN180 11/07 Q1017 NOSIG', 'LTAJ 130450Z 05004KT 340V120 9999 FEW035 BKN180 11/07 Q1017 NOSIG', 'LTAJ 130420Z 07006KT 010V100 9999 FEW035 BKN180 11/07 Q1017 NOSIG', 'LTAJ 130350Z 07008KT 9999 FEW035 BKN180 11/06 Q1017 NOSIG', 'LTAJ 130320Z 06006KT 030V110 9999 SCT035 BKN180 11/07 Q1017 NOSIG', 'LTAJ 130250Z 07004KT 020V120 9999 SCT035 BKN180 11/07 Q1018 NOSIG', 'LTAJ 130220Z 07006KT 9999 SCT035 BKN180 11/07 Q1017 NOSIG', 'LTAJ 130150Z 07006KT 9999 SCT040 BKN180 11/07 Q1018 NOSIG', 'LTAJ 130120Z 33005KT 9999 SCT045 BKN180 10/07 Q1018 NOSIG', 'LTAJ 130050Z 09003KT 030V180 9999 SCT045 BKN180 11/07 Q1019 NOSIG', 'LTAJ 130020Z 08006KT 9999 SCT045 BKN180 12/07 Q1018 NOSIG', 'LTAJ 122350Z 01003KT 320V090 9999 SCT045 BKN180 11/07 Q1019 NOSIG', 'LTAJ 122320Z VRB02KT 9999 FEW045 BKN180 10/07 Q1019 NOSIG', 'LTAJ 122250Z VRB01KT 9999 FEW045 SCT180 11/07 Q1019 NOSIG', 'LTAJ 122220Z 36004KT 9999 FEW045 SCT180 10/07 Q1019 NOSIG', 'LTAJ 122150Z 04004KT 360V060 CAVOK 11/07 Q1019 NOSIG', 'LTAJ 122120Z 01004KT CAVOK 10/07 Q1019 NOSIG', 'LTAJ 122050Z 34005KT 320V130 9999 FEW040 BKN180 10/07 Q1019 NOSIG', 'LTAJ 122020Z 35004KT 310V040 9999 FEW040 BKN180 10/07 Q1020 NOSIG', 'LTAJ 121950Z 34005KT 9999 FEW040 BKN180 10/07 Q1020 NOSIG', 'LTAJ 121920Z 34005KT 9999 FEW040 BKN180 11/07 Q1020 NOSIG', 'LTAJ 121850Z 33003KT 300V360 9999 FEW040 BKN180 10/08 Q1020 NOSIG', 'LTAJ 121820Z 29003KT CAVOK 10/07 Q1021 NOSIG', 'LTAJ 121750Z VRB01KT CAVOK 11/07 Q1021 NOSIG', 'LTAJ 121720Z 35003KT CAVOK 10/07 Q1020 NOSIG', 'LTAJ 121650Z 01004KT 340V040 CAVOK 10/06 Q1021 NOSIG', 'LTAJ 121620Z 00000KT CAVOK 11/07 Q1021 NOSIG', 'LTAJ 121550Z 08003KT CAVOK 12/07 Q1020 NOSIG', 'LTAJ 121520Z 13004KT CAVOK 12/07 Q1020 NOSIG', 'LTAJ 121450Z VRB02KT 9999 FEW040 BKN180 13/07 Q1020 NOSIG', 'LTAJ 121420Z 12007KT 9999 SCT040 BKN180 14/06 Q1020 NOSIG', 'LTAJ 121350Z 11008KT 9999 SCT040 BKN180 14/06 Q1020 NOSIG', 'LTAJ 121320Z 13006KT 9999 SCT040 SCT180 15/06 Q1021 NOSIG', 'LTAJ 121250Z 13008KT 9999 SCT040 SCT180 15/07 Q1021 NOSIG', 'LTAJ 121220Z 14009KT 9999 SCT040 SCT180 15/07 Q1021 NOSIG', 'LTAJ 121150Z 14010KT 9999 SCT040 15/06 Q1021 NOSIG', 'LTAJ 121120Z 10008KT 050V130 9999 SCT040 15/07 Q1021 NOSIG', 'LTAJ 121050Z 09007KT 9999 SCT040 15/07 Q1022 NOSIG', 'LTAJ 121020Z 12007KT 9999 SCT040 14/07 Q1022 NOSIG', 'LTAJ 120950Z 11007KT 090V160 9999 SCT040 14/05 Q1022 NOSIG', 'LTAJ 120920Z 13005KT 080V160 9999 SCT040 15/07 Q1023 NOSIG']","['2024-02-15 08:50:00', '2024-02-15 08:20:00', '2024-02-15 07:50:00', '2024-02-15 07:20:00', '2024-02-15 06:50:00', '2024-02-15 06:20:00', '2024-02-15 05:50:00', '2024-02-15 05:20:00', '2024-02-15 04:50:00', '2024-02-15 04:20:00', '2024-02-15 03:50:00', '2024-02-15 03:20:00', '2024-02-15 02:50:00', '2024-02-15 02:20:00', '2024-02-15 01:50:00', '2024-02-15 01:20:00', '2024-02-15 00:50:00', '2024-02-15 00:20:00', '2024-02-14 23:50:00', '2024-02-14 23:20:00', '2024-02-14 22:50:00', '2024-02-14 22:20:00', '2024-02-14 21:50:00', '2024-02-14 21:20:00', '2024-02-14 20:50:00', '2024-02-14 20:20:00', '2024-02-14 19:50:00', '2024-02-14 19:20:00', '2024-02-14 18:50:00', '2024-02-14 18:20:00', '2024-02-14 17:50:00', '2024-02-14 17:20:00', '2024-02-14 16:50:00', '2024-02-14 16:20:00', '2024-02-14 15:50:00', '2024-02-14 15:20:00', '2024-02-14 14:50:00', '2024-02-14 14:24:00', '2024-02-14 13:50:00', '2024-02-14 13:20:00', '2024-02-14 12:50:00', '2024-02-14 12:20:00', '2024-02-14 11:50:00', '2024-02-14 11:20:00', '2024-02-14 10:50:00', '2024-02-14 10:20:00', '2024-02-14 09:50:00', '2024-02-14 09:20:00', '2024-02-14 08:50:00', '2024-02-14 08:20:00', '2024-02-14 07:50:00', '2024-02-14 07:20:00', '2024-02-14 06:50:00', '2024-02-14 06:20:00', '2024-02-14 05:50:00', '2024-02-14 05:20:00', '2024-02-14 04:50:00', '2024-02-14 04:20:00', '2024-02-14 03:50:00', '2024-02-14 03:20:00', '2024-02-14 02:50:00', '2024-02-14 02:20:00', '2024-02-14 01:50:00', '2024-02-14 01:20:00', '2024-02-14 00:50:00', '2024-02-14 00:20:00', '2024-02-13 23:50:00', '2024-02-13 23:20:00', '2024-02-13 22:50:00', '2024-02-13 22:20:00', '2024-02-13 21:50:00', '2024-02-13 21:20:00', '2024-02-13 20:50:00', '2024-02-13 20:20:00', '2024-02-13 19:50:00', '2024-02-13 19:20:00', '2024-02-13 18:50:00', '2024-02-13 18:20:00', '2024-02-13 17:50:00', '2024-02-13 17:20:00', '2024-02-13 16:50:00', '2024-02-13 16:20:00', '2024-02-13 15:50:00', '2024-02-13 15:20:00', '2024-02-13 14:50:00', '2024-02-13 14:20:00', '2024-02-13 13:50:00', '2024-02-13 13:20:00', '2024-02-13 12:50:00', '2024-02-13 12:20:00', '2024-02-13 11:50:00', '2024-02-13 11:20:00', '2024-02-13 10:50:00', '2024-02-13 10:20:00', '2024-02-13 09:50:00', '2024-02-13 09:20:00', '2024-02-13 08:50:00', '2024-02-13 08:20:00', '2024-02-13 07:50:00', '2024-02-13 07:20:00', '2024-02-13 06:50:00', '2024-02-13 06:20:00', '2024-02-13 05:50:00', '2024-02-13 05:20:00', '2024-02-13 04:50:00', '2024-02-13 04:20:00', '2024-02-13 03:50:00', '2024-02-13 03:20:00', '2024-02-13 02:50:00', '2024-02-13 02:20:00', '2024-02-13 01:50:00', '2024-02-13 01:20:00', '2024-02-13 00:50:00', '2024-02-13 00:20:00', '2024-02-12 23:50:00', '2024-02-12 23:20:00', '2024-02-12 22:50:00', '2024-02-12 22:20:00', '2024-02-12 21:50:00', '2024-02-12 21:20:00', '2024-02-12 20:50:00', '2024-02-12 20:20:00', '2024-02-12 19:50:00', '2024-02-12 19:20:00', '2024-02-12 18:50:00', '2024-02-12 18:20:00', '2024-02-12 17:50:00', '2024-02-12 17:20:00', '2024-02-12 16:50:00', '2024-02-12 16:20:00', '2024-02-12 15:50:00', '2024-02-12 15:20:00', '2024-02-12 14:50:00', '2024-02-12 14:20:00', '2024-02-12 13:50:00', '2024-02-12 13:20:00', '2024-02-12 12:50:00', '2024-02-12 12:20:00', '2024-02-12 11:50:00', '2024-02-12 11:20:00', '2024-02-12 10:50:00', '2024-02-12 10:20:00', '2024-02-12 09:50:00', '2024-02-12 09:20:00']"
Turkey, Gazipasa Airport (GZP/LTFG) ,"['LTFG 150850Z VRB03KT 9999 FEW020CB SCT025 18/07 Q1010', 'LTFG 150750Z 11004KT 9999 FEW020CB SCT025 15/08 Q1011', 'LTFG 150650Z 10005KT 070V130 9999 FEW020CB SCT025 13/09 Q1011', 'LTFG 150550Z 11005KT 080V140 9999 FEW020CB SCT025 11/08 Q1010', 'LTFG 150450Z 12004KT 9999 FEW015CB BKN020 09/08 Q1009', 'LTFG 150350Z 13004KT 080V150 9999 -SHRA FEW015CB BKN020 11/08 Q1009 RETSRA', 'LTFG 150250Z 05008KT 030V110 9999 -TSRA FEW015CB BKN020 11/09 Q1009 RETSRA', 'LTFG 150150Z 35008KT 9999 -TSRA FEW015CB BKN020 11/09 Q1009', 'LTFG 150050Z 07009KT 9999 -TSRA FEW015CB BKN020 12/09 Q1009', 'LTFG 142350Z 36002KT 9999 -TSRA FEW015CB BKN020 11/10 Q1009', 'LTFG 142250Z 10003KT 070V170 9999 -TSRA FEW015CB BKN020 10/09 Q1009 RETS', 'LTFG 142150Z VRB02KT 9999 FEW020CB BKN030 10/09 Q1008', 'LTFG 142050Z 07003KT 030V110 9999 BKN030 10/09 Q1008', 'LTFG 141950Z 06007KT 9999 BKN030 10/09 Q1008 RESHRA', 'LTFG 141850Z 09003KT 070V170 9999 -SHRA BKN030 11/09 Q1008', 'LTFG 141750Z 06003KT 010V100 9999 BKN030 10/09 Q1008', 'LTFG 141650Z 08003KT 050V110 9999 BKN030 10/09 Q1008', 'LTFG 141550Z 08005KT 9999 BKN030 11/09 Q1007', 'LTFG 141450Z 07004KT 9999 BKN030 12/09 Q1007', 'LTFG 141350Z 03006KT 9999 BKN030 13/10 Q1006', 'LTFG 141250Z 04005KT 9999 FEW015CB BKN025 12/10 Q1006 RESHRA', 'LTFG 141150Z 02004KT 9999 -SHRA FEW015CB BKN025 12/10 Q1006', 'LTFG 141050Z 10004KT 070V130 9999 -SHRA FEW015CB BKN025 12/10 Q1006', 'LTFG 140950Z 12006KT 090V150 9999 FEW015CB BKN025 13/09 Q1006 RETSRA', 'LTFG 140850Z 09006KT 050V120 6000 -TSRA FEW015CB BKN020 12/10 Q1006 RETSRA', 'LTFG 140750Z 09005KT 040V210 4000 +TSRA FEW015CB BKN020 11/10 Q1005', 'LTFG 140650Z 21010KT 170V240 2000 +TSRA FEW015CB BKN020 12/10 Q1005', 'LTFG 140550Z 26013KT 230V300 2500 +TSRA FEW015CB BKN020 13/10 Q1004', 'LTFG 140450Z 30021KT 7000 -TSRA FEW015CB BKN025 13/09 Q1003', 'LTFG 140350Z 29026G36KT 9999 -TSRA FEW020CB BKN030 14/09 Q1003 RESHRA', 'LTFG 140250Z VRB03KT 9999 -SHRA FEW020CB BKN030 13/10 Q1003', 'LTFG 140150Z VRB02KT 9999 FEW020CB BKN030 13/10 Q1003', 'LTFG 140050Z VRB01KT 9999 FEW020CB BKN030 15/10 Q1004 RESHRA', 'LTFG 132350Z 34013G25KT 310V040 8000 -SHRA FEW020CB BKN030 14/10 Q1005', 'LTFG 132250Z 20008KT 100V270 8000 -SHRA FEW020CB BKN030 18/10 Q1006', 'LTFG 132150Z 09009KT 070V130 9999 BKN030 19/04 Q1005', 'LTFG 132050Z 06007KT 9999 BKN030 18/05 Q1006', 'LTFG 131950Z 07005KT 040V110 9999 BKN030 17/06 Q1006', 'LTFG 131850Z 05004KT 010V090 9999 BKN025 17/08 Q1007', 'LTFG 131750Z 10006KT 080V140 9999 BKN025 16/09 Q1008 RESHRA', 'LTFG 131650Z 07010KT 8000 -SHRA BKN025 16/09 Q1008', 'LTFG 131550Z 08010KT 9999 -SHRA BKN025 20/06 Q1008', 'LTFG 131450Z 12008KT 080V150 9999 BKN025 20/06 Q1007', 'LTFG 131350Z 08005KT 050V120 9999 BKN025 20/07 Q1007', 'LTFG 131250Z 03008KT 360V060 9999 BKN025 19/07 Q1007 RESHRA', 'LTFG 131150Z 03006KT 9999 -SHRA BKN025 18/09 Q1008', 'LTFG 131050Z 15006KT 100V230 9999 -SHRA BKN025 19/06 Q1009', 'LTFG 130950Z 09006KT 9999 -SHRA BKN025 19/07 Q1010', 'LTFG 130850Z 08004KT 040V110 9999 BKN030 20/07 Q1010', 'LTFG 130750Z 11005KT 080V140 9999 BKN030 20/06 Q1010', 'LTFG 130650Z 14004KT 090V170 9999 BKN030 20/05 Q1009', 'LTFG 130550Z 13004KT 100V160 9999 SCT030 BKN100 18/04 Q1009', 'LTFG 130450Z 36003KT 320V050 9999 SCT030 BKN100 13/06 Q1009', 'LTFG 130350Z VRB02KT 9999 SCT030 BKN100 14/06 Q1009', 'LTFG 130250Z 10006KT 9999 SCT030 BKN100 19/03 Q1009', 'LTFG 130150Z 12004KT 080V150 9999 SCT030 BKN100 20/02 Q1009', 'LTFG 130050Z 09008KT 9999 SCT030 BKN100 20/02 Q1009', 'LTFG 122350Z 09014G25KT 070V150 9999 SCT030 BKN100 20/03 Q1011', 'LTFG 122250Z 09008KT 060V120 9999 SCT030 BKN100 20/03 Q1012', 'LTFG 122150Z 10006KT 9999 SCT030 BKN100 19/03 Q1013', 'LTFG 122050Z 09011KT 060V120 9999 SCT030 BKN100 20/03 Q1013', 'LTFG 121950Z 11004KT 070V180 9999 SCT030 BKN110 18/04 Q1014', 'LTFG 121850Z VRB01KT 9999 SCT030 BKN110 17/06 Q1014', 'LTFG 121750Z VRB02KT 9999 SCT030 BKN110 18/05 Q1014', 'LTFG 121650Z 10005KT 070V150 9999 SCT030 BKN110 18/05 Q1014', 'LTFG 121550Z 09006KT 9999 SCT030 BKN110 18/06 Q1013', 'LTFG 121450Z 11005KT 080V150 9999 SCT030 BKN110 19/07 Q1014', 'LTFG 121350Z 14005KT 090V170 9999 SCT030 BKN110 20/06 Q1015', 'LTFG 121250Z 13006KT 090V220 9999 FEW030 BKN180 21/07 Q1015', 'LTFG 121150Z 16006KT 110V200 9999 FEW030 BKN180 21/06 Q1016', 'LTFG 121050Z 28007KT 9999 FEW030 BKN180 21/08 Q1017', 'LTFG 120950Z VRB03KT 9999 FEW030 BKN180 20/07 Q1018']","['2024-02-15 08:50:00', '2024-02-15 07:50:00', '2024-02-15 06:50:00', '2024-02-15 05:50:00', '2024-02-15 04:50:00', '2024-02-15 03:50:00', '2024-02-15 02:50:00', '2024-02-15 01:50:00', '2024-02-15 00:50:00', '2024-02-14 23:50:00', '2024-02-14 22:50:00', '2024-02-14 21:50:00', '2024-02-14 20:50:00', '2024-02-14 19:50:00', '2024-02-14 18:50:00', '2024-02-14 17:50:00', '2024-02-14 16:50:00', '2024-02-14 15:50:00', '2024-02-14 14:50:00', '2024-02-14 13:50:00', '2024-02-14 12:50:00', '2024-02-14 11:50:00', '2024-02-14 10:50:00', '2024-02-14 09:50:00', '2024-02-14 08:50:00', '2024-02-14 07:50:00', '2024-02-14 06:50:00', '2024-02-14 05:50:00', '2024-02-14 04:50:00', '2024-02-14 03:50:00', '2024-02-14 02:50:00', '2024-02-14 01:50:00', '2024-02-14 00:50:00', '2024-02-13 23:50:00', '2024-02-13 22:50:00', '2024-02-13 21:50:00', '2024-02-13 20:50:00', '2024-02-13 19:50:00', '2024-02-13 18:50:00', '2024-02-13 17:50:00', '2024-02-13 16:50:00', '2024-02-13 15:50:00', '2024-02-13 14:50:00', '2024-02-13 13:50:00', '2024-02-13 12:50:00', '2024-02-13 11:50:00', '2024-02-13 10:50:00', '2024-02-13 09:50:00', '2024-02-13 08:50:00', '2024-02-13 07:50:00', '2024-02-13 06:50:00', '2024-02-13 05:50:00', '2024-02-13 04:50:00', '2024-02-13 03:50:00', '2024-02-13 02:50:00', '2024-02-13 01:50:00', '2024-02-13 00:50:00', '2024-02-12 23:50:00', '2024-02-12 22:50:00', '2024-02-12 21:50:00', '2024-02-12 20:50:00', '2024-02-12 19:50:00', '2024-02-12 18:50:00', '2024-02-12 17:50:00', '2024-02-12 16:50:00', '2024-02-12 15:50:00', '2024-02-12 14:50:00', '2024-02-12 13:50:00', '2024-02-12 12:50:00', '2024-02-12 11:50:00', '2024-02-12 10:50:00', '2024-02-12 09:50:00']"
Turkey, Igdir Airport (IGD/LTCT) ,"['LTCT 150850Z 34006KT 310V020 9999 FEW015 SCT035 BKN080 11/06 Q1015', 'LTCT 150750Z 35007KT 9999 FEW013 SCT040 BKN080 10/06 Q1015', 'LTCT 150650Z 33006KT 300V360 6000 FEW011 SCT040 BKN080 09/07 Q1015', 'LTCT 150550Z 27006KT 240V300 6000 FEW040 BKN080 08/06 Q1015', 'LTCT 150350Z VRB02KT 3800 BR FEW040 BKN080 06/05 Q1013', 'LTCT 150250Z 27003KT 240V300 7000 FEW040 BKN080 06/05 Q1013 RERA', 'LTCT 150150Z 21005KT 6000 -RA FEW040 BKN080 07/04 Q1013', 'LTCT 150050Z VRB02KT 9999 FEW040 BKN080 07/04 Q1013', 'LTCT 142350Z 29004KT 9999 FEW040 BKN100 07/03 Q1013', 'LTCT 142250Z 25008KT 9999 FEW040 BKN100 07/02 Q1014', 'LTCT 142150Z 28006KT 9999 FEW040 BKN080 06/01 Q1014', 'LTCT 142050Z 31004KT 9999 FEW040 BKN080 07/01 Q1014', 'LTCT 141950Z 24005KT 9999 FEW040 BKN080 08/02 Q1014', 'LTCT 141850Z 25004KT 9999 SCT100 BKN180 09/01 Q1014', 'LTCT 141750Z 27004KT 230V300 9999 SCT100 BKN180 09/01 Q1014', 'LTCT 141650Z 20006KT 9999 SCT100 BKN180 09/01 Q1014', 'LTCT 141550Z VRB01KT 9999 SCT100 BKN180 08/00 Q1014', 'LTCT 141450Z 09004KT 9999 SCT100 BKN180 11/00 Q1014', 'LTCT 141350Z 07003KT 9999 SCT100 BKN180 12/M00 Q1014', 'LTCT 141250Z 08003KT 040V120 9999 SCT100 BKN180 13/M01 Q1014', 'LTCT 141150Z VRB02KT 9999 SCT100 BKN180 13/M01 Q1014', 'LTCT 141050Z VRB02KT 9999 SCT100 BKN180 13/M01 Q1015', 'LTCT 140950Z 06003KT 010V160 9999 SCT100 BKN180 12/M01 Q1016', 'LTCT 140850Z VRB01KT 9999 BKN090 BKN180 11/M01 Q1017', 'LTCT 140750Z VRB01KT 9999 BKN080 BKN180 10/M01 Q1017', 'LTCT 140650Z 00000KT 9999 BKN080 BKN180 08/00 Q1018', 'LTCT 140550Z VRB02KT 9999 SCT080 BKN180 07/01 Q1018', 'LTCT 140450Z 21003KT 9999 SCT080 BKN180 04/00 Q1018', 'LTCT 140350Z 30003KT 260V030 9999 SCT080 BKN180 05/M01 Q1017', 'LTCT 140250Z 23005KT 9999 SCT100 BKN180 04/M01 Q1017', 'LTCT 140150Z 21006KT 9999 SCT100 BKN180 04/M00 Q1017', 'LTCT 140050Z 27003KT 9999 SCT100 BKN180 04/M01 Q1018', 'LTCT 132350Z 23006KT 9999 SCT100 BKN180 04/M00 Q1018', 'LTCT 132250Z 17002KT 9999 SCT100 BKN180 04/M01 Q1018', 'LTCT 132150Z 21005KT 170V230 9999 SCT100 BKN180 06/M01 Q1018', 'LTCT 132050Z 22007KT 9999 SCT100 BKN180 05/M01 Q1018', 'LTCT 131950Z 23006KT 9999 SCT100 BKN180 05/M01 Q1018', 'LTCT 131850Z 23008KT 9999 SCT100 BKN180 05/M01 Q1019', 'LTCT 131750Z 23008KT 9999 SCT100 BKN180 06/M01 Q1019', 'LTCT 131650Z 24008KT 9999 SCT100 BKN180 07/M00 Q1019', 'LTCT 131550Z 21003KT 9999 SCT100 BKN180 07/M00 Q1019', 'LTCT 131450Z VRB01KT 9999 SCT100 BKN180 09/M01 Q1019', 'LTCT 131350Z 00000KT 9999 SCT100 BKN180 11/M02 Q1019', 'LTCT 131150Z VRB03KT 9999 FEW100 BKN180 11/M01 Q1019', 'LTCT 131050Z VRB02KT 9999 FEW100 BKN180 11/M02 Q1020', 'LTCT 130950Z 09004KT 050V140 9999 FEW100 BKN180 11/M02 Q1020', 'LTCT 130850Z VRB02KT 9999 FEW100 BKN180 10/M02 Q1021', 'LTCT 130750Z VRB02KT 9999 FEW100 BKN180 08/M01 Q1022', 'LTCT 130650Z VRB02KT 9999 FEW100 BKN180 07/M01 Q1022', 'LTCT 130550Z VRB01KT 9999 FEW100 BKN180 06/M01 Q1022', 'LTCT 130450Z 20005KT 170V230 9999 FEW100 BKN180 04/M02 Q1022', 'LTCT 130350Z 23005KT 210V310 9999 FEW100 BKN180 03/M02 Q1022', 'LTCT 130250Z 22006KT 9999 FEW100 BKN180 02/M03 Q1021', 'LTCT 130150Z 20005KT 9999 FEW100 BKN180 03/M03 Q1022', 'LTCT 130050Z 22007KT 9999 FEW100 BKN180 03/M03 Q1022', 'LTCT 122350Z 23008KT 9999 FEW100 BKN180 03/M03 Q1022', 'LTCT 122250Z 22004KT 9999 FEW100 BKN180 03/M03 Q1022', 'LTCT 122150Z 22006KT 9999 FEW100 BKN180 04/M02 Q1022', 'LTCT 122050Z 22008KT 9999 FEW100 BKN180 05/M02 Q1022', 'LTCT 121950Z 22006KT 9999 FEW100 BKN180 05/M03 Q1023', 'LTCT 121850Z 22007KT 9999 FEW100 BKN180 05/M02 Q1023', 'LTCT 121750Z 22008KT 9999 FEW100 BKN180 06/M01 Q1023', 'LTCT 121650Z 23008KT 9999 FEW100 BKN180 06/M01 Q1022', 'LTCT 121550Z 23006KT 9999 FEW100 BKN180 07/M00 Q1022', 'LTCT 121450Z 13004KT 9999 FEW100 BKN180 09/M01 Q1022', 'LTCT 121350Z 06004KT 9999 FEW100 SCT180 11/M01 Q1022', 'LTCT 121250Z 09003KT 020V180 9999 FEW100 SCT180 12/M02 Q1022', 'LTCT 121150Z 12003KT 080V190 9999 FEW080 BKN180 12/M02 Q1023', 'LTCT 121050Z VRB03KT 9999 FEW080 BKN180 12/M02 Q1023', 'LTCT 120950Z VRB02KT 9999 FEW080 BKN180 11/M01 Q1025']","['2024-02-15 08:50:00', '2024-02-15 07:50:00', '2024-02-15 06:50:00', '2024-02-15 05:50:00', '2024-02-15 03:50:00', '2024-02-15 02:50:00', '2024-02-15 01:50:00', '2024-02-15 00:50:00', '2024-02-14 23:50:00', '2024-02-14 22:50:00', '2024-02-14 21:50:00', '2024-02-14 20:50:00', '2024-02-14 19:50:00', '2024-02-14 18:50:00', '2024-02-14 17:50:00', '2024-02-14 16:50:00', '2024-02-14 15:50:00', '2024-02-14 14:50:00', '2024-02-14 13:50:00', '2024-02-14 12:50:00', '2024-02-14 11:50:00', '2024-02-14 10:50:00', '2024-02-14 09:50:00', '2024-02-14 08:50:00', '2024-02-14 07:50:00', '2024-02-14 06:50:00', '2024-02-14 05:50:00', '2024-02-14 04:50:00', '2024-02-14 03:50:00', '2024-02-14 02:50:00', '2024-02-14 01:50:00', '2024-02-14 00:50:00', '2024-02-13 23:50:00', '2024-02-13 22:50:00', '2024-02-13 21:50:00', '2024-02-13 20:50:00', '2024-02-13 19:50:00', '2024-02-13 18:50:00', '2024-02-13 17:50:00', '2024-02-13 16:50:00', '2024-02-13 15:50:00', '2024-02-13 14:50:00', '2024-02-13 13:50:00', '2024-02-13 11:50:00', '2024-02-13 10:50:00', '2024-02-13 09:50:00', '2024-02-13 08:50:00', '2024-02-13 07:50:00', '2024-02-13 06:50:00', '2024-02-13 05:50:00', '2024-02-13 04:50:00', '2024-02-13 03:50:00', '2024-02-13 02:50:00', '2024-02-13 01:50:00', '2024-02-13 00:50:00', '2024-02-12 23:50:00', '2024-02-12 22:50:00', '2024-02-12 21:50:00', '2024-02-12 20:50:00', '2024-02-12 19:50:00', '2024-02-12 18:50:00', '2024-02-12 17:50:00', '2024-02-12 16:50:00', '2024-02-12 15:50:00', '2024-02-12 14:50:00', '2024-02-12 13:50:00', '2024-02-12 12:50:00', '2024-02-12 11:50:00', '2024-02-12 10:50:00', '2024-02-12 09:50:00']"
Turkey, Isparta Suleyman Demirel Airport (ISE/LTFC) ,"['LTFC 150850Z VRB05KT 9999 FEW012 SCT030 BKN070 06/03 Q1012', 'LTFC 150820Z 03005KT 350V070 9999 FEW012 SCT030 BKN070 05/03 Q1012', 'LTFC 150750Z 05003KT 020V090 9999 FEW012 BKN030 04/02 Q1012', 'LTFC 150720Z 05004KT 9999 FEW018 SCT030 BKN060 04/02 Q1011', 'LTFC 150650Z 36004KT 9999 FEW018 SCT030 BKN060 04/02 Q1011', 'LTFC 150620Z 36006KT 9999 FEW006 BKN020 03/02 Q1011', 'LTFC 150550Z 01004KT 9999 -SHRA FEW006 BKN020 03/02 Q1011', 'LTFC 150520Z 01003KT 9999 -SHRA FEW006 BKN025 03/02 Q1011', 'LTFC 150450Z 35004KT 9999 -SHRA FEW006 BKN025 03/02 Q1010', 'LTFC 150420Z 36004KT 9999 FEW010 BKN025 03/01 Q1010', 'LTFC 150350Z VRB02KT 9999 FEW010 BKN025 03/02 Q1010', 'LTFC 150320Z VRB02KT 9999 SCT010 BKN025 03/02 Q1010', 'LTFC 150250Z 04003KT 9999 SCT010 BKN025 02/01 Q1009 RESHRA', 'LTFC 150220Z 36004KT 9999 -SHRA SCT010 BKN025 03/02 Q1009', 'LTFC 150150Z 02005KT 9999 -SHRA SCT010 BKN025 03/02 Q1009', 'LTFC 150120Z 36007KT 9999 SCT010 BKN025 03/02 Q1009', 'LTFC 150050Z 34006KT 9999 SCT010 BKN025 03/02 Q1009 RESHRA', 'LTFC 150020Z 06003KT 020V080 9999 -SHRA SCT010 BKN025 03/02 Q1009', 'LTFC 142350Z 35003KT 9999 -SHRA SCT007 BKN020 03/02 Q1009', 'LTFC 142320Z VRB01KT 9999 -SHRA SCT007 BKN020 03/03 Q1009', 'LTFC 142250Z 30003KT 270V340 9999 -SHRA SCT007 BKN020 03/02 Q1009', 'LTFC 142220Z 33006KT 9999 -SHRA SCT007 BKN020 03/02 Q1009', 'LTFC 142150Z 34006KT 9999 -SHRA SCT007 BKN020 03/02 Q1008', 'LTFC 142120Z VRB02KT 9999 -SHRA SCT007 BKN020 03/03 Q1008', 'LTFC 142050Z 26003KT 9999 -SHRA SCT007 BKN020 03/03 Q1008', 'LTFC 142020Z 22004KT 9999 -SHRA FEW007 BKN020 BKN090 03/03 Q1008', 'LTFC 141950Z 21003KT 9999 -SHRA FEW007 BKN020 BKN090 04/03 Q1008', 'LTFC 141920Z 20005KT 9999 -SHRA FEW007 BKN020 BKN090 03/03 Q1008', 'LTFC 141850Z 19004KT 9999 -SHRA FEW004 BKN020 BKN090 03/03 Q1008', 'LTFC 141820Z 19006KT 9999 -SHRA FEW004 BKN020 BKN090 03/03 Q1008', 'LTFC 141750Z 20006KT 9999 -SHRA FEW004 BKN020 BKN090 04/03 Q1007', 'LTFC 141720Z 21006KT 9999 -SHRA FEW005 BKN020 BKN090 04/03 Q1007', 'LTFC 141650Z 21006KT 9999 -SHRA FEW005 BKN020 BKN090 04/04 Q1007', 'LTFC 141620Z 22007KT 9999 -SHRA FEW005 BKN020 BKN090 04/04 Q1007', 'LTFC 141550Z 25004KT 220V300 9999 -SHRA FEW006 BKN020 BKN090 04/03 Q1007', 'LTFC 141520Z 30007KT 9999 -SHRA FEW006 BKN020 BKN090 04/03 Q1006', 'LTFC 141450Z 26005KT 230V290 9999 -SHRA FEW006 BKN020 BKN090 05/04 Q1006', 'LTFC 141420Z 28003KT 220V020 9999 -SHRA FEW008 BKN020 BKN090 05/03 Q1006', 'LTFC 141350Z 19005KT 160V230 8000 -SHRA FEW008 BKN030 BKN090 05/05 Q1006', 'LTFC 141320Z 19006KT 9000 4000SW -SHRA FEW008 BKN030 BKN090 06/05 Q1005', 'LTFC 141220Z 12006KT 9000 4000SW -SHRA FEW008 BKN030 BKN090 06/04 Q1005', 'LTFC 141150Z 33008KT 8000 -SHRA FEW008 BKN030 BKN090 07/05 Q1005', 'LTFC 141120Z 34010KT 9999 -SHRA FEW008 BKN030 BKN090 07/05 Q1005', 'LTFC 141050Z 34012KT 9999 -SHRA FEW008 BKN030 BKN090 07/05 Q1005', 'LTFC 141020Z 07005KT 030V110 9999 FEW008 BKN030 BKN090 07/05 Q1005', 'LTFC 140950Z 05006KT 9999 -SHRA FEW008 BKN030 BKN090 07/05 Q1005', 'LTFC 140850Z 33010KT 9999 -SHRA FEW008 BKN030 BKN090 07/05 Q1006', 'LTFC 140820Z 35004KT 310V070 9999 -SHRA FEW008 BKN030 BKN090 07/05 Q1006', 'LTFC 140750Z 36003KT 270V080 9999 -SHRA FEW008 BKN030 BKN090 06/04 Q1007', 'LTFC 140720Z 36005KT 9999 -SHRA BKN030 BKN090 06/04 Q1007', 'LTFC 140650Z 04009KT 9999 -SHRA BKN030 BKN090 05/03 Q1007', 'LTFC 140620Z 04009KT 9999 SCT030 BKN090 05/04 Q1007', 'LTFC 140550Z 07007KT 9999 BKN030 BKN090 04/03 Q1007', 'LTFC 140520Z 03007KT 9999 BKN030 BKN090 04/03 Q1007', 'LTFC 140450Z 03010KT 9999 BKN030 04/03 Q1007', 'LTFC 140420Z 02008KT 9999 BKN030 04/03 Q1007', 'LTFC 140350Z 03006KT 9999 BKN030 04/03 Q1007', 'LTFC 140320Z 06008KT 9999 BKN030 05/03 Q1007', 'LTFC 140250Z 03005KT 9999 BKN030 04/03 Q1007', 'LTFC 140220Z 04007KT 9999 BKN030 04/03 Q1007', 'LTFC 140150Z 03007KT 9999 BKN030 04/03 Q1007', 'LTFC 140120Z 04009KT 9999 BKN030 04/03 Q1008', 'LTFC 140050Z 03007KT 9999 BKN030 05/03 Q1008', 'LTFC 140020Z 02006KT 9999 BKN030 05/03 Q1008', 'LTFC 132350Z 03009KT 9999 BKN030 04/03 Q1008', 'LTFC 132320Z 03009KT 9999 SCT035 BKN090 04/03 Q1009', 'LTFC 132250Z 04010KT 9999 SCT035 BKN090 04/03 Q1009', 'LTFC 132220Z 02008KT 9999 SCT035 BKN090 04/03 Q1009', 'LTFC 132150Z 03013KT 9999 SCT035 BKN090 04/03 Q1009', 'LTFC 132120Z 05012KT 9999 SCT035 BKN090 04/03 Q1009', 'LTFC 132050Z 07006KT 040V100 9999 SCT035 BKN090 05/03 Q1010', 'LTFC 132020Z 07010KT 9999 SCT035 BKN090 04/03 Q1010', 'LTFC 131950Z 04012KT 9999 BKN030 BKN090 05/03 Q1010 RESHRA', 'LTFC 131920Z 05011KT 9999 -SHRA BKN030 05/03 Q1010', 'LTFC 131850Z 06014KT 9999 -SHRA BKN030 04/03 Q1010', 'LTFC 131820Z 05012KT 9999 -SHRA BKN030 04/03 Q1010', 'LTFC 131750Z 05011KT 9999 -SHRA BKN030 05/03 Q1011', 'LTFC 131720Z 05012KT 9999 BKN030 05/03 Q1010', 'LTFC 131650Z 06013KT 9999 BKN030 05/03 Q1010 RESHRA', 'LTFC 131620Z 05013KT 9999 -SHRA BKN030 05/04 Q1010', 'LTFC 131550Z 06012KT 9999 BKN030 06/04 Q1009', 'LTFC 131520Z 06011KT 9999 BKN035 06/04 Q1009 RESHRA', 'LTFC 131450Z 06014KT 9999 -SHRA BKN025 06/04 Q1009', 'LTFC 131420Z 05013KT 9999 -SHRA BKN025 07/05 Q1009', 'LTFC 131350Z 04007KT 9999 -SHRA BKN025 07/06 Q1009', 'LTFC 131320Z 22004KT 120V270 9999 -SHRA BKN025 07/05 Q1009', 'LTFC 131250Z 17006KT 130V200 9999 -SHRA BKN025 07/05 Q1009', 'LTFC 131220Z VRB02KT 9999 FEW008 BKN020 07/05 Q1009', 'LTFC 131150Z 19009KT 9999 -SHRA FEW008 BKN020 07/06 Q1010', 'LTFC 131120Z 17004KT 130V250 4500 -SHRA BR FEW008 BKN020 07/06 Q1010', 'LTFC 131050Z 33009KT 290V040 4000 -SHRA BR BKN020 07/06 Q1010', 'LTFC 131020Z 05009KT 9999 -SHRA BKN022 09/06 Q1009', 'LTFC 130950Z 06009KT 9999 BKN025 09/06 Q1009', 'LTFC 130920Z 05012KT 9999 BKN025 09/06 Q1009', 'LTFC 130850Z 06012KT 9999 BKN025 09/06 Q1010 RESHRA', 'LTFC 130820Z 06009KT 9999 -SHRA BKN025 08/06 Q1010', 'LTFC 130750Z 05007KT 360V080 9999 -SHRA BKN025 08/06 Q1010', 'LTFC 130720Z 16002KT 9999 -SHRA BKN025 07/06 Q1010', 'LTFC 130650Z 06005KT 010V120 9999 BKN030 08/05 Q1010', 'LTFC 130620Z 05009KT 9999 BKN030 07/05 Q1010', 'LTFC 130550Z 06006KT 9999 BKN030 07/05 Q1010 RESHRA', 'LTFC 130520Z 02006KT 360V060 9999 -SHRA BKN030 06/05 Q1010', 'LTFC 130450Z 33006KT 9999 -SHRA BKN030 06/05 Q1010', 'LTFC 130420Z 32008KT 9999 -SHRA BKN030 05/05 Q1010', 'LTFC 130350Z 32008KT 9999 -SHRA BKN030 05/04 Q1010', 'LTFC 130320Z 34011KT 9999 BKN030 05/04 Q1010 RESHRA', 'LTFC 130250Z 35012KT 9999 -SHRA BKN030 06/04 Q1010', 'LTFC 130220Z 01008KT 9999 -SHRA BKN030 06/05 Q1011', 'LTFC 130150Z 01011KT 9999 -SHRA BKN030 07/05 Q1011', 'LTFC 130120Z 36011KT 9999 -SHRA BKN030 07/05 Q1011', 'LTFC 130050Z 35008KT 9999 BKN030 08/06 Q1010', 'LTFC 130020Z 05005KT 9999 FEW025CB BKN030 07/05 Q1011', 'LTFC 122350Z 19006KT 160V230 9999 FEW025CB BKN030 09/06 Q1011 RESHRA', 'LTFC 122320Z 23009KT 9999 -SHRA FEW025CB BKN030 08/06 Q1011', 'LTFC 122250Z 21007KT 170V240 9999 -SHRA FEW025CB BKN030 09/06 Q1011', 'LTFC 122220Z VRB02KT 9999 BKN030 BKN100 08/04 Q1011 RESHRA', 'LTFC 122150Z VRB02KT 9999 -SHRA BKN030 BKN100 08/04 Q1011', 'LTFC 122120Z 17014G24KT 9999 -SHRA BKN030 BKN100 08/04 Q1011', 'LTFC 122050Z 16010KT 120V230 9999 -SHRA BKN030 BKN100 08/05 Q1011', 'LTFC 122020Z 17009KT 9999 -SHRA BKN030 BKN100 08/05 Q1011', 'LTFC 121950Z 18010KT 9999 -SHRA BKN030 BKN100 08/06 Q1011', 'LTFC 121920Z 20012KT 9999 -SHRA BKN030 BKN100 09/06 Q1012', 'LTFC 121850Z 21008KT 180V240 9999 -SHRA BKN030 BKN100 09/07 Q1012', 'LTFC 121820Z 20006KT 9999 -SHRA BKN030 BKN100 08/07 Q1012', 'LTFC 121750Z 18010KT 9999 -SHRA BKN030 BKN100 09/06 Q1012', 'LTFC 121720Z 18009KT 9999 -SHRA BKN030 BKN100 10/05 Q1013', 'LTFC 121650Z 19008KT 9999 BKN030 BKN100 11/05 Q1013', 'LTFC 121620Z 17014KT 9999 BKN030 BKN100 11/05 Q1013', 'LTFC 121550Z 16019KT 9999 BKN030 BKN100 11/05 Q1012', 'LTFC 121520Z 15025KT 9999 BKN030 BKN100 10/05 Q1012', 'LTFC 121450Z VRB06KT 9999 BKN030 BKN100 11/05 Q1012', 'LTFC 121420Z 07007KT 9999 BKN030 BKN100 12/05 Q1013', 'LTFC 121350Z 27003KT 9999 BKN030 BKN100 12/05 Q1013', 'LTFC 121320Z 14006KT 030V190 9999 BKN030 BKN100 12/05 Q1014', 'LTFC 121250Z VRB02KT 9999 BKN030 BKN100 12/05 Q1014', 'LTFC 121220Z 12006KT 9999 BKN030 BKN100 12/06 Q1014', 'LTFC 121150Z VRB09KT 9999 BKN030 BKN100 12/06 Q1015', 'LTFC 121120Z 13006KT 060V230 9999 BKN030 BKN100 12/06 Q1015', 'LTFC 121050Z 16012KT 120V190 9999 BKN030 BKN100 13/06 Q1016', 'LTFC 121020Z 14006KT 110V170 9999 BKN030 BKN100 13/07 Q1016', 'LTFC 120950Z 15010KT 9999 BKN030 BKN100 13/06 Q1016', 'LTFC 120920Z 17014G24KT 9999 BKN030 BKN100 13/06 Q1017']","['2024-02-15 08:50:00', '2024-02-15 08:20:00', '2024-02-15 07:50:00', '2024-02-15 07:20:00', '2024-02-15 06:50:00', '2024-02-15 06:20:00', '2024-02-15 05:50:00', '2024-02-15 05:20:00', '2024-02-15 04:50:00', '2024-02-15 04:20:00', '2024-02-15 03:50:00', '2024-02-15 03:20:00', '2024-02-15 02:50:00', '2024-02-15 02:20:00', '2024-02-15 01:50:00', '2024-02-15 01:20:00', '2024-02-15 00:50:00', '2024-02-15 00:20:00', '2024-02-14 23:50:00', '2024-02-14 23:20:00', '2024-02-14 22:50:00', '2024-02-14 22:20:00', '2024-02-14 21:50:00', '2024-02-14 21:20:00', '2024-02-14 20:50:00', '2024-02-14 20:20:00', '2024-02-14 19:50:00', '2024-02-14 19:20:00', '2024-02-14 18:50:00', '2024-02-14 18:20:00', '2024-02-14 17:50:00', '2024-02-14 17:20:00', '2024-02-14 16:50:00', '2024-02-14 16:20:00', '2024-02-14 15:50:00', '2024-02-14 15:20:00', '2024-02-14 14:50:00', '2024-02-14 14:20:00', '2024-02-14 13:50:00', '2024-02-14 13:20:00', '2024-02-14 12:20:00', '2024-02-14 11:50:00', '2024-02-14 11:20:00', '2024-02-14 10:50:00', '2024-02-14 10:20:00', '2024-02-14 09:50:00', '2024-02-14 08:50:00', '2024-02-14 08:20:00', '2024-02-14 07:50:00', '2024-02-14 07:20:00', '2024-02-14 06:50:00', '2024-02-14 06:20:00', '2024-02-14 05:50:00', '2024-02-14 05:20:00', '2024-02-14 04:50:00', '2024-02-14 04:20:00', '2024-02-14 03:50:00', '2024-02-14 03:20:00', '2024-02-14 02:50:00', '2024-02-14 02:20:00', '2024-02-14 01:50:00', '2024-02-14 01:20:00', '2024-02-14 00:50:00', '2024-02-14 00:20:00', '2024-02-13 23:50:00', '2024-02-13 23:20:00', '2024-02-13 22:50:00', '2024-02-13 22:20:00', '2024-02-13 21:50:00', '2024-02-13 21:20:00', '2024-02-13 20:50:00', '2024-02-13 20:20:00', '2024-02-13 19:50:00', '2024-02-13 19:20:00', '2024-02-13 18:50:00', '2024-02-13 18:20:00', '2024-02-13 17:50:00', '2024-02-13 17:20:00', '2024-02-13 16:50:00', '2024-02-13 16:20:00', '2024-02-13 15:50:00', '2024-02-13 15:20:00', '2024-02-13 14:50:00', '2024-02-13 14:20:00', '2024-02-13 13:50:00', '2024-02-13 13:20:00', '2024-02-13 12:50:00', '2024-02-13 12:20:00', '2024-02-13 11:50:00', '2024-02-13 11:20:00', '2024-02-13 10:50:00', '2024-02-13 10:20:00', '2024-02-13 09:50:00', '2024-02-13 09:20:00', '2024-02-13 08:50:00', '2024-02-13 08:20:00', '2024-02-13 07:50:00', '2024-02-13 07:20:00', '2024-02-13 06:50:00', '2024-02-13 06:20:00', '2024-02-13 05:50:00', '2024-02-13 05:20:00', '2024-02-13 04:50:00', '2024-02-13 04:20:00', '2024-02-13 03:50:00', '2024-02-13 03:20:00', '2024-02-13 02:50:00', '2024-02-13 02:20:00', '2024-02-13 01:50:00', '2024-02-13 01:20:00', '2024-02-13 00:50:00', '2024-02-13 00:20:00', '2024-02-12 23:50:00', '2024-02-12 23:20:00', '2024-02-12 22:50:00', '2024-02-12 22:20:00', '2024-02-12 21:50:00', '2024-02-12 21:20:00', '2024-02-12 20:50:00', '2024-02-12 20:20:00', '2024-02-12 19:50:00', '2024-02-12 19:20:00', '2024-02-12 18:50:00', '2024-02-12 18:20:00', '2024-02-12 17:50:00', '2024-02-12 17:20:00', '2024-02-12 16:50:00', '2024-02-12 16:20:00', '2024-02-12 15:50:00', '2024-02-12 15:20:00', '2024-02-12 14:50:00', '2024-02-12 14:20:00', '2024-02-12 13:50:00', '2024-02-12 13:20:00', '2024-02-12 12:50:00', '2024-02-12 12:20:00', '2024-02-12 11:50:00', '2024-02-12 11:20:00', '2024-02-12 10:50:00', '2024-02-12 10:20:00', '2024-02-12 09:50:00', '2024-02-12 09:20:00']"
Turkey, Istanbul Airport (IST/LTFM) ,"['LTFM 150850Z 35023KT 8000 -RA BKN008 OVC020 06/05 Q1018 NOSIG', 'LTFM 150820Z 35023KT 8000 -RA BKN008 OVC020 06/05 Q1018 NOSIG', 'LTFM 150750Z 35024KT 8000 -RA BKN008 OVC020 06/05 Q1018 NOSIG', 'LTFM 150720Z 36023KT 7000 -RA BKN008 OVC020 06/05 Q1018 NOSIG', 'LTFM 150650Z 36021KT 7000 -RA BKN008 OVC020 06/05 Q1018 NOSIG', 'LTFM 150620Z 36021KT 7000 -RA BKN008 OVC020 06/05 Q1018 NOSIG', 'LTFM 150550Z 36024KT 7000 -RA BKN008 OVC020 06/05 Q1017 NOSIG', 'LTFM 150520Z 36023KT 6000 -RA BKN008 OVC020 06/05 Q1017 NOSIG', 'LTFM 150450Z 36025KT 9999 -RA BKN007 OVC020 06/05 Q1017 NOSIG', 'LTFM 150420Z 36025KT 9999 -RA BKN005 OVC020 06/05 Q1016 NOSIG', 'LTFM 150350Z 36026KT 9999 -RA BKN005 OVC020 06/05 Q1016 NOSIG', 'LTFM 150320Z 36026KT 9999 BKN005 OVC020 07/05 Q1016 NOSIG', 'LTFM 150250Z 36024KT 9999 BKN005 OVC020 07/05 Q1016 NOSIG', 'LTFM 150220Z 01022KT 9999 BKN005 OVC020 07/05 Q1016 NOSIG', 'LTFM 150150Z 01024KT 9999 BKN005 OVC020 07/05 Q1016 NOSIG', 'LTFM 150120Z 01022KT 9999 BKN005 OVC020 07/05 Q1016 RERA NOSIG', 'LTFM 150020Z 01024KT 7000 -RA BKN005 OVC020 07/06 Q1016 NOSIG', 'LTFM 142350Z 01024KT 7000 -RA BKN005 OVC020 07/06 Q1016 NOSIG', 'LTFM 142320Z 01025KT 7000 -RA BKN005 OVC020 07/06 Q1016 NOSIG', 'LTFM 142250Z 01023KT 7000 -RA BKN005 OVC020 07/06 Q1016 NOSIG', 'LTFM 142220Z 01024KT 7000 -RA BKN003 OVC020 07/06 Q1016 NOSIG', 'LTFM 142150Z 01023KT 7000 -RA BKN005 OVC020 07/06 Q1016 NOSIG', 'LTFM 142120Z 01021KT 7000 -RA BKN005 OVC020 07/06 Q1016 NOSIG', 'LTFM 142050Z 01023KT 9999 BKN008 BKN020 07/05 Q1016 NOSIG', 'LTFM 142020Z 02024KT 9999 BKN008 BKN020 07/05 Q1016 NOSIG', 'LTFM 141950Z 01021KT 9999 BKN008 BKN020 08/06 Q1016 NOSIG', 'LTFM 141920Z 01022KT 9999 BKN008 BKN020 08/05 Q1017 NOSIG', 'LTFM 141850Z 01021KT 9999 BKN008 BKN020 07/05 Q1016 NOSIG', 'LTFM 141820Z 01018KT 9999 BKN008 BKN020 07/05 Q1016 NOSIG', 'LTFM 141750Z 01018KT 9999 BKN008 BKN023 07/05 Q1016 NOSIG', 'LTFM 141720Z 01021KT 9999 BKN008 BKN023 08/05 Q1016 NOSIG', 'LTFM 141650Z 01020KT 9999 BKN008 BKN023 08/05 Q1016 NOSIG', 'LTFM 141620Z 36021KT 9999 BKN008 BKN023 08/06 Q1016 NOSIG', 'LTFM 141550Z 01020KT 9999 BKN008 BKN023 08/05 Q1016 NOSIG', 'LTFM 141520Z 01021KT 9999 BKN008 BKN023 08/05 Q1015 NOSIG', 'LTFM 141450Z 01021KT 9999 BKN008 BKN023 08/05 Q1015 NOSIG', 'LTFM 141420Z 01020KT 9999 BKN006 BKN020 08/06 Q1015 NOSIG', 'LTFM 141350Z 01020KT 9999 BKN006 BKN020 08/06 Q1014 NOSIG', 'LTFM 141320Z 36022KT 9999 BKN006 BKN020 08/05 Q1014 NOSIG', 'LTFM 141250Z 36021KT 9999 BKN006 BKN020 08/06 Q1014 NOSIG', 'LTFM 141220Z 36021KT 9999 BKN006 BKN020 08/06 Q1014 NOSIG', 'LTFM 141150Z 36023KT 9999 BKN007 BKN023 08/06 Q1014 NOSIG', 'LTFM 141120Z 36022KT 9999 BKN007 BKN023 08/06 Q1014 NOSIG', 'LTFM 141050Z 36021KT 9999 BKN006 BKN023 08/06 Q1014 NOSIG', 'LTFM 141020Z 36021KT 9999 BKN006 BKN023 08/06 Q1014 NOSIG', 'LTFM 140950Z 36019KT 9999 BKN006 BKN023 08/06 Q1014 NOSIG', 'LTFM 140920Z 36017KT 9999 BKN007 BKN023 08/07 Q1014 NOSIG', 'LTFM 140850Z 36015KT 9999 BKN007 BKN023 08/07 Q1014 NOSIG', 'LTFM 140820Z 36013KT 9999 BKN007 BKN023 08/07 Q1014 NOSIG', 'LTFM 140750Z 36014KT 9999 BKN007 BKN023 08/07 Q1014 NOSIG', 'LTFM 140720Z 01013KT 7000 SCT007 BKN023 08/07 Q1014 NOSIG', 'LTFM 140650Z 01012KT 7000 FEW008 SCT022 BKN090 08/07 Q1013 NOSIG', 'LTFM 140620Z 01010KT 7000 FEW008 SCT022 BKN090 08/07 Q1013 NOSIG', 'LTFM 140550Z 01011KT 2900 1200E R35R/P1500N R17L/P1500N R34L/P1500N R36/1200U BCFG BKN003 08/07 Q1013 BECMG TL0620 9999 NSW', 'LTFM 140520Z 01008KT 2500 0400NE R35R/P1500N R17L/P1500N R34L/P1500N R36/P1500N BCFG BKN003 08/07 Q1013 NOSIG', 'LTFM 140450Z 02007KT 1600 0400NE R35R/0650N R17L/0500N R34L/P1500N R36/P1500U BCFG BKN003 08/07 Q1012 NOSIG', 'LTFM 140350Z 04007KT 0400 R35R/0450N R17L/0500N R34L/0600N R36/0450N FG BKN002 08/07 Q1012 NOSIG', 'LTFM 140320Z 03008KT 2500 0500E R35R/P1500N R17L/P1500N R34L/P1500N R36/0450D BCFG BKN003 BKN020 08/07 Q1012 NOSIG', 'LTFM 140250Z 02010KT 9000 SCT004 BKN020 08/08 Q1011 NOSIG', 'LTFM 140220Z 36006KT 8000 SCT004 BKN020 08/08 Q1011 NOSIG', 'LTFM 140150Z 36008KT 8000 SCT004 SCT032 BKN080 08/07 Q1011 NOSIG', 'LTFM 140120Z 01005KT 9999 SCT035 BKN080 08/07 Q1011 NOSIG', 'LTFM 140050Z 03005KT 9999 SCT035 BKN080 08/07 Q1011 NOSIG', 'LTFM 140020Z 05003KT 9999 SCT035 BKN080 09/07 Q1011 NOSIG', 'LTFM 132350Z 00000KT 9999 SCT035 BKN080 09/07 Q1011 NOSIG', 'LTFM 132320Z 03003KT 330V090 9999 SCT035 BKN080 09/07 Q1011 NOSIG', 'LTFM 132250Z VRB02KT 9999 SCT035 BKN080 09/07 Q1011 NOSIG', 'LTFM 132220Z 01005KT 310V020 9999 SCT035 BKN080 08/06 Q1011 NOSIG', 'LTFM 132150Z VRB02KT 9999 SCT035 BKN080 09/07 Q1011 NOSIG', 'LTFM 132120Z 01004KT 320V060 9999 SCT035 BKN080 10/06 Q1011 NOSIG', 'LTFM 132050Z 16003KT 110V180 9999 FEW032 BKN080 09/07 Q1011 NOSIG', 'LTFM 132020Z 16003KT 120V190 9999 FEW032 BKN080 09/07 Q1011 NOSIG', 'LTFM 131950Z 18004KT 9999 FEW032 BKN080 08/07 Q1011 NOSIG', 'LTFM 131920Z 17004KT 9999 FEW032 BKN080 08/07 Q1011 NOSIG', 'LTFM 131850Z 16004KT 9999 FEW032 SCT080 08/06 Q1011 NOSIG', 'LTFM 131820Z VRB02KT 9000 FEW032 BKN080 09/07 Q1010 NOSIG', 'LTFM 131750Z 08003KT 030V120 9999 FEW032 BKN080 09/07 Q1010 NOSIG', 'LTFM 131720Z 03003KT 300V110 9999 FEW032 BKN080 09/07 Q1010 NOSIG', 'LTFM 131650Z 03003KT 360V060 9999 FEW032 BKN080 09/07 Q1010 NOSIG', 'LTFM 131620Z 04004KT 9999 FEW032 BKN080 09/07 Q1009 NOSIG', 'LTFM 131550Z 01004KT 9999 SCT032 BKN080 09/07 Q1009 NOSIG', 'LTFM 131520Z 36006KT 9999 SCT032 BKN080 10/07 Q1009 NOSIG', 'LTFM 131450Z 35006KT 300V360 9999 SCT032 BKN080 10/08 Q1009 NOSIG', 'LTFM 131420Z 01006KT 9999 SCT032 BKN080 11/08 Q1009 NOSIG', 'LTFM 131350Z 36009KT 9999 SCT032 BKN080 11/08 Q1009 NOSIG', 'LTFM 131320Z 35011KT 9999 FEW017TCU SCT032 BKN080 11/08 Q1009 NOSIG', 'LTFM 131250Z 34012KT 9999 FEW017TCU SCT032 BKN080 11/08 Q1008 NOSIG', 'LTFM 131220Z 32012KT 9999 FEW017TCU SCT032 BKN080 12/08 Q1008 NOSIG', 'LTFM 131150Z 31012KT 270V330 9999 FEW018TCU SCT032 BKN080 12/08 Q1008 NOSIG', 'LTFM 131120Z 26012KT 210V290 9999 FEW018TCU SCT032 BKN080 13/08 Q1008 NOSIG', 'LTFM 131050Z 27011KT 220V300 9999 SCT032 BKN080 13/08 Q1008 NOSIG', 'LTFM 131020Z 26010KT 9999 SCT032 BKN080 13/08 Q1008 NOSIG', 'LTFM 130950Z 23013KT 9999 SCT032 BKN080 12/08 Q1008 RESHRA NOSIG', 'LTFM 130920Z 23012KT 9999 -SHRA SCT032 BKN080 12/08 Q1008 NOSIG', 'LTFM 130850Z 22015KT 9999 -SHRA SCT032 BKN080 11/08 Q1008 NOSIG', 'LTFM 130820Z 22015KT 9999 -SHRA SCT032 BKN080 11/09 Q1008 NOSIG', 'LTFM 130750Z 22014KT 9999 -SHRA FEW007 SCT028 BKN090 10/09 Q1008 NOSIG', 'LTFM 130720Z 22015KT 9999 -SHRA FEW007 SCT028 BKN090 10/08 Q1008 NOSIG', 'LTFM 130650Z 21015KT 9999 -SHRA FEW007 SCT028 BKN090 09/08 Q1008 NOSIG', 'LTFM 130620Z 21013KT 9999 -SHRA FEW007 SCT028 BKN090 09/08 Q1008 NOSIG', 'LTFM 130550Z 21013KT 9999 FEW008 SCT028 BKN090 09/08 Q1008 RESHRA NOSIG', 'LTFM 130520Z 21012KT 9999 -SHRA FEW012 SCT028 BKN090 09/07 Q1007 NOSIG', 'LTFM 130450Z 21010KT 9999 SCT035 BKN090 09/07 Q1007 NOSIG', 'LTFM 130420Z 21011KT 9999 SCT035 BKN090 09/07 Q1007 NOSIG', 'LTFM 130350Z 21009KT 9999 SCT035 BKN090 09/07 Q1007 NOSIG', 'LTFM 130320Z 20008KT 9999 SCT032 BKN090 09/08 Q1007 RESHRA NOSIG', 'LTFM 130250Z 18007KT 9999 -SHRA FEW011 SCT032 BKN080 09/08 Q1007 NOSIG', 'LTFM 130220Z 19009KT 9999 -SHRA FEW011 SCT032 BKN080 09/08 Q1007 NOSIG', 'LTFM 130150Z 20012KT 9999 -SHRA SCT032 BKN080 10/08 Q1007 NOSIG', 'LTFM 130120Z 19008KT 9999 SCT032 BKN080 10/08 Q1006 NOSIG', 'LTFM 130050Z 19009KT 9999 SCT032 BKN080 10/08 Q1006 RESHRA NOSIG', 'LTFM 130020Z 19011KT 9999 -SHRA SCT032 BKN080 10/08 Q1007 NOSIG', 'LTFM 122350Z 19012KT 9999 SCT032 BKN080 10/08 Q1007 NOSIG', 'LTFM 122320Z 18012KT 9999 SCT032 BKN080 10/08 Q1007 NOSIG', 'LTFM 122250Z 17011KT 9999 SCT032 BKN080 09/08 Q1007 NOSIG', 'LTFM 122220Z 19009KT 9999 SCT032 BKN080 09/08 Q1007 NOSIG', 'LTFM 122150Z 22009KT 9999 SCT032 BKN080 09/07 Q1007 NOSIG', 'LTFM 122120Z 19009KT 9999 SCT032 BKN080 09/07 Q1007 NOSIG', 'LTFM 122050Z 16010KT 9999 SCT032 BKN080 09/07 Q1008 NOSIG', 'LTFM 122020Z 21006KT 140V240 9999 SCT032 BKN080 09/08 Q1008 NOSIG', 'LTFM 121950Z 17007KT 9999 SCT032 BKN080 09/08 Q1008 NOSIG', 'LTFM 121920Z 18010KT 9999 SCT032 BKN080 09/07 Q1008 NOSIG', 'LTFM 121850Z 18011KT 9999 SCT032 BKN080 09/07 Q1009 NOSIG', 'LTFM 121820Z 17009KT 9999 SCT032 BKN080 10/07 Q1009 NOSIG', 'LTFM 121750Z 20011KT 9999 SCT032 BKN080 10/07 Q1010 NOSIG', 'LTFM 121720Z 22016KT 9999 SCT032 BKN080 10/07 Q1009 NOSIG', 'LTFM 121650Z 22011KT 9999 SCT032 BKN080 10/07 Q1009 NOSIG', 'LTFM 121620Z 25014KT 9999 SCT032 BKN080 10/07 Q1009 NOSIG', 'LTFM 121550Z 24015KT 9999 SCT032 BKN080 10/07 Q1009 NOSIG', 'LTFM 121520Z 24015KT 9999 SCT032 BKN080 11/07 Q1009 NOSIG', 'LTFM 121450Z 24012KT 9999 SCT032 BKN080 12/07 Q1009 NOSIG', 'LTFM 121420Z 24016KT 9999 SCT032 BKN080 12/07 Q1009 NOSIG', 'LTFM 121350Z 25016KT 9999 SCT032 BKN080 12/07 Q1009 NOSIG', 'LTFM 121320Z 26013KT 230V300 9999 SCT032 BKN080 12/08 Q1009 BECMG 19017G27KT', 'LTFM 121250Z 27012KT 9999 SCT032 BKN080 13/08 Q1009 BECMG 19017G27KT', 'LTFM 121220Z 33010KT 9999 SCT032 BKN080 13/08 Q1009 BECMG 19017G27KT', 'LTFM 121150Z 24009KT 9999 SCT032 BKN080 16/07 Q1009 NOSIG', 'LTFM 121120Z 21010KT 9999 SCT032 BKN080 16/08 Q1009 NOSIG', 'LTFM 121050Z 19011KT 9999 SCT032 BKN080 16/07 Q1009 NOSIG', 'LTFM 121020Z 19013KT 9999 -SHRA SCT032 BKN080 15/07 Q1009 NOSIG', 'LTFM 120950Z 19012KT 9999 SCT032 BKN080 15/08 Q1009 RESHRA NOSIG', 'LTFM 120920Z 19012KT 9999 -SHRA SCT032 BKN080 15/08 Q1009 NOSIG']","['2024-02-15 08:50:00', '2024-02-15 08:20:00', '2024-02-15 07:50:00', '2024-02-15 07:20:00', '2024-02-15 06:50:00', '2024-02-15 06:20:00', '2024-02-15 05:50:00', '2024-02-15 05:20:00', '2024-02-15 04:50:00', '2024-02-15 04:20:00', '2024-02-15 03:50:00', '2024-02-15 03:20:00', '2024-02-15 02:50:00', '2024-02-15 02:20:00', '2024-02-15 01:50:00', '2024-02-15 01:20:00', '2024-02-15 00:20:00', '2024-02-14 23:50:00', '2024-02-14 23:20:00', '2024-02-14 22:50:00', '2024-02-14 22:20:00', '2024-02-14 21:50:00', '2024-02-14 21:20:00', '2024-02-14 20:50:00', '2024-02-14 20:20:00', '2024-02-14 19:50:00', '2024-02-14 19:20:00', '2024-02-14 18:50:00', '2024-02-14 18:20:00', '2024-02-14 17:50:00', '2024-02-14 17:20:00', '2024-02-14 16:50:00', '2024-02-14 16:20:00', '2024-02-14 15:50:00', '2024-02-14 15:20:00', '2024-02-14 14:50:00', '2024-02-14 14:20:00', '2024-02-14 13:50:00', '2024-02-14 13:20:00', '2024-02-14 12:50:00', '2024-02-14 12:20:00', '2024-02-14 11:50:00', '2024-02-14 11:20:00', '2024-02-14 10:50:00', '2024-02-14 10:20:00', '2024-02-14 09:50:00', '2024-02-14 09:20:00', '2024-02-14 08:50:00', '2024-02-14 08:20:00', '2024-02-14 07:50:00', '2024-02-14 07:20:00', '2024-02-14 06:50:00', '2024-02-14 06:20:00', '2024-02-14 05:50:00', '2024-02-14 05:20:00', '2024-02-14 04:50:00', '2024-02-14 03:50:00', '2024-02-14 03:20:00', '2024-02-14 02:50:00', '2024-02-14 02:20:00', '2024-02-14 01:50:00', '2024-02-14 01:20:00', '2024-02-14 00:50:00', '2024-02-14 00:20:00', '2024-02-13 23:50:00', '2024-02-13 23:20:00', '2024-02-13 22:50:00', '2024-02-13 22:20:00', '2024-02-13 21:50:00', '2024-02-13 21:20:00', '2024-02-13 20:50:00', '2024-02-13 20:20:00', '2024-02-13 19:50:00', '2024-02-13 19:20:00', '2024-02-13 18:50:00', '2024-02-13 18:20:00', '2024-02-13 17:50:00', '2024-02-13 17:20:00', '2024-02-13 16:50:00', '2024-02-13 16:20:00', '2024-02-13 15:50:00', '2024-02-13 15:20:00', '2024-02-13 14:50:00', '2024-02-13 14:20:00', '2024-02-13 13:50:00', '2024-02-13 13:20:00', '2024-02-13 12:50:00', '2024-02-13 12:20:00', '2024-02-13 11:50:00', '2024-02-13 11:20:00', '2024-02-13 10:50:00', '2024-02-13 10:20:00', '2024-02-13 09:50:00', '2024-02-13 09:20:00', '2024-02-13 08:50:00', '2024-02-13 08:20:00', '2024-02-13 07:50:00', '2024-02-13 07:20:00', '2024-02-13 06:50:00', '2024-02-13 06:20:00', '2024-02-13 05:50:00', '2024-02-13 05:20:00', '2024-02-13 04:50:00', '2024-02-13 04:20:00', '2024-02-13 03:50:00', '2024-02-13 03:20:00', '2024-02-13 02:50:00', '2024-02-13 02:20:00', '2024-02-13 01:50:00', '2024-02-13 01:20:00', '2024-02-13 00:50:00', '2024-02-13 00:20:00', '2024-02-12 23:50:00', '2024-02-12 23:20:00', '2024-02-12 22:50:00', '2024-02-12 22:20:00', '2024-02-12 21:50:00', '2024-02-12 21:20:00', '2024-02-12 20:50:00', '2024-02-12 20:20:00', '2024-02-12 19:50:00', '2024-02-12 19:20:00', '2024-02-12 18:50:00', '2024-02-12 18:20:00', '2024-02-12 17:50:00', '2024-02-12 17:20:00', '2024-02-12 16:50:00', '2024-02-12 16:20:00', '2024-02-12 15:50:00', '2024-02-12 15:20:00', '2024-02-12 14:50:00', '2024-02-12 14:20:00', '2024-02-12 13:50:00', '2024-02-12 13:20:00', '2024-02-12 12:50:00', '2024-02-12 12:20:00', '2024-02-12 11:50:00', '2024-02-12 11:20:00', '2024-02-12 10:50:00', '2024-02-12 10:20:00', '2024-02-12 09:50:00', '2024-02-12 09:20:00']"
Turkey, Istanbul Sabiha Gokcen International Airport (SAW/LTFJ) ,"['LTFJ 150850Z 07012KT 9999 -RA BKN009 BKN020 07/06 Q1017 NOSIG', 'LTFJ 150820Z 07013KT 280V080 9999 -RA BKN009 BKN020 07/06 Q1017 NOSIG', 'LTFJ 150750Z 07013KT 010V080 9999 -RA BKN007 BKN020 07/06 Q1016 NOSIG', 'LTFJ 150720Z 07014KT 280V080 9999 -RA BKN007 BKN020 07/06 Q1016 NOSIG', 'LTFJ 150650Z 07013KT 340V080 8000 -RA BKN007 BKN020 07/06 Q1016 NOSIG', 'LTFJ 150620Z 06013KT 280V080 9999 -RA BKN006 BKN020 07/06 Q1016 NOSIG', 'LTFJ 150550Z 06013KT 280V080 9999 -RA BKN006 BKN020 07/06 Q1016 NOSIG', 'LTFJ 150520Z 06014KT 300V080 8000 -RA BKN006 BKN020 07/06 Q1016 NOSIG', 'LTFJ 150450Z 06015KT 340V080 8000 -RA BKN006 BKN020 07/06 Q1015 NOSIG', 'LTFJ 150420Z 07012KT 320V080 8000 -RA BKN006 BKN020 07/06 Q1015 NOSIG', 'LTFJ 150350Z 07012KT 330V080 8000 -RA BKN006 BKN020 07/06 Q1015 NOSIG', 'LTFJ 150320Z 07012KT 300V080 7000 -RA BKN006 BKN020 07/06 Q1015 RERA NOSIG', 'LTFJ 150250Z 07014KT 280V080 8000 -RA BKN006 BKN020 07/06 Q1015 NOSIG', 'LTFJ 150220Z 07014KT 020V080 8000 -RA BKN005 BKN020 07/06 Q1015 NOSIG', 'LTFJ 150150Z 06014KT 280V080 8000 -RA BKN005 BKN020 07/06 Q1014 NOSIG', 'LTFJ 150120Z 07016KT 360V080 8000 -RA BKN005 BKN020 07/06 Q1014 NOSIG', 'LTFJ 150050Z 06016KT 280V080 8000 -RA BKN005 BKN020 07/06 Q1014 NOSIG', 'LTFJ 150020Z 06014KT 290V080 7000 -RA BKN005 BKN020 08/06 Q1014 NOSIG', 'LTFJ 142350Z 06014KT 280V080 8000 -RA BKN005 BKN020 08/06 Q1014 NOSIG', 'LTFJ 142320Z 07013KT 280V080 6000 -RA BKN005 BKN020 08/07 Q1014 NOSIG', 'LTFJ 142250Z 01011KT 280V080 7000 -RA BKN005 BKN020 08/06 Q1014 NOSIG', 'LTFJ 142220Z 06011KT 290V080 7000 -RA BKN005 BKN020 08/06 Q1014 NOSIG', 'LTFJ 142150Z 07012KT 300V080 7000 -SHRA BKN005 BKN022 08/06 Q1014 NOSIG', 'LTFJ 142120Z 06013KT 320V080 9999 -SHRA SCT007 BKN022 08/06 Q1014 NOSIG', 'LTFJ 142050Z 05012KT 280V080 9999 -SHRA SCT007 BKN022 08/06 Q1015 NOSIG', 'LTFJ 142020Z 06014KT 300V080 9999 -SHRA SCT007 BKN022 08/06 Q1015 NOSIG', 'LTFJ 141950Z 06014KT 280V080 9999 -SHRA SCT007 BKN022 08/06 Q1015 NOSIG', 'LTFJ 141920Z 06014KT 280V080 9999 -SHRA SCT007 BKN020 08/06 Q1015 NOSIG', 'LTFJ 141850Z 06015KT 280V080 9999 -SHRA SCT007 BKN022 08/06 Q1015 NOSIG', 'LTFJ 141820Z 06015KT 330V080 9999 -SHRA SCT007 BKN022 08/06 Q1015 NOSIG', 'LTFJ 141750Z 06016KT 290V080 9999 -SHRA SCT007 BKN022 08/06 Q1015 NOSIG', 'LTFJ 141720Z 06014KT 310V080 9999 -SHRA SCT007 BKN022 08/06 Q1015 NOSIG', 'LTFJ 141650Z 06016KT 9999 -SHRA SCT007 BKN022 08/06 Q1015 NOSIG', 'LTFJ 141620Z 06015KT 360V080 9999 -SHRA SCT007 BKN022 08/06 Q1014 NOSIG', 'LTFJ 141550Z 07016KT 350V080 9999 -SHRA SCT007 BKN022 08/06 Q1014 NOSIG', 'LTFJ 141520Z 06015KT 310V080 9999 -SHRA SCT007 BKN022 08/06 Q1014 NOSIG', 'LTFJ 141450Z 07015KT 360V080 9999 -SHRA SCT007 BKN025 08/06 Q1013 NOSIG', 'LTFJ 141420Z 07013KT 360V080 9999 -SHRA SCT007 BKN025 08/07 Q1013 NOSIG', 'LTFJ 141350Z 06013KT 010V080 8000 -SHRA SCT007 BKN025 08/07 Q1013 NOSIG', 'LTFJ 141320Z 06013KT 300V080 6000 -SHRA SCT007 BKN025 08/07 Q1013 NOSIG', 'LTFJ 141250Z 06015KT 010V080 9999 -SHRA SCT011 BKN030 09/06 Q1013 NOSIG', 'LTFJ 141220Z 07014KT 010V080 9999 SCT011 BKN030 09/06 Q1013 NOSIG', 'LTFJ 141150Z 06015KT 320V080 9999 SCT011 BKN030 09/06 Q1012 NOSIG', 'LTFJ 141120Z 06016KT 330V080 9999 SCT011 BKN030 10/06 Q1012 NOSIG', 'LTFJ 141050Z 06013KT 280V080 9999 SCT011 BKN030 10/06 Q1012 NOSIG', 'LTFJ 141020Z 06013KT 9999 SCT011 BKN030 10/07 Q1012 NOSIG', 'LTFJ 140950Z 06014KT 9999 BKN011 BKN030 10/07 Q1012 NOSIG', 'LTFJ 140920Z 06012KT 9999 SCT009 SCT035 BKN090 10/07 Q1013 NOSIG', 'LTFJ 140850Z 05012KT 9999 SCT009 SCT035 BKN090 10/07 Q1013 NOSIG', 'LTFJ 140820Z 05014KT 9999 SCT009 SCT035 BKN090 09/06 Q1012 NOSIG', 'LTFJ 140750Z 06016KT 9999 SCT009 SCT035 BKN090 09/06 Q1012 NOSIG', 'LTFJ 140720Z 05015KT 9999 SCT009 BKN080 09/06 Q1012 NOSIG', 'LTFJ 140650Z 06014KT 9999 SCT009 SCT035 BKN090 09/06 Q1012 NOSIG', 'LTFJ 140620Z 06014KT 9999 SCT008 BKN025 09/07 Q1012 NOSIG', 'LTFJ 140520Z 06013KT 9999 SCT008 BKN025 08/07 Q1012 NOSIG', 'LTFJ 140450Z 06013KT 9999 SCT007 BKN025 08/07 Q1011 NOSIG', 'LTFJ 140420Z 07013KT 9999 SCT006 BKN025 08/07 Q1011 NOSIG', 'LTFJ 140350Z 06012KT 4200 BR SCT004 BKN025 08/07 Q1011 NOSIG', 'LTFJ 140320Z 06012KT 5000 BR SCT004 BKN025 08/07 Q1011 NOSIG', 'LTFJ 140250Z 06010KT 8000 SCT006 BKN025 09/07 Q1010 NOSIG', 'LTFJ 140220Z 06007KT 9999 SCT040 BKN070 09/07 Q1010 NOSIG', 'LTFJ 140150Z 06005KT 9999 SCT040 BKN070 09/07 Q1010 NOSIG', 'LTFJ 140120Z 05005KT 9999 SCT040 BKN070 09/07 Q1010 NOSIG', 'LTFJ 140050Z 05003KT 9999 SCT040 BKN070 08/07 Q1010 NOSIG', 'LTFJ 140020Z 05006KT 9999 SCT040 BKN070 09/07 Q1010 NOSIG', 'LTFJ 132350Z 07006KT 020V080 9999 SCT040 BKN070 09/07 Q1010 NOSIG', 'LTFJ 132320Z 06006KT 9999 SCT040 BKN070 09/07 Q1010 NOSIG', 'LTFJ 132250Z 06006KT 9999 SCT040 BKN070 09/07 Q1010 NOSIG', 'LTFJ 132220Z 06004KT 9999 SCT035 BKN090 09/07 Q1010 NOSIG', 'LTFJ 132150Z 06006KT 9999 SCT035 BKN090 09/07 Q1010 NOSIG', 'LTFJ 132120Z 07004KT 9999 SCT035 BKN090 09/07 Q1010 NOSIG', 'LTFJ 132050Z 07006KT 350V080 9999 SCT035 BKN090 09/07 Q1010 NOSIG', 'LTFJ 132020Z 06006KT 010V080 CAVOK 09/07 Q1010 NOSIG', 'LTFJ 131950Z 06006KT 9999 SCT035 BKN090 09/07 Q1010 NOSIG', 'LTFJ 131920Z 06007KT 9999 SCT035 BKN090 09/07 Q1010 NOSIG', 'LTFJ 131850Z 05005KT 280V080 9999 SCT035 BKN090 09/07 Q1010 NOSIG', 'LTFJ 131820Z 05006KT 9999 SCT035 BKN090 09/07 Q1010 NOSIG', 'LTFJ 131750Z 06004KT 9999 SCT035 BKN090 10/08 Q1010 NOSIG', 'LTFJ 131720Z 12004KT 9999 SCT035 BKN090 10/08 Q1010 NOSIG', 'LTFJ 131650Z 12002KT 9999 SCT035 BKN090 10/08 Q1009 NOSIG', 'LTFJ 131620Z 23007KT 9999 SCT035 BKN090 10/08 Q1009 NOSIG', 'LTFJ 131550Z 21004KT 100V260 9999 SCT035 BKN090 11/08 Q1009 NOSIG', 'LTFJ 131520Z 24006KT 150V260 9999 SCT035 BKN090 12/07 Q1009 NOSIG', 'LTFJ 131450Z 19004KT 100V260 9999 SCT035 BKN090 13/07 Q1008 NOSIG', 'LTFJ 131420Z 24005KT 9999 SCT035 BKN090 13/07 Q1008 NOSIG', 'LTFJ 131350Z 26006KT 230V300 9999 SCT035 BKN090 12/06 Q1008 RESHRA NOSIG', 'LTFJ 131320Z 28009KT 9999 -SHRA BKN030 BKN080 13/06 Q1008 NOSIG', 'LTFJ 131250Z 27011KT 9999 SCT035 BKN100 13/06 Q1008 NOSIG', 'LTFJ 131220Z 26011KT 9999 SCT035 BKN100 13/06 Q1008 NOSIG', 'LTFJ 131150Z 26008KT 230V290 9999 SCT035 BKN100 14/06 Q1008 NOSIG', 'LTFJ 131120Z 25008KT 230V290 9999 SCT035 BKN100 13/05 Q1008 NOSIG', 'LTFJ 131050Z 25008KT 9999 SCT035 BKN100 13/06 Q1008 NOSIG', 'LTFJ 131020Z 26011KT 9999 SCT035 BKN100 13/06 Q1008 NOSIG', 'LTFJ 130950Z 24009KT 9999 SCT035 BKN100 13/06 Q1008 NOSIG', 'LTFJ 130920Z 24011KT 9999 SCT035 BKN100 13/05 Q1008 NOSIG', 'LTFJ 130850Z 25011KT 9999 SCT035 BKN100 12/05 Q1008 RESHRA NOSIG', 'LTFJ 130820Z 25010KT 230V290 9999 -SHRA BKN035 BKN100 12/06 Q1008 NOSIG', 'LTFJ 130750Z 24009KT 9999 -SHRA BKN035 BKN100 12/06 Q1008 NOSIG', 'LTFJ 130720Z 23011KT 9999 SCT035 BKN100 12/07 Q1009 NOSIG', 'LTFJ 130650Z 24013KT 9999 SCT035 BKN100 11/07 Q1008 NOSIG', 'LTFJ 130620Z 24013KT 9999 SCT035 BKN100 10/06 Q1008 NOSIG', 'LTFJ 130550Z 24010KT 9999 SCT035 BKN100 10/07 Q1008 NOSIG', 'LTFJ 130520Z 26006KT 9999 SCT035 BKN100 10/07 Q1008 NOSIG', 'LTFJ 130450Z 25006KT 9999 SCT035 BKN100 10/07 Q1008 NOSIG', 'LTFJ 130420Z 25008KT 9999 SCT035 BKN100 10/07 Q1007 NOSIG', 'LTFJ 130350Z 25006KT 9999 SCT035 BKN100 10/07 Q1007 NOSIG', 'LTFJ 130320Z 27008KT 9999 SCT035 BKN100 10/07 Q1007 NOSIG', 'LTFJ 130250Z 26009KT 9999 SCT035 BKN100 10/07 Q1007 NOSIG', 'LTFJ 130220Z 27012KT 9999 BKN035 BKN100 10/07 Q1007 RESHRA NOSIG', 'LTFJ 130150Z 24009KT 9999 BKN035 BKN100 10/08 Q1006 NOSIG', 'LTFJ 130120Z 07004KT 280V080 9999 SCT035 BKN100 11/07 Q1006 NOSIG', 'LTFJ 130050Z 02003KT 280V080 9999 SCT035 BKN100 10/07 Q1006 NOSIG', 'LTFJ 130020Z 07005KT 9999 SCT035 BKN100 10/07 Q1006 NOSIG', 'LTFJ 122350Z 07005KT 9999 SCT035 BKN100 10/08 Q1007 NOSIG', 'LTFJ 122320Z 06004KT 9999 SCT035 BKN100 10/07 Q1007 NOSIG', 'LTFJ 122250Z 05003KT 9999 SCT035 BKN100 09/07 Q1007 NOSIG', 'LTFJ 122220Z 06004KT 9999 SCT035 BKN080 09/08 Q1007 NOSIG', 'LTFJ 122150Z 12003KT 9999 SCT035 BKN080 10/08 Q1007 NOSIG', 'LTFJ 122120Z VRB02KT 9999 SCT035 BKN080 10/07 Q1008 NOSIG', 'LTFJ 122050Z 24005KT 9999 SCT035 BKN080 10/07 Q1008 NOSIG', 'LTFJ 122020Z VRB01KT 9999 SCT035 BKN080 09/07 Q1008 NOSIG', 'LTFJ 121950Z VRB01KT 9999 SCT035 BKN080 10/07 Q1009 NOSIG', 'LTFJ 121920Z 11004KT 100V260 9999 SCT035 BKN080 10/07 Q1009 NOSIG', 'LTFJ 121850Z 24006KT 9999 SCT035 BKN080 10/08 Q1009 NOSIG', 'LTFJ 121820Z 25007KT 9999 SCT035 BKN080 10/08 Q1009 RESHRA NOSIG', 'LTFJ 121750Z 25005KT 9999 -SHRA SCT035 BKN080 10/08 Q1010 NOSIG', 'LTFJ 121720Z 23007KT 9999 -SHRA SCT035 BKN080 10/08 Q1011 NOSIG', 'LTFJ 121650Z 24005KT 9999 SCT040 BKN080 10/07 Q1011 NOSIG', 'LTFJ 121620Z 24008KT 9999 SCT040 BKN080 11/07 Q1011 NOSIG', 'LTFJ 121550Z 27014KT 240V300 9999 SCT040 BKN080 11/07 Q1010 BECMG TL1620 15012KT', 'LTFJ 121520Z 27013KT 9999 SCT040 BKN080 12/07 Q1010 BECMG TL1620 15012KT', 'LTFJ 121450Z 26013KT 9999 SCT040 BKN080 12/07 Q1010 BECMG TL1550 15012KT', 'LTFJ 121420Z 27019KT 9999 SCT040 BKN080 13/08 Q1009 BECMG TL1520 15012KT', 'LTFJ 121350Z 27015KT 9999 SCT040 BKN080 16/06 Q1008 BECMG TL1450 15012KT', 'LTFJ 121320Z 24007KT 110V260 9999 SCT040 BKN080 18/04 Q1008 BECMG TL1350 15012KT', 'LTFJ 121250Z 24007KT 100V260 9999 SCT040 BKN080 19/04 Q1008 BECMG TL1320 15012KT', 'LTFJ 121220Z 13008KT 100V260 9999 SCT040 BKN080 19/04 Q1008 NOSIG', 'LTFJ 121150Z 14008KT 100V260 9999 SCT040 BKN080 19/04 Q1008 NOSIG', 'LTFJ 121120Z 11010KT 100V240 9999 SCT040 BKN080 18/05 Q1009 NOSIG', 'LTFJ 121050Z 13009KT 100V260 9999 SCT040 BKN080 18/04 Q1009 NOSIG', 'LTFJ 121020Z 13010KT 100V260 9999 SCT040 BKN080 18/04 Q1010 NOSIG', 'LTFJ 120950Z 11010KT 100V240 9999 SCT040 BKN080 18/05 Q1010 NOSIG', 'LTFJ 120920Z 12008KT 100V260 9999 SCT040 BKN080 18/06 Q1010 NOSIG']","['2024-02-15 08:50:00', '2024-02-15 08:20:00', '2024-02-15 07:50:00', '2024-02-15 07:20:00', '2024-02-15 06:50:00', '2024-02-15 06:20:00', '2024-02-15 05:50:00', '2024-02-15 05:20:00', '2024-02-15 04:50:00', '2024-02-15 04:20:00', '2024-02-15 03:50:00', '2024-02-15 03:20:00', '2024-02-15 02:50:00', '2024-02-15 02:20:00', '2024-02-15 01:50:00', '2024-02-15 01:20:00', '2024-02-15 00:50:00', '2024-02-15 00:20:00', '2024-02-14 23:50:00', '2024-02-14 23:20:00', '2024-02-14 22:50:00', '2024-02-14 22:20:00', '2024-02-14 21:50:00', '2024-02-14 21:20:00', '2024-02-14 20:50:00', '2024-02-14 20:20:00', '2024-02-14 19:50:00', '2024-02-14 19:20:00', '2024-02-14 18:50:00', '2024-02-14 18:20:00', '2024-02-14 17:50:00', '2024-02-14 17:20:00', '2024-02-14 16:50:00', '2024-02-14 16:20:00', '2024-02-14 15:50:00', '2024-02-14 15:20:00', '2024-02-14 14:50:00', '2024-02-14 14:20:00', '2024-02-14 13:50:00', '2024-02-14 13:20:00', '2024-02-14 12:50:00', '2024-02-14 12:20:00', '2024-02-14 11:50:00', '2024-02-14 11:20:00', '2024-02-14 10:50:00', '2024-02-14 10:20:00', '2024-02-14 09:50:00', '2024-02-14 09:20:00', '2024-02-14 08:50:00', '2024-02-14 08:20:00', '2024-02-14 07:50:00', '2024-02-14 07:20:00', '2024-02-14 06:50:00', '2024-02-14 06:20:00', '2024-02-14 05:20:00', '2024-02-14 04:50:00', '2024-02-14 04:20:00', '2024-02-14 03:50:00', '2024-02-14 03:20:00', '2024-02-14 02:50:00', '2024-02-14 02:20:00', '2024-02-14 01:50:00', '2024-02-14 01:20:00', '2024-02-14 00:50:00', '2024-02-14 00:20:00', '2024-02-13 23:50:00', '2024-02-13 23:20:00', '2024-02-13 22:50:00', '2024-02-13 22:20:00', '2024-02-13 21:50:00', '2024-02-13 21:20:00', '2024-02-13 20:50:00', '2024-02-13 20:20:00', '2024-02-13 19:50:00', '2024-02-13 19:20:00', '2024-02-13 18:50:00', '2024-02-13 18:20:00', '2024-02-13 17:50:00', '2024-02-13 17:20:00', '2024-02-13 16:50:00', '2024-02-13 16:20:00', '2024-02-13 15:50:00', '2024-02-13 15:20:00', '2024-02-13 14:50:00', '2024-02-13 14:20:00', '2024-02-13 13:50:00', '2024-02-13 13:20:00', '2024-02-13 12:50:00', '2024-02-13 12:20:00', '2024-02-13 11:50:00', '2024-02-13 11:20:00', '2024-02-13 10:50:00', '2024-02-13 10:20:00', '2024-02-13 09:50:00', '2024-02-13 09:20:00', '2024-02-13 08:50:00', '2024-02-13 08:20:00', '2024-02-13 07:50:00', '2024-02-13 07:20:00', '2024-02-13 06:50:00', '2024-02-13 06:20:00', '2024-02-13 05:50:00', '2024-02-13 05:20:00', '2024-02-13 04:50:00', '2024-02-13 04:20:00', '2024-02-13 03:50:00', '2024-02-13 03:20:00', '2024-02-13 02:50:00', '2024-02-13 02:20:00', '2024-02-13 01:50:00', '2024-02-13 01:20:00', '2024-02-13 00:50:00', '2024-02-13 00:20:00', '2024-02-12 23:50:00', '2024-02-12 23:20:00', '2024-02-12 22:50:00', '2024-02-12 22:20:00', '2024-02-12 21:50:00', '2024-02-12 21:20:00', '2024-02-12 20:50:00', '2024-02-12 20:20:00', '2024-02-12 19:50:00', '2024-02-12 19:20:00', '2024-02-12 18:50:00', '2024-02-12 18:20:00', '2024-02-12 17:50:00', '2024-02-12 17:20:00', '2024-02-12 16:50:00', '2024-02-12 16:20:00', '2024-02-12 15:50:00', '2024-02-12 15:20:00', '2024-02-12 14:50:00', '2024-02-12 14:20:00', '2024-02-12 13:50:00', '2024-02-12 13:20:00', '2024-02-12 12:50:00', '2024-02-12 12:20:00', '2024-02-12 11:50:00', '2024-02-12 11:20:00', '2024-02-12 10:50:00', '2024-02-12 10:20:00', '2024-02-12 09:50:00', '2024-02-12 09:20:00']"
Turkey, Istanbul Ataturk Airport (ISL/LTBA) ,"['LTBA 150850Z 36018KT 9999 -RA BKN011 OVC020 07/05 Q1017', 'LTBA 150820Z 36016G27KT 9999 -RA BKN011 OVC020 07/05 Q1017', 'LTBA 150750Z 36015KT 9999 -RA BKN011 OVC020 07/05 Q1017', 'LTBA 150720Z 36015KT 320V020 9999 -RA BKN011 OVC020 07/05 Q1017', 'LTBA 150650Z 36016KT 9999 -RA BKN011 OVC020 07/05 Q1017', 'LTBA 150620Z 36013G23KT 9999 -RA BKN012 BKN020 07/05 Q1017', 'LTBA 150550Z 36013KT 9999 -RA BKN012 BKN022 07/05 Q1017', 'LTBA 150520Z 36011KT 8000 -RA BKN012 BKN020 07/05 Q1016', 'LTBA 150450Z 36014KT 320V030 9999 -RA BKN011 BKN020 07/05 Q1016', 'LTBA 150420Z 36014KT 9999 -RA BKN011 BKN021 07/06 Q1016', 'LTBA 150350Z 01015G26KT 9999 -RA BKN012 BKN022 08/06 Q1016', 'LTBA 150320Z 36016KT 9999 -RA BKN011 BKN021 07/05 Q1016', 'LTBA 150250Z 36017KT 9999 -RA BKN010 BKN020 07/05 Q1015', 'LTBA 150220Z 36013G24KT 9999 -RA BKN011 BKN021 07/06 Q1015', 'LTBA 150150Z 36016KT 9999 -RA BKN010 BKN020 08/06 Q1015', 'LTBA 150120Z 36015KT 9999 BKN010 BKN020 08/06 Q1015 RERA', 'LTBA 150050Z 36016KT 9999 -RA BKN010 BKN025 BKN070 08/06 Q1015', 'LTBA 150020Z 01014KT 8000 -RA BKN008 BKN025 BKN070 08/06 Q1015', 'LTBA 142350Z 36014G24KT 6000 -RA BKN009 BKN024 BKN070 07/06 Q1015', 'LTBA 142320Z 36013KT 4000 -RA BR BKN008 BKN026 BKN070 08/06 Q1015', 'LTBA 142250Z 36015KT 4500 -RA BR BKN008 BKN021 BKN070 08/06 Q1015', 'LTBA 142220Z 36012G23KT 6000 -RA BKN009 BKN025 BKN070 08/06 Q1015', 'LTBA 142150Z 36016KT 7000 -RA BKN011 BKN025 BKN070 08/06 Q1015', 'LTBA 142120Z 36015KT 9999 SCT015 BKN025 BKN070 08/05 Q1015', 'LTBA 142050Z 36017KT 9999 SCT015 BKN025 BKN070 08/05 Q1015', 'LTBA 142020Z 36017KT 9999 FEW014 BKN025 BKN070 08/05 Q1015', 'LTBA 141950Z 01016KT 9999 SCT014 BKN025 BKN070 08/05 Q1015', 'LTBA 141920Z 36012KT 9999 SCT014 BKN025 BKN070 08/05 Q1016', 'LTBA 141850Z 36013KT 9999 SCT014 BKN020 BKN070 08/05 Q1015', 'LTBA 141820Z 36016KT 9999 BKN015 BKN025 BKN070 08/05 Q1015', 'LTBA 141750Z 36017KT 9999 SCT015 BKN025 BKN070 08/05 Q1015', 'LTBA 141720Z 35015KT 9999 SCT015 BKN025 BKN070 08/05 Q1015', 'LTBA 141650Z 01015KT 9999 BKN020 BKN070 09/05 Q1015', 'LTBA 141620Z 36016KT 9999 BKN017 BKN025 BKN090 08/05 Q1015', 'LTBA 141550Z 01018KT 9999 BKN015 BKN025 09/05 Q1015', 'LTBA 141520Z 36015KT 9999 BKN015 BKN025 09/05 Q1014', 'LTBA 141450Z 36019KT 9999 BKN013 BKN025 09/05 Q1014', 'LTBA 141420Z 01018G30KT 9999 BKN011 BKN025 08/06 Q1014', 'LTBA 141350Z 01016G28KT 9999 BKN011 BKN025 09/06 Q1014', 'LTBA 141320Z 02018KT 9999 BKN011 BKN025 09/06 Q1014', 'LTBA 141250Z 01017KT 9999 BKN011 BKN025 09/06 Q1013', 'LTBA 141220Z 36016KT 9999 BKN010 BKN025 09/06 Q1013', 'LTBA 141150Z 36015KT 9999 BKN010 BKN025 08/06 Q1013', 'LTBA 141120Z 36014KT 9999 BKN010 BKN025 09/06 Q1013', 'LTBA 141050Z 36015KT 9999 BKN012 BKN025 10/07 Q1013', 'LTBA 141020Z 01015KT 9999 BKN015 BKN025 10/07 Q1013', 'LTBA 140950Z 02013KT 9999 SCT015 BKN035 BKN090 10/06 Q1013', 'LTBA 140920Z 02013KT 9999 SCT014 BKN035 BKN090 10/07 Q1013', 'LTBA 140850Z 01013KT 9999 SCT012 BKN035 BKN090 10/07 Q1013', 'LTBA 140820Z 01010KT 9999 SCT012 BKN025 BKN080 09/07 Q1013', 'LTBA 140750Z 01016KT 9999 SCT012 BKN025 BKN080 09/07 Q1013', 'LTBA 140720Z 01013KT 9999 FEW012 BKN025 BKN080 09/07 Q1013 RESHRA', 'LTBA 140650Z 01014KT 9999 -SHRA BKN025 BKN080 09/07 Q1012', 'LTBA 140620Z 01012KT 9999 -SHRA SCT010 BKN040 BKN080 09/07 Q1012', 'LTBA 140550Z 01011KT 9999 SCT010 BKN040 BKN080 09/06 Q1012', 'LTBA 140520Z 02009KT 9999 SCT010 BKN040 BKN080 09/07 Q1012', 'LTBA 140450Z 01009KT 9999 SCT008 BKN060 09/07 Q1012', 'LTBA 140420Z 36009KT 9999 SCT008 BKN060 09/07 Q1011', 'LTBA 140350Z 36011KT 9999 FEW008 BKN060 09/07 Q1011', 'LTBA 140320Z 36011KT 9999 SCT040 BKN080 09/07 Q1011', 'LTBA 140250Z 02008KT 9999 SCT040 BKN080 10/07 Q1011', 'LTBA 140220Z 03004KT 9999 SCT040 BKN080 10/06 Q1010', 'LTBA 140150Z 33002KT 9999 SCT040 BKN080 10/07 Q1010', 'LTBA 140120Z 36002KT 9999 SCT040 BKN070 10/07 Q1010', 'LTBA 140050Z 00000KT 9999 SCT040 BKN070 10/08 Q1010', 'LTBA 140020Z 23003KT 9999 SCT040 BKN070 10/08 Q1011', 'LTBA 132350Z 04002KT 9999 SCT040 BKN070 10/07 Q1010', 'LTBA 132320Z 04004KT 9999 SCT040 BKN070 10/07 Q1010', 'LTBA 132250Z 06003KT 9999 FEW035 BKN060 10/07 Q1010', 'LTBA 132220Z 00000KT 9999 FEW035 BKN060 10/08 Q1010', 'LTBA 132150Z 00000KT 9999 SCT035 BKN060 10/07 Q1010', 'LTBA 132120Z 07001KT 9999 FEW035 BKN060 10/07 Q1010', 'LTBA 132050Z 00000KT 9999 FEW030 BKN070 10/07 Q1010', 'LTBA 132020Z 04004KT 9999 FEW030 BKN060 09/07 Q1010', 'LTBA 131950Z 06005KT 9999 FEW030 SCT060 10/07 Q1010', 'LTBA 131920Z 06005KT 9999 FEW025 SCT080 10/07 Q1010', 'LTBA 131850Z 02004KT 9999 FEW025 SCT090 10/07 Q1010', 'LTBA 131820Z 05006KT 9999 FEW022 SCT080 10/07 Q1010', 'LTBA 131750Z 09003KT 9999 FEW022 SCT080 10/07 Q1010', 'LTBA 131720Z VRB02KT 9999 FEW022 SCT080 10/07 Q1010', 'LTBA 131650Z 01004KT CAVOK 11/07 Q1009', 'LTBA 131620Z 01005KT CAVOK 11/07 Q1009', 'LTBA 131550Z 29003KT 260V360 9999 FEW035 SCT080 11/08 Q1009', 'LTBA 131520Z 25006KT 9999 FEW035 BKN080 11/08 Q1009', 'LTBA 131450Z 25007KT 9999 FEW035 BKN080 11/07 Q1008', 'LTBA 131420Z 24006KT 9999 FEW035 BKN080 13/08 Q1008', 'LTBA 131350Z 23006KT 9999 SCT035 BKN100 13/08 Q1008', 'LTBA 131320Z 24005KT 9999 SCT035 BKN100 13/08 Q1008', 'LTBA 131250Z 25008KT 9999 SCT035 BKN100 12/08 Q1008', 'LTBA 131220Z 25010KT 9999 FEW035 SCT080 12/08 Q1008', 'LTBA 131150Z 25012KT 9999 FEW035 SCT080 12/08 Q1008', 'LTBA 131120Z 25012KT 9999 FEW035 SCT080 13/08 Q1008', 'LTBA 131050Z 25011KT 9999 FEW035 SCT080 12/08 Q1008', 'LTBA 131020Z 26010KT 9999 FEW035 SCT080 12/08 Q1008', 'LTBA 130950Z 26008KT 9999 FEW035 SCT080 12/08 Q1008', 'LTBA 130920Z 25007KT 9999 SCT035 BKN080 12/08 Q1008', 'LTBA 130850Z 26006KT 9999 SCT035 BKN080 11/09 Q1008 RESHRA', 'LTBA 130820Z 25006KT 9999 -SHRA FEW016 SCT025 BKN060 11/09 Q1008', 'LTBA 130750Z 24005KT 9999 -SHRA FEW016 SCT025 BKN060 10/09 Q1009', 'LTBA 130720Z 24005KT 9999 -SHRA FEW016 BKN025 BKN060 10/08 Q1009', 'LTBA 130650Z 22006KT 9999 -SHRA FEW016 BKN025 BKN060 10/08 Q1008', 'LTBA 130620Z 23008KT 9999 FEW016 BKN025 BKN060 10/08 Q1008', 'LTBA 130550Z 23010KT 9999 SCT040 BKN100 10/08 Q1008', 'LTBA 130520Z 23008KT 9999 SCT040 BKN100 10/08 Q1008', 'LTBA 130450Z 20005KT 9999 SCT040 BKN100 10/09 Q1007', 'LTBA 130420Z 20002KT 9999 SCT040 BKN100 09/08 Q1007', 'LTBA 130350Z 21004KT 9999 SCT040 BKN100 09/08 Q1007', 'LTBA 130320Z 23003KT 9999 SCT040 BKN100 09/09 Q1007', 'LTBA 130250Z 26002KT 9999 SCT040 BKN100 09/09 Q1007', 'LTBA 130220Z 23004KT 9999 SCT040 BKN100 10/08 Q1007', 'LTBA 130150Z 21004KT 180V240 9999 SCT040 BKN100 10/08 Q1007', 'LTBA 130120Z 20003KT 9999 SCT040 BKN100 10/09 Q1007', 'LTBA 130050Z 00000KT 9999 SCT040 BKN100 10/09 Q1006', 'LTBA 130020Z VRB01KT 9999 SCT040 BKN100 10/09 Q1007', 'LTBA 122350Z VRB02KT 9999 SCT040 BKN100 10/09 Q1007', 'LTBA 122320Z 11003KT 080V150 9999 SCT040 BKN100 10/08 Q1007', 'LTBA 122250Z 11003KT 9999 SCT040 BKN100 10/08 Q1007', 'LTBA 122220Z 10003KT 9999 SCT040 BKN100 09/08 Q1007', 'LTBA 122150Z 12001KT 9999 SCT040 BKN100 10/08 Q1007', 'LTBA 122120Z VRB01KT 9999 SCT040 BKN100 10/08 Q1007', 'LTBA 122050Z 17004KT 130V190 9999 FEW008 BKN040 10/09 Q1008', 'LTBA 122020Z 12003KT 9999 FEW008 BKN040 09/08 Q1008', 'LTBA 121950Z VRB01KT 9999 SCT042 BKN080 09/08 Q1008', 'LTBA 121920Z VRB01KT 9999 SCT042 BKN080 09/08 Q1008', 'LTBA 121850Z 17003KT 120V200 9999 SCT042 BKN080 10/08 Q1009', 'LTBA 121820Z 18004KT 9999 SCT042 BKN080 10/09 Q1009', 'LTBA 121750Z 19006KT 160V220 9999 SCT042 BKN080 10/09 Q1010', 'LTBA 121720Z 23009KT 9999 SCT042 BKN080 10/08 Q1010', 'LTBA 121650Z 23008KT 9999 SCT045 BKN080 10/08 Q1010', 'LTBA 121620Z 24006KT 9999 SCT045 BKN080 10/08 Q1010', 'LTBA 121550Z 27010KT CAVOK 10/08 Q1010', 'LTBA 121520Z 27014KT CAVOK 11/08 Q1010', 'LTBA 121450Z 27014KT CAVOK 11/08 Q1009', 'LTBA 121420Z 27015KT CAVOK 11/08 Q1009', 'LTBA 121350Z 27014KT CAVOK 12/08 Q1009', 'LTBA 121320Z 28013KT CAVOK 13/08 Q1009', 'LTBA 121250Z 26011KT CAVOK 14/08 Q1008', 'LTBA 121220Z VRB01KT CAVOK 16/08 Q1008', 'LTBA 121150Z 32004KT CAVOK 15/09 Q1008', 'LTBA 121120Z VRB02KT CAVOK 15/09 Q1008', 'LTBA 121050Z VRB02KT CAVOK 15/08 Q1009', 'LTBA 121020Z 20005KT CAVOK 16/06 Q1009', 'LTBA 120950Z 19005KT CAVOK 15/07 Q1010', 'LTBA 120920Z 16004KT CAVOK 15/07 Q1010']","['2024-02-15 08:50:00', '2024-02-15 08:20:00', '2024-02-15 07:50:00', '2024-02-15 07:20:00', '2024-02-15 06:50:00', '2024-02-15 06:20:00', '2024-02-15 05:50:00', '2024-02-15 05:20:00', '2024-02-15 04:50:00', '2024-02-15 04:20:00', '2024-02-15 03:50:00', '2024-02-15 03:20:00', '2024-02-15 02:50:00', '2024-02-15 02:20:00', '2024-02-15 01:50:00', '2024-02-15 01:20:00', '2024-02-15 00:50:00', '2024-02-15 00:20:00', '2024-02-14 23:50:00', '2024-02-14 23:20:00', '2024-02-14 22:50:00', '2024-02-14 22:20:00', '2024-02-14 21:50:00', '2024-02-14 21:20:00', '2024-02-14 20:50:00', '2024-02-14 20:20:00', '2024-02-14 19:50:00', '2024-02-14 19:20:00', '2024-02-14 18:50:00', '2024-02-14 18:20:00', '2024-02-14 17:50:00', '2024-02-14 17:20:00', '2024-02-14 16:50:00', '2024-02-14 16:20:00', '2024-02-14 15:50:00', '2024-02-14 15:20:00', '2024-02-14 14:50:00', '2024-02-14 14:20:00', '2024-02-14 13:50:00', '2024-02-14 13:20:00', '2024-02-14 12:50:00', '2024-02-14 12:20:00', '2024-02-14 11:50:00', '2024-02-14 11:20:00', '2024-02-14 10:50:00', '2024-02-14 10:20:00', '2024-02-14 09:50:00', '2024-02-14 09:20:00', '2024-02-14 08:50:00', '2024-02-14 08:20:00', '2024-02-14 07:50:00', '2024-02-14 07:20:00', '2024-02-14 06:50:00', '2024-02-14 06:20:00', '2024-02-14 05:50:00', '2024-02-14 05:20:00', '2024-02-14 04:50:00', '2024-02-14 04:20:00', '2024-02-14 03:50:00', '2024-02-14 03:20:00', '2024-02-14 02:50:00', '2024-02-14 02:20:00', '2024-02-14 01:50:00', '2024-02-14 01:20:00', '2024-02-14 00:50:00', '2024-02-14 00:20:00', '2024-02-13 23:50:00', '2024-02-13 23:20:00', '2024-02-13 22:50:00', '2024-02-13 22:20:00', '2024-02-13 21:50:00', '2024-02-13 21:20:00', '2024-02-13 20:50:00', '2024-02-13 20:20:00', '2024-02-13 19:50:00', '2024-02-13 19:20:00', '2024-02-13 18:50:00', '2024-02-13 18:20:00', '2024-02-13 17:50:00', '2024-02-13 17:20:00', '2024-02-13 16:50:00', '2024-02-13 16:20:00', '2024-02-13 15:50:00', '2024-02-13 15:20:00', '2024-02-13 14:50:00', '2024-02-13 14:20:00', '2024-02-13 13:50:00', '2024-02-13 13:20:00', '2024-02-13 12:50:00', '2024-02-13 12:20:00', '2024-02-13 11:50:00', '2024-02-13 11:20:00', '2024-02-13 10:50:00', '2024-02-13 10:20:00', '2024-02-13 09:50:00', '2024-02-13 09:20:00', '2024-02-13 08:50:00', '2024-02-13 08:20:00', '2024-02-13 07:50:00', '2024-02-13 07:20:00', '2024-02-13 06:50:00', '2024-02-13 06:20:00', '2024-02-13 05:50:00', '2024-02-13 05:20:00', '2024-02-13 04:50:00', '2024-02-13 04:20:00', '2024-02-13 03:50:00', '2024-02-13 03:20:00', '2024-02-13 02:50:00', '2024-02-13 02:20:00', '2024-02-13 01:50:00', '2024-02-13 01:20:00', '2024-02-13 00:50:00', '2024-02-13 00:20:00', '2024-02-12 23:50:00', '2024-02-12 23:20:00', '2024-02-12 22:50:00', '2024-02-12 22:20:00', '2024-02-12 21:50:00', '2024-02-12 21:20:00', '2024-02-12 20:50:00', '2024-02-12 20:20:00', '2024-02-12 19:50:00', '2024-02-12 19:20:00', '2024-02-12 18:50:00', '2024-02-12 18:20:00', '2024-02-12 17:50:00', '2024-02-12 17:20:00', '2024-02-12 16:50:00', '2024-02-12 16:20:00', '2024-02-12 15:50:00', '2024-02-12 15:20:00', '2024-02-12 14:50:00', '2024-02-12 14:20:00', '2024-02-12 13:50:00', '2024-02-12 13:20:00', '2024-02-12 12:50:00', '2024-02-12 12:20:00', '2024-02-12 11:50:00', '2024-02-12 11:20:00', '2024-02-12 10:50:00', '2024-02-12 10:20:00', '2024-02-12 09:50:00', '2024-02-12 09:20:00']"
Turkey, Izmir Adnan Menderes International Airport (ADB/LTBJ) ,"['LTBJ 150850Z 35022KT 9999 SCT030 BKN100 10/04 Q1013 NOSIG', 'LTBJ 150820Z 36023KT 9999 SCT030 BKN100 10/04 Q1013 NOSIG', 'LTBJ 150750Z 35026KT 9999 SCT030 BKN100 09/04 Q1012 NOSIG', 'LTBJ 150720Z 35022KT 9999 SCT030 BKN100 09/04 Q1013 RESHRA NOSIG', 'LTBJ 150650Z 35023KT 9999 SCT030 BKN100 09/04 Q1012 NOSIG', 'LTBJ 150620Z 35021KT 9999 SCT030 BKN100 08/04 Q1012 NOSIG', 'LTBJ 150550Z 35025KT 9999 SCT030 BKN100 08/03 Q1012 NOSIG', 'LTBJ 150520Z 36025G35KT 9999 SCT030 BKN080 08/03 Q1012 NOSIG', 'LTBJ 150450Z 36024KT 9999 SCT030 BKN080 08/03 Q1012 NOSIG', 'LTBJ 150420Z 35025KT 9999 SCT030 BKN080 08/03 Q1011 NOSIG', 'LTBJ 150350Z 35024KT 9999 SCT030 BKN080 08/03 Q1011 NOSIG', 'LTBJ 150320Z 35021KT 9999 SCT030 BKN080 08/03 Q1011 NOSIG', 'LTBJ 150250Z 36025KT 9999 SCT030 BKN080 09/03 Q1012 NOSIG', 'LTBJ 150220Z 01026KT 9999 SCT030 BKN080 09/03 Q1011 NOSIG', 'LTBJ 150150Z 36025KT 9999 SCT030 BKN080 09/03 Q1011 NOSIG', 'LTBJ 150120Z 36021KT 9999 SCT030 BKN080 09/03 Q1011 NOSIG', 'LTBJ 150050Z 36023KT 9999 SCT030 BKN080 09/03 Q1011 NOSIG', 'LTBJ 150020Z 36016KT 9999 SCT030 BKN080 09/04 Q1011 NOSIG', 'LTBJ 142350Z 36017KT 9999 SCT030 BKN080 09/03 Q1012 NOSIG', 'LTBJ 142320Z 01014KT 9999 SCT030 BKN080 09/03 Q1012 NOSIG', 'LTBJ 142250Z 36020KT 9999 SCT035 BKN080 09/04 Q1011 NOSIG', 'LTBJ 142220Z 35018KT 9999 SCT035 BKN080 09/04 Q1011 NOSIG', 'LTBJ 142150Z 35019KT 9999 SCT030 SCT080 BKN180 09/04 Q1011 NOSIG', 'LTBJ 142120Z 36017KT 9999 SCT030 SCT080 BKN180 10/04 Q1011 NOSIG', 'LTBJ 142050Z 35016KT 9999 SCT030 SCT080 BKN180 10/05 Q1011 NOSIG', 'LTBJ 142020Z 35017KT 9999 SCT030 SCT080 BKN180 10/05 Q1011 NOSIG', 'LTBJ 141950Z 35020KT 9999 SCT030 SCT080 BKN180 10/04 Q1011 NOSIG', 'LTBJ 141920Z 36021KT 9999 FEW030 SCT080 BKN180 10/04 Q1011 NOSIG', 'LTBJ 141850Z 01017KT 9999 FEW030 SCT080 BKN180 11/04 Q1010 NOSIG', 'LTBJ 141820Z 36017KT 9999 FEW030 SCT080 BKN180 11/04 Q1010 NOSIG', 'LTBJ 141750Z 36020KT 9999 FEW030 SCT080 BKN180 11/04 Q1009 NOSIG', 'LTBJ 141720Z 36017KT 9999 FEW030 BKN180 11/05 Q1010 NOSIG', 'LTBJ 141650Z 36020KT 9999 FEW030 BKN200 11/05 Q1009 NOSIG', 'LTBJ 141620Z 36016KT 9999 FEW030 BKN200 11/05 Q1009 NOSIG', 'LTBJ 141550Z 36016KT 9999 FEW030 BKN200 11/06 Q1009 NOSIG', 'LTBJ 141520Z 36017KT 9999 BKN035 12/06 Q1009 NOSIG', 'LTBJ 141450Z 36018KT 9999 BKN035 13/06 Q1008 NOSIG', 'LTBJ 141420Z 36014KT 9999 BKN035 13/07 Q1008 NOSIG', 'LTBJ 141350Z 03016KT 9999 BKN035 14/06 Q1008 NOSIG', 'LTBJ 141320Z 36014KT 330V040 9999 SCT035 16/06 Q1007 NOSIG', 'LTBJ 141250Z 01017KT 9999 SCT035 16/06 Q1007 NOSIG', 'LTBJ 141220Z 01016KT 9999 SCT035 16/06 Q1007 NOSIG', 'LTBJ 141150Z 02017KT 9999 SCT035 15/06 Q1007 NOSIG', 'LTBJ 141120Z 02017KT 9999 SCT035 15/06 Q1007 NOSIG', 'LTBJ 141050Z 01019KT 9999 FEW035 15/06 Q1007 NOSIG', 'LTBJ 141020Z 35018KT CAVOK 15/07 Q1007 NOSIG', 'LTBJ 140950Z 35016KT CAVOK 14/07 Q1008 NOSIG', 'LTBJ 140920Z 35015KT CAVOK 14/07 Q1008 NOSIG', 'LTBJ 140850Z 35016KT CAVOK 13/07 Q1008 NOSIG', 'LTBJ 140820Z 36017KT CAVOK 13/07 Q1008 NOSIG', 'LTBJ 140750Z 35016KT 9999 FEW030 12/07 Q1008 NOSIG', 'LTBJ 140720Z 36014KT 9999 FEW030 11/08 Q1008 NOSIG', 'LTBJ 140650Z 36011KT 9999 FEW030 10/08 Q1008 NOSIG', 'LTBJ 140620Z 01009KT 9000 FEW030 09/08 Q1008 NOSIG', 'LTBJ 140550Z 05003KT 360V150 7000 FEW030 07/07 Q1008 NOSIG', 'LTBJ 140520Z VRB01KT 6000 FEW030 05/05 Q1008 NOSIG', 'LTBJ 140450Z 00000KT 3200 BR FEW030 05/05 Q1008 NOSIG', 'LTBJ 140420Z VRB02KT 8000 NSC 05/05 Q1008 NOSIG', 'LTBJ 140350Z VRB03KT CAVOK 05/05 Q1008 NOSIG', 'LTBJ 140320Z 01007KT CAVOK 07/07 Q1008 NOSIG', 'LTBJ 140250Z VRB02KT CAVOK 05/05 Q1008 NOSIG', 'LTBJ 140220Z VRB01KT 7000 NSC 05/05 Q1008 NOSIG', 'LTBJ 140150Z VRB02KT 9000 3300S BR NSC 05/05 Q1008 BECMG TL0300 9999 NSW', 'LTBJ 140120Z 16003KT 100V230 9000 4200S BR NSC 05/05 Q1008 NOSIG', 'LTBJ 140050Z VRB02KT 8000 3200S BR FEW030 05/05 Q1008 NOSIG', 'LTBJ 140020Z 36003KT 4500 BR FEW030 08/08 Q1008 NOSIG', 'LTBJ 132350Z VRB02KT 4000 BR FEW030 06/06 Q1009 NOSIG', 'LTBJ 132320Z VRB01KT 7000 FEW030 06/06 Q1008 TEMPO FM0000 3200 BR', 'LTBJ 132250Z 35003KT 6000 FEW030 07/07 Q1008 TEMPO FM0000 3200 BR', 'LTBJ 132220Z VRB02KT 8000 FEW030 08/08 Q1008 NOSIG', 'LTBJ 132150Z 21003KT 170V240 9999 FEW030 SCT100 07/07 Q1008 NOSIG', 'LTBJ 132120Z 02008KT 9999 FEW030 SCT100 10/08 Q1008 NOSIG', 'LTBJ 132050Z 36005KT 9999 FEW030 SCT100 09/08 Q1008 NOSIG', 'LTBJ 132020Z 01009KT 9999 FEW030 SCT100 09/09 Q1008 NOSIG', 'LTBJ 131950Z 36008KT 9000 FEW030 SCT100 09/09 Q1009 NOSIG', 'LTBJ 131920Z VRB01KT 9000 FEW030 SCT100 09/08 Q1009 NOSIG', 'LTBJ 131850Z VRB04KT 9000 FEW030 SCT100 10/09 Q1009 NOSIG', 'LTBJ 131820Z 02006KT 9999 SCT030 SCT100 11/09 Q1009 NOSIG', 'LTBJ 131750Z 02007KT 9999 SCT030 SCT100 11/10 Q1008 NOSIG', 'LTBJ 131720Z 33005KT 9999 SCT030 SCT100 10/10 Q1008 NOSIG', 'LTBJ 131650Z 36003KT 270V070 9999 SCT030 SCT100 11/09 Q1008 NOSIG', 'LTBJ 131620Z 08006KT 040V110 9999 SCT030 SCT100 11/09 Q1008 RESHRA NOSIG', 'LTBJ 131550Z 33007KT 9999 -SHRA FEW015CB BKN030 12/08 Q1008 TEMPO -TSRA', 'LTBJ 131520Z 31009KT 9999 -SHRA FEW015CB BKN030 12/08 Q1008 RETSRA TEMPO -TSRA', 'LTBJ 131450Z 32010KT 9999 -TSRA FEW015CB BKN030 13/08 Q1008 RESHRA BECMG TL1600 NSW', 'LTBJ 131424Z 33009KT 9999 -SHRA BKN030 14/08 Q1008 NOSIG', 'LTBJ 131350Z 35010KT 9999 FEW015TCU BKN030 14/09 Q1007 NOSIG', 'LTBJ 131320Z 34009KT 9999 FEW015TCU BKN030 16/08 Q1007 NOSIG', 'LTBJ 131250Z 36003KT 300V060 9999 FEW015TCU SCT030 16/06 Q1007 NOSIG', 'LTBJ 131220Z 26003KT 170V300 9999 FEW015TCU SCT030 16/06 Q1007 NOSIG', 'LTBJ 131150Z VRB04KT 9999 SCT030 16/07 Q1007 NOSIG', 'LTBJ 131120Z 15005KT 110V180 9999 FEW030 15/06 Q1008 NOSIG', 'LTBJ 131050Z VRB03KT 9999 SCT030 SCT180 15/07 Q1008 NOSIG', 'LTBJ 131020Z VRB04KT 9999 SCT030 SCT180 14/07 Q1009 NOSIG', 'LTBJ 130950Z 15007KT 120V190 9999 SCT030 SCT180 14/07 Q1009 NOSIG', 'LTBJ 130920Z 15006KT 110V190 9999 SCT030 13/08 Q1009 NOSIG', 'LTBJ 130850Z 17006KT 130V200 9999 SCT030 12/08 Q1009 NOSIG', 'LTBJ 130820Z 17007KT 130V230 9999 SCT030 SCT180 12/08 Q1009 NOSIG', 'LTBJ 130750Z 24004KT 9999 FEW030 SCT180 10/09 Q1009 NOSIG', 'LTBJ 130720Z 20003KT 150V250 9999 SCT030 SCT100 09/08 Q1009 NOSIG', 'LTBJ 130650Z 20005KT 160V230 9999 SCT030 BKN100 09/08 Q1009 NOSIG', 'LTBJ 130620Z 16006KT 130V200 9999 SCT030 BKN100 09/08 Q1009 RESHRA NOSIG', 'LTBJ 130550Z VRB02KT 9999 -SHRA SCT030 BKN100 08/08 Q1008 NOSIG', 'LTBJ 130520Z 15007KT 9999 -SHRA SCT030 BKN100 08/08 Q1008 NOSIG', 'LTBJ 130450Z 15005KT 120V210 9999 -SHRA SCT030 BKN100 08/08 Q1009 NOSIG', 'LTBJ 130420Z 11006KT 9999 -SHRA SCT030 BKN100 08/08 Q1009 NOSIG', 'LTBJ 130350Z 01004KT 330V050 9999 -SHRA SCT030 BKN100 09/08 Q1009 NOSIG', 'LTBJ 130320Z 02006KT 9999 -SHRA SCT030 BKN100 09/08 Q1009 NOSIG', 'LTBJ 130250Z 35005KT 320V030 9999 -SHRA SCT030 BKN100 09/08 Q1009 NOSIG', 'LTBJ 130220Z VRB02KT 9999 SCT030 BKN100 08/07 Q1008 NOSIG', 'LTBJ 130150Z 21003KT 170V240 9999 SCT030 BKN100 08/07 Q1008 NOSIG', 'LTBJ 130120Z 24005KT 9999 FEW010 SCT030 BKN090 08/07 Q1008 NOSIG', 'LTBJ 130050Z 24003KT 150V260 9999 FEW010 SCT030 BKN090 08/07 Q1008 NOSIG', 'LTBJ 130020Z 24004KT 9999 FEW010 SCT030 BKN090 08/08 Q1008 NOSIG', 'LTBJ 122350Z 18003KT 130V240 9999 FEW010 SCT030 BKN090 08/08 Q1008 NOSIG', 'LTBJ 122320Z 21005KT 160V250 9999 FEW008 SCT030 BKN090 08/08 Q1008 NOSIG', 'LTBJ 122250Z 15007KT 120V180 9999 FEW008 SCT030 BKN090 08/08 Q1008 NOSIG', 'LTBJ 122220Z 17007KT 150V210 9999 FEW009 SCT030 BKN090 08/07 Q1008 NOSIG', 'LTBJ 122150Z 18006KT 150V220 9999 FEW009 SCT030 BKN090 09/08 Q1008 NOSIG', 'LTBJ 122120Z 22005KT 170V260 9999 SCT030 BKN090 09/09 Q1008 NOSIG', 'LTBJ 122050Z 23006KT 9999 SCT030 BKN090 09/08 Q1008 NOSIG', 'LTBJ 122020Z VRB08KT 9999 FEW020CB SCT030 BKN090 09/07 Q1008 RETSRA NOSIG', 'LTBJ 121950Z 06016KT 9999 -TSRA FEW015CB SCT025 BKN090 09/08 Q1008 RETSRA BECMG TL2050 VRB02KT NSW', 'LTBJ 121920Z 02011KT 6000 TSRA SCT015CB SCT025 BKN090 09/09 Q1009 NOSIG', 'LTBJ 121850Z 35014KT 5000 TSRA FEW005 SCT015CB BKN025 09/09 Q1009 NOSIG', 'LTBJ 121820Z 02016KT 4500 TSRA FEW005 SCT015CB BKN025 09/09 Q1009 NOSIG', 'LTBJ 121750Z 36016KT 4500 TSRA FEW005 SCT015CB BKN025 10/10 Q1009 NOSIG', 'LTBJ 121720Z 35015KT 300V020 4400 TSRA FEW007 FEW015CB BKN030 BKN100 10/10 Q1008 WS ALL RWY NOSIG', 'LTBJ 121650Z 36021KT 4000 TSRA FEW007 FEW015CB BKN030 BKN100 10/10 Q1008 RESHRA WS ALL RWY NOSIG', 'LTBJ 121620Z 01007G18KT 350V050 9999 -SHRA FEW025TCU SCT030 BKN100 14/09 Q1008 TEMPO 4000 TSRA', 'LTBJ 121550Z 14009KT 9999 -SHRA FEW025TCU SCT030 BKN100 15/09 Q1007 TEMPO TSRA', 'LTBJ 121520Z 16011KT 9999 FEW025TCU SCT030 BKN100 16/09 Q1007 TEMPO TSRA', 'LTBJ 121450Z 16011KT 9999 FEW025TCU SCT030 BKN100 16/08 Q1007 TEMPO FM1500 TSRA', 'LTBJ 121420Z 16011KT 9999 SCT030 SCT100 BKN170 16/09 Q1007 TEMPO FM 1500 TSRA', 'LTBJ 121350Z 16016KT 9999 SCT030 SCT100 BKN170 16/09 Q1007 TEMPO FM1500 TSRA', 'LTBJ 121320Z 17020KT 9999 SCT030 SCT100 BKN170 16/08 Q1007 TEMPO FM1400 4000 TSRA', 'LTBJ 121250Z 17028KT 9999 SCT030 SCT100 BKN170 17/09 Q1007 TEMPO FM1400 4000 TSRA', 'LTBJ 121220Z 17022G33KT 9999 SCT030 SCT100 BKN170 17/08 Q1007 TEMPO FM1400 4000 TSRA', 'LTBJ 121150Z 16019KT 9999 SCT030 SCT100 BKN170 17/09 Q1008 NOSIG', 'LTBJ 121120Z 17019KT 9999 SCT030 SCT100 BKN170 17/09 Q1009 NOSIG', 'LTBJ 121050Z 17020KT 9999 SCT030 BKN100 17/08 Q1009 NOSIG', 'LTBJ 121020Z 17024KT 9999 SCT030 BKN100 17/08 Q1010 NOSIG', 'LTBJ 120950Z 17020KT 9999 SCT030 BKN100 17/08 Q1010 NOSIG', 'LTBJ 120920Z 17022KT 9999 SCT030 BKN100 17/09 Q1010 NOSIG']","['2024-02-15 08:50:00', '2024-02-15 08:20:00', '2024-02-15 07:50:00', '2024-02-15 07:20:00', '2024-02-15 06:50:00', '2024-02-15 06:20:00', '2024-02-15 05:50:00', '2024-02-15 05:20:00', '2024-02-15 04:50:00', '2024-02-15 04:20:00', '2024-02-15 03:50:00', '2024-02-15 03:20:00', '2024-02-15 02:50:00', '2024-02-15 02:20:00', '2024-02-15 01:50:00', '2024-02-15 01:20:00', '2024-02-15 00:50:00', '2024-02-15 00:20:00', '2024-02-14 23:50:00', '2024-02-14 23:20:00', '2024-02-14 22:50:00', '2024-02-14 22:20:00', '2024-02-14 21:50:00', '2024-02-14 21:20:00', '2024-02-14 20:50:00', '2024-02-14 20:20:00', '2024-02-14 19:50:00', '2024-02-14 19:20:00', '2024-02-14 18:50:00', '2024-02-14 18:20:00', '2024-02-14 17:50:00', '2024-02-14 17:20:00', '2024-02-14 16:50:00', '2024-02-14 16:20:00', '2024-02-14 15:50:00', '2024-02-14 15:20:00', '2024-02-14 14:50:00', '2024-02-14 14:20:00', '2024-02-14 13:50:00', '2024-02-14 13:20:00', '2024-02-14 12:50:00', '2024-02-14 12:20:00', '2024-02-14 11:50:00', '2024-02-14 11:20:00', '2024-02-14 10:50:00', '2024-02-14 10:20:00', '2024-02-14 09:50:00', '2024-02-14 09:20:00', '2024-02-14 08:50:00', '2024-02-14 08:20:00', '2024-02-14 07:50:00', '2024-02-14 07:20:00', '2024-02-14 06:50:00', '2024-02-14 06:20:00', '2024-02-14 05:50:00', '2024-02-14 05:20:00', '2024-02-14 04:50:00', '2024-02-14 04:20:00', '2024-02-14 03:50:00', '2024-02-14 03:20:00', '2024-02-14 02:50:00', '2024-02-14 02:20:00', '2024-02-14 01:50:00', '2024-02-14 01:20:00', '2024-02-14 00:50:00', '2024-02-14 00:20:00', '2024-02-13 23:50:00', '2024-02-13 23:20:00', '2024-02-13 22:50:00', '2024-02-13 22:20:00', '2024-02-13 21:50:00', '2024-02-13 21:20:00', '2024-02-13 20:50:00', '2024-02-13 20:20:00', '2024-02-13 19:50:00', '2024-02-13 19:20:00', '2024-02-13 18:50:00', '2024-02-13 18:20:00', '2024-02-13 17:50:00', '2024-02-13 17:20:00', '2024-02-13 16:50:00', '2024-02-13 16:20:00', '2024-02-13 15:50:00', '2024-02-13 15:20:00', '2024-02-13 14:50:00', '2024-02-13 14:24:00', '2024-02-13 13:50:00', '2024-02-13 13:20:00', '2024-02-13 12:50:00', '2024-02-13 12:20:00', '2024-02-13 11:50:00', '2024-02-13 11:20:00', '2024-02-13 10:50:00', '2024-02-13 10:20:00', '2024-02-13 09:50:00', '2024-02-13 09:20:00', '2024-02-13 08:50:00', '2024-02-13 08:20:00', '2024-02-13 07:50:00', '2024-02-13 07:20:00', '2024-02-13 06:50:00', '2024-02-13 06:20:00', '2024-02-13 05:50:00', '2024-02-13 05:20:00', '2024-02-13 04:50:00', '2024-02-13 04:20:00', '2024-02-13 03:50:00', '2024-02-13 03:20:00', '2024-02-13 02:50:00', '2024-02-13 02:20:00', '2024-02-13 01:50:00', '2024-02-13 01:20:00', '2024-02-13 00:50:00', '2024-02-13 00:20:00', '2024-02-12 23:50:00', '2024-02-12 23:20:00', '2024-02-12 22:50:00', '2024-02-12 22:20:00', '2024-02-12 21:50:00', '2024-02-12 21:20:00', '2024-02-12 20:50:00', '2024-02-12 20:20:00', '2024-02-12 19:50:00', '2024-02-12 19:20:00', '2024-02-12 18:50:00', '2024-02-12 18:20:00', '2024-02-12 17:50:00', '2024-02-12 17:20:00', '2024-02-12 16:50:00', '2024-02-12 16:20:00', '2024-02-12 15:50:00', '2024-02-12 15:20:00', '2024-02-12 14:50:00', '2024-02-12 14:20:00', '2024-02-12 13:50:00', '2024-02-12 13:20:00', '2024-02-12 12:50:00', '2024-02-12 12:20:00', '2024-02-12 11:50:00', '2024-02-12 11:20:00', '2024-02-12 10:50:00', '2024-02-12 10:20:00', '2024-02-12 09:50:00', '2024-02-12 09:20:00']"
Turkey, Izmit Topel Airport (KCO/LTBQ) ,"['LTBQ 150850Z 00000KT 7000 -SHRA SCT008 BKN012 BKN080 08/07 Q1017 TEMPO 4000 SHRA BR BKN007 BKN016', 'LTBQ 150750Z 00000KT 8000 -SHRA SCT010 BKN016 BKN080 08/07 Q1017 TEMPO 4000 SHRA BR BKN007 BKN016', 'LTBQ 150650Z VRB01KT 7000 -SHRA SCT010 BKN016 BKN080 08/08 Q1016 TEMPO 4000 SHRA BR BKN007 BKN016', 'LTBQ 150550Z 00000KT 6000 -SHRA SCT010 BKN016 BKN080 08/07 Q1016 TEMPO 4000 SHRA BR BKN007 BKN016', 'LTBQ 150450Z 21002KT 6000 -SHRA SCT010 BKN016 BKN080 08/07 Q1015 TEMPO 4000 SHRA BR BKN007 BKN016', 'LTBQ 150350Z VRB02KT 7000 -SHRA SCT010 BKN018 BKN080 08/07 Q1015 TEMPO 4000 SHRA BR BKN007 BKN016', 'LTBQ 150250Z VRB01KT 6000 -SHRA SCT008 BKN016 BKN080 08/07 Q1015 TEMPO 4000 SHRA BR BKN007 BKN016', 'LTBQ 150150Z VRB02KT 7000 -SHRA SCT007 BKN016 BKN080 08/08 Q1014 RESHRA TEMPO 4000 SHRA BR BKN007 BKN016', 'LTBQ 150050Z VRB02KT 5000 SHRA BR SCT009 BKN016 BKN080 08/07 Q1014 BECMG 8000 NSW', 'LTBQ 142350Z 22003KT 190V260 5000 SHRA BR SCT008 BKN016 BKN080 08/07 Q1014 BECMG 8000 NSW', 'LTBQ 142250Z 20003KT 170V230 5000 SHRA BR SCT008 BKN016 BKN080 08/07 Q1014 BECMG 8000 NSW', 'LTBQ 142150Z VRB02KT 5000 SHRA BR SCT007 BKN016 BKN080 08/07 Q1014 BECMG 8000 NSW', 'LTBQ 142050Z 36007KT 330V030 8000 -SHRA SCT008 BKN020 BKN080 08/07 Q1014 TEMPO 4000 SHRA BR', 'LTBQ 141950Z 35004KT 310V020 7000 -SHRA SCT009 BKN020 BKN080 08/07 Q1015 TEMPO 4000 SHRA BR', 'LTBQ 141850Z VRB02KT 7000 -SHRA SCT009 BKN020 BKN080 08/07 Q1015 RESHRA TEMPO 4000 SHRA BR', 'LTBQ 141750Z 00000KT 5000 SHRA BR SCT006 BKN016 BKN080 08/08 Q1014 BECMG 7000 NSW', 'LTBQ 141650Z 00000KT 5000 SHRA BR SCT008 BKN016 BKN080 08/08 Q1014 BECMG 7000 NSW', 'LTBQ 141550Z 20003KT 170V240 6000 -SHRA SCT008 BKN016 BKN080 08/08 Q1014 TEMPO 3000 SHRA BR BKN007 BKN015 BKN070', 'LTBQ 141450Z VRB01KT 6000 -SHRA SCT009 BKN018 BKN080 09/08 Q1014 TEMPO 3000 SHRA BR BKN007 BKN015 BKN070', 'LTBQ 141350Z VRB02KT 7000 -SHRA SCT010 BKN020 BKN070 09/08 Q1013 TEMPO 3000 SHRA BR BKN007 BKN015 BKN070', 'LTBQ 141250Z 21001KT 7000 -SHRA SCT010 BKN020 BKN070 09/09 Q1013 TEMPO 3000 SHRA BR BKN007 BKN015 BKN080', 'LTBQ 141150Z 19003KT 160V240 5000 -SHRA BR SCT010 BKN020 BKN070 09/08 Q1013 TEMPO 3000 SHRA BR', 'LTBQ 141050Z VRB01KT 8000 -SHRA SCT009 BKN018 BKN080 10/08 Q1013 TEMPO FM1200 4000 SHRA BR', 'LTBQ 140950Z 36004KT 320V040 8000 SCT009 BKN018 BKN080 10/08 Q1013 TEMPO 5000 BR', 'LTBQ 140850Z VRB01KT 8000 SCT008 BKN017 BKN080 09/08 Q1013 TEMPO 5000 BR', 'LTBQ 140750Z 00000KT 8000 SCT008 BKN018 BKN080 09/08 Q1013 TEMPO 5000 BR', 'LTBQ 140650Z VRB02KT 7000 SCT007 BKN018 BKN080 09/07 Q1012 TEMPO 4000 BR', 'LTBQ 140550Z VRB02KT 7000 SCT012 BKN022 BKN080 08/07 Q1012 NOSIG', 'LTBQ 140450Z 04004KT 3500 BR SCT010 BKN016 BKN080 08/08 Q1012 BECMG 8000', 'LTBQ 140250Z VRB02KT 9999 SCT030 BKN080 06/06 Q1011 NOSIG', 'LTBQ 140150Z 17002KT 9999 SCT030 BKN080 06/05 Q1010 NOSIG', 'LTBQ 140050Z 00000KT 9999 SCT030 BKN080 05/05 Q1011 NOSIG', 'LTBQ 132350Z 00000KT 9999 SCT030 BKN080 06/06 Q1011 NOSIG', 'LTBQ 132250Z 00000KT 9999 SCT030 BKN080 06/06 Q1011 NOSIG', 'LTBQ 132150Z 00000KT 9999 SCT030 BKN080 04/04 Q1011 NOSIG', 'LTBQ 132050Z 00000KT 9999 SCT030 BKN080 05/04 Q1011 NOSIG', 'LTBQ 131950Z VRB01KT 9999 SCT030 BKN080 07/07 Q1011 NOSIG', 'LTBQ 131850Z VRB01KT 9999 SCT030 BKN080 08/07 Q1010 NOSIG', 'LTBQ 131750Z VRB02KT 9999 SCT030 BKN080 09/08 Q1010 NOSIG', 'LTBQ 131650Z VRB02KT 9999 BKN030 BKN080 11/07 Q1010 RESHRA NOSIG', 'LTBQ 131624Z VRB02KT 9999 BKN030 BKN080 11/07 Q1010 RESHRA NOSIG', 'LTBQ 131550Z VRB01KT 9999 -SHRA BKN030 BKN080 12/07 Q1009 NOSIG', 'LTBQ 131505Z 26005KT 230V290 9999 -SHRA SCT030 BKN080 12/07 Q1009 NOSIG', 'LTBQ 131450Z 26007KT 230V310 9999 SCT030 BKN080 13/06 Q1009 NOSIG', 'LTBQ 131350Z 27009KT 230V300 9999 SCT030 BKN080 13/06 Q1008 RESHRA NOSIG', 'LTBQ 131304Z 25009KT 200V280 9999 -SHRA BKN030 BKN080 14/06 Q1008 NOSIG', 'LTBQ 131250Z 24007KT 170V300 9999 BKN030 BKN080 14/06 Q1008 NOSIG', 'LTBQ 131150Z 27005KT 230V300 9999 VCSH BKN030 BKN080 17/06 Q1007 NOSIG', 'LTBQ 131050Z VRB05KT 9999 SCT035 BKN120 18/04 Q1008 NOSIG', 'LTBQ 130950Z 25004KT 200V300 9999 FEW035 BKN100 16/06 Q1008 NOSIG', 'LTBQ 130850Z 28005KT 230V300 9999 FEW035 BKN100 15/07 Q1009 NOSIG', 'LTBQ 130750Z 27004KT 220V310 8000 FEW035 BKN100 13/08 Q1009 NOSIG', 'LTBQ 130650Z VRB03KT 8000 FEW035 BKN100 12/08 Q1009 NOSIG', 'LTBQ 130550Z 20003KT 140V290 8000 SCT035 BKN080 10/08 Q1009 NOSIG', 'LTBQ 130450Z 25005KT 200V290 9999 FEW035 BKN120 10/08 Q1008 NOSIG', 'LTBQ 130350Z 28009KT 9999 SCT035 BKN120 10/08 Q1007 NOSIG', 'LTBQ 130250Z VRB05G15KT 9999 SCT035 BKN120 15/05 Q1006 NOSIG', 'LTBQ 130150Z 12008KT 080V150 9999 SCT035 BKN120 14/06 Q1005 NOSIG', 'LTBQ 130050Z VRB06KT 9999 SCT035 BKN080 11/08 Q1006 NOSIG', 'LTBQ 122350Z 14004KT 030V200 9999 SCT035 BKN080 10/09 Q1007 NOSIG', 'LTBQ 122250Z 11003KT 020V190 9999 SCT035 BKN080 09/08 Q1008 NOSIG', 'LTBQ 122150Z 10005KT 040V180 9999 SCT035 BKN080 09/08 Q1008 NOSIG', 'LTBQ 122050Z 11003KT 9999 SCT035 BKN080 08/07 Q1009 NOSIG', 'LTBQ 121950Z 11003KT 060V180 9999 SCT035 BKN080 09/07 Q1009 RESHRA NOSIG', 'LTBQ 121850Z 25007KT 200V290 9999 -SHRA SCT035 BKN080 10/07 Q1010 NOSIG', 'LTBQ 121750Z 26007KT 180V290 9999 -SHRA SCT035 BKN080 11/07 Q1010 NOSIG', 'LTBQ 121650Z 26009KT 230V290 9999 -SHRA SCT040 BKN080 11/07 Q1011 NOSIG', 'LTBQ 121550Z 26009G19KT 130V290 9999 FEW040 BKN090 12/08 Q1010 NOSIG', 'LTBQ 121509Z 27015G27KT 9999 FEW040 BKN090 15/07 Q1009 NOSIG', 'LTBQ 121450Z 23005KT 150V310 9999 FEW040 BKN090 20/01 Q1009 NOSIG', 'LTBQ 121350Z VRB03KT 9999 FEW040 BKN090 18/04 Q1008 NOSIG', 'LTBQ 121250Z 09009KT 9999 FEW045 BKN090 19/03 Q1008 NOSIG', 'LTBQ 121150Z 03006KT 9999 FEW045 BKN090 19/03 Q1009 TEMPO 20015G25KT', 'LTBQ 121050Z VRB06KT 9999 FEW040 BKN090 20/02 Q1010 NOSIG', 'LTBQ 120950Z 10003KT 040V180 CAVOK 20/02 Q1010 TEMPO 20015G25KT']","['2024-02-15 08:50:00', '2024-02-15 07:50:00', '2024-02-15 06:50:00', '2024-02-15 05:50:00', '2024-02-15 04:50:00', '2024-02-15 03:50:00', '2024-02-15 02:50:00', '2024-02-15 01:50:00', '2024-02-15 00:50:00', '2024-02-14 23:50:00', '2024-02-14 22:50:00', '2024-02-14 21:50:00', '2024-02-14 20:50:00', '2024-02-14 19:50:00', '2024-02-14 18:50:00', '2024-02-14 17:50:00', '2024-02-14 16:50:00', '2024-02-14 15:50:00', '2024-02-14 14:50:00', '2024-02-14 13:50:00', '2024-02-14 12:50:00', '2024-02-14 11:50:00', '2024-02-14 10:50:00', '2024-02-14 09:50:00', '2024-02-14 08:50:00', '2024-02-14 07:50:00', '2024-02-14 06:50:00', '2024-02-14 05:50:00', '2024-02-14 04:50:00', '2024-02-14 02:50:00', '2024-02-14 01:50:00', '2024-02-14 00:50:00', '2024-02-13 23:50:00', '2024-02-13 22:50:00', '2024-02-13 21:50:00', '2024-02-13 20:50:00', '2024-02-13 19:50:00', '2024-02-13 18:50:00', '2024-02-13 17:50:00', '2024-02-13 16:50:00', '2024-02-13 16:24:00', '2024-02-13 15:50:00', '2024-02-13 15:05:00', '2024-02-13 14:50:00', '2024-02-13 13:50:00', '2024-02-13 13:04:00', '2024-02-13 12:50:00', '2024-02-13 11:50:00', '2024-02-13 10:50:00', '2024-02-13 09:50:00', '2024-02-13 08:50:00', '2024-02-13 07:50:00', '2024-02-13 06:50:00', '2024-02-13 05:50:00', '2024-02-13 04:50:00', '2024-02-13 03:50:00', '2024-02-13 02:50:00', '2024-02-13 01:50:00', '2024-02-13 00:50:00', '2024-02-12 23:50:00', '2024-02-12 22:50:00', '2024-02-12 21:50:00', '2024-02-12 20:50:00', '2024-02-12 19:50:00', '2024-02-12 18:50:00', '2024-02-12 17:50:00', '2024-02-12 16:50:00', '2024-02-12 15:50:00', '2024-02-12 15:09:00', '2024-02-12 14:50:00', '2024-02-12 13:50:00', '2024-02-12 12:50:00', '2024-02-12 11:50:00', '2024-02-12 10:50:00', '2024-02-12 09:50:00']"
Turkey, Kahramanmaras Airport (KCM/LTCN) ,"['LTCN 150850Z 27004KT 9999 SCT035 BKN100 12/12 Q1013', 'LTCN 150750Z 24003KT 200V290 9999 SCT035 BKN100 12/11 Q1014', 'LTCN 150650Z VRB01KT 9999 SCT035 BKN100 10/10 Q1013', 'LTCN 150550Z 22003KT 9999 SCT035 BKN100 10/10 Q1013', 'LTCN 150450Z 02002KT 9999 SCT035 BKN100 09/09 Q1012', 'LTCN 150350Z 18003KT 9999 FEW035 SCT100 10/10 Q1011', 'LTCN 150250Z 10004KT 9999 FEW035 SCT100 09/09 Q1011', 'LTCN 150150Z 06001KT 9999 SCT035 BKN100 09/09 Q1010', 'LTCN 150050Z VRB02KT 9999 SCT030 BKN090 09/09 Q1010', 'LTCN 142350Z VRB02KT 9999 SCT030 BKN090 09/09 Q1010', 'LTCN 142250Z 09003KT 9999 SCT030 BKN090 09/09 Q1009', 'LTCN 142150Z VRB01KT 9999 SCT030 BKN090 10/10 Q1009 RESHRA', 'LTCN 142050Z VRB02KT 9999 -SHRA SCT030 BKN090 09/09 Q1009', 'LTCN 141950Z 27006KT 9999 SCT030 BKN090 10/10 Q1009 RESHRA', 'LTCN 141850Z VRB05KT 9999 -SHRA SCT030 BKN090 10/10 Q1009', 'LTCN 141750Z 03003KT 290V100 9999 -SHRA SCT030 BKN090 10/09 Q1009', 'LTCN 141650Z 10008KT 9999 -SHRA FEW020CB SCT030 BKN090 11/11 Q1009', 'LTCN 141550Z 08011KT 9999 -SHRA FEW020CB SCT030 BKN090 11/09 Q1008', 'LTCN 141450Z 07007KT 9999 SCT030 BKN090 12/11 Q1007 RETSRA', 'LTCN 141350Z 08012KT 9999 -TSRA FEW020CB SCT030 BKN100 13/11 Q1007 RESHRA', 'LTCN 141250Z 06016KT 9999 SCT030 BKN100 14/09 Q1006', 'LTCN 141150Z 06016KT 9999 SCT030 BKN100 14/10 Q1006', 'LTCN 141050Z 06015KT 9999 SCT030 BKN100 14/12 Q1007', 'LTCN 140950Z 07008KT 9999 SCT030 BKN100 13/12 Q1008', 'LTCN 140850Z VRB03KT 9999 SCT030 BKN100 11/11 Q1009', 'LTCN 140750Z 26006KT 9999 SCT030 BKN100 11/11 Q1009', 'LTCN 140650Z 33001KT 9999 SCT030 BKN100 11/11 Q1010', 'LTCN 140550Z 20004KT 150V230 7000 SCT030 BKN100 10/10 Q1010', 'LTCN 140450Z 28004KT 7000 SCT030 BKN100 10/10 Q1010 RESHRA', 'LTCN 140350Z 22005KT 8000 -SHRA SCT030 BKN100 10/10 Q1010', 'LTCN 140250Z 02006KT 9999 -SHRA SCT030 BKN100 11/11 Q1010', 'LTCN 140150Z 29003KT 210V320 9999 -SHRA SCT030 BKN100 10/10 Q1010', 'LTCN 140050Z 15003KT 9999 -SHRA SCT030 BKN100 11/10 Q1010', 'LTCN 132350Z 07012KT 9999 -SHRA SCT030 BKN100 12/09 Q1010', 'LTCN 132250Z 13009KT 9999 -SHRA SCT030 BKN100 12/08 Q1011 RETSRA', 'LTCN 132150Z 08018KT 9999 -SHRA SCT030 BKN100 12/09 Q1012', 'LTCN 132050Z 07015KT 9999 -SHRA SCT030 BKN100 13/08 Q1012', 'LTCN 131950Z 08012KT 9999 SCT035 BKN100 13/08 Q1013', 'LTCN 131850Z 08009KT 9999 SCT035 BKN100 14/08 Q1013 RESHRA', 'LTCN 131750Z 08010KT 9999 -SHRA SCT030 BKN100 14/08 Q1014', 'LTCN 131650Z 08011KT 9999 SCT035 BKN100 14/08 Q1014', 'LTCN 131550Z 09008KT 050V120 9999 SCT035 BKN100 15/08 Q1014', 'LTCN 131450Z 05002KT 9999 SCT035 BKN100 14/09 Q1014', 'LTCN 131350Z 24005KT 210V290 9999 SCT035 BKN100 13/10 Q1014 RESHRA', 'LTCN 131250Z VRB02KT 9999 -SHRA SCT035 BKN100 15/08 Q1014', 'LTCN 131150Z 11008KT 9999 -SHRA SCT035 BKN100 14/08 Q1015', 'LTCN 131050Z 08008KT 9999 SCT035 BKN100 14/08 Q1015', 'LTCN 130950Z 08008KT 9999 SCT035 BKN100 15/07 Q1016', 'LTCN 130850Z 08009KT 9999 SCT035 BKN100 15/07 Q1017', 'LTCN 130750Z 11010KT 070V130 9999 SCT035 BKN100 15/07 Q1017', 'LTCN 130650Z 10010KT 060V140 9999 SCT035 BKN100 15/06 Q1017', 'LTCN 130550Z VRB03KT 9999 SCT035 BKN100 13/07 Q1017', 'LTCN 130450Z VRB02KT 9999 SCT035 BKN100 11/08 Q1017', 'LTCN 130350Z 08009KT 9999 SCT035 BKN100 14/07 Q1017', 'LTCN 130250Z VRB02KT 9999 SCT035 BKN100 11/07 Q1017', 'LTCN 130150Z 22003KT 110V250 9999 SCT035 BKN100 11/07 Q1018', 'LTCN 130050Z VRB02KT 9999 SCT035 BKN100 11/08 Q1018', 'LTCN 122350Z VRB02KT 9999 SCT035 BKN100 10/08 Q1018', 'LTCN 122250Z 23005KT 9999 SCT035 BKN100 11/07 Q1019', 'LTCN 122150Z 09008KT 9999 SCT035 BKN100 14/06 Q1019', 'LTCN 122050Z 08010KT 9999 SCT035 BKN100 14/06 Q1019', 'LTCN 121950Z 09008KT 9999 SCT035 BKN100 13/05 Q1019', 'LTCN 121850Z 09007KT 9999 SCT040 BKN100 12/06 Q1020', 'LTCN 121750Z 09006KT 9999 SCT040 BKN100 12/06 Q1020', 'LTCN 121650Z 07010KT 9999 SCT040 BKN100 14/05 Q1020', 'LTCN 121550Z 09006KT 9999 FEW040 BKN100 14/06 Q1020', 'LTCN 121450Z 12007KT 9999 FEW040 BKN200 15/06 Q1020', 'LTCN 121350Z 13008KT 9999 FEW040 BKN200 16/05 Q1020', 'LTCN 121250Z 12007KT 9999 FEW040 BKN200 17/04 Q1020', 'LTCN 121150Z 11007KT 9999 FEW040 BKN200 17/03 Q1020', 'LTCN 121050Z 15007KT 110V200 9999 SCT035 BKN200 17/05 Q1021', 'LTCN 120950Z VRB02KT 9999 SCT035 BKN200 15/08 Q1022']","['2024-02-15 08:50:00', '2024-02-15 07:50:00', '2024-02-15 06:50:00', '2024-02-15 05:50:00', '2024-02-15 04:50:00', '2024-02-15 03:50:00', '2024-02-15 02:50:00', '2024-02-15 01:50:00', '2024-02-15 00:50:00', '2024-02-14 23:50:00', '2024-02-14 22:50:00', '2024-02-14 21:50:00', '2024-02-14 20:50:00', '2024-02-14 19:50:00', '2024-02-14 18:50:00', '2024-02-14 17:50:00', '2024-02-14 16:50:00', '2024-02-14 15:50:00', '2024-02-14 14:50:00', '2024-02-14 13:50:00', '2024-02-14 12:50:00', '2024-02-14 11:50:00', '2024-02-14 10:50:00', '2024-02-14 09:50:00', '2024-02-14 08:50:00', '2024-02-14 07:50:00', '2024-02-14 06:50:00', '2024-02-14 05:50:00', '2024-02-14 04:50:00', '2024-02-14 03:50:00', '2024-02-14 02:50:00', '2024-02-14 01:50:00', '2024-02-14 00:50:00', '2024-02-13 23:50:00', '2024-02-13 22:50:00', '2024-02-13 21:50:00', '2024-02-13 20:50:00', '2024-02-13 19:50:00', '2024-02-13 18:50:00', '2024-02-13 17:50:00', '2024-02-13 16:50:00', '2024-02-13 15:50:00', '2024-02-13 14:50:00', '2024-02-13 13:50:00', '2024-02-13 12:50:00', '2024-02-13 11:50:00', '2024-02-13 10:50:00', '2024-02-13 09:50:00', '2024-02-13 08:50:00', '2024-02-13 07:50:00', '2024-02-13 06:50:00', '2024-02-13 05:50:00', '2024-02-13 04:50:00', '2024-02-13 03:50:00', '2024-02-13 02:50:00', '2024-02-13 01:50:00', '2024-02-13 00:50:00', '2024-02-12 23:50:00', '2024-02-12 22:50:00', '2024-02-12 21:50:00', '2024-02-12 20:50:00', '2024-02-12 19:50:00', '2024-02-12 18:50:00', '2024-02-12 17:50:00', '2024-02-12 16:50:00', '2024-02-12 15:50:00', '2024-02-12 14:50:00', '2024-02-12 13:50:00', '2024-02-12 12:50:00', '2024-02-12 11:50:00', '2024-02-12 10:50:00', '2024-02-12 09:50:00']"
Turkey, Kars Harakani Airport (KSY/LTCF) ,"['LTCF 150850Z 30003KT 9999 SCT035 BKN070 04/02 Q1015 NOSIG', 'LTCF 150750Z VRB02KT 9999 BKN035 BKN070 04/02 Q1015 NOSIG', 'LTCF 150650Z VRB02KT 6000 SCT009 BKN025 OVC070 02/02 Q1015 NOSIG', 'LTCF 150550Z 08003KT 3200 BR SCT009 BKN025 OVC070 01/01 Q1014 NOSIG', 'LTCF 150524Z VRB01KT 6000 BKN035 OVC070 01/01 Q1014 NOSIG RMK RWY24 17002KT', 'LTCF 150450Z 29006KT 4500 -RA BR SCT009 BKN025 OVC070 00/00 Q1014 NOSIG', 'LTCF 150350Z 28008KT 250V340 4500 -RA BR SCT009 BKN025 OVC070 01/01 Q1013 NOSIG', 'LTCF 150250Z 30006KT 8000 -RA SCT009 BKN025 OVC070 02/01 Q1013 NOSIG', 'LTCF 150150Z 06007KT 8000 -RA SCT009 BKN025 OVC070 04/02 Q1013 NOSIG', 'LTCF 150050Z 11009KT 060V160 8000 -RA SCT009 BKN025 OVC070 04/02 Q1013 NOSIG', 'LTCF 142350Z 12005G15KT 070V200 6000 BKN025 OVC070 03/01 Q1014 NOSIG', 'LTCF 142250Z 03009KT 6000 BKN025 OVC070 01/01 Q1014 NOSIG', 'LTCF 142150Z 03006KT 6000 BKN025 OVC070 02/01 Q1014 RERA NOSIG', 'LTCF 142050Z VRB02KT 6000 -RA BKN025 OVC070 01/01 Q1015 NOSIG', 'LTCF 141950Z 31004KT 280V340 6000 -RA BKN025 OVC070 02/01 Q1015 NOSIG', 'LTCF 141912Z 34004KT 280V010 9999 -RA BKN025 BKN070 02/00 Q1015 NOSIG RMK RWY24 28004KT', 'LTCF 141850Z 22004KT 9999 BKN035 BKN070 02/00 Q1015 NOSIG', 'LTCF 141750Z 30004KT 260V330 9999 BKN035 BKN070 02/00 Q1015 NOSIG', 'LTCF 141650Z 30004KT 270V330 9999 SCT040 BKN080 03/M00 Q1015 NOSIG', 'LTCF 141550Z 19002KT 9999 SCT040 BKN080 03/00 Q1015 NOSIG', 'LTCF 141450Z 23004KT 190V250 9999 SCT040 BKN080 03/01 Q1015 NOSIG', 'LTCF 141350Z 02006KT 360V070 9999 SCT040 BKN080 05/00 Q1015 NOSIG', 'LTCF 141250Z 36005KT 340V040 9999 SCT040 BKN080 06/00 Q1015 NOSIG', 'LTCF 141150Z 06003KT 360V150 9999 SCT040 BKN080 05/M01 Q1015 NOSIG', 'LTCF 141050Z 27003KT 220V310 9999 SCT040 BKN080 05/M01 Q1016 NOSIG', 'LTCF 140950Z VRB02KT 9999 SCT040 BKN080 04/M01 Q1017 NOSIG', 'LTCF 140850Z 18003KT 140V220 9999 BKN035 BKN070 02/M01 Q1018 NOSIG', 'LTCF 140808Z 29004KT 250V320 8000 BKN035 OVC070 02/M00 Q1018 RESNRA NOSIG RMK RWY24 28003KT 220V330', 'LTCF 140750Z 30005KT 4500 -SNRA BKN035 OVC070 01/M00 Q1018 NOSIG', 'LTCF 140650Z 00000KT 9999 SCT040 BKN080 01/M01 Q1018 NOSIG', 'LTCF 140550Z VRB01KT 9999 SCT040 BKN080 00/M01 Q1018 NOSIG', 'LTCF 140450Z 36001KT 9999 SCT040 BKN080 M01/M02 Q1018 NOSIG', 'LTCF 140350Z 00000KT 9999 FEW040 SCT080 M01/M02 Q1018 NOSIG', 'LTCF 140250Z 00000KT 9999 FEW040 SCT080 M01/M02 Q1017 NOSIG', 'LTCF 140150Z 07003KT 9999 FEW040 SCT080 M02/M02 Q1017 NOSIG', 'LTCF 140050Z 16004KT 9999 FEW040 SCT080 M00/M02 Q1017 NOSIG', 'LTCF 132350Z 16004KT 130V200 9999 FEW040 SCT080 M02/M03 Q1018 NOSIG', 'LTCF 132250Z 07006KT 9999 FEW040 SCT080 M03/M04 Q1018 NOSIG', 'LTCF 132150Z VRB04KT 9999 FEW040 SCT080 M01/M02 Q1018 NOSIG', 'LTCF 132050Z VRB02KT 9999 FEW040 SCT080 M01/M02 Q1019 NOSIG', 'LTCF 131950Z 16003KT 9999 FEW040 SCT080 M00/M02 Q1019 NOSIG', 'LTCF 131850Z 18001KT 9999 FEW040 SCT080 M01/M02 Q1019 NOSIG', 'LTCF 131750Z VRB02KT 9999 FEW040 SCT080 M00/M02 Q1019 NOSIG', 'LTCF 131650Z 00000KT 9999 FEW040 SCT080 BKN180 01/M01 Q1019 NOSIG', 'LTCF 131550Z 08005KT 9999 FEW040 SCT080 BKN180 M00/M02 Q1019 NOSIG', 'LTCF 131450Z 09006KT 9999 FEW040 SCT080 BKN180 02/M01 Q1020 NOSIG', 'LTCF 131350Z 02005KT 9999 FEW040 SCT080 BKN180 05/M01 Q1020 NOSIG', 'LTCF 131250Z 03007KT 9999 FEW040 SCT080 BKN180 05/M00 Q1019 NOSIG', 'LTCF 131150Z 02005KT 9999 FEW040 SCT080 BKN180 05/M01 Q1020 NOSIG', 'LTCF 131050Z 02006KT 350V050 9999 FEW040 SCT080 BKN180 05/M01 Q1020 NOSIG', 'LTCF 130950Z 05005KT 020V080 9999 FEW040 SCT180 05/M03 Q1020 NOSIG', 'LTCF 130850Z VRB02KT 9999 FEW040 SCT160 05/M03 Q1021 NOSIG', 'LTCF 130750Z VRB02KT CAVOK 03/M03 Q1021 NOSIG', 'LTCF 130650Z VRB02KT CAVOK M00/M03 Q1021 NOSIG', 'LTCF 130550Z VRB02KT CAVOK M01/M04 Q1022 NOSIG', 'LTCF 130450Z 11003KT CAVOK M03/M04 Q1021 NOSIG', 'LTCF 130350Z 29004KT CAVOK M04/M05 Q1021 NOSIG', 'LTCF 130250Z 21001KT CAVOK M04/M05 Q1021 NOSIG', 'LTCF 130150Z 13002KT CAVOK M04/M04 Q1021 NOSIG', 'LTCF 130050Z 00000KT CAVOK M03/M05 Q1021 NOSIG', 'LTCF 122350Z 13003KT CAVOK M02/M04 Q1022 NOSIG', 'LTCF 122250Z 14002KT CAVOK M02/M03 Q1022 NOSIG', 'LTCF 122150Z VRB02KT CAVOK M02/M04 Q1022 NOSIG', 'LTCF 122050Z 05002KT CAVOK M00/M03 Q1022 NOSIG', 'LTCF 121950Z 00000KT CAVOK M00/M03 Q1022 NOSIG', 'LTCF 121850Z VRB01KT CAVOK M01/M03 Q1023 NOSIG', 'LTCF 121750Z 11003KT CAVOK M01/M03 Q1023', 'LTCF 121650Z 05002KT CAVOK 01/M02 Q1023 NOSIG', 'LTCF 121550Z 29006KT CAVOK 02/M02 Q1022 NOSIG', 'LTCF 121450Z 24004KT CAVOK 03/M02 Q1022 NOSIG', 'LTCF 121350Z 21005KT CAVOK 05/M01 Q1022 NOSIG', 'LTCF 121250Z 27004KT 220V310 CAVOK 06/M03 Q1023 NOSIG', 'LTCF 121150Z 22006KT 190V260 CAVOK 07/M02 Q1023 NOSIG', 'LTCF 121050Z 22004KT 140V290 CAVOK 06/M02 Q1023 NOSIG', 'LTCF 120950Z VRB01KT CAVOK 05/M03 Q1024 NOSIG']","['2024-02-15 08:50:00', '2024-02-15 07:50:00', '2024-02-15 06:50:00', '2024-02-15 05:50:00', '2024-02-15 05:24:00', '2024-02-15 04:50:00', '2024-02-15 03:50:00', '2024-02-15 02:50:00', '2024-02-15 01:50:00', '2024-02-15 00:50:00', '2024-02-14 23:50:00', '2024-02-14 22:50:00', '2024-02-14 21:50:00', '2024-02-14 20:50:00', '2024-02-14 19:50:00', '2024-02-14 19:12:00', '2024-02-14 18:50:00', '2024-02-14 17:50:00', '2024-02-14 16:50:00', '2024-02-14 15:50:00', '2024-02-14 14:50:00', '2024-02-14 13:50:00', '2024-02-14 12:50:00', '2024-02-14 11:50:00', '2024-02-14 10:50:00', '2024-02-14 09:50:00', '2024-02-14 08:50:00', '2024-02-14 08:08:00', '2024-02-14 07:50:00', '2024-02-14 06:50:00', '2024-02-14 05:50:00', '2024-02-14 04:50:00', '2024-02-14 03:50:00', '2024-02-14 02:50:00', '2024-02-14 01:50:00', '2024-02-14 00:50:00', '2024-02-13 23:50:00', '2024-02-13 22:50:00', '2024-02-13 21:50:00', '2024-02-13 20:50:00', '2024-02-13 19:50:00', '2024-02-13 18:50:00', '2024-02-13 17:50:00', '2024-02-13 16:50:00', '2024-02-13 15:50:00', '2024-02-13 14:50:00', '2024-02-13 13:50:00', '2024-02-13 12:50:00', '2024-02-13 11:50:00', '2024-02-13 10:50:00', '2024-02-13 09:50:00', '2024-02-13 08:50:00', '2024-02-13 07:50:00', '2024-02-13 06:50:00', '2024-02-13 05:50:00', '2024-02-13 04:50:00', '2024-02-13 03:50:00', '2024-02-13 02:50:00', '2024-02-13 01:50:00', '2024-02-13 00:50:00', '2024-02-12 23:50:00', '2024-02-12 22:50:00', '2024-02-12 21:50:00', '2024-02-12 20:50:00', '2024-02-12 19:50:00', '2024-02-12 18:50:00', '2024-02-12 17:50:00', '2024-02-12 16:50:00', '2024-02-12 15:50:00', '2024-02-12 14:50:00', '2024-02-12 13:50:00', '2024-02-12 12:50:00', '2024-02-12 11:50:00', '2024-02-12 10:50:00', '2024-02-12 09:50:00']"
Turkey, Kastamonu Airport (KFS/LTAL) ,"['LTAL 150850Z 22011KT 8000 -SHRA FEW008 BKN019 OVC048 03/03 Q1011', 'LTAL 150750Z 23010KT 8000 -SHRA FEW008 BKN019 OVC048 03/03 Q1011', 'LTAL 150650Z 23010KT 6000 -SHRA FEW008 OVC018 04/04 Q1011', 'LTAL 141250Z 03007KT 360V060 9999 -SHRA FEW024 SCT034 OVC090 07/05 Q1008', 'LTAL 141150Z 03007KT 9999 -SHRA FEW020 SCT034 OVC090 08/05 Q1008', 'LTAL 141050Z 04006KT 010V080 9999 FEW034 OVC090 08/04 Q1008', 'LTAL 140950Z 03005KT 350V060 9999 FEW034 BKN090 09/04 Q1008', 'LTAL 140850Z 03005KT 350V110 9999 FEW032 BKN090 09/04 Q1009', 'LTAL 140750Z VRB02KT 9999 FEW032 BKN090 07/04 Q1009', 'LTAL 140650Z VRB02KT 9999 FEW032 OVC090 06/04 Q1009', 'LTAL 131150Z 19012KT 9999 BKN030 BKN090 12/00 Q1009', 'LTAL 131050Z 18010KT 9999 SCT033 BKN090 12/00 Q1009', 'LTAL 130950Z 20017KT 9999 SCT033 BKN090 12/00 Q1010', 'LTAL 130850Z 20008KT 170V240 9999 SCT033 BKN090 12/00 Q1010', 'LTAL 130750Z 19009KT 9999 SCT033 BKN090 12/00 Q1010', 'LTAL 130650Z 17014KT 150V210 9999 SCT033 BKN090 10/00 Q1010', 'LTAL 130550Z 17013KT 9999 BKN033 OVC090 09/00 Q1010', 'LTAL 130450Z 20013KT 9999 BKN033 OVC090 09/M00 Q1010', 'LTAL 121350Z 22013KT 9999 SCT030 SCT100 BKN180 13/01 Q1013', 'LTAL 121250Z 22013KT 9999 SCT030 SCT100 BKN180 14/01 Q1013', 'LTAL 121150Z 22011KT 180V250 9999 SCT030 SCT100 BKN180 14/00 Q1013', 'LTAL 121050Z 18014KT 140V210 9999 FEW033 BKN180 14/00 Q1014', 'LTAL 120950Z 19015KT 9999 FEW033 BKN180 14/M01 Q1015']","['2024-02-15 08:50:00', '2024-02-15 07:50:00', '2024-02-15 06:50:00', '2024-02-14 12:50:00', '2024-02-14 11:50:00', '2024-02-14 10:50:00', '2024-02-14 09:50:00', '2024-02-14 08:50:00', '2024-02-14 07:50:00', '2024-02-14 06:50:00', '2024-02-13 11:50:00', '2024-02-13 10:50:00', '2024-02-13 09:50:00', '2024-02-13 08:50:00', '2024-02-13 07:50:00', '2024-02-13 06:50:00', '2024-02-13 05:50:00', '2024-02-13 04:50:00', '2024-02-12 13:50:00', '2024-02-12 12:50:00', '2024-02-12 11:50:00', '2024-02-12 10:50:00', '2024-02-12 09:50:00']"
Turkey, Kayseri Erkilet International Airport (ASR/LTAU) ,"['LTAU 150850Z VRB02KT 9999 FEW040 10/03 Q1011 NOSIG', 'LTAU 150820Z VRB02KT 9999 FEW040 10/02 Q1011 NOSIG', 'LTAU 150750Z VRB01KT 9999 FEW035 08/03 Q1011 NOSIG', 'LTAU 150720Z 00000KT 9999 FEW035 09/04 Q1011 NOSIG', 'LTAU 150650Z 00000KT 9999 FEW035 07/04 Q1011 NOSIG', 'LTAU 150620Z 08004KT 7000 FEW035 04/03 Q1011 NOSIG', 'LTAU 150550Z VRB02KT 7000 FEW035 02/01 Q1011 NOSIG', 'LTAU 150520Z 04002KT 7000 FEW035 SCT100 01/01 Q1011 NOSIG', 'LTAU 150450Z 05003KT 7000 SCT035 BKN100 02/01 Q1011 NOSIG', 'LTAU 150420Z 00000KT 6000 SCT035 BKN100 02/01 Q1010 NOSIG', 'LTAU 150350Z 00000KT 6000 SCT035 BKN100 02/01 Q1010 NOSIG', 'LTAU 150320Z 08003KT 6000 SCT040 BKN100 01/01 Q1010 NOSIG', 'LTAU 150250Z 00000KT 6000 SCT040 BKN120 00/M00 Q1009 NOSIG', 'LTAU 150220Z 00000KT 7000 FEW040 SCT120 M01/M01 Q1009 NOSIG', 'LTAU 150150Z 00000KT 7000 FEW040 SCT120 M01/M01 Q1009 NOSIG', 'LTAU 150120Z 12002KT 7000 FEW040 SCT100 01/00 Q1008 NOSIG', 'LTAU 150050Z 00000KT 7000 SCT040 SCT100 01/01 Q1008 NOSIG', 'LTAU 150020Z 28001KT 8000 SCT040 SCT100 01/01 Q1008 NOSIG', 'LTAU 142350Z 00000KT 8000 SCT040 SCT100 02/01 Q1008 NOSIG', 'LTAU 142320Z 06004KT 9999 SCT040 SCT100 02/01 Q1008 NOSIG', 'LTAU 142250Z VRB01KT 7000 SCT040 SCT100 02/01 Q1008 NOSIG', 'LTAU 142220Z 00000KT 8000 SCT040 SCT100 03/02 Q1008 NOSIG', 'LTAU 142150Z 00000KT 8000 SCT040 SCT100 04/03 Q1008 NOSIG', 'LTAU 142120Z 00000KT 9999 SCT040 SCT100 04/03 Q1007 NOSIG', 'LTAU 142050Z 00000KT 9999 SCT040 SCT100 05/03 Q1007 NOSIG', 'LTAU 142020Z 00000KT 9999 SCT040 BKN090 05/03 Q1007 NOSIG', 'LTAU 141950Z 15003KT 110V230 9999 SCT040 BKN090 06/03 Q1007 NOSIG', 'LTAU 141920Z 12007KT 9999 SCT040 BKN090 07/02 Q1007 NOSIG', 'LTAU 141850Z VRB01KT 9999 SCT040 BKN090 06/02 Q1007 NOSIG', 'LTAU 141820Z 14008KT 110V170 9999 SCT040 BKN090 07/03 Q1007 NOSIG', 'LTAU 141750Z 16006KT 130V190 9999 SCT040 BKN090 07/02 Q1007 NOSIG', 'LTAU 141720Z VRB02KT 9999 SCT040 BKN090 06/03 Q1007 NOSIG', 'LTAU 141650Z 09004KT 050V130 9999 SCT040 SCT090 06/03 Q1007 NOSIG', 'LTAU 141620Z 30006KT 9999 SCT040 SCT090 06/04 Q1007 NOSIG', 'LTAU 141550Z 18004KT 9999 SCT040 BKN090 07/04 Q1007 NOSIG', 'LTAU 141520Z 14010KT 9999 SCT040 BKN090 08/03 Q1006 NOSIG', 'LTAU 141450Z 11010KT 9999 BKN035 BKN090 07/04 Q1006 RESHRA NOSIG', 'LTAU 141420Z 17008KT 120V210 9999 -SHRA BKN035 BKN090 08/05 Q1007 NOSIG', 'LTAU 141350Z 17008KT 9000 -SHRA BKN035 BKN090 09/05 Q1006 NOSIG', 'LTAU 141320Z 14006KT 9999 -SHRA BKN035 BKN090 11/04 Q1006 NOSIG', 'LTAU 141250Z 13006KT 100V160 9999 -SHRA BKN035 BKN090 12/05 Q1005 NOSIG', 'LTAU 141220Z 15010KT 9999 SCT040 BKN100 12/04 Q1006 NOSIG', 'LTAU 141150Z 17009KT 140V200 9999 SCT040 BKN100 12/03 Q1006 NOSIG', 'LTAU 141120Z 16009KT 9999 SCT040 BKN100 13/03 Q1006 NOSIG', 'LTAU 141050Z 14009KT 120V190 9999 SCT040 BKN100 13/03 Q1006 NOSIG', 'LTAU 141020Z 09012KT 060V120 9999 SCT035 BKN100 12/04 Q1006 NOSIG', 'LTAU 140950Z 08012KT 9999 SCT035 BKN100 12/04 Q1006 NOSIG', 'LTAU 140920Z 09010KT 9999 SCT035 BKN100 11/04 Q1007 NOSIG', 'LTAU 140850Z 07015KT 9999 SCT035 BKN100 11/04 Q1007 NOSIG', 'LTAU 140820Z 08015KT 9999 SCT035 BKN100 11/04 Q1007 NOSIG', 'LTAU 140750Z 07012KT 9999 SCT035 BKN100 11/04 Q1008 NOSIG', 'LTAU 140720Z 08010KT 9999 SCT040 BKN100 11/04 Q1008 NOSIG', 'LTAU 140650Z 07007KT 9999 SCT040 BKN100 09/04 Q1008 RESHRA NOSIG', 'LTAU 140620Z 06007KT 9999 -SHRA BKN040 BKN080 07/04 Q1008 NOSIG', 'LTAU 140550Z 04003KT 9999 BKN040 BKN080 06/03 Q1009 NOSIG', 'LTAU 140520Z 14004KT 9999 SCT040 BKN080 05/03 Q1009 NOSIG', 'LTAU 140450Z 05003KT 9999 SCT040 BKN100 04/02 Q1008 NOSIG', 'LTAU 140420Z 06004KT 9999 SCT040 BKN100 05/02 Q1008 NOSIG', 'LTAU 140350Z 03005KT 9999 SCT040 BKN100 06/03 Q1008 NOSIG', 'LTAU 140320Z 14007KT 9999 SCT040 BKN100 07/04 Q1008 RESHRA NOSIG', 'LTAU 140250Z VRB04KT 9999 -SHRA BKN035 BKN080 07/04 Q1008 NOSIG', 'LTAU 140220Z 10007KT 9999 -SHRA BKN035 BKN080 08/03 Q1008 NOSIG', 'LTAU 140150Z 14010KT 9999 -SHRA BKN035 BKN080 08/03 Q1008 BECMG 07008KT', 'LTAU 140120Z 12009KT 9999 BKN035 BKN080 08/03 Q1008 NOSIG', 'LTAU 140050Z 12010KT 9999 BKN035 BKN080 08/03 Q1009 NOSIG', 'LTAU 140020Z 12010KT 9999 BKN035 BKN080 09/03 Q1009 RESHRA NOSIG', 'LTAU 132350Z 11010KT 9999 -SHRA BKN035 BKN080 08/03 Q1009 NOSIG', 'LTAU 132320Z 11009KT 9999 -SHRA BKN035 BKN080 09/02 Q1009 NOSIG', 'LTAU 132250Z 09008KT 9999 -SHRA BKN035 BKN080 09/02 Q1009 NOSIG', 'LTAU 132220Z 14009KT 9999 BKN035 BKN080 10/02 Q1010 NOSIG', 'LTAU 132150Z 12007KT 090V160 9999 BKN035 BKN080 10/02 Q1010 NOSIG', 'LTAU 132120Z 07008KT 040V100 9999 BKN035 BKN080 09/02 Q1010 NOSIG', 'LTAU 132050Z 12008KT 080V150 9999 BKN035 BKN080 10/02 Q1010 NOSIG', 'LTAU 132020Z 14011KT 9999 BKN035 BKN080 10/02 Q1010 NOSIG', 'LTAU 131950Z 13007KT 080V150 9999 BKN035 BKN080 10/02 Q1010 NOSIG', 'LTAU 131920Z 18011KT 150V210 9999 BKN035 BKN080 11/02 Q1011 RESHRA NOSIG', 'LTAU 131850Z 15006KT 100V180 9999 -SHRA BKN035 BKN080 11/02 Q1010 NOSIG', 'LTAU 131820Z 15012KT 110V190 9999 -SHRA BKN035 BKN080 10/02 Q1011 NOSIG', 'LTAU 131750Z 17011KT 140V210 9999 -SHRA BKN035 BKN080 11/02 Q1011 NOSIG', 'LTAU 131720Z 15011KT 9999 SCT040 BKN100 11/02 Q1011 NOSIG', 'LTAU 131650Z 16015KT 9999 SCT040 BKN100 11/02 Q1011 NOSIG', 'LTAU 131620Z 16016KT 9999 SCT040 BKN100 11/03 Q1011 NOSIG', 'LTAU 131550Z 17014KT 9999 SCT040 BKN100 12/01 Q1010 NOSIG', 'LTAU 131520Z 16015KT 9999 SCT040 BKN100 11/02 Q1009 NOSIG', 'LTAU 131450Z 15016KT 9999 SCT040 BKN100 11/02 Q1010 NOSIG', 'LTAU 131420Z 16015KT 130V190 9999 SCT040 BKN100 12/03 Q1010 NOSIG', 'LTAU 131350Z 17016KT 130V190 9999 SCT040 BKN100 12/03 Q1010 NOSIG', 'LTAU 131320Z 15014KT 9999 SCT040 BKN100 12/03 Q1010 NOSIG', 'LTAU 131250Z 17013KT 9999 SCT040 BKN100 12/02 Q1010 NOSIG', 'LTAU 131220Z 15011KT 120V190 9999 SCT040 BKN100 12/02 Q1010 NOSIG', 'LTAU 131150Z 14010KT 100V200 9999 SCT040 BKN100 12/02 Q1011 NOSIG', 'LTAU 131120Z 17012KT 140V200 9999 SCT040 BKN100 13/02 Q1011 NOSIG', 'LTAU 131050Z 18012G22KT 080V230 9999 SCT040 BKN100 13/01 Q1011 NOSIG', 'LTAU 131020Z 19018G30KT 160V220 9999 SCT040 BKN100 13/02 Q1012 NOSIG', 'LTAU 130950Z 19014G25KT 150V230 9999 SCT040 BKN100 13/02 Q1012 NOSIG', 'LTAU 130920Z 20015G25KT 150V240 9999 SCT040 BKN100 14/01 Q1012 NOSIG', 'LTAU 130850Z 19014KT 150V220 9999 SCT040 BKN100 14/00 Q1012 NOSIG', 'LTAU 130820Z 18009KT 150V250 9999 SCT040 BKN100 14/01 Q1013 NOSIG', 'LTAU 130750Z 14006KT 110V170 9999 SCT040 BKN100 13/01 Q1013 BECMG 16016G30KT', 'LTAU 130720Z 16011KT 9999 SCT040 BKN100 13/01 Q1013 NOSIG', 'LTAU 130650Z 30001KT 9999 SCT040 BKN100 12/01 Q1013 BECMG 15015KT', 'LTAU 130620Z 16011KT 120V210 9999 SCT040 BKN100 12/01 Q1013 NOSIG', 'LTAU 130550Z 16010KT 130V200 9999 SCT035 BKN100 11/01 Q1013 NOSIG', 'LTAU 130520Z 14007KT 9999 SCT035 BKN100 11/01 Q1013 NOSIG', 'LTAU 130450Z 16012KT 9999 SCT035 BKN100 11/01 Q1013 NOSIG', 'LTAU 130420Z 15012KT 9999 SCT035 BKN100 11/01 Q1013 NOSIG', 'LTAU 130350Z 17017KT 9999 SCT040 BKN100 11/01 Q1013 NOSIG', 'LTAU 130320Z 16014KT 130V200 9999 SCT040 BKN100 11/00 Q1013 NOSIG', 'LTAU 130250Z 17013KT 140V200 9999 FEW040 BKN120 11/M00 Q1013 NOSIG', 'LTAU 130220Z 19014KT 160V220 9999 FEW040 BKN120 11/M00 Q1013 NOSIG', 'LTAU 130150Z VRB02KT 9999 FEW040 BKN120 08/M01 Q1013 BECMG 16015G25KT', 'LTAU 130120Z VRB04KT 9999 FEW040 BKN120 08/M01 Q1013 BECMG 16015G25KT', 'LTAU 130050Z VRB02KT 9999 FEW040 BKN120 06/M00 Q1014 BECMG 16015G25KT', 'LTAU 130020Z 28005KT 160V320 9999 FEW040 BKN120 07/M00 Q1014 BECMG 16015G25KT', 'LTAU 122350Z 15010KT 9999 FEW040 BKN120 11/M01 Q1014 NOSIG', 'LTAU 122320Z 15009KT 9999 FEW040 BKN120 10/M00 Q1014 NOSIG', 'LTAU 122250Z VRB02KT 9999 FEW040 BKN120 08/M00 Q1014 BECMG 16015G25KT', 'LTAU 122220Z VRB01KT 9999 FEW040 BKN120 07/M00 Q1015 BECMG TL2300 16012G25KT', 'LTAU 122150Z VRB01KT 9999 FEW040 BKN120 07/M00 Q1014 BECMG TL2300 16012G25KT', 'LTAU 122120Z 00000KT 9999 FEW040 BKN120 08/M01 Q1015 BECMG TL2300 16012G25KT', 'LTAU 122050Z VRB03KT 9999 FEW040 BKN120 07/M01 Q1015 NOSIG', 'LTAU 122020Z 04006KT 9999 FEW040 BKN120 08/M01 Q1015 NOSIG', 'LTAU 121950Z 01005KT 9999 FEW040 BKN120 07/M01 Q1015 NOSIG', 'LTAU 121920Z 00000KT 9999 FEW040 BKN120 09/M01 Q1015 NOSIG', 'LTAU 121850Z 22004KT 9999 FEW040 BKN120 09/M01 Q1016 NOSIG', 'LTAU 121820Z 24006KT CAVOK 08/M01 Q1015 NOSIG', 'LTAU 121750Z 00000KT CAVOK 08/M01 Q1015 NOSIG', 'LTAU 121720Z 01003KT CAVOK 08/M01 Q1016 NOSIG', 'LTAU 121650Z VRB02KT CAVOK 09/M01 Q1016 NOSIG', 'LTAU 121620Z VRB01KT CAVOK 10/M01 Q1016 NOSIG', 'LTAU 121550Z 31006KT CAVOK 11/M01 Q1016 NOSIG', 'LTAU 121520Z 30006KT CAVOK 11/M01 Q1016 NOSIG', 'LTAU 121450Z 00000KT CAVOK 13/M01 Q1015 NOSIG', 'LTAU 121420Z 00000KT CAVOK 14/M01 Q1015 NOSIG', 'LTAU 121350Z 00000KT CAVOK 15/M01 Q1015 NOSIG', 'LTAU 121320Z 00000KT CAVOK 15/M00 Q1016 NOSIG', 'LTAU 121250Z VRB01KT CAVOK 15/M00 Q1016 NOSIG', 'LTAU 121220Z 00000KT CAVOK 15/M01 Q1016 NOSIG', 'LTAU 121150Z VRB01KT CAVOK 15/M01 Q1017 NOSIG', 'LTAU 121120Z VRB01KT CAVOK 14/M00 Q1017 NOSIG', 'LTAU 121050Z VRB01KT CAVOK 13/00 Q1017 NOSIG', 'LTAU 121020Z VRB01KT CAVOK 13/00 Q1018 NOSIG', 'LTAU 120950Z 24005KT 200V270 CAVOK 13/M00 Q1018 NOSIG']","['2024-02-15 08:50:00', '2024-02-15 08:20:00', '2024-02-15 07:50:00', '2024-02-15 07:20:00', '2024-02-15 06:50:00', '2024-02-15 06:20:00', '2024-02-15 05:50:00', '2024-02-15 05:20:00', '2024-02-15 04:50:00', '2024-02-15 04:20:00', '2024-02-15 03:50:00', '2024-02-15 03:20:00', '2024-02-15 02:50:00', '2024-02-15 02:20:00', '2024-02-15 01:50:00', '2024-02-15 01:20:00', '2024-02-15 00:50:00', '2024-02-15 00:20:00', '2024-02-14 23:50:00', '2024-02-14 23:20:00', '2024-02-14 22:50:00', '2024-02-14 22:20:00', '2024-02-14 21:50:00', '2024-02-14 21:20:00', '2024-02-14 20:50:00', '2024-02-14 20:20:00', '2024-02-14 19:50:00', '2024-02-14 19:20:00', '2024-02-14 18:50:00', '2024-02-14 18:20:00', '2024-02-14 17:50:00', '2024-02-14 17:20:00', '2024-02-14 16:50:00', '2024-02-14 16:20:00', '2024-02-14 15:50:00', '2024-02-14 15:20:00', '2024-02-14 14:50:00', '2024-02-14 14:20:00', '2024-02-14 13:50:00', '2024-02-14 13:20:00', '2024-02-14 12:50:00', '2024-02-14 12:20:00', '2024-02-14 11:50:00', '2024-02-14 11:20:00', '2024-02-14 10:50:00', '2024-02-14 10:20:00', '2024-02-14 09:50:00', '2024-02-14 09:20:00', '2024-02-14 08:50:00', '2024-02-14 08:20:00', '2024-02-14 07:50:00', '2024-02-14 07:20:00', '2024-02-14 06:50:00', '2024-02-14 06:20:00', '2024-02-14 05:50:00', '2024-02-14 05:20:00', '2024-02-14 04:50:00', '2024-02-14 04:20:00', '2024-02-14 03:50:00', '2024-02-14 03:20:00', '2024-02-14 02:50:00', '2024-02-14 02:20:00', '2024-02-14 01:50:00', '2024-02-14 01:20:00', '2024-02-14 00:50:00', '2024-02-14 00:20:00', '2024-02-13 23:50:00', '2024-02-13 23:20:00', '2024-02-13 22:50:00', '2024-02-13 22:20:00', '2024-02-13 21:50:00', '2024-02-13 21:20:00', '2024-02-13 20:50:00', '2024-02-13 20:20:00', '2024-02-13 19:50:00', '2024-02-13 19:20:00', '2024-02-13 18:50:00', '2024-02-13 18:20:00', '2024-02-13 17:50:00', '2024-02-13 17:20:00', '2024-02-13 16:50:00', '2024-02-13 16:20:00', '2024-02-13 15:50:00', '2024-02-13 15:20:00', '2024-02-13 14:50:00', '2024-02-13 14:20:00', '2024-02-13 13:50:00', '2024-02-13 13:20:00', '2024-02-13 12:50:00', '2024-02-13 12:20:00', '2024-02-13 11:50:00', '2024-02-13 11:20:00', '2024-02-13 10:50:00', '2024-02-13 10:20:00', '2024-02-13 09:50:00', '2024-02-13 09:20:00', '2024-02-13 08:50:00', '2024-02-13 08:20:00', '2024-02-13 07:50:00', '2024-02-13 07:20:00', '2024-02-13 06:50:00', '2024-02-13 06:20:00', '2024-02-13 05:50:00', '2024-02-13 05:20:00', '2024-02-13 04:50:00', '2024-02-13 04:20:00', '2024-02-13 03:50:00', '2024-02-13 03:20:00', '2024-02-13 02:50:00', '2024-02-13 02:20:00', '2024-02-13 01:50:00', '2024-02-13 01:20:00', '2024-02-13 00:50:00', '2024-02-13 00:20:00', '2024-02-12 23:50:00', '2024-02-12 23:20:00', '2024-02-12 22:50:00', '2024-02-12 22:20:00', '2024-02-12 21:50:00', '2024-02-12 21:20:00', '2024-02-12 20:50:00', '2024-02-12 20:20:00', '2024-02-12 19:50:00', '2024-02-12 19:20:00', '2024-02-12 18:50:00', '2024-02-12 18:20:00', '2024-02-12 17:50:00', '2024-02-12 17:20:00', '2024-02-12 16:50:00', '2024-02-12 16:20:00', '2024-02-12 15:50:00', '2024-02-12 15:20:00', '2024-02-12 14:50:00', '2024-02-12 14:20:00', '2024-02-12 13:50:00', '2024-02-12 13:20:00', '2024-02-12 12:50:00', '2024-02-12 12:20:00', '2024-02-12 11:50:00', '2024-02-12 11:20:00', '2024-02-12 10:50:00', '2024-02-12 10:20:00', '2024-02-12 09:50:00']"
Turkey, Konya Airport (KYA/LTAN) ,"['LTAN 150850Z VRB02KT 9999 SCT035 SCT200 08/02 Q1011 NOSIG', 'LTAN 150750Z 04004KT 360V080 9999 FEW030 06/03 Q1012 NOSIG', 'LTAN 150650Z 03005KT 9999 FEW030 04/02 Q1011 NOSIG', 'LTAN 150550Z VRB02KT 6000 FEW030 02/02 Q1011 TEMPO TL0700 2000 BR', 'LTAN 150450Z 03003KT 6000 SCT030 M00/M01 Q1010 TEMPO 2000 BR', 'LTAN 150350Z 02005KT 6000 SCT030 M01/M01 Q1009 BECMG TL0500 2000 BR', 'LTAN 150250Z 29003KT 6000 SCT035 01/01 Q1009 NOSIG', 'LTAN 150150Z 34002KT 6000 SCT035 01/01 Q1008 NOSIG', 'LTAN 150050Z 02006KT 5000 BR FEW002 01/01 Q1008 BECMG TL0150 2000', 'LTAN 142350Z 01004KT 6000 FEW040 01/01 Q1008 NOSIG', 'LTAN 142250Z 36003KT 6000 FEW040 01/01 Q1007 NOSIG', 'LTAN 142150Z 19002KT 8000 FEW035 03/02 Q1007 NOSIG', 'LTAN 142050Z VRB02KT 9999 SCT035 02/02 Q1007 NOSIG', 'LTAN 141950Z 14004KT 9999 SCT035 04/03 Q1007 NOSIG', 'LTAN 141850Z 20004KT 9999 SCT035 BKN100 05/04 Q1006 RESHRA NOSIG', 'LTAN 141750Z 19008KT 140V220 9999 -SHRA FEW015 SCT035 BKN100 06/04 Q1006 NOSIG', 'LTAN 141708Z 12010KT 9999 -SHRA FEW015 SCT035 BKN100 07/05 Q1005 NOSIG', 'LTAN 141650Z 11009KT 9999 FEW015 SCT035 BKN100 07/05 Q1005 NOSIG', 'LTAN 141550Z 07005KT 040V100 9999 FEW015 SCT035 BKN100 08/05 Q1005 NOSIG', 'LTAN 141450Z 05005KT 9999 FEW015 SCT035 BKN100 08/05 Q1005 NOSIG', 'LTAN 141350Z 04004KT 010V080 9999 FEW015 SCT035 BKN100 08/05 Q1005 NOSIG', 'LTAN 141250Z 02004KT 350V070 9999 FEW015 SCT035 BKN100 07/05 Q1005 RESHRA NOSIG', 'LTAN 141205Z 31005KT 9999 FEW015 SCT035 BKN100 07/05 Q1005 RESHRA NOSIG', 'LTAN 141150Z 31006KT 9999 -SHRA FEW015 SCT035 BKN100 06/05 Q1005 NOSIG', 'LTAN 141050Z 17008KT 9999 -SHRA FEW010 SCT030 BKN090 05/04 Q1006 NOSIG', 'LTAN 140950Z 36008KT 9999 -SHRA FEW008 SCT027 BKN090 06/06 Q1006 NOSIG', 'LTAN 140850Z 35011KT 9999 FEW008 SCT027 BKN090 06/05 Q1006 NOSIG', 'LTAN 140750Z 36010KT 9999 FEW010 SCT030 BKN090 05/05 Q1007 RERA NOSIG', 'LTAN 140707Z 36010KT 9999 FEW010 BKN030 BKN090 05/05 Q1007 RERA NOSIG', 'LTAN 140650Z 36009KT 9999 -RA FEW010 BKN030 BKN090 05/05 Q1007 NOSIG', 'LTAN 140550Z 36007KT 9999 -RA FEW010 BKN030 BKN090 05/04 Q1007 NOSIG', 'LTAN 140450Z 35009KT 9999 -RA FEW010 BKN030 BKN090 05/04 Q1007 NOSIG', 'LTAN 140350Z 01007KT 9999 -RA FEW010 BKN030 BKN090 05/04 Q1007 NOSIG', 'LTAN 140307Z 03007KT 9999 FEW010 SCT030 BKN090 05/04 Q1008 RERA NOSIG', 'LTAN 140250Z 01006KT 9999 -RA FEW010 BKN030 BKN090 05/04 Q1007 NOSIG', 'LTAN 140150Z 36006KT 9999 -RA FEW010 BKN033 BKN090 05/04 Q1008 NOSIG', 'LTAN 140050Z 36006KT 9999 -RA FEW010 BKN033 BKN090 05/05 Q1008 NOSIG', 'LTAN 132350Z 02006KT 9999 -RA FEW010 BKN033 BKN090 05/05 Q1008 NOSIG', 'LTAN 132250Z 07003KT 040V120 9999 -RA FEW010 BKN033 BKN090 06/05 Q1009 NOSIG', 'LTAN 132150Z 01009KT 9999 -RA FEW010 BKN033 BKN090 05/05 Q1009 NOSIG', 'LTAN 132050Z 02008KT 9999 -RA FEW015 BKN033 BKN090 06/05 Q1010 NOSIG', 'LTAN 131950Z 01004KT 9999 -RA FEW015 BKN033 BKN090 06/05 Q1010 NOSIG', 'LTAN 131928Z VRB02KT 9999 -RA FEW015 BKN033 BKN090 07/05 Q1010 NOSIG', 'LTAN 131850Z VRB01KT 9999 BKN035 BKN090 07/05 Q1010 NOSIG', 'LTAN 131750Z 20004KT 170V240 9999 BKN035 BKN090 07/04 Q1010 NOSIG', 'LTAN 131650Z 16008KT 130V190 9999 BKN035 BKN090 07/05 Q1010 RESHRA NOSIG', 'LTAN 131550Z 14005KT 9999 -SHRA BKN035 BKN090 08/06 Q1010 NOSIG', 'LTAN 131450Z 17008KT 9999 -SHRA BKN035 BKN090 08/04 Q1010 NOSIG', 'LTAN 131350Z 16014KT 9999 -SHRA BKN035 BKN090 10/03 Q1009 NOSIG', 'LTAN 131250Z 16017KT 9999 -SHRA BKN035 BKN090 12/M00 Q1009 NOSIG', 'LTAN 131150Z 19010KT 160V220 9999 -SHRA BKN040 BKN090 13/01 Q1009 NOSIG', 'LTAN 131101Z 16022KT 9999 -SHRA BKN035 BKN090 13/01 Q1009 NOSIG', 'LTAN 131050Z 16021KT 9999 SCT040 BKN090 13/01 Q1009 NOSIG', 'LTAN 130950Z 15019KT 9999 SCT040 BKN090 13/02 Q1010 NOSIG', 'LTAN 130850Z 15017KT 9999 SCT040 BKN090 12/03 Q1011 NOSIG', 'LTAN 130750Z 17013KT 9999 SCT040 BKN090 12/03 Q1011 NOSIG', 'LTAN 130650Z 18009KT 9999 SCT040 BKN090 10/03 Q1011 NOSIG', 'LTAN 130550Z 19009KT 9999 SCT040 BKN090 08/03 Q1012 NOSIG', 'LTAN 130450Z 20006KT 160V230 9999 FEW040 SCT090 07/03 Q1011 NOSIG', 'LTAN 130350Z 19005KT 9999 SCT040 BKN090 07/02 Q1011 NOSIG', 'LTAN 130250Z 22005KT 180V240 9999 FEW040 BKN090 07/02 Q1012 NOSIG', 'LTAN 130150Z 18009KT 9999 SCT040 BKN100 08/02 Q1012 NOSIG', 'LTAN 130050Z 19007KT 150V220 9999 FEW040 BKN100 07/02 Q1012 NOSIG', 'LTAN 122350Z 15014KT 9999 FEW040 BKN180 08/02 Q1012 NOSIG', 'LTAN 122250Z 16017KT 9999 FEW040 BKN180 08/02 Q1012 NOSIG', 'LTAN 122150Z 17016KT 9999 FEW040 BKN180 09/01 Q1013 NOSIG', 'LTAN 122050Z 13004KT 100V180 9999 FEW040 BKN120 09/01 Q1014 BECMG TL2150 18014KT', 'LTAN 121950Z 18007KT 9999 FEW040 BKN140 09/01 Q1014 NOSIG', 'LTAN 121850Z 18016KT 9999 FEW040 BKN120 10/01 Q1014 NOSIG', 'LTAN 121750Z 16016KT 9999 FEW040 BKN120 10/02 Q1014 NOSIG', 'LTAN 121650Z 17008KT 9999 FEW040 BKN120 10/02 Q1014 NOSIG', 'LTAN 121550Z 16010KT 9999 FEW040 BKN100 10/02 Q1015 NOSIG', 'LTAN 121450Z 22003KT 170V280 9999 FEW040 BKN100 10/02 Q1015 NOSIG', 'LTAN 121350Z 12008KT 9999 FEW040 BKN100 11/02 Q1015 BECMG TL1450 18012KT', 'LTAN 121250Z 17011KT 9999 FEW040 BKN110 12/01 Q1016 NOSIG', 'LTAN 121150Z 17015KT 9999 FEW040 BKN110 12/01 Q1016 NOSIG', 'LTAN 121050Z 18016KT 9999 FEW040 BKN110 12/00 Q1017 NOSIG', 'LTAN 120950Z 17014KT 9999 FEW040 SCT100 BKN200 12/00 Q1018 NOSIG']","['2024-02-15 08:50:00', '2024-02-15 07:50:00', '2024-02-15 06:50:00', '2024-02-15 05:50:00', '2024-02-15 04:50:00', '2024-02-15 03:50:00', '2024-02-15 02:50:00', '2024-02-15 01:50:00', '2024-02-15 00:50:00', '2024-02-14 23:50:00', '2024-02-14 22:50:00', '2024-02-14 21:50:00', '2024-02-14 20:50:00', '2024-02-14 19:50:00', '2024-02-14 18:50:00', '2024-02-14 17:50:00', '2024-02-14 17:08:00', '2024-02-14 16:50:00', '2024-02-14 15:50:00', '2024-02-14 14:50:00', '2024-02-14 13:50:00', '2024-02-14 12:50:00', '2024-02-14 12:05:00', '2024-02-14 11:50:00', '2024-02-14 10:50:00', '2024-02-14 09:50:00', '2024-02-14 08:50:00', '2024-02-14 07:50:00', '2024-02-14 07:07:00', '2024-02-14 06:50:00', '2024-02-14 05:50:00', '2024-02-14 04:50:00', '2024-02-14 03:50:00', '2024-02-14 03:07:00', '2024-02-14 02:50:00', '2024-02-14 01:50:00', '2024-02-14 00:50:00', '2024-02-13 23:50:00', '2024-02-13 22:50:00', '2024-02-13 21:50:00', '2024-02-13 20:50:00', '2024-02-13 19:50:00', '2024-02-13 19:28:00', '2024-02-13 18:50:00', '2024-02-13 17:50:00', '2024-02-13 16:50:00', '2024-02-13 15:50:00', '2024-02-13 14:50:00', '2024-02-13 13:50:00', '2024-02-13 12:50:00', '2024-02-13 11:50:00', '2024-02-13 11:01:00', '2024-02-13 10:50:00', '2024-02-13 09:50:00', '2024-02-13 08:50:00', '2024-02-13 07:50:00', '2024-02-13 06:50:00', '2024-02-13 05:50:00', '2024-02-13 04:50:00', '2024-02-13 03:50:00', '2024-02-13 02:50:00', '2024-02-13 01:50:00', '2024-02-13 00:50:00', '2024-02-12 23:50:00', '2024-02-12 22:50:00', '2024-02-12 21:50:00', '2024-02-12 20:50:00', '2024-02-12 19:50:00', '2024-02-12 18:50:00', '2024-02-12 17:50:00', '2024-02-12 16:50:00', '2024-02-12 15:50:00', '2024-02-12 14:50:00', '2024-02-12 13:50:00', '2024-02-12 12:50:00', '2024-02-12 11:50:00', '2024-02-12 10:50:00', '2024-02-12 09:50:00']"
Turkey, Malatya Erhac Airport (MLX/LTAT) ,"['LTAT 150850Z VRB02KT 9999 SCT035 BKN090 08/04 Q1014 NOSIG', 'LTAT 150820Z VRB01KT 9999 SCT035 BKN090 08/04 Q1014 NOSIG', 'LTAT 150750Z 27003KT 190V360 9999 SCT035 BKN090 07/04 Q1014 NOSIG', 'LTAT 150720Z VRB02KT 9999 SCT021 BKN033 06/04 Q1014 NOSIG', 'LTAT 150650Z VRB01KT 9999 SCT021 BKN033 06/04 Q1014 NOSIG', 'LTAT 150620Z VRB01KT 9999 SCT021 BKN033 05/04 Q1014 NOSIG', 'LTAT 150550Z 00000KT 9999 SCT040 BKN100 05/04 Q1013 NOSIG', 'LTAT 150520Z 23003KT 9999 SCT040 BKN100 03/03 Q1013 NOSIG', 'LTAT 150450Z VRB01KT 9999 SCT040 BKN100 01/01 Q1012 NOSIG', 'LTAT 150420Z 35002KT 9999 SCT040 BKN100 02/02 Q1012 NOSIG', 'LTAT 150350Z VRB01KT 9999 FEW020 BKN035 BKN090 03/03 Q1012 NOSIG', 'LTAT 150320Z 00000KT 9999 FEW020 BKN035 BKN090 03/03 Q1011 NOSIG', 'LTAT 150250Z 00000KT 9999 FEW020 BKN035 BKN090 04/03 Q1011 NOSIG', 'LTAT 150220Z VRB01KT 9999 FEW020 BKN035 BKN090 04/03 Q1011 NOSIG', 'LTAT 150150Z 26002KT 9999 FEW020 BKN035 BKN090 04/03 Q1010 NOSIG', 'LTAT 150120Z 21003KT 180V240 9999 FEW020 BKN035 BKN090 04/03 Q1010 NOSIG', 'LTAT 150050Z VRB02KT 9999 FEW015 BKN033 BKN080 04/03 Q1010 NOSIG', 'LTAT 150020Z 21004KT 9999 FEW015 BKN033 BKN080 04/03 Q1010 NOSIG', 'LTAT 142350Z 21005KT 9999 FEW012 BKN033 BKN080 04/03 Q1010 NOSIG', 'LTAT 142320Z 20006KT 9999 FEW012 BKN033 BKN080 04/03 Q1010 NOSIG', 'LTAT 142250Z 21006KT 9999 FEW009 BKN033 BKN080 04/03 Q1009 NOSIG', 'LTAT 142220Z 21007KT 9999 FEW009 BKN033 BKN080 04/03 Q1010 NOSIG', 'LTAT 142150Z 22009KT 9999 FEW009 BKN033 BKN080 04/03 Q1010 NOSIG', 'LTAT 142120Z 21008KT 9999 FEW009 BKN033 BKN080 04/03 Q1010 RERA NOSIG', 'LTAT 142050Z 19006KT 9999 -RA FEW009 BKN033 BKN080 04/03 Q1010 NOSIG', 'LTAT 142020Z 26005KT 220V320 9999 -RA FEW009 BKN033 BKN080 04/03 Q1010 NOSIG', 'LTAT 141950Z 22005KT 180V260 9999 -SHRA FEW009 BKN033 BKN080 04/03 Q1010 NOSIG', 'LTAT 141920Z 25009KT 7000 -SHRA FEW009 BKN033 BKN080 04/03 Q1010 RESHRA NOSIG', 'LTAT 141850Z 27007KT 7000 SHRA FEW009 BKN033 BKN080 05/04 Q1010 NOSIG', 'LTAT 141820Z 09003KT 7000 SHRA FEW009 BKN033 BKN080 06/04 Q1010 NOSIG', 'LTAT 141750Z 12004KT 080V160 6000 SHRA FEW009 BKN033 BKN080 06/06 Q1010 NOSIG', 'LTAT 141720Z 04008KT 6000 SHRA FEW006 BKN035 BKN090 07/06 Q1010 NOSIG', 'LTAT 141650Z 36007KT 9999 -SHRA FEW015 BKN035 BKN090 07/06 Q1009 NOSIG', 'LTAT 141620Z 36006KT 9999 -SHRA FEW015 BKN035 BKN090 08/06 Q1009 NOSIG', 'LTAT 141550Z 35006KT 9999 -SHRA FEW015 BKN035 BKN090 08/07 Q1009 NOSIG', 'LTAT 141520Z 35007KT 9999 -SHRA FEW015 BKN035 BKN090 08/07 Q1009 NOSIG', 'LTAT 141450Z 34008KT 9999 -SHRA FEW015 BKN035 BKN090 08/07 Q1009 NOSIG', 'LTAT 141420Z 34008KT 9999 -SHRA FEW015 BKN035 BKN090 08/07 Q1009 NOSIG', 'LTAT 141350Z 36006KT 9999 -SHRA FEW015 BKN035 BKN090 07/06 Q1010 NOSIG', 'LTAT 141320Z 03008KT 9999 -SHRA FEW015 BKN035 BKN090 08/06 Q1010 NOSIG', 'LTAT 141250Z 03010KT 9999 -SHRA FEW012 BKN035 BKN090 08/06 Q1009 NOSIG', 'LTAT 141220Z 01009KT 9999 -SHRA FEW012 BKN035 BKN090 08/07 Q1010 NOSIG', 'LTAT 141150Z 35008KT 9999 -SHRA FEW012 BKN035 BKN090 08/07 Q1010 NOSIG', 'LTAT 141120Z 32007KT 9999 -SHRA FEW012 BKN035 BKN090 08/07 Q1010 NOSIG', 'LTAT 141050Z 33007KT 8000 -SHRA FEW012 BKN035 BKN090 07/06 Q1010 NOSIG', 'LTAT 141020Z 35006KT 9999 -SHRA FEW012 BKN035 BKN090 07/06 Q1011 NOSIG', 'LTAT 140950Z 02008KT 9999 -SHRA FEW007 BKN035 BKN090 07/06 Q1011 NOSIG', 'LTAT 140920Z 02009KT 9999 -SHRA FEW007 BKN035 BKN090 07/07 Q1011 NOSIG', 'LTAT 140850Z 03007KT 9999 -SHRA FEW027CB BKN035 BKN090 07/07 Q1012 NOSIG', 'LTAT 140820Z 03004KT 9999 -SHRA FEW027CB BKN035 BKN090 07/06 Q1012 NOSIG', 'LTAT 140750Z 05005KT 9999 -SHRA FEW027CB BKN035 BKN090 07/07 Q1012 NOSIG', 'LTAT 140720Z 07006KT 9999 FEW027CB BKN033 BKN090 07/06 Q1012 NOSIG', 'LTAT 140650Z 05003KT 020V080 9999 FEW027CB BKN033 BKN090 07/06 Q1012 NOSIG', 'LTAT 140620Z 31005KT 280V350 9999 FEW027CB BKN033 BKN090 07/05 Q1012 RESHRA NOSIG', 'LTAT 140550Z 24006KT 220V290 9999 -SHRA FEW027CB BKN033 BKN090 06/05 Q1012 NOSIG', 'LTAT 140520Z 21015KT 6000 TSRA FEW015 FEW027CB BKN033 BKN090 06/06 Q1013 NOSIG', 'LTAT 140450Z 21013KT 7000 -SHRA FEW015 BKN033 BKN090 06/06 Q1012 NOSIG', 'LTAT 140420Z 21010KT 4500 -SHRA BR FEW008 BKN033 BKN090 07/07 Q1011 NOSIG', 'LTAT 140350Z 29006KT 4500 -SHRA BR FEW017 BKN033 BKN090 08/07 Q1011 NOSIG', 'LTAT 140320Z 32009KT 7000 -SHRA FEW017 BKN033 BKN090 08/07 Q1011 NOSIG', 'LTAT 140250Z 34007KT 290V010 9999 -SHRA BKN033 BKN090 08/07 Q1011 NOSIG', 'LTAT 140220Z 26005KT 210V280 9999 -SHRA BKN033 BKN090 08/06 Q1011 NOSIG', 'LTAT 140150Z 06006KT 020V100 9999 -SHRA BKN033 BKN090 09/06 Q1011 NOSIG', 'LTAT 140120Z 33008KT 9999 BKN033 BKN090 08/06 Q1011 RESHRA NOSIG', 'LTAT 140050Z 33007KT 9999 -SHRA BKN033 BKN090 08/06 Q1011 NOSIG', 'LTAT 140020Z 33008KT 9999 -SHRA BKN033 BKN090 08/06 Q1012 NOSIG', 'LTAT 132350Z 36006KT 9999 -SHRA BKN033 BKN090 08/06 Q1012 NOSIG', 'LTAT 132320Z 34008KT 9999 -SHRA BKN033 BKN090 09/06 Q1012 NOSIG', 'LTAT 132250Z 36009KT 9999 BKN035 BKN090 09/06 Q1013 NOSIG', 'LTAT 132220Z 33007KT 9999 BKN035 BKN090 09/06 Q1013 RESHRA NOSIG', 'LTAT 132150Z 35008KT 9999 -SHRA BKN035 BKN090 09/06 Q1013 NOSIG', 'LTAT 132120Z 34006KT 9999 BKN035 BKN090 09/06 Q1014 NOSIG', 'LTAT 132050Z 01006KT 9999 SCT040 BKN100 08/06 Q1014 NOSIG', 'LTAT 132020Z 32006KT 9999 SCT040 BKN100 09/06 Q1014 NOSIG', 'LTAT 131950Z 32006KT 9999 SCT040 BKN100 09/05 Q1015 NOSIG', 'LTAT 131920Z 36006KT 9999 SCT040 BKN100 09/06 Q1015 NOSIG', 'LTAT 131850Z 34006KT 9999 SCT040 BKN100 10/05 Q1015 NOSIG', 'LTAT 131820Z 36005KT 340V040 9999 SCT040 BKN100 10/05 Q1015 NOSIG', 'LTAT 131750Z 28003KT 190V340 9999 SCT040 BKN100 09/05 Q1015 NOSIG', 'LTAT 131720Z 21006KT 9999 SCT040 BKN100 09/06 Q1015 NOSIG', 'LTAT 131650Z 32003KT 9999 SCT040 BKN100 10/05 Q1015 NOSIG', 'LTAT 131620Z 35003KT 300V040 9999 SCT040 BKN100 10/06 Q1015 NOSIG', 'LTAT 131550Z 33003KT 310V030 9999 SCT040 BKN100 10/05 Q1015 NOSIG', 'LTAT 131520Z 36004KT 9999 SCT040 BKN100 10/06 Q1015 NOSIG', 'LTAT 131450Z 34004KT 9999 SCT040 BKN100 11/06 Q1015 NOSIG', 'LTAT 131420Z VRB02KT 9999 SCT040 BKN100 11/06 Q1015 NOSIG', 'LTAT 131350Z 35005KT 9999 SCT040 BKN100 12/06 Q1015 NOSIG', 'LTAT 131320Z 32005KT 9999 SCT040 BKN100 12/06 Q1015 NOSIG', 'LTAT 131250Z 35004KT 9999 SCT040 BKN100 11/06 Q1015 RESHRA NOSIG', 'LTAT 131220Z 33004KT 300V360 9999 -SHRA SCT040 BKN100 11/05 Q1015 NOSIG', 'LTAT 131150Z 32004KT 290V350 9999 SCT040 BKN100 11/06 Q1016 NOSIG', 'LTAT 131120Z 01004KT 9999 SCT040 BKN100 11/05 Q1016 NOSIG', 'LTAT 131050Z 01005KT 9999 SCT040 BKN100 11/06 Q1016 NOSIG', 'LTAT 131020Z 02006KT 9999 SCT040 BKN100 11/06 Q1016 NOSIG', 'LTAT 130950Z 01006KT 9999 SCT040 BKN100 11/05 Q1017 NOSIG', 'LTAT 130920Z 36006KT 320V040 9999 SCT040 BKN100 11/05 Q1017 NOSIG', 'LTAT 130850Z 36003KT 9999 SCT040 BKN100 10/05 Q1018 RESHRA NOSIG', 'LTAT 130820Z VRB02KT 9999 SCT040 BKN100 09/05 Q1018 NOSIG', 'LTAT 130750Z VRB02KT 9999 SCT040 BKN100 09/05 Q1018 NOSIG', 'LTAT 130720Z 04004KT 010V070 9999 SCT040 BKN100 09/05 Q1018 NOSIG', 'LTAT 130650Z VRB02KT 9999 SCT040 BKN100 08/05 Q1019 NOSIG', 'LTAT 130620Z 34003KT 310V010 9999 SCT040 BKN100 08/05 Q1019 NOSIG', 'LTAT 130550Z 26003KT 9999 SCT040 BKN100 07/05 Q1019 NOSIG', 'LTAT 130520Z 22003KT 170V230 9999 SCT040 BKN100 06/05 Q1019 NOSIG', 'LTAT 130450Z 22004KT 9999 SCT040 BKN100 05/04 Q1018 NOSIG', 'LTAT 130420Z VRB02KT 9999 SCT040 BKN100 05/03 Q1018 NOSIG', 'LTAT 130350Z 23004KT 9999 SCT040 BKN100 05/03 Q1018 NOSIG', 'LTAT 130320Z 23004KT 9999 SCT040 BKN100 05/04 Q1018 NOSIG', 'LTAT 130250Z 24005KT 9999 FEW040 BKN100 05/03 Q1019 NOSIG', 'LTAT 130220Z VRB02KT 9999 FEW040 BKN100 04/03 Q1018 NOSIG', 'LTAT 130150Z 22004KT 9999 FEW040 BKN100 04/03 Q1019 NOSIG', 'LTAT 130120Z 22004KT 9999 FEW040 BKN100 04/03 Q1019 NOSIG', 'LTAT 130050Z 22006KT 9999 FEW040 BKN100 04/03 Q1019 NOSIG', 'LTAT 130020Z 21003KT 9999 FEW040 BKN100 05/04 Q1019 NOSIG', 'LTAT 122350Z 24004KT 9999 FEW040 BKN100 04/03 Q1019 NOSIG', 'LTAT 122320Z 20003KT 9999 FEW040 BKN100 04/03 Q1020 NOSIG', 'LTAT 122250Z VRB02KT 9999 FEW040 BKN100 04/03 Q1020 NOSIG', 'LTAT 122220Z 21004KT 9999 FEW040 BKN100 04/02 Q1020 NOSIG', 'LTAT 122150Z 23003KT 9999 FEW040 BKN100 04/03 Q1020 NOSIG', 'LTAT 122120Z VRB02KT 9999 FEW040 BKN100 04/02 Q1020 NOSIG', 'LTAT 122050Z 19003KT 150V250 9999 FEW040 SCT100 04/03 Q1020 NOSIG', 'LTAT 122020Z 23005KT 190V250 9999 FEW040 BKN100 04/03 Q1020 NOSIG', 'LTAT 121950Z VRB02KT 9999 FEW040 SCT100 05/03 Q1021 NOSIG', 'LTAT 121920Z VRB02KT 9999 FEW040 SCT100 05/03 Q1021 NOSIG', 'LTAT 121850Z VRB02KT 9999 FEW040 SCT100 05/03 Q1021 NOSIG', 'LTAT 121820Z 22003KT 9999 FEW040 SCT100 05/02 Q1021 NOSIG', 'LTAT 121750Z 22007KT 9999 FEW040 SCT100 05/03 Q1020 NOSIG', 'LTAT 121720Z 21003KT 9999 FEW040 SCT100 05/03 Q1020 NOSIG', 'LTAT 121650Z 22005KT 9999 FEW040 BKN100 05/03 Q1021 NOSIG', 'LTAT 121620Z 21004KT 9999 FEW040 SCT100 BKN200 06/03 Q1021 NOSIG', 'LTAT 121550Z 25004KT 9999 FEW040 SCT100 BKN200 07/04 Q1020 NOSIG', 'LTAT 121520Z 24004KT 9999 FEW040 SCT100 BKN200 09/04 Q1020 NOSIG', 'LTAT 121450Z VRB02KT 9999 FEW040 BKN200 11/05 Q1020 NOSIG', 'LTAT 121420Z 34003KT 9999 FEW040 BKN180 12/04 Q1020 NOSIG', 'LTAT 121350Z 02003KT 340V050 9999 FEW040 BKN180 12/04 Q1021 NOSIG', 'LTAT 121320Z 03004KT 9999 FEW040 BKN180 12/04 Q1021 NOSIG', 'LTAT 121250Z 05004KT 360V110 9999 FEW040 BKN180 12/04 Q1021 NOSIG', 'LTAT 121220Z 04003KT 350V090 9999 FEW040 BKN180 12/04 Q1021 NOSIG', 'LTAT 121150Z 08005KT 020V110 9999 FEW040 BKN200 12/04 Q1021 NOSIG', 'LTAT 121120Z 03003KT 290V080 9999 FEW040 BKN200 12/05 Q1022 NOSIG', 'LTAT 121050Z VRB03KT 9999 FEW020 BKN200 12/05 Q1022 NOSIG', 'LTAT 121020Z VRB03KT 9999 FEW020 BKN200 11/05 Q1023 NOSIG', 'LTAT 120950Z 03004KT 320V060 9999 FEW022 BKN180 11/05 Q1023 NOSIG']","['2024-02-15 08:50:00', '2024-02-15 08:20:00', '2024-02-15 07:50:00', '2024-02-15 07:20:00', '2024-02-15 06:50:00', '2024-02-15 06:20:00', '2024-02-15 05:50:00', '2024-02-15 05:20:00', '2024-02-15 04:50:00', '2024-02-15 04:20:00', '2024-02-15 03:50:00', '2024-02-15 03:20:00', '2024-02-15 02:50:00', '2024-02-15 02:20:00', '2024-02-15 01:50:00', '2024-02-15 01:20:00', '2024-02-15 00:50:00', '2024-02-15 00:20:00', '2024-02-14 23:50:00', '2024-02-14 23:20:00', '2024-02-14 22:50:00', '2024-02-14 22:20:00', '2024-02-14 21:50:00', '2024-02-14 21:20:00', '2024-02-14 20:50:00', '2024-02-14 20:20:00', '2024-02-14 19:50:00', '2024-02-14 19:20:00', '2024-02-14 18:50:00', '2024-02-14 18:20:00', '2024-02-14 17:50:00', '2024-02-14 17:20:00', '2024-02-14 16:50:00', '2024-02-14 16:20:00', '2024-02-14 15:50:00', '2024-02-14 15:20:00', '2024-02-14 14:50:00', '2024-02-14 14:20:00', '2024-02-14 13:50:00', '2024-02-14 13:20:00', '2024-02-14 12:50:00', '2024-02-14 12:20:00', '2024-02-14 11:50:00', '2024-02-14 11:20:00', '2024-02-14 10:50:00', '2024-02-14 10:20:00', '2024-02-14 09:50:00', '2024-02-14 09:20:00', '2024-02-14 08:50:00', '2024-02-14 08:20:00', '2024-02-14 07:50:00', '2024-02-14 07:20:00', '2024-02-14 06:50:00', '2024-02-14 06:20:00', '2024-02-14 05:50:00', '2024-02-14 05:20:00', '2024-02-14 04:50:00', '2024-02-14 04:20:00', '2024-02-14 03:50:00', '2024-02-14 03:20:00', '2024-02-14 02:50:00', '2024-02-14 02:20:00', '2024-02-14 01:50:00', '2024-02-14 01:20:00', '2024-02-14 00:50:00', '2024-02-14 00:20:00', '2024-02-13 23:50:00', '2024-02-13 23:20:00', '2024-02-13 22:50:00', '2024-02-13 22:20:00', '2024-02-13 21:50:00', '2024-02-13 21:20:00', '2024-02-13 20:50:00', '2024-02-13 20:20:00', '2024-02-13 19:50:00', '2024-02-13 19:20:00', '2024-02-13 18:50:00', '2024-02-13 18:20:00', '2024-02-13 17:50:00', '2024-02-13 17:20:00', '2024-02-13 16:50:00', '2024-02-13 16:20:00', '2024-02-13 15:50:00', '2024-02-13 15:20:00', '2024-02-13 14:50:00', '2024-02-13 14:20:00', '2024-02-13 13:50:00', '2024-02-13 13:20:00', '2024-02-13 12:50:00', '2024-02-13 12:20:00', '2024-02-13 11:50:00', '2024-02-13 11:20:00', '2024-02-13 10:50:00', '2024-02-13 10:20:00', '2024-02-13 09:50:00', '2024-02-13 09:20:00', '2024-02-13 08:50:00', '2024-02-13 08:20:00', '2024-02-13 07:50:00', '2024-02-13 07:20:00', '2024-02-13 06:50:00', '2024-02-13 06:20:00', '2024-02-13 05:50:00', '2024-02-13 05:20:00', '2024-02-13 04:50:00', '2024-02-13 04:20:00', '2024-02-13 03:50:00', '2024-02-13 03:20:00', '2024-02-13 02:50:00', '2024-02-13 02:20:00', '2024-02-13 01:50:00', '2024-02-13 01:20:00', '2024-02-13 00:50:00', '2024-02-13 00:20:00', '2024-02-12 23:50:00', '2024-02-12 23:20:00', '2024-02-12 22:50:00', '2024-02-12 22:20:00', '2024-02-12 21:50:00', '2024-02-12 21:20:00', '2024-02-12 20:50:00', '2024-02-12 20:20:00', '2024-02-12 19:50:00', '2024-02-12 19:20:00', '2024-02-12 18:50:00', '2024-02-12 18:20:00', '2024-02-12 17:50:00', '2024-02-12 17:20:00', '2024-02-12 16:50:00', '2024-02-12 16:20:00', '2024-02-12 15:50:00', '2024-02-12 15:20:00', '2024-02-12 14:50:00', '2024-02-12 14:20:00', '2024-02-12 13:50:00', '2024-02-12 13:20:00', '2024-02-12 12:50:00', '2024-02-12 12:20:00', '2024-02-12 11:50:00', '2024-02-12 11:20:00', '2024-02-12 10:50:00', '2024-02-12 10:20:00', '2024-02-12 09:50:00']"
Turkey, Mardin Airport (MQM/LTCR) ,"['LTCR 150850Z 12007KT 9000 SCT040 BKN100 13/10 Q1015', 'LTCR 150750Z 12008KT 9000 SCT040 BKN100 13/09 Q1015', 'LTCR 150650Z 12008KT 6000 FEW010 BKN040 11/11 Q1015', 'LTCR 150550Z 11004KT 1900 BR SCT006 BKN030 10/10 Q1014', 'LTCR 150450Z VRB02KT 2000 BR FEW002 SCT040 BKN100 10/10 Q1014', 'LTCR 150350Z 13005KT 7000 FEW013 SCT040 BKN100 10/10 Q1013', 'LTCR 150250Z 14003KT 9999 FEW013 SCT040 BKN100 10/09 Q1012', 'LTCR 150150Z 14005KT 9999 FEW011 SCT040 BKN100 10/09 Q1012', 'LTCR 141450Z 10021KT 7000 -SHRA SCT010 BKN035 BKN100 12/11 Q1010 RESHRA', 'LTCR 141350Z 10023KT 4000 -SHRA BR SCT010 BKN035 BKN100 12/11 Q1009', 'LTCR 141250Z 11020KT 9000 SCT010 BKN035 BKN100 13/11 Q1010', 'LTCR 141150Z 10022KT 8000 SCT012 BKN035 BKN100 13/11 Q1010 RESHRA', 'LTCR 141050Z 11018KT 9999 SCT012 BKN035 BKN100 14/11 Q1010', 'LTCR 140950Z 10020KT 9999 SCT012 BKN035 BKN100 14/11 Q1011', 'LTCR 140850Z 10017KT 8000 SCT040 BKN100 13/10 Q1012 RESHRA', 'LTCR 140750Z 10020KT 8000 -SHRA BKN040 BKN100 13/10 Q1012', 'LTCR 140650Z 10021KT 9999 SCT040 BKN100 13/08 Q1012', 'LTCR 140550Z 10017KT 9999 SCT035 BKN090 13/08 Q1012', 'LTCR 140450Z 09016KT 9999 SCT035 BKN090 12/07 Q1012 RESHRA', 'LTCR 140350Z 10014KT 9999 SCT035 BKN090 13/07 Q1013', 'LTCR 140250Z 10013KT 9999 SCT033 BKN100 13/07 Q1013', 'LTCR 140150Z 08008KT 9999 SCT033 BKN100 12/08 Q1013', 'LTCR 140050Z 09010KT 9999 SCT033 BKN100 13/08 Q1013', 'LTCR 131450Z 06006KT 9999 FEW040 SCT100 BKN180 13/10 Q1016', 'LTCR 131350Z 07004KT 9999 FEW040 SCT100 BKN180 15/09 Q1016', 'LTCR 131250Z 10008KT CAVOK 16/09 Q1016', 'LTCR 131150Z 11008KT CAVOK 17/08 Q1017', 'LTCR 131050Z 11006KT CAVOK 16/08 Q1017', 'LTCR 130950Z 10007KT CAVOK 16/07 Q1018', 'LTCR 130850Z 11006KT CAVOK 15/07 Q1019', 'LTCR 130750Z 08004KT CAVOK 15/08 Q1019', 'LTCR 130650Z 06004KT CAVOK 14/08 Q1019', 'LTCR 130550Z 06005KT CAVOK 12/09 Q1019', 'LTCR 130450Z 03005KT CAVOK 11/06 Q1019', 'LTCR 130350Z 00000KT CAVOK 06/05 Q1019', 'LTCR 130250Z 03002KT CAVOK 08/06 Q1019', 'LTCR 130150Z 06004KT CAVOK 07/06 Q1019', 'LTCR 121450Z 00000KT CAVOK 16/06 Q1020', 'LTCR 121350Z 15003KT CAVOK 18/05 Q1020', 'LTCR 121250Z VRB02KT 9999 FEW040 SCT100 19/04 Q1021', 'LTCR 121150Z VRB01KT 9999 FEW040 SCT100 19/05 Q1021', 'LTCR 121050Z VRB02KT 9999 FEW040 SCT100 19/04 Q1022', 'LTCR 120950Z VRB02KT CAVOK 19/07 Q1022']","['2024-02-15 08:50:00', '2024-02-15 07:50:00', '2024-02-15 06:50:00', '2024-02-15 05:50:00', '2024-02-15 04:50:00', '2024-02-15 03:50:00', '2024-02-15 02:50:00', '2024-02-15 01:50:00', '2024-02-14 14:50:00', '2024-02-14 13:50:00', '2024-02-14 12:50:00', '2024-02-14 11:50:00', '2024-02-14 10:50:00', '2024-02-14 09:50:00', '2024-02-14 08:50:00', '2024-02-14 07:50:00', '2024-02-14 06:50:00', '2024-02-14 05:50:00', '2024-02-14 04:50:00', '2024-02-14 03:50:00', '2024-02-14 02:50:00', '2024-02-14 01:50:00', '2024-02-14 00:50:00', '2024-02-13 14:50:00', '2024-02-13 13:50:00', '2024-02-13 12:50:00', '2024-02-13 11:50:00', '2024-02-13 10:50:00', '2024-02-13 09:50:00', '2024-02-13 08:50:00', '2024-02-13 07:50:00', '2024-02-13 06:50:00', '2024-02-13 05:50:00', '2024-02-13 04:50:00', '2024-02-13 03:50:00', '2024-02-13 02:50:00', '2024-02-13 01:50:00', '2024-02-12 14:50:00', '2024-02-12 13:50:00', '2024-02-12 12:50:00', '2024-02-12 11:50:00', '2024-02-12 10:50:00', '2024-02-12 09:50:00']"
Turkey, Merzifon Airport (MZH/LTAP) ,"['LTAP 150850Z VRB02KT 9999 -RA FEW005 BKN032 BKN070 09/07 Q1010 NOSIG', 'LTAP 150820Z 00000KT 9000 -RA FEW005 BKN032 BKN070 08/07 Q1010 NOSIG', 'LTAP 150750Z 00000KT 9000 -RA FEW004 BKN032 BKN070 08/07 Q1010 NOSIG', 'LTAP 150720Z 00000KT 8000 -RA FEW015 BKN032 BKN070 07/07 Q1010 NOSIG', 'LTAP 150650Z 00000KT 7000 -RA FEW002 BKN026 BKN070 07/07 Q1010 NOSIG', 'LTAP 150620Z 23001KT 9999 -RA FEW004 BKN026 BKN080 07/06 Q1010 NOSIG', 'LTAP 150550Z 00000KT 9999 -RA FEW019 BKN026 BKN080 07/06 Q1010 NOSIG', 'LTAP 150520Z 00000KT 7000 -RA FEW019 BKN026 BKN080 07/06 Q1010 NOSIG', 'LTAP 150450Z 00000KT 9999 -RA BKN026 BKN080 07/06 Q1009 NOSIG', 'LTAP 150420Z 25001KT 9999 -RA BKN040 BKN080 07/06 Q1009 NOSIG', 'LTAP 150350Z 25003KT 9999 -RA BKN040 BKN080 07/06 Q1009 NOSIG', 'LTAP 150320Z 26005KT 9999 -RA BKN040 BKN080 07/06 Q1009 NOSIG', 'LTAP 150250Z 26005KT 9999 -RA BKN040 BKN080 07/06 Q1008 NOSIG', 'LTAP 150220Z 27004KT 9999 -RA BKN040 BKN080 07/06 Q1008 NOSIG', 'LTAP 150050Z 27005KT 9999 -RA BKN040 BKN080 08/05 Q1008 NOSIG', 'LTAP 150020Z 28005KT 9999 BKN040 BKN080 08/05 Q1008 NOSIG', 'LTAP 142350Z 28004KT 9999 BKN040 BKN080 07/05 Q1008 NOSIG', 'LTAP 142320Z VRB01KT 9999 BKN040 BKN090 07/05 Q1008 NOSIG', 'LTAP 142250Z VRB02KT 9999 BKN040 BKN090 07/04 Q1008 NOSIG', 'LTAP 142220Z VRB02KT 9999 SCT040 BKN090 08/05 Q1008 NOSIG', 'LTAP 142150Z 04008KT 9999 SCT040 BKN080 08/04 Q1008 NOSIG', 'LTAP 142120Z 03007KT 9999 BKN040 BKN080 09/04 Q1008 NOSIG', 'LTAP 142050Z 04009KT 9999 BKN040 BKN080 08/04 Q1008 NOSIG', 'LTAP 142020Z 03013KT 9999 BKN040 BKN080 09/04 Q1008 NOSIG', 'LTAP 141950Z 04015KT 9999 SCT040 BKN080 09/05 Q1008 NOSIG', 'LTAP 141920Z 03016KT 9999 SCT040 BKN080 09/05 Q1008 NOSIG', 'LTAP 141850Z 03016KT 9999 SCT040 BKN080 09/05 Q1008 NOSIG', 'LTAP 141820Z 02016KT 9999 SCT040 BKN080 09/05 Q1008 NOSIG', 'LTAP 141750Z 03016KT 9999 SCT040 BKN080 09/05 Q1008 NOSIG', 'LTAP 141720Z 03019KT 9999 SCT040 BKN080 09/05 Q1008 NOSIG', 'LTAP 141650Z 03019KT 9999 SCT040 BKN080 10/05 Q1008 NOSIG', 'LTAP 141620Z 03021KT 9999 SCT040 BKN080 10/05 Q1008 NOSIG', 'LTAP 141550Z 03017KT 9999 SCT040 BKN080 10/05 Q1007 NOSIG', 'LTAP 141520Z 03018KT 9999 SCT040 BKN080 11/06 Q1007 NOSIG', 'LTAP 141450Z 02018KT 9999 SCT040 BKN080 12/06 Q1007 NOSIG', 'LTAP 141420Z 03021KT 9999 SCT040 BKN080 12/06 Q1007 NOSIG', 'LTAP 141350Z 03016KT 9999 SCT040 BKN080 14/07 Q1006 NOSIG', 'LTAP 141320Z 02016KT 9999 FEW040 14/06 Q1006 NOSIG', 'LTAP 141250Z 03016KT 9999 FEW040 14/07 Q1006 NOSIG', 'LTAP 141220Z 03014KT 9999 SCT040 15/07 Q1006 NOSIG', 'LTAP 141150Z 04011KT 9999 FEW040 15/07 Q1006 NOSIG', 'LTAP 141120Z 04008KT 010V070 9999 FEW040 SCT180 15/07 Q1006 NOSIG', 'LTAP 141050Z 05007KT 010V080 9999 SCT035 SCT090 14/07 Q1007 NOSIG', 'LTAP 141020Z 03009KT 350V080 9999 SCT035 SCT090 14/07 Q1007 NOSIG', 'LTAP 140950Z 04008KT 010V080 9999 SCT035 SCT090 14/07 Q1007 NOSIG', 'LTAP 140920Z 04012KT 9999 SCT035 BKN090 14/08 Q1008 NOSIG', 'LTAP 140850Z 08006KT 020V140 9999 SCT035 BKN090 13/09 Q1008 NOSIG', 'LTAP 140820Z VRB02KT 9999 BKN035 BKN090 10/08 Q1008 NOSIG', 'LTAP 140750Z VRB01KT 9999 BKN035 BKN090 09/08 Q1008 NOSIG', 'LTAP 140720Z VRB01KT 9999 BKN035 BKN090 10/08 Q1008 NOSIG', 'LTAP 140650Z 01004KT 9999 -SHRA BKN035 BKN090 10/08 Q1009 NOSIG', 'LTAP 140620Z 35005KT 9999 SHRA BKN035 BKN090 09/07 Q1009 NOSIG', 'LTAP 140550Z VRB01KT 9999 -SHRA BKN035 BKN090 09/06 Q1009 NOSIG', 'LTAP 140520Z 00000KT 9999 -SHRA BKN035 BKN090 08/06 Q1009 NOSIG', 'LTAP 140450Z 10004KT 070V130 9999 SCT040 BKN100 08/06 Q1009 NOSIG', 'LTAP 140420Z 00000KT 9999 SCT040 BKN100 08/06 Q1008 NOSIG', 'LTAP 140350Z 28004KT 9999 SCT040 BKN100 08/06 Q1008 NOSIG', 'LTAP 140320Z 34001KT 9999 SCT040 BKN100 08/06 Q1008 NOSIG', 'LTAP 140250Z 00000KT 9999 SCT040 BKN100 08/06 Q1008 NOSIG', 'LTAP 140220Z 30003KT 9999 SCT040 BKN100 08/06 Q1008 NOSIG', 'LTAP 140150Z 26002KT 9999 SCT040 BKN100 08/06 Q1009 NOSIG', 'LTAP 140120Z 25001KT 9999 SCT040 BKN100 08/06 Q1009 NOSIG', 'LTAP 140050Z 00000KT 9999 SCT040 BKN100 09/06 Q1009 NOSIG', 'LTAP 140020Z VRB01KT 9999 SCT040 BKN100 09/07 Q1009 NOSIG', 'LTAP 132350Z 00000KT 9999 SCT040 BKN100 09/06 Q1009 NOSIG', 'LTAP 132320Z 00000KT 9999 SCT040 BKN100 09/06 Q1009 NOSIG', 'LTAP 132250Z VRB02KT 9999 SCT040 BKN100 09/06 Q1009 NOSIG', 'LTAP 132220Z 04004KT 9999 SCT040 BKN100 08/06 Q1009 NOSIG', 'LTAP 132150Z 31003KT 9999 SCT040 BKN100 10/07 Q1009 NOSIG', 'LTAP 132120Z 27008KT 9999 SCT040 BKN100 09/06 Q1009 NOSIG', 'LTAP 132050Z 32001KT 9999 SCT040 BKN100 09/07 Q1009 NOSIG', 'LTAP 132020Z 35002KT 9999 SCT040 BKN100 09/06 Q1009 NOSIG', 'LTAP 131950Z 33006KT 9999 SCT040 BKN100 08/06 Q1009 NOSIG', 'LTAP 131920Z 33004KT 9999 SCT040 BKN100 08/06 Q1009 NOSIG', 'LTAP 131850Z VRB01KT 9999 SCT040 BKN100 08/06 Q1009 NOSIG', 'LTAP 131820Z 24005KT 9999 SCT040 BKN100 09/07 Q1009 NOSIG', 'LTAP 131750Z 00000KT 9999 SCT040 BKN100 10/07 Q1009 NOSIG', 'LTAP 131720Z 29006KT 9999 SCT040 BKN100 11/07 Q1009 NOSIG', 'LTAP 131650Z 30011KT 9999 SCT040 BKN100 12/07 Q1009 RESHRA NOSIG', 'LTAP 131620Z 27011KT 220V290 9999 -SHRA BKN037 BKN100 13/06 Q1009 NOSIG', 'LTAP 131550Z 00000KT 9999 SCT040 BKN100 13/05 Q1008 NOSIG', 'LTAP 131520Z 05004KT 9999 SCT040 BKN100 13/05 Q1008 NOSIG', 'LTAP 131450Z VRB02KT 9999 SCT040 BKN100 14/04 Q1008 NOSIG', 'LTAP 131420Z 32006KT 9999 SCT040 BKN100 15/05 Q1008 NOSIG', 'LTAP 131350Z 36006KT 9999 SCT040 BKN100 15/05 Q1008 NOSIG', 'LTAP 131320Z 35005KT 9999 SCT040 BKN100 16/05 Q1008 NOSIG', 'LTAP 131250Z 25010KT 230V290 9999 SCT040 BKN100 15/05 Q1009 NOSIG', 'LTAP 131220Z VRB02KT 9999 SCT040 BKN100 18/01 Q1008 BECMG TL1320 20015KT', 'LTAP 131150Z VRB02KT 9999 SCT040 BKN100 18/01 Q1008 BECMG TL1220 20015KT', 'LTAP 131120Z 00000KT 9999 SCT040 BKN100 18/01 Q1008 BECMG TL1220 20015KT', 'LTAP 131050Z VRB02KT 9999 SCT040 BKN100 19/02 Q1009 BECMG TL1150 20015KT', 'LTAP 131020Z 03004KT 340V090 9999 SCT040 BKN100 18/02 Q1009 BECMG TL1100 20015KT', 'LTAP 130950Z 06003KT 020V090 9999 SCT040 BKN100 17/01 Q1010 BECMG TL1100 20015KT', 'LTAP 130920Z 35003KT 260V050 9999 SCT040 BKN100 17/01 Q1010 BECMG TL1100 20015KT', 'LTAP 130850Z 36003KT 320V050 9999 FEW040 BKN100 16/01 Q1010 NOSIG', 'LTAP 130820Z VRB01KT 9999 FEW040 BKN100 15/01 Q1010 NOSIG', 'LTAP 130750Z VRB02KT 9999 FEW040 BKN100 14/01 Q1011 NOSIG', 'LTAP 130720Z 24003KT 200V290 9999 FEW040 BKN100 13/03 Q1011 NOSIG', 'LTAP 130650Z 27006KT 9999 FEW040 BKN100 12/02 Q1011 NOSIG', 'LTAP 130620Z 31003KT 250V330 9999 FEW040 BKN100 09/03 Q1011 NOSIG', 'LTAP 130550Z 00000KT 9999 FEW040 BKN100 07/03 Q1011 NOSIG', 'LTAP 130520Z 30002KT 9999 FEW040 BKN100 07/02 Q1011 NOSIG', 'LTAP 130450Z 29001KT 9999 FEW040 BKN100 06/02 Q1011 NOSIG', 'LTAP 130420Z VRB01KT 9999 FEW040 BKN100 08/02 Q1011 NOSIG', 'LTAP 130350Z 28003KT 250V310 9999 FEW040 BKN100 07/03 Q1011 NOSIG', 'LTAP 130320Z 00000KT 9999 FEW040 BKN100 09/02 Q1011 NOSIG', 'LTAP 130250Z 29004KT 9999 FEW040 BKN100 09/02 Q1012 NOSIG', 'LTAP 130220Z 29007KT 9999 FEW040 BKN100 08/02 Q1012 NOSIG', 'LTAP 130150Z 29004KT 9999 FEW040 BKN100 09/02 Q1012 NOSIG', 'LTAP 130120Z 28003KT 190V330 9999 FEW040 BKN100 10/02 Q1012 NOSIG', 'LTAP 130050Z 26003KT 230V300 9999 FEW040 BKN100 10/01 Q1012 NOSIG', 'LTAP 130020Z 27005KT 9999 FEW040 BKN100 10/01 Q1012 NOSIG', 'LTAP 122350Z 16007KT 130V220 9999 FEW040 BKN100 13/02 Q1012 NOSIG', 'LTAP 122320Z VRB02KT 9999 FEW040 BKN100 13/01 Q1012 NOSIG', 'LTAP 122250Z 33006KT 9999 FEW040 BKN100 11/01 Q1013 NOSIG', 'LTAP 122220Z 15007KT 9999 FEW040 BKN100 12/01 Q1013 NOSIG', 'LTAP 122150Z VRB01KT 9999 FEW040 BKN100 09/01 Q1012 NOSIG', 'LTAP 122120Z VRB01KT 9999 FEW040 BKN100 09/01 Q1013 NOSIG', 'LTAP 122050Z VRB04KT 9999 FEW040 BKN100 09/01 Q1013 NOSIG', 'LTAP 122020Z 00000KT 9999 FEW040 BKN100 11/01 Q1013 NOSIG', 'LTAP 121950Z 00000KT 9999 FEW040 BKN100 10/01 Q1013 NOSIG', 'LTAP 121920Z 35003KT 9999 FEW040 BKN100 11/00 Q1013 NOSIG', 'LTAP 121850Z 33007KT 9999 FEW040 BKN100 10/01 Q1013 NOSIG', 'LTAP 121820Z 04003KT CAVOK 10/00 Q1013 NOSIG', 'LTAP 121750Z 31002KT CAVOK 12/M00 Q1013 NOSIG', 'LTAP 121720Z 27010KT CAVOK 12/00 Q1013 NOSIG', 'LTAP 121650Z 27008KT CAVOK 12/00 Q1013 NOSIG', 'LTAP 121620Z 27004KT CAVOK 11/M00 Q1013 NOSIG', 'LTAP 121550Z 27006KT CAVOK 12/M01 Q1013 NOSIG', 'LTAP 121520Z 28003KT CAVOK 13/00 Q1013 NOSIG', 'LTAP 121450Z 22003KT CAVOK 16/00 Q1013 NOSIG', 'LTAP 121420Z 24003KT CAVOK 18/01 Q1013 NOSIG', 'LTAP 121350Z 19007KT 150V220 CAVOK 19/M01 Q1013 NOSIG', 'LTAP 121320Z 15012KT CAVOK 19/M01 Q1012 NOSIG', 'LTAP 121250Z 14010KT CAVOK 18/00 Q1013 NOSIG', 'LTAP 121220Z 13009KT CAVOK 18/M00 Q1013 NOSIG', 'LTAP 121150Z 12009KT 090V160 CAVOK 18/01 Q1014 NOSIG', 'LTAP 121120Z 12007KT CAVOK 17/M00 Q1014 NOSIG', 'LTAP 121050Z VRB03KT CAVOK 18/01 Q1015 NOSIG', 'LTAP 121020Z 16005KT 130V200 CAVOK 17/00 Q1015 NOSIG', 'LTAP 120950Z 16007KT 130V190 CAVOK 16/00 Q1016 NOSIG']","['2024-02-15 08:50:00', '2024-02-15 08:20:00', '2024-02-15 07:50:00', '2024-02-15 07:20:00', '2024-02-15 06:50:00', '2024-02-15 06:20:00', '2024-02-15 05:50:00', '2024-02-15 05:20:00', '2024-02-15 04:50:00', '2024-02-15 04:20:00', '2024-02-15 03:50:00', '2024-02-15 03:20:00', '2024-02-15 02:50:00', '2024-02-15 02:20:00', '2024-02-15 00:50:00', '2024-02-15 00:20:00', '2024-02-14 23:50:00', '2024-02-14 23:20:00', '2024-02-14 22:50:00', '2024-02-14 22:20:00', '2024-02-14 21:50:00', '2024-02-14 21:20:00', '2024-02-14 20:50:00', '2024-02-14 20:20:00', '2024-02-14 19:50:00', '2024-02-14 19:20:00', '2024-02-14 18:50:00', '2024-02-14 18:20:00', '2024-02-14 17:50:00', '2024-02-14 17:20:00', '2024-02-14 16:50:00', '2024-02-14 16:20:00', '2024-02-14 15:50:00', '2024-02-14 15:20:00', '2024-02-14 14:50:00', '2024-02-14 14:20:00', '2024-02-14 13:50:00', '2024-02-14 13:20:00', '2024-02-14 12:50:00', '2024-02-14 12:20:00', '2024-02-14 11:50:00', '2024-02-14 11:20:00', '2024-02-14 10:50:00', '2024-02-14 10:20:00', '2024-02-14 09:50:00', '2024-02-14 09:20:00', '2024-02-14 08:50:00', '2024-02-14 08:20:00', '2024-02-14 07:50:00', '2024-02-14 07:20:00', '2024-02-14 06:50:00', '2024-02-14 06:20:00', '2024-02-14 05:50:00', '2024-02-14 05:20:00', '2024-02-14 04:50:00', '2024-02-14 04:20:00', '2024-02-14 03:50:00', '2024-02-14 03:20:00', '2024-02-14 02:50:00', '2024-02-14 02:20:00', '2024-02-14 01:50:00', '2024-02-14 01:20:00', '2024-02-14 00:50:00', '2024-02-14 00:20:00', '2024-02-13 23:50:00', '2024-02-13 23:20:00', '2024-02-13 22:50:00', '2024-02-13 22:20:00', '2024-02-13 21:50:00', '2024-02-13 21:20:00', '2024-02-13 20:50:00', '2024-02-13 20:20:00', '2024-02-13 19:50:00', '2024-02-13 19:20:00', '2024-02-13 18:50:00', '2024-02-13 18:20:00', '2024-02-13 17:50:00', '2024-02-13 17:20:00', '2024-02-13 16:50:00', '2024-02-13 16:20:00', '2024-02-13 15:50:00', '2024-02-13 15:20:00', '2024-02-13 14:50:00', '2024-02-13 14:20:00', '2024-02-13 13:50:00', '2024-02-13 13:20:00', '2024-02-13 12:50:00', '2024-02-13 12:20:00', '2024-02-13 11:50:00', '2024-02-13 11:20:00', '2024-02-13 10:50:00', '2024-02-13 10:20:00', '2024-02-13 09:50:00', '2024-02-13 09:20:00', '2024-02-13 08:50:00', '2024-02-13 08:20:00', '2024-02-13 07:50:00', '2024-02-13 07:20:00', '2024-02-13 06:50:00', '2024-02-13 06:20:00', '2024-02-13 05:50:00', '2024-02-13 05:20:00', '2024-02-13 04:50:00', '2024-02-13 04:20:00', '2024-02-13 03:50:00', '2024-02-13 03:20:00', '2024-02-13 02:50:00', '2024-02-13 02:20:00', '2024-02-13 01:50:00', '2024-02-13 01:20:00', '2024-02-13 00:50:00', '2024-02-13 00:20:00', '2024-02-12 23:50:00', '2024-02-12 23:20:00', '2024-02-12 22:50:00', '2024-02-12 22:20:00', '2024-02-12 21:50:00', '2024-02-12 21:20:00', '2024-02-12 20:50:00', '2024-02-12 20:20:00', '2024-02-12 19:50:00', '2024-02-12 19:20:00', '2024-02-12 18:50:00', '2024-02-12 18:20:00', '2024-02-12 17:50:00', '2024-02-12 17:20:00', '2024-02-12 16:50:00', '2024-02-12 16:20:00', '2024-02-12 15:50:00', '2024-02-12 15:20:00', '2024-02-12 14:50:00', '2024-02-12 14:20:00', '2024-02-12 13:50:00', '2024-02-12 13:20:00', '2024-02-12 12:50:00', '2024-02-12 12:20:00', '2024-02-12 11:50:00', '2024-02-12 11:20:00', '2024-02-12 10:50:00', '2024-02-12 10:20:00', '2024-02-12 09:50:00']"
Turkey, Mus Airport (MSR/LTCK) ,"['LTCK 150850Z 31004KT 270V340 8000 SCT008 BKN035 07/05 Q1015', 'LTCK 150750Z 30005KT 7000 SCT005 BKN030 05/05 Q1015', 'LTCK 150650Z 32006KT 6000 SCT004 BKN030 05/05 Q1015 RESHRA', 'LTCK 150620Z 32009KT 6000 FEW007 SCT030 BKN070 04/04 Q1014 RESHRA', 'LTCK 150550Z 30005KT 6000 -SHRA FEW010 SCT035 BKN070 05/05 Q1014 RERA', 'LTCK 150450Z 19004KT 8000 -RA FEW015 SCT035 BKN070 04/04 Q1013', 'LTCK 141250Z 00000KT 5000 BR FEW010 SCT030 BKN080 05/05 Q1013', 'LTCK 141150Z VRB02KT 5000 BR FEW008 SCT030 BKN080 05/05 Q1013', 'LTCK 141050Z 00000KT 5000 BR FEW008 SCT030 BKN080 05/05 Q1013', 'LTCK 140950Z 27004KT 220V020 6000 FEW008 SCT030 BKN080 05/05 Q1014', 'LTCK 140850Z VRB02KT 6000 SCT030 BKN080 05/04 Q1015', 'LTCK 140750Z 36005KT 4500 BR FEW010 SCT030 BKN080 04/04 Q1015', 'LTCK 140650Z VRB01KT 3000 BR FEW010 SCT030 BKN080 04/04 Q1016', 'LTCK 140550Z 00000KT 2500 BR FEW010 SCT030 BKN080 03/03 Q1016 RERASN', 'LTCK 140450Z 18006KT 2500 -RASN BR FEW010 SCT030 BKN070 03/03 Q1016', 'LTCK 131350Z 33006KT 8000 SCT035 BKN100 07/02 Q1019', 'LTCK 131250Z VRB03KT 8000 SCT035 BKN180 08/02 Q1019', 'LTCK 131150Z VRB02KT 7000 FEW030 SCT090 BKN180 07/01 Q1020', 'LTCK 131050Z VRB02KT 7000 FEW030 SCT090 BKN180 07/01 Q1020', 'LTCK 130950Z VRB03KT 6000 FEW035 BKN180 07/02 Q1021', 'LTCK 130850Z 32003KT 240V050 6000 FEW035 BKN180 06/01 Q1022', 'LTCK 130750Z VRB01KT 6000 FEW035 BKN180 05/01 Q1022', 'LTCK 130650Z VRB02KT 5000 BR FEW035 BKN180 02/02 Q1023', 'LTCK 130550Z 00000KT 5000 BR FEW035 BKN180 01/00 Q1023', 'LTCK 130450Z 32003KT 4500 BR FEW035 BKN180 M01/M01 Q1023', 'LTCK 121250Z 31004KT 260V330 8000 BKN070 06/01 Q1025', 'LTCK 121150Z 30006KT 260V340 8000 BKN070 06/01 Q1025', 'LTCK 121050Z VRB02KT 8000 SCT020 BKN040 07/01 Q1025', 'LTCK 120950Z 31004KT 280V360 8000 SCT020 BKN035 05/M00 Q1026']","['2024-02-15 08:50:00', '2024-02-15 07:50:00', '2024-02-15 06:50:00', '2024-02-15 06:20:00', '2024-02-15 05:50:00', '2024-02-15 04:50:00', '2024-02-14 12:50:00', '2024-02-14 11:50:00', '2024-02-14 10:50:00', '2024-02-14 09:50:00', '2024-02-14 08:50:00', '2024-02-14 07:50:00', '2024-02-14 06:50:00', '2024-02-14 05:50:00', '2024-02-14 04:50:00', '2024-02-13 13:50:00', '2024-02-13 12:50:00', '2024-02-13 11:50:00', '2024-02-13 10:50:00', '2024-02-13 09:50:00', '2024-02-13 08:50:00', '2024-02-13 07:50:00', '2024-02-13 06:50:00', '2024-02-13 05:50:00', '2024-02-13 04:50:00', '2024-02-12 12:50:00', '2024-02-12 11:50:00', '2024-02-12 10:50:00', '2024-02-12 09:50:00']"
Turkey, Nevsehir Kapadokya Airport (NAV/LTAZ) ,"['LTAZ 150850Z 25004KT 180V320 9999 FEW040 11/03 Q1012', 'LTAZ 150820Z 24003KT 160V290 9999 FEW040 10/02 Q1012', 'LTAZ 150750Z 09002KT 9999 FEW040 10/03 Q1012', 'LTAZ 150720Z 09004KT 040V130 9999 FEW040 08/04 Q1012', 'LTAZ 150650Z 11005KT 9999 FEW040 07/04 Q1011', 'LTAZ 150620Z 14007KT 9999 FEW040 06/03 Q1011', 'LTAZ 150550Z 12005KT 9999 FEW040 04/02 Q1011', 'LTAZ 150520Z 14005KT 9999 FEW040 03/01 Q1011', 'LTAZ 150450Z 11006KT 9999 FEW040 01/00 Q1011', 'LTAZ 150420Z 13004KT 9999 SCT040 BKN100 01/M00 Q1010', 'LTAZ 150350Z 14007KT 9999 SCT035 BKN090 02/01 Q1010', 'LTAZ 150320Z 10003KT 060V160 9999 SCT035 BKN090 02/01 Q1010', 'LTAZ 150250Z 12003KT 080V140 9999 SCT035 BKN090 02/01 Q1010', 'LTAZ 150220Z 14004KT 9999 SCT035 BKN090 03/02 Q1009', 'LTAZ 150150Z 08002KT 9999 SCT035 BKN090 04/03 Q1009', 'LTAZ 150120Z VRB02KT 9999 SCT035 BKN090 03/03 Q1009', 'LTAZ 150050Z 12002KT 9999 SCT035 BKN090 04/03 Q1008', 'LTAZ 150020Z VRB02KT 9999 SCT035 BKN090 04/03 Q1008', 'LTAZ 142350Z VRB02KT 9999 SCT035 BKN090 03/02 Q1008', 'LTAZ 142320Z VRB02KT 9999 SCT035 BKN090 03/03 Q1008', 'LTAZ 142250Z 20004KT 9999 SCT035 BKN090 03/02 Q1008', 'LTAZ 142220Z 00000KT 9999 SCT035 BKN090 04/03 Q1008', 'LTAZ 142150Z 16002KT 9999 SCT035 BKN090 05/03 Q1008', 'LTAZ 142120Z 03002KT 9999 SCT035 BKN090 05/03 Q1008', 'LTAZ 142050Z VRB02KT 9999 SCT035 BKN090 06/03 Q1007', 'LTAZ 142020Z 00000KT 9999 SCT035 BKN090 06/03 Q1008', 'LTAZ 141950Z 18004KT 9999 SCT035 BKN090 06/03 Q1007', 'LTAZ 141920Z 14005KT 9999 BKN030 BKN080 06/03 Q1007', 'LTAZ 141850Z 15005KT 9999 BKN030 BKN080 07/04 Q1007', 'LTAZ 141820Z 13007KT 9999 BKN030 BKN080 07/04 Q1007', 'LTAZ 141750Z 13008KT 9999 SCT030 BKN080 07/04 Q1007', 'LTAZ 141720Z 11006KT 9999 SCT030 BKN080 07/04 Q1007', 'LTAZ 141650Z 10011KT 9999 SCT030 BKN080 08/04 Q1007', 'LTAZ 141620Z 10010KT 9999 SCT030 BKN080 08/04 Q1007', 'LTAZ 141550Z 09010KT 9999 BKN030 BKN080 08/04 Q1006', 'LTAZ 141520Z 10010KT 9999 BKN030 BKN080 09/05 Q1006 RESHRA', 'LTAZ 141450Z 10010KT 9999 -SHRA BKN030 BKN080 09/05 Q1006', 'LTAZ 141420Z VRB02KT 9999 BKN030 BKN080 09/08 Q1006', 'LTAZ 141350Z VRB02KT 9999 BKN030 BKN080 09/08 Q1006 RESHRA', 'LTAZ 141320Z 32003KT 9999 -SHRA BKN030 BKN080 09/08 Q1006', 'LTAZ 141250Z 25003KT 200V280 9999 -SHRA BKN030 BKN080 09/08 Q1006', 'LTAZ 141220Z 27005KT 9999 -SHRA BKN030 BKN080 09/08 Q1006', 'LTAZ 141150Z 27004KT 8000 -SHRA BKN030 BKN080 09/07 Q1006', 'LTAZ 141120Z 27006KT 9999 -SHRA BKN030 BKN080 09/07 Q1006', 'LTAZ 141050Z 28004KT 9999 -SHRA BKN030 BKN080 09/07 Q1006', 'LTAZ 141020Z 26005KT 9999 SCT035 BKN100 09/07 Q1007', 'LTAZ 140950Z 27003KT 230V310 9999 SCT035 BKN100 09/07 Q1007', 'LTAZ 140920Z 33003KT 270V050 9999 FEW010 SCT030 BKN110 09/06 Q1007', 'LTAZ 140850Z VRB01KT 9999 FEW010 SCT030 BKN090 08/06 Q1008', 'LTAZ 140820Z 27003KT 190V320 7000 BKN010 08/06 Q1008', 'LTAZ 140750Z 06003KT 040V120 6000 BKN007 07/06 Q1008', 'LTAZ 140720Z 08003KT 010V130 3900 BR BKN005 06/06 Q1008', 'LTAZ 140650Z VRB02KT 2400 BR BKN004 06/06 Q1008', 'LTAZ 140620Z 10006KT 060V130 1000 R11/P1500D R29/P1500D BCFG BKN004 06/06 Q1008', 'LTAZ 140550Z 10003KT 070V160 0350 R11/0500N R29/P1500U BCFG VV003 06/05 Q1008', 'LTAZ 140520Z VRB01KT 0400 R11/0550N R29/0450D FG VV003 06/05 Q1008', 'LTAZ 140450Z 13004KT 0400 R11/0400N R29/0450N FG SCT003 06/05 Q1009', 'LTAZ 140420Z 00000KT 4300 0600E R11/P1500N R29/0650D BCFG FEW002 SCT080 06/05 Q1008 RESHRA', 'LTAZ 140350Z 29001KT 6000 -SHRA BKN035 BKN080 06/06 Q1008', 'LTAZ 140320Z 00000KT 6000 -SHRA BKN020 BKN080 07/06 Q1009', 'LTAZ 140250Z 30002KT 6000 -SHRA BKN025 BKN080 07/06 Q1008', 'LTAZ 140220Z 21004KT 6000 -SHRA BKN026 BKN080 07/06 Q1009', 'LTAZ 140150Z 21004KT 7000 -SHRA BKN026 BKN080 07/06 Q1009 RESHRA', 'LTAZ 140120Z 21004KT 6000 SHRA BKN026 BKN080 07/06 Q1009', 'LTAZ 140050Z 21005KT 9999 -SHRA BKN030 BKN080 07/06 Q1009', 'LTAZ 140020Z 23004KT 9000 -SHRA BKN035 BKN080 07/06 Q1009', 'LTAZ 132350Z 20004KT 9000 -SHRA BKN035 BKN080 07/06 Q1009', 'LTAZ 132320Z 20007KT 9999 -SHRA BKN035 BKN080 07/06 Q1010', 'LTAZ 132250Z 21005KT 9999 -SHRA BKN035 BKN080 07/06 Q1010', 'LTAZ 132220Z 20004KT 170V230 9999 -SHRA BKN035 BKN080 07/06 Q1010', 'LTAZ 132150Z 30004KT 240V350 9999 -SHRA BKN035 BKN080 07/05 Q1010', 'LTAZ 132120Z 23003KT 200V270 9999 BKN035 BKN080 07/05 Q1010', 'LTAZ 132050Z VRB02KT 9999 BKN035 BKN080 07/05 Q1011', 'LTAZ 132020Z 29006KT 9999 BKN035 BKN080 08/05 Q1011', 'LTAZ 131950Z 25005KT 9999 BKN035 BKN080 08/05 Q1011', 'LTAZ 131920Z 22006KT 9999 BKN035 BKN080 08/05 Q1011', 'LTAZ 131850Z 27003KT 220V320 9999 BKN035 BKN080 09/05 Q1011', 'LTAZ 131820Z 35004KT 310V020 9999 BKN035 BKN080 09/05 Q1011 RESHRA', 'LTAZ 131750Z 01005KT 340V040 9999 -SHRA BKN035 BKN080 09/05 Q1011', 'LTAZ 131720Z 18004KT 150V220 9999 -SHRA BKN035 BKN090 10/04 Q1011', 'LTAZ 131650Z 18005KT 150V230 9999 -SHRA BKN035 BKN090 10/04 Q1011', 'LTAZ 131620Z 15006KT 130V200 9999 -SHRA BKN035 BKN090 12/03 Q1011', 'LTAZ 131550Z 16007KT 100V210 9999 BKN040 BKN090 13/01 Q1010', 'LTAZ 131520Z 17006KT 9999 BKN040 BKN090 13/01 Q1010', 'LTAZ 131450Z 22004KT 180V310 9999 BKN040 BKN090 14/01 Q1009', 'LTAZ 131420Z 05009KT 020V080 9999 SCT040 BKN090 14/01 Q1009', 'LTAZ 131350Z 10010KT 9999 SCT040 BKN100 16/01 Q1009', 'LTAZ 131320Z 16009KT 090V220 9999 SCT040 BKN100 16/M01 Q1009', 'LTAZ 131250Z 12016KT 9999 SCT040 BKN100 16/00 Q1009', 'LTAZ 131220Z 17011KT 140V200 9999 SCT040 BKN100 18/M04 Q1009', 'LTAZ 131150Z 14012KT 9999 SCT040 BKN100 18/M04 Q1009', 'LTAZ 131120Z 15012KT 120V180 9999 SCT040 BKN100 18/M04 Q1009', 'LTAZ 131050Z 16016KT 9999 SCT040 BKN100 18/M02 Q1009', 'LTAZ 131020Z 15014KT 9999 SCT040 BKN100 18/M03 Q1010', 'LTAZ 130950Z 13016KT 9999 SCT040 BKN100 18/M02 Q1010', 'LTAZ 130920Z 14014KT 110V170 9999 SCT040 BKN100 18/M01 Q1011', 'LTAZ 130850Z 08013KT 9999 SCT040 BKN100 15/01 Q1012', 'LTAZ 130820Z 11011KT 9999 SCT040 BKN100 15/01 Q1012', 'LTAZ 130750Z 12011KT 9999 SCT040 BKN100 14/00 Q1012', 'LTAZ 130720Z 10012KT 9999 SCT040 BKN100 12/02 Q1012', 'LTAZ 130650Z 11009KT 080V140 9999 SCT040 BKN100 12/02 Q1012', 'LTAZ 130620Z 12013KT 9999 SCT040 BKN100 12/01 Q1012', 'LTAZ 130550Z 10010KT 9999 SCT040 BKN100 11/02 Q1013', 'LTAZ 130520Z 07009KT 9999 SCT040 BKN100 10/02 Q1013', 'LTAZ 130450Z 12009KT 9999 SCT040 BKN080 10/01 Q1013', 'LTAZ 130420Z 12008KT 9999 SCT040 BKN080 11/00 Q1012', 'LTAZ 130350Z 12008KT 9999 SCT040 BKN100 10/00 Q1013', 'LTAZ 130320Z 12011KT 9999 SCT040 BKN100 11/M00 Q1013', 'LTAZ 130250Z 10013KT 9999 SCT040 BKN100 11/00 Q1013', 'LTAZ 130220Z 08015KT 9999 SCT040 BKN100 10/01 Q1013', 'LTAZ 130150Z 10010KT 9999 BKN035 BKN080 10/02 Q1013', 'LTAZ 130120Z 10010KT 9999 BKN035 BKN080 10/02 Q1013 RESHRA', 'LTAZ 130050Z 11011KT 9999 -SHRA BKN035 BKN080 10/03 Q1013', 'LTAZ 130020Z 11007KT 080V140 9999 SCT040 BKN080 10/01 Q1014', 'LTAZ 122350Z 09010KT 9999 FEW040 BKN100 11/01 Q1014', 'LTAZ 122320Z 10011KT 9999 FEW040 BKN100 11/01 Q1014', 'LTAZ 122250Z 12009KT 9999 FEW040 SCT120 BKN180 10/01 Q1014', 'LTAZ 122220Z 10008KT 9999 FEW040 SCT120 BKN180 10/01 Q1014', 'LTAZ 122150Z 10009KT 9999 FEW040 SCT120 BKN180 11/01 Q1014', 'LTAZ 122120Z 11011KT 9999 FEW040 SCT120 BKN180 11/02 Q1015', 'LTAZ 122050Z 07013KT 9999 FEW040 SCT120 BKN180 11/01 Q1014', 'LTAZ 122020Z 08012KT 9999 FEW040 SCT120 BKN180 11/01 Q1015', 'LTAZ 121950Z 10016KT CAVOK 11/01 Q1015', 'LTAZ 121920Z 12007KT CAVOK 11/01 Q1015', 'LTAZ 121850Z 10011KT CAVOK 11/01 Q1015', 'LTAZ 121820Z 10015KT CAVOK 11/00 Q1015', 'LTAZ 121750Z 09012KT CAVOK 11/00 Q1015', 'LTAZ 121720Z 10008KT CAVOK 10/00 Q1016', 'LTAZ 121650Z 11006KT CAVOK 11/M00 Q1016', 'LTAZ 121620Z 08002KT CAVOK 12/M01 Q1016', 'LTAZ 121550Z 33002KT CAVOK 12/M01 Q1016', 'LTAZ 121520Z 28005KT CAVOK 13/M01 Q1016', 'LTAZ 121450Z 25006KT CAVOK 14/M02 Q1016', 'LTAZ 121420Z 29006KT CAVOK 15/M03 Q1016', 'LTAZ 121350Z 27004KT 210V340 CAVOK 16/M04 Q1015', 'LTAZ 121320Z 22007KT 200V260 CAVOK 16/M03 Q1016', 'LTAZ 121250Z 23008KT 190V270 CAVOK 16/M02 Q1016', 'LTAZ 121220Z 19007KT 160V220 CAVOK 17/M03 Q1016', 'LTAZ 121150Z 22005KT 160V260 CAVOK 16/M03 Q1016', 'LTAZ 121120Z 19006KT 160V220 CAVOK 16/M03 Q1017', 'LTAZ 121050Z 23007KT 190V270 CAVOK 17/M02 Q1017', 'LTAZ 121020Z VRB02KT CAVOK 17/M00 Q1018', 'LTAZ 120950Z VRB03KT CAVOK 16/M00 Q1018']","['2024-02-15 08:50:00', '2024-02-15 08:20:00', '2024-02-15 07:50:00', '2024-02-15 07:20:00', '2024-02-15 06:50:00', '2024-02-15 06:20:00', '2024-02-15 05:50:00', '2024-02-15 05:20:00', '2024-02-15 04:50:00', '2024-02-15 04:20:00', '2024-02-15 03:50:00', '2024-02-15 03:20:00', '2024-02-15 02:50:00', '2024-02-15 02:20:00', '2024-02-15 01:50:00', '2024-02-15 01:20:00', '2024-02-15 00:50:00', '2024-02-15 00:20:00', '2024-02-14 23:50:00', '2024-02-14 23:20:00', '2024-02-14 22:50:00', '2024-02-14 22:20:00', '2024-02-14 21:50:00', '2024-02-14 21:20:00', '2024-02-14 20:50:00', '2024-02-14 20:20:00', '2024-02-14 19:50:00', '2024-02-14 19:20:00', '2024-02-14 18:50:00', '2024-02-14 18:20:00', '2024-02-14 17:50:00', '2024-02-14 17:20:00', '2024-02-14 16:50:00', '2024-02-14 16:20:00', '2024-02-14 15:50:00', '2024-02-14 15:20:00', '2024-02-14 14:50:00', '2024-02-14 14:20:00', '2024-02-14 13:50:00', '2024-02-14 13:20:00', '2024-02-14 12:50:00', '2024-02-14 12:20:00', '2024-02-14 11:50:00', '2024-02-14 11:20:00', '2024-02-14 10:50:00', '2024-02-14 10:20:00', '2024-02-14 09:50:00', '2024-02-14 09:20:00', '2024-02-14 08:50:00', '2024-02-14 08:20:00', '2024-02-14 07:50:00', '2024-02-14 07:20:00', '2024-02-14 06:50:00', '2024-02-14 06:20:00', '2024-02-14 05:50:00', '2024-02-14 05:20:00', '2024-02-14 04:50:00', '2024-02-14 04:20:00', '2024-02-14 03:50:00', '2024-02-14 03:20:00', '2024-02-14 02:50:00', '2024-02-14 02:20:00', '2024-02-14 01:50:00', '2024-02-14 01:20:00', '2024-02-14 00:50:00', '2024-02-14 00:20:00', '2024-02-13 23:50:00', '2024-02-13 23:20:00', '2024-02-13 22:50:00', '2024-02-13 22:20:00', '2024-02-13 21:50:00', '2024-02-13 21:20:00', '2024-02-13 20:50:00', '2024-02-13 20:20:00', '2024-02-13 19:50:00', '2024-02-13 19:20:00', '2024-02-13 18:50:00', '2024-02-13 18:20:00', '2024-02-13 17:50:00', '2024-02-13 17:20:00', '2024-02-13 16:50:00', '2024-02-13 16:20:00', '2024-02-13 15:50:00', '2024-02-13 15:20:00', '2024-02-13 14:50:00', '2024-02-13 14:20:00', '2024-02-13 13:50:00', '2024-02-13 13:20:00', '2024-02-13 12:50:00', '2024-02-13 12:20:00', '2024-02-13 11:50:00', '2024-02-13 11:20:00', '2024-02-13 10:50:00', '2024-02-13 10:20:00', '2024-02-13 09:50:00', '2024-02-13 09:20:00', '2024-02-13 08:50:00', '2024-02-13 08:20:00', '2024-02-13 07:50:00', '2024-02-13 07:20:00', '2024-02-13 06:50:00', '2024-02-13 06:20:00', '2024-02-13 05:50:00', '2024-02-13 05:20:00', '2024-02-13 04:50:00', '2024-02-13 04:20:00', '2024-02-13 03:50:00', '2024-02-13 03:20:00', '2024-02-13 02:50:00', '2024-02-13 02:20:00', '2024-02-13 01:50:00', '2024-02-13 01:20:00', '2024-02-13 00:50:00', '2024-02-13 00:20:00', '2024-02-12 23:50:00', '2024-02-12 23:20:00', '2024-02-12 22:50:00', '2024-02-12 22:20:00', '2024-02-12 21:50:00', '2024-02-12 21:20:00', '2024-02-12 20:50:00', '2024-02-12 20:20:00', '2024-02-12 19:50:00', '2024-02-12 19:20:00', '2024-02-12 18:50:00', '2024-02-12 18:20:00', '2024-02-12 17:50:00', '2024-02-12 17:20:00', '2024-02-12 16:50:00', '2024-02-12 16:20:00', '2024-02-12 15:50:00', '2024-02-12 15:20:00', '2024-02-12 14:50:00', '2024-02-12 14:20:00', '2024-02-12 13:50:00', '2024-02-12 13:20:00', '2024-02-12 12:50:00', '2024-02-12 12:20:00', '2024-02-12 11:50:00', '2024-02-12 11:20:00', '2024-02-12 10:50:00', '2024-02-12 10:20:00', '2024-02-12 09:50:00']"
Turkey, Ordu Giresun Airport (OGU/LTCB) ,"['LTCB 150850Z 03005KT 8000 FEW015 SCT035 BKN090 11/09 Q1012 RESHRA NOSIG', 'LTCB 150750Z 03003KT 8000 -SHRA FEW015 SCT030 BKN080 11/09 Q1012 NOSIG', 'LTCB 150650Z 16004KT 360V170 8000 -SHRA FEW015 SCT030 BKN080 11/09 Q1011 NOSIG', 'LTCB 150550Z VRB02KT 8000 -SHRA FEW015 SCT030 BKN080 10/09 Q1011 NOSIG', 'LTCB 150450Z 00000KT 8000 -SHRA FEW015 SCT030 BKN080 10/08 Q1010 NOSIG', 'LTCB 150350Z 00000KT 9999 -SHRA FEW015 SCT030 BKN080 10/08 Q1010 NOSIG', 'LTCB 150250Z 22003KT 9999 FEW015 SCT030 BKN080 10/08 Q1010 NOSIG', 'LTCB 150150Z 21002KT 9999 FEW015 SCT030 BKN080 10/08 Q1010 NOSIG', 'LTCB 150050Z 15004KT 9999 FEW015 SCT030 BKN080 10/08 Q1010 NOSIG', 'LTCB 142350Z VRB01KT 9999 FEW015 SCT030 BKN080 10/08 Q1010 RESHRA NOSIG', 'LTCB 142250Z 15002KT 9999 -SHRA FEW015 SCT030 BKN080 10/09 Q1010 NOSIG', 'LTCB 142150Z 00000KT 9999 -SHRA FEW018 SCT030 BKN090 10/08 Q1011 NOSIG', 'LTCB 142050Z VRB01KT 9999 SCT035 BKN090 10/08 Q1011 NOSIG', 'LTCB 141950Z 00000KT 9999 SCT035 BKN090 09/08 Q1011 NOSIG', 'LTCB 141850Z VRB01KT 9999 SCT035 BKN090 10/08 Q1011 NOSIG', 'LTCB 141750Z VRB02KT 9999 SCT035 BKN090 10/08 Q1011 NOSIG', 'LTCB 141650Z 14003KT 9999 SCT035 BKN090 10/08 Q1011 NOSIG', 'LTCB 141550Z 36003KT 320V030 9999 SCT035 BKN090 11/09 Q1011 NOSIG', 'LTCB 141450Z 21004KT 9999 SCT035 BKN090 11/09 Q1010 NOSIG', 'LTCB 141350Z 30003KT 180V350 9999 SCT035 BKN090 12/09 Q1010 NOSIG', 'LTCB 141250Z 32007KT 9999 SCT035 BKN090 12/09 Q1010 NOSIG', 'LTCB 141150Z 33006KT 180V350 9999 SCT035 BKN090 13/07 Q1009 NOSIG', 'LTCB 141050Z VRB02KT 9999 SCT035 BKN090 13/07 Q1009 NOSIG', 'LTCB 140950Z 16002KT 9999 SCT035 BKN090 12/08 Q1010 NOSIG', 'LTCB 140850Z VRB02KT 9999 SCT035 BKN090 13/08 Q1010 NOSIG', 'LTCB 140750Z 01003KT 320V040 9999 SCT035 BKN090 12/08 Q1010 NOSIG', 'LTCB 140650Z VRB02KT 9999 SCT035 BKN090 13/07 Q1011 NOSIG', 'LTCB 140550Z 15004KT 020V170 9999 SCT035 BKN090 12/09 Q1011 NOSIG', 'LTCB 140450Z VRB01KT 9999 SCT035 BKN090 12/08 Q1010 NOSIG', 'LTCB 140350Z 20005KT 9999 SCT035 BKN090 12/08 Q1010 NOSIG', 'LTCB 140150Z 21006KT 9999 SCT035 BKN090 13/08 Q1009 NOSIG', 'LTCB 140050Z VRB02KT 9999 SCT035 BKN090 14/07 Q1009 NOSIG', 'LTCB 132350Z 20004KT 180V350 9999 SCT035 BKN090 14/07 Q1009 NOSIG', 'LTCB 132250Z 13003KT 360V170 9999 SCT035 BKN090 14/07 Q1009 NOSIG', 'LTCB 132150Z VRB01KT 9999 SCT035 BKN080 15/07 Q1009 NOSIG', 'LTCB 132050Z VRB04KT 9999 SCT035 BKN080 15/08 Q1009 NOSIG', 'LTCB 131950Z 21004KT 180V350 9999 SCT035 BKN080 17/05 Q1009 NOSIG', 'LTCB 131850Z 17002KT 9999 SCT035 BKN080 16/06 Q1009 NOSIG', 'LTCB 131750Z VRB02KT 9999 FEW035 BKN090 15/08 Q1010 NOSIG', 'LTCB 131650Z 15004KT 110V170 9999 FEW035 BKN090 16/06 Q1010 NOSIG', 'LTCB 131550Z VRB03KT 9999 FEW035 BKN090 17/07 Q1010 NOSIG', 'LTCB 131450Z 16006KT 090V200 9999 FEW035 BKN090 20/04 Q1009 NOSIG', 'LTCB 131350Z VRB02KT 9999 FEW035 BKN090 22/03 Q1009 NOSIG', 'LTCB 131250Z 16006KT 140V210 9999 FEW035 BKN090 22/03 Q1010 NOSIG', 'LTCB 131150Z 15005KT 020V170 9999 FEW035 BKN090 17/08 Q1009 NOSIG', 'LTCB 131050Z 03003KT 9999 FEW035 BKN090 16/07 Q1010 NOSIG', 'LTCB 130950Z VRB03KT CAVOK 17/05 Q1010 NOSIG', 'LTCB 130850Z VRB04KT CAVOK 18/04 Q1010 NOSIG', 'LTCB 130750Z VRB02KT CAVOK 17/07 Q1011 NOSIG', 'LTCB 130650Z 33003KT 190V350 CAVOK 15/05 Q1011 NOSIG', 'LTCB 130550Z VRB03KT CAVOK 13/07 Q1011 NOSIG', 'LTCB 130450Z VRB02KT CAVOK 13/04 Q1011 NOSIG', 'LTCB 130350Z VRB01KT CAVOK 14/01 Q1011 NOSIG', 'LTCB 130250Z VRB02KT CAVOK 12/05 Q1011 NOSIG', 'LTCB 130150Z VRB02KT CAVOK 13/06 Q1011 NOSIG', 'LTCB 130050Z 21004KT CAVOK 13/02 Q1011 NOSIG', 'LTCB 122350Z 04004KT 360V170 CAVOK 12/06 Q1012 NOSIG', 'LTCB 122250Z VRB01KT CAVOK 13/04 Q1012 NOSIG', 'LTCB 122150Z 30003KT 180V350 CAVOK 13/06 Q1012 NOSIG', 'LTCB 122050Z VRB02KT CAVOK 14/03 Q1013 NOSIG', 'LTCB 121950Z VRB03KT CAVOK 11/04 Q1013 NOSIG', 'LTCB 121850Z VRB02KT CAVOK 12/06 Q1013 NOSIG', 'LTCB 121750Z VRB02KT CAVOK 13/07 Q1014 NOSIG', 'LTCB 121650Z 19004KT 140V220 CAVOK 14/03 Q1013 NOSIG', 'LTCB 121550Z 21002KT CAVOK 12/05 Q1013 NOSIG', 'LTCB 121450Z 11004KT 360V170 CAVOK 13/07 Q1013 NOSIG', 'LTCB 121350Z 15005KT 360V170 CAVOK 16/04 Q1013 NOSIG', 'LTCB 121250Z 16005KT CAVOK 16/06 Q1013 NOSIG', 'LTCB 121150Z 05010KT 360V170 CAVOK 19/02 Q1013 NOSIG', 'LTCB 121050Z 16004KT 360V170 CAVOK 19/02 Q1014 NOSIG', 'LTCB 120950Z 11005KT 360V170 CAVOK 19/03 Q1015 NOSIG']","['2024-02-15 08:50:00', '2024-02-15 07:50:00', '2024-02-15 06:50:00', '2024-02-15 05:50:00', '2024-02-15 04:50:00', '2024-02-15 03:50:00', '2024-02-15 02:50:00', '2024-02-15 01:50:00', '2024-02-15 00:50:00', '2024-02-14 23:50:00', '2024-02-14 22:50:00', '2024-02-14 21:50:00', '2024-02-14 20:50:00', '2024-02-14 19:50:00', '2024-02-14 18:50:00', '2024-02-14 17:50:00', '2024-02-14 16:50:00', '2024-02-14 15:50:00', '2024-02-14 14:50:00', '2024-02-14 13:50:00', '2024-02-14 12:50:00', '2024-02-14 11:50:00', '2024-02-14 10:50:00', '2024-02-14 09:50:00', '2024-02-14 08:50:00', '2024-02-14 07:50:00', '2024-02-14 06:50:00', '2024-02-14 05:50:00', '2024-02-14 04:50:00', '2024-02-14 03:50:00', '2024-02-14 01:50:00', '2024-02-14 00:50:00', '2024-02-13 23:50:00', '2024-02-13 22:50:00', '2024-02-13 21:50:00', '2024-02-13 20:50:00', '2024-02-13 19:50:00', '2024-02-13 18:50:00', '2024-02-13 17:50:00', '2024-02-13 16:50:00', '2024-02-13 15:50:00', '2024-02-13 14:50:00', '2024-02-13 13:50:00', '2024-02-13 12:50:00', '2024-02-13 11:50:00', '2024-02-13 10:50:00', '2024-02-13 09:50:00', '2024-02-13 08:50:00', '2024-02-13 07:50:00', '2024-02-13 06:50:00', '2024-02-13 05:50:00', '2024-02-13 04:50:00', '2024-02-13 03:50:00', '2024-02-13 02:50:00', '2024-02-13 01:50:00', '2024-02-13 00:50:00', '2024-02-12 23:50:00', '2024-02-12 22:50:00', '2024-02-12 21:50:00', '2024-02-12 20:50:00', '2024-02-12 19:50:00', '2024-02-12 18:50:00', '2024-02-12 17:50:00', '2024-02-12 16:50:00', '2024-02-12 15:50:00', '2024-02-12 14:50:00', '2024-02-12 13:50:00', '2024-02-12 12:50:00', '2024-02-12 11:50:00', '2024-02-12 10:50:00', '2024-02-12 09:50:00']"
Turkey, Rize Artvin Airport (RZV/LTFO) ,"['LTFO 150750Z 35004KT 9999 BKN007 BKN030 11/10 Q1012 RESHRA', 'LTFO 150650Z 33005KT 9999 -SHRA BKN007 BKN030 11/10 Q1012', 'LTFO 150550Z 00000KT 9999 -SHRA BKN009 BKN030 11/09 Q1011', 'LTFO 150450Z VRB02KT 9999 -SHRA BKN009 BKN030 11/09 Q1010', 'LTFO 150350Z VRB01KT 9999 BKN009 BKN030 11/09 Q1010', 'LTFO 150250Z 00000KT 9999 BKN009 BKN030 11/09 Q1009', 'LTFO 150150Z 22004KT 190V250 9999 BKN009 BKN030 11/09 Q1009', 'LTFO 150050Z 22008KT 9999 BKN009 BKN030 11/09 Q1010', 'LTFO 142350Z 22010KT 9999 BKN012 BKN035 11/09 Q1010', 'LTFO 142250Z 22010KT 9999 BKN008 BKN035 11/09 Q1010', 'LTFO 142150Z 23011KT 9999 SCT009 BKN100 11/10 Q1010', 'LTFO 142050Z 22010KT 9999 SCT011 BKN100 11/10 Q1010', 'LTFO 141950Z 23009KT 9999 FEW012 BKN100 12/10 Q1010', 'LTFO 141850Z 23010KT 9999 BKN100 12/09 Q1010', 'LTFO 141750Z 23011KT 9999 BKN100 12/09 Q1010', 'LTFO 141650Z 23013KT 9999 BKN100 12/09 Q1010', 'LTFO 141550Z 23015KT 9999 BKN100 13/09 Q1009', 'LTFO 141450Z 22014KT 9999 BKN100 13/08 Q1009', 'LTFO 141350Z 23019KT 9999 BKN100 13/09 Q1008', 'LTFO 141250Z 23022KT 9999 BKN110 14/09 Q1008', 'LTFO 141150Z 23021KT 9999 BKN110 14/10 Q1007', 'LTFO 141050Z 00000KT 9999 BKN110 17/07 Q1008', 'LTFO 140950Z VRB01KT 9999 BKN110 16/07 Q1008', 'LTFO 140850Z 04002KT 9999 BKN100 15/07 Q1009', 'LTFO 140750Z 22006KT 9999 BKN100 16/06 Q1009', 'LTFO 140650Z VRB01KT 9999 BKN100 15/06 Q1009', 'LTFO 140550Z VRB01KT 9999 BKN100 15/05 Q1010', 'LTFO 140450Z VRB02KT 9999 BKN100 15/05 Q1010', 'LTFO 140350Z 00000KT 9999 BKN100 15/03 Q1010', 'LTFO 140250Z VRB02KT 9999 BKN080 13/06 Q1010', 'LTFO 140150Z 00000KT 9999 BKN100 15/02 Q1010', 'LTFO 140050Z 00000KT 9999 BKN100 14/06 Q1010', 'LTFO 132350Z VRB02KT 9999 BKN100 14/06 Q1010', 'LTFO 132250Z 16003KT 9999 BKN100 14/04 Q1010', 'LTFO 132150Z 19003KT 9999 BKN100 15/04 Q1010', 'LTFO 132050Z VRB02KT 9999 BKN100 14/04 Q1010', 'LTFO 131950Z 00000KT 9999 BKN100 13/03 Q1011', 'LTFO 131850Z 18003KT CAVOK 14/03 Q1011', 'LTFO 131750Z VRB02KT CAVOK 15/03 Q1011', 'LTFO 131650Z 22005KT 150V250 CAVOK 17/01 Q1011', 'LTFO 131550Z 20002KT CAVOK 17/01 Q1011', 'LTFO 131450Z VRB02KT CAVOK 18/03 Q1011', 'LTFO 131350Z 06009KT CAVOK 18/05 Q1011', 'LTFO 131250Z 05011KT CAVOK 16/05 Q1011', 'LTFO 131150Z 05006KT CAVOK 17/05 Q1012', 'LTFO 131050Z 10006KT CAVOK 22/M03 Q1012', 'LTFO 130950Z 07004KT CAVOK 19/06 Q1012', 'LTFO 130850Z 27004KT CAVOK 16/06 Q1013', 'LTFO 130750Z VRB02KT CAVOK 17/06 Q1012', 'LTFO 130650Z 07005KT CAVOK 14/06 Q1012', 'LTFO 130550Z 02006KT 350V060 CAVOK 13/05 Q1012', 'LTFO 130450Z 16004KT CAVOK 14/01 Q1011', 'LTFO 130350Z VRB02KT CAVOK 13/00 Q1011', 'LTFO 130250Z 16003KT CAVOK 13/01 Q1012', 'LTFO 130150Z VRB02KT CAVOK 12/02 Q1012', 'LTFO 130050Z 00000KT CAVOK 13/06 Q1012', 'LTFO 122350Z 17002KT CAVOK 13/01 Q1012', 'LTFO 122250Z 21004KT 170V230 CAVOK 14/02 Q1013', 'LTFO 122150Z VRB02KT CAVOK 13/03 Q1014', 'LTFO 122050Z 12003KT 080V180 CAVOK 14/02 Q1014', 'LTFO 121950Z VRB02KT CAVOK 13/04 Q1014', 'LTFO 121850Z 13003KT 060V180 CAVOK 14/03 Q1014', 'LTFO 121750Z 21004KT CAVOK 16/03 Q1013', 'LTFO 121650Z VRB01KT CAVOK 15/04 Q1014', 'LTFO 121550Z VRB02KT CAVOK 16/04 Q1014', 'LTFO 121450Z 07003KT 040V120 CAVOK 16/05 Q1014', 'LTFO 121350Z 05009KT CAVOK 16/04 Q1014', 'LTFO 121250Z 05007KT CAVOK 16/07 Q1014', 'LTFO 121150Z 06008KT CAVOK 19/02 Q1014', 'LTFO 121050Z 05007KT CAVOK 17/06 Q1015', 'LTFO 120950Z 03003KT 310V080 CAVOK 16/08 Q1016']","['2024-02-15 07:50:00', '2024-02-15 06:50:00', '2024-02-15 05:50:00', '2024-02-15 04:50:00', '2024-02-15 03:50:00', '2024-02-15 02:50:00', '2024-02-15 01:50:00', '2024-02-15 00:50:00', '2024-02-14 23:50:00', '2024-02-14 22:50:00', '2024-02-14 21:50:00', '2024-02-14 20:50:00', '2024-02-14 19:50:00', '2024-02-14 18:50:00', '2024-02-14 17:50:00', '2024-02-14 16:50:00', '2024-02-14 15:50:00', '2024-02-14 14:50:00', '2024-02-14 13:50:00', '2024-02-14 12:50:00', '2024-02-14 11:50:00', '2024-02-14 10:50:00', '2024-02-14 09:50:00', '2024-02-14 08:50:00', '2024-02-14 07:50:00', '2024-02-14 06:50:00', '2024-02-14 05:50:00', '2024-02-14 04:50:00', '2024-02-14 03:50:00', '2024-02-14 02:50:00', '2024-02-14 01:50:00', '2024-02-14 00:50:00', '2024-02-13 23:50:00', '2024-02-13 22:50:00', '2024-02-13 21:50:00', '2024-02-13 20:50:00', '2024-02-13 19:50:00', '2024-02-13 18:50:00', '2024-02-13 17:50:00', '2024-02-13 16:50:00', '2024-02-13 15:50:00', '2024-02-13 14:50:00', '2024-02-13 13:50:00', '2024-02-13 12:50:00', '2024-02-13 11:50:00', '2024-02-13 10:50:00', '2024-02-13 09:50:00', '2024-02-13 08:50:00', '2024-02-13 07:50:00', '2024-02-13 06:50:00', '2024-02-13 05:50:00', '2024-02-13 04:50:00', '2024-02-13 03:50:00', '2024-02-13 02:50:00', '2024-02-13 01:50:00', '2024-02-13 00:50:00', '2024-02-12 23:50:00', '2024-02-12 22:50:00', '2024-02-12 21:50:00', '2024-02-12 20:50:00', '2024-02-12 19:50:00', '2024-02-12 18:50:00', '2024-02-12 17:50:00', '2024-02-12 16:50:00', '2024-02-12 15:50:00', '2024-02-12 14:50:00', '2024-02-12 13:50:00', '2024-02-12 12:50:00', '2024-02-12 11:50:00', '2024-02-12 10:50:00', '2024-02-12 09:50:00']"
Turkey, Samsun Carsamba Airport (SZF/LTFH) ,"['LTFH 150850Z 35003KT 320V020 4500 BR FEW004 BKN030 BKN080 11/10 Q1012 RESHRA NOSIG', 'LTFH 150750Z 00000KT 4000 BR SCT008 BKN030 BKN080 10/10 Q1012 NOSIG', 'LTFH 150650Z VRB01KT 3200 BR SCT012 BKN030 10/09 Q1011 RESHRA NOSIG', 'LTFH 150550Z VRB01KT 2100 -SHRA BR BKN006 BKN025 09/09 Q1011 NOSIG', 'LTFH 150450Z 12003KT 2300 -SHRA BR BKN004 BKN025 09/08 Q1011 NOSIG', 'LTFH 150350Z 24003KT 3100 -SHRA BR BKN004 BKN025 09/08 Q1010 BECMG 8000 FEW013 SCT035 BKN100', 'LTFH 150250Z 27003KT 240V330 3700 -SHRA BR BKN006 BKN025 10/09 Q1010 BECMG 8000 FEW013 SCT035 BKN100', 'LTFH 150050Z 33004KT 6000 -SHRA SCT012 BKN035 10/09 Q1010 NOSIG', 'LTFH 142350Z 33004KT 300V360 7000 FEW015 SCT035 BKN100 09/09 Q1011 TEMPO FM0100 4000 BR BKN006 BKN025', 'LTFH 142250Z 31002KT 8000 FEW015 SCT035 BKN100 08/07 Q1010 NOSIG', 'LTFH 142150Z 11003KT 8000 FEW015 SCT035 BKN100 08/07 Q1011 NOSIG', 'LTFH 142050Z 13003KT 9999 FEW014 SCT035 BKN100 09/08 Q1011 NOSIG', 'LTFH 141950Z VRB02KT 9999 FEW014 SCT035 BKN100 09/07 Q1011 NOSIG', 'LTFH 141850Z 19003KT 170V240 9999 FEW015 SCT035 BKN100 10/08 Q1011 NOSIG', 'LTFH 141750Z 24004KT 9999 FEW013 SCT033 BKN100 10/08 Q1011 NOSIG', 'LTFH 141650Z 25005KT 230V290 9999 FEW013 SCT033 BKN100 10/09 Q1012 NOSIG', 'LTFH 141550Z 30005KT 270V330 9999 SCT036 BKN100 11/08 Q1011 NOSIG', 'LTFH 141450Z 27005KT 240V300 9999 SCT036 BKN100 11/08 Q1011 NOSIG', 'LTFH 141350Z 35006KT 9999 FEW036 SCT100 12/09 Q1010 NOSIG', 'LTFH 141250Z 33007KT 300V360 9999 FEW036 SCT100 13/08 Q1010 NOSIG', 'LTFH 141150Z 33007KT 300V360 9999 FEW036 SCT100 14/08 Q1010 NOSIG', 'LTFH 141050Z 35007KT 320V020 9999 SCT036 BKN100 13/09 Q1010 NOSIG', 'LTFH 140950Z 34006KT 300V010 9999 SCT033 BKN100 14/08 Q1010 NOSIG', 'LTFH 140850Z 32006KT 260V350 9999 SCT033 BKN100 13/08 Q1011 NOSIG', 'LTFH 140750Z 27004KT 9999 BKN030 BKN090 12/08 Q1011 RESHRA NOSIG', 'LTFH 140650Z 21003KT 180V260 8000 -SHRA BKN028 BKN080 11/08 Q1011 NOSIG', 'LTFH 140550Z VRB02KT 8000 -SHRA BKN028 BKN080 10/09 Q1011 NOSIG', 'LTFH 140450Z 11004KT 070V140 8000 -SHRA BKN029 BKN080 10/07 Q1011 NOSIG', 'LTFH 140350Z 19003KT 9999 FEW036 BKN100 10/06 Q1010 NOSIG', 'LTFH 140250Z 15003KT 9999 SCT034 BKN100 09/06 Q1010 NOSIG', 'LTFH 140150Z VRB02KT 9999 SCT036 BKN100 10/06 Q1010 NOSIG', 'LTFH 140050Z 22004KT 9999 SCT036 BKN100 11/06 Q1010 NOSIG', 'LTFH 132350Z 21004KT 9999 SCT036 BKN100 11/07 Q1010 NOSIG', 'LTFH 132250Z 02004KT 350V050 9999 SCT036 BKN100 12/07 Q1010 NOSIG', 'LTFH 132150Z 28003KT 240V350 9999 SCT036 BKN100 12/06 Q1010 NOSIG', 'LTFH 132050Z 32005KT 280V340 9999 SCT036 BKN090 12/07 Q1010 NOSIG', 'LTFH 131950Z 32009KT 9999 SCT036 BKN090 13/07 Q1009 NOSIG', 'LTFH 131850Z 32012KT 9999 SCT035 BKN100 13/07 Q1009 NOSIG', 'LTFH 131750Z 11005KT 9999 SCT035 BKN100 17/07 Q1008 NOSIG', 'LTFH 131550Z 13006KT 9999 SCT035TCU BKN100 17/08 Q1008 TEMPO 21018G30KT -TSRA', 'LTFH 131450Z 12008KT 9999 SCT035TCU BKN100 18/08 Q1008 TEMPO 21018G30KT -TSRA', 'LTFH 131350Z 11008KT 9999 SCT035TCU BKN100 20/06 Q1008 RESHRA TEMPO FM1500 21018G30KT -TSRA', 'LTFH 131250Z 18013G23KT 9999 -SHRA SCT035TCU BKN100 21/06 Q1008 NOSIG', 'LTFH 131150Z 18006KT 130V200 9999 FEW036 BKN100 23/04 Q1008 NOSIG', 'LTFH 131050Z 15006KT 110V210 9999 FEW036 BKN100 23/04 Q1008 NOSIG', 'LTFH 130950Z 17005KT 130V230 9999 FEW036 BKN100 23/03 Q1009 NOSIG', 'LTFH 130850Z 18004KT 140V230 9999 FEW036 BKN100 22/04 Q1010 NOSIG', 'LTFH 130750Z 17007KT 9999 FEW036 BKN100 20/03 Q1010 NOSIG', 'LTFH 130650Z 16007KT 140V200 9999 FEW035 BKN100 19/03 Q1010 NOSIG', 'LTFH 130550Z 17003KT 090V200 CAVOK 17/03 Q1010 NOSIG', 'LTFH 130450Z 19007KT 160V240 CAVOK 16/03 Q1010 NOSIG', 'LTFH 130350Z 15004KT CAVOK 17/02 Q1010 NOSIG', 'LTFH 130250Z 19009KT CAVOK 18/02 Q1010 NOSIG', 'LTFH 130150Z VRB02KT CAVOK 18/02 Q1010 NOSIG', 'LTFH 130050Z 18005KT CAVOK 18/03 Q1010 NOSIG', 'LTFH 122350Z 17006KT 120V210 CAVOK 17/03 Q1011 NOSIG', 'LTFH 122250Z 16004KT 130V190 CAVOK 16/03 Q1011 NOSIG', 'LTFH 122150Z 15004KT 120V180 CAVOK 17/03 Q1011 NOSIG', 'LTFH 122050Z 15005KT 080V180 CAVOK 15/05 Q1011 NOSIG', 'LTFH 121950Z 11001KT 9999 FEW036 BKN100 13/05 Q1012 NOSIG', 'LTFH 121850Z 16004KT 9999 FEW036 BKN100 14/05 Q1012 NOSIG', 'LTFH 121750Z 07004KT 040V110 9999 FEW036 BKN100 14/04 Q1012 NOSIG', 'LTFH 121650Z 14004KT 100V170 9999 FEW036 BKN100 13/04 Q1013 NOSIG', 'LTFH 121550Z 09005KT 9999 FEW036 BKN100 17/04 Q1013 NOSIG', 'LTFH 121450Z 00000KT 9999 FEW036 SCT100 BKN200 19/03 Q1012 NOSIG', 'LTFH 121350Z 23003KT 190V260 9999 FEW036 SCT100 BKN200 22/01 Q1012 NOSIG', 'LTFH 121250Z 18008KT 9999 FEW036 BKN100 23/M00 Q1012 NOSIG', 'LTFH 121150Z 19014KT 9999 FEW036 BKN100 24/00 Q1012 NOSIG', 'LTFH 121050Z 20007KT 160V230 9999 FEW036 BKN100 23/02 Q1013 NOSIG', 'LTFH 120950Z 21012KT 9999 FEW036 BKN100 23/01 Q1014 NOSIG']","['2024-02-15 08:50:00', '2024-02-15 07:50:00', '2024-02-15 06:50:00', '2024-02-15 05:50:00', '2024-02-15 04:50:00', '2024-02-15 03:50:00', '2024-02-15 02:50:00', '2024-02-15 00:50:00', '2024-02-14 23:50:00', '2024-02-14 22:50:00', '2024-02-14 21:50:00', '2024-02-14 20:50:00', '2024-02-14 19:50:00', '2024-02-14 18:50:00', '2024-02-14 17:50:00', '2024-02-14 16:50:00', '2024-02-14 15:50:00', '2024-02-14 14:50:00', '2024-02-14 13:50:00', '2024-02-14 12:50:00', '2024-02-14 11:50:00', '2024-02-14 10:50:00', '2024-02-14 09:50:00', '2024-02-14 08:50:00', '2024-02-14 07:50:00', '2024-02-14 06:50:00', '2024-02-14 05:50:00', '2024-02-14 04:50:00', '2024-02-14 03:50:00', '2024-02-14 02:50:00', '2024-02-14 01:50:00', '2024-02-14 00:50:00', '2024-02-13 23:50:00', '2024-02-13 22:50:00', '2024-02-13 21:50:00', '2024-02-13 20:50:00', '2024-02-13 19:50:00', '2024-02-13 18:50:00', '2024-02-13 17:50:00', '2024-02-13 15:50:00', '2024-02-13 14:50:00', '2024-02-13 13:50:00', '2024-02-13 12:50:00', '2024-02-13 11:50:00', '2024-02-13 10:50:00', '2024-02-13 09:50:00', '2024-02-13 08:50:00', '2024-02-13 07:50:00', '2024-02-13 06:50:00', '2024-02-13 05:50:00', '2024-02-13 04:50:00', '2024-02-13 03:50:00', '2024-02-13 02:50:00', '2024-02-13 01:50:00', '2024-02-13 00:50:00', '2024-02-12 23:50:00', '2024-02-12 22:50:00', '2024-02-12 21:50:00', '2024-02-12 20:50:00', '2024-02-12 19:50:00', '2024-02-12 18:50:00', '2024-02-12 17:50:00', '2024-02-12 16:50:00', '2024-02-12 15:50:00', '2024-02-12 14:50:00', '2024-02-12 13:50:00', '2024-02-12 12:50:00', '2024-02-12 11:50:00', '2024-02-12 10:50:00', '2024-02-12 09:50:00']"
Turkey, Sanliurfa GAP Airport (GNY/LTCS) ,"['LTCS 150850Z 19008KT 170V230 8000 BKN010 10/08 Q1014', 'LTCS 150820Z 19007KT 150V210 8000 BKN007 09/09 Q1015', 'LTCS 150750Z 19007KT 8000 BKN007 08/08 Q1014', 'LTCS 150720Z 19006KT 7000 OVC005 07/07 Q1014', 'LTCS 150650Z 20007KT 1500 R04/1400N R22/0800U BCFG OVC002 07/07 Q1014', 'LTCS 150620Z 19008KT 0300 R04/0200N R22/0250D FG VV001 07/07 Q1014', 'LTCS 150550Z 14006KT 0400 R04/0400N R22/0450D FG VV002 07/07 Q1013', 'LTCS 150520Z 16005KT 0350 R04/0450N R22/0400N FG VV001 07/07 Q1013', 'LTCS 150450Z 18003KT 2000 0700SE R04/P1500D R22/P1500N BCFG BKN008 07/07 Q1013', 'LTCS 150420Z 00000KT 4000 0900SE R04/P1500D R22/P1500N BCFG BKN008 07/07 Q1012', 'LTCS 150350Z 00000KT 1700 BR BKN008 07/07 Q1012', 'LTCS 150320Z 18003KT 0900 R04/0800D R22/0900U FG VV001 07/07 Q1011', 'LTCS 150250Z 00000KT 0600 R04/0650U R22/0900U FG VV001 07/07 Q1011', 'LTCS 150220Z 25001KT 0350 R04/0400N R22/0375N FG VV001 07/07 Q1011', 'LTCS 150150Z 23004KT 0600 R04/0650D R22/0650N FG VV001 07/07 Q1011', 'LTCS 150120Z 20004KT 3500 BR SCT001 BKN025 07/07 Q1010', 'LTCS 150050Z 24003KT 6000 SCT005 BKN025 07/07 Q1010', 'LTCS 150020Z 26004KT 2000 R04/P1500U R22/0900U BCFG SCT001 BKN025 07/07 Q1010', 'LTCS 142350Z 00000KT 4000 R04/0400N R22/P1500N PRFG SCT002 BKN035 07/07 Q1010', 'LTCS 142320Z 25005KT 9999 SCT002 BKN035 07/07 Q1010', 'LTCS 142250Z 22004KT 200V260 9999 SCT002 BKN035 08/08 Q1009', 'LTCS 142220Z VRB01KT 9999 SCT002 BKN035 07/07 Q1009', 'LTCS 142150Z 27005KT 7000 SCT002 BKN035 08/08 Q1009', 'LTCS 142120Z 25005KT 7000 SCT002 BKN035 08/08 Q1009 RESHRA', 'LTCS 142050Z 23004KT 7000 SCT002 BKN035 08/08 Q1009', 'LTCS 142020Z 18004KT 9999 SCT005 BKN035 08/08 Q1009', 'LTCS 141950Z 18005KT 9999 SCT010 BKN035 08/08 Q1009 RESHRA', 'LTCS 141920Z 14005KT 6000 -SHRA SCT001 BKN035 08/08 Q1009', 'LTCS 141850Z 10006KT 6000 SCT001 BKN035 07/07 Q1008', 'LTCS 141820Z 10008KT 9999 SCT010 BKN035 07/07 Q1008 RESHRA', 'LTCS 141750Z 08008KT 9999 -SHRA SCT010 BKN035 07/07 Q1008', 'LTCS 141720Z 05006KT 6000 2000SW -SHRA PRFG SCT002 BKN035 08/08 Q1008', 'LTCS 141650Z 09010KT 2800 0700NW R04/P1500N R22/0800N -TSRA PRFG FEW002 FEW030CB BKN035 08/08 Q1008 RETSRA', 'LTCS 141620Z 08009KT 6000 TSRA FEW030CB BKN035 08/08 Q1008', 'LTCS 141550Z 10006KT 6000 TSRA FEW030CB BKN035 08/08 Q1008', 'LTCS 141520Z 12010KT 6000 -TSRA FEW030CB BKN035 08/08 Q1008 RETSRA', 'LTCS 141450Z 12012KT 4000 TSRA BR FEW030CB BKN035 09/09 Q1008', 'LTCS 141420Z 12015KT 8000 -TSRA FEW020CB BKN025 09/09 Q1008 RETSRA', 'LTCS 141350Z 13014KT 9999 -TSRA FEW020CB BKN025 09/09 Q1008 RESHRA', 'LTCS 141320Z 14014KT 9999 -SHRA FEW005 BKN025 09/09 Q1009', 'LTCS 141250Z 15016KT 7000 -SHRA BKN004 BKN025 10/10 Q1009', 'LTCS 141220Z 14014KT 5000 BR BKN004 BKN025 10/10 Q1009 RESHRA', 'LTCS 141150Z 15014KT 4500 -SHRA BR BKN003 BKN025 10/10 Q1009', 'LTCS 141120Z 16014KT 4600 -SHRA BR BKN003 BKN025 10/10 Q1009', 'LTCS 141050Z 16016KT 4300 -SHRA BR BKN004 BKN025 10/10 Q1010', 'LTCS 141020Z 16016KT 7000 BKN004 BKN025 10/10 Q1010', 'LTCS 140950Z 16016KT 9999 BKN005 BKN025 10/10 Q1010', 'LTCS 140920Z 16020KT 9999 BKN007 BKN025 10/10 Q1010', 'LTCS 140850Z 16019KT 7000 BKN007 BKN025 10/10 Q1011', 'LTCS 140820Z 16016KT 6000 BKN008 BKN025 10/10 Q1011', 'LTCS 140750Z 16013KT 6000 SCT008 BKN025 BKN080 10/10 Q1011', 'LTCS 140720Z 15016KT 7000 SCT010 BKN025 BKN080 10/10 Q1011 RESHRA', 'LTCS 140650Z 15015KT 4000 -SHRA BR SCT010 BKN025 BKN080 10/10 Q1011', 'LTCS 140620Z 18008KT 2000 -SHRA BR SCT010 BKN025 BKN080 09/09 Q1011', 'LTCS 140550Z 16013KT 3000 BR SCT010 BKN025 BKN080 09/09 Q1011', 'LTCS 140450Z 18006KT 130V220 3000 +TSRA BR SCT020CB BKN025 BKN080 08/08 Q1012', 'LTCS 140420Z 24006KT 160V290 3000 TSRA BR FEW020CB BKN025 BKN080 09/09 Q1011', 'LTCS 140350Z 19009KT 150V230 5000 -TSRA BR FEW020CB BKN025 BKN080 09/09 Q1011 RESHRA', 'LTCS 140320Z 13017KT 9999 BKN025 BKN080 09/07 Q1010', 'LTCS 140250Z 14018KT 9999 BKN025 BKN080 09/07 Q1011', 'LTCS 140220Z 14020KT 9999 BKN025 BKN080 09/07 Q1011', 'LTCS 140150Z 14016KT 9999 BKN025 BKN080 09/07 Q1011', 'LTCS 140120Z 14014KT 9999 BKN025 BKN080 09/07 Q1011 RESHRA', 'LTCS 140050Z 14016KT 9999 BKN025 BKN080 10/07 Q1012', 'LTCS 132350Z 15017KT 9999 BKN025 BKN080 10/07 Q1012', 'LTCS 132320Z 15016KT 9999 BKN040 BKN100 10/07 Q1013', 'LTCS 132250Z 15015KT 9999 BKN040 BKN100 10/07 Q1013', 'LTCS 132220Z 15016KT 9999 BKN040 BKN100 10/07 Q1013', 'LTCS 132150Z 15017KT 9999 BKN040 BKN100 11/07 Q1014', 'LTCS 132120Z 15017KT 9999 BKN040 BKN100 11/07 Q1014', 'LTCS 132050Z 14015KT 9999 BKN040 BKN100 11/07 Q1014', 'LTCS 132020Z 13014KT 9999 BKN040 BKN100 11/07 Q1014', 'LTCS 131950Z 13014KT 9999 BKN040 BKN100 10/07 Q1015', 'LTCS 131920Z 12013KT 9999 BKN040 BKN100 10/06 Q1015', 'LTCS 131850Z 12012KT 9999 BKN040 BKN100 10/06 Q1015', 'LTCS 131820Z 12012KT 9999 BKN040 BKN100 11/06 Q1015', 'LTCS 131750Z 13013KT 9999 BKN040 BKN100 11/06 Q1016', 'LTCS 131720Z 13013KT 9999 SCT040 BKN100 BKN200 11/07 Q1015', 'LTCS 131650Z 13013KT 9999 SCT040 BKN100 BKN200 11/07 Q1015', 'LTCS 131620Z 13012KT 9999 SCT040 BKN100 BKN200 11/07 Q1015', 'LTCS 131550Z 13011KT 9999 SCT040 BKN100 BKN200 11/07 Q1016', 'LTCS 131520Z 13011KT 9999 SCT040 BKN100 12/07 Q1015', 'LTCS 131450Z 14011KT 9999 SCT040 BKN100 12/07 Q1016', 'LTCS 131420Z 13011KT 9999 FEW040 SCT100 BKN200 12/06 Q1015', 'LTCS 131350Z 13012KT 9999 FEW040 SCT100 BKN200 13/06 Q1015', 'LTCS 131320Z 13012KT 9999 FEW040 BKN100 BKN200 13/06 Q1016', 'LTCS 131250Z 14014KT CAVOK 13/06 Q1016', 'LTCS 131220Z 13014KT 9999 FEW040 BKN100 BKN200 14/06 Q1015', 'LTCS 131150Z 16013KT 9999 FEW040 BKN100 BKN200 14/06 Q1016', 'LTCS 131120Z 16011KT 9999 FEW040 BKN100 BKN200 14/06 Q1017', 'LTCS 131050Z 16010KT 9999 FEW040 BKN100 BKN200 14/07 Q1017', 'LTCS 131020Z 16012KT 9999 FEW040 BKN100 BKN200 13/07 Q1017', 'LTCS 130950Z 16011KT 9999 FEW040 BKN100 BKN200 13/07 Q1017', 'LTCS 130920Z 15010KT 9999 FEW040 BKN100 BKN200 13/07 Q1018', 'LTCS 130850Z 15011KT 9999 FEW040 BKN100 BKN200 13/07 Q1018', 'LTCS 130820Z 16011KT 9999 FEW040 BKN100 BKN200 13/06 Q1019', 'LTCS 130750Z 15009KT 9999 FEW040 BKN100 BKN200 12/06 Q1019', 'LTCS 130720Z 14011KT 9999 FEW040 BKN100 BKN200 11/06 Q1019', 'LTCS 130650Z 14009KT 9999 FEW040 BKN100 BKN200 11/06 Q1019', 'LTCS 130620Z 13006KT 9999 FEW040 BKN100 BKN200 10/05 Q1019', 'LTCS 130550Z 13007KT 9999 FEW040 BKN100 09/05 Q1019', 'LTCS 130520Z 13007KT 9999 FEW040 SCT100 09/05 Q1019', 'LTCS 130450Z 13008KT 9999 SCT040 BKN100 09/05 Q1019', 'LTCS 130420Z 16005KT 9999 SCT040 BKN100 08/05 Q1019', 'LTCS 130350Z 14006KT 9999 SCT040 BKN100 09/05 Q1019', 'LTCS 130320Z 13008KT 9999 SCT040 BKN100 09/05 Q1019', 'LTCS 130250Z 14008KT 9999 SCT040 BKN100 09/05 Q1019', 'LTCS 130220Z 14007KT 9999 SCT040 BKN100 10/05 Q1019', 'LTCS 130150Z 14008KT 9999 SCT040 BKN100 10/05 Q1019', 'LTCS 130120Z 14007KT 9999 SCT040 BKN100 10/05 Q1019', 'LTCS 130050Z 12008KT 9999 SCT040 BKN100 10/06 Q1019', 'LTCS 130020Z 12008KT 9999 SCT040 BKN100 10/06 Q1020', 'LTCS 122350Z 11008KT 9999 SCT040 BKN100 10/06 Q1020', 'LTCS 122320Z 11008KT 9999 FEW040 SCT200 10/06 Q1020', 'LTCS 122250Z 11008KT 9999 FEW040 SCT200 10/06 Q1020', 'LTCS 122220Z 11007KT 9999 FEW040 SCT200 09/06 Q1020', 'LTCS 122150Z 11006KT 9999 FEW040 SCT200 09/06 Q1020', 'LTCS 122120Z 13006KT 9999 FEW040 SCT200 10/06 Q1020', 'LTCS 122050Z 14005KT 9999 FEW040 SCT200 10/06 Q1021', 'LTCS 122020Z 00000KT 9999 FEW040 BKN100 11/06 Q1021', 'LTCS 121950Z 00000KT 9999 FEW040 BKN100 11/06 Q1021', 'LTCS 121920Z 00000KT 9999 FEW040 BKN100 11/05 Q1021', 'LTCS 121850Z 00000KT 9999 FEW040 BKN100 11/05 Q1021', 'LTCS 121820Z 00000KT 9999 SCT040 BKN100 11/05 Q1021', 'LTCS 121750Z 00000KT 9999 SCT040 BKN100 11/05 Q1021', 'LTCS 121720Z 00000KT 9999 SCT040 BKN100 11/05 Q1021', 'LTCS 121650Z 00000KT 9999 SCT040 BKN100 11/05 Q1021', 'LTCS 121620Z 00000KT 9999 SCT040 BKN100 11/05 Q1021', 'LTCS 121550Z VRB01KT 9999 SCT040 BKN100 11/06 Q1021', 'LTCS 121520Z 16003KT 9999 SCT040 BKN100 12/06 Q1021', 'LTCS 121450Z 18003KT 9999 SCT040 BKN100 12/06 Q1021', 'LTCS 121420Z 21006KT 9999 SCT040 SCT100 13/06 Q1021', 'LTCS 121350Z 18007KT 9999 SCT040 SCT100 14/04 Q1021', 'LTCS 121320Z 19009KT 9999 SCT040 SCT100 14/04 Q1021', 'LTCS 121250Z 18007KT 9999 SCT040 SCT100 15/04 Q1021', 'LTCS 121220Z 14007KT 120V180 9999 SCT040 SCT100 15/04 Q1021', 'LTCS 121150Z 22005KT 170V260 9999 SCT040 SCT100 15/04 Q1021', 'LTCS 121120Z 23005KT 200V290 9999 SCT040 SCT100 16/04 Q1022', 'LTCS 121050Z 19004KT 100V260 9999 SCT040 BKN100 15/04 Q1022', 'LTCS 121020Z VRB03KT 9999 SCT040 BKN100 15/04 Q1023', 'LTCS 120950Z VRB04KT 9999 FEW040 BKN100 15/05 Q1023']","['2024-02-15 08:50:00', '2024-02-15 08:20:00', '2024-02-15 07:50:00', '2024-02-15 07:20:00', '2024-02-15 06:50:00', '2024-02-15 06:20:00', '2024-02-15 05:50:00', '2024-02-15 05:20:00', '2024-02-15 04:50:00', '2024-02-15 04:20:00', '2024-02-15 03:50:00', '2024-02-15 03:20:00', '2024-02-15 02:50:00', '2024-02-15 02:20:00', '2024-02-15 01:50:00', '2024-02-15 01:20:00', '2024-02-15 00:50:00', '2024-02-15 00:20:00', '2024-02-14 23:50:00', '2024-02-14 23:20:00', '2024-02-14 22:50:00', '2024-02-14 22:20:00', '2024-02-14 21:50:00', '2024-02-14 21:20:00', '2024-02-14 20:50:00', '2024-02-14 20:20:00', '2024-02-14 19:50:00', '2024-02-14 19:20:00', '2024-02-14 18:50:00', '2024-02-14 18:20:00', '2024-02-14 17:50:00', '2024-02-14 17:20:00', '2024-02-14 16:50:00', '2024-02-14 16:20:00', '2024-02-14 15:50:00', '2024-02-14 15:20:00', '2024-02-14 14:50:00', '2024-02-14 14:20:00', '2024-02-14 13:50:00', '2024-02-14 13:20:00', '2024-02-14 12:50:00', '2024-02-14 12:20:00', '2024-02-14 11:50:00', '2024-02-14 11:20:00', '2024-02-14 10:50:00', '2024-02-14 10:20:00', '2024-02-14 09:50:00', '2024-02-14 09:20:00', '2024-02-14 08:50:00', '2024-02-14 08:20:00', '2024-02-14 07:50:00', '2024-02-14 07:20:00', '2024-02-14 06:50:00', '2024-02-14 06:20:00', '2024-02-14 05:50:00', '2024-02-14 04:50:00', '2024-02-14 04:20:00', '2024-02-14 03:50:00', '2024-02-14 03:20:00', '2024-02-14 02:50:00', '2024-02-14 02:20:00', '2024-02-14 01:50:00', '2024-02-14 01:20:00', '2024-02-14 00:50:00', '2024-02-13 23:50:00', '2024-02-13 23:20:00', '2024-02-13 22:50:00', '2024-02-13 22:20:00', '2024-02-13 21:50:00', '2024-02-13 21:20:00', '2024-02-13 20:50:00', '2024-02-13 20:20:00', '2024-02-13 19:50:00', '2024-02-13 19:20:00', '2024-02-13 18:50:00', '2024-02-13 18:20:00', '2024-02-13 17:50:00', '2024-02-13 17:20:00', '2024-02-13 16:50:00', '2024-02-13 16:20:00', '2024-02-13 15:50:00', '2024-02-13 15:20:00', '2024-02-13 14:50:00', '2024-02-13 14:20:00', '2024-02-13 13:50:00', '2024-02-13 13:20:00', '2024-02-13 12:50:00', '2024-02-13 12:20:00', '2024-02-13 11:50:00', '2024-02-13 11:20:00', '2024-02-13 10:50:00', '2024-02-13 10:20:00', '2024-02-13 09:50:00', '2024-02-13 09:20:00', '2024-02-13 08:50:00', '2024-02-13 08:20:00', '2024-02-13 07:50:00', '2024-02-13 07:20:00', '2024-02-13 06:50:00', '2024-02-13 06:20:00', '2024-02-13 05:50:00', '2024-02-13 05:20:00', '2024-02-13 04:50:00', '2024-02-13 04:20:00', '2024-02-13 03:50:00', '2024-02-13 03:20:00', '2024-02-13 02:50:00', '2024-02-13 02:20:00', '2024-02-13 01:50:00', '2024-02-13 01:20:00', '2024-02-13 00:50:00', '2024-02-13 00:20:00', '2024-02-12 23:50:00', '2024-02-12 23:20:00', '2024-02-12 22:50:00', '2024-02-12 22:20:00', '2024-02-12 21:50:00', '2024-02-12 21:20:00', '2024-02-12 20:50:00', '2024-02-12 20:20:00', '2024-02-12 19:50:00', '2024-02-12 19:20:00', '2024-02-12 18:50:00', '2024-02-12 18:20:00', '2024-02-12 17:50:00', '2024-02-12 17:20:00', '2024-02-12 16:50:00', '2024-02-12 16:20:00', '2024-02-12 15:50:00', '2024-02-12 15:20:00', '2024-02-12 14:50:00', '2024-02-12 14:20:00', '2024-02-12 13:50:00', '2024-02-12 13:20:00', '2024-02-12 12:50:00', '2024-02-12 12:20:00', '2024-02-12 11:50:00', '2024-02-12 11:20:00', '2024-02-12 10:50:00', '2024-02-12 10:20:00', '2024-02-12 09:50:00']"
Turkey, Siirt Airport (SXZ/LTCL) ,"['LTCL 150850Z 20005KT 150V260 9999 SCT040 BKN100 15/08 Q1015', 'LTCL 150750Z 25004KT 9000 SCT040 BKN100 14/08 Q1016', 'LTCL 150650Z VRB01KT 9000 SCT040 BKN100 13/09 Q1016', 'LTCL 150550Z 27003KT 210V300 9000 SCT040 BKN100 11/09 Q1015', 'LTCL 150450Z VRB01KT 9000 SCT040 BKN100 09/09 Q1014', 'LTCL 150350Z VRB01KT 9000 SCT040 BKN100 09/08 Q1014', 'LTCL 141250Z 31005KT 9999 SCT035 BKN080 12/08 Q1013', 'LTCL 141150Z VRB01KT 9999 SCT035 BKN080 12/08 Q1013', 'LTCL 141050Z 21002KT 9000 SCT035 BKN080 12/09 Q1013', 'LTCL 140950Z VRB03KT 9000 SCT035 BKN080 13/09 Q1013', 'LTCL 140850Z VRB02KT 9000 SCT035 BKN080 12/08 Q1014 RESHRA', 'LTCL 140750Z VRB01KT 9999 SCT040 BKN100 11/08 Q1015', 'LTCL 140650Z 05002KT 9999 SCT040 BKN100 11/09 Q1015', 'LTCL 140550Z 25001KT 9999 SCT040 BKN100 09/08 Q1015', 'LTCL 140450Z 26005KT 240V030 9999 SCT040 BKN100 09/08 Q1015', 'LTCL 140350Z VRB02KT 9000 SCT040 BKN100 08/08 Q1015', 'LTCL 131250Z VRB02KT 9999 FEW040 SCT100 BKN200 16/05 Q1018', 'LTCL 131150Z VRB02KT 9999 FEW040 SCT100 BKN200 17/04 Q1018', 'LTCL 131050Z VRB01KT 9999 FEW040 SCT100 BKN200 16/05 Q1018', 'LTCL 130950Z 00000KT CAVOK 16/05 Q1019', 'LTCL 130850Z 25004KT 210V310 CAVOK 13/04 Q1020', 'LTCL 130750Z 25004KT CAVOK 11/07 Q1020', 'LTCL 130650Z VRB02KT CAVOK 11/05 Q1021', 'LTCL 130550Z 25003KT 200V270 CAVOK 08/06 Q1022', 'LTCL 130450Z 00000KT CAVOK 04/04 Q1022', 'LTCL 130350Z 00000KT CAVOK 03/03 Q1021', 'LTCL 121250Z 28003KT 250V310 CAVOK 17/05 Q1022', 'LTCL 121150Z 25003KT 200V340 CAVOK 17/04 Q1022', 'LTCL 121050Z VRB02KT CAVOK 17/04 Q1023', 'LTCL 120950Z VRB02KT CAVOK 15/04 Q1024']","['2024-02-15 08:50:00', '2024-02-15 07:50:00', '2024-02-15 06:50:00', '2024-02-15 05:50:00', '2024-02-15 04:50:00', '2024-02-15 03:50:00', '2024-02-14 12:50:00', '2024-02-14 11:50:00', '2024-02-14 10:50:00', '2024-02-14 09:50:00', '2024-02-14 08:50:00', '2024-02-14 07:50:00', '2024-02-14 06:50:00', '2024-02-14 05:50:00', '2024-02-14 04:50:00', '2024-02-14 03:50:00', '2024-02-13 12:50:00', '2024-02-13 11:50:00', '2024-02-13 10:50:00', '2024-02-13 09:50:00', '2024-02-13 08:50:00', '2024-02-13 07:50:00', '2024-02-13 06:50:00', '2024-02-13 05:50:00', '2024-02-13 04:50:00', '2024-02-13 03:50:00', '2024-02-12 12:50:00', '2024-02-12 11:50:00', '2024-02-12 10:50:00', '2024-02-12 09:50:00']"
Turkey, Sinop Airport (NOP/LTCM) ,"['LTCM 150850Z 28013KT 8000 -RA BKN007 BKN050 10/09 Q1012', 'LTCM 150750Z 28016KT 9000 -RA BKN007 BKN060 10/09 Q1012 RESHRA', 'LTCM 150650Z 28016KT 8000 -SHRA BKN007 SCT025 BKN060 10/09 Q1012', 'LTCM 150550Z 27013KT 8000 -SHRA BKN009 SCT025 BKN060 10/09 Q1012', 'LTCM 150450Z 28013KT 9999 -SHRA SCT009 SCT027 BKN070 10/08 Q1011', 'LTCM 141250Z 29011KT 9999 SCT011 BKN090 11/08 Q1011', 'LTCM 141150Z 29011KT 9999 SCT011 BKN090 11/08 Q1011', 'LTCM 141050Z 29009KT 9999 SCT011 BKN090 11/09 Q1011', 'LTCM 140950Z 30008KT 9999 SCT011 BKN100 11/08 Q1012', 'LTCM 140850Z 30007KT 9999 SCT011 BKN100 11/08 Q1012', 'LTCM 140750Z 29009KT 9999 SCT010 BKN090 12/09 Q1012', 'LTCM 140650Z 29011KT 9999 SCT011 BKN200 11/08 Q1012', 'LTCM 140550Z 29007KT 260V320 9999 FEW036 BKN200 11/08 Q1012', 'LTCM 140450Z 27004KT 9999 FEW036 BKN200 10/07 Q1011', 'LTCM 131550Z 26008KT 9999 FEW030 BKN090 13/07 Q1010', 'LTCM 131450Z 27015KT 9999 SCT030 BKN100 14/06 Q1009', 'LTCM 131350Z 26016KT 230V290 9999 FEW030 SCT200 15/07 Q1009', 'LTCM 131250Z VRB04KT 9999 FEW030 SCT200 18/07 Q1008', 'LTCM 131150Z 13010KT 9999 FEW030 SCT200 18/06 Q1008', 'LTCM 131050Z 16007KT 120V190 9999 FEW030 SCT090 BKN200 17/06 Q1008', 'LTCM 130950Z 15009KT 120V180 9999 FEW030 SCT090 BKN200 17/06 Q1008', 'LTCM 130850Z 14009KT 9999 FEW030 SCT090 BKN200 18/05 Q1009', 'LTCM 130750Z 15006KT 9999 FEW030 SCT090 BKN200 18/05 Q1009', 'LTCM 130650Z 16003KT 120V200 9999 FEW033 BKN100 14/08 Q1010', 'LTCM 130550Z 14004KT 9999 FEW033 BKN100 16/05 Q1010', 'LTCM 121150Z 10005KT 020V150 CAVOK 21/08 Q1011', 'LTCM 121050Z 09004KT 060V140 CAVOK 22/03 Q1013', 'LTCM 120950Z 05005KT CAVOK 20/08 Q1013']","['2024-02-15 08:50:00', '2024-02-15 07:50:00', '2024-02-15 06:50:00', '2024-02-15 05:50:00', '2024-02-15 04:50:00', '2024-02-14 12:50:00', '2024-02-14 11:50:00', '2024-02-14 10:50:00', '2024-02-14 09:50:00', '2024-02-14 08:50:00', '2024-02-14 07:50:00', '2024-02-14 06:50:00', '2024-02-14 05:50:00', '2024-02-14 04:50:00', '2024-02-13 15:50:00', '2024-02-13 14:50:00', '2024-02-13 13:50:00', '2024-02-13 12:50:00', '2024-02-13 11:50:00', '2024-02-13 10:50:00', '2024-02-13 09:50:00', '2024-02-13 08:50:00', '2024-02-13 07:50:00', '2024-02-13 06:50:00', '2024-02-13 05:50:00', '2024-02-12 11:50:00', '2024-02-12 10:50:00', '2024-02-12 09:50:00']"
Turkey, Sirnak Airport (NKT/LTCV) ,"['LTCV 150850Z 11003KT 340V150 9999 SCT035 BKN090 13/08 Q1015', 'LTCV 150750Z 11007KT 9999 SCT035 BKN090 12/08 Q1015', 'LTCV 150650Z 11008KT 9999 SCT035 BKN090 11/08 Q1015', 'LTCV 150550Z 13010KT 9999 SCT035 BKN090 10/07 Q1015', 'LTCV 150450Z 11005KT 9999 FEW009 BKN030 BKN090 09/07 Q1014 RESHRA', 'LTCV 150350Z 12008KT 4000 -SHRA BR SCT009 BKN030 BKN090 09/08 Q1014', 'LTCV 150250Z 13009KT 4000 -SHRA BR SCT009 BKN030 BKN090 09/08 Q1013', 'LTCV 150150Z 13009KT 4000 -SHRA BR SCT009 BKN030 BKN090 09/08 Q1013', 'LTCV 150050Z 12007KT 4000 -SHRA BR SCT009 BKN030 BKN090 09/09 Q1012', 'LTCV 142350Z 08009KT 4000 -SHRA BR SCT009 BKN030 BKN090 10/09 Q1012', 'LTCV 142250Z 09015KT 4000 -SHRA BR SCT009 BKN030 BKN090 11/09 Q1012', 'LTCV 142150Z 08015KT 4000 -SHRA BR SCT009 BKN030 BKN090 10/10 Q1012', 'LTCV 142050Z 10018KT 4000 -SHRA BR SCT009 BKN030 BKN090 09/09 Q1012', 'LTCV 141950Z 11014KT 4000 -SHRA BR SCT009 BKN030 BKN090 09/09 Q1011', 'LTCV 141850Z 09018KT 4000 -SHRA BR SCT009 BKN030 BKN090 09/08 Q1012', 'LTCV 141750Z 10017KT 3500 -SHRA BR SCT009 BKN030 BKN090 09/08 Q1012 RESHRA', 'LTCV 141650Z 09020KT 2100 SHRA BR SCT009 BKN030 BKN090 09/08 Q1012', 'LTCV 141550Z 09018G28KT 4000 -SHRA BR FEW009 BKN030 BKN090 10/08 Q1012', 'LTCV 141450Z 09017KT 4000 -SHRA BR FEW009 BKN030 BKN090 11/08 Q1012', 'LTCV 141350Z 09014KT 4000 -SHRA BR FEW009 BKN030 BKN090 11/09 Q1012', 'LTCV 141250Z 09018KT 4000 BR FEW009 BKN030 BKN090 11/10 Q1012 RESHRA', 'LTCV 141150Z 09019KT 3500 -SHRA BR FEW009 BKN030 BKN090 11/10 Q1012', 'LTCV 141050Z 09020KT 3400 BR FEW009 BKN030 BKN090 11/10 Q1012 RESHRA', 'LTCV 140950Z 08022KT 2000 -SHRA BR FEW007 BKN030 BKN090 11/11 Q1013', 'LTCV 140850Z 08015KT 2400 -SHRA BR FEW005 SCT030 BKN090 11/10 Q1014 RESHRA', 'LTCV 140750Z 11017KT 3500 -SHRA BR FEW011 SCT030 BKN090 11/10 Q1015 RESHRA', 'LTCV 140650Z 12019KT 8000 SCT030 BKN090 12/08 Q1015 RESHRA', 'LTCV 140550Z 13012KT 9999 -SHRA SCT030 BKN090 12/07 Q1015', 'LTCV 140350Z 13007KT 9999 SCT035 BKN100 11/06 Q1015', 'LTCV 140250Z 10008KT 9999 SCT035 BKN100 12/06 Q1014', 'LTCV 140150Z 11007KT 9999 SCT035 BKN100 12/05 Q1015', 'LTCV 140050Z 13006KT 9999 SCT035 BKN100 11/06 Q1015', 'LTCV 132350Z 09008KT 9999 SCT035 BKN100 12/05 Q1015', 'LTCV 132250Z 07008KT 9999 SCT035 BKN100 11/06 Q1016 RESHRA', 'LTCV 132150Z 12007KT 9999 SCT035 BKN100 12/05 Q1016', 'LTCV 132050Z 11005KT 9999 FEW035 SCT100 BKN180 11/06 Q1016', 'LTCV 131950Z 09007KT 9999 FEW035 SCT100 BKN180 11/06 Q1017', 'LTCV 131850Z 12006KT 9999 FEW035 SCT100 BKN180 11/07 Q1017', 'LTCV 131750Z 12007KT 9999 FEW035 SCT100 BKN180 12/07 Q1017', 'LTCV 131650Z 11005KT 9999 FEW035 SCT100 BKN180 11/07 Q1017', 'LTCV 131550Z 10007KT 9999 FEW035 SCT100 BKN180 12/07 Q1017', 'LTCV 131450Z 10007KT CAVOK 12/07 Q1017', 'LTCV 131350Z 08006KT CAVOK 14/08 Q1017', 'LTCV 131250Z 10008KT CAVOK 15/07 Q1017', 'LTCV 131150Z 11009KT CAVOK 17/07 Q1017', 'LTCV 131050Z 11005KT 070V140 CAVOK 16/06 Q1018', 'LTCV 130950Z 11006KT CAVOK 15/06 Q1018', 'LTCV 130850Z 11008KT CAVOK 15/03 Q1019', 'LTCV 130750Z 11007KT CAVOK 14/03 Q1020', 'LTCV 130650Z VRB02KT CAVOK 12/06 Q1020', 'LTCV 130550Z 24005KT CAVOK 10/06 Q1020', 'LTCV 130450Z 24007KT //// NSC 07/05 Q1020', 'LTCV 130350Z 25007KT CAVOK 06/04 Q1020', 'LTCV 130250Z 25005KT CAVOK 06/04 Q1020', 'LTCV 130150Z 24009KT CAVOK 08/05 Q1020', 'LTCV 130050Z 24010KT CAVOK 08/05 Q1020', 'LTCV 122350Z 25008KT CAVOK 08/05 Q1020', 'LTCV 122250Z 24006KT CAVOK 08/06 Q1021', 'LTCV 122150Z 25007KT CAVOK 08/06 Q1021', 'LTCV 122050Z 25006KT CAVOK 08/06 Q1021', 'LTCV 121950Z 24008KT CAVOK 09/06 Q1021', 'LTCV 121850Z 23006KT CAVOK 09/06 Q1021', 'LTCV 121750Z 24005KT CAVOK 09/05 Q1021', 'LTCV 121650Z 24006KT CAVOK 10/05 Q1021', 'LTCV 121550Z VRB02KT CAVOK 12/05 Q1021', 'LTCV 121450Z 13003KT CAVOK 15/06 Q1021', 'LTCV 121350Z 14003KT 100V170 CAVOK 18/04 Q1021', 'LTCV 121250Z 15003KT 100V200 CAVOK 19/04 Q1021', 'LTCV 121150Z 04004KT 360V120 CAVOK 19/06 Q1021', 'LTCV 121050Z 04004KT 350V090 CAVOK 18/05 Q1021', 'LTCV 120950Z 33003KT 280V050 CAVOK 18/04 Q1022']","['2024-02-15 08:50:00', '2024-02-15 07:50:00', '2024-02-15 06:50:00', '2024-02-15 05:50:00', '2024-02-15 04:50:00', '2024-02-15 03:50:00', '2024-02-15 02:50:00', '2024-02-15 01:50:00', '2024-02-15 00:50:00', '2024-02-14 23:50:00', '2024-02-14 22:50:00', '2024-02-14 21:50:00', '2024-02-14 20:50:00', '2024-02-14 19:50:00', '2024-02-14 18:50:00', '2024-02-14 17:50:00', '2024-02-14 16:50:00', '2024-02-14 15:50:00', '2024-02-14 14:50:00', '2024-02-14 13:50:00', '2024-02-14 12:50:00', '2024-02-14 11:50:00', '2024-02-14 10:50:00', '2024-02-14 09:50:00', '2024-02-14 08:50:00', '2024-02-14 07:50:00', '2024-02-14 06:50:00', '2024-02-14 05:50:00', '2024-02-14 03:50:00', '2024-02-14 02:50:00', '2024-02-14 01:50:00', '2024-02-14 00:50:00', '2024-02-13 23:50:00', '2024-02-13 22:50:00', '2024-02-13 21:50:00', '2024-02-13 20:50:00', '2024-02-13 19:50:00', '2024-02-13 18:50:00', '2024-02-13 17:50:00', '2024-02-13 16:50:00', '2024-02-13 15:50:00', '2024-02-13 14:50:00', '2024-02-13 13:50:00', '2024-02-13 12:50:00', '2024-02-13 11:50:00', '2024-02-13 10:50:00', '2024-02-13 09:50:00', '2024-02-13 08:50:00', '2024-02-13 07:50:00', '2024-02-13 06:50:00', '2024-02-13 05:50:00', '2024-02-13 04:50:00', '2024-02-13 03:50:00', '2024-02-13 02:50:00', '2024-02-13 01:50:00', '2024-02-13 00:50:00', '2024-02-12 23:50:00', '2024-02-12 22:50:00', '2024-02-12 21:50:00', '2024-02-12 20:50:00', '2024-02-12 19:50:00', '2024-02-12 18:50:00', '2024-02-12 17:50:00', '2024-02-12 16:50:00', '2024-02-12 15:50:00', '2024-02-12 14:50:00', '2024-02-12 13:50:00', '2024-02-12 12:50:00', '2024-02-12 11:50:00', '2024-02-12 10:50:00', '2024-02-12 09:50:00']"
Turkey, Sivas Nuri Demirag Airport (VAS/LTAR) ,"['LTAR 150850Z 17007KT 9999 SCT030 BKN080 03/02 Q1012', 'LTAR 150750Z 19006KT 9999 SCT010 BKN030 BKN080 03/02 Q1011', 'LTAR 150650Z 17008KT 8000 SCT001 BKN030 BKN080 01/01 Q1011 RERA', 'LTAR 150613Z 16005KT 3000 0650SE R01/0650D R19/P1500N -RA BCFG BKN001 BKN025 OVC080 00/00 Q1011 RERASN', 'LTAR 150550Z 16005KT 8000 -RASN SCT001 BKN025 OVC080 00/M00 Q1011 RESN', 'LTAR 150450Z 17007KT 3100 -SN SCT003 BKN025 OVC080 00/M00 Q1010', 'LTAR 150350Z 16008KT 4000 -SN BR SCT005 BKN025 OVC080 00/00 Q1009', 'LTAR 150250Z 12002KT 6000 -RASN SCT005 BKN025 OVC080 00/00 Q1009', 'LTAR 150150Z 11004KT 6000 -RASN SCT005 BKN025 OVC080 00/M00 Q1008', 'LTAR 150050Z 13004KT 6000 -RA SCT005 BKN025 OVC080 01/01 Q1008', 'LTAR 142350Z 13004KT 6000 -RA SCT005 BKN025 OVC080 02/01 Q1009', 'LTAR 142250Z 11007KT 6000 -RA SCT007 BKN025 OVC080 02/02 Q1009', 'LTAR 142150Z 10010KT 6000 -RA SCT007 BKN025 OVC080 03/02 Q1009', 'LTAR 142050Z 14008KT 8000 -RA SCT010 BKN025 BKN080 03/02 Q1009', 'LTAR 141950Z 11010KT 9999 -RA SCT010 BKN025 BKN080 04/02 Q1009', 'LTAR 141850Z 11011KT 9999 -RA SCT010 BKN025 BKN080 03/02 Q1009', 'LTAR 141815Z 10010KT 9999 -RA SCT010 BKN025 BKN080 03/02 Q1009', 'LTAR 141750Z 11013KT 9999 SCT015 BKN025 BKN080 04/02 Q1009', 'LTAR 141650Z 09008KT 9999 SCT015 BKN025 BKN080 03/02 Q1009', 'LTAR 141550Z 12013KT 9999 SCT015 BKN025 BKN080 04/01 Q1009', 'LTAR 141450Z 10014KT 9999 SCT015 BKN025 BKN080 05/02 Q1009', 'LTAR 141350Z 12014KT 9999 SCT015 BKN025 BKN080 05/02 Q1009', 'LTAR 141250Z 10012KT 9999 SCT015 BKN025 BKN080 06/03 Q1009 RESHRA', 'LTAR 141150Z 13013KT 9999 -SHRA SCT015 BKN025 BKN080 06/03 Q1009', 'LTAR 141126Z 14013KT 9999 -SHRA SCT015 BKN025 BKN080 06/03 Q1009', 'LTAR 141050Z 12013KT 9999 SCT015 BKN025 BKN080 06/02 Q1009', 'LTAR 140950Z 11011KT 9999 SCT010 BKN025 BKN080 06/04 Q1010 RESHRA', 'LTAR 140850Z 12014KT 9999 -SHRA SCT005 BKN025 BKN080 05/04 Q1010', 'LTAR 140750Z 12013KT 6000 -SHRA SCT005 BKN025 BKN080 04/03 Q1011 RESHRA', 'LTAR 140730Z 12014KT 2000 SHRA BR SCT005 BKN025 BKN080 03/03 Q1011', 'LTAR 140650Z 12011KT 7000 -SHRA SCT010 BKN025 BKN080 03/03 Q1011', 'LTAR 140625Z 11012KT 5000 -SHRA BR SCT010 BKN025 BKN080 03/02 Q1011', 'LTAR 140550Z 12012KT 9000 -SHRA SCT010 BKN025 BKN080 03/02 Q1011', 'LTAR 140450Z 14014KT 9999 SCT010 BKN025 BKN080 04/02 Q1010 RESHRA', 'LTAR 140350Z 13015KT 9999 -SHRA SCT010 BKN025 BKN080 04/02 Q1010', 'LTAR 140250Z 11012KT 9999 SCT010 BKN025 BKN080 04/02 Q1010', 'LTAR 140150Z 11012KT 9999 SCT010 BKN025 BKN080 04/02 Q1010', 'LTAR 140050Z 12010KT 9999 SCT010 BKN025 BKN080 04/02 Q1011', 'LTAR 132350Z 12008KT 9999 SCT010 BKN025 BKN080 04/02 Q1012', 'LTAR 132250Z 15007KT 9999 SCT010 BKN025 BKN080 04/02 Q1012', 'LTAR 132150Z 15014KT 9999 SCT010 BKN025 BKN080 05/02 Q1013 RESHRA', 'LTAR 132050Z 16016KT 9999 -SHRA SCT010 BKN025 BKN080 05/02 Q1013', 'LTAR 131950Z 15012KT 9999 -SHRA SCT010 BKN025 BKN080 05/03 Q1014', 'LTAR 131850Z 16011KT 8000 -SHRA SCT010 BKN025 BKN080 05/03 Q1014', 'LTAR 131750Z 14009KT 9999 -SHRA SCT010 BKN025 BKN080 05/03 Q1014', 'LTAR 131650Z 15010KT 9999 -SHRA SCT012 BKN025 BKN080 05/03 Q1014', 'LTAR 131550Z 15012KT 9999 SCT012 BKN025 BKN080 05/03 Q1014', 'LTAR 131450Z 17015KT 9999 SCT012 BKN025 BKN080 05/03 Q1014', 'LTAR 131350Z 17017KT 9999 BKN030 BKN080 06/03 Q1014', 'LTAR 131250Z 17022KT 9999 BKN030 BKN080 07/03 Q1014', 'LTAR 131150Z 17024KT 9999 BKN030 BKN080 08/02 Q1014', 'LTAR 131050Z 17021KT 9999 BKN030 BKN080 08/02 Q1014', 'LTAR 130950Z 17023KT 9999 BKN030 BKN080 08/02 Q1014', 'LTAR 130850Z 16022KT 9999 BKN030 BKN080 07/02 Q1015', 'LTAR 130750Z 16019KT 9999 BKN030 BKN080 07/02 Q1016', 'LTAR 130650Z 16022KT 9999 BKN030 BKN080 06/01 Q1015', 'LTAR 130550Z 17014KT 9999 BKN030 BKN080 05/01 Q1016', 'LTAR 130450Z 18018KT 9999 SCT035 BKN100 05/M00 Q1016', 'LTAR 130350Z 14009KT 9999 SCT035 BKN100 04/M01 Q1016', 'LTAR 130250Z 15014KT 9999 FEW035 BKN100 05/M01 Q1017', 'LTAR 130150Z 16017KT CAVOK 05/M01 Q1016', 'LTAR 130050Z 16017KT CAVOK 05/M01 Q1017', 'LTAR 122350Z 16016KT CAVOK 04/M01 Q1017', 'LTAR 122250Z 15013KT CAVOK 04/M00 Q1018', 'LTAR 122150Z 15015KT CAVOK 04/00 Q1018', 'LTAR 122050Z 13011KT CAVOK 04/00 Q1018', 'LTAR 121950Z 13010KT CAVOK 04/M00 Q1019', 'LTAR 121850Z 16017KT CAVOK 06/00 Q1019', 'LTAR 121750Z 16017KT CAVOK 06/00 Q1019', 'LTAR 121650Z 18012KT CAVOK 05/M01 Q1019', 'LTAR 121550Z 16010KT CAVOK 06/M01 Q1019', 'LTAR 121450Z 17012KT CAVOK 06/00 Q1018', 'LTAR 121350Z 17014KT CAVOK 08/00 Q1018', 'LTAR 121250Z 18015KT CAVOK 08/M00 Q1019', 'LTAR 121150Z 15010KT CAVOK 10/M00 Q1019', 'LTAR 121050Z 15011KT CAVOK 09/M01 Q1020', 'LTAR 120950Z 15011KT CAVOK 09/M01 Q1021']","['2024-02-15 08:50:00', '2024-02-15 07:50:00', '2024-02-15 06:50:00', '2024-02-15 06:13:00', '2024-02-15 05:50:00', '2024-02-15 04:50:00', '2024-02-15 03:50:00', '2024-02-15 02:50:00', '2024-02-15 01:50:00', '2024-02-15 00:50:00', '2024-02-14 23:50:00', '2024-02-14 22:50:00', '2024-02-14 21:50:00', '2024-02-14 20:50:00', '2024-02-14 19:50:00', '2024-02-14 18:50:00', '2024-02-14 18:15:00', '2024-02-14 17:50:00', '2024-02-14 16:50:00', '2024-02-14 15:50:00', '2024-02-14 14:50:00', '2024-02-14 13:50:00', '2024-02-14 12:50:00', '2024-02-14 11:50:00', '2024-02-14 11:26:00', '2024-02-14 10:50:00', '2024-02-14 09:50:00', '2024-02-14 08:50:00', '2024-02-14 07:50:00', '2024-02-14 07:30:00', '2024-02-14 06:50:00', '2024-02-14 06:25:00', '2024-02-14 05:50:00', '2024-02-14 04:50:00', '2024-02-14 03:50:00', '2024-02-14 02:50:00', '2024-02-14 01:50:00', '2024-02-14 00:50:00', '2024-02-13 23:50:00', '2024-02-13 22:50:00', '2024-02-13 21:50:00', '2024-02-13 20:50:00', '2024-02-13 19:50:00', '2024-02-13 18:50:00', '2024-02-13 17:50:00', '2024-02-13 16:50:00', '2024-02-13 15:50:00', '2024-02-13 14:50:00', '2024-02-13 13:50:00', '2024-02-13 12:50:00', '2024-02-13 11:50:00', '2024-02-13 10:50:00', '2024-02-13 09:50:00', '2024-02-13 08:50:00', '2024-02-13 07:50:00', '2024-02-13 06:50:00', '2024-02-13 05:50:00', '2024-02-13 04:50:00', '2024-02-13 03:50:00', '2024-02-13 02:50:00', '2024-02-13 01:50:00', '2024-02-13 00:50:00', '2024-02-12 23:50:00', '2024-02-12 22:50:00', '2024-02-12 21:50:00', '2024-02-12 20:50:00', '2024-02-12 19:50:00', '2024-02-12 18:50:00', '2024-02-12 17:50:00', '2024-02-12 16:50:00', '2024-02-12 15:50:00', '2024-02-12 14:50:00', '2024-02-12 13:50:00', '2024-02-12 12:50:00', '2024-02-12 11:50:00', '2024-02-12 10:50:00', '2024-02-12 09:50:00']"
Turkey, Tekirdag Corlu Airport (TEQ/LTBU) ,"['LTBU 150850Z 35016KT 8000 -RA BKN030 BKN080 05/03 Q1018', 'LTBU 150820Z 36017KT 8000 -RA BKN025 BKN080 05/03 Q1017', 'LTBU 150750Z 36017KT 8000 -RA BKN025 BKN080 05/03 Q1017', 'LTBU 150720Z 36017KT 8000 -RA BKN025 BKN080 05/02 Q1017', 'LTBU 150650Z 36016KT 8000 -RA BKN017 BKN080 05/02 Q1017', 'LTBU 150620Z 36015KT 9999 BKN017 BKN080 05/02 Q1017', 'LTBU 150550Z 36013KT 9999 BKN020 BKN080 05/02 Q1017', 'LTBU 150520Z 36014KT 9999 BKN017 BKN080 05/02 Q1017', 'LTBU 150450Z 36016KT 9999 BKN017 BKN080 05/02 Q1016', 'LTBU 150420Z 35017KT 9999 BKN017 BKN040 06/02 Q1016', 'LTBU 150350Z 35015KT 9999 BKN017 BKN040 06/02 Q1016', 'LTBU 150320Z 35016KT 9999 BKN017 BKN040 06/02 Q1016', 'LTBU 150250Z 35014KT 9999 BKN017 BKN040 06/02 Q1016', 'LTBU 150220Z 35017KT 9999 BKN015 BKN040 06/02 Q1016', 'LTBU 150150Z 01018KT 9999 BKN013 06/03 Q1016', 'LTBU 150120Z 36017KT 9999 BKN013 06/03 Q1016', 'LTBU 150050Z 36016KT 9999 BKN015 06/03 Q1016', 'LTBU 150020Z 36020KT 9999 BKN015 06/03 Q1016', 'LTBU 142350Z 01016KT 9999 BKN015 06/03 Q1016', 'LTBU 142320Z 36017KT 9999 BKN015 06/03 Q1016', 'LTBU 142250Z 36016KT 9999 BKN015 06/03 Q1016', 'LTBU 142220Z 01014KT 9999 BKN015 06/04 Q1016', 'LTBU 142150Z 36016KT 9999 BKN015 06/04 Q1016', 'LTBU 142120Z 36017KT 9999 BKN015 06/04 Q1016', 'LTBU 142050Z 01017KT 9999 BKN017 07/03 Q1016', 'LTBU 142020Z 01018KT 9999 BKN017 07/03 Q1016', 'LTBU 141950Z 01018KT 9999 SCT017 BKN026 07/03 Q1016', 'LTBU 141920Z 01017KT 9999 BKN026 07/03 Q1016', 'LTBU 141850Z 36018KT 9999 FEW016 BKN026 BKN070 07/03 Q1016', 'LTBU 141820Z 36019KT 9999 FEW016 BKN030 BKN070 07/03 Q1016', 'LTBU 141750Z 01020KT 9999 FEW018 BKN030 BKN080 07/03 Q1015', 'LTBU 141720Z 01018KT 9999 SCT018 BKN080 07/03 Q1015', 'LTBU 141650Z 01018KT 9999 SCT020 BKN080 07/04 Q1015', 'LTBU 141620Z 36020KT 9999 BKN020 BKN080 07/04 Q1015', 'LTBU 141550Z 36019KT 9999 BKN019 BKN080 07/04 Q1015', 'LTBU 141520Z 02022KT 9999 BKN019 BKN100 07/04 Q1014', 'LTBU 141450Z 01019KT 9999 BKN019 BKN100 08/04 Q1014', 'LTBU 141420Z 01020KT 9999 BKN017 BKN100 08/04 Q1014', 'LTBU 141350Z 01017KT 9999 BKN017 BKN100 08/04 Q1013', 'LTBU 141320Z 01016KT 9999 FEW017 SCT035 BKN100 09/05 Q1013', 'LTBU 141250Z 01017KT 9999 SCT017 SCT035 BKN100 09/05 Q1013', 'LTBU 141220Z 01018KT 9999 SCT017 SCT035 BKN100 09/05 Q1013', 'LTBU 141150Z 01016KT 9999 SCT015 SCT035 BKN070 09/05 Q1013', 'LTBU 141120Z 02019KT 9999 SCT011 SCT035 BKN070 08/06 Q1013', 'LTBU 141050Z 01016KT 9999 SCT013 SCT035 BKN070 08/06 Q1013', 'LTBU 141020Z 02017KT 9999 SCT013 SCT035 BKN080 09/07 Q1013', 'LTBU 140950Z 02016KT 9999 FEW013 SCT040 BKN080 09/06 Q1013', 'LTBU 140920Z 01017KT 9999 FEW013 SCT040 BKN080 09/06 Q1013', 'LTBU 140850Z 01017KT 9999 FEW011 SCT040 BKN080 09/06 Q1013', 'LTBU 140820Z 01016KT 9999 FEW011 SCT040 BKN080 09/06 Q1013', 'LTBU 140750Z 01016KT 9999 FEW011 SCT040 BKN080 08/06 Q1013', 'LTBU 140720Z 02013KT 9999 SCT040 BKN080 08/06 Q1013 RESHRA', 'LTBU 140650Z 01014KT 9999 -SHRA SCT040 BKN080 08/06 Q1012', 'LTBU 140620Z 01011KT 9999 SCT040 BKN080 08/06 Q1012', 'LTBU 140550Z 01011KT 9999 SCT035 BKN080 07/06 Q1012', 'LTBU 140520Z 01011KT 9999 SCT035 BKN080 07/06 Q1012', 'LTBU 140450Z 02013KT 9999 FEW008 SCT035 BKN080 08/06 Q1011', 'LTBU 140420Z 01012KT 9999 FEW008 BKN030 BKN080 08/07 Q1011', 'LTBU 140350Z 02010KT 8000 BKN030 BKN080 08/07 Q1011', 'LTBU 140320Z 02010KT 8000 BKN025 BKN080 08/07 Q1011', 'LTBU 140250Z 36007KT 7000 BKN025 BKN080 08/07 Q1010 RESHRA', 'LTBU 140220Z 35006KT 6000 -SHRA BKN025 BKN080 08/08 Q1010', 'LTBU 140150Z 35004KT 6000 -SHRA BKN025 BKN080 08/08 Q1010', 'LTBU 140120Z 35005KT 6000 -SHRA BKN025 BKN080 08/08 Q1010', 'LTBU 140050Z 01006KT 6000 -SHRA BKN025 BKN080 08/08 Q1010', 'LTBU 140020Z 02005KT 7000 -SHRA FEW007 BKN025 BKN080 08/08 Q1010', 'LTBU 132350Z 35005KT 7000 -SHRA SCT007 BKN025 BKN080 08/08 Q1010', 'LTBU 132320Z 30003KT 7000 SCT004 BKN025 BKN080 08/08 Q1010 RESHRA', 'LTBU 132250Z VRB02KT 6000 -SHRA SCT004 BKN025 BKN080 08/08 Q1010', 'LTBU 132220Z 08007KT 6000 -SHRA FEW011 BKN025 BKN080 08/08 Q1010', 'LTBU 132150Z 07007KT 4000 -SHRA BR SCT011 BKN025 BKN080 08/08 Q1010', 'LTBU 132120Z 06006KT 4000 -SHRA BR SCT015 BKN025 BKN080 09/08 Q1010', 'LTBU 132050Z 05006KT 6000 -SHRA SCT015 BKN025 BKN080 09/08 Q1010', 'LTBU 132020Z 03003KT 9999 -SHRA SCT025 BKN080 09/08 Q1010', 'LTBU 131950Z 34003KT 9999 SCT025 BKN080 09/08 Q1010', 'LTBU 131920Z 05003KT 320V110 9999 SCT025 BKN080 09/08 Q1010', 'LTBU 131850Z 00000KT 9999 SCT025 BKN080 09/08 Q1010', 'LTBU 131820Z VRB01KT 9999 SCT025 BKN080 09/08 Q1010', 'LTBU 131750Z 00000KT 9999 SCT025 BKN080 09/08 Q1009', 'LTBU 131720Z 00000KT 9999 BKN025 BKN080 09/08 Q1009', 'LTBU 131650Z 31003KT 9999 BKN030 BKN080 09/08 Q1009', 'LTBU 131620Z 00000KT 9999 BKN030 BKN080 09/09 Q1009', 'LTBU 131550Z 29002KT 9999 SCT017 BKN026 BKN080 10/09 Q1009', 'LTBU 131520Z 20003KT 9999 SCT017 BKN026 BKN070 10/09 Q1008', 'LTBU 131450Z 20003KT 9999 SCT013 BKN025 BKN070 11/09 Q1008', 'LTBU 131420Z VRB01KT 9999 SCT015 BKN025 BKN070 11/09 Q1008', 'LTBU 131350Z 23004KT 9999 SCT013 BKN025 BKN070 12/09 Q1008', 'LTBU 131320Z 00000KT 9999 SCT013 BKN025 BKN080 12/09 Q1008', 'LTBU 131250Z VRB02KT 9999 SCT013 BKN025 BKN080 12/09 Q1008', 'LTBU 131220Z VRB02KT 9999 SCT013 BKN025 BKN070 12/08 Q1008', 'LTBU 131150Z 24004KT 9999 SCT013 BKN025 BKN070 11/09 Q1008', 'LTBU 131120Z 25005KT 9999 SCT013 BKN025 BKN070 11/09 Q1008', 'LTBU 131050Z 24006KT 9999 FEW007 BKN026 BKN070 11/09 Q1008', 'LTBU 131020Z 26005KT 9999 FEW007 BKN026 BKN070 10/09 Q1008', 'LTBU 130950Z 26006KT 9999 FEW012 BKN026 BKN070 10/09 Q1008', 'LTBU 130920Z 25006KT 8000 SCT005 BKN026 BKN070 09/09 Q1008', 'LTBU 130850Z 22005KT 6000 SCT005 BKN030 BKN070 09/09 Q1008 RESHRA', 'LTBU 130820Z 22008KT 6000 -SHRA BKN005 BKN030 09/09 Q1008', 'LTBU 130750Z 21008KT 4500 BR BKN004 BKN030 09/09 Q1008 RESHRA', 'LTBU 130720Z 21006KT 2600 -SHRA BR BKN003 BKN030 09/09 Q1008', 'LTBU 130650Z 19005KT 2800 -SHRA BR BKN003 BKN030 09/08 Q1008', 'LTBU 130620Z 20007KT 2000 -SHRA BR BKN002 BKN030 BKN080 09/08 Q1007', 'LTBU 130550Z 21005KT 2000 -SHRA BR BKN002 BKN030 BKN080 09/08 Q1007', 'LTBU 130520Z 22005KT 1800 -SHRA BCFG BKN002 BKN030 BKN080 08/08 Q1007', 'LTBU 130450Z 22005KT 1800 -SHRA BCFG BKN002 BKN030 BKN080 08/08 Q1006', 'LTBU 130420Z 19004KT 1800 -SHRA BCFG BKN002 BKN030 BKN080 08/08 Q1006', 'LTBU 130350Z 20004KT 1800 -SHRA BCFG BKN002 BKN030 BKN080 08/08 Q1006', 'LTBU 130320Z 20003KT 2000 -SHRA BCFG BKN003 BKN030 BKN080 08/08 Q1006', 'LTBU 130250Z 00000KT 1800 BCFG SCT005 BKN030 BKN080 08/08 Q1006', 'LTBU 130220Z 00000KT 2000 BCFG BKN030 BKN080 08/08 Q1006', 'LTBU 130150Z 12002KT 2000 -SHRA BR BKN030 BKN080 08/08 Q1006', 'LTBU 130120Z 12005KT 2000 BR SCT002 SCT030 BKN080 08/08 Q1006', 'LTBU 130050Z 04005KT 2000 BR SCT002 SCT030 BKN080 08/08 Q1005', 'LTBU 130020Z 04004KT 2000 BR SCT002 SCT030 BKN080 08/08 Q1006', 'LTBU 122350Z VRB02KT 4000 BR SCT002 SCT030 BKN080 08/08 Q1006', 'LTBU 122320Z VRB01KT 9999 SCT030 BKN080 08/08 Q1006', 'LTBU 122250Z 10005KT 9999 SCT030 BKN080 08/08 Q1006', 'LTBU 122220Z 25005KT 200V280 9999 SCT030 BKN080 09/08 Q1006', 'LTBU 122150Z 28003KT 9999 SCT030 BKN080 08/08 Q1006', 'LTBU 122120Z 17006KT 9999 SCT030 BKN080 09/08 Q1007', 'LTBU 122050Z 17006KT 140V200 9999 SCT040 BKN080 09/08 Q1007', 'LTBU 122020Z 13004KT 9999 FEW005 SCT040 BKN080 09/08 Q1007 RESHRA', 'LTBU 121950Z 14009KT 8000 -SHRA SCT005 BKN040 BKN080 09/08 Q1008', 'LTBU 121920Z 17007KT 9999 SCT040 BKN080 09/08 Q1007', 'LTBU 121850Z 16005KT 120V180 9999 SCT040 BKN080 09/08 Q1008', 'LTBU 121820Z 15010KT 9999 SCT040 BKN080 09/08 Q1008 RESHRA', 'LTBU 121750Z 15010KT 8000 -SHRA BKN030 BKN080 09/08 Q1008', 'LTBU 121720Z 16010KT 8000 -SHRA BKN030 BKN080 09/08 Q1008', 'LTBU 121650Z 20009KT 8000 BKN030 BKN080 09/08 Q1009', 'LTBU 121620Z 19012KT 8000 -SHRA BKN030 BKN080 09/08 Q1009', 'LTBU 121550Z 21009KT 8000 -SHRA BKN030 BKN080 09/08 Q1009', 'LTBU 121520Z 19011KT 8000 -SHRA BKN030 BKN080 09/08 Q1008', 'LTBU 121450Z 21015KT 8000 -SHRA BKN030 BKN080 09/08 Q1008', 'LTBU 121420Z 21010KT 8000 -SHRA BKN030 BKN080 09/09 Q1009', 'LTBU 121350Z 22009KT 7000 -SHRA BKN030 BKN080 09/08 Q1009', 'LTBU 121320Z 23014KT 7000 -SHRA BKN030 BKN080 09/08 Q1009', 'LTBU 121250Z 24013KT 7000 -SHRA BKN030 BKN080 10/08 Q1009', 'LTBU 121220Z 23017KT 8000 -SHRA BKN025 BKN080 09/09 Q1009', 'LTBU 121150Z 25015KT 8000 -SHRA FEW018CB BKN025 BKN080 10/08 Q1009', 'LTBU 121120Z 26018KT 8000 -SHRA SCT011 FEW018CB BKN030 BKN080 10/08 Q1010', 'LTBU 121050Z 30014KT 8000 -SHRA SCT011 FEW018CB BKN030 BKN080 11/09 Q1010', 'LTBU 121020Z 27002KT 9999 FEW020TCU BKN030 BKN080 13/08 Q1009', 'LTBU 120950Z 00000KT 9999 SCT030 BKN080 13/09 Q1009 RESHRA']","['2024-02-15 08:50:00', '2024-02-15 08:20:00', '2024-02-15 07:50:00', '2024-02-15 07:20:00', '2024-02-15 06:50:00', '2024-02-15 06:20:00', '2024-02-15 05:50:00', '2024-02-15 05:20:00', '2024-02-15 04:50:00', '2024-02-15 04:20:00', '2024-02-15 03:50:00', '2024-02-15 03:20:00', '2024-02-15 02:50:00', '2024-02-15 02:20:00', '2024-02-15 01:50:00', '2024-02-15 01:20:00', '2024-02-15 00:50:00', '2024-02-15 00:20:00', '2024-02-14 23:50:00', '2024-02-14 23:20:00', '2024-02-14 22:50:00', '2024-02-14 22:20:00', '2024-02-14 21:50:00', '2024-02-14 21:20:00', '2024-02-14 20:50:00', '2024-02-14 20:20:00', '2024-02-14 19:50:00', '2024-02-14 19:20:00', '2024-02-14 18:50:00', '2024-02-14 18:20:00', '2024-02-14 17:50:00', '2024-02-14 17:20:00', '2024-02-14 16:50:00', '2024-02-14 16:20:00', '2024-02-14 15:50:00', '2024-02-14 15:20:00', '2024-02-14 14:50:00', '2024-02-14 14:20:00', '2024-02-14 13:50:00', '2024-02-14 13:20:00', '2024-02-14 12:50:00', '2024-02-14 12:20:00', '2024-02-14 11:50:00', '2024-02-14 11:20:00', '2024-02-14 10:50:00', '2024-02-14 10:20:00', '2024-02-14 09:50:00', '2024-02-14 09:20:00', '2024-02-14 08:50:00', '2024-02-14 08:20:00', '2024-02-14 07:50:00', '2024-02-14 07:20:00', '2024-02-14 06:50:00', '2024-02-14 06:20:00', '2024-02-14 05:50:00', '2024-02-14 05:20:00', '2024-02-14 04:50:00', '2024-02-14 04:20:00', '2024-02-14 03:50:00', '2024-02-14 03:20:00', '2024-02-14 02:50:00', '2024-02-14 02:20:00', '2024-02-14 01:50:00', '2024-02-14 01:20:00', '2024-02-14 00:50:00', '2024-02-14 00:20:00', '2024-02-13 23:50:00', '2024-02-13 23:20:00', '2024-02-13 22:50:00', '2024-02-13 22:20:00', '2024-02-13 21:50:00', '2024-02-13 21:20:00', '2024-02-13 20:50:00', '2024-02-13 20:20:00', '2024-02-13 19:50:00', '2024-02-13 19:20:00', '2024-02-13 18:50:00', '2024-02-13 18:20:00', '2024-02-13 17:50:00', '2024-02-13 17:20:00', '2024-02-13 16:50:00', '2024-02-13 16:20:00', '2024-02-13 15:50:00', '2024-02-13 15:20:00', '2024-02-13 14:50:00', '2024-02-13 14:20:00', '2024-02-13 13:50:00', '2024-02-13 13:20:00', '2024-02-13 12:50:00', '2024-02-13 12:20:00', '2024-02-13 11:50:00', '2024-02-13 11:20:00', '2024-02-13 10:50:00', '2024-02-13 10:20:00', '2024-02-13 09:50:00', '2024-02-13 09:20:00', '2024-02-13 08:50:00', '2024-02-13 08:20:00', '2024-02-13 07:50:00', '2024-02-13 07:20:00', '2024-02-13 06:50:00', '2024-02-13 06:20:00', '2024-02-13 05:50:00', '2024-02-13 05:20:00', '2024-02-13 04:50:00', '2024-02-13 04:20:00', '2024-02-13 03:50:00', '2024-02-13 03:20:00', '2024-02-13 02:50:00', '2024-02-13 02:20:00', '2024-02-13 01:50:00', '2024-02-13 01:20:00', '2024-02-13 00:50:00', '2024-02-13 00:20:00', '2024-02-12 23:50:00', '2024-02-12 23:20:00', '2024-02-12 22:50:00', '2024-02-12 22:20:00', '2024-02-12 21:50:00', '2024-02-12 21:20:00', '2024-02-12 20:50:00', '2024-02-12 20:20:00', '2024-02-12 19:50:00', '2024-02-12 19:20:00', '2024-02-12 18:50:00', '2024-02-12 18:20:00', '2024-02-12 17:50:00', '2024-02-12 17:20:00', '2024-02-12 16:50:00', '2024-02-12 16:20:00', '2024-02-12 15:50:00', '2024-02-12 15:20:00', '2024-02-12 14:50:00', '2024-02-12 14:20:00', '2024-02-12 13:50:00', '2024-02-12 13:20:00', '2024-02-12 12:50:00', '2024-02-12 12:20:00', '2024-02-12 11:50:00', '2024-02-12 11:20:00', '2024-02-12 10:50:00', '2024-02-12 10:20:00', '2024-02-12 09:50:00']"
Turkey, Tokat Airport (TJK/LTAW) ,"['LTAW 150850Z 08004KT 050V120 9999 BKN030 BKN080 11/06 Q1011 RERA', 'LTAW 150750Z 07005KT 040V100 5000 -RA BR FEW010 BKN027 BKN080 10/07 Q1011', 'LTAW 150650Z 07003KT 3000 -RA BR FEW005 BKN027 BKN080 08/07 Q1011', 'LTAW 150550Z 00000KT 2000 -RA BR FEW005 BKN025 BKN080 08/07 Q1011', 'LTAW 150450Z VRB02KT 2000 -RA BR FEW005 BKN025 BKN080 08/07 Q1010', 'LTAW 141350Z 10010KT 9999 SCT035 BKN090 BKN180 16/05 Q1007', 'LTAW 141250Z 04008KT 9999 SCT035 BKN090 BKN180 16/05 Q1006', 'LTAW 141150Z 01004KT 340V050 9999 SCT035 BKN090 BKN180 15/07 Q1007 RERA', 'LTAW 141050Z 12009KT 9999 -RA SCT035 BKN090 BKN180 15/05 Q1007', 'LTAW 140950Z 10012KT 9999 SCT040 BKN100 BKN180 16/04 Q1007', 'LTAW 140850Z 16013G23KT 130V210 9999 SCT040 BKN100 BKN180 15/04 Q1008', 'LTAW 140750Z 01006KT 320V040 9999 SCT040 BKN100 BKN180 15/05 Q1008', 'LTAW 140650Z VRB05KT 9999 SCT040 BKN100 BKN180 14/05 Q1009', 'LTAW 140550Z 13007KT 9999 BKN040 OVC070 11/06 Q1009', 'LTAW 140450Z 00000KT 9999 BKN040 OVC070 10/06 Q1009', 'LTAW 131650Z VRB05KT 9999 SCT040 BKN100 15/04 Q1011', 'LTAW 131613Z 09012KT 070V130 9999 SCT040 BKN100 15/04 Q1010 RMK RWY24 36006G16KT 320V070', 'LTAW 131550Z 01009KT 320V050 9999 SCT040 BKN100 16/04 Q1010', 'LTAW 131522Z VRB04G20KT 9999 SCT040 BKN100 16/04 Q1010', 'LTAW 131450Z 16018KT 9999 SCT040 BKN100 16/04 Q1009', 'LTAW 131350Z 17015KT 140V200 9999 SCT040 BKN100 18/03 Q1009', 'LTAW 131250Z 18018KT 9999 SCT040 BKN100 19/02 Q1009', 'LTAW 131150Z 16014KT 9999 FEW040 SCT100 BKN180 20/03 Q1009', 'LTAW 131050Z 16022KT 9999 FEW040 SCT100 BKN180 19/04 Q1010', 'LTAW 130950Z 17017G27KT 9999 FEW040 SCT100 BKN180 18/03 Q1011', 'LTAW 130906Z 17018G28KT 9999 FEW040 SCT100 BKN180 17/03 Q1011 RMK RWY24 15019KT', 'LTAW 130850Z 18012G22KT 130V260 9999 FEW040 SCT100 BKN180 17/03 Q1012', 'LTAW 130750Z VRB07G17KT 9999 FEW040 SCT100 BKN180 16/02 Q1012', 'LTAW 130650Z 01007KT 320V080 9999 FEW040 SCT100 BKN180 15/02 Q1013', 'LTAW 130550Z 09010KT 050V120 9999 FEW040 SCT100 BKN180 15/01 Q1013', 'LTAW 130450Z 10009G22KT 070V140 9999 FEW040 SCT100 14/01 Q1013', 'LTAW 121350Z 16011KT 130V200 CAVOK 19/M00 Q1014', 'LTAW 121250Z 18011KT 150V220 CAVOK 20/M00 Q1015', 'LTAW 121150Z 24003KT 150V310 CAVOK 19/M00 Q1015', 'LTAW 121050Z VRB02KT CAVOK 19/M00 Q1016', 'LTAW 120950Z VRB03KT CAVOK 18/M01 Q1017']","['2024-02-15 08:50:00', '2024-02-15 07:50:00', '2024-02-15 06:50:00', '2024-02-15 05:50:00', '2024-02-15 04:50:00', '2024-02-14 13:50:00', '2024-02-14 12:50:00', '2024-02-14 11:50:00', '2024-02-14 10:50:00', '2024-02-14 09:50:00', '2024-02-14 08:50:00', '2024-02-14 07:50:00', '2024-02-14 06:50:00', '2024-02-14 05:50:00', '2024-02-14 04:50:00', '2024-02-13 16:50:00', '2024-02-13 16:13:00', '2024-02-13 15:50:00', '2024-02-13 15:22:00', '2024-02-13 14:50:00', '2024-02-13 13:50:00', '2024-02-13 12:50:00', '2024-02-13 11:50:00', '2024-02-13 10:50:00', '2024-02-13 09:50:00', '2024-02-13 09:06:00', '2024-02-13 08:50:00', '2024-02-13 07:50:00', '2024-02-13 06:50:00', '2024-02-13 05:50:00', '2024-02-13 04:50:00', '2024-02-12 13:50:00', '2024-02-12 12:50:00', '2024-02-12 11:50:00', '2024-02-12 10:50:00', '2024-02-12 09:50:00']"
Turkey, Trabzon Airport (TZX/LTCG) ,"['LTCG 150850Z 33004KT 290V360 9999 BKN012 BKN025 11/10 Q1012 NOSIG', 'LTCG 150820Z 04003KT 320V080 9999 BKN009 BKN025 12/09 Q1012 NOSIG', 'LTCG 150750Z 03003KT 320V080 9999 BKN009 BKN025 11/09 Q1012 TEMPO TL0900 3500 BR', 'LTCG 150720Z VRB03KT 9999 BKN009 BKN025 12/10 Q1012 TEMPO TL0900 3500 BR', 'LTCG 150650Z 34003KT 290V020 9999 BKN009 BKN025 11/10 Q1012 RESHRA TEMPO 3500 BR', 'LTCG 150620Z 31003KT 9999 -SHRA BKN012 BKN025 11/09 Q1011 TEMPO 3500 BR BKN006 BKN025', 'LTCG 150550Z 32002KT 8000 -SHRA BKN012 BKN025 11/09 Q1011 TEMPO 3500 BR BKN006 BKN025', 'LTCG 150520Z 31003KT 9999 -SHRA BKN009 BKN025 11/10 Q1011 NOSIG', 'LTCG 150450Z 31002KT 9999 -SHRA BKN012 BKN025 11/09 Q1011 NOSIG', 'LTCG 150420Z 00000KT 9999 -SHRA BKN012 BKN025 11/09 Q1010 NOSIG', 'LTCG 150350Z VRB01KT 9999 BKN012 BKN025 11/09 Q1010 NOSIG', 'LTCG 150320Z VRB02KT 9999 BKN012 BKN025 11/09 Q1010 NOSIG', 'LTCG 150250Z 35004KT 9999 BKN012 BKN025 11/09 Q1010 NOSIG', 'LTCG 150220Z 00000KT 9999 BKN012 BKN025 11/09 Q1009 NOSIG', 'LTCG 150150Z 36004KT 310V060 9999 BKN008 BKN025 11/09 Q1009 RESHRA BECMG BKN012 BKN025', 'LTCG 150120Z 05003KT 9999 -SHRA BKN013 BKN025 11/10 Q1009 NOSIG', 'LTCG 150050Z 09004KT 9999 -SHRA BKN013 BKN026 11/09 Q1009 NOSIG', 'LTCG 150020Z 09004KT 9999 BKN013 BKN033 11/10 Q1010 NOSIG', 'LTCG 142350Z 07003KT 040V100 9999 BKN014 BKN034 11/10 Q1010 NOSIG', 'LTCG 142320Z 10005KT 060V120 9999 BKN013 BKN026 11/10 Q1010 NOSIG', 'LTCG 142250Z 11006KT 9999 SCT011 BKN025 11/09 Q1010 RESHRA NOSIG', 'LTCG 142220Z 12006KT 9999 -SHRA SCT011 SCT026 BKN080 11/09 Q1010 NOSIG', 'LTCG 142150Z VRB01KT 9999 SCT011 SCT031 BKN080 11/09 Q1010 NOSIG', 'LTCG 142120Z 36005KT 250V060 9000 SCT017 BKN037 11/09 Q1010 NOSIG', 'LTCG 142050Z 30002KT 9999 SCT040 BKN100 12/10 Q1010 NOSIG', 'LTCG 142020Z 36002KT 9999 SCT040 BKN100 12/10 Q1010 NOSIG', 'LTCG 141950Z 14004KT 9999 SCT035 BKN100 12/09 Q1010 NOSIG', 'LTCG 141920Z VRB02KT 9999 SCT035 BKN080 12/09 Q1010 NOSIG', 'LTCG 141850Z 17005KT 9999 SCT035 BKN080 12/09 Q1010 NOSIG', 'LTCG 141820Z 15008KT 9999 SCT035 BKN080 12/09 Q1010 RESHRA NOSIG', 'LTCG 141750Z 14006KT 9999 -SHRA FEW016 SCT033 BKN080 11/10 Q1010 NOSIG', 'LTCG 141720Z 11002KT 9999 -SHRA SCT035 BKN080 11/10 Q1010 NOSIG', 'LTCG 141650Z VRB02KT 9999 -SHRA SCT035 BKN080 11/10 Q1010 NOSIG', 'LTCG 141620Z VRB02KT 9999 -SHRA SCT035 BKN080 12/10 Q1010 NOSIG', 'LTCG 141550Z 08006KT 030V110 9999 -SHRA SCT035 BKN100 12/09 Q1010 NOSIG', 'LTCG 141520Z 06005KT 020V100 9999 -SHRA BKN035 BKN100 12/10 Q1010 NOSIG', 'LTCG 141450Z 10005KT 9999 -SHRA BKN035 BKN100 12/09 Q1009 NOSIG', 'LTCG 141420Z VRB01KT 9999 BKN035 BKN100 12/09 Q1009 RESHRA NOSIG', 'LTCG 141350Z VRB02KT 9999 -SHRA SCT035 BKN100 12/09 Q1009 NOSIG', 'LTCG 141320Z 01004KT 340V040 9999 -SHRA SCT035 BKN100 13/09 Q1009 NOSIG', 'LTCG 141250Z VRB01KT 9999 BKN100 12/09 Q1009 NOSIG', 'LTCG 141220Z 30007KT 9999 BKN100 12/09 Q1009 NOSIG', 'LTCG 141150Z 29009KT 260V320 9999 BKN100 12/09 Q1009 NOSIG', 'LTCG 141120Z 29008KT 9999 BKN100 13/09 Q1009 NOSIG', 'LTCG 141050Z 31006KT 280V340 9999 BKN100 13/09 Q1009 NOSIG', 'LTCG 141020Z 29007KT 9999 BKN100 13/10 Q1009 NOSIG', 'LTCG 140950Z 30006KT 9999 BKN100 13/09 Q1009 NOSIG', 'LTCG 140920Z 29009KT 9999 BKN100 13/10 Q1010 NOSIG', 'LTCG 140850Z 29009KT 9999 BKN100 13/10 Q1010 NOSIG', 'LTCG 140820Z 29014KT 9999 BKN100 15/08 Q1010 BECMG VRB02KT', 'LTCG 140750Z 23006KT 9999 BKN100 21/03 Q1009 NOSIG', 'LTCG 140720Z 21006KT 9999 BKN100 20/03 Q1009 NOSIG', 'LTCG 140650Z VRB04KT 9999 BKN100 19/03 Q1010 NOSIG', 'LTCG 140620Z VRB03KT 9999 BKN100 18/05 Q1009 NOSIG', 'LTCG 140550Z 16004KT 130V190 9999 BKN100 18/04 Q1010 NOSIG', 'LTCG 140520Z 26003KT 9999 BKN100 18/03 Q1010 NOSIG', 'LTCG 140450Z VRB02KT 9999 BKN100 17/05 Q1010 NOSIG', 'LTCG 140420Z VRB03KT 9999 BKN100 19/03 Q1010 NOSIG', 'LTCG 140350Z 18005KT 9999 BKN100 18/04 Q1010 NOSIG', 'LTCG 140320Z 20007KT 9999 BKN100 20/01 Q1009 NOSIG', 'LTCG 140250Z 21008KT 9999 BKN100 20/01 Q1010 NOSIG', 'LTCG 140220Z 21009KT 9999 BKN100 21/01 Q1009 NOSIG', 'LTCG 140150Z 20009KT 9999 BKN100 21/01 Q1009 NOSIG', 'LTCG 140120Z 20012KT 9999 BKN100 21/01 Q1009 NOSIG', 'LTCG 140050Z 20012KT 9999 BKN100 21/01 Q1009 NOSIG', 'LTCG 140020Z 21012G23KT 9999 BKN100 21/01 Q1009 NOSIG', 'LTCG 132350Z 22013KT 9999 BKN100 21/00 Q1009 NOSIG', 'LTCG 132320Z 20010KT 9999 BKN100 21/00 Q1010 NOSIG', 'LTCG 132250Z 22007KT 9999 BKN100 21/01 Q1010 NOSIG', 'LTCG 132220Z 20007KT 9999 BKN100 20/01 Q1010 NOSIG', 'LTCG 132150Z 18009KT 9999 BKN100 21/01 Q1010 NOSIG', 'LTCG 132120Z 19010KT 9999 BKN100 21/00 Q1010 NOSIG', 'LTCG 132050Z 18011KT 9999 BKN100 21/00 Q1010 NOSIG', 'LTCG 132020Z 18010KT 9999 BKN100 21/01 Q1010 NOSIG', 'LTCG 131950Z 20007KT 9999 BKN100 19/01 Q1010 NOSIG', 'LTCG 131920Z VRB02KT 9999 BKN100 18/02 Q1010 NOSIG', 'LTCG 131850Z 00000KT 9999 BKN100 15/05 Q1010 NOSIG', 'LTCG 131820Z VRB01KT 9999 BKN100 18/02 Q1010 NOSIG', 'LTCG 131750Z VRB01KT 9999 BKN110 17/03 Q1011 NOSIG', 'LTCG 131720Z VRB02KT 9999 BKN110 18/03 Q1011 NOSIG', 'LTCG 131650Z VRB02KT 9999 BKN110 16/05 Q1011 NOSIG', 'LTCG 131620Z VRB02KT 9999 BKN110 18/04 Q1011 NOSIG', 'LTCG 131550Z VRB02KT 9999 BKN110 18/04 Q1011 NOSIG', 'LTCG 131520Z 10005KT 9999 BKN110 18/03 Q1011 NOSIG', 'LTCG 131450Z 13009KT 9999 BKN110 19/02 Q1011 NOSIG', 'LTCG 131420Z 11006KT 9999 BKN110 18/03 Q1011 NOSIG', 'LTCG 131350Z 12010KT CAVOK 19/01 Q1011 NOSIG', 'LTCG 131320Z 12006KT 080V150 CAVOK 18/03 Q1011 NOSIG', 'LTCG 131250Z 11006KT CAVOK 17/06 Q1011 NOSIG', 'LTCG 131220Z 12006KT CAVOK 18/06 Q1011 NOSIG', 'LTCG 131150Z 11009KT CAVOK 15/07 Q1011 NOSIG', 'LTCG 131120Z 16004KT 040V180 CAVOK 20/04 Q1011 NOSIG', 'LTCG 131050Z 00000KT CAVOK 19/03 Q1011 NOSIG', 'LTCG 131020Z 20006G18KT CAVOK 21/01 Q1012 NOSIG', 'LTCG 130950Z 18004KT CAVOK 21/01 Q1012 NOSIG', 'LTCG 130920Z 00000KT CAVOK 21/M01 Q1012 NOSIG', 'LTCG 130850Z 14006KT 040V200 CAVOK 22/M00 Q1012 NOSIG', 'LTCG 130820Z 22009G21KT 110V250 CAVOK 22/M00 Q1012 NOSIG', 'LTCG 130750Z 23011KT CAVOK 22/M01 Q1012 NOSIG', 'LTCG 130720Z 21014KT CAVOK 22/M01 Q1012 NOSIG', 'LTCG 130650Z 20014KT 160V220 CAVOK 21/M01 Q1012 NOSIG', 'LTCG 130620Z 20010KT 170V240 CAVOK 21/M02 Q1012 NOSIG', 'LTCG 130550Z 22015KT 190V250 CAVOK 22/M03 Q1011 NOSIG', 'LTCG 130520Z 21012KT CAVOK 21/M03 Q1012 NOSIG', 'LTCG 130450Z 21016KT 180V240 CAVOK 21/M04 Q1011 NOSIG', 'LTCG 130420Z 22010KT 180V250 CAVOK 21/M04 Q1011 NOSIG', 'LTCG 130350Z 21016KT CAVOK 21/M04 Q1011 NOSIG', 'LTCG 130320Z 21013KT 170V230 CAVOK 21/M04 Q1011 NOSIG', 'LTCG 130250Z 21014KT 170V230 CAVOK 21/M04 Q1011 NOSIG', 'LTCG 130220Z 21015KT CAVOK 21/M04 Q1012 NOSIG', 'LTCG 130150Z 21015KT CAVOK 21/M05 Q1011 NOSIG', 'LTCG 130120Z 21015KT CAVOK 21/M05 Q1011 NOSIG', 'LTCG 130050Z 21015G25KT CAVOK 21/M06 Q1012 NOSIG', 'LTCG 130020Z 22013KT CAVOK 21/M06 Q1012 NOSIG', 'LTCG 122350Z 21014KT CAVOK 21/M04 Q1012 NOSIG', 'LTCG 122320Z 21015KT CAVOK 21/M05 Q1012 NOSIG', 'LTCG 122250Z 21012KT CAVOK 21/M05 Q1013 NOSIG', 'LTCG 122220Z 20012KT 130V230 CAVOK 21/M04 Q1013 NOSIG', 'LTCG 122150Z VRB03KT CAVOK 16/01 Q1014 NOSIG', 'LTCG 122120Z 14003KT 070V210 CAVOK 15/02 Q1014 NOSIG', 'LTCG 122050Z VRB01KT CAVOK 14/04 Q1014 NOSIG', 'LTCG 122020Z 12003KT 060V140 CAVOK 14/06 Q1014 NOSIG', 'LTCG 121950Z VRB03KT CAVOK 13/06 Q1014 NOSIG', 'LTCG 121920Z 29006KT 260V350 CAVOK 14/06 Q1014 NOSIG', 'LTCG 121850Z 03003KT 330V140 CAVOK 15/05 Q1014 NOSIG', 'LTCG 121820Z 30006KT 240V350 CAVOK 15/03 Q1014 NOSIG', 'LTCG 121750Z 34003KT 290V090 CAVOK 15/02 Q1014 NOSIG', 'LTCG 121720Z 28004KT 250V310 CAVOK 17/00 Q1013 NOSIG', 'LTCG 121650Z VRB02KT CAVOK 15/04 Q1014 NOSIG', 'LTCG 121620Z 13003KT 050V200 CAVOK 15/05 Q1014 NOSIG', 'LTCG 121550Z 12003KT 080V200 CAVOK 14/08 Q1014 NOSIG', 'LTCG 121520Z 12006KT CAVOK 13/08 Q1014 NOSIG', 'LTCG 121450Z VRB01KT CAVOK 17/02 Q1014 NOSIG', 'LTCG 121420Z 29002KT CAVOK 17/01 Q1014 NOSIG', 'LTCG 121350Z 27004KT CAVOK 17/02 Q1014 NOSIG', 'LTCG 121320Z 35003KT 320V030 CAVOK 16/03 Q1014 NOSIG', 'LTCG 121250Z VRB02KT CAVOK 19/02 Q1014 NOSIG', 'LTCG 121220Z 08004KT 050V110 CAVOK 19/01 Q1015 NOSIG', 'LTCG 121150Z 09005KT 060V120 CAVOK 19/M00 Q1015 NOSIG', 'LTCG 121120Z 10006KT CAVOK 20/M02 Q1015 NOSIG', 'LTCG 121050Z 10006KT CAVOK 19/01 Q1015 NOSIG', 'LTCG 121020Z 07004KT 030V110 CAVOK 17/04 Q1015 NOSIG', 'LTCG 120950Z VRB02KT CAVOK 17/03 Q1016 NOSIG']","['2024-02-15 08:50:00', '2024-02-15 08:20:00', '2024-02-15 07:50:00', '2024-02-15 07:20:00', '2024-02-15 06:50:00', '2024-02-15 06:20:00', '2024-02-15 05:50:00', '2024-02-15 05:20:00', '2024-02-15 04:50:00', '2024-02-15 04:20:00', '2024-02-15 03:50:00', '2024-02-15 03:20:00', '2024-02-15 02:50:00', '2024-02-15 02:20:00', '2024-02-15 01:50:00', '2024-02-15 01:20:00', '2024-02-15 00:50:00', '2024-02-15 00:20:00', '2024-02-14 23:50:00', '2024-02-14 23:20:00', '2024-02-14 22:50:00', '2024-02-14 22:20:00', '2024-02-14 21:50:00', '2024-02-14 21:20:00', '2024-02-14 20:50:00', '2024-02-14 20:20:00', '2024-02-14 19:50:00', '2024-02-14 19:20:00', '2024-02-14 18:50:00', '2024-02-14 18:20:00', '2024-02-14 17:50:00', '2024-02-14 17:20:00', '2024-02-14 16:50:00', '2024-02-14 16:20:00', '2024-02-14 15:50:00', '2024-02-14 15:20:00', '2024-02-14 14:50:00', '2024-02-14 14:20:00', '2024-02-14 13:50:00', '2024-02-14 13:20:00', '2024-02-14 12:50:00', '2024-02-14 12:20:00', '2024-02-14 11:50:00', '2024-02-14 11:20:00', '2024-02-14 10:50:00', '2024-02-14 10:20:00', '2024-02-14 09:50:00', '2024-02-14 09:20:00', '2024-02-14 08:50:00', '2024-02-14 08:20:00', '2024-02-14 07:50:00', '2024-02-14 07:20:00', '2024-02-14 06:50:00', '2024-02-14 06:20:00', '2024-02-14 05:50:00', '2024-02-14 05:20:00', '2024-02-14 04:50:00', '2024-02-14 04:20:00', '2024-02-14 03:50:00', '2024-02-14 03:20:00', '2024-02-14 02:50:00', '2024-02-14 02:20:00', '2024-02-14 01:50:00', '2024-02-14 01:20:00', '2024-02-14 00:50:00', '2024-02-14 00:20:00', '2024-02-13 23:50:00', '2024-02-13 23:20:00', '2024-02-13 22:50:00', '2024-02-13 22:20:00', '2024-02-13 21:50:00', '2024-02-13 21:20:00', '2024-02-13 20:50:00', '2024-02-13 20:20:00', '2024-02-13 19:50:00', '2024-02-13 19:20:00', '2024-02-13 18:50:00', '2024-02-13 18:20:00', '2024-02-13 17:50:00', '2024-02-13 17:20:00', '2024-02-13 16:50:00', '2024-02-13 16:20:00', '2024-02-13 15:50:00', '2024-02-13 15:20:00', '2024-02-13 14:50:00', '2024-02-13 14:20:00', '2024-02-13 13:50:00', '2024-02-13 13:20:00', '2024-02-13 12:50:00', '2024-02-13 12:20:00', '2024-02-13 11:50:00', '2024-02-13 11:20:00', '2024-02-13 10:50:00', '2024-02-13 10:20:00', '2024-02-13 09:50:00', '2024-02-13 09:20:00', '2024-02-13 08:50:00', '2024-02-13 08:20:00', '2024-02-13 07:50:00', '2024-02-13 07:20:00', '2024-02-13 06:50:00', '2024-02-13 06:20:00', '2024-02-13 05:50:00', '2024-02-13 05:20:00', '2024-02-13 04:50:00', '2024-02-13 04:20:00', '2024-02-13 03:50:00', '2024-02-13 03:20:00', '2024-02-13 02:50:00', '2024-02-13 02:20:00', '2024-02-13 01:50:00', '2024-02-13 01:20:00', '2024-02-13 00:50:00', '2024-02-13 00:20:00', '2024-02-12 23:50:00', '2024-02-12 23:20:00', '2024-02-12 22:50:00', '2024-02-12 22:20:00', '2024-02-12 21:50:00', '2024-02-12 21:20:00', '2024-02-12 20:50:00', '2024-02-12 20:20:00', '2024-02-12 19:50:00', '2024-02-12 19:20:00', '2024-02-12 18:50:00', '2024-02-12 18:20:00', '2024-02-12 17:50:00', '2024-02-12 17:20:00', '2024-02-12 16:50:00', '2024-02-12 16:20:00', '2024-02-12 15:50:00', '2024-02-12 15:20:00', '2024-02-12 14:50:00', '2024-02-12 14:20:00', '2024-02-12 13:50:00', '2024-02-12 13:20:00', '2024-02-12 12:50:00', '2024-02-12 12:20:00', '2024-02-12 11:50:00', '2024-02-12 11:20:00', '2024-02-12 10:50:00', '2024-02-12 10:20:00', '2024-02-12 09:50:00']"
Turkey, Usak Airport (USQ/LTBO) ,"['LTBO 150850Z VRB02KT 9999 SCT009 BKN030 BKN090 05/02 Q1012', 'LTBO 150750Z VRB01KT 8000 SCT005 BKN030 BKN090 03/01 Q1012', 'LTBO 150650Z 00000KT 6000 SCT004 BKN030 OVC090 02/01 Q1012 RERASN', 'LTBO 150550Z 09002KT 7000 -RASN SCT007 BKN030 OVC090 01/00 Q1011 RERA', 'LTBO 150450Z VRB02KT 7000 -RA FEW010 BKN030 OVC100 02/01 Q1011', 'LTBO 141350Z 33010KT 9999 -RA BKN035 BKN100 06/03 Q1007', 'LTBO 141250Z 34008KT 9999 -RA BKN035 BKN100 07/03 Q1006', 'LTBO 141150Z 35012KT 9999 -RA BKN035 BKN100 08/03 Q1006', 'LTBO 141050Z 02010KT 9999 -RA BKN035 BKN100 09/03 Q1006', 'LTBO 140950Z 21004KT 180V240 9999 SCT035 BKN100 09/04 Q1007', 'LTBO 140850Z VRB01KT 4000 BR SCT035 BKN100 07/03 Q1008', 'LTBO 140750Z VRB01KT 4000 BR SCT035 BKN100 06/03 Q1008', 'LTBO 140650Z VRB01KT 9999 SCT035 BKN100 01/M00 Q0907', 'LTBO 140450Z 08002KT 9999 FEW040 BKN200 M00/M01 Q1008', 'LTBO 131350Z 18007KT 150V210 9999 BKN030 BKN100 10/03 Q1008', 'LTBO 131250Z 16007KT 100V200 9999 BKN030 BKN100 11/04 Q1008', 'LTBO 131150Z 18005KT 140V230 9999 BKN030 BKN100 11/04 Q1008', 'LTBO 131050Z 18005KT 150V220 9999 BKN030 BKN100 10/03 Q1009', 'LTBO 130950Z 15008KT 120V180 9999 BKN030 BKN100 10/05 Q1009', 'LTBO 130850Z 17009KT 9999 BKN030 BKN100 08/05 Q1010', 'LTBO 130750Z VRB02KT 9999 BKN030 BKN100 07/04 Q1010', 'LTBO 130650Z 14004KT 090V190 9999 SCT030 BKN100 06/03 Q1010', 'LTBO 130550Z 18003KT 150V220 9999 SCT035 BKN090 06/03 Q1010', 'LTBO 130450Z 33005KT 9999 SCT035 BKN090 05/03 Q1009', 'LTBO 121350Z 15016KT 9999 SCT035 BKN100 13/04 Q1011', 'LTBO 121250Z 17015KT 9999 SCT035 BKN100 14/03 Q1012', 'LTBO 121150Z 16017KT 9999 SCT035 BKN100 13/04 Q1013', 'LTBO 121050Z 16015KT 9999 SCT035 BKN100 13/03 Q1014', 'LTBO 120950Z 17018KT 9999 SCT035 BKN100 13/01 Q1015']","['2024-02-15 08:50:00', '2024-02-15 07:50:00', '2024-02-15 06:50:00', '2024-02-15 05:50:00', '2024-02-15 04:50:00', '2024-02-14 13:50:00', '2024-02-14 12:50:00', '2024-02-14 11:50:00', '2024-02-14 10:50:00', '2024-02-14 09:50:00', '2024-02-14 08:50:00', '2024-02-14 07:50:00', '2024-02-14 06:50:00', '2024-02-14 04:50:00', '2024-02-13 13:50:00', '2024-02-13 12:50:00', '2024-02-13 11:50:00', '2024-02-13 10:50:00', '2024-02-13 09:50:00', '2024-02-13 08:50:00', '2024-02-13 07:50:00', '2024-02-13 06:50:00', '2024-02-13 05:50:00', '2024-02-13 04:50:00', '2024-02-12 13:50:00', '2024-02-12 12:50:00', '2024-02-12 11:50:00', '2024-02-12 10:50:00', '2024-02-12 09:50:00']"
Turkey, Van Airport (VAN/LTCI) ,"['LTCI 150850Z 23010KT 9999 FEW030 SCT180 11/M03 Q1014 NOSIG', 'LTCI 150750Z 18012KT 160V220 9999 FEW035 SCT180 11/M03 Q1015 NOSIG', 'LTCI 150650Z 15014KT 9999 FEW035 SCT180 10/M01 Q1014 NOSIG', 'LTCI 150550Z 15007KT 120V200 9999 FEW030 SCT180 09/M02 Q1015 NOSIG', 'LTCI 150450Z 23004KT 170V290 9999 FEW030 BKN070 06/M00 Q1014 NOSIG', 'LTCI 150422Z 09011KT 9999 FEW030 BKN070 05/M02 Q1013 BECMG TL0450 15011KT', 'LTCI 150350Z 17005KT 130V280 9999 SCT030 BKN070 06/M03 Q1013 NOSIG', 'LTCI 150250Z 17007KT 140V230 9999 SCT030 BKN070 06/M01 Q1013 NOSIG', 'LTCI 150150Z 14015KT 9999 FEW015CB SCT030 BKN070 07/M00 Q1013 RESHRA NOSIG', 'LTCI 150050Z 15010KT 090V200 9999 -SHRA FEW015CB BKN030 BKN070 05/01 Q1013 NOSIG', 'LTCI 150001Z 13015G26KT 9999 -SHRA FEW015CB BKN030 BKN070 05/02 Q1013 BECMG TL0050 VRB02KT', 'LTCI 142350Z 13011KT 100V160 9999 -SHRA FEW015CB BKN030 BKN070 05/02 Q1013 NOSIG', 'LTCI 142313Z 12012KT 080V150 9999 -SHRA FEW015CB BKN030 BKN070 05/02 Q1013 BECMG TL2350 VRB02KT', 'LTCI 142250Z VRB02KT 9999 -SHRA FEW015CB BKN030 BKN070 05/02 Q1012 NOSIG', 'LTCI 142150Z 11007KT 070V150 9999 FEW020CB SCT040 BKN070 06/01 Q1013 NOSIG', 'LTCI 142050Z 22007KT 170V240 9999 FEW020CB SCT040 BKN070 05/03 Q1013 RESHRA NOSIG', 'LTCI 142022Z 22006KT 180V300 9999 FEW020CB SCT040 BKN070 07/01 Q1013 RESHRA NOSIG', 'LTCI 141950Z 18007KT 140V220 9999 -SHRA FEW020CB SCT040 BKN070 07/01 Q1013 NOSIG', 'LTCI 141850Z VRB06KT 9999 -SHRA SCT030 BKN070 06/01 Q1014 NOSIG', 'LTCI 141750Z VRB02KT 9999 SCT030 BKN070 05/03 Q1013 NOSIG', 'LTCI 141650Z 27005KT 9999 SCT030 BKN070 05/03 Q1013 NOSIG', 'LTCI 141550Z 00000KT 9999 SCT030 BKN070 07/00 Q1014 NOSIG', 'LTCI 141450Z VRB02KT 9999 SCT030 BKN070 08/00 Q1013 NOSIG', 'LTCI 141422Z 08005KT 030V100 9999 SCT030 BKN100 08/00 Q1013 NOSIG', 'LTCI 141350Z 14012KT 9999 SCT030 BKN100 08/01 Q1013 NOSIG', 'LTCI 141324Z 13011KT 060V170 9999 FEW030 SCT100 BKN180 08/00 Q1014 BECMG TL1420 28008KT', 'LTCI 141250Z VRB01KT 9000 FEW030 SCT100 BKN180 06/02 Q1014 NOSIG', 'LTCI 141150Z 00000KT 9000 FEW030 SCT100 BKN180 05/02 Q1014 NOSIG', 'LTCI 141050Z 29003KT 220V350 9000 FEW030 SCT070 BKN180 05/02 Q1014 NOSIG', 'LTCI 140950Z 26007KT 9000 FEW030 SCT070 BKN180 06/02 Q1015 NOSIG', 'LTCI 140850Z 22004KT 170V270 9000 FEW030 SCT070 BKN180 06/02 Q1016 NOSIG', 'LTCI 140750Z 28005KT 260V320 9000 FEW030 SCT070 BKN180 05/01 Q1016 NOSIG', 'LTCI 140650Z 30003KT 260V360 9000 FEW030 SCT070 BKN180 04/01 Q1017 NOSIG', 'LTCI 140550Z VRB01KT 8000 FEW030 SCT070 BKN180 04/02 Q1017 NOSIG', 'LTCI 140450Z VRB02KT 8000 FEW030 SCT070 BKN180 01/00 Q1017 NOSIG', 'LTCI 140350Z 09003KT 040V120 9999 FEW030 SCT070 BKN180 01/M00 Q1017 NOSIG', 'LTCI 140250Z VRB01KT 9999 FEW030 BKN180 01/M01 Q1017 NOSIG', 'LTCI 140150Z 17004KT 9999 FEW030 BKN180 01/M00 Q1018 NOSIG', 'LTCI 140050Z VRB02KT 9999 SCT030 BKN180 01/M01 Q1017 NOSIG', 'LTCI 132350Z VRB01KT 9999 SCT030 BKN180 01/M01 Q1018 NOSIG', 'LTCI 132250Z 17003KT 9999 SCT030 BKN180 01/M01 Q1019 NOSIG', 'LTCI 132150Z 16003KT 9999 SCT030 BKN180 00/M01 Q1019 NOSIG', 'LTCI 132050Z 05004KT 9999 SCT030 BKN180 M01/M02 Q1019 NOSIG', 'LTCI 131950Z 10002KT 9000 SCT030 BKN180 M01/M03 Q1020 NOSIG', 'LTCI 131850Z 00000KT 8000 SCT030 BKN180 00/M02 Q1020 NOSIG', 'LTCI 131750Z 06002KT 7000 SCT040 BKN180 01/M02 Q1020 NOSIG', 'LTCI 131650Z 14003KT 9999 FEW040 BKN180 00/M02 Q1020 NOSIG', 'LTCI 131550Z 16003KT 9999 FEW040 SCT080 BKN180 02/M01 Q1020 NOSIG', 'LTCI 131450Z 23003KT 9999 FEW040 BKN180 03/M02 Q1020 NOSIG', 'LTCI 131350Z 25003KT 210V290 9999 FEW040 BKN180 05/M01 Q1020 NOSIG', 'LTCI 131250Z 27006KT 9999 FEW040 BKN180 05/M01 Q1020 NOSIG', 'LTCI 131150Z VRB02KT 9999 FEW040 BKN180 04/M01 Q1020 NOSIG', 'LTCI 131050Z 27004KT 9999 FEW040 BKN180 04/M01 Q1021 NOSIG', 'LTCI 130950Z 29006KT 170V310 9999 FEW040 BKN180 05/M00 Q1021 NOSIG', 'LTCI 130850Z 28005KT 9999 FEW040 BKN180 05/M01 Q1022 NOSIG', 'LTCI 130750Z 26005KT 8000 FEW040 BKN180 04/M01 Q1023 NOSIG', 'LTCI 130650Z VRB02KT 8000 FEW040 BKN180 03/M01 Q1023 NOSIG', 'LTCI 130550Z VRB02KT 8000 FEW040 BKN180 02/M02 Q1023 NOSIG', 'LTCI 130450Z VRB01KT 9999 FEW040 BKN180 M02/M03 Q1023 NOSIG', 'LTCI 130350Z 00000KT 9999 FEW040 BKN180 M03/M05 Q1023 NOSIG', 'LTCI 130250Z 08003KT 040V110 9999 FEW040 BKN180 M02/M04 Q1023 NOSIG', 'LTCI 130150Z 06004KT 9999 FEW040 BKN180 M01/M03 Q1023 NOSIG', 'LTCI 130050Z 08002KT 9999 FEW040 BKN180 M01/M02 Q1023 NOSIG', 'LTCI 122350Z VRB02KT 9999 FEW040 BKN180 M01/M02 Q1023 NOSIG', 'LTCI 122250Z 08002KT 9999 FEW040 BKN180 M01/M02 Q1024 NOSIG', 'LTCI 122150Z 14003KT 9999 FEW040 BKN180 M01/M02 Q1024 NOSIG', 'LTCI 122050Z VRB01KT 9999 FEW040 BKN180 M01/M03 Q1024 NOSIG', 'LTCI 121950Z 00000KT 9999 FEW040 BKN180 M00/M03 Q1024 NOSIG', 'LTCI 121850Z 07004KT 9999 FEW040 BKN180 M01/M03 Q1024 NOSIG', 'LTCI 121750Z 11001KT 9999 FEW040 BKN180 00/M01 Q1024 NOSIG', 'LTCI 121650Z 08002KT 9999 FEW040 BKN180 00/M02 Q1025 NOSIG', 'LTCI 121550Z 15004KT 9999 FEW040 BKN180 01/M02 Q1025 NOSIG', 'LTCI 121450Z 24004KT 9999 FEW040 BKN180 02/M01 Q1024 NOSIG', 'LTCI 121350Z 24004KT 9999 FEW040 BKN180 04/M02 Q1024 NOSIG', 'LTCI 121250Z 28005KT 9999 FEW040 BKN180 05/M01 Q1025 NOSIG', 'LTCI 121150Z 28005KT 9999 FEW040 BKN180 04/M01 Q1025 NOSIG', 'LTCI 121050Z 27005KT 240V300 9999 FEW040 BKN180 04/M02 Q1026 NOSIG', 'LTCI 120950Z 28006KT 9999 FEW040 BKN180 03/M01 Q1026 NOSIG']","['2024-02-15 08:50:00', '2024-02-15 07:50:00', '2024-02-15 06:50:00', '2024-02-15 05:50:00', '2024-02-15 04:50:00', '2024-02-15 04:22:00', '2024-02-15 03:50:00', '2024-02-15 02:50:00', '2024-02-15 01:50:00', '2024-02-15 00:50:00', '2024-02-15 00:01:00', '2024-02-14 23:50:00', '2024-02-14 23:13:00', '2024-02-14 22:50:00', '2024-02-14 21:50:00', '2024-02-14 20:50:00', '2024-02-14 20:22:00', '2024-02-14 19:50:00', '2024-02-14 18:50:00', '2024-02-14 17:50:00', '2024-02-14 16:50:00', '2024-02-14 15:50:00', '2024-02-14 14:50:00', '2024-02-14 14:22:00', '2024-02-14 13:50:00', '2024-02-14 13:24:00', '2024-02-14 12:50:00', '2024-02-14 11:50:00', '2024-02-14 10:50:00', '2024-02-14 09:50:00', '2024-02-14 08:50:00', '2024-02-14 07:50:00', '2024-02-14 06:50:00', '2024-02-14 05:50:00', '2024-02-14 04:50:00', '2024-02-14 03:50:00', '2024-02-14 02:50:00', '2024-02-14 01:50:00', '2024-02-14 00:50:00', '2024-02-13 23:50:00', '2024-02-13 22:50:00', '2024-02-13 21:50:00', '2024-02-13 20:50:00', '2024-02-13 19:50:00', '2024-02-13 18:50:00', '2024-02-13 17:50:00', '2024-02-13 16:50:00', '2024-02-13 15:50:00', '2024-02-13 14:50:00', '2024-02-13 13:50:00', '2024-02-13 12:50:00', '2024-02-13 11:50:00', '2024-02-13 10:50:00', '2024-02-13 09:50:00', '2024-02-13 08:50:00', '2024-02-13 07:50:00', '2024-02-13 06:50:00', '2024-02-13 05:50:00', '2024-02-13 04:50:00', '2024-02-13 03:50:00', '2024-02-13 02:50:00', '2024-02-13 01:50:00', '2024-02-13 00:50:00', '2024-02-12 23:50:00', '2024-02-12 22:50:00', '2024-02-12 21:50:00', '2024-02-12 20:50:00', '2024-02-12 19:50:00', '2024-02-12 18:50:00', '2024-02-12 17:50:00', '2024-02-12 16:50:00', '2024-02-12 15:50:00', '2024-02-12 14:50:00', '2024-02-12 13:50:00', '2024-02-12 12:50:00', '2024-02-12 11:50:00', '2024-02-12 10:50:00', '2024-02-12 09:50:00']"
Turkey, Yuksekova Hakkari Airport (YKO/LTCW) ,"['LTCW 150850Z VRB02KT 3500 -SHRASN BR FEW015CB BKN025 BKN070 02/00 Q1017', 'LTCW 150750Z 32002KT 3200 -SHRASN BR FEW015CB BKN025 BKN070 01/01 Q1017 RESHSN', 'LTCW 150650Z 32003KT 290V030 1400 R11/P1500N R29/P1500N -SHSN BCFG FEW015CB BKN023 BKN070 01/01 Q1018', 'LTCW 150550Z 00000KT 1100 R11/1000D R29/P1500N -SHSN BCFG FEW015CB BKN023 BKN070 01/01 Q1018', 'LTCW 150450Z 10003KT 1100 R11/1100D R29/0800U SHSN BCFG FEW015CB BKN023 BKN070 00/00 Q1017', 'LTCW 150350Z 00000KT 1100 R11/P1500U R29/1200N SHSN BR FEW015CB BKN023 BKN070 00/00 Q1016', 'LTCW 150250Z 08004KT 1200 R11/P1500N R29/1100N SHSN BR FEW015CB BKN023 BKN070 00/00 Q1016', 'LTCW 150150Z VRB02KT 1300 R11/P1500U R29/1200D SHSN BR FEW015CB BKN023 BKN070 00/M00 Q1015 RETSSN', 'LTCW 150050Z 03004KT 1200 R11/P1500U R29/P1500N TSSN BR FEW015CB BKN023 BKN070 00/M00 Q1015', 'LTCW 142350Z VRB02KT 1600 -TSSN BR FEW015CB BKN023 BKN070 00/00 Q1015', 'LTCW 142250Z 26006KT 230V290 1800 -TSSN BR FEW015CB BKN023 BKN070 00/M00 Q1015 RETSRASN', 'LTCW 142150Z 20004KT 160V230 2000 -TSRASN BR FEW015CB BKN023 BKN070 00/M00 Q1015', 'LTCW 142050Z 27006KT 1800 -TSRASN BR FEW015CB BKN023 BKN070 00/M00 Q1016 RESHRA', 'LTCW 141950Z 21004KT 2500 -SHRA BR SCT007 BKN023 BKN070 00/M00 Q1016', 'LTCW 141850Z 00000KT 2100 -SHRA BR SCT007 BKN023 BKN070 00/00 Q1017', 'LTCW 141750Z 33004KT 3500 -SHRA BR SCT007 BKN023 BKN070 00/00 Q1017', 'LTCW 141650Z 14005KT 3600 -SHRA BR SCT007 BKN023 BKN070 00/00 Q1017 RESHSN', 'LTCW 141550Z 09008KT 1400 R11/P1500U R29/P1500N -SHSN BR SCT007 BKN023 BKN070 00/M00 Q1017', 'LTCW 141450Z 09007KT 1300 R11/P1500N R29/P1500N -SHSN BR SCT007 BKN025 BKN070 00/M00 Q1017 RESHRASN', 'LTCW 141350Z 09008KT 4000 -SHRA BR FEW010 SCT025 BKN070 01/01 Q1017', 'LTCW 141250Z 10008KT 6000 -SHRA FEW010 SCT025 BKN070 02/01 Q1017', 'LTCW 141150Z 13013KT 6000 FEW010 SCT025 BKN070 03/01 Q1016', 'LTCW 141050Z 09009KT 4500 BR FEW010 SCT025 BKN070 03/01 Q1016 RESHRA', 'LTCW 140950Z 10006KT 4500 -SHRA BR FEW010 SCT025 BKN070 02/01 Q1017', 'LTCW 140850Z 07010KT 6000 FEW010 SCT025 BKN070 03/01 Q1018', 'LTCW 140750Z 07009KT 6000 FEW010 SCT025 BKN070 04/M00 Q1018', 'LTCW 140650Z 06002KT 6000 FEW010 SCT025 BKN070 04/00 Q1019', 'LTCW 140550Z 12008KT 6000 FEW010 SCT025 BKN070 03/M00 Q1019', 'LTCW 140450Z 08008KT 5000 BR FEW010 SCT025 BKN070 04/M00 Q1019', 'LTCW 140350Z 07010KT 4800 BR SCT025 BKN070 BKN180 03/00 Q1018', 'LTCW 140250Z 07011KT 4800 BR FEW010 BKN070 BKN180 04/00 Q1019', 'LTCW 140150Z 09008KT 4000 BR FEW010 BKN070 BKN180 04/M01 Q1019', 'LTCW 140050Z 06008KT 4000 BR FEW010 BKN070 BKN180 04/M00 Q1019', 'LTCW 132350Z 06008KT 3500 BR FEW005 BKN070 BKN180 03/M00 Q1019', 'LTCW 132150Z VRB03KT 2400 BR FEW005 SCT070 BKN180 M01/M03 Q1020', 'LTCW 132050Z 12004KT 080V160 1400 R11/P1500N R29/P1500N BR SCT005 SCT070 BKN180 M01/M03 Q1020', 'LTCW 131950Z VRB02KT 1400 R11/P1500N R29/P1500N BR SCT005 SCT070 BKN180 M02/M03 Q1021', 'LTCW 131850Z VRB01KT 1100 R11/P1500N R29/P1500N BR SCT005 SCT070 BKN180 M02/M04 Q1021', 'LTCW 131750Z VRB02KT 1100 R11/P1500N R29/P1500N BR SCT005 SCT070 BKN180 M04/M05 Q1021', 'LTCW 131650Z VRB02KT 1400 R11/P1500N R29/P1500N BR SCT005 BKN180 M04/M05 Q1021', 'LTCW 131550Z VRB03KT 1800 BR SCT005 SCT025 BKN180 M04/M05 Q1021', 'LTCW 131450Z VRB02KT 2200 BR SCT005 SCT025 BKN180 M03/M04 Q1021', 'LTCW 131350Z 00000KT 2500 BR SCT005 SCT025 BKN180 M01/M03 Q1021', 'LTCW 131250Z VRB02KT 2400 BR SCT005 SCT025 BKN180 M00/M02 Q1022', 'LTCW 131150Z 00000KT 2100 BR SCT005 BKN180 01/M02 Q1022', 'LTCW 131050Z 00000KT 1600 R11/P1500U BR SCT005 BKN180 M01/M01 Q1022', 'LTCW 130950Z 15003KT 110V170 1900 BR SCT007 BKN180 M03/M04 Q1023', 'LTCW 130850Z 00000KT 1000 R11/1300N R29/1300U BCFG SCT005 BKN180 M05/M06 Q1024', 'LTCW 130750Z 00000KT 0500 R11/0550U R29/0450U FZFG VV003 M08/M10 Q1024', 'LTCW 130650Z 00000KT 0100 R11/0125N R29/0150N FZFG VV001 M09/M11 Q1025', 'LTCW 130550Z VRB01KT 0100 R11/0075N R29/0100N FZFG VV001 M12/M13 Q1025', 'LTCW 130450Z VRB01KT 0100 R11/0100N R29/0100N FZFG VV001 M13/M14 Q1025', 'LTCW 130350Z 00000KT 0150 R11/0125N R29/0150N FZFG VV001 M12/M13 Q1024', 'LTCW 130250Z 00000KT 0150 R11/0125N R29/0200N FZFG VV001 M12/M13 Q1024', 'LTCW 130150Z VRB02KT 0150 R11/0150N R29/0200D FZFG VV001 M12/M13 Q1024', 'LTCW 130050Z VRB02KT 0300 R11/0300U R29/0250U FZFG VV001 M12/M13 Q1024', 'LTCW 122350Z VRB02KT 0300 R11/0250D R29/0300U FZFG VV001 M12/M13 Q1025', 'LTCW 122250Z VRB01KT 0500 R11/0250N R29/0600D FZFG VV002 M12/M13 Q1025', 'LTCW 122150Z 00000KT 0500 R11/0225D R29/0600U FZFG VV002 M12/M13 Q1025', 'LTCW 122050Z VRB02KT 0800 R11/0700U R29/0700U FZFG VV003 M13/M14 Q1025', 'LTCW 121950Z 22003KT 100V240 0800 R11/0800U R29/0800U FZFG VV003 M12/M13 Q1025', 'LTCW 121850Z VRB02KT 0700 R11/0800U R29/0500D FZFG VV003 M12/M13 Q1026', 'LTCW 121750Z 25003KT 0700 R11/0800D R29/0600D FZFG VV003 M12/M13 Q1025', 'LTCW 121650Z 00000KT 1200 R11/P1500N R29/0800U BCFG SCT003 BKN180 M09/M10 Q1025', 'LTCW 121550Z 25002KT 1300 R11/1400D R29/P1500D BR SCT003 SCT180 M07/M08 Q1025', 'LTCW 121450Z VRB01KT 1800 BR SCT004 SCT180 M05/M06 Q1025', 'LTCW 121350Z 00000KT 2700 BR SCT005 SCT180 M02/M04 Q1025', 'LTCW 121250Z 16002KT 2500 BR SCT005 SCT180 M02/M04 Q1025', 'LTCW 121150Z 00000KT 2200 BR SCT005 SCT180 M02/M04 Q1025', 'LTCW 121050Z 27003KT 2200 BR SCT005 SCT180 M04/M05 Q1026', 'LTCW 120950Z 15003KT 2200 BR SCT005 SCT180 M06/M07 Q1027']","['2024-02-15 08:50:00', '2024-02-15 07:50:00', '2024-02-15 06:50:00', '2024-02-15 05:50:00', '2024-02-15 04:50:00', '2024-02-15 03:50:00', '2024-02-15 02:50:00', '2024-02-15 01:50:00', '2024-02-15 00:50:00', '2024-02-14 23:50:00', '2024-02-14 22:50:00', '2024-02-14 21:50:00', '2024-02-14 20:50:00', '2024-02-14 19:50:00', '2024-02-14 18:50:00', '2024-02-14 17:50:00', '2024-02-14 16:50:00', '2024-02-14 15:50:00', '2024-02-14 14:50:00', '2024-02-14 13:50:00', '2024-02-14 12:50:00', '2024-02-14 11:50:00', '2024-02-14 10:50:00', '2024-02-14 09:50:00', '2024-02-14 08:50:00', '2024-02-14 07:50:00', '2024-02-14 06:50:00', '2024-02-14 05:50:00', '2024-02-14 04:50:00', '2024-02-14 03:50:00', '2024-02-14 02:50:00', '2024-02-14 01:50:00', '2024-02-14 00:50:00', '2024-02-13 23:50:00', '2024-02-13 21:50:00', '2024-02-13 20:50:00', '2024-02-13 19:50:00', '2024-02-13 18:50:00', '2024-02-13 17:50:00', '2024-02-13 16:50:00', '2024-02-13 15:50:00', '2024-02-13 14:50:00', '2024-02-13 13:50:00', '2024-02-13 12:50:00', '2024-02-13 11:50:00', '2024-02-13 10:50:00', '2024-02-13 09:50:00', '2024-02-13 08:50:00', '2024-02-13 07:50:00', '2024-02-13 06:50:00', '2024-02-13 05:50:00', '2024-02-13 04:50:00', '2024-02-13 03:50:00', '2024-02-13 02:50:00', '2024-02-13 01:50:00', '2024-02-13 00:50:00', '2024-02-12 23:50:00', '2024-02-12 22:50:00', '2024-02-12 21:50:00', '2024-02-12 20:50:00', '2024-02-12 19:50:00', '2024-02-12 18:50:00', '2024-02-12 17:50:00', '2024-02-12 16:50:00', '2024-02-12 15:50:00', '2024-02-12 14:50:00', '2024-02-12 13:50:00', '2024-02-12 12:50:00', '2024-02-12 11:50:00', '2024-02-12 10:50:00', '2024-02-12 09:50:00']"
Turkey, Zonguldak Airport (ONQ/LTAS) ,"['LTAS 150850Z VRB04KT 8000 -SHRA SCT007 BKN021 BKN080 08/08 Q1015', 'LTAS 150750Z 13006KT 080V160 8000 -SHRA SCT007 BKN021 BKN080 08/07 Q1014', 'LTAS 150650Z 13006KT 100V160 8000 -SHRA SCT007 BKN021 BKN080 08/08 Q1014', 'LTAS 150550Z 14006KT 8000 -SHRA SCT007 BKN021 BKN080 08/08 Q1014', 'LTAS 141350Z 30007KT 9999 -RA SCT008 BKN025 BKN080 10/09 Q1012', 'LTAS 141250Z 30008KT 9999 -RA SCT009 BKN030 BKN080 10/09 Q1012', 'LTAS 141150Z 31006KT 9999 -RA SCT009 BKN030 BKN080 10/09 Q1012', 'LTAS 141050Z 31007KT 9999 SCT010 BKN030 BKN080 11/09 Q1011', 'LTAS 140950Z 32005KT 9999 SCT015 BKN025 BKN080 10/09 Q1012', 'LTAS 140850Z 32003KT 9999 SCT013 BKN030 BKN080 10/09 Q1012', 'LTAS 140750Z 32005KT 8000 SCT010 BKN030 BKN080 10/09 Q1012', 'LTAS 140650Z 00000KT 8000 SCT010 BKN030 BKN080 10/09 Q1012', 'LTAS 140550Z 16001KT 7000 SCT010 BKN030 BKN080 09/08 Q1012', 'LTAS 131350Z 36004KT 320V040 9999 SCT032 BKN090 12/07 Q1009', 'LTAS 131250Z 33005KT 290V010 9999 SCT032 BKN090 13/07 Q1008', 'LTAS 131150Z 02006KT 290V060 9999 SCT040 BKN100 13/07 Q1008', 'LTAS 131050Z 33008KT 310V010 9999 SCT040 BKN100 15/08 Q1008', 'LTAS 130950Z 21004KT 160V270 9999 SCT040 SCT100 BKN180 16/07 Q1008', 'LTAS 130850Z 22004KT 180V260 9999 SCT040 SCT100 BKN180 17/07 Q1008', 'LTAS 130750Z 17004KT 110V190 9999 SCT040 BKN180 18/07 Q1007', 'LTAS 130650Z 32004KT 310V010 9999 SCT040 BKN180 13/09 Q1007', 'LTAS 130550Z 14003KT 360V160 9999 SCT040 BKN180 08/07 Q1007', 'LTAS 121350Z 21007KT 9999 SCT030 BKN080 20/05 Q1010', 'LTAS 121250Z VRB02KT 9999 SCT040 BKN100 23/04 Q1010', 'LTAS 121150Z 14004KT 100V180 9999 FEW040 SCT100 24/04 Q1010', 'LTAS 121050Z 13006KT 080V160 9999 FEW040 BKN100 23/03 Q1010', 'LTAS 120950Z 13009KT 080V160 9999 FEW040 SCT100 22/04 Q1011']","['2024-02-15 08:50:00', '2024-02-15 07:50:00', '2024-02-15 06:50:00', '2024-02-15 05:50:00', '2024-02-14 13:50:00', '2024-02-14 12:50:00', '2024-02-14 11:50:00', '2024-02-14 10:50:00', '2024-02-14 09:50:00', '2024-02-14 08:50:00', '2024-02-14 07:50:00', '2024-02-14 06:50:00', '2024-02-14 05:50:00', '2024-02-13 13:50:00', '2024-02-13 12:50:00', '2024-02-13 11:50:00', '2024-02-13 10:50:00', '2024-02-13 09:50:00', '2024-02-13 08:50:00', '2024-02-13 07:50:00', '2024-02-13 06:50:00', '2024-02-13 05:50:00', '2024-02-12 13:50:00', '2024-02-12 12:50:00', '2024-02-12 11:50:00', '2024-02-12 10:50:00', '2024-02-12 09:50:00']"
Turkmenistan, Ashgabat International Airport (ASB/UTAA) ,"['UTAA 150800Z 29010KT 9999 FEW100 22/M00 Q1014 R88/CLRD70 NOSIG', 'UTAA 150700Z 29014KT 9999 FEW100 22/M02 Q1015 R88/CLRD70 NOSIG', 'UTAA 150600Z 28012KT 9999 FEW050CB SCT050 BKN100 21/M01 Q1015 R88/CLRD70 NOSIG', 'UTAA 150500Z 30010KT 9999 FEW050CB SCT050 BKN100 19/M00 Q1014 R88/CLRD70 NOSIG', 'UTAA 150400Z 02004KT 9999 SCT100 14/M01 Q1013 R88/CLRD70 NOSIG', 'UTAA 150300Z 21004KT 9999 SCT100 14/M02 Q1012 R88/CLRD70 NOSIG', 'UTAA 150200Z 19004KT 140V210 9999 NSC 15/M01 Q1012 R88/CLRD70 NOSIG', 'UTAA 150100Z 23004KT 200V320 9999 NSC 15/M02 Q1012 R88/CLRD70 NOSIG', 'UTAA 150000Z 24004KT 9999 NSC 16/M03 Q1012 R88/CLRD70 NOSIG', 'UTAA 142300Z 27006KT 9999 NSC 13/M01 Q1012 R88/CLRD70 NOSIG', 'UTAA 142200Z 00000KT 9999 NSC 16/M02 Q1012 R88/CLRD70 NOSIG', 'UTAA 142100Z 11006KT 9999 NSC 14/M01 Q1013 R88/CLRD70 NOSIG', 'UTAA 142000Z 17006KT 100V210 9999 NSC 16/M01 Q1013 R88/CLRD70 NOSIG', 'UTAA 141900Z 16006KT 9999 NSC 15/00 Q1013 R88/CLRD70 NOSIG', 'UTAA 141800Z 19004KT 140V210 9999 NSC 16/01 Q1013 R88/CLRD70 NOSIG', 'UTAA 141700Z 19008KT 9999 FEW100 17/00 Q1014 R88/CLRD70 NOSIG', 'UTAA 141600Z 16004KT 9000 FEW100 16/01 Q1013 R88/CLRD70 NOSIG', 'UTAA 141500Z 09002KT 9999 SCT100 18/01 Q1014 R88/CLRD70 NOSIG', 'UTAA 141400Z 03004KT 9999 SCT100 21/00 Q1013 R88/CLRD70 NOSIG', 'UTAA 141300Z 09004KT 9999 SCT100 25/M00 Q1013 R88/CLRD70 NOSIG', 'UTAA 141200Z 11004KT 060V140 9999 FEW050 26/M05 Q1012 R88/CLRD70 NOSIG', 'UTAA 141100Z 05006KT 010V090 9999 FEW050 SCT100 27/M04 Q1012 R88/CLRD70 NOSIG', 'UTAA 141000Z 01006KT 9999 FEW050 FEW100 26/M03 Q1012 R88/CLRD70 NOSIG', 'UTAA 140900Z 08004KT 9999 FEW100 26/M04 Q1013 R88/CLRD70 NOSIG', 'UTAA 140800Z 09004KT 040V120 9999 NSC 25/M03 Q1014 R88/CLRD70 NOSIG', 'UTAA 140700Z 35006KT 290V050 9999 NSC 24/M03 Q1014 R88/CLRD70 NOSIG', 'UTAA 140600Z 25002KT 9999 NSC 21/03 Q1014 R88/CLRD70 NOSIG', 'UTAA 140500Z 18002KT 9999 NSC 19/M00 Q1014 R88/CLRD70 NOSIG', 'UTAA 140400Z 22004KT 140V280 9999 NSC 13/M00 Q1014 R88/CLRD70 NOSIG', 'UTAA 140300Z 18006KT 9999 NSC 10/M02 Q1014 R88/CLRD70 NOSIG', 'UTAA 140200Z 19006KT 9999 NSC 11/M02 Q1013 R88/CLRD70 NOSIG', 'UTAA 140100Z 19004KT 150V210 9999 NSC 12/M02 Q1013 R88/CLRD70 NOSIG', 'UTAA 140000Z 20004KT 160V230 9999 NSC 12/M03 Q1013 R88/CLRD70 NOSIG', 'UTAA 132300Z 21006KT 9999 NSC 11/M01 Q1013 R88/CLRD70 NOSIG', 'UTAA 132200Z 19004KT 9999 NSC 11/M00 Q1014 R88/CLRD70 NOSIG', 'UTAA 132100Z 18004KT 9999 NSC 11/02 Q1014 R88/CLRD70 NOSIG', 'UTAA 132000Z 23004KT 9999 NSC 11/02 Q1015 R88/CLRD70 NOSIG', 'UTAA 131900Z 26004KT 9999 NSC 13/02 Q1015 R88/CLRD70 NOSIG', 'UTAA 131800Z 26006KT 9999 NSC 13/03 Q1015 R88/CLRD70 NOSIG', 'UTAA 131700Z 27002KT 9999 NSC 13/05 Q1015 R88/CLRD70 NOSIG', 'UTAA 131600Z 26002KT 9000 NSC 14/04 Q1015 R88/CLRD70 NOSIG', 'UTAA 131500Z VRB02KT 9999 NSC 17/04 Q1015 R88/CLRD70 NOSIG', 'UTAA 131400Z 13006KT 9999 FEW100 19/05 Q1015 R88/CLRD70 NOSIG', 'UTAA 131300Z 10006KT 9999 FEW100 22/03 Q1015 R88/CLRD70 NOSIG', 'UTAA 131200Z 10008KT 060V130 9999 FEW100 23/03 Q1015 R88/CLRD70 NOSIG', 'UTAA 131100Z 11008KT 9999 FEW100 23/M00 Q1015 R88/CLRD70 NOSIG', 'UTAA 131000Z 10004KT 060V160 9999 FEW100 23/M01 Q1015 R88/CLRD70 NOSIG', 'UTAA 130900Z 06004KT 020V150 9999 NSC 22/02 Q1016 R88/CLRD70 NOSIG', 'UTAA 130800Z VRB02KT 9999 NSC 20/03 Q1017 R88/CLRD70 NOSIG', 'UTAA 130700Z VRB02KT 9999 NSC 18/02 Q1018 R88/CLRD70 NOSIG', 'UTAA 130600Z 00000KT 9999 NSC 16/03 Q1018 R88/CLRD70 NOSIG', 'UTAA 130500Z 00000KT 9999 NSC 13/01 Q1018 R88/CLRD70 NOSIG', 'UTAA 130400Z 00000KT 9999 NSC 10/01 Q1018 R88/CLRD70 NOSIG', 'UTAA 130300Z 24004KT 9999 NSC 07/01 Q1018 R88/CLRD70 NOSIG', 'UTAA 130200Z 19002KT 9999 NSC 06/02 Q1018 R88/CLRD70 NOSIG', 'UTAA 130100Z 18002KT 9999 NSC 07/01 Q1018 R88/CLRD70 NOSIG', 'UTAA 130000Z VRB02KT 9999 NSC 08/01 Q1018 R88/CLRD70 NOSIG', 'UTAA 122300Z 21004KT 9999 NSC 08/02 Q1018 R88/CLRD70 NOSIG', 'UTAA 122200Z 18004KT 9999 NSC 09/02 Q1019 R88/CLRD70 NOSIG', 'UTAA 122100Z VRB02KT 9999 NSC 09/02 Q1019 R88/CLRD70 NOSIG', 'UTAA 122000Z 20004KT 9999 NSC 10/02 Q1020 R88/CLRD70 NOSIG', 'UTAA 121900Z 18002KT 9999 NSC 11/02 Q1020 R88/CLRD70 NOSIG', 'UTAA 121800Z 20004KT 9999 NSC 12/02 Q1021 R88/CLRD70 NOSIG', 'UTAA 121700Z 19004KT 9999 NSC 12/03 Q1021 R88/CLRD70 NOSIG', 'UTAA 121600Z 19004KT 9999 NSC 14/02 Q1021 R88/CLRD70 NOSIG', 'UTAA 121500Z 26006KT 9999 NSC 15/02 Q1021 R88/CLRD70 NOSIG', 'UTAA 121400Z 30006KT 9999 NSC 17/02 Q1020 R88/CLRD70 NOSIG', 'UTAA 121300Z 27004KT 9999 NSC 21/03 Q1021 R88/CLRD70 NOSIG', 'UTAA 121200Z 26002KT 9999 FEW100 21/04 Q1020 R88/CLRD70 NOSIG', 'UTAA 121100Z 00000KT 9999 FEW100 20/M00 Q1020 R88/CLRD70 NOSIG', 'UTAA 121000Z VRB02KT 9999 FEW100 21/01 Q1020 R88/CLRD70 NOSIG']","['2024-02-15 08:00:00', '2024-02-15 07:00:00', '2024-02-15 06:00:00', '2024-02-15 05:00:00', '2024-02-15 04:00:00', '2024-02-15 03:00:00', '2024-02-15 02:00:00', '2024-02-15 01:00:00', '2024-02-15 00:00:00', '2024-02-14 23:00:00', '2024-02-14 22:00:00', '2024-02-14 21:00:00', '2024-02-14 20:00:00', '2024-02-14 19:00:00', '2024-02-14 18:00:00', '2024-02-14 17:00:00', '2024-02-14 16:00:00', '2024-02-14 15:00:00', '2024-02-14 14:00:00', '2024-02-14 13:00:00', '2024-02-14 12:00:00', '2024-02-14 11:00:00', '2024-02-14 10:00:00', '2024-02-14 09:00:00', '2024-02-14 08:00:00', '2024-02-14 07:00:00', '2024-02-14 06:00:00', '2024-02-14 05:00:00', '2024-02-14 04:00:00', '2024-02-14 03:00:00', '2024-02-14 02:00:00', '2024-02-14 01:00:00', '2024-02-14 00:00:00', '2024-02-13 23:00:00', '2024-02-13 22:00:00', '2024-02-13 21:00:00', '2024-02-13 20:00:00', '2024-02-13 19:00:00', '2024-02-13 18:00:00', '2024-02-13 17:00:00', '2024-02-13 16:00:00', '2024-02-13 15:00:00', '2024-02-13 14:00:00', '2024-02-13 13:00:00', '2024-02-13 12:00:00', '2024-02-13 11:00:00', '2024-02-13 10:00:00', '2024-02-13 09:00:00', '2024-02-13 08:00:00', '2024-02-13 07:00:00', '2024-02-13 06:00:00', '2024-02-13 05:00:00', '2024-02-13 04:00:00', '2024-02-13 03:00:00', '2024-02-13 02:00:00', '2024-02-13 01:00:00', '2024-02-13 00:00:00', '2024-02-12 23:00:00', '2024-02-12 22:00:00', '2024-02-12 21:00:00', '2024-02-12 20:00:00', '2024-02-12 19:00:00', '2024-02-12 18:00:00', '2024-02-12 17:00:00', '2024-02-12 16:00:00', '2024-02-12 15:00:00', '2024-02-12 14:00:00', '2024-02-12 13:00:00', '2024-02-12 12:00:00', '2024-02-12 11:00:00', '2024-02-12 10:00:00']"
Turkmenistan, Dasoguz Airport (TAZ/UTAT) ,"['UTAT 150800Z 29010KT CAVOK 11/04 Q1014 R26/CLRD70 NOSIG', 'UTAT 150700Z 29010KT CAVOK 09/04 Q1014 R26/CLRD70 NOSIG', 'UTAT 150600Z 29014KT 8000 NSC 09/05 Q1014 R26/CLRD70 NOSIG', 'UTAT 150500Z 27012KT CAVOK 08/04 Q1013 R26/CLRD70 NOSIG', 'UTAT 150400Z 27006KT CAVOK 07/02 Q1012 R26/CLRD70 NOSIG', 'UTAT 150300Z 26008KT CAVOK 07/01 Q1011 R26/CLRD70 NOSIG', 'UTAT 150200Z 24006KT CAVOK 08/01 Q1011 R26/CLRD70 NOSIG', 'UTAT 150100Z 26006KT CAVOK 07/00 Q1011 R08/CLRD70 NOSIG', 'UTAT 150000Z 25006KT CAVOK 08/01 Q1011 R08/CLRD70 NOSIG', 'UTAT 142300Z 24010KT CAVOK 09/01 Q1011 R08/CLRD70 NOSIG', 'UTAT 142200Z 21008KT CAVOK 07/01 Q1011 R08/CLRD70 NOSIG', 'UTAT 142100Z 19006KT CAVOK 07/01 Q1011 R08/CLRD70 NOSIG', 'UTAT 142000Z 18004KT CAVOK 07/00 Q1011 R08/CLRD70 NOSIG', 'UTAT 141900Z 22006KT CAVOK 08/M00 Q1011 R08/CLRD70 NOSIG', 'UTAT 141800Z 22004KT CAVOK 09/00 Q1012 R08/CLRD70 NOSIG', 'UTAT 141700Z 21004KT CAVOK 10/01 Q1012 R08/CLRD70 NOSIG', 'UTAT 141600Z 23004KT CAVOK 11/00 Q1012 R08/CLRD70 NOSIG', 'UTAT 141500Z 21004KT 9000 NSC 12/01 Q1012 R08/CLRD70 NOSIG', 'UTAT 141400Z 23004KT CAVOK 15/00 Q1012 R08/CLRD70 NOSIG', 'UTAT 141300Z 20006KT CAVOK 18/01 Q1012 R08/CLRD70 NOSIG', 'UTAT 141200Z 20006KT CAVOK 20/00 Q1012 R08/CLRD70 NOSIG', 'UTAT 141100Z 18008KT CAVOK 20/01 Q1012 R08/CLRD70 NOSIG', 'UTAT 141000Z 18008KT 150V210 CAVOK 20/01 Q1013 R08/CLRD70 NOSIG', 'UTAT 140900Z 18006KT 140V210 CAVOK 20/01 Q1013 R08/CLRD70 NOSIG', 'UTAT 140800Z 14008KT 100V170 CAVOK 18/02 Q1014 R08/CLRD70 NOSIG', 'UTAT 140700Z 15008KT CAVOK 15/03 Q1015 R08/CLRD70 NOSIG', 'UTAT 140600Z 15008KT CAVOK 12/04 Q1015 R08/CLRD70 NOSIG', 'UTAT 140500Z 13010KT CAVOK 10/03 Q1016 R08/CLRD70 NOSIG', 'UTAT 140400Z 12008KT CAVOK 06/02 Q1016 R08/CLRD70 NOSIG', 'UTAT 140300Z 12008KT CAVOK 05/01 Q1016 R08/CLRD70 NOSIG', 'UTAT 140200Z 12008KT CAVOK 05/01 Q1016 R08/CLRD70 NOSIG', 'UTAT 140100Z 12008KT CAVOK 05/01 Q1016 R08/CLRD70 NOSIG', 'UTAT 140000Z 12008KT CAVOK 05/01 Q1016 R08/CLRD70 NOSIG', 'UTAT 132300Z 12008KT CAVOK 05/00 Q1017 R08/CLRD70 NOSIG', 'UTAT 132200Z 11008KT CAVOK 04/M01 Q1017 R08/CLRD70 NOSIG', 'UTAT 132100Z 12008KT CAVOK 05/M01 Q1017 R08/CLRD70 NOSIG', 'UTAT 132000Z 12008KT CAVOK 06/M00 Q1018 R08/CLRD70 NOSIG', 'UTAT 131900Z 13008KT CAVOK 08/M00 Q1018 R08/CLRD70 NOSIG', 'UTAT 131800Z 13008KT CAVOK 08/00 Q1018 R08/CLRD70 NOSIG', 'UTAT 131700Z 13008KT CAVOK 09/00 Q1018 R08/CLRD70 NOSIG', 'UTAT 131600Z 12010KT CAVOK 10/00 Q1018 R08/CLRD70 NOSIG', 'UTAT 131500Z 12008KT CAVOK 11/M00 Q1019 R08/CLRD70 NOSIG', 'UTAT 131400Z 12008KT CAVOK 14/00 Q1019 R08/CLRD70 NOSIG', 'UTAT 131300Z 13008KT CAVOK 18/01 Q1019 R08/CLRD70 NOSIG', 'UTAT 131200Z 15012KT CAVOK 20/00 Q1019 R08/CLRD70 NOSIG', 'UTAT 131100Z 16012KT CAVOK 21/01 Q1019 R08/CLRD70 NOSIG', 'UTAT 131000Z 16014KT CAVOK 20/01 Q1019 R08/CLRD70 NOSIG', 'UTAT 130900Z 16012KT CAVOK 20/02 Q1020 R08/CLRD70 NOSIG', 'UTAT 130800Z 16012KT CAVOK 18/02 Q1021 R08/CLRD70 NOSIG', 'UTAT 130700Z 16010KT CAVOK 15/04 Q1022 R08/CLRD70 NOSIG', 'UTAT 130600Z 15010KT CAVOK 12/04 Q1023 R08/CLRD70 NOSIG', 'UTAT 130500Z 14010KT CAVOK 08/03 Q1023 R08/CLRD70 NOSIG', 'UTAT 130400Z 12008KT CAVOK 05/02 Q1023 R08/CLRD70 NOSIG', 'UTAT 130300Z 12008KT CAVOK 03/01 Q1022 R08/CLRD70 NOSIG', 'UTAT 130200Z 12008KT CAVOK 03/01 Q1022 R08/CLRD70 NOSIG', 'UTAT 130100Z 12008KT CAVOK 04/01 Q1022 R08/CLRD70 NOSIG', 'UTAT 130000Z 12008KT CAVOK 05/02 Q1022 R08/CLRD70 NOSIG', 'UTAT 122300Z 12008KT CAVOK 05/02 Q1022 R08/CLRD70 NOSIG', 'UTAT 122200Z 12008KT CAVOK 06/02 Q1022 R08/CLRD70 NOSIG', 'UTAT 122100Z 12008KT CAVOK 07/02 Q1022 R08/CLRD70 NOSIG', 'UTAT 122000Z 12008KT CAVOK 07/02 Q1023 R08/CLRD70 NOSIG', 'UTAT 121900Z 12010KT CAVOK 09/02 Q1023 R08/CLRD70 NOSIG', 'UTAT 121800Z 12012KT CAVOK 09/03 Q1023 R08/CLRD70 NOSIG', 'UTAT 121700Z 12010KT CAVOK 10/03 Q1023 R08/CLRD70 NOSIG', 'UTAT 121600Z 12012KT CAVOK 11/04 Q1023 R08/CLRD70 NOSIG', 'UTAT 121500Z 12010KT CAVOK 10/04 Q1024 R08/CLRD70 NOSIG', 'UTAT 121400Z 12008KT CAVOK 11/03 Q1023 R08/CLRD70 NOSIG', 'UTAT 121300Z 13008KT CAVOK 13/04 Q1023 R08/CLRD70 NOSIG', 'UTAT 121200Z 14012KT CAVOK 14/04 Q1023 R08/CLRD70 NOSIG', 'UTAT 121100Z 13014KT CAVOK 15/04 Q1023 R08/CLRD70 NOSIG', 'UTAT 121000Z 12014KT CAVOK 15/11 Q1024 R08/CLRD70 NOSIG']","['2024-02-15 08:00:00', '2024-02-15 07:00:00', '2024-02-15 06:00:00', '2024-02-15 05:00:00', '2024-02-15 04:00:00', '2024-02-15 03:00:00', '2024-02-15 02:00:00', '2024-02-15 01:00:00', '2024-02-15 00:00:00', '2024-02-14 23:00:00', '2024-02-14 22:00:00', '2024-02-14 21:00:00', '2024-02-14 20:00:00', '2024-02-14 19:00:00', '2024-02-14 18:00:00', '2024-02-14 17:00:00', '2024-02-14 16:00:00', '2024-02-14 15:00:00', '2024-02-14 14:00:00', '2024-02-14 13:00:00', '2024-02-14 12:00:00', '2024-02-14 11:00:00', '2024-02-14 10:00:00', '2024-02-14 09:00:00', '2024-02-14 08:00:00', '2024-02-14 07:00:00', '2024-02-14 06:00:00', '2024-02-14 05:00:00', '2024-02-14 04:00:00', '2024-02-14 03:00:00', '2024-02-14 02:00:00', '2024-02-14 01:00:00', '2024-02-14 00:00:00', '2024-02-13 23:00:00', '2024-02-13 22:00:00', '2024-02-13 21:00:00', '2024-02-13 20:00:00', '2024-02-13 19:00:00', '2024-02-13 18:00:00', '2024-02-13 17:00:00', '2024-02-13 16:00:00', '2024-02-13 15:00:00', '2024-02-13 14:00:00', '2024-02-13 13:00:00', '2024-02-13 12:00:00', '2024-02-13 11:00:00', '2024-02-13 10:00:00', '2024-02-13 09:00:00', '2024-02-13 08:00:00', '2024-02-13 07:00:00', '2024-02-13 06:00:00', '2024-02-13 05:00:00', '2024-02-13 04:00:00', '2024-02-13 03:00:00', '2024-02-13 02:00:00', '2024-02-13 01:00:00', '2024-02-13 00:00:00', '2024-02-12 23:00:00', '2024-02-12 22:00:00', '2024-02-12 21:00:00', '2024-02-12 20:00:00', '2024-02-12 19:00:00', '2024-02-12 18:00:00', '2024-02-12 17:00:00', '2024-02-12 16:00:00', '2024-02-12 15:00:00', '2024-02-12 14:00:00', '2024-02-12 13:00:00', '2024-02-12 12:00:00', '2024-02-12 11:00:00', '2024-02-12 10:00:00']"
Turkmenistan, Mary International Airport (MYP/UTAM) ,"['UTAM 150800Z 23008KT CAVOK 25/M04 Q1014 R88/CLRD70 NOSIG', 'UTAM 150700Z 20008KT CAVOK 23/M03 Q1015 R88/CLRD70 NOSIG', 'UTAM 150600Z 20008KT CAVOK 18/M02 Q1015 R88/CLRD70 NOSIG', 'UTAM 150500Z 17008KT CAVOK 14/M03 Q1015 R88/CLRD70 NOSIG', 'UTAM 150400Z 16006KT CAVOK 10/M01 Q1016 R88/CLRD70 NOSIG', 'UTAM 150300Z 15006KT CAVOK 10/M01 Q1016 R88/CLRD70 NOSIG', 'UTAM 150200Z 16006KT 6000 BKN230 09/00 Q1016 R88/CLRD70 NOSIG', 'UTAM 150100Z 15008KT 6000 BKN230 12/M00 Q1015 R88/CLRD70 NOSIG', 'UTAM 150000Z 13006KT 6000 BKN230 12/00 Q1015 R88/CLRD70 NOSIG', 'UTAM 142300Z 14004KT 6000 BKN230 12/00 Q1015 R88/CLRD70 NOSIG', 'UTAM 142200Z 17004KT 6000 BKN230 13/00 Q1015 R88/CLRD70 NOSIG', 'UTAM 142100Z 16004KT 6000 BKN230 13/00 Q1015 R88/CLRD70 NOSIG', 'UTAM 142000Z 16008KT 6000 BKN230 14/01 Q1015 R88/CLRD70 NOSIG', 'UTAM 141900Z 19004KT 6000 BKN230 15/01 Q1015 R88/CLRD70 NOSIG', 'UTAM 141800Z 21004KT 6000 BKN230 15/01 Q1015 R88/CLRD70 NOSIG', 'UTAM 141700Z 00000KT 6000 BKN230 15/03 Q1015 R88/CLRD70 NOSIG', 'UTAM 141600Z 00000KT 6000 SCT230 19/01 Q1015 R88/CLRD70 NOSIG', 'UTAM 141500Z 26004KT 6000 BKN230 20/02 Q1014 R88/CLRD70 NOSIG', 'UTAM 141400Z 25004KT 6000 OVC230 21/02 Q1014 R88/CLRD70 NOSIG', 'UTAM 141300Z 27008KT CAVOK 24/M00 Q1013 R88/CLRD70 NOSIG', 'UTAM 141200Z 23008KT CAVOK 26/M05 Q1013 R88/CLRD70 NOSIG', 'UTAM 141100Z 26010KT CAVOK 26/M07 Q1013 R88/CLRD70 NOSIG', 'UTAM 141000Z 23010KT CAVOK 26/M05 Q1013 R88/CLRD70 NOSIG', 'UTAM 140900Z 20010KT 6000 BKN230 24/M02 Q1014 R88/CLRD70 TEMPO 2000 HZ', 'UTAM 140800Z 19010KT 6000 BKN230 21/M02 Q1015 R88/CLRD70 TEMPO 2000 HZ', 'UTAM 140700Z 19014KT 4700 HZ BKN230 20/M02 Q1016 R88/CLRD70 NOSIG', 'UTAM 140600Z 17012KT 4700 HZ BKN230 17/01 Q1016 R88/CLRD70 NOSIG', 'UTAM 140500Z 16010KT 4700 HZ BKN230 14/00 Q1016 R88/CLRD70 NOSIG', 'UTAM 140400Z 15008KT 3800 HZ SCT230 10/M02 Q1017 R88/CLRD70 NOSIG', 'UTAM 140300Z 14010KT 3800 HZ BKN230 09/M01 Q1017 R88/CLRD70 NOSIG', 'UTAM 140200Z 14006KT 6000 SCT230 09/M00 Q1017 R88/CLRD70 NOSIG', 'UTAM 140100Z 15008KT 6000 SCT230 09/00 Q1017 R88/CLRD70 NOSIG', 'UTAM 140000Z 13006KT 6000 BKN230 09/00 Q1017 R88/CLRD70 NOSIG', 'UTAM 132300Z 13010KT 6000 NSC 10/M00 Q1017 R88/CLRD70 NOSIG', 'UTAM 132200Z 12008KT 6000 NSC 10/00 Q1018 R88/CLRD70 NOSIG', 'UTAM 132100Z 16008KT 6000 NSC 11/03 Q1018 R88/CLRD70 NOSIG', 'UTAM 132000Z 13006KT 6000 NSC 11/02 Q1019 R88/CLRD70 NOSIG', 'UTAM 131900Z 12006KT 6000 BKN230 12/01 Q1019 R88/CLRD70 NOSIG', 'UTAM 131800Z 11008KT 6000 BKN230 13/01 Q1019 R88/CLRD70 NOSIG', 'UTAM 131700Z 09008KT 6000 SCT230 15/01 Q1019 R88/CLRD70 NOSIG', 'UTAM 131600Z 10008KT 6000 SCT230 16/M00 Q1018 R88/CLRD70 NOSIG', 'UTAM 131500Z 09006KT 6000 SCT230 17/02 Q1018 R88/CLRD70 NOSIG', 'UTAM 131400Z 10006KT CAVOK 19/01 Q1018 R88/CLRD70 NOSIG', 'UTAM 131300Z 11006KT CAVOK 22/00 Q1018 R88/CLRD70 NOSIG', 'UTAM 131200Z 12008KT CAVOK 23/M01 Q1018 R88/CLRD70 NOSIG', 'UTAM 131100Z 13010KT CAVOK 24/M02 Q1018 R88/CLRD70 NOSIG', 'UTAM 131000Z 11010KT CAVOK 23/M01 Q1019 R88/CLRD70 NOSIG', 'UTAM 130900Z 13010KT CAVOK 22/00 Q1020 R88/CLRD70 NOSIG', 'UTAM 130800Z 13010KT 6000 NSC 20/02 Q1021 R88/CLRD70 NOSIG', 'UTAM 130700Z 11008KT CAVOK 17/02 Q1022 R88/CLRD70 NOSIG', 'UTAM 130600Z 12008KT CAVOK 14/M02 Q1023 R88/CLRD70 NOSIG', 'UTAM 130500Z 13008KT CAVOK 11/00 Q1023 R88/CLRD70 NOSIG', 'UTAM 130400Z 13008KT CAVOK 09/M01 Q1023 R88/CLRD70 NOSIG', 'UTAM 130300Z 12008KT CAVOK 07/M00 Q1023 R88/CLRD70 NOSIG', 'UTAM 130200Z 13006KT 6000 NSC 08/00 Q1024 R88/CLRD70 NOSIG', 'UTAM 130100Z 14006KT 6000 NSC 07/01 Q1024 R88/CLRD70 NOSIG', 'UTAM 130000Z 10006KT 6000 NSC 08/01 Q1023 R88/CLRD70 NOSIG', 'UTAM 122300Z 11006KT 6000 NSC 09/01 Q1024 R88/CLRD70 NOSIG', 'UTAM 122200Z 11006KT 6000 NSC 09/01 Q1024 R88/CLRD70 NOSIG', 'UTAM 122100Z 12006KT 6000 NSC 10/01 Q1024 R88/CLRD70 NOSIG', 'UTAM 122000Z 09008KT 6000 NSC 11/02 Q1024 R88/CLRD70 NOSIG', 'UTAM 121900Z 09008KT 6000 NSC 12/00 Q1024 R88/CLRD70 NOSIG', 'UTAM 121800Z 08008KT 6000 NSC 13/01 Q1024 R88/CLRD70 NOSIG', 'UTAM 121700Z 09006KT 6000 NSC 13/01 Q1024 R88/CLRD70 NOSIG', 'UTAM 121600Z 07008KT 6000 NSC 14/02 Q1023 R88/CLRD70 NOSIG', 'UTAM 121500Z 07008KT 6000 SCT230 15/00 Q1023 R88/CLRD70 NOSIG', 'UTAM 121400Z 07006KT 6000 SCT230 17/M01 Q1022 R88/CLRD70 NOSIG', 'UTAM 121300Z 07008KT CAVOK 20/M01 Q1022 R88/CLRD70 NOSIG', 'UTAM 121200Z 07010KT CAVOK 22/M02 Q1022 R88/CLRD70 NOSIG', 'UTAM 121100Z 10008KT CAVOK 23/02 Q1022 R88/CLRD70 NOSIG', 'UTAM 121000Z 11008KT CAVOK 23/03 Q1022 R88/CLRD70 NOSIG']","['2024-02-15 08:00:00', '2024-02-15 07:00:00', '2024-02-15 06:00:00', '2024-02-15 05:00:00', '2024-02-15 04:00:00', '2024-02-15 03:00:00', '2024-02-15 02:00:00', '2024-02-15 01:00:00', '2024-02-15 00:00:00', '2024-02-14 23:00:00', '2024-02-14 22:00:00', '2024-02-14 21:00:00', '2024-02-14 20:00:00', '2024-02-14 19:00:00', '2024-02-14 18:00:00', '2024-02-14 17:00:00', '2024-02-14 16:00:00', '2024-02-14 15:00:00', '2024-02-14 14:00:00', '2024-02-14 13:00:00', '2024-02-14 12:00:00', '2024-02-14 11:00:00', '2024-02-14 10:00:00', '2024-02-14 09:00:00', '2024-02-14 08:00:00', '2024-02-14 07:00:00', '2024-02-14 06:00:00', '2024-02-14 05:00:00', '2024-02-14 04:00:00', '2024-02-14 03:00:00', '2024-02-14 02:00:00', '2024-02-14 01:00:00', '2024-02-14 00:00:00', '2024-02-13 23:00:00', '2024-02-13 22:00:00', '2024-02-13 21:00:00', '2024-02-13 20:00:00', '2024-02-13 19:00:00', '2024-02-13 18:00:00', '2024-02-13 17:00:00', '2024-02-13 16:00:00', '2024-02-13 15:00:00', '2024-02-13 14:00:00', '2024-02-13 13:00:00', '2024-02-13 12:00:00', '2024-02-13 11:00:00', '2024-02-13 10:00:00', '2024-02-13 09:00:00', '2024-02-13 08:00:00', '2024-02-13 07:00:00', '2024-02-13 06:00:00', '2024-02-13 05:00:00', '2024-02-13 04:00:00', '2024-02-13 03:00:00', '2024-02-13 02:00:00', '2024-02-13 01:00:00', '2024-02-13 00:00:00', '2024-02-12 23:00:00', '2024-02-12 22:00:00', '2024-02-12 21:00:00', '2024-02-12 20:00:00', '2024-02-12 19:00:00', '2024-02-12 18:00:00', '2024-02-12 17:00:00', '2024-02-12 16:00:00', '2024-02-12 15:00:00', '2024-02-12 14:00:00', '2024-02-12 13:00:00', '2024-02-12 12:00:00', '2024-02-12 11:00:00', '2024-02-12 10:00:00']"
Turkmenistan, Turkmenabat International Airport (CRZ/UTAV) ,"['UTAV 150800Z 16080KT CAVOK 23/M05 Q1014 R13/CLRD70 NOSIG', 'UTAV 150700Z 16010KT CAVOK 21/M04 Q1015 R13/CLRD70 NOSIG', 'UTAV 150600Z 17008KT CAVOK 19/M04 Q1015 R13/CLRD70 NOSIG', 'UTAV 150500Z 16010KT 9000 NSC 16/M03 Q1015 R13/CLRD70 NOSIG', 'UTAV 150400Z 16006KT 8000 NSC 12/M03 Q1015 R13/CLRD70 NOSIG', 'UTAV 150300Z 15006KT 5000 HZ NSC 08/M01 Q1015 R13/CLRD70 NOSIG', 'UTAV 150200Z 54006KT 4500 HZ NSC 08/M01 Q1015 R13/CLRD70 NOSIG', 'UTAV 150100Z 14006KT 3100 HZ NSC 08/M01 Q1014 R13/CLRD70 NOSIG', 'UTAV 150000Z 19006KT 3100 HZ NSC 10/M01 Q1014 R13/CLRD70 NOSIG', 'UTAV 142300Z 18008KT 3000 HZ NSC 11/M02 Q1014 R13/CLRD70 NOSIG', 'UTAV 142200Z 18006KT 2300 HZ NSC 12/M02 Q1014 R13/CLRD70 NOSIG', 'UTAV 142100Z 18006KT 1800 R13/P2000N HZ NSC 13/M03 Q1014 R13/CLRD70 NOSIG', 'UTAV 142000Z 16008KT 1600 R13/P2000N HZ NSC 16/M03 Q1014 R13/CLRD70 NOSIG', 'UTAV 141900Z 16008KT 1300 R13/P2000N HZ NSC 16/M03 Q1014 R13/CLRD70 NOSIG', 'UTAV 141800Z 17010KT 1100 R13/P2000N HZ VV015 18/M03 Q1014 R13/CLRD70 NOSIG', 'UTAV 141700Z 17012KT 0800 R13/1700N BLDU VV013 19/M04 Q1014 R13/CLRD70 NOSIG', 'UTAV 141600Z 15014KT 6000 R13/1400N BLDU VV011 20/M04 Q1014 R13/CLRD70 NOSIG', 'UTAV 141500Z 15014KT 0550 R13/1300N BLDU VV011 22/M04 Q1014 R13/CLRD70 NOSIG', 'UTAV 141400Z 14016KT 0600 R13/1400N BLDU VV012 23/M03 Q1014 R13/CLRD70 NOSIG', 'UTAV 141300Z 14014G24KT 0700 R13/0700N BLDU VV013 23/M03 Q1013 R13/CLRD70 NOSIG', 'UTAV 141200Z 15014G24KT 0900 R13/0900N BLDU VV015 24/M04 Q1013 R13/CLRD70 NOSIG', 'UTAV 141100Z 15016KT 1000 BLDU VV019 24/M034Q10143 R13/CLRD70 NOSIG', 'UTAV 140900Z 15020KT 1700 DS OVC018 24/M04 Q1015 R13/CLRD70 NOSIG', 'UTAV 140800Z 15022KT 2100 -DS OVC017 23/M03 Q1016 R13/CLRD70 NOSIG', 'UTAV 140700Z 15020KT 2100 -DS OVC014 NSC 22/M03 Q1017 R13/CLRD70 NOSIG', 'UTAV 140600Z 14018KT DRDU BKN015 20/M03 Q1017 R13/CLRD70 NOSIG', 'UTAV 140500Z 14010KT CAVOK 14/M01 Q1018 R13/CLRD70 NOSIG', 'UTAV 140400Z 13010KT CAVOK 10/01 Q1018 R13/CLRD70 NOSIG', 'UTAV 140300Z 11010KT CAVOK 06/01 Q1018 R13/CLRD70 NOSIG', 'UTAV 140200Z 12012KT CAVOK 07/00 Q1018 R13/CLRD70 NOSIG', 'UTAV 140100Z 12010KT CAVOK 07/01 Q1018 R13/CLRD70 NOSIG', 'UTAV 140000Z 12010KT CAVOK 07/01 Q1018 R13/CLRD70 NOSIG', 'UTAV 132300Z 12008KT CAVOK 07/01 Q1018 R13/CLRD70 NOSIG', 'UTAV 132200Z 11006KT CAVOK 07/01 Q1019 R13/CLRD70 NOSIG', 'UTAV 132100Z 10008KT CAVOK 10/01 Q1019 R13/CLRD70 NOSIG', 'UTAV 132000Z 10010KT CAVOK 12/01 Q1019 R13/CLRD70 NOSIG', 'UTAV 131900Z 10010KT CAVOK 12/00 Q1019 R13/CLRD70 NOSIG', 'UTAV 131800Z 09010KT CAVOK 13/M00 Q1020 R13/CLRD70 NOSIG', 'UTAV 131700Z 08006KT CAVOK 11/02 Q1020 R13/CLRD70 NOSIG', 'UTAV 131600Z 08008KT CAVOK 13/02 Q1020 R13/CLRD70 NOSIG', 'UTAV 131500Z 08006KT CAVOK 14/03 Q1020 R13/CLRD70 NOSIG', 'UTAV 131400Z 17006KT CAVOK 15/01 Q1020 R13/CLRD70 NOSIG', 'UTAV 131300Z 09006KT CAVOK 19/01 Q1020 R13/CLRD70 NOSIG', 'UTAV 131200Z 08006KT CAVOK 20/M01 Q1020 R13/CLRD70 NOSIG', 'UTAV 131100Z 10004KT 050V140 CAVOK 20/M01 Q1020 R13/CLRD70 NOSIG', 'UTAV 131000Z 11006KT CAVOK 20/01 Q1021 R13/CLRD70 NOSIG', 'UTAV 130900Z 08004KT CAVOK 19/03 Q1021 R13/CLRD70 NOSIG', 'UTAV 130800Z 10006KT CAVOK 17/02 Q1022 R13/CLRD70 NOSIG', 'UTAV 130700Z 11006KT CAVOK 15/02 Q1023 R31/CLRD70 NOSIG', 'UTAV 130500Z 09008KT CAVOK 10/03 Q1024 R31/CLRD70 NOSIG', 'UTAV 130400Z 04004KT CAVOK 06/03 Q1024 R31/CLRD70 NOSIG', 'UTAV 130300Z 05004KT CAVOK 05/04 Q1023 R31/CLRD70 NOSIG', 'UTAV 130200Z 03008KT CAVOK 05/04 Q1023 R31/CLRD70 NOSIG', 'UTAV 130100Z 01008KT CAVOK 05/04 Q1023 R31/CLRD70 NOSIG', 'UTAV 130000Z 02004KT CAVOK 05/05 Q1023 R31/CLRD70 NOSIG', 'UTAV 122300Z 03006KT CAVOK 06/05 Q1023 R31/CLRD70 NOSIG', 'UTAV 122200Z 01004KT CAVOK 06/04 Q1023 R31/CLRD70 NOSIG', 'UTAV 122100Z 04004KT CAVOK 07/05 Q1024 R31/CLRD70 NOSIG', 'UTAV 122000Z 04006KT CAVOK 06/05 Q1024 R31/CLRD70 NOSIG', 'UTAV 121900Z 04006KT CAVOK 08/04 Q1024 R31/CLRD70 NOSIG', 'UTAV 121800Z 04006KT CAVOK 09/04 Q1024 R31/CLRD70 NOSIG', 'UTAV 121700Z 03006KT CAVOK 10/04 Q1024 R31/CLRD70 NOSIG', 'UTAV 121600Z 02006KT CAVOK 11/04 Q1024 R31/CLRD70 NOSIG', 'UTAV 121500Z 04006KT CAVOK 17/04 Q1024 R31/CLRD70 NOSIG', 'UTAV 121400Z 03006KT CAVOK 15/03 Q1024 R31/CLRD70 NOSIG', 'UTAV 121300Z 05006KT CAVOK 18/01 Q1023 R31/CLRD70 NOSIG', 'UTAV 121200Z 05008KT CAVOK 19/00 Q1023 R31/CLRD70 NOSIG', 'UTAV 121100Z 04010KT 9000 NSC 19/02 Q1021 R31/CLRD70 NOSIG', 'UTAV 121000Z 04008KT CAVOK 18/03 Q1023 R31/CLRD70 NOSIG']","['2024-02-15 08:00:00', '2024-02-15 07:00:00', '2024-02-15 06:00:00', '2024-02-15 05:00:00', '2024-02-15 04:00:00', '2024-02-15 03:00:00', '2024-02-15 02:00:00', '2024-02-15 01:00:00', '2024-02-15 00:00:00', '2024-02-14 23:00:00', '2024-02-14 22:00:00', '2024-02-14 21:00:00', '2024-02-14 20:00:00', '2024-02-14 19:00:00', '2024-02-14 18:00:00', '2024-02-14 17:00:00', '2024-02-14 16:00:00', '2024-02-14 15:00:00', '2024-02-14 14:00:00', '2024-02-14 13:00:00', '2024-02-14 12:00:00', '2024-02-14 11:00:00', '2024-02-14 09:00:00', '2024-02-14 08:00:00', '2024-02-14 07:00:00', '2024-02-14 06:00:00', '2024-02-14 05:00:00', '2024-02-14 04:00:00', '2024-02-14 03:00:00', '2024-02-14 02:00:00', '2024-02-14 01:00:00', '2024-02-14 00:00:00', '2024-02-13 23:00:00', '2024-02-13 22:00:00', '2024-02-13 21:00:00', '2024-02-13 20:00:00', '2024-02-13 19:00:00', '2024-02-13 18:00:00', '2024-02-13 17:00:00', '2024-02-13 16:00:00', '2024-02-13 15:00:00', '2024-02-13 14:00:00', '2024-02-13 13:00:00', '2024-02-13 12:00:00', '2024-02-13 11:00:00', '2024-02-13 10:00:00', '2024-02-13 09:00:00', '2024-02-13 08:00:00', '2024-02-13 07:00:00', '2024-02-13 05:00:00', '2024-02-13 04:00:00', '2024-02-13 03:00:00', '2024-02-13 02:00:00', '2024-02-13 01:00:00', '2024-02-13 00:00:00', '2024-02-12 23:00:00', '2024-02-12 22:00:00', '2024-02-12 21:00:00', '2024-02-12 20:00:00', '2024-02-12 19:00:00', '2024-02-12 18:00:00', '2024-02-12 17:00:00', '2024-02-12 16:00:00', '2024-02-12 15:00:00', '2024-02-12 14:00:00', '2024-02-12 13:00:00', '2024-02-12 12:00:00', '2024-02-12 11:00:00', '2024-02-12 10:00:00']"
Turkmenistan, Turkmenbashi International Airport (KRW/UTAK) ,"['UTAK 150800Z 34008KT CAVOK 11/05 Q1015 R34L/CLRD70 NOSIG', 'UTAK 150700Z 00000KT CAVOK 12/05 Q1015 R34L/CLRD70 NOSIG', 'UTAK 150600Z 09004KT CAVOK 11/04 Q1015 R34L/CLRD70 NOSIG', 'UTAK 150500Z 05006KT CAVOK 08/05 Q1014 R16R/CLRD70 NOSIG', 'UTAK 150400Z 35010KT CAVOK 07/05 Q1015 R16R/CLRD70 NOSIG', 'UTAK 150300Z 36010KT CAVOK 07/05 Q1014 R16R/CLRD70 NOSIG', 'UTAK 150200Z 01012KT 9999 FEW005 OVC100 07/05 Q1014 R16R/CLRD70 NOSIG', 'UTAK 150100Z 02010KT 9999 SCT003 OVC100 07/05 Q1014 R16R/CLRD70 NOSIG', 'UTAK 150000Z 36014KT 9000 SCT003 OVC100 07/06 Q1014 R16R/CLRD70 NOSIG', 'UTAK 142300Z 36012KT 8000 SCT003 OVC100 07/06 Q1014 R16R/CLRD70 NOSIG', 'UTAK 142200Z 34010KT 8000 SCT003 OVC100 07/06 Q1014 R16R/CLRD70 NOSIG', 'UTAK 142100Z 36012KT 6000 SCT003 OVC100 07/06 Q1014 R16R/CLRD70 NOSIG', 'UTAK 142000Z 36012KT 2500 BR SCT003 OVC100 07/06 Q1014 R16R/CLRD70 BECMG 0500 FG VV001', 'UTAK 141900Z 32010KT 2500 BR SCT003 OVC100 08/06 Q1014 R16R/CLRD70 BECMG 0500 FG VV001', 'UTAK 141800Z 35004KT CAVOK 09/07 Q1013 R16R/CLRD70 NOSIG', 'UTAK 141700Z 36006KT CAVOK 10/07 Q1013 R16R/CLRD70 NOSIG', 'UTAK 141600Z 32008KT CAVOK 11/07 Q1013 R16R/CLRD70 NOSIG', 'UTAK 141500Z 31004KT CAVOK 13/05 Q1013 R16R/CLRD70 NOSIG', 'UTAK 141400Z 20004KT CAVOK 14/07 Q1013 R16R/CLRD70 NOSIG', 'UTAK 141300Z 30006KT CAVOK 16/06 Q1012 R16R/CLRD70 NOSIG', 'UTAK 141200Z 27008KT CAVOK 18/06 Q1012 R16R/CLRD70 NOSIG', 'UTAK 141100Z 23008KT CAVOK 19/00 Q1012 R16R/CLRD70 NOSIG', 'UTAK 141000Z 19010KT CAVOK 19/M01 Q1012 R16R/CLRD70 NOSIG', 'UTAK 140900Z 19008KT CAVOK 19/M02 Q1013 R16R/CLRD70 NOSIG', 'UTAK 140800Z 18010KT CAVOK 20/M04 Q1013 R16R/CLRD70 NOSIG', 'UTAK 140700Z 17010KT CAVOK 18/M02 Q1014 R16R/CLRD70 NOSIG', 'UTAK 140600Z 15010KT CAVOK 16/M00 Q1014 R16R/CLRD70 NOSIG', 'UTAK 140500Z 13006KT CAVOK 14/00 Q1013 R16R/CLRD70 NOSIG', 'UTAK 140400Z 10006KT CAVOK 14/01 Q1013 R16R/CLRD70 NOSIG', 'UTAK 140300Z 11006KT CAVOK 14/00 Q1013 R16R/CLRD70 NOSIG', 'UTAK 140200Z 12008KT CAVOK 14/01 Q1013 R16R/CLRD70 NOSIG', 'UTAK 140100Z 18004KT CAVOK 15/01 Q1012 R16R/CLRD70 NOSIG', 'UTAK 140000Z 18006KT CAVOK 14/01 Q1013 R16R/CLRD70 NOSIG', 'UTAK 132300Z 15010KT CAVOK 14/01 Q1013 R16R/CLRD70 NOSIG', 'UTAK 132200Z 18010KT CAVOK 14/00 Q1013 R16R/CLRD70 NOSIG', 'UTAK 132100Z 15006KT CAVOK 15/M00 Q1014 R16R/CLRD70 NOSIG', 'UTAK 132000Z 15008KT CAVOK 14/M01 Q1014 R16R/CLRD70 NOSIG', 'UTAK 131900Z 15008KT CAVOK 13/M03 Q1014 R16R/CLRD70 NOSIG', 'UTAK 131800Z 13006KT CAVOK 14/M02 Q1014 R16R/CLRD70 NOSIG', 'UTAK 131700Z 18006KT CAVOK 13/M01 Q1014 R16R/CLRD70 NOSIG', 'UTAK 131600Z 17004KT CAVOK 14/M03 Q1014 R16R/CLRD70 NOSIG', 'UTAK 131500Z 18008KT CAVOK 16/M02 Q1014 R16R/CLRD70 NOSIG', 'UTAK 131400Z 18008KT CAVOK 17/M01 Q1014 R16R/CLRD70 NOSIG', 'UTAK 131300Z 15010KT CAVOK 21/M04 Q1014 R16R/CLRD70 NOSIG', 'UTAK 131200Z 15010KT CAVOK 21/M03 Q1015 R16R/CLRD70 NOSIG', 'UTAK 131100Z 18010KT CAVOK 21/M04 Q1015 R16R/CLRD70 NOSIG', 'UTAK 131000Z 15012KT CAVOK 20/M03 Q1015 R16R/CLRD70 NOSIG', 'UTAK 130900Z 15012KT CAVOK 20/M04 Q1016 R16R/CLRD70 NOSIG', 'UTAK 130800Z 14014KT CAVOK 19/M04 Q1018 R16R/CLRD70 NOSIG', 'UTAK 130700Z 14008KT CAVOK 18/M01 Q1018 R16R/CLRD70 NOSIG', 'UTAK 130600Z 10006KT CAVOK 18/M02 Q1018 R16R/CLRD70 NOSIG', 'UTAK 130500Z 10004KT CAVOK 14/M00 Q1018 R16R/CLRD70 NOSIG', 'UTAK 130400Z 11004KT CAVOK 07/M01 Q1018 R16R/CLRD70 NOSIG', 'UTAK 130300Z 00000KT CAVOK 06/M02 Q1018 R16R/CLRD70 NOSIG', 'UTAK 130200Z 11004KT CAVOK 07/M02 Q1018 R16R/CLRD70 NOSIG', 'UTAK 130100Z 09006KT CAVOK 09/M01 Q1018 R16R/CLRD70 NOSIG', 'UTAK 130000Z 09004KT CAVOK 12/M00 Q1018 R16R/CLRD70 NOSIG', 'UTAK 122300Z 12006KT CAVOK 13/00 Q1018 R16R/CLRD70 NOSIG', 'UTAK 122200Z 13008KT CAVOK 14/M00 Q1019 R16R/CLRD70 NOSIG', 'UTAK 122100Z 13008KT CAVOK 15/M00 Q1019 R16R/CLRD70 NOSIG', 'UTAK 122000Z 14004KT CAVOK 14/M00 Q1019 R16R/CLRD70 NOSIG', 'UTAK 121900Z 08006KT CAVOK 12/M01 Q1020 R16R/CLRD70 NOSIG', 'UTAK 121800Z 11004KT CAVOK 09/M01 Q1020 R16R/CLRD70 NOSIG', 'UTAK 121700Z 14004KT CAVOK 09/M00 Q1020 R16R/CLRD70 NOSIG', 'UTAK 121600Z VRB04KT CAVOK 10/M00 Q1020 R16R/CLRD70 NOSIG', 'UTAK 121500Z 17004KT CAVOK 11/00 Q1020 R16R/CLRD70 NOSIG', 'UTAK 121400Z 14002KT CAVOK 17/01 Q1020 R16R/CLRD70 NOSIG', 'UTAK 121300Z 15004KT CAVOK 20/01 Q1020 R16R/CLRD70 NOSIG', 'UTAK 121200Z 17008KT CAVOK 19/01 Q1020 R16R/CLRD70 NOSIG', 'UTAK 121100Z 17012KT CAVOK 18/01 Q1020 R16R/CLRD70 NOSIG', 'UTAK 121000Z 17014KT CAVOK 18/01 Q1021 R16R/CLRD70 NOSIG']","['2024-02-15 08:00:00', '2024-02-15 07:00:00', '2024-02-15 06:00:00', '2024-02-15 05:00:00', '2024-02-15 04:00:00', '2024-02-15 03:00:00', '2024-02-15 02:00:00', '2024-02-15 01:00:00', '2024-02-15 00:00:00', '2024-02-14 23:00:00', '2024-02-14 22:00:00', '2024-02-14 21:00:00', '2024-02-14 20:00:00', '2024-02-14 19:00:00', '2024-02-14 18:00:00', '2024-02-14 17:00:00', '2024-02-14 16:00:00', '2024-02-14 15:00:00', '2024-02-14 14:00:00', '2024-02-14 13:00:00', '2024-02-14 12:00:00', '2024-02-14 11:00:00', '2024-02-14 10:00:00', '2024-02-14 09:00:00', '2024-02-14 08:00:00', '2024-02-14 07:00:00', '2024-02-14 06:00:00', '2024-02-14 05:00:00', '2024-02-14 04:00:00', '2024-02-14 03:00:00', '2024-02-14 02:00:00', '2024-02-14 01:00:00', '2024-02-14 00:00:00', '2024-02-13 23:00:00', '2024-02-13 22:00:00', '2024-02-13 21:00:00', '2024-02-13 20:00:00', '2024-02-13 19:00:00', '2024-02-13 18:00:00', '2024-02-13 17:00:00', '2024-02-13 16:00:00', '2024-02-13 15:00:00', '2024-02-13 14:00:00', '2024-02-13 13:00:00', '2024-02-13 12:00:00', '2024-02-13 11:00:00', '2024-02-13 10:00:00', '2024-02-13 09:00:00', '2024-02-13 08:00:00', '2024-02-13 07:00:00', '2024-02-13 06:00:00', '2024-02-13 05:00:00', '2024-02-13 04:00:00', '2024-02-13 03:00:00', '2024-02-13 02:00:00', '2024-02-13 01:00:00', '2024-02-13 00:00:00', '2024-02-12 23:00:00', '2024-02-12 22:00:00', '2024-02-12 21:00:00', '2024-02-12 20:00:00', '2024-02-12 19:00:00', '2024-02-12 18:00:00', '2024-02-12 17:00:00', '2024-02-12 16:00:00', '2024-02-12 15:00:00', '2024-02-12 14:00:00', '2024-02-12 13:00:00', '2024-02-12 12:00:00', '2024-02-12 11:00:00', '2024-02-12 10:00:00']"
Tuvalu, Funafuti International Airport (FUN/NGFU) ,"['NGFU 150900Z 30010KT 9999 FEW018TCU BKN 110 29/26 Q1008', 'NGFU 150900Z 30010KT 9999 FEW018TCU BKN 110 29/26 Q1008', 'NGFU 150800Z 31010KT 9999 FEW018TCU BKN110 29/26 Q1008', 'NGFU 150700Z 31011KT 9999 VCSH FEW018CB SCT018TCU BKN110 30/27 Q1007', 'NGFU 150600Z 30010KT 9999 VCSH FEW016CB SCT018TCU BKN110 30/26 Q1006', 'NGFU 150500Z 28010KT 9999 VCSH FEW016CB FEW018TCU BKN110 30/26 Q1005', 'NGFU 150400Z 27010KT 9999 SCT020 BKN110 30/26 Q1005', 'NGFU 150300Z 25008KT 9999 FEW018TCU BKN110 30/26 Q1005', 'NGFU 150200Z 27010KT 9999 FEW020 BKN110 30/26 Q1005', 'NGFU 150100Z 27012KT 9999 FEW018TCU OVC110 30/26 Q1006', 'NGFU 150000Z 26012KT 9999 FEW018TCU OVC110 30/25 Q1007', 'NGFU 142300Z 26010KT 9999 FEW018TCU BKN110 30/25 Q1007', 'NGFU 142200Z 24010KT 9999 FEW016CB FEW018TCU BKN110 28/26 Q1007', 'NGFU 152100Z 24010KT 9999 -SHRA SCT016CB OVC110 27/25 Q1008', 'NGFU 142000Z 28016KT 8000 RA SCT015CB OVC100 25/24 Q1008', 'NGFU 141900Z 28011KT 9999 VCSH FEW016CB FEW018TCU OVC100 28/27 Q1006', 'NGFU 141800Z 32014KT 9999 FEW020 OVC110 29/26 Q1006', 'NGFU 141700Z 32010KT 9999 FEW020 BKN110 29/26 Q1005', 'NGFU 141600Z 28009KT 9999 FEW020 BKN300 29/27 Q1004', 'NGFU 141500Z 28010KT 9999 FEW018TCU BKN110 29/26 Q1005', 'NGFU 141500Z 28010KT 9999 FEW018TCU BKN110 29/26 Q1005', 'NGFU 141400Z 28015KT 9999 FEW018TCU BKN110 28/27 Q1006', 'NGFU 141300Z 27014KT 9999 VCSH FEW016CB FEW018TCU OVC100 28/27 Q1006', 'NGFU 141300Z 27014KT 9999 VCSH FEW016CB FEW018TCU OVC100 28/27 Q1006', 'NGFU 141200Z 27021KT 9999 VCSH FEW016CB FEW018TCU OVC110 29/26 Q1007', 'NGFU 141100Z 27017KT 9999 FEW016CB FEW018TCU OVC110 29/26 Q1007', 'NGFU 141000Z 28019KT 9999 FEW016CB FEW018TCU OVC110 29/26 Q1008', 'NGFU 140900Z 27018KT 9999 FEW016CB FEW018TCU OVC110 28/26 Q1007', 'NGFU 141800Z 27020KT 9999 FEW016CB FEW018TCU OVC110 29/26 Q1007', 'NGFU 140700Z 27020KT 9999 VCSH FEW016CB FEW018TCU OVC110 28/26 Q1006', 'NGFU 140600Z 27016KT 9999 FEW018TCU SCT035 BKN110 29/26 Q1005', 'NGFU 140500Z 27015KT 9999 FEW018TCU SCT035 BKN110 29/26 Q1006', 'NGFU 140400Z 27018KT 9999 FEW018TCU SCT035 BKN110 29/26 Q1005', 'NGFU 140300Z 29017KT 9999 FEW018TCU SCT020 BKN300 30/26 Q1005', 'NGFU 140200Z 27016KT 9999 FEW016CB FEW018TCU BKN110 30/26 Q1005', 'NGFU 140100Z 30016KT 9999 FEW016CB FEW018TCU SCT020 BKN110 30/26 Q1006', 'NGFU 140000Z 30010KT 9999 FEW018TCU BKN110 30/27 Q1006', 'NGFU 132300Z 29010KT 9999 FEW018TCU BKN110 30/27 Q1007', 'NGFU 132200Z 30010KT 9999 FEW018TCU BKN110 30/27 Q1007', 'NGFU 132100Z 29010KT 9999 FEW018TCU SCT020 BKN110 29/27 Q1007', 'NGFU 132000Z 30008KT 9999 FEW020 BKN110 29/27 Q1007', 'NGFU 131900Z 27008KT 9999 FEW020 BKN110 28/26 Q1006', 'NGFU 131800Z 27005KT 9999 FEW018TCU BKN110 28/25 Q1006', 'NGFU 131700Z 27010KT 9999 VCSH FEW016CB FEW018TCU BKN110 27/26 Q1005 RERA', 'NGFU 131600Z 27008KT 9999 VCSH FEW016CB FEW018TCU BKN110 29/27 Q1005', 'NGFU 131500Z 27008KT 9999 VCSH FWE016CB FEW018TCU BKN110 28/27 Q1005', 'NGFU 131400Z 27008KT 9999 FEW016CB FEW018TCU SCT110 29/27 Q1005', 'NGFU 131300Z 27005KT 9999 FEW018TCU BKN300 28/27 Q1006', 'NGFU 131200Z 34009KT 9999 FEW020 BKN300 28/25 Q1007', 'NGFU 131100Z 34009KT 9999 FEW020 BKN300 29/27 Q1007', 'NGFU 131000Z 32010KT 9999 FEW020 BKN300 29/27 Q1007', 'NGFU 130900Z 32014KT 9999 FEW018TCU BKN110 29/26 Q1007', 'NGFU 130800Z 29010KT 9999 VCSH FEW016CB FEW018TCU OVC110 29/27 Q1006', 'NGFU 130700Z 29012KT 9999 -SHRA SCT015CB OVC100 28/27 Q1006', 'NGFU 130600Z 28012KT 9999 -SHRA SCT016CB OVC100 27/26 Q1005', 'NGFU 130500Z 28013KT 9999 VCSH FEW016CB FEW018TCU OVC100 27/26 Q1005', 'NGFU 130400Z 27014KT 9000 -RA FEW016CB SCT035 OVC100 28/27 Q1004 RERA', 'NGFU 130300Z 26013KT 5000 RA SCT015CB OVC100 27/26 Q1005', 'NGFU 130200Z 28019KT 3000 +SHRA SCT015CB OVC100 28/27 Q1005', 'NGFU 130100Z 28014KT 9999 -SHRA SCT016CB FEW018TCU BKN100 30/26 Q1009', 'NGFU 130000Z 29016KT 9999 FEW016CB SCT018TCU BKN300 31/28 Q1006', 'NGFU 122300Z 28014KT 9999 FEW016CB FEW018TCU SCT020 BKN110 30/26 Q1007', 'NGFU 122200Z 28018KT 9999 FEW016CB FEW018TCU SCT020 BKN110 31/26 Q1007', 'NGFU 122100Z 29017KT 9999 VCSH FEW016CB FEW018TCU BKN110 30/27 Q1007', 'NGFU 122000Z 31019KT 9999 FEW018TCU BKN110 29/26 Q1006', 'NGFU 121900Z 30019KT 9999 VCSH FEW016CB FEW018TCU SCT110 BKN300 29/26 Q1005', 'NGFU 121800Z 30021KT 9999 VCSH FEW016CB FEW018TCU BKN110 29/26 Q1005', 'NGFU 121700Z 28021KT 9999 SCT018TCU BKN110 28/26 Q1005', 'NGFU 121600Z 28021KT 9999 SCT018TCU BKN110 28/25 Q1006', 'NGFU 121500Z 30018KT 9999 FEW018TCU BKN110 28/25 Q1006', 'NGFU 121400Z 29016KT 9999 VCSH FEW016CB FEW018TCU BKN110 28/26 Q1006', 'NGFU 121300Z 30017KT 9999 VCSH FEW016CB FEW018TCU BKN110 28/25 Q1007 RERA', 'NGFU 121200Z 27011KT 9999 VCSH FEW016CB FEW018TCU BKN110 27/25 Q1008', 'NGFU 121100Z 27010KT 9999 VCSH FEW016CB FEW018TCU OVC110 27/25 Q1009']","['2024-02-15 09:00:00', '2024-02-15 08:59:00', '2024-02-15 08:00:00', '2024-02-15 07:00:00', '2024-02-15 06:00:00', '2024-02-15 05:00:00', '2024-02-15 04:00:00', '2024-02-15 03:00:00', '2024-02-15 02:00:00', '2024-02-15 01:00:00', '2024-02-15 00:00:00', '2024-02-14 23:00:00', '2024-02-14 22:00:00', '2024-02-14 21:03:00', '2024-02-14 20:00:00', '2024-02-14 19:00:00', '2024-02-14 18:00:00', '2024-02-14 17:00:00', '2024-02-14 16:00:00', '2024-02-14 15:00:00', '2024-02-14 14:57:00', '2024-02-14 14:00:00', '2024-02-14 13:00:00', '2024-02-14 12:59:00', '2024-02-14 12:00:00', '2024-02-14 11:00:00', '2024-02-14 10:00:00', '2024-02-14 09:00:00', '2024-02-14 08:03:00', '2024-02-14 07:00:00', '2024-02-14 06:00:00', '2024-02-14 05:00:00', '2024-02-14 04:00:00', '2024-02-14 03:00:00', '2024-02-14 02:00:00', '2024-02-14 01:00:00', '2024-02-14 00:00:00', '2024-02-13 23:00:00', '2024-02-13 22:00:00', '2024-02-13 21:00:00', '2024-02-13 20:00:00', '2024-02-13 19:00:00', '2024-02-13 18:00:00', '2024-02-13 17:00:00', '2024-02-13 16:00:00', '2024-02-13 15:00:00', '2024-02-13 14:00:00', '2024-02-13 13:00:00', '2024-02-13 12:00:00', '2024-02-13 11:00:00', '2024-02-13 10:00:00', '2024-02-13 09:00:00', '2024-02-13 08:00:00', '2024-02-13 07:00:00', '2024-02-13 06:00:00', '2024-02-13 05:00:00', '2024-02-13 04:00:00', '2024-02-13 03:00:00', '2024-02-13 02:00:00', '2024-02-13 01:00:00', '2024-02-13 00:00:00', '2024-02-12 23:00:00', '2024-02-12 22:00:00', '2024-02-12 21:00:00', '2024-02-12 20:00:00', '2024-02-12 19:00:00', '2024-02-12 18:00:00', '2024-02-12 17:00:00', '2024-02-12 16:00:00', '2024-02-12 15:00:00', '2024-02-12 14:00:00', '2024-02-12 13:00:00', '2024-02-12 12:00:00', '2024-02-12 11:00:00']"
Uganda, Entebbe International Airport (EBB/HUEN) ,"['HUEN 150830Z 20008KT 9000 BKN020 FEW022CB OVC110 21/20 Q1021', 'HUEN 150800Z 20008KT 9000 RA BKN019 FEW020CB OVC100 21/20 Q1021', 'HUEN 150730Z 17008KT 9000 TSRA BKN017 FEW020CB 20/19 Q1021', 'HUEN 150700Z 17008KT 9000 TSRA BKN017 FEW020CB 20/17 Q1021', 'HUEN 150600Z 17008KT 9000 TSRA SCT018 FEW020CB 20/18 Q1021', 'HUEN 150530Z 00000KT 6000 TSRA SCT017 FEW019CB 19/18 Q1020', 'HUEN 150500Z 02003KT 9000 TSRA SCT018 FEW020CB 20/18 Q1020 NOSIG', 'HUEN 150430Z 15007KT 9000 TSRA SCT018 FEW020CB 20/18 Q1019 BECMG 11009G20KT 6000 -TSRA', 'HUEN 150400Z 10013KT 9000 TSRA SCT018 FEW020CB 20/18 Q1019 BECMG 11009G20KT 6000 -TSRA', 'HUEN 150230Z 21005KT 9000 TSRA SCT020 FEW022CB 22/20 Q1016 TEMPO 8000 -TSRA', 'HUEN 150200Z 13005KT 9000 RA SCT020 FEW022CB 22/20 Q1016 TEMPO 8000 -TSRA', 'HUEN 150130Z 09003KT 9999 FEW020 FEW022CB 22/20 Q1016 NOSIG', 'HUEN 150100Z 03003KT 9999 FEW020 FEW022CB 22/20 Q1016 NOSIG', 'HUEN 150030Z 00000KT 9999 FEW020 FEW022CB 22/20 Q1016 NOSIG', 'HUEN 150000Z 00000KT 9999 FEW020 FEW022CB 22/20 Q1016 NOSIG', 'HUEN 142330Z 27003KT 9999 FEW020 FEW023CB 22/20 Q1016 NOSIG', 'HUEN 142100Z 28004KT 9999 FEW022 FEW024CB 24/20 Q1017 NOSIG', 'HUEN 142000Z 28010KT 9999 FEW022 FEW024CB 24/20 Q1017', 'HUEN 141500Z 27005KT 9999 FEW023 FEW025CB 28/20 Q1014', 'HUEN 141430Z 25005KT 9999 FEW023 FEW025CB 28/20 Q1014', 'HUEN 141400Z 31002KT 9999 FEW023 FEW025CB 28/20 Q1013', 'HUEN 141300Z 32007KT 9999 FEW023 FEW025CB 27/20 Q1013', 'HUEN 141230Z 30004KT 9999 FEW023 FEW025CB 28/21 Q1014', 'HUEN 141200Z 22007KT 9999 FEW023 FEW025CB 29/20 Q1014', 'HUEN 141130Z 20007KT 9999 FEW023TCU FEW025CB 28/20 Q1014', 'HUEN 141100Z 19008KT 9999 FEW023TCU FEW025CB 28/20 Q1014', 'HUEN 141000Z 15007KT 9999 FEW023 FEW025CB 28/21 Q1016', 'HUEN 140930Z 20008KT 9999 FEW023 FEW025CB 27/21 Q1016', 'HUEN 140900Z 17007KT 9999 FEW022 FEW024CB 26/22 Q1017', 'HUEN 140830Z 20007KT 9999 FEW022 FEW024CB 26/22 Q1018', 'HUEN 140730Z 34005KT 9999 FEW022 FEW024CB 26/22 Q1018', 'HUEN 140600Z 00000KT 9999 FEW020 FEW022CB 23/19 Q1018', 'HUEN 140530Z 34004KT 9999 FEW020 FEW022CB 23/20 Q1017 NOSIG', 'HUEN 140500Z 34004KT 9999 FEW020 FEW022CB 22/20 Q1017 NOSIG', 'HUEN 140430Z 34004KT 9999 FEW020 FEW022CB 22/20 Q1017 NOSIG', 'HUEN 140400Z 00000KT 9999 FEW020 FEW022CB 22/20 Q1015 NOSIG', 'HUEN 140320Z 00000KT 9999 FEW020 FEW022CB 22/20 Q1015 NOSIG', 'HUEN 140200Z 00000KT 9999 FEW020 FEW022CB 22/20 Q1015 NOSIG', 'HUEN 140130Z 01004KT 9999 FEW020 FEW022CB 22/20 Q1015 NOSIG', 'HUEN 140100Z 00000KT 9999 FEW020 FEW022CB 22/20 Q1015 NOSIG', 'HUEN 140030Z 07004KT 9999 FEW020 FEW022CB 22/20 Q1015 NOSIG', 'HUEN 140000Z 00000KT 9999 FEW020 FEW022CB 22/20 Q1015 NOSIG', 'HUEN 132330Z 00000KT 9999 FEW020 FEW022CB 22/20 Q1016 NOSIG', 'HUEN 132300Z 00000KT 9999 FEW020 FEW022CB 22/20 Q1016 NOSIG', 'HUEN 132230Z 33004KT 9999 FEW021 FEW023CB 23/20 Q1016 NOSIG', 'HUEN 132200Z 00000KT 9999 FEW021 FEW023CB 23/19 Q1016 NOSIG', 'HUEN 132130Z 00000KT 9999 FEW021 FEW023CB 23/19 Q1016 NOSIG', 'HUEN 132030Z 00000KT 9999 FEW021 FEW023CB 23/19 Q1017 NOSIG', 'HUEN 131930Z 00000KT 9999 FEW021 FEW023CB 23/19 Q1016 NOSIG', 'HUEN 131900Z 13002KT 9999 FEW022 FEW024CB 23/19 Q1016 NOSIG', 'HUEN 131830Z 00000KT 9999 FEW022 FEW024CB 23/19 Q1016 NOSIG', 'HUEN 131800Z 00000KT 9999 FEW022 FEW024CB 23/19 Q1016 NOSIG', 'HUEN 131430Z 17008KT 9999 FEW023 FEW025CB 26/18 Q1014', 'HUEN 131330Z 17010KT 9999 FEW024 FEW026CB 26/19 Q1015', 'HUEN 131300Z 16009KT 9999 FEW025 FEW027CB 28/19 Q1015', 'HUEN 131230Z 17009KT 9999 FEW025 FEW027CB 28/17 Q1015', 'HUEN 131200Z 13002KT 9999 FEW025TCU FEW027CB 28/17 Q1015 NOSIG', 'HUEN 131130Z 23005KT 9999 FEW024 FEW027CB 27/18 Q1016 NOSIG', 'HUEN 131100Z 22005KT 9999 FEW024 FEW026CB 27/20 Q1016 NOSIG', 'HUEN 131030Z 24005KT 9999 FEW024 FEW026CB 27/20 Q1017 NOSIG', 'HUEN 131000Z 19004KT 9999 FEW023 FEW025CB 25/19 Q1018 NOSIG', 'HUEN 130930Z 19007KT 9999 FEW023 FEW025CB 26/18 Q1018 NOSIG', 'HUEN 130900Z 11006KT 9999 FEW022 FEW024CB 24/19 Q1019', 'HUEN 130830Z 09004KT 9999 SCT021 FEW023CB 23/20 Q1019', 'HUEN 130800Z 34004KT 9999 SCT021 FEW023CB 23/20 Q1019', 'HUEN 130730Z 35007KT 9999 SCT020 FEW022CB 23/20 Q1019', 'HUEN 130700Z 35010KT 9999 RA SCT020 FEW022CB 22/20 Q1020', 'HUEN 130630Z 36008KT 9999 SCT020 FEW022CB 22/20 Q1020', 'HUEN 130600Z 01010KT 9999 FEW020 FEW022CB 22/20 Q1019', 'HUEN 130530Z 35006KT 9999 -RA SCT020 FEW022CB 22/20 Q1018 NOSIG', 'HUEN 130430Z 36007KT 9999 -RA SCT020 FEW022CB 21/19 Q1018 NOSIG', 'HUEN 130330Z 05004KT 9999 -RA FEW020 FEW022CB 22/20 Q1018 NOSIG', 'HUEN 122330Z 28005KT 9999 FEW022 FEW024CB 22/20 Q1016 NOSIG', 'HUEN 122130Z 01003KT 9999 FEW022 FEW024CB 22/21 Q1017 NOSIG', 'HUEN 121900Z 27005KT 9999 FEW023 FEW025CB 23/19 Q1017 NOSIG', 'HUEN 121830Z 14003KT 9999 FEW023 FEW025CB 23/19 Q1017 NOSIG', 'HUEN 121800Z 16004KT 9999 FEW023 FEW025CB 23/19 Q1016 NOSIG', 'HUEN 121730Z 16005KT 9999 FEW024 FEW026CB 23/20 Q1016 NOSIG', 'HUEN 121700Z 18005KT 9999 FEW024 FEW026CB 23/20 Q1016 NOSIG', 'HUEN 121630Z 18005KT 9999 FEW024 FEW026CB 23/19 Q1016 NOSIG', 'HUEN 121530Z 19005KT 9999 FEW024 FEW026CB 25/18 Q1016 NOSIG', 'HUEN 121430Z 18005KT 9999 FEW024 FEW026CB 26/18 Q1015 NOSIG', 'HUEN 121400Z 16003KT 9999 FEW024 FEW026CB 26/19 Q1015 NOSIG', 'HUEN 121030Z 18010KT 9999 SCT022 FEW024CB 24/20 Q1019 NOSIG', 'HUEN 121000Z 18008KT 9999 SCT022 FEW024CB 25/20 Q1019 NOSIG']","['2024-02-15 08:30:00', '2024-02-15 08:00:00', '2024-02-15 07:30:00', '2024-02-15 07:00:00', '2024-02-15 06:00:00', '2024-02-15 05:30:00', '2024-02-15 05:00:00', '2024-02-15 04:30:00', '2024-02-15 04:00:00', '2024-02-15 02:30:00', '2024-02-15 02:00:00', '2024-02-15 01:30:00', '2024-02-15 01:00:00', '2024-02-15 00:30:00', '2024-02-15 00:00:00', '2024-02-14 23:30:00', '2024-02-14 21:00:00', '2024-02-14 20:00:00', '2024-02-14 15:00:00', '2024-02-14 14:30:00', '2024-02-14 14:00:00', '2024-02-14 13:00:00', '2024-02-14 12:30:00', '2024-02-14 12:00:00', '2024-02-14 11:30:00', '2024-02-14 11:00:00', '2024-02-14 10:00:00', '2024-02-14 09:30:00', '2024-02-14 09:00:00', '2024-02-14 08:30:00', '2024-02-14 07:30:00', '2024-02-14 06:00:00', '2024-02-14 05:30:00', '2024-02-14 05:00:00', '2024-02-14 04:30:00', '2024-02-14 04:00:00', '2024-02-14 03:11:00', '2024-02-14 02:00:00', '2024-02-14 01:30:00', '2024-02-14 01:00:00', '2024-02-14 00:30:00', '2024-02-14 00:00:00', '2024-02-13 23:30:00', '2024-02-13 23:00:00', '2024-02-13 22:30:00', '2024-02-13 22:00:00', '2024-02-13 21:30:00', '2024-02-13 20:30:00', '2024-02-13 19:30:00', '2024-02-13 19:00:00', '2024-02-13 18:30:00', '2024-02-13 18:00:00', '2024-02-13 14:30:00', '2024-02-13 13:30:00', '2024-02-13 13:00:00', '2024-02-13 12:30:00', '2024-02-13 12:00:00', '2024-02-13 11:30:00', '2024-02-13 11:00:00', '2024-02-13 10:30:00', '2024-02-13 10:00:00', '2024-02-13 09:30:00', '2024-02-13 09:00:00', '2024-02-13 08:30:00', '2024-02-13 08:00:00', '2024-02-13 07:30:00', '2024-02-13 07:00:00', '2024-02-13 06:30:00', '2024-02-13 06:00:00', '2024-02-13 05:30:00', '2024-02-13 04:30:00', '2024-02-13 03:30:00', '2024-02-12 23:30:00', '2024-02-12 21:30:00', '2024-02-12 19:00:00', '2024-02-12 18:30:00', '2024-02-12 18:00:00', '2024-02-12 17:30:00', '2024-02-12 17:00:00', '2024-02-12 16:30:00', '2024-02-12 15:30:00', '2024-02-12 14:30:00', '2024-02-12 14:00:00', '2024-02-12 10:30:00', '2024-02-12 10:00:00']"
United-arab-emirates, Abu Dhabi Al Bateen Executive Airport (AZI/OMAD) ,"['OMAD 150900Z 14009KT 110V190 9999 FEW030 28/20 Q1017 NOSIG', 'OMAD 150800Z 14010KT 120V200 9999 FEW020 27/20 Q1018 NOSIG', 'OMAD 150700Z 14012KT 9999 FEW020 25/20 Q1019 NOSIG', 'OMAD 150600Z 14013KT CAVOK 24/20 Q1019 NOSIG', 'OMAD 150500Z 14014KT CAVOK 22/19 Q1019 NOSIG', 'OMAD 150400Z 14010KT CAVOK 21/18 Q1018 NOSIG', 'OMAD 150300Z 12007KT CAVOK 20/16 Q1018 NOSIG', 'OMAD 150200Z 11006KT CAVOK 20/16 Q1017 NOSIG', 'OMAD 150100Z VRB02KT CAVOK 20/18 Q1017 NOSIG', 'OMAD 150000Z 00000KT CAVOK 20/18 Q1017 NOSIG', 'OMAD 142300Z VRB01KT CAVOK 20/18 Q1016 NOSIG', 'OMAD 142200Z 00000KT CAVOK 21/19 Q1017 NOSIG', 'OMAD 142100Z VRB01KT CAVOK 21/19 Q1017 NOSIG', 'OMAD 142000Z 05003KT CAVOK 22/19 Q1017 NOSIG', 'OMAD 141900Z 05003KT CAVOK 23/19 Q1018 NOSIG', 'OMAD 141800Z 06005KT CAVOK 23/19 Q1017 NOSIG', 'OMAD 141700Z 35003KT 320V020 CAVOK 23/20 Q1017 NOSIG', 'OMAD 141600Z 34005KT CAVOK 23/20 Q1017 NOSIG', 'OMAD 141500Z 36006KT CAVOK 23/20 Q1016 NOSIG', 'OMAD 141400Z 36007KT CAVOK 24/18 Q1016 NOSIG', 'OMAD 141300Z 36008KT 330V030 9999 FEW045 25/18 Q1016 NOSIG', 'OMAD 141200Z 34008KT 9999 FEW045 26/18 Q1015 NOSIG', 'OMAD 141100Z VRB04KT 9999 SCT040 27/18 Q1016 NOSIG', 'OMAD 141000Z 26004KT 200V340 9999 FEW040 27/18 Q1016 NOSIG', 'OMAD 140900Z 24002KT 200V340 CAVOK 26/18 Q1017 NOSIG', 'OMAD 140800Z 24005KT 180V280 CAVOK 25/17 Q1018 NOSIG', 'OMAD 140700Z 15004KT 060V180 CAVOK 24/19 Q1018 NOSIG', 'OMAD 140600Z 12005KT 090V150 CAVOK 23/18 Q1019 NOSIG', 'OMAD 140500Z 10003KT 050V140 CAVOK 21/17 Q1018 NOSIG', 'OMAD 140400Z 08003KT CAVOK 20/17 Q1018 NOSIG', 'OMAD 140300Z 09003KT CAVOK 19/17 Q1017 NOSIG', 'OMAD 140200Z 07003KT CAVOK 19/17 Q1017 NOSIG', 'OMAD 140100Z 07004KT CAVOK 19/17 Q1016 NOSIG', 'OMAD 140000Z 02004KT 360V060 CAVOK 19/17 Q1016 NOSIG', 'OMAD 132300Z 03003KT CAVOK 19/17 Q1016 NOSIG', 'OMAD 132200Z 04003KT 010V090 CAVOK 20/17 Q1017 NOSIG', 'OMAD 132100Z 06004KT CAVOK 20/18 Q1017 NOSIG', 'OMAD 132000Z 06005KT CAVOK 21/18 Q1017 NOSIG', 'OMAD 131900Z 03005KT CAVOK 21/19 Q1017 NOSIG', 'OMAD 131800Z 01005KT CAVOK 22/19 Q1018 NOSIG', 'OMAD 131700Z 36006KT CAVOK 22/19 Q1018 NOSIG', 'OMAD 131600Z 36006KT 330V030 CAVOK 22/18 Q1017 NOSIG', 'OMAD 131500Z 01007KT CAVOK 22/18 Q1017 NOSIG', 'OMAD 131400Z 36009KT 330V030 9999 FEW045 23/18 Q1016 NOSIG', 'OMAD 131300Z 36010KT 330V030 9999 FEW045 23/17 Q1016 NOSIG', 'OMAD 131200Z 36010KT 9999 FEW045 24/18 Q1016 NOSIG', 'OMAD 131100Z 01010KT 9999 FEW045 24/17 Q1016 NOSIG', 'OMAD 131000Z 36009KT 330V030 9999 FEW045 24/17 Q1016 NOSIG', 'OMAD 130900Z 01009KT 330V060 CAVOK 24/16 Q1017 NOSIG', 'OMAD 130800Z 02008KT 350V060 CAVOK 23/16 Q1018 NOSIG', 'OMAD 130700Z 03009KT 360V060 CAVOK 22/16 Q1019 NOSIG', 'OMAD 130600Z 01008KT 340V050 9999 FEW045 22/17 Q1019 NOSIG', 'OMAD 130500Z 35006KT 330V030 9999 SCT045 21/17 Q1018 NOSIG', 'OMAD 130400Z 35005KT 9999 FEW040 19/16 Q1018 NOSIG', 'OMAD 130300Z 35004KT 320V020 CAVOK 19/16 Q1017 NOSIG', 'OMAD 130200Z 02006KT 9999 FEW040 19/16 Q1017 NOSIG', 'OMAD 130100Z 03005KT 360V080 9999 SCT045 19/16 Q1016 NOSIG', 'OMAD 130000Z 36008KT 9999 SCT035 20/18 Q1016 NOSIG', 'OMAD 122300Z 35005KT CAVOK 20/18 Q1016 NOSIG', 'OMAD 122200Z 32005KT 9999 SCT030 19/17 Q1016 NOSIG', 'OMAD 122100Z 34005KT 9999 SCT030 19/17 Q1016 NOSIG', 'OMAD 122000Z 34005KT 9999 FEW013 19/17 Q1017 NOSIG', 'OMAD 121900Z 06005KT 020V100 CAVOK 20/17 Q1017 WS ALL RWY NOSIG', 'OMAD 121800Z 03007KT 350V110 9999 FEW010 20/18 Q1016 WS ALL RWY NOSIG', 'OMAD 121700Z 03010KT 360V060 CAVOK 20/17 Q1016 WS ALL RWY NOSIG', 'OMAD 121600Z 35011KT 320V020 9999 FEW012 20/17 Q1016 WS ALL RWY TEMPO VRB15G25KT 3000 TSRA BVDU FEW030CB', 'OMAD 121500Z 34012KT 9999 SCT011 FEW025CB 19/17 Q1016 RETS WS ALL RWY TEMPO VRB18G35KT 2000 TSRA', 'OMAD 121406Z 35015G27KT 310V010 9999 SCT018 BKN025 FEW030TCU 21/16 Q1015 WS ALL RWY TEMPO VRB18G30KT 3000 SHRA', 'OMAD 121300Z 31011KT 9999 SCT025 23/19 Q1014 NOSIG', 'OMAD 121200Z 35004KT 330V040 9999 FEW020 23/18 Q1014 NOSIG', 'OMAD 121100Z 04006KT 360V070 9999 SCT019 23/19 Q1014 NOSIG', 'OMAD 121000Z 05007KT 9999 SCT020 23/19 Q1014 NOSIG']","['2024-02-15 09:00:00', '2024-02-15 08:00:00', '2024-02-15 07:00:00', '2024-02-15 06:00:00', '2024-02-15 05:00:00', '2024-02-15 04:00:00', '2024-02-15 03:00:00', '2024-02-15 02:00:00', '2024-02-15 01:00:00', '2024-02-15 00:00:00', '2024-02-14 23:00:00', '2024-02-14 22:00:00', '2024-02-14 21:00:00', '2024-02-14 20:00:00', '2024-02-14 19:00:00', '2024-02-14 18:00:00', '2024-02-14 17:00:00', '2024-02-14 16:00:00', '2024-02-14 15:00:00', '2024-02-14 14:00:00', '2024-02-14 13:00:00', '2024-02-14 12:00:00', '2024-02-14 11:00:00', '2024-02-14 10:00:00', '2024-02-14 09:00:00', '2024-02-14 08:00:00', '2024-02-14 07:00:00', '2024-02-14 06:00:00', '2024-02-14 05:00:00', '2024-02-14 04:00:00', '2024-02-14 03:00:00', '2024-02-14 02:00:00', '2024-02-14 01:00:00', '2024-02-14 00:00:00', '2024-02-13 23:00:00', '2024-02-13 22:00:00', '2024-02-13 21:00:00', '2024-02-13 20:00:00', '2024-02-13 19:00:00', '2024-02-13 18:00:00', '2024-02-13 17:00:00', '2024-02-13 16:00:00', '2024-02-13 15:00:00', '2024-02-13 14:00:00', '2024-02-13 13:00:00', '2024-02-13 12:00:00', '2024-02-13 11:00:00', '2024-02-13 10:00:00', '2024-02-13 09:00:00', '2024-02-13 08:00:00', '2024-02-13 07:00:00', '2024-02-13 06:00:00', '2024-02-13 05:00:00', '2024-02-13 04:00:00', '2024-02-13 03:00:00', '2024-02-13 02:00:00', '2024-02-13 01:00:00', '2024-02-13 00:00:00', '2024-02-12 23:00:00', '2024-02-12 22:00:00', '2024-02-12 21:00:00', '2024-02-12 20:00:00', '2024-02-12 19:00:00', '2024-02-12 18:00:00', '2024-02-12 17:00:00', '2024-02-12 16:00:00', '2024-02-12 15:00:00', '2024-02-12 14:06:00', '2024-02-12 13:00:00', '2024-02-12 12:00:00', '2024-02-12 11:00:00', '2024-02-12 10:00:00']"
United-arab-emirates, Abu Dhabi International Airport (AUH/OMAA) ,"['OMAA 150900Z 16010KT 120V190 9999 FEW030 28/20 Q1017 NOSIG', 'OMAA 150800Z 16013KT 9999 FEW030 27/20 Q1018 NOSIG', 'OMAA 150700Z 15014KT 9999 FEW030 25/20 Q1019 NOSIG', 'OMAA 150600Z 15015KT CAVOK 24/20 Q1019 NOSIG', 'OMAA 150500Z 14017KT CAVOK 23/19 Q1019 NOSIG', 'OMAA 150400Z 13014KT CAVOK 22/19 Q1018 NOSIG', 'OMAA 150300Z 13008KT CAVOK 21/18 Q1017 NOSIG', 'OMAA 150200Z 11008KT CAVOK 20/16 Q1017 NOSIG', 'OMAA 150100Z 10007KT CAVOK 20/17 Q1016 NOSIG', 'OMAA 150000Z 10006KT CAVOK 20/17 Q1016 NOSIG', 'OMAA 142300Z 11005KT CAVOK 21/18 Q1016 NOSIG', 'OMAA 142200Z 10005KT CAVOK 21/19 Q1016 NOSIG', 'OMAA 142100Z 09004KT CAVOK 21/19 Q1017 NOSIG', 'OMAA 142000Z 09004KT CAVOK 22/19 Q1017 NOSIG', 'OMAA 141900Z 07007KT CAVOK 22/19 Q1017 NOSIG', 'OMAA 141800Z 06008KT CAVOK 23/19 Q1017 NOSIG', 'OMAA 141700Z 01007KT CAVOK 24/20 Q1017 NOSIG', 'OMAA 141600Z 34006KT CAVOK 24/20 Q1017 NOSIG', 'OMAA 141500Z 35007KT CAVOK 24/20 Q1016 NOSIG', 'OMAA 141400Z 34010KT CAVOK 25/18 Q1016 NOSIG', 'OMAA 141300Z 31011KT 9999 FEW045 26/17 Q1015 NOSIG', 'OMAA 141204Z 33010KT 9999 SCT045 27/19 Q1015 NOSIG', 'OMAA 141200Z 11004KT 060V170 9999 SCT045 28/16 Q1015 BECMG 35007KT', 'OMAA 141100Z 10004KT 010V170 9999 SCT040 28/17 Q1015 NOSIG', 'OMAA 141000Z 14008KT 090V180 9999 SCT040 27/17 Q1016 NOSIG', 'OMAA 140900Z 17008KT 110V210 9999 FEW035 26/17 Q1017 NOSIG', 'OMAA 140800Z 13005KT 070V180 CAVOK 25/18 Q1018 NOSIG', 'OMAA 140700Z 16006KT 130V200 CAVOK 24/17 Q1018 NOSIG', 'OMAA 140600Z 12005KT CAVOK 22/17 Q1019 NOSIG', 'OMAA 140500Z 10006KT CAVOK 20/17 Q1018 NOSIG', 'OMAA 140400Z 09007KT CAVOK 19/16 Q1018 NOSIG', 'OMAA 140300Z 10004KT 050V120 CAVOK 18/16 Q1017 NOSIG', 'OMAA 140200Z 09004KT CAVOK 18/16 Q1017 NOSIG', 'OMAA 140100Z 08006KT CAVOK 18/16 Q1016 NOSIG', 'OMAA 140000Z 05006KT 030V090 CAVOK 19/17 Q1016 NOSIG', 'OMAA 132300Z 04007KT 020V090 CAVOK 19/17 Q1016 NOSIG', 'OMAA 132200Z 06006KT CAVOK 19/17 Q1016 NOSIG', 'OMAA 132100Z 04005KT CAVOK 20/17 Q1017 NOSIG', 'OMAA 132000Z 05006KT 020V090 CAVOK 20/17 Q1017 NOSIG', 'OMAA 131900Z 04007KT CAVOK 21/18 Q1017 NOSIG', 'OMAA 131800Z 02008KT 360V160 CAVOK 21/18 Q1017 NOSIG', 'OMAA 131700Z 35007KT CAVOK 22/18 Q1017 NOSIG', 'OMAA 131600Z 01010KT CAVOK 22/18 Q1017 NOSIG', 'OMAA 131500Z 01012KT CAVOK 22/18 Q1016 NOSIG', 'OMAA 131400Z 36012KT 9999 SCT045 24/18 Q1016 NOSIG', 'OMAA 131300Z 34014KT 9999 SCT045 24/18 Q1015 NOSIG', 'OMAA 131200Z 34013KT 9999 SCT040 25/18 Q1015 NOSIG', 'OMAA 131112Z 33011KT 310V010 9999 SCT035 26/17 Q1015 NOSIG', 'OMAA 131000Z 01010KT 330V040 9999 SCT035 25/15 Q1016 NOSIG', 'OMAA 130900Z 05009KT 020V080 9999 FEW035 24/15 Q1017 NOSIG', 'OMAA 130800Z 05006KT 010V110 9999 FEW045 24/15 Q1018 NOSIG', 'OMAA 130700Z 03008KT 360V060 CAVOK 22/16 Q1018 NOSIG', 'OMAA 130600Z 02008KT 350V050 CAVOK 21/16 Q1019 NOSIG', 'OMAA 130500Z 35006KT CAVOK 19/16 Q1018 NOSIG', 'OMAA 130400Z 33005KT 9999 FEW045 18/16 Q1018 NOSIG', 'OMAA 130300Z 01009KT 9999 SCT035 18/16 Q1017 NOSIG', 'OMAA 130200Z 02008KT CAVOK 18/16 Q1016 NOSIG', 'OMAA 130100Z 03010KT 9999 FEW035 18/16 Q1016 NOSIG', 'OMAA 130000Z 01009KT 260V030 9999 FEW030 19/16 Q1016 NOSIG', 'OMAA 122300Z 36008KT 9999 FEW025 19/17 Q1015 NOSIG', 'OMAA 122100Z 33006KT CAVOK 18/17 Q1016 NOSIG', 'OMAA 122000Z 32005KT 290V350 CAVOK 18/17 Q1016 NOSIG', 'OMAA 121900Z 36006KT 330V030 CAVOK 19/17 Q1016 NOSIG', 'OMAA 121800Z 04009KT CAVOK 19/17 Q1016 NOSIG', 'OMAA 121700Z 03014KT 9999 FEW018 19/17 Q1016 WS ALL RWY NOSIG', 'OMAA 121600Z 36015KT 8000 BKN008 19/18 Q1016 RETSRA WS ALL RWY TEMPO VRB15G25KT 3000 TSRA BLDU FEW030CB', 'OMAA 121518Z 35022KT 6000 -RA BKN025 FEW030TCU 18/17 Q1016 RETSRA WS ALL RWY NOSIG', 'OMAA 121500Z 34024G57KT 290V040 1000 R31R/0450 +TSRA BKN011 FEW025CB 18/17 Q1015 WS ALL RWY BECMG 2000 TSRA', 'OMAA 121400Z 34018KT 9999 BKN025 FEW030TCU 22/18 Q1014 WS ALL RWY TEMPO VRB18G30KT 3000 SHRA', 'OMAA 121330Z 33018KT 9999 BKN025 FEW030TCU 22/18 Q1014 WS ALL RWY TEMPO VRB18G30KT 3000 SHRA', 'OMAA 121300Z 31007KT 9999 BKN025 24/19 Q1014 NOSIG', 'OMAA 121200Z 05005KT 020V120 9999 SCT025 24/19 Q1013 NOSIG', 'OMAA 121100Z 09006KT 060V120 9999 SCT020 24/19 Q1013 NOSIG', 'OMAA 121000Z 05009KT 020V080 9999 SCT020 23/19 Q1014 NOSIG']","['2024-02-15 09:00:00', '2024-02-15 08:00:00', '2024-02-15 07:00:00', '2024-02-15 06:00:00', '2024-02-15 05:00:00', '2024-02-15 04:00:00', '2024-02-15 03:00:00', '2024-02-15 02:00:00', '2024-02-15 01:00:00', '2024-02-15 00:00:00', '2024-02-14 23:00:00', '2024-02-14 22:00:00', '2024-02-14 21:00:00', '2024-02-14 20:00:00', '2024-02-14 19:00:00', '2024-02-14 18:00:00', '2024-02-14 17:00:00', '2024-02-14 16:00:00', '2024-02-14 15:00:00', '2024-02-14 14:00:00', '2024-02-14 13:00:00', '2024-02-14 12:04:00', '2024-02-14 12:00:00', '2024-02-14 11:00:00', '2024-02-14 10:00:00', '2024-02-14 09:00:00', '2024-02-14 08:00:00', '2024-02-14 07:00:00', '2024-02-14 06:00:00', '2024-02-14 05:00:00', '2024-02-14 04:00:00', '2024-02-14 03:00:00', '2024-02-14 02:00:00', '2024-02-14 01:00:00', '2024-02-14 00:00:00', '2024-02-13 23:00:00', '2024-02-13 22:00:00', '2024-02-13 21:00:00', '2024-02-13 20:00:00', '2024-02-13 19:00:00', '2024-02-13 18:00:00', '2024-02-13 17:00:00', '2024-02-13 16:00:00', '2024-02-13 15:00:00', '2024-02-13 14:00:00', '2024-02-13 13:00:00', '2024-02-13 12:00:00', '2024-02-13 11:12:00', '2024-02-13 10:00:00', '2024-02-13 09:00:00', '2024-02-13 08:00:00', '2024-02-13 07:00:00', '2024-02-13 06:00:00', '2024-02-13 05:00:00', '2024-02-13 04:00:00', '2024-02-13 03:00:00', '2024-02-13 02:00:00', '2024-02-13 01:00:00', '2024-02-13 00:00:00', '2024-02-12 23:00:00', '2024-02-12 21:00:00', '2024-02-12 20:00:00', '2024-02-12 19:00:00', '2024-02-12 18:00:00', '2024-02-12 17:00:00', '2024-02-12 16:00:00', '2024-02-12 15:18:00', '2024-02-12 15:00:00', '2024-02-12 14:00:00', '2024-02-12 13:30:00', '2024-02-12 13:00:00', '2024-02-12 12:00:00', '2024-02-12 11:00:00', '2024-02-12 10:00:00']"
United-arab-emirates, Al Ain International Airport (AAN/OMAL) ,"['OMAL 150900Z 17012KT 9999 FEW035 27/17 Q1019 NOSIG', 'OMAL 150800Z 17012KT 130V190 9999 SCT025 25/18 Q1020 NOSIG', 'OMAL 150700Z 16015KT 9999 SCT020 24/18 Q1021 NOSIG', 'OMAL 150600Z 17016KT 9999 FEW040 23/18 Q1021 NOSIG', 'OMAL 150500Z 15009KT CAVOK 21/18 Q1021 NOSIG', 'OMAL 150400Z 10005KT CAVOK 19/17 Q1020 NOSIG', 'OMAL 150300Z 11005KT 9999 FEW035 19/17 Q1020 NOSIG', 'OMAL 150200Z 17005KT CAVOK 20/18 Q1019 NOSIG', 'OMAL 150100Z 12005KT 080V150 CAVOK 19/16 Q1019 NOSIG', 'OMAL 150000Z 10007KT CAVOK 19/16 Q1018 NOSIG', 'OMAL 142300Z 09007KT CAVOK 20/16 Q1018 NOSIG', 'OMAL 142200Z 08006KT CAVOK 20/17 Q1018 NOSIG', 'OMAL 142100Z 08006KT CAVOK 21/17 Q1018 NOSIG', 'OMAL 142000Z 08006KT CAVOK 21/17 Q1019 NOSIG', 'OMAL 141900Z 08005KT CAVOK 22/16 Q1019 NOSIG', 'OMAL 141800Z 07005KT CAVOK 23/12 Q1019 NOSIG', 'OMAL 141700Z 31002KT CAVOK 23/11 Q1019 NOSIG', 'OMAL 141600Z 29003KT CAVOK 24/11 Q1018 NOSIG', 'OMAL 141500Z 25003KT CAVOK 25/11 Q1017 NOSIG', 'OMAL 141400Z 21008KT CAVOK 26/10 Q1017 NOSIG', 'OMAL 141300Z 19008KT CAVOK 27/10 Q1017 NOSIG', 'OMAL 141200Z 14004KT 090V230 9999 FEW045 27/14 Q1016 NOSIG', 'OMAL 141100Z 16006KT 120V200 9999 FEW045 26/15 Q1017 NOSIG', 'OMAL 141000Z 10006KT 060V130 9999 SCT045 25/15 Q1017 NOSIG', 'OMAL 140900Z 13006KT 080V180 9999 FEW040 25/15 Q1018 NOSIG', 'OMAL 140800Z 18005KT 130V230 CAVOK 25/15 Q1019 NOSIG', 'OMAL 140700Z 16006KT 110V190 CAVOK 24/15 Q1020 NOSIG', 'OMAL 140600Z 12006KT CAVOK 23/14 Q1020 NOSIG', 'OMAL 140500Z 10009KT CAVOK 22/15 Q1020 NOSIG', 'OMAL 140400Z 10008KT CAVOK 20/15 Q1019 NOSIG', 'OMAL 140300Z 10009KT CAVOK 19/15 Q1019 NOSIG', 'OMAL 140200Z 10008KT CAVOK 19/15 Q1018 NOSIG', 'OMAL 140100Z 10007KT CAVOK 19/15 Q1018 NOSIG', 'OMAL 140000Z 09009KT CAVOK 19/15 Q1017 NOSIG', 'OMAL 132300Z 09008KT CAVOK 20/15 Q1017 NOSIG', 'OMAL 132200Z 10008KT CAVOK 19/15 Q1018 NOSIG', 'OMAL 132100Z 09009KT CAVOK 20/16 Q1018 NOSIG', 'OMAL 132000Z 10008KT CAVOK 20/15 Q1018 NOSIG', 'OMAL 131900Z 10008KT CAVOK 20/15 Q1018 NOSIG', 'OMAL 131800Z 08007KT CAVOK 21/15 Q1019 NOSIG', 'OMAL 131700Z 08006KT CAVOK 21/16 Q1018 NOSIG', 'OMAL 131600Z 08005KT CAVOK 22/15 Q1018 NOSIG', 'OMAL 131500Z 09007KT 9999 FEW045 23/14 Q1017 NOSIG', 'OMAL 131400Z 08008KT 9999 SCT045 24/14 Q1017 NOSIG', 'OMAL 131300Z 11008KT 9999 SCT045 25/14 Q1016 NOSIG', 'OMAL 131200Z 23004KT 190V300 9999 SCT045 25/14 Q1016 NOSIG', 'OMAL 131100Z 13005KT 100V170 9999 SCT045 25/14 Q1016 NOSIG', 'OMAL 131000Z 12006KT 070V160 9999 SCT045 25/13 Q1017 NOSIG', 'OMAL 130900Z 11010KT 080V140 9999 FEW040 24/14 Q1017 NOSIG', 'OMAL 130800Z VRB04KT 9999 FEW035 24/15 Q1019 NOSIG', 'OMAL 130700Z 04006KT 9999 FEW040 21/14 Q1019 NOSIG', 'OMAL 130600Z 06008KT 9999 FEW045 21/14 Q1019 NOSIG', 'OMAL 130500Z 06005KT 9999 FEW045 18/15 Q1019 NOSIG', 'OMAL 130400Z 05006KT 9000 FEW035 16/15 Q1018 NOSIG', 'OMAL 130300Z 09005KT 8000 FEW030 17/15 Q1018 NOSIG', 'OMAL 130200Z 03002KT 6000 FEW030 16/15 Q1017 NOSIG', 'OMAL 130100Z 15002KT 7000 FEW025 16/15 Q1017 NOSIG', 'OMAL 130000Z 17003KT 120V210 9999 SCT025 16/16 Q1016 NOSIG', 'OMAL 122300Z 20006KT 9999 SCT020 17/15 Q1016 NOSIG', 'OMAL 122200Z VRB02KT CAVOK 17/15 Q1016 NOSIG', 'OMAL 122100Z 11006KT CAVOK 17/16 Q1016 NOSIG', 'OMAL 122000Z 09007KT CAVOK 17/15 Q1016 NOSIG', 'OMAL 121900Z 05007KT CAVOK 17/16 Q1017 NOSIG', 'OMAL 121800Z 05010KT 9999 FEW030 18/16 Q1017 NOSIG', 'OMAL 121700Z 01008KT 300V070 8000 -RA SCT015 FEW025TCU 19/16 Q1017 WS ALL RWY NOSIG', 'OMAL 121600Z 11009KT 9999 FEW030TCU SCT040 19/15 Q1016 WS ALL RWY TEMPO VRB20G30KT 1500 TSRA BLDU SCT030CB DIST LT TO W', 'OMAL 121500Z 11010KT 9999 FEW030TCU SCT040 19/16 Q1015 WS ALL RWY TEMPO VRB20G40KT 1500 TSRA FEW030CB RMK DSTN LT TO W', 'OMAL 121400Z 11012KT 9999 FEW030TCU SCT040 18/17 Q1015 WS ALL RWY TEMPO VRB20G35KT 2000 SHRA', 'OMAL 121300Z 11008KT 090V150 9999 -SHRA FEW020TCU SCT030 18/17 Q1015 RETSRA WS ALL RWY TEMPO VRB20G35KT 2000 TSRA FEW030CB', 'OMAL 121219Z 08008KT 8000 -TSRA FEW020CB SCT030 19/17 Q1014 RERA WS ALL RWY TEMPO VRB15G30KT 3000 TSRA RMK DSTN LT TO S', 'OMAL 121143Z 09011KT 6000 TSRA FEW030CB SCT040 18/17 Q1015 WS ALL RWY TEMPO VRB15G30KT 3000', 'OMAL 121100Z 09008KT 9999 FEW035 SCT040 19/18 Q1015 RETSRA WS ALL RWY TEMPO VRB15G30KT 3000 SHRA', 'OMAL 121024Z 11006KT 090V260 5000 TSRA FEW020CB BKN030 19/18 Q1016 WS ALL RWY TEMPO VRB20G35KT 3000', 'OMAL 121000Z 10010KT 7000 TSRA FEW025CB SCT030 20/17 Q1015 WS ALL RWY TEMPO VRB20G35KT 2000']","['2024-02-15 09:00:00', '2024-02-15 08:00:00', '2024-02-15 07:00:00', '2024-02-15 06:00:00', '2024-02-15 05:00:00', '2024-02-15 04:00:00', '2024-02-15 03:00:00', '2024-02-15 02:00:00', '2024-02-15 01:00:00', '2024-02-15 00:00:00', '2024-02-14 23:00:00', '2024-02-14 22:00:00', '2024-02-14 21:00:00', '2024-02-14 20:00:00', '2024-02-14 19:00:00', '2024-02-14 18:00:00', '2024-02-14 17:00:00', '2024-02-14 16:00:00', '2024-02-14 15:00:00', '2024-02-14 14:00:00', '2024-02-14 13:00:00', '2024-02-14 12:00:00', '2024-02-14 11:00:00', '2024-02-14 10:00:00', '2024-02-14 09:00:00', '2024-02-14 08:00:00', '2024-02-14 07:00:00', '2024-02-14 06:00:00', '2024-02-14 05:00:00', '2024-02-14 04:00:00', '2024-02-14 03:00:00', '2024-02-14 02:00:00', '2024-02-14 01:00:00', '2024-02-14 00:00:00', '2024-02-13 23:00:00', '2024-02-13 22:00:00', '2024-02-13 21:00:00', '2024-02-13 20:00:00', '2024-02-13 19:00:00', '2024-02-13 18:00:00', '2024-02-13 17:00:00', '2024-02-13 16:00:00', '2024-02-13 15:00:00', '2024-02-13 14:00:00', '2024-02-13 13:00:00', '2024-02-13 12:00:00', '2024-02-13 11:00:00', '2024-02-13 10:00:00', '2024-02-13 09:00:00', '2024-02-13 08:00:00', '2024-02-13 07:00:00', '2024-02-13 06:00:00', '2024-02-13 05:00:00', '2024-02-13 04:00:00', '2024-02-13 03:00:00', '2024-02-13 02:00:00', '2024-02-13 01:00:00', '2024-02-13 00:00:00', '2024-02-12 23:00:00', '2024-02-12 22:00:00', '2024-02-12 21:00:00', '2024-02-12 20:00:00', '2024-02-12 19:00:00', '2024-02-12 18:00:00', '2024-02-12 17:00:00', '2024-02-12 16:00:00', '2024-02-12 15:00:00', '2024-02-12 14:00:00', '2024-02-12 13:00:00', '2024-02-12 12:19:00', '2024-02-12 11:43:00', '2024-02-12 11:00:00', '2024-02-12 10:24:00', '2024-02-12 10:00:00']"
United-arab-emirates, Dubai World Central International Airport (DWC/OMDW) ,"['OMDW 150900Z 15012KT 9999 FEW035 28/18 Q1019 NOSIG', 'OMDW 150800Z 15014KT 120V180 9999 SCT035 27/19 Q1020 NOSIG', 'OMDW 150700Z 16015KT CAVOK 26/19 Q1020 NOSIG', 'OMDW 150600Z 16016KT CAVOK 24/19 Q1021 NOSIG', 'OMDW 150500Z 15011KT CAVOK 22/19 Q1020 NOSIG', 'OMDW 150400Z 13008KT CAVOK 19/17 Q1020 NOSIG', 'OMDW 150300Z 12008KT CAVOK 18/16 Q1019 NOSIG', 'OMDW 150200Z 12010KT CAVOK 19/17 Q1018 NOSIG', 'OMDW 150100Z 09002KT CAVOK 19/17 Q1018 NOSIG', 'OMDW 150000Z 08004KT CAVOK 19/17 Q1018 NOSIG', 'OMDW 142300Z VRB01KT CAVOK 19/18 Q1018 NOSIG', 'OMDW 142200Z 07005KT CAVOK 19/18 Q1018 NOSIG', 'OMDW 142100Z 09006KT CAVOK 20/18 Q1018 NOSIG', 'OMDW 142000Z 09005KT 070V140 CAVOK 20/18 Q1018 NOSIG', 'OMDW 141900Z 07006KT CAVOK 20/18 Q1019 NOSIG', 'OMDW 141800Z 05009KT CAVOK 21/19 Q1018 NOSIG', 'OMDW 141700Z 05009KT CAVOK 21/19 Q1018 NOSIG', 'OMDW 141600Z 05009KT CAVOK 22/19 Q1018 NOSIG', 'OMDW 141500Z 05011KT CAVOK 23/19 Q1017 NOSIG', 'OMDW 141400Z 06011KT 9999 FEW045 25/19 Q1017 NOSIG', 'OMDW 141300Z 07011KT CAVOK 26/19 Q1017 NOSIG', 'OMDW 141200Z 07005KT 030V100 CAVOK 27/18 Q1016 BECMG 34010KT', 'OMDW 141100Z 06010KT CAVOK 27/19 Q1016 BECMG 34010KT', 'OMDW 141000Z 15005KT 100V210 CAVOK 27/16 Q1017 NOSIG', 'OMDW 140900Z 07006KT 030V120 9999 SCT040 27/17 Q1018 NOSIG', 'OMDW 140800Z 08005KT 030V120 9999 FEW040 26/18 Q1019 NOSIG', 'OMDW 140700Z 08009KT CAVOK 25/18 Q1019 NOSIG', 'OMDW 140600Z 08006KT CAVOK 23/19 Q1020 NOSIG', 'OMDW 140500Z 08005KT CAVOK 20/18 Q1019 NOSIG', 'OMDW 140400Z 07006KT CAVOK 18/16 Q1019 NOSIG', 'OMDW 140300Z 07006KT CAVOK 17/16 Q1019 NOSIG', 'OMDW 140200Z 06006KT CAVOK 17/16 Q1018 NOSIG', 'OMDW 140100Z 04006KT CAVOK 17/16 Q1018 NOSIG', 'OMDW 140000Z 04004KT CAVOK 17/16 Q1018 NOSIG', 'OMDW 132300Z 06004KT CAVOK 17/16 Q1018 NOSIG', 'OMDW 132200Z 04005KT CAVOK 18/17 Q1018 NOSIG', 'OMDW 132100Z 05005KT CAVOK 18/16 Q1018 NOSIG', 'OMDW 131900Z 05007KT CAVOK 19/17 Q1019 NOSIG', 'OMDW 131800Z 05008KT CAVOK 20/17 Q1019 NOSIG', 'OMDW 131700Z 05009KT CAVOK 20/17 Q1019 NOSIG', 'OMDW 131600Z 04007KT CAVOK 21/17 Q1018 NOSIG', 'OMDW 131500Z 01007KT 9999 FEW043 22/19 Q1017 NOSIG', 'OMDW 131400Z 36008KT 9999 FEW043 23/18 Q1017 NOSIG', 'OMDW 131300Z 04010KT 360V060 9999 SCT040 24/18 Q1017 NOSIG', 'OMDW 131200Z 04012KT 9999 SCT035 25/17 Q1016 NOSIG', 'OMDW 131100Z 04011KT 9999 FEW035 24/18 Q1017 NOSIG', 'OMDW 131000Z 05012KT 9999 FEW034 25/18 Q1017 NOSIG', 'OMDW 130900Z 05013KT 9999 FEW031 25/17 Q1018 NOSIG', 'OMDW 130800Z 07012KT 9999 SCT029 24/18 Q1019 NOSIG', 'OMDW 130700Z 04010KT 9999 FEW040 22/17 Q1020 NOSIG', 'OMDW 130600Z 05008KT CAVOK 21/16 Q1020 NOSIG', 'OMDW 130500Z 04007KT CAVOK 19/16 Q1020 NOSIG', 'OMDW 130400Z 08004KT 040V130 CAVOK 17/15 Q1019 NOSIG', 'OMDW 130300Z 01008KT CAVOK 17/15 Q1018 NOSIG', 'OMDW 130200Z 04007KT CAVOK 17/15 Q1017 NOSIG', 'OMDW 130100Z 03006KT CAVOK 17/15 Q1017 NOSIG', 'OMDW 130000Z 06006KT CAVOK 17/16 Q1017 NOSIG', 'OMDW 122300Z 05009KT CAVOK 18/16 Q1017 NOSIG', 'OMDW 122200Z 02008KT CAVOK 17/16 Q1017 NOSIG', 'OMDW 122100Z 36009KT CAVOK 18/16 Q1017 NOSIG', 'OMDW 122000Z 04006KT CAVOK 18/16 Q1017 NOSIG', 'OMDW 121900Z 02009KT CAVOK 18/16 Q1017 NOSIG', 'OMDW 121800Z 04011KT CAVOK 18/16 Q1017 NOSIG', 'OMDW 121700Z 04007KT CAVOK 19/17 Q1017 WS ALL RWY TEMPO VRB18G30KT 3000 SHRA FEW035TCU', 'OMDW 121600Z 06018KT 9999 FEW030 19/17 Q1017 RERA WS ALL RWY TEMPO VRB20G40KT 2000 TSRA SCT030CB', 'OMDW 121500Z 08014KT 5000 RA FEW010 SCT030 19/18 Q1017 RETSRA WS ALL RWY TEMPO VRB20G40KT 2000 TSRA SCT030CB', 'OMDW 121400Z 34019KT 1200 R30/P2000N +TSRA SCT030CB BKN035 18/17 Q1016 WS ALL RWY TEMPO VRB20G40KT 0800', 'OMDW 121300Z 06015KT 9999 SCT030CB SCT035 22/17 Q1015 WS ALL RWY TEMPO VRB20G40KT 1500 TSRA', 'OMDW 121200Z 06014KT 9999 FEW030 22/17 Q1015 WS ALL RWY NOSIG', 'OMDW 121100Z 07016KT 9999 FEW030 22/16 Q1015 WS ALL RWY NOSIG', 'OMDW 121000Z 08018KT 9999 SCT030 23/17 Q1015 WS ALL RWY NOSIG']","['2024-02-15 09:00:00', '2024-02-15 08:00:00', '2024-02-15 07:00:00', '2024-02-15 06:00:00', '2024-02-15 05:00:00', '2024-02-15 04:00:00', '2024-02-15 03:00:00', '2024-02-15 02:00:00', '2024-02-15 01:00:00', '2024-02-15 00:00:00', '2024-02-14 23:00:00', '2024-02-14 22:00:00', '2024-02-14 21:00:00', '2024-02-14 20:00:00', '2024-02-14 19:00:00', '2024-02-14 18:00:00', '2024-02-14 17:00:00', '2024-02-14 16:00:00', '2024-02-14 15:00:00', '2024-02-14 14:00:00', '2024-02-14 13:00:00', '2024-02-14 12:00:00', '2024-02-14 11:00:00', '2024-02-14 10:00:00', '2024-02-14 09:00:00', '2024-02-14 08:00:00', '2024-02-14 07:00:00', '2024-02-14 06:00:00', '2024-02-14 05:00:00', '2024-02-14 04:00:00', '2024-02-14 03:00:00', '2024-02-14 02:00:00', '2024-02-14 01:00:00', '2024-02-14 00:00:00', '2024-02-13 23:00:00', '2024-02-13 22:00:00', '2024-02-13 21:00:00', '2024-02-13 19:00:00', '2024-02-13 18:00:00', '2024-02-13 17:00:00', '2024-02-13 16:00:00', '2024-02-13 15:00:00', '2024-02-13 14:00:00', '2024-02-13 13:00:00', '2024-02-13 12:00:00', '2024-02-13 11:00:00', '2024-02-13 10:00:00', '2024-02-13 09:00:00', '2024-02-13 08:00:00', '2024-02-13 07:00:00', '2024-02-13 06:00:00', '2024-02-13 05:00:00', '2024-02-13 04:00:00', '2024-02-13 03:00:00', '2024-02-13 02:00:00', '2024-02-13 01:00:00', '2024-02-13 00:00:00', '2024-02-12 23:00:00', '2024-02-12 22:00:00', '2024-02-12 21:00:00', '2024-02-12 20:00:00', '2024-02-12 19:00:00', '2024-02-12 18:00:00', '2024-02-12 17:00:00', '2024-02-12 16:00:00', '2024-02-12 15:00:00', '2024-02-12 14:00:00', '2024-02-12 13:00:00', '2024-02-12 12:00:00', '2024-02-12 11:00:00', '2024-02-12 10:00:00']"
United-arab-emirates, Dubai International Airport (DXB/OMDB) ,"['OMDB 150900Z 18005KT 140V280 9999 SCT040 29/16 Q1018 BECMG 35010KT', 'OMDB 150800Z VRB05KT 9999 FEW035 28/17 Q1019 NOSIG', 'OMDB 150700Z 16008KT 120V190 CAVOK 27/17 Q1020 NOSIG', 'OMDB 150600Z 14007KT 080V210 CAVOK 25/18 Q1020 NOSIG', 'OMDB 150500Z 09006KT CAVOK 23/18 Q1020 NOSIG', 'OMDB 150400Z 10007KT CAVOK 21/18 Q1019 NOSIG', 'OMDB 150300Z 07004KT 030V100 CAVOK 20/17 Q1018 NOSIG', 'OMDB 150200Z 05004KT CAVOK 21/17 Q1018 NOSIG', 'OMDB 150100Z 07003KT 030V120 CAVOK 21/18 Q1017 NOSIG', 'OMDB 150000Z 06004KT 030V180 CAVOK 21/18 Q1017 NOSIG', 'OMDB 142300Z 09004KT 060V130 CAVOK 22/18 Q1017 NOSIG', 'OMDB 142200Z 09005KT 040V120 CAVOK 22/18 Q1017 NOSIG', 'OMDB 142100Z 07004KT 030V110 CAVOK 22/18 Q1017 NOSIG', 'OMDB 142000Z 09005KT CAVOK 23/18 Q1018 NOSIG', 'OMDB 141900Z 09007KT 040V120 CAVOK 23/18 Q1018 NOSIG', 'OMDB 141800Z 09007KT CAVOK 23/18 Q1018 NOSIG', 'OMDB 141700Z 07009KT 040V150 CAVOK 24/18 Q1018 NOSIG', 'OMDB 141600Z 08010KT 060V120 CAVOK 24/17 Q1018 NOSIG', 'OMDB 141500Z 08013KT CAVOK 24/17 Q1017 NOSIG', 'OMDB 141400Z 08014KT CAVOK 25/17 Q1017 NOSIG', 'OMDB 141300Z 09016KT CAVOK 27/17 Q1016 NOSIG', 'OMDB 141200Z 09015KT CAVOK 27/17 Q1016 NOSIG', 'OMDB 141100Z 08014KT 050V120 CAVOK 26/17 Q1016 NOSIG', 'OMDB 141000Z 09014KT 060V120 9999 FEW040 27/18 Q1016 NOSIG', 'OMDB 140900Z 09012KT 060V120 9999 FEW035 27/17 Q1017 NOSIG', 'OMDB 140800Z 10013KT 070V130 9999 FEW035 27/18 Q1018 NOSIG', 'OMDB 140700Z 09014KT 060V120 CAVOK 26/17 Q1019 NOSIG', 'OMDB 140600Z 08010KT 050V110 CAVOK 25/17 Q1019 NOSIG', 'OMDB 140500Z 09007KT CAVOK 23/17 Q1019 NOSIG', 'OMDB 140400Z 10004KT 060V120 CAVOK 21/17 Q1018 NOSIG', 'OMDB 140300Z 08004KT 020V100 CAVOK 20/17 Q1018 NOSIG', 'OMDB 140200Z 06004KT 030V090 CAVOK 20/17 Q1017 NOSIG', 'OMDB 140100Z 06003KT 040V170 CAVOK 21/17 Q1017 NOSIG', 'OMDB 140000Z 09005KT 040V110 CAVOK 21/17 Q1017 NOSIG', 'OMDB 132300Z 09004KT 050V200 CAVOK 20/17 Q1017 NOSIG', 'OMDB 132200Z 08005KT CAVOK 20/16 Q1017 NOSIG', 'OMDB 132100Z 07005KT 050V170 CAVOK 21/16 Q1017 NOSIG', 'OMDB 132000Z 08006KT 050V120 CAVOK 21/16 Q1018 NOSIG', 'OMDB 131900Z 07005KT CAVOK 22/16 Q1018 NOSIG', 'OMDB 131800Z 06005KT 360V150 CAVOK 22/16 Q1018 NOSIG', 'OMDB 131700Z 07008KT CAVOK 23/16 Q1018 NOSIG', 'OMDB 131600Z 07008KT CAVOK 23/16 Q1017 NOSIG', 'OMDB 131500Z 09006KT CAVOK 24/15 Q1017 NOSIG', 'OMDB 131400Z 08009KT 040V100 9999 FEW045 25/15 Q1016 NOSIG', 'OMDB 131319Z 08010KT 9999 FEW045 26/16 Q1016 NOSIG', 'OMDB 131300Z 02008KT 330V070 9999 FEW045 25/17 Q1016 NOSIG', 'OMDB 131200Z 35009KT 330V030 9999 FEW045 25/17 Q1016 NOSIG', 'OMDB 131100Z 36010KT 340V080 9999 SCT040 25/16 Q1016 NOSIG', 'OMDB 131042Z 36011KT 9999 SCT040 25/16 Q1016 NOSIG', 'OMDB 131000Z 07010KT 040V150 9999 SCT035 25/16 Q1017 NOSIG', 'OMDB 130900Z 09009KT 060V130 9999 SCT035 25/16 Q1018 NOSIG', 'OMDB 130800Z 09013KT 060V130 9999 SCT035 25/15 Q1018 NOSIG', 'OMDB 130700Z 08011KT 9999 FEW040 24/15 Q1019 NOSIG', 'OMDB 130600Z 07010KT 040V100 CAVOK 23/16 Q1019 NOSIG', 'OMDB 130500Z 07007KT 050V110 CAVOK 21/16 Q1019 NOSIG', 'OMDB 130400Z 06005KT 030V140 CAVOK 20/15 Q1018 NOSIG', 'OMDB 130300Z 07004KT CAVOK 19/15 Q1017 NOSIG', 'OMDB 130200Z 08004KT 020V110 CAVOK 19/15 Q1017 NOSIG', 'OMDB 130100Z 09006KT 040V110 CAVOK 19/15 Q1016 NOSIG', 'OMDB 130000Z 09006KT 060V130 CAVOK 19/16 Q1016 NOSIG', 'OMDB 122300Z 08007KT 040V110 CAVOK 19/16 Q1016 NOSIG', 'OMDB 122200Z 06007KT 020V110 CAVOK 19/16 Q1017 NOSIG', 'OMDB 122100Z 05006KT CAVOK 19/16 Q1017 NOSIG', 'OMDB 122000Z 01006KT 290V050 CAVOK 19/16 Q1017 NOSIG', 'OMDB 121900Z 10010KT 050V140 CAVOK 20/16 Q1016 NOSIG', 'OMDB 121800Z 06008G21KT 030V100 9999 -RA FEW040 19/17 Q1016 TEMPO 4000 RA', 'OMDB 121700Z 08008KT 040V110 9999 -RA SCT040 19/17 Q1017 WS ALL RWY TEMPO VRB18G30KT 3000 SHRA FEW035TCU', 'OMDB 121600Z 10013KT 9999 -RA SCT040 19/17 Q1016 RETS WS ALL RWY TEMPO VRB25G40KT 1500 TSRA FEW030CB', 'OMDB 121539Z 09015KT 9999 -RA SCT040 19/17 Q1016 RETS WS ALL RWY TEMPO VRB25G40KT 1500 TSRA FEW030CB', 'OMDB 121500Z 10007KT 060V130 7000 -TSRA FEW030CB SCT040 20/17 Q1016 WS ALL RWY TEMPO VRB25G40KT 1500', 'OMDB 121400Z 02011G26KT 9000 -RA FEW030CB SCT040 22/17 Q1015 WS ALL RWY TEMPO 29025G40KT 1500 TSRA', 'OMDB 121300Z 04011KT 9999 FEW030CB SCT040 22/18 Q1015 WS ALL RWY TEMPO 29025G40KT 1500 TSRA', 'OMDB 121218Z 06010KT 8000 -RA FEW030CB SCT040 22/17 Q1015 WS ALL RWY TEMPO 29025G40KT 1500 TSRA', 'OMDB 121100Z 10017KT 9999 FEW040 25/15 Q1014 WS ALL RWY NOSIG', 'OMDB 121000Z 09017KT 9999 FEW040 24/15 Q1015 WS ALL RWY NOSIG']","['2024-02-15 09:00:00', '2024-02-15 08:00:00', '2024-02-15 07:00:00', '2024-02-15 06:00:00', '2024-02-15 05:00:00', '2024-02-15 04:00:00', '2024-02-15 03:00:00', '2024-02-15 02:00:00', '2024-02-15 01:00:00', '2024-02-15 00:00:00', '2024-02-14 23:00:00', '2024-02-14 22:00:00', '2024-02-14 21:00:00', '2024-02-14 20:00:00', '2024-02-14 19:00:00', '2024-02-14 18:00:00', '2024-02-14 17:00:00', '2024-02-14 16:00:00', '2024-02-14 15:00:00', '2024-02-14 14:00:00', '2024-02-14 13:00:00', '2024-02-14 12:00:00', '2024-02-14 11:00:00', '2024-02-14 10:00:00', '2024-02-14 09:00:00', '2024-02-14 08:00:00', '2024-02-14 07:00:00', '2024-02-14 06:00:00', '2024-02-14 05:00:00', '2024-02-14 04:00:00', '2024-02-14 03:00:00', '2024-02-14 02:00:00', '2024-02-14 01:00:00', '2024-02-14 00:00:00', '2024-02-13 23:00:00', '2024-02-13 22:00:00', '2024-02-13 21:00:00', '2024-02-13 20:00:00', '2024-02-13 19:00:00', '2024-02-13 18:00:00', '2024-02-13 17:00:00', '2024-02-13 16:00:00', '2024-02-13 15:00:00', '2024-02-13 14:00:00', '2024-02-13 13:19:00', '2024-02-13 13:00:00', '2024-02-13 12:00:00', '2024-02-13 11:00:00', '2024-02-13 10:42:00', '2024-02-13 10:00:00', '2024-02-13 09:00:00', '2024-02-13 08:00:00', '2024-02-13 07:00:00', '2024-02-13 06:00:00', '2024-02-13 05:00:00', '2024-02-13 04:00:00', '2024-02-13 03:00:00', '2024-02-13 02:00:00', '2024-02-13 01:00:00', '2024-02-13 00:00:00', '2024-02-12 23:00:00', '2024-02-12 22:00:00', '2024-02-12 21:00:00', '2024-02-12 20:00:00', '2024-02-12 19:00:00', '2024-02-12 18:00:00', '2024-02-12 17:00:00', '2024-02-12 16:00:00', '2024-02-12 15:39:00', '2024-02-12 15:00:00', '2024-02-12 14:00:00', '2024-02-12 13:00:00', '2024-02-12 12:18:00', '2024-02-12 11:00:00', '2024-02-12 10:00:00']"
United-arab-emirates, Fujairah International Airport (FJR/OMFJ) ,"['OMFJ 150900Z 10008KT 9999 FEW015 25/20 Q1019 A3010', 'OMFJ 150800Z 12008KT 090V160 9999 FEW015 SCT030 26/21 Q1020 A3013', 'OMFJ 150700Z 12006KT 080V180 9999 FEW015 SCT020 25/20 Q1021 A3015', 'OMFJ 150600Z 17003KT 8000 SCT012 BKN020 24/20 Q1021 A3016', 'OMFJ 150500Z 26002KT 7000 SCT020 23/21 Q1021 A3015', 'OMFJ 150400Z 30004KT 5000 BR FEW015 BKN020 21/20 Q1020 A3013', 'OMFJ 150305Z 25002KT 5000 BR FEW015 SCT030 21/20 Q1020 A3012', 'OMFJ 150300Z 29005KT 6000 FEW015 SCT030 21/20 Q1019 A3011', 'OMFJ 150200Z 30004KT 6000 FEW015 21/20 Q1019 A3010', 'OMFJ 150100Z 30003KT 6000 SCT020 21/20 Q1018 A3008', 'OMFJ 150000Z 30002KT 7000 SCT020 22/20 Q1018 A3008', 'OMFJ 142300Z 30004KT 8000 SCT020 22/20 Q1018 REDZ A3008', 'OMFJ 142200Z 21002KT 6000 DZ BKN012 22/20 Q1019 A3009', 'OMFJ 142100Z 18001KT 8000 SCT015 22/20 Q1019 A3010', 'OMFJ 142000Z 15004KT 100V250 8000 SCT015 23/20 Q1019 REDZ A3011', 'OMFJ 141900Z 11007KT 8000 SCT020 22/20 Q1019 A3011', 'OMFJ 141800Z 11008KT 8000 SCT020 23/20 Q1019 A3011', 'OMFJ 141700Z 27004KT 6000 FEW010 BKN020 22/20 Q1019 A3011', 'OMFJ 141600Z 28006KT 7000 BKN015 21/20 Q1019 RERA A3010', 'OMFJ 141500Z 27005KT 6000 FEW010 BKN020 21/20 Q1018 REDZ A3008', 'OMFJ 141400Z 31006KT 5000 DZ FEW012 BKN020 22/19 Q1018 A3007', 'OMFJ 141300Z 35004KT 320V030 9999 FEW010 BKN020 21/19 Q1018 A3006', 'OMFJ 141200Z 05009KT 010V070 6000 FEW010 BKN020 21/20 Q1017 RERA A3005', 'OMFJ 141100Z 06006KT 4500 RA FEW010 BKN020 FEW030TCU 22/21 Q1018 A3006', 'OMFJ 141000Z 07010KT 6000 FEW012 BKN025 23/19 Q1018 A3007', 'OMFJ 140900Z 04003KT 6000 FEW012 BKN020 22/20 Q1019 REDZ A3009', 'OMFJ 140800Z 19006KT 5000 DZ FEW010 BKN020 21/19 Q1020 A3012', 'OMFJ 140700Z 08011KT 8000 FEW010 BKN025 24/20 Q1020 A3013', 'OMFJ 140600Z 08011KT 7000 FEW010 BKN020 23/19 Q1020 A3013', 'OMFJ 140500Z 09014KT 6000 FEW010 BKN020 23/20 Q1020 A3012', 'OMFJ 140400Z 22008KT 190V250 6000 FEW010 BKN020 21/19 Q1019 A3011', 'OMFJ 140300Z 05006KT 9999 FEW010 BKN020 22/19 Q1019 A3010', 'OMFJ 140200Z 05007KT 9999 FEW017 SCT025 22/19 Q1018 A3007', 'OMFJ 140100Z 04004KT 9999 SCT020 22/19 Q1018 A3006', 'OMFJ 140000Z 06006KT 9999 BKN018 22/19 Q1018 A3007', 'OMFJ 132300Z 08006KT 9999 BKN019 22/19 Q1018 A3006', 'OMFJ 132200Z 05005KT 9999 BKN020 22/19 Q1018 A3007', 'OMFJ 132100Z 06007KT 9999 BKN030 22/18 Q1018 A3008', 'OMFJ 131950Z 06005KT 030V100 9999 BKN020 22/19 Q1019 RMK A3009', 'OMFJ 131900Z 09005KT 9999 BKN018 22/19 Q1019 A3010', 'OMFJ 131800Z 08006KT 9999 BKN021 23/19 Q1019 A3011', 'OMFJ 131700Z 06006KT 9999 SCT020 22/18 Q1019 A3010', 'OMFJ 131600Z 07004KT 9999 FEW020 22/18 Q1018 A3008', 'OMFJ 131500Z 08005KT 9999 SCT020 23/18 Q1018 A3007', 'OMFJ 131400Z 06007KT 9999 SCT020 23/17 Q1018 A3006', 'OMFJ 131300Z 06009KT 9999 BKN020 23/17 Q1017 A3005', 'OMFJ 131200Z 05008KT 020V080 9999 BKN020 23/18 Q1017 A3004', 'OMFJ 131100Z 06008KT 9999 SCT020 23/18 Q1017 RERA A3004', 'OMFJ 131000Z 07009KT 9999 SCT020 23/18 Q1017 A3005', 'OMFJ 130900Z 06011KT 9999 SCT018 23/18 Q1018 RERA A3008', 'OMFJ 130800Z 07011KT 050V110 6000 RA SCT015 23/17 Q1019 A3010', 'OMFJ 130700Z 08012KT 9999 BKN015 23/17 Q1020 A3012', 'OMFJ 130600Z 06009KT 350V070 8000 BKN010 22/18 Q1020 RERA A3012', 'OMFJ 130518Z 29003KT 240V320 3000 SHRA BKN010 FEW040TCU 20/18 Q1020 A3012', 'OMFJ 130500Z 27003KT 250V310 8000 SCT010 19/18 Q1019 RERA A3011', 'OMFJ 130400Z 21005KT 190V260 3000 SHRA BKN010 19/18 Q1019 A3010', 'OMFJ 130300Z 33002KT 6000 -RA BKN015 20/17 Q1018 A3007', 'OMFJ 130200Z 29005KT 9999 SCT025 18/16 Q1017 A3005', 'OMFJ 130100Z 31005KT 9999 SCT025 18/17 Q1017 A3005', 'OMFJ 130000Z 29007KT CAVOK 18/17 Q1017 A3004', 'OMFJ 122300Z 31006KT 8000 SCT025 18/16 Q1017 A3005', 'OMFJ 122200Z 22005KT 6000 BKN020 18/17 Q1017 RERA A3005', 'OMFJ 122100Z 13005KT 6000 -RA BKN020 18/16 Q1018 A3008', 'OMFJ 122000Z 11016KT 6000 RA BKN020 19/16 Q1018 A3008', 'OMFJ 121900Z 07008KT 050V110 6000 -RA BKN015 20/17 Q1018 A3007', 'OMFJ 121800Z 04005KT 360V100 6000 -RA BKN015 19/18 Q1018 A3008', 'OMFJ 121713Z 36008KT 330V030 4500 RA BKN010 18/18 Q1018 A3008', 'OMFJ 121700Z 34006KT 300V030 2000 SHRA BKN010 FEW030TCU 18/18 Q1019 A3009', 'OMFJ 121600Z 36009KT 330V030 3000 RA BKN015 19/18 Q1017 A3005', 'OMFJ 121522Z 01007KT 320V050 4000 RA BKN015 19/18 Q1017 A3005', 'OMFJ 121500Z 35007KT 320V040 6000 BKN020 19/18 Q1017 RETSRA A3004', 'OMFJ 121400Z 02008KT 340V050 2000 TSRA BKN020 FEW030CB 20/16 Q1016 A3001', 'OMFJ 121300Z 13013KT 090V150 TSRA 2000 BKN020 FEW030CB 21/18 Q1016 A3002', 'OMFJ 121200Z 05007KT 020V080 9999 BKN020 22/16 Q1016 A30MA738 121202 GG OEJDMASI 121202 VTBBYPYX SAPS33 NFFN 121200 METAR NTAA 121200Z VRB03KT 5000 -RA FEW006 SCT013 BKN033 26/25 Q1006 WS ALL RWY TEMPO 32020G30KT 2000 SHRA FEW015CB BKN016', 'OMFJ 121100Z 11005KT 030V130 9999 BKN020 21/17 Q1016 A3002', 'OMFJ 121000Z 11003KT 9999 SCT020 21/16 Q1017 A3003']","['2024-02-15 09:00:00', '2024-02-15 08:00:00', '2024-02-15 07:00:00', '2024-02-15 06:00:00', '2024-02-15 05:00:00', '2024-02-15 04:00:00', '2024-02-15 03:05:00', '2024-02-15 03:00:00', '2024-02-15 02:00:00', '2024-02-15 01:00:00', '2024-02-15 00:00:00', '2024-02-14 23:00:00', '2024-02-14 22:00:00', '2024-02-14 21:00:00', '2024-02-14 20:00:00', '2024-02-14 19:00:00', '2024-02-14 18:00:00', '2024-02-14 17:00:00', '2024-02-14 16:00:00', '2024-02-14 15:00:00', '2024-02-14 14:00:00', '2024-02-14 13:00:00', '2024-02-14 12:00:00', '2024-02-14 11:00:00', '2024-02-14 10:00:00', '2024-02-14 09:00:00', '2024-02-14 08:00:00', '2024-02-14 07:00:00', '2024-02-14 06:00:00', '2024-02-14 05:00:00', '2024-02-14 04:00:00', '2024-02-14 03:00:00', '2024-02-14 02:00:00', '2024-02-14 01:00:00', '2024-02-14 00:00:00', '2024-02-13 23:00:00', '2024-02-13 22:00:00', '2024-02-13 21:00:00', '2024-02-13 19:50:00', '2024-02-13 19:00:00', '2024-02-13 18:00:00', '2024-02-13 17:00:00', '2024-02-13 16:00:00', '2024-02-13 15:00:00', '2024-02-13 14:00:00', '2024-02-13 13:00:00', '2024-02-13 12:00:00', '2024-02-13 11:00:00', '2024-02-13 10:00:00', '2024-02-13 09:00:00', '2024-02-13 08:00:00', '2024-02-13 07:00:00', '2024-02-13 06:00:00', '2024-02-13 05:18:00', '2024-02-13 05:00:00', '2024-02-13 04:00:00', '2024-02-13 03:00:00', '2024-02-13 02:00:00', '2024-02-13 01:00:00', '2024-02-13 00:00:00', '2024-02-12 23:00:00', '2024-02-12 22:00:00', '2024-02-12 21:00:00', '2024-02-12 20:00:00', '2024-02-12 19:00:00', '2024-02-12 18:00:00', '2024-02-12 17:13:00', '2024-02-12 17:00:00', '2024-02-12 16:00:00', '2024-02-12 15:22:00', '2024-02-12 15:00:00', '2024-02-12 14:00:00', '2024-02-12 13:00:00', '2024-02-12 12:00:00', '2024-02-12 11:00:00', '2024-02-12 10:00:00']"
United-arab-emirates, Ras Al Khaimah International Airport (RKT/OMRK) ,"['OMRK 150900Z VRB05KT 9999 FEW040 29/15 Q1018 A3007', 'OMRK 150800Z VRB06KT CAVOK 28/15 Q1019 A3011', 'OMRK 150700Z 07007KT 040V120 CAVOK 27/18 Q1020 A3014', 'OMRK 150600Z 07007KT CAVOK 26/19 Q1020 A3014', 'OMRK 150500Z 12007KT 060V170 CAVOK 25/19 Q1020 A3014', 'OMRK 150400Z 24003KT 150V290 8000 NSC 20/19 Q1020 A3012', 'OMRK 150300Z VRB02KT CAVOK 18/16 Q1019 A3010', 'OMRK 150200Z 10004KT 9999 FEW040 19/17 Q1019 A3009', 'OMRK 150100Z VRB02KT 9999 FEW040 19/17 Q1018 A3008', 'OMRK 150000Z VRB03KT 9999 FEW040 20/17 Q1018 A3007', 'OMRK 142300Z 01005KT 9999 FEW045 21/17 Q1018 A3007', 'OMRK 142200Z 09009KT 040V120 CAVOK 23/17 Q1018 A3007', 'OMRK 142100Z 09008KT CAVOK 23/18 Q1018 A3008', 'OMRK 142000Z 10011KT CAVOK 24/17 Q1018 A3009', 'OMRK 141900Z 10007KT CAVOK 24/17 Q1018 A3008', 'OMRK 141800Z 10012KT CAVOK 24/17 Q1018 A3009', 'OMRK 141700Z 07010KT CAVOK 24/17 Q1018 A3008', 'OMRK 141600Z 08008KT 9999 FEW040 24/17 Q1018 A3009', 'OMRK 141500Z 06006KT 9999 FEW040 23/18 Q1018 A3007', 'OMRK 141400Z 12010KT 9999 FEW040 23/17 Q1018 A3007', 'OMRK 141300Z 12016KT 9999 FEW040 25/16 Q1017 A3005', 'OMRK 141200Z 11014KT 9999 FEW040 25/16 Q1017 A3003', 'OMRK 141100Z 11011KT 9999 FEW040 26/17 Q1017 A3004', 'OMRK 141000Z 10011KT 060V130 9999 FEW040 26/17 Q1017 A3005', 'OMRK 140900Z 13014KT 9999 FEW040 25/17 Q1018 A3008', 'OMRK 140800Z 12012KT 9999 FEW040 25/17 Q1019 A3010', 'OMRK 140700Z 07007KT 030V120 9999 FEW040 25/17 Q1019 A3011', 'OMRK 140600Z 09007KT 9999 FEW040 23/17 Q1020 A3013', 'OMRK 140500Z 19002KT 9999 FEW040 20/17 Q1020 A3012', 'OMRK 140400Z 20002KT 9999 FEW040 17/15 Q1019 A3010', 'OMRK 140300Z VRB02KT 9999 FEW040 17/15 Q1018 A3009', 'OMRK 140200Z 05004KT CAVOK 18/15 Q1018 A3007', 'OMRK 140100Z 03004KT 010V120 CAVOK 17/15 Q1018 A3007', 'OMRK 140000Z 11004KT CAVOK 19/15 Q1018 A3007', 'OMRK 132300Z 13009KT CAVOK 21/15 Q1018 A3007', 'OMRK 132200Z 07005KT CAVOK 21/15 Q1018 A3008', 'OMRK 132100Z VRB03KT CAVOK 19/16 Q1018 A3009', 'OMRK 132000Z 13009KT CAVOK 22/16 Q1018 A3008', 'OMRK 131900Z 12010KT CAVOK 21/16 Q1019 A3010', 'OMRK 131800Z 12009KT CAVOK 21/06 Q1019 A3010', 'OMRK 131700Z 13012KT 9999 FEW040 22/16 Q1019 A3010', 'OMRK 131600Z 13005KT 9999 FEW040 22/15 Q1018 A3009', 'OMRK 131500Z 12007KT 9999 FEW040 23/15 Q1018 A3006', 'OMRK 131400Z 12011KT 9999 FEW040 24/15 Q1017 A3005', 'OMRK 131300Z 13014KT 9999 FEW030 25/15 Q1017 A3004', 'OMRK 131200Z 11012KT 9999 SCT030 25/15 Q1017 A3003', 'OMRK 131100Z 11011KT 9999 SCT030 25/17 Q1017 A3004', 'OMRK 131000Z 10013KT 9999 SCT030 25/16 Q1017 A3005', 'OMRK 130900Z 10013KT 9999 SCT035 26/15 Q1018 A3007', 'OMRK 130800Z 11014KT 9999 SCT040 25/15 Q1018 A3009', 'OMRK 130700Z VRB08KT 9999 FEW040 25/16 Q1019 A3010', 'OMRK 130600Z 26002KT 9999 FEW040 24/16 Q1020 A3012', 'OMRK 130500Z 33003KT 9999 FEW040 22/16 Q1019 A3011', 'OMRK 130400Z 09002KT 9999 FEW040 18/16 Q1019 A3010', 'OMRK 130300Z 09003KT 040V130 CAVOK 17/15 Q1018 A3007', 'OMRK 130200Z 08005KT CAVOK 17/15 Q1017 A3005', 'OMRK 130100Z 29004KT 270V340 CAVOK 17/15 Q1017 A3003', 'OMRK 130000Z 14008KT CAVOK 19/15 Q1016 A3003', 'OMRK 122300Z 13006KT CAVOK 19/15 Q1017 A3004', 'OMRK 122200Z 20006KT 160V230 9999 FEW040 19/15 Q1017 A3004', 'OMRK 122100Z 01005KT 340V070 999 FEW040 19/15 Q1017 A3004', 'OMRK 122000Z 11010KT 070V130 9999 FEW040 21/15 Q1017 A3004', 'OMRK 121900Z 10010KT 9999 -RA FEW035 FEW040CB 20/15 Q1016 A3003', 'OMRK 121800Z 11014KT 9999 -RA FEW035 FEW040CB 20/15 Q1017 A3004', 'OMRK 121700Z 14012KT 9999 -RA FEW035 FEW040CB 20/15 Q1017 A3006', 'OMRK 121600Z 14009KT 9999 -RA FEW035 FEW040CB 20/16 Q1018 A3006', 'OMRK 121530Z 16014KT 9999 -RA FEW035 FEW040CB 20/16 Q1018 A3006', 'OMRK 121500Z VRB02KT 9999 FEW035 FEW040CB 21/16 Q1016 A3002', 'OMRK 121400Z 08010KT 9999 FEW035 FEW040CB 21/16 Q1016 A3001', 'OMRK 121300Z 11014KT 9999 -RA FEW035 FEW040CB 23/16 Q1015 A3000', 'OMRK 121200Z 13016KT 9999 FEW040 23/15 Q1015 A2998', 'OMRK 121100Z 36006KT 9999 FEW040 22/17 Q1015 A2999', 'OMRK 121000Z 35014KT 9999 FEW040 22/17 Q1016 A3001']","['2024-02-15 09:00:00', '2024-02-15 08:00:00', '2024-02-15 07:00:00', '2024-02-15 06:00:00', '2024-02-15 05:00:00', '2024-02-15 04:00:00', '2024-02-15 03:00:00', '2024-02-15 02:00:00', '2024-02-15 01:00:00', '2024-02-15 00:00:00', '2024-02-14 23:00:00', '2024-02-14 22:00:00', '2024-02-14 21:00:00', '2024-02-14 20:00:00', '2024-02-14 19:00:00', '2024-02-14 18:00:00', '2024-02-14 17:00:00', '2024-02-14 16:00:00', '2024-02-14 15:00:00', '2024-02-14 14:00:00', '2024-02-14 13:00:00', '2024-02-14 12:00:00', '2024-02-14 11:00:00', '2024-02-14 10:00:00', '2024-02-14 09:00:00', '2024-02-14 08:00:00', '2024-02-14 07:00:00', '2024-02-14 06:00:00', '2024-02-14 05:00:00', '2024-02-14 04:00:00', '2024-02-14 03:00:00', '2024-02-14 02:00:00', '2024-02-14 01:00:00', '2024-02-14 00:00:00', '2024-02-13 23:00:00', '2024-02-13 22:00:00', '2024-02-13 21:00:00', '2024-02-13 20:00:00', '2024-02-13 19:00:00', '2024-02-13 18:00:00', '2024-02-13 17:00:00', '2024-02-13 16:00:00', '2024-02-13 15:00:00', '2024-02-13 14:00:00', '2024-02-13 13:00:00', '2024-02-13 12:00:00', '2024-02-13 11:00:00', '2024-02-13 10:00:00', '2024-02-13 09:00:00', '2024-02-13 08:00:00', '2024-02-13 07:00:00', '2024-02-13 06:00:00', '2024-02-13 05:00:00', '2024-02-13 04:00:00', '2024-02-13 03:00:00', '2024-02-13 02:00:00', '2024-02-13 01:00:00', '2024-02-13 00:00:00', '2024-02-12 23:00:00', '2024-02-12 22:00:00', '2024-02-12 21:00:00', '2024-02-12 20:00:00', '2024-02-12 19:00:00', '2024-02-12 18:00:00', '2024-02-12 17:00:00', '2024-02-12 16:00:00', '2024-02-12 15:30:00', '2024-02-12 15:00:00', '2024-02-12 14:00:00', '2024-02-12 13:00:00', '2024-02-12 12:00:00', '2024-02-12 11:00:00', '2024-02-12 10:00:00']"
United-arab-emirates, Sharjah International Airport (SHJ/OMSJ) ,"['OMSJ 150900Z VRB05KT 9999 SCT040 29/16 Q1018 NOSIG', 'OMSJ 150800Z 17006KT 110V220 9999 FEW040 28/17 Q1020 NOSIG', 'OMSJ 150700Z 14007KT CAVOK 27/18 Q1020 NOSIG', 'OMSJ 150600Z 11006KT CAVOK 25/18 Q1021 NOSIG', 'OMSJ 150500Z 09004KT CAVOK 22/19 Q1020 NOSIG', 'OMSJ 150400Z 11003KT CAVOK 20/19 Q1020 NOSIG', 'OMSJ 150300Z 13004KT 110V170 CAVOK 19/18 Q1019 NOSIG', 'OMSJ 150200Z 09004KT CAVOK 19/18 Q1018 NOSIG', 'OMSJ 150100Z 06003KT CAVOK 20/18 Q1018 NOSIG', 'OMSJ 150000Z 08004KT CAVOK 20/18 Q1018 NOSIG', 'OMSJ 142300Z 08004KT CAVOK 20/18 Q1018 NOSIG', 'OMSJ 142200Z 09005KT CAVOK 20/18 Q1018 NOSIG', 'OMSJ 142100Z 10004KT CAVOK 21/18 Q1018 NOSIG', 'OMSJ 142000Z 10005KT CAVOK 21/19 Q1018 NOSIG', 'OMSJ 141900Z 10006KT CAVOK 22/19 Q1019 NOSIG', 'OMSJ 141800Z 09005KT CAVOK 22/18 Q1019 NOSIG', 'OMSJ 141700Z 08006KT CAVOK 22/18 Q1018 NOSIG', 'OMSJ 141600Z 09008KT CAVOK 23/17 Q1018 NOSIG', 'OMSJ 141500Z 09009KT CAVOK 23/17 Q1018 NOSIG', 'OMSJ 141400Z 10012KT CAVOK 25/18 Q1017 NOSIG', 'OMSJ 141300Z 10014KT CAVOK 26/17 Q1017 NOSIG', 'OMSJ 141200Z 09014KT CAVOK 26/17 Q1016 NOSIG', 'OMSJ 141100Z 08014KT CAVOK 26/17 Q1017 NOSIG', 'OMSJ 141000Z 10017KT 9999 FEW035 25/18 Q1017 NOSIG', 'OMSJ 140900Z 10015KT 9999 FEW035 26/18 Q1018 NOSIG', 'OMSJ 140800Z 09012KT 9999 FEW030 26/18 Q1019 NOSIG', 'OMSJ 140700Z 08011KT CAVOK 25/19 Q1019 NOSIG', 'OMSJ 140600Z 09011KT CAVOK 24/18 Q1020 NOSIG', 'OMSJ 140500Z 10007KT CAVOK 23/18 Q1019 NOSIG', 'OMSJ 140400Z 08003KT CAVOK 20/18 Q1019 NOSIG', 'OMSJ 140300Z 07005KT CAVOK 19/17 Q1018 NOSIG', 'OMSJ 140200Z 08005KT CAVOK 20/17 Q1018 NOSIG', 'OMSJ 140100Z 06006KT CAVOK 20/17 Q1018 NOSIG', 'OMSJ 140000Z 07007KT CAVOK 20/17 Q1018 NOSIG', 'OMSJ 132300Z 07007KT CAVOK 20/17 Q1017 NOSIG', 'OMSJ 132200Z 06006KT CAVOK 20/17 Q1018 NOSIG', 'OMSJ 132100Z 07003KT CAVOK 20/17 Q1018 NOSIG', 'OMSJ 132000Z 06006KT CAVOK 20/17 Q1018 NOSIG', 'OMSJ 131900Z 06006KT CAVOK 20/17 Q1019 NOSIG', 'OMSJ 131800Z 07006KT CAVOK 21/16 Q1019 NOSIG', 'OMSJ 131700Z 07006KT CAVOK 21/17 Q1019 NOSIG', 'OMSJ 131600Z 06006KT CAVOK 22/17 Q1018 NOSIG', 'OMSJ 131500Z 09007KT CAVOK 23/16 Q1017 NOSIG', 'OMSJ 131400Z 08007KT CAVOK 24/16 Q1017 NOSIG', 'OMSJ 131300Z 08010KT 9999 FEW045 25/16 Q1017 NOSIG', 'OMSJ 131200Z 04008KT 010V080 9999 SCT040 25/17 Q1016 NOSIG', 'OMSJ 131100Z 05007KT 9999 SCT035 25/16 Q1017 NOSIG', 'OMSJ 131000Z 06009KT 020V120 9999 SCT035 26/17 Q1017 NOSIG', 'OMSJ 130900Z 10007KT 9999 SCT030 24/17 Q1018 NOSIG', 'OMSJ 130800Z 09013KT 9999 FEW040 24/16 Q1019 NOSIG', 'OMSJ 130700Z 08014KT CAVOK 23/17 Q1019 NOSIG', 'OMSJ 130600Z 07009KT CAVOK 23/17 Q1020 NOSIG', 'OMSJ 130500Z 07008KT CAVOK 21/16 Q1019 NOSIG', 'OMSJ 130400Z 08006KT CAVOK 19/16 Q1019 NOSIG', 'OMSJ 130300Z 05004KT CAVOK 17/16 Q1018 NOSIG', 'OMSJ 130200Z 11003KT CAVOK 18/16 Q1017 NOSIG', 'OMSJ 130100Z 11004KT CAVOK 17/16 Q1017 NOSIG', 'OMSJ 130000Z 07003KT CAVOK 18/16 Q1017 NOSIG', 'OMSJ 122300Z 12010KT CAVOK 18/16 Q1017 NOSIG', 'OMSJ 122200Z 06007KT CAVOK 19/16 Q1017 NOSIG', 'OMSJ 122100Z 02004KT CAVOK 18/16 Q1017 NOSIG', 'OMSJ 122000Z 34004KT CAVOK 18/17 Q1017 NOSIG', 'OMSJ 121900Z 10004KT CAVOK 19/17 Q1017 NOSIG', 'OMSJ 121800Z 07007KT 9999 -RA FEW045 19/17 Q1017 TEMPO 4000 RA', 'OMSJ 121700Z 08008KT 9999 -RA FEW045 19/17 Q1018 RETS WS ALL RWY TEMPO VRB18G30KT 3000 SHRA FEW035TCU', 'OMSJ 121613Z 10011KT 8000 -RA BKN120 19/17 Q1017 RETSRA WS ALL RWY TEMPO VRB25G40KT 3000 SHRA FEW035TCU', 'OMSJ 121500Z 10010KT 6000 TSRA SCT030CB 20/16 Q1017 WS ALL RWY TEMPO VRB25G40KT 1500', 'OMSJ 121400Z 03007KT 8000 -TSRA SCT030CB 21/17 Q1016 WS ALL RWY TEMPO VRB25G40KT 1500', 'OMSJ 121300Z 01007KT 9999 -RA SCT035 21/18 Q1015 RERA WS ALL RWY TEMPO VRB25G40KT 1500 TSRA SCT030CB', 'OMSJ 121200Z 03012KT 9999 SCT035 22/17 Q1015 WS ALL RWY TEMPO VRB25G40KT 1500 TSRA SCT030CB', 'OMSJ 121100Z 09013KT 060V120 9999 SCT035 24/17 Q1015 WS ALL RWY NOSIG', 'OMSJ 121000Z 09011KT 9999 SCT040 23/17 Q1015 WS ALL RWY NOSIG']","['2024-02-15 09:00:00', '2024-02-15 08:00:00', '2024-02-15 07:00:00', '2024-02-15 06:00:00', '2024-02-15 05:00:00', '2024-02-15 04:00:00', '2024-02-15 03:00:00', '2024-02-15 02:00:00', '2024-02-15 01:00:00', '2024-02-15 00:00:00', '2024-02-14 23:00:00', '2024-02-14 22:00:00', '2024-02-14 21:00:00', '2024-02-14 20:00:00', '2024-02-14 19:00:00', '2024-02-14 18:00:00', '2024-02-14 17:00:00', '2024-02-14 16:00:00', '2024-02-14 15:00:00', '2024-02-14 14:00:00', '2024-02-14 13:00:00', '2024-02-14 12:00:00', '2024-02-14 11:00:00', '2024-02-14 10:00:00', '2024-02-14 09:00:00', '2024-02-14 08:00:00', '2024-02-14 07:00:00', '2024-02-14 06:00:00', '2024-02-14 05:00:00', '2024-02-14 04:00:00', '2024-02-14 03:00:00', '2024-02-14 02:00:00', '2024-02-14 01:00:00', '2024-02-14 00:00:00', '2024-02-13 23:00:00', '2024-02-13 22:00:00', '2024-02-13 21:00:00', '2024-02-13 20:00:00', '2024-02-13 19:00:00', '2024-02-13 18:00:00', '2024-02-13 17:00:00', '2024-02-13 16:00:00', '2024-02-13 15:00:00', '2024-02-13 14:00:00', '2024-02-13 13:00:00', '2024-02-13 12:00:00', '2024-02-13 11:00:00', '2024-02-13 10:00:00', '2024-02-13 09:00:00', '2024-02-13 08:00:00', '2024-02-13 07:00:00', '2024-02-13 06:00:00', '2024-02-13 05:00:00', '2024-02-13 04:00:00', '2024-02-13 03:00:00', '2024-02-13 02:00:00', '2024-02-13 01:00:00', '2024-02-13 00:00:00', '2024-02-12 23:00:00', '2024-02-12 22:00:00', '2024-02-12 21:00:00', '2024-02-12 20:00:00', '2024-02-12 19:00:00', '2024-02-12 18:00:00', '2024-02-12 17:00:00', '2024-02-12 16:13:00', '2024-02-12 15:00:00', '2024-02-12 14:00:00', '2024-02-12 13:00:00', '2024-02-12 12:00:00', '2024-02-12 11:00:00', '2024-02-12 10:00:00']"
United-kingdom, Aberdeen International Airport (ABZ/EGPD) ,"['EGPD 150920Z AUTO VRB01KT 0900 R16/0900U FG VV/// 07/06 Q1000', 'EGPD 150850Z AUTO VRB01KT 0750 R16/0800N FG VV/// 06/06 Q1001 TEMPO 0800 BKN002', 'EGPD 150820Z AUTO VRB01KT 0500 R16/0650N FG VV/// 06/06 Q1001', 'EGPD 150750Z VRB02KT 0400 R16/0550N FG VV/// 06/06 Q1001 TEMPO 0800 OVC002', 'EGPD 150720Z 16003KT 0550 R16/0800N FG OVC003 06/06 Q1002', 'EGPD 150650Z 13003KT 1100 R16/P1500N -RA BR BKN004 06/06 Q1002 REDZ', 'EGPD 150620Z AUTO 12002KT 1200 R16/1000U -RA BKN006 BKN042 06/06 Q1002', 'EGPD 150550Z AUTO VRB01KT 0900 R16/0750N -RA FG FEW042 06/06 Q1002', 'EGPD 150520Z AUTO 24001KT 0900 R16/1000U -RA FG FEW005 SCT033 06/06 Q1003', 'EGPD 150450Z AUTO 19001KT 0650 R16/0750N -RA FG VV/// 06/06 Q1003', 'EGPD 150420Z AUTO 12002KT 0750 R16/0750N -RA FG VV/// 06/06 Q1003', 'EGPD 150350Z AUTO 13003KT 0550 R16/0600N FG VV/// 06/06 Q1003', 'EGPD 150320Z AUTO 12003KT 0700 R16/0800N FG OVC002 06/06 Q1004', 'EGPD 150250Z AUTO 12004KT 1500 BR OVC002 06/06 Q1004 TEMPO 0600 FG', 'EGPD 150220Z AUTO 12004KT 090V160 0900 FG OVC002 06/06 Q1004', 'EGPD 150150Z AUTO 12005KT 1300 -RA OVC002 06/06 Q1005 TEMPO 0600 FG', 'EGPD 150120Z AUTO 11005KT 080V140 0750 FG VV/// 06/06 Q1005', 'EGPD 150050Z AUTO 11006KT 0500 FG VV/// 06/06 Q1005', 'EGPD 150020Z AUTO 11007KT 090V160 0650 FG VV/// 06/06 Q1006', 'EGPD 142350Z AUTO 12007KT 0900 FG OVC002 06/06 Q1006 TEMPO 0600 VV///', 'EGPD 142320Z AUTO 11007KT 1700 BR OVC002 06/06 Q1006 TEMPO 0800 FG', 'EGPD 142250Z AUTO 10008KT 1500 BR OVC002 06/06 Q1006 TEMPO 0800 FG', 'EGPD 142220Z AUTO 10007KT 1300 R16/P1500N BR OVC002 07/06 Q1006', 'EGPD 142150Z AUTO 10007KT 2100 BR OVC001 07/06 Q1007 TEMPO 1400', 'EGPD 142120Z AUTO 10008KT 2200 BR OVC001 07/06 Q1007 TEMPO 1400', 'EGPD 142050Z AUTO 10007KT 2700 BR OVC001 07/06 Q1007 TEMPO DZ', 'EGPD 142020Z 09007KT 2200 -DZ OVC002 07/06 Q1007', 'EGPD 141950Z 09005KT 2100 -DZ OVC002 06/06 Q1007 TEMPO DZ BR', 'EGPD 141920Z 10005KT 2200 -DZ OVC002 06/06 Q1007 RERA TEMPO DZ', 'EGPD 141850Z AUTO 09005KT 3400 RA OVC002 06/06 Q1007', 'EGPD 141820Z 10004KT 070V130 2700 RA OVC002 06/06 Q1007', 'EGPD 141750Z 03003KT 4200 RA OVC002 06/05 Q1007', 'EGPD 141720Z VRB01KT 9000 -RA OVC004 05/05 Q1007', 'EGPD 141650Z AUTO VRB01KT 9999 -RA BKN004 OVC009 05/05 Q1007', 'EGPD 141620Z AUTO 09004KT 9999 -RA OVC006 06/05 Q1007', 'EGPD 141550Z AUTO 11003KT 9999 -RA OVC012 06/04 Q1007', 'EGPD 141520Z AUTO VRB02KT 9999 -RA OVC013 06/04 Q1007', 'EGPD 141450Z AUTO 14004KT 100V190 9999 OVC014 06/04 Q1007', 'EGPD 141420Z AUTO VRB02KT 9999 OVC016 05/03 Q1007', 'EGPD 141350Z AUTO VRB01KT 9999 OVC018 05/03 Q1007', 'EGPD 141320Z AUTO VRB01KT 9999 BKN018 OVC031 05/02 Q1007 NOSIG', 'EGPD 141250Z AUTO VRB01KT 9999 BKN030 04/02 Q1007 NOSIG', 'EGPD 141220Z AUTO VRB01KT 9999 OVC031 03/01 Q1007', 'EGPD 141150Z AUTO VRB02KT 9999 BKN034 OVC041 03/01 Q1007 NOSIG', 'EGPD 141120Z AUTO VRB02KT 9999 OVC041 02/00 Q1007', 'EGPD 141050Z AUTO 34003KT 9999 OVC047 01/M00 Q1007 NOSIG', 'EGPD 141020Z AUTO 02002KT 9999 NCD 01/M00 Q1007 NOSIG', 'EGPD 140950Z AUTO VRB01KT 9999 NCD 00/M01 Q1007 NOSIG', 'EGPD 140920Z VRB03KT CAVOK M00/M01 Q1007', 'EGPD 140850Z AUTO 01002KT 9999 NCD M01/M02 Q1007', 'EGPD 140820Z AUTO VRB01KT 9999 NCD M01/M02 Q1007', 'EGPD 140750Z AUTO VRB01KT 9999 NCD M01/M02 Q1006 NOSIG', 'EGPD 140720Z AUTO 35002KT 9999 NCD M01/M02 Q1006 NOSIG', 'EGPD 140650Z AUTO VRB01KT 9999 NCD M02/M03 Q1006 NOSIG', 'EGPD 140620Z AUTO 03001KT 9999 NCD M02/M03 Q1006 NOSIG', 'EGPD 140550Z AUTO VRB02KT 9999 NCD M02/M03 Q1006 NOSIG', 'EGPD 140520Z AUTO 29002KT 9999 NCD M03/M04 Q1006', 'EGPD 140450Z AUTO 10001KT 9999 NCD M03/M03 Q1006', 'EGPD 140420Z AUTO 01001KT 9999 NCD M02/M03 Q1006', 'EGPD 140350Z AUTO 03001KT 9999 NCD M03/M03 Q1005', 'EGPD 140320Z AUTO VRB01KT 9999 NCD M02/M03 Q1005', 'EGPD 140250Z AUTO 04002KT 9999 NCD M01/M03 Q1005', 'EGPD 140220Z AUTO 02003KT 9999 NCD 01/M02 Q1005', 'EGPD 140150Z AUTO VRB02KT 9999 NCD M00/M02 Q1005', 'EGPD 140120Z AUTO 21006KT 9999 NCD 00/M02 Q1005', 'EGPD 140050Z AUTO 19003KT 9999 NCD 00/M01 Q1005', 'EGPD 140020Z AUTO 19004KT 080V220 9999 NCD M01/M03 Q1005 NOSIG', 'EGPD 132350Z AUTO 15003KT 100V180 9999 NCD 02/M01 Q1005 NOSIG', 'EGPD 132320Z AUTO VRB03KT 9999 NCD 01/M01 Q1005 NOSIG', 'EGPD 132250Z AUTO 25005KT 220V350 9999 NCD 03/M00 Q1005', 'EGPD 132220Z AUTO 24006KT 9999 NCD 03/M00 Q1005', 'EGPD 132150Z AUTO 25004KT 9999 NCD 03/M00 Q1004 NOSIG', 'EGPD 132120Z AUTO 23006KT 190V260 9999 NCD 03/M00 Q1004', 'EGPD 132050Z AUTO 23009KT 9999 NCD 03/00 Q1004', 'EGPD 132020Z AUTO 23004KT 210V270 9999 NCD 03/00 Q1004', 'EGPD 131950Z AUTO 22005KT 9999 NCD 04/01 Q1004 NOSIG', 'EGPD 131920Z AUTO 24008KT 9999 NCD 04/01 Q1004', 'EGPD 131850Z AUTO 23008KT 9999 NCD 04/01 Q1003 NOSIG', 'EGPD 131820Z AUTO 22004KT 9999 NCD 04/00 Q1003', 'EGPD 131750Z AUTO 20005KT 9999 NCD 04/00 Q1003 NOSIG', 'EGPD 131720Z AUTO 22010KT 9999 NCD 05/00 Q1003', 'EGPD 131650Z AUTO 22009KT 9999 NCD 05/00 Q1002 NOSIG', 'EGPD 131620Z AUTO 20008KT 9999 NCD 06/01 Q1002', 'EGPD 131550Z AUTO 20009KT 9999 NCD 07/01 Q1002', 'EGPD 131520Z AUTO 22010KT 9999 NCD 07/00 Q1002', 'EGPD 131450Z AUTO 22011KT 9999 NCD 08/00 Q1002', 'EGPD 131420Z AUTO 23012KT 9999 NCD 08/00 Q1001', 'EGPD 131350Z AUTO 23010KT 200V270 9999 NCD 08/01 Q1001', 'EGPD 131320Z AUTO 21012G24KT 180V250 9999 NCD 08/01 Q1001 NOSIG', 'EGPD 131250Z AUTO 22012KT 9999 NCD 08/01 Q1001', 'EGPD 131220Z AUTO 24012KT 9999 NCD 07/00 Q1001', 'EGPD 131150Z AUTO 24012KT 9999 NCD 07/01 Q1001', 'EGPD 131120Z AUTO 23010KT 9999 NCD 07/01 Q1001', 'EGPD 131050Z AUTO 23009KT 9999 NCD 06/01 Q1001', 'EGPD 131020Z AUTO 20005KT 170V230 9999 NCD 05/01 Q1001', 'EGPD 130950Z AUTO 13004KT 9999 NCD 03/01 Q1001', 'EGPD 130920Z AUTO 21006KT 180V240 9999 NCD 03/00 Q1000 NOSIG', 'EGPD 130850Z AUTO 19008KT 9999 NCD 02/M00 Q1000 NOSIG', 'EGPD 130820Z AUTO 20006KT 9999 NCD 02/M01 Q1000 NOSIG', 'EGPD 130750Z AUTO 21008KT 9999 NCD 01/M01 Q1000 NOSIG', 'EGPD 130720Z AUTO 20010KT 9999 NCD 02/M00 Q1000', 'EGPD 130650Z AUTO 21009KT 9999 NCD 02/M01 Q0999 NOSIG', 'EGPD 130620Z AUTO 22009KT 9999 NCD 02/M01 Q0999 NOSIG', 'EGPD 130550Z AUTO 21006KT 130V250 9999 NCD 02/M01 Q0999 NOSIG', 'EGPD 130520Z AUTO VRB02KT 9999 NCD 01/M02 Q0999 NOSIG', 'EGPD 130450Z AUTO 22009KT 9999 NCD 02/M02 Q0999 NOSIG', 'EGPD 130420Z AUTO 22010KT 9999 NCD 02/M02 Q0998', 'EGPD 130350Z AUTO 22007KT 9999 NCD 02/M02 Q0998', 'EGPD 130320Z AUTO 23009KT 9999 NCD 03/M01 Q0998', 'EGPD 130250Z AUTO 22007KT 9999 NCD 02/M01 Q0998', 'EGPD 130220Z AUTO 21006KT 9999 NCD 01/M02 Q0998', 'EGPD 130150Z AUTO 26007KT 9999 NCD 02/M02 Q0997', 'EGPD 130120Z AUTO 25007KT 210V280 9999 NCD 02/M01 Q0997', 'EGPD 130050Z AUTO 26009KT 9999 NCD 03/M01 Q0996 NOSIG', 'EGPD 130020Z AUTO 25012KT 9999 NCD 03/M01 Q0996', 'EGPD 122350Z AUTO 22011KT 9999 NCD 02/M00 Q0995', 'EGPD 122320Z AUTO 22010KT 9999 NCD 03/00 Q0994', 'EGPD 122250Z AUTO 22015KT 9999 NCD 03/01 Q0994 NOSIG', 'EGPD 122220Z AUTO 21013KT 9999 NCD 03/01 Q0994 NOSIG', 'EGPD 122150Z AUTO 22009KT 9999 NCD 03/01 Q0993 NOSIG', 'EGPD 122120Z AUTO 21011KT 9999 NCD 04/01 Q0993 NOSIG', 'EGPD 122050Z 19012KT 9999 FEW040 03/01 Q0993', 'EGPD 122020Z AUTO 20012KT 9999 NCD 03/01 Q0994', 'EGPD 121950Z AUTO 21013KT 9999 NCD 03/01 Q0994', 'EGPD 121920Z AUTO 21016KT 9999 NCD 04/02 Q0994', 'EGPD 121850Z AUTO 19024KT 9999 FEW042/// //////TCU 05/02 Q0993', 'EGPD 121820Z AUTO 20017G27KT 9999 SCT028/// //////TCU 06/02 Q0993', 'EGPD 121750Z AUTO 19008KT 160V230 9999 SCT027 05/02 Q0993 NOSIG', 'EGPD 121720Z 17011KT 9999 SCT030 BKN038 05/02 Q0994 TEMPO SHRA', 'EGPD 121650Z 20013KT CAVOK 05/01 Q0994', 'EGPD 121620Z 21016KT CAVOK 06/01 Q0994', 'EGPD 121550Z AUTO 20014KT 9999 NCD 06/01 Q0994', 'EGPD 121520Z AUTO 21011KT 180V240 9999 NCD 07/01 Q0994 NOSIG', 'EGPD 121450Z AUTO 20007KT 150V250 9999 SCT035 08/01 Q0994', 'EGPD 121420Z AUTO 22012KT 9999 NCD 07/01 Q0994', 'EGPD 121350Z AUTO 22014KT 9999 NCD 08/01 Q0994', 'EGPD 121320Z AUTO 24010KT 9999 NCD 08/01 Q0994', 'EGPD 121250Z AUTO 24011KT 9999 NCD 08/02 Q0994', 'EGPD 121220Z AUTO 24010KT 9999 NCD 08/02 Q0993', 'EGPD 121150Z AUTO 24008KT 210V290 9999 NCD 06/02 Q0993', 'EGPD 121120Z AUTO 24011KT 9999 NCD 06/02 Q0993', 'EGPD 121050Z AUTO 24010KT 9999 NCD 06/02 Q0992 NOSIG', 'EGPD 121020Z AUTO 23008KT 9999 NCD 05/02 Q0992 NOSIG']","['2024-02-15 09:20:00', '2024-02-15 08:50:00', '2024-02-15 08:20:00', '2024-02-15 07:50:00', '2024-02-15 07:20:00', '2024-02-15 06:50:00', '2024-02-15 06:20:00', '2024-02-15 05:50:00', '2024-02-15 05:20:00', '2024-02-15 04:50:00', '2024-02-15 04:20:00', '2024-02-15 03:50:00', '2024-02-15 03:20:00', '2024-02-15 02:50:00', '2024-02-15 02:20:00', '2024-02-15 01:50:00', '2024-02-15 01:20:00', '2024-02-15 00:50:00', '2024-02-15 00:20:00', '2024-02-14 23:50:00', '2024-02-14 23:20:00', '2024-02-14 22:50:00', '2024-02-14 22:20:00', '2024-02-14 21:50:00', '2024-02-14 21:20:00', '2024-02-14 20:50:00', '2024-02-14 20:20:00', '2024-02-14 19:50:00', '2024-02-14 19:20:00', '2024-02-14 18:50:00', '2024-02-14 18:20:00', '2024-02-14 17:50:00', '2024-02-14 17:20:00', '2024-02-14 16:50:00', '2024-02-14 16:20:00', '2024-02-14 15:50:00', '2024-02-14 15:20:00', '2024-02-14 14:50:00', '2024-02-14 14:20:00', '2024-02-14 13:50:00', '2024-02-14 13:20:00', '2024-02-14 12:50:00', '2024-02-14 12:20:00', '2024-02-14 11:50:00', '2024-02-14 11:20:00', '2024-02-14 10:50:00', '2024-02-14 10:20:00', '2024-02-14 09:50:00', '2024-02-14 09:20:00', '2024-02-14 08:50:00', '2024-02-14 08:20:00', '2024-02-14 07:50:00', '2024-02-14 07:20:00', '2024-02-14 06:50:00', '2024-02-14 06:20:00', '2024-02-14 05:50:00', '2024-02-14 05:20:00', '2024-02-14 04:50:00', '2024-02-14 04:20:00', '2024-02-14 03:50:00', '2024-02-14 03:20:00', '2024-02-14 02:50:00', '2024-02-14 02:20:00', '2024-02-14 01:50:00', '2024-02-14 01:20:00', '2024-02-14 00:50:00', '2024-02-14 00:20:00', '2024-02-13 23:50:00', '2024-02-13 23:20:00', '2024-02-13 22:50:00', '2024-02-13 22:20:00', '2024-02-13 21:50:00', '2024-02-13 21:20:00', '2024-02-13 20:50:00', '2024-02-13 20:20:00', '2024-02-13 19:50:00', '2024-02-13 19:20:00', '2024-02-13 18:50:00', '2024-02-13 18:20:00', '2024-02-13 17:50:00', '2024-02-13 17:20:00', '2024-02-13 16:50:00', '2024-02-13 16:20:00', '2024-02-13 15:50:00', '2024-02-13 15:20:00', '2024-02-13 14:50:00', '2024-02-13 14:20:00', '2024-02-13 13:50:00', '2024-02-13 13:20:00', '2024-02-13 12:50:00', '2024-02-13 12:20:00', '2024-02-13 11:50:00', '2024-02-13 11:20:00', '2024-02-13 10:50:00', '2024-02-13 10:20:00', '2024-02-13 09:50:00', '2024-02-13 09:20:00', '2024-02-13 08:50:00', '2024-02-13 08:20:00', '2024-02-13 07:50:00', '2024-02-13 07:20:00', '2024-02-13 06:50:00', '2024-02-13 06:20:00', '2024-02-13 05:50:00', '2024-02-13 05:20:00', '2024-02-13 04:50:00', '2024-02-13 04:20:00', '2024-02-13 03:50:00', '2024-02-13 03:20:00', '2024-02-13 02:50:00', '2024-02-13 02:20:00', '2024-02-13 01:50:00', '2024-02-13 01:20:00', '2024-02-13 00:50:00', '2024-02-13 00:20:00', '2024-02-12 23:50:00', '2024-02-12 23:20:00', '2024-02-12 22:50:00', '2024-02-12 22:20:00', '2024-02-12 21:50:00', '2024-02-12 21:20:00', '2024-02-12 20:50:00', '2024-02-12 20:20:00', '2024-02-12 19:50:00', '2024-02-12 19:20:00', '2024-02-12 18:50:00', '2024-02-12 18:20:00', '2024-02-12 17:50:00', '2024-02-12 17:20:00', '2024-02-12 16:50:00', '2024-02-12 16:20:00', '2024-02-12 15:50:00', '2024-02-12 15:20:00', '2024-02-12 14:50:00', '2024-02-12 14:20:00', '2024-02-12 13:50:00', '2024-02-12 13:20:00', '2024-02-12 12:50:00', '2024-02-12 12:20:00', '2024-02-12 11:50:00', '2024-02-12 11:20:00', '2024-02-12 10:50:00', '2024-02-12 10:20:00']"
United-kingdom, Anglesey Airport (VLY/EGOV) ,"['EGOV 150920Z 19021KT 7000 BR OVC004 12/11 Q1002 TEMPO 3500 -RADZ OVC002 RMK YLO2 TEMPO AMB', 'EGOV 150850Z 19021KT 9000 FEW003 OVC005 11/11 Q1002 TEMPO 7000 -RADZ OVC004 RMK YLO1 TEMPO YLO2', 'EGOV 150820Z 18023KT 9000 OVC005 11/11 Q1002 TEMPO 7000 -RADZ OVC004 RMK YLO1 TEMPO YLO2', 'EGOV 150750Z 18022KT 9999 FEW003 OVC005 11/11 Q1002 TEMPO 2500 RADZ BKN003 RMK YLO1 TEMPO YLO2', 'EGOV 150720Z 19023KT 5000 -RA FEW002 BKN003 11/11 Q1002 RERA REDZ TEMPO 2500 RADZ BKN002 RMK YLO2 TEMPO AMB', 'EGOV 150650Z 17018KT 2500 RADZ OVC002 11/10 Q1002 RMK AMB', 'EGOV 150550Z AUTO 17017KT 7000 // OVC003/// 11/10 Q1002', 'EGOV 150520Z AUTO 17020KT 9000 -RA OVC004/// 11/10 Q1003', 'EGOV 150450Z AUTO 17018KT 4000 RA OVC002/// 10/10 Q1002', 'EGOV 150420Z AUTO 17015KT 1000 +RA OVC002/// 10/10 Q1003', 'EGOV 150350Z AUTO 18015KT 2100 RA OVC002/// 11/10 Q1004', 'EGOV 150320Z AUTO 18017KT 6000 -RA OVC004/// 11/10 Q1004', 'EGOV 150250Z AUTO 17014KT 5000 -RA OVC004/// 10/10 Q1004', 'EGOV 150220Z AUTO 18018KT 5000 -RA OVC003/// 11/10 Q1005', 'EGOV 150150Z AUTO 18021KT 3100 // OVC002/// 10/10 Q1005', 'EGOV 150120Z AUTO 18021KT 0900 -DZ OVC002/// 11/10 Q1005', 'EGOV 150050Z AUTO 19019KT 4700 BR OVC002/// 11/10 Q1005', 'EGOV 150020Z AUTO 18020KT 1500 // OVC002/// 10/10 Q1005', 'EGOV 142350Z AUTO 18019KT 2800 -DZ OVC003/// 10/10 Q1005', 'EGOV 142320Z AUTO 18019KT 5000 -RA OVC003/// 11/10 Q1005', 'EGOV 142250Z AUTO 18018KT 5000 -RA OVC002/// 10/10 Q1006', 'EGOV 142220Z AUTO 18020KT 2500 -RA OVC002/// 10/10 Q1006', 'EGOV 142150Z AUTO 18018KT 5000 -RA OVC002/// 10/10 Q1006', 'EGOV 142120Z AUTO 17014KT 2400 RA OVC002/// 10/10 Q1006', 'EGOV 142050Z AUTO 18015KT 2300 -RA OVC002/// 10/10 Q1006', 'EGOV 142020Z AUTO 18017KT 9999 // OVC002/// 10/10 Q1006', 'EGOV 141950Z AUTO 19020KT 3300 // OVC002/// 10/10 Q1007', 'EGOV 141920Z AUTO 19019KT 0500 +DZ OVC002/// 10/10 Q1007', 'EGOV 141850Z AUTO 19018KT 3800 -RA OVC002/// 10/10 Q1007', 'EGOV 141820Z AUTO 19016KT 6000 -RA BKN002/// SCT014/// BKN021/// 10/10 Q1007', 'EGOV 141750Z AUTO 19016KT 3500 -RA OVC002/// 10/10 Q1007', 'EGOV 141720Z AUTO 20013KT 1100 -RA OVC002/// 10/10 Q1007', 'EGOV 141650Z AUTO 20015KT 0400 -RA OVC002/// 10/10 Q1007', 'EGOV 141620Z AUTO 21017KT 0550 -RA OVC002/// 10/10 Q1007', 'EGOV 141550Z 20018KT 0350 FG OVC000 10/10 Q1006 NOSIG RMK RED RED', 'EGOV 141520Z 20020KT 0350 FG OVC000 10/10 Q1006 TEMPO 1500 BR OVC002 RMK RED TEMPO AMB', 'EGOV 141450Z 20020KT 0450 FG OVC000 10/10 Q1006 TEMPO 1500 BR OVC002 RMK RED TEMPO AMB', 'EGOV 141420Z 20019KT 1200 BR OVC002 11/10 Q1006 TEMPO 0700 FG OVC001 RMK AMB TEMPO RED', 'EGOV 141350Z 20019KT 1500 BR OVC002 11/10 Q1006 TEMPO 0700 FG OVC001 RMK AMB TEMPO RED', 'EGOV 141320Z 20020KT 2200 BR OVC002 11/10 Q1006 TEMPO 5000 OVC003 RMK AMB TEMPO YLO2', 'EGOV 141250Z 20020KT 3000 BR BKN003 11/11 Q1006 TEMPO 6000 OVC005 RMK YLO2 TEMPO YLO1', 'EGOV 141220Z 21021KT 4500 BR OVC004 11/11 Q1006 TEMPO 6000 BR OVC005 RMK YLO2 TEMPO YLO1', 'EGOV 141150Z 21020KT 3200 BR OVC003 11/11 Q1006 NOSIG RMK YLO2 YLO2', 'EGOV 141120Z 20017KT 3000 BR OVC003 11/10 Q1006 TEMPO 1200 BR OVC002 RMK YLO2 TEMPO AMB', 'EGOV 141050Z 20018KT 1500 BR OVC002 10/10 Q1006 TEMPO 0700 FG OVC000 RMK AMB TEMPO RED', 'EGOV 141020Z 20017KT 1500 BR OVC002 10/10 Q1005 TEMPO 0700 FG OVC000 RMK AMB TEMPO RED', 'EGOV 140950Z 20017KT 0800 FG OVC000 10/10 Q1005 TEMPO OVC002 RMK RED TEMPO AMB', 'EGOV 140920Z 20019KT 1500 BR OVC002 10/10 Q1005 TEMPO 0800 FG OVC000 RMK AMB TEMPO RED', 'EGOV 140857Z 19017KT 2000 BR OVC002 10/10 Q1005 TEMPO 0800 FG OVC000 RMK AMB TEMPO RED', 'EGOV 140820Z 19017KT 9999 OVC003 10/10 Q1005 TEMPO 0800 FG OVC000 RMK YLO2 TEMPO RED', 'EGOV 140750Z 19015KT 1500 -DZ OVC002 10/10 Q1005 TEMPO 0800 FG OVC000 RMK AMB TEMPO RED', 'EGOV 140720Z 19015KT 1000 BR OVC002 10/10 Q1004 TEMPO 0800 FG OVC000 RMK AMB TEMPO RED', 'EGOV 140650Z 20016KT 0900 FG OVC000 10/10 Q1005 RMK RED', 'EGOV 140550Z 20018KT 0800 FG OVC000 10/10 Q1004 RMK RED', 'EGOV 140450Z AUTO 20016KT 0350 RA OVC002/// 10/10 Q1004', 'EGOV 140420Z AUTO 21018KT 1600 -RA OVC002/// 10/10 Q1004', 'EGOV 140350Z AUTO 21017KT 0550 DZ OVC002/// 10/10 Q1004', 'EGOV 140320Z AUTO 21018KT 0900 // OVC002/// 10/10 Q1004', 'EGOV 140250Z AUTO 20016KT 1900 RA OVC002/// 10/10 Q1004', 'EGOV 140220Z AUTO 20016KT 0700 -DZ OVC002/// 10/10 Q1004', 'EGOV 140150Z AUTO 20015KT 0800 DZ OVC002/// 10/10 Q1004', 'EGOV 140120Z AUTO 20017KT 3900 -RA OVC002/// 10/10 Q1004', 'EGOV 140050Z AUTO 20014KT 5000 -DZ OVC002/// 10/10 Q1005', 'EGOV 140020Z AUTO 19015KT 0800 -RA OVC002/// 10/09 Q1005', 'EGOV 132350Z AUTO 19012KT 2200 RA OVC001/// 10/09 Q1005', 'EGOV 132320Z AUTO 20010KT 1200 -RA OVC002/// 09/09 Q1005', 'EGOV 132250Z AUTO 20012KT 3300 -RA OVC002/// 09/09 Q1005', 'EGOV 132150Z AUTO 20011KT 0450 RA OVC002/// 09/09 Q1005', 'EGOV 132120Z AUTO 15004KT 1000 -RA OVC002/// 09/08 Q1005', 'EGOV 132050Z AUTO 13003KT 9000 // OVC004/// 08/07 Q1004', 'EGOV 132020Z AUTO 11002KT 9999 -DZ OVC009/// 08/07 Q1004', 'EGOV 131950Z AUTO 11003KT 9999 // OVC025/// 08/07 Q1004', 'EGOV 131920Z AUTO 07002KT 9999 // BKN014/// SCT028/// 08/07 Q1004', 'EGOV 131850Z 07003KT 9999 -RA OVC014 08/07 Q1004 NOSIG RMK GRN GRN', 'EGOV 131820Z 05003KT 9999 -RA OVC014 09/06 Q1004 TEMPO 4000 RA RMK GRN TEMPO GRN', 'EGOV 131750Z 06004KT 9999 OVC015 09/06 Q1004 TEMPO 4000 RA SCT008 RMK WHT TEMPO GRN', 'EGOV 131720Z 05006KT 9999 OVC015 09/06 Q1004 TEMPO -RA SCT008 RMK WHT TEMPO GRN', 'EGOV 131650Z 06005KT 9999 OVC017 09/06 Q1004 BECMG SCT008 RMK WHT BECMG GRN', 'EGOV 131620Z 06007KT 9999 BKN018 09/06 Q1004 NOSIG RMK WHT', 'EGOV 131550Z 15003KT 9999 SCT016 BKN035 10/06 Q1004 NOSIG RMK WHT WHT', 'EGOV 131520Z 15004KT 9999 FEW017 BKN028 10/06 Q1004 TEMPO SCT017 RMK BLU TEMPO WHT', 'EGOV 131450Z 14003KT 9999 BKN018 BKN028 10/06 Q1004 NOSIG RMK WHT WHT', 'EGOV 131420Z 16007KT 9999 -DZ SCT019 BKN030 09/06 Q1005 NOSIG RMK WHT WHT', 'EGOV 131350Z 17008KT 9999 FEW015 BKN034 09/07 Q1005 TEMPO SCT015 RMK BLU TEMPO WHT', 'EGOV 131320Z 16011KT 9999 FEW014 BKN035 09/07 Q1005 TEMPO SCT018 RMK BLU TEMPO WHT', 'EGOV 131250Z 16011KT 9999 FEW012 BKN035 09/07 Q1006 TEMPO SCT018 RMK BLU TEMPO WHT', 'EGOV 131220Z 16012KT 9999 FEW012 BKN032 09/06 Q1006 TEMPO SCT018 RMK BLU TEMPO WHT', 'EGOV 131150Z 16012KT 9999 FEW006 SCT011 BKN035 09/07 Q1007 NOSIG RMK GRN GRN', 'EGOV 131120Z 18008KT 9999 FEW007 SCT012 BKN020 08/07 Q1007 TEMPO 4000 RADZ RMK GRN TEMPO GRN', 'EGOV 131050Z 18012KT 9999 -RADZ OVC026 09/07 Q1007 BECMG SCT018 RMK BLU BECMG WHT', 'EGOV 131020Z 18013KT 9999 FEW010 BKN029 08/06 Q1007 BECMG SCT016 BKN029 RMK BLU BECMG WHT', 'EGOV 130950Z 17012KT 9999 FEW010 SCT016 BKN030 08/06 Q1007 TEMPO FEW016 RMK WHT TEMPO BLU', 'EGOV 130920Z 20013KT 9999 FEW010 SCT016 BKN034 08/06 Q1007 NOSIG RMK WHT WHT', 'EGOV 130850Z 21013KT 9999 FEW009 BKN028 08/06 Q1007 BECMG -RA BKN024 RMK BLU', 'EGOV 130820Z 23009KT 9999 FEW008 BKN029 08/06 Q1007 BECMG -RA BKN024 RMK BLU BECMG WHT', 'EGOV 130750Z 22009KT 9999 -RA FEW009 SCT015 BKN027 08/06 Q1007 TEMPO 6000 RA SCT010 RMK WHT TEMPO GRN', 'EGOV 130720Z 20015KT 9999 FEW009 SCT035 08/06 Q1007 NOSIG RMK BLU BLU', 'EGOV 130650Z 21013KT 9999 BKN045 08/04 Q1007 RMK BLU', 'EGOV 130550Z 22013KT 9999 FEW020 OVC060 08/04 Q1007 RMK BLU', 'EGOV 130450Z AUTO 23013KT 9999 SCT062/// SCT180/// 08/04 Q1007', 'EGOV 130420Z AUTO 23014KT 9999 FEW018/// 08/04 Q1007', 'EGOV 130350Z AUTO 23016KT 9999 FEW018/// SCT058/// 08/04 Q1007', 'EGOV 130320Z AUTO 23015KT 9999 BKN048/// SCT065/// 08/05 Q1007', 'EGOV 130250Z AUTO 23015KT 9999 FEW017/// OVC056/// 08/05 Q1007', 'EGOV 130220Z AUTO 24015KT 9999 OVC060/// 08/05 Q1007', 'EGOV 130150Z AUTO 24016KT 9999 FEW018/// OVC056/// 08/04 Q1007', 'EGOV 130120Z AUTO 23017KT 9999 FEW018/// OVC060/// 08/05 Q1007', 'EGOV 130050Z AUTO 24015KT 9999 OVC056/// 08/04 Q1007', 'EGOV 130020Z AUTO 24016KT 9999 OVC055/// 08/04 Q1007', 'EGOV 122350Z AUTO 24017KT 9999 SCT020/// BKN060/// 08/04 Q1007', 'EGOV 122320Z AUTO 23018KT 9999 FEW020/// BKN049/// BKN066/// 08/05 Q1007', 'EGOV 122250Z AUTO 24018KT 9999 OVC061/// 08/04 Q1007', 'EGOV 122220Z AUTO 24019KT 9999 FEW022/// BKN030/// OVC064/// 08/05 Q1006', 'EGOV 122150Z AUTO 24019KT 9999 FEW036/// OVC060/// 08/05 Q1006', 'EGOV 122120Z AUTO 24020KT 9999 OVC053/// 08/04 Q1006', 'EGOV 122050Z AUTO 23021KT 9999 OVC071/// 08/05 Q1006', 'EGOV 122020Z AUTO 23020KT 9999 FEW052/// BKN068/// 08/05 Q1005', 'EGOV 121950Z AUTO 23024KT 9999 FEW017/// SCT049/// BKN064/// 09/06 Q1005', 'EGOV 121920Z 22020KT 9999 FEW018 SCT053 09/05 Q1005 TEMPO SCT018 RMK BLU TEMPO WHT', 'EGOV 121850Z 22020KT 9999 FEW018 BKN057 09/06 Q1005 TEMPO SCT018 RMK BLU TEMPO WHT', 'EGOV 121820Z 22021KT 9999 FEW019 SCT071 BKN170 08/05 Q1005 NOSIG RMK BLU BLU', 'EGOV 121750Z 22021KT 9999 FEW025 BKN180 08/05 Q1004 NOSIG RMK BLU BLU', 'EGOV 121720Z 22022KT 9999 FEW025 BKN075 08/04 Q1004 NOSIG RMK BLU BLU', 'EGOV 121620Z 21022KT 9999 FEW022 BKN180 08/04 Q1004 NOSIG RMK BLU BLU', 'EGOV 121550Z 22020KT 9999 FEW022 BKN050 08/04 Q1004 NOSIG RMK BLU BLU', 'EGOV 121520Z 22020KT 9999 FEW024 09/03 Q1004 NOSIG RMK BLU BLU', 'EGOV 121450Z 22021KT 9999 FEW024 SCT065 09/04 Q1004 NOSIG RMK BLU BLU', 'EGOV 121420Z 22021KT 9999 FEW024 SCT066 09/04 Q1004 NOSIG RMK BLU BLU', 'EGOV 121350Z 23021KT 9999 FEW024 09/04 Q1004 NOSIG RMK BLU BLU', 'EGOV 121320Z 23020KT 9999 FEW024 09/03 Q1004 NOSIG RMK BLU BLU', 'EGOV 121220Z 23020KT 9999 FEW022 08/03 Q1003 NOSIG RMK BLU BLU', 'EGOV 121150Z 23019KT 9999 FEW022 08/04 Q1003 NOSIG RMK BLU BLU', 'EGOV 121120Z 23019KT 9999 FEW020 08/03 Q1003 NOSIG RMK BLU BLU', 'EGOV 121050Z 23018KT 9999 FEW020 08/04 Q1003 NOSIG RMK BLU BLU', 'EGOV 121020Z 24018KT 9999 FEW023 08/03 Q1003 NOSIG RMK BLU BLU']","['2024-02-15 09:20:00', '2024-02-15 08:50:00', '2024-02-15 08:20:00', '2024-02-15 07:50:00', '2024-02-15 07:20:00', '2024-02-15 06:50:00', '2024-02-15 05:50:00', '2024-02-15 05:20:00', '2024-02-15 04:50:00', '2024-02-15 04:20:00', '2024-02-15 03:50:00', '2024-02-15 03:20:00', '2024-02-15 02:50:00', '2024-02-15 02:20:00', '2024-02-15 01:50:00', '2024-02-15 01:20:00', '2024-02-15 00:50:00', '2024-02-15 00:20:00', '2024-02-14 23:50:00', '2024-02-14 23:20:00', '2024-02-14 22:50:00', '2024-02-14 22:20:00', '2024-02-14 21:50:00', '2024-02-14 21:20:00', '2024-02-14 20:50:00', '2024-02-14 20:20:00', '2024-02-14 19:50:00', '2024-02-14 19:20:00', '2024-02-14 18:50:00', '2024-02-14 18:20:00', '2024-02-14 17:50:00', '2024-02-14 17:20:00', '2024-02-14 16:50:00', '2024-02-14 16:20:00', '2024-02-14 15:50:00', '2024-02-14 15:20:00', '2024-02-14 14:50:00', '2024-02-14 14:20:00', '2024-02-14 13:50:00', '2024-02-14 13:20:00', '2024-02-14 12:50:00', '2024-02-14 12:20:00', '2024-02-14 11:50:00', '2024-02-14 11:20:00', '2024-02-14 10:50:00', '2024-02-14 10:20:00', '2024-02-14 09:50:00', '2024-02-14 09:20:00', '2024-02-14 08:57:00', '2024-02-14 08:20:00', '2024-02-14 07:50:00', '2024-02-14 07:20:00', '2024-02-14 06:50:00', '2024-02-14 05:50:00', '2024-02-14 04:50:00', '2024-02-14 04:20:00', '2024-02-14 03:50:00', '2024-02-14 03:20:00', '2024-02-14 02:50:00', '2024-02-14 02:20:00', '2024-02-14 01:50:00', '2024-02-14 01:20:00', '2024-02-14 00:50:00', '2024-02-14 00:20:00', '2024-02-13 23:50:00', '2024-02-13 23:20:00', '2024-02-13 22:50:00', '2024-02-13 21:50:00', '2024-02-13 21:20:00', '2024-02-13 20:50:00', '2024-02-13 20:20:00', '2024-02-13 19:50:00', '2024-02-13 19:20:00', '2024-02-13 18:50:00', '2024-02-13 18:20:00', '2024-02-13 17:50:00', '2024-02-13 17:20:00', '2024-02-13 16:50:00', '2024-02-13 16:20:00', '2024-02-13 15:50:00', '2024-02-13 15:20:00', '2024-02-13 14:50:00', '2024-02-13 14:20:00', '2024-02-13 13:50:00', '2024-02-13 13:20:00', '2024-02-13 12:50:00', '2024-02-13 12:20:00', '2024-02-13 11:50:00', '2024-02-13 11:20:00', '2024-02-13 10:50:00', '2024-02-13 10:20:00', '2024-02-13 09:50:00', '2024-02-13 09:20:00', '2024-02-13 08:50:00', '2024-02-13 08:20:00', '2024-02-13 07:50:00', '2024-02-13 07:20:00', '2024-02-13 06:50:00', '2024-02-13 05:50:00', '2024-02-13 04:50:00', '2024-02-13 04:20:00', '2024-02-13 03:50:00', '2024-02-13 03:20:00', '2024-02-13 02:50:00', '2024-02-13 02:20:00', '2024-02-13 01:50:00', '2024-02-13 01:20:00', '2024-02-13 00:50:00', '2024-02-13 00:20:00', '2024-02-12 23:50:00', '2024-02-12 23:20:00', '2024-02-12 22:50:00', '2024-02-12 22:20:00', '2024-02-12 21:50:00', '2024-02-12 21:20:00', '2024-02-12 20:50:00', '2024-02-12 20:20:00', '2024-02-12 19:50:00', '2024-02-12 19:20:00', '2024-02-12 18:50:00', '2024-02-12 18:20:00', '2024-02-12 17:50:00', '2024-02-12 17:20:00', '2024-02-12 16:20:00', '2024-02-12 15:50:00', '2024-02-12 15:20:00', '2024-02-12 14:50:00', '2024-02-12 14:20:00', '2024-02-12 13:50:00', '2024-02-12 13:20:00', '2024-02-12 12:20:00', '2024-02-12 11:50:00', '2024-02-12 11:20:00', '2024-02-12 10:50:00', '2024-02-12 10:20:00']"
United-kingdom, Belfast City George Best  Airport (BHD/EGAC) ,"['EGAC 150920Z AUTO 18004KT 6000 -RA SCT012 BKN022 BKN030 10/10 Q0999 RERA', 'EGAC 150850Z AUTO 16004KT 2300 RA SCT015 SCT023 BKN028 10/10 Q0999', 'EGAC 150820Z AUTO 19004KT 7000 -RA OVC034 10/10 Q0999', 'EGAC 150750Z AUTO 18003KT 6000 -RA FEW017 OVC035 10/10 Q0999', 'EGAC 150720Z AUTO 17004KT 7000 -RA FEW007/// BKN016/// BKN021/// //////CB 10/10 Q1000', 'EGAC 150650Z AUTO 19005KT 150V210 7000 -RA FEW004 OVC014 10/10 Q1000', 'EGAC 150620Z AUTO 16008KT 9999 -RADZ OVC014 10/10 Q1000', 'EGAC 150550Z AUTO 16008KT 9999 -RA OVC011/// //////TCU 10/10 Q1000', 'EGAC 150520Z AUTO 16008KT 9999 -RA BKN010 11/10 Q1000', 'EGAC 150450Z AUTO 17006KT 9999 -RA OVC010 12/11 Q1000', 'EGAC 150420Z AUTO 19008KT 9999 -RA NCD 12/11 Q1000', 'EGAC 150350Z AUTO 20011KT 9999 -RA FEW010 12/11 Q1001', 'EGAC 150320Z AUTO 19009KT 9999 SCT011 11/10 Q1001', 'EGAC 150250Z AUTO 21010KT 9999 FEW013 BKN019 12/10 Q1001', 'EGAC 150220Z AUTO 21008KT 9999 BKN010 OVC016 11/10 Q1001', 'EGAC 150150Z AUTO 20004KT 9999 OVC009 10/10 Q1001', 'EGAC 150120Z AUTO 18004KT 9999 OVC011 10/10 Q1002', 'EGAC 150050Z AUTO 18004KT 8000 -RA OVC013 10/10 Q1002', 'EGAC 150020Z AUTO 18005KT 5000 -RA SCT005 OVC014 10/10 Q1002 RERA', 'EGAC 142350Z AUTO 19005KT 9999 -RADZ SCT005 BKN023 OVC028 10/09 Q1002', 'EGAC 142320Z AUTO 17005KT 3600 RA SCT004 BKN017 BKN021 10/09 Q1002', 'EGAC 142250Z AUTO 15006KT 5000 -RA FEW005 BKN018 OVC022 10/10 Q1002', 'EGAC 142220Z AUTO 15007KT 6000 -RA BKN043 10/10 Q1003', 'EGAC 142150Z AUTO 16005KT 5000 -RA FEW024/// //////TCU 10/10 Q1003', 'EGAC 142120Z AUTO 17005KT 140V200 6000 -RA FEW046/// //////TCU 10/10 Q1003', 'EGAC 142050Z AUTO 15006KT 7000 -RA FEW046 11/10 Q1003', 'EGAC 142020Z AUTO 16006KT 7000 -RA FEW019 11/10 Q1004', 'EGAC 141950Z AUTO 16005KT 9999 -RADZ NCD 11/10 Q1004', 'EGAC 141920Z AUTO 18004KT 9999 NCD 11/10 Q1004', 'EGAC 141850Z AUTO 18004KT 9999 NCD 11/10 Q1004', 'EGAC 141820Z AUTO 19006KT 9999 FEW027 12/10 Q1004', 'EGAC 141750Z AUTO 20009KT 9999 SCT017 BKN023 OVC027 12/10 Q1004', 'EGAC 141720Z AUTO 20008KT 9999 FEW020 SCT025 12/10 Q1003', 'EGAC 141650Z AUTO 19005KT 9999 FEW017 SCT025 12/11 Q1003', 'EGAC 141620Z AUTO 22007KT 9999 FEW022 12/11 Q1003', 'EGAC 141550Z AUTO 22005KT 9999 FEW007 SCT014 BKN036 11/11 Q1003 REDZ RERA', 'EGAC 141520Z AUTO VRB01KT 2500 RADZ FEW006 SCT010 BKN014 10/09 Q1003', 'EGAC 141450Z AUTO VRB02KT 1300 R04/P1500U RADZ BKN003 OVC007 09/09 Q1003 REDZ', 'EGAC 141420Z AUTO 02003KT 350V050 1100 R22/1100D +DZRA BKN009 OVC014 10/10 Q1003 REDZ', 'EGAC 141350Z AUTO 03003KT 5000 R22/P1400U -RADZ FEW002 BKN008 OVC013 10/09 Q1003 REDZ RERA', 'EGAC 141320Z AUTO 04004KT 3900 RADZ BKN003 OVC007 09/09 Q1003 REDZ', 'EGAC 141250Z AUTO 04004KT 2300 R04/P1400U +DZRA BKN004 OVC007 09/09 Q1003 RERA', 'EGAC 141220Z AUTO 03004KT 7000 -RADZ SCT004 OVC011 10/09 Q1003', 'EGAC 141150Z AUTO VRB02KT 9999 OVC010 10/10 Q1003', 'EGAC 141120Z AUTO VRB02KT 9999 OVC008 10/09 Q1003', 'EGAC 141050Z AUTO VRB02KT 6000 BKN005 09/09 Q1003', 'EGAC 141020Z AUTO 21003KT 4800 BR BKN006 OVC010 09/08 Q1003', 'EGAC 140950Z AUTO 00000KT 5000 BR OVC005 08/08 Q1003', 'EGAC 140920Z AUTO VRB01KT 5000 BR FEW002 OVC006 08/08 Q1003', 'EGAC 140850Z AUTO 00000KT 1900 BR BKN003 OVC007 08/08 Q1003 REDZ', 'EGAC 140820Z AUTO 00000KT 1100 R22/1300U RADZ SCT001 OVC005 07/07 Q1003', 'EGAC 140750Z AUTO 00000KT 2400 -DZ OVC002 08/07 Q1003', 'EGAC 140720Z AUTO VRB02KT 2800 -DZ OVC003 08/07 Q1002 RERA', 'EGAC 140650Z AUTO 04003KT 3300 +DZRA OVC003/// //////TCU 08/07 Q1002 RERA', 'EGAC 140620Z AUTO 01003KT 330V040 3200 RA OVC003/// //////CB 08/07 Q1002 RERA', 'EGAC 140550Z AUTO 34003KT 310V020 5000 -RADZ OVC003/// //////TCU 08/07 Q1003 RERA', 'EGAC 140520Z AUTO VRB01KT 3200 +DZRA OVC002/// //////TCU 08/07 Q1003 RERA', 'EGAC 140450Z AUTO VRB02KT 2500 +DZRA OVC003/// //////TCU 08/07 Q1003 RERA', 'EGAC 140420Z AUTO 09003KT 020V140 3300 RADZ OVC002/// //////TCU 08/07 Q1003', 'EGAC 140350Z AUTO 11003KT 050V150 4500 RADZ BKN003 08/07 Q1003', 'EGAC 140320Z AUTO 14005KT 110V180 3200 RA SCT002 BKN006 OVC029 08/07 Q1003 RERA', 'EGAC 140250Z AUTO 13005KT 3300 RA BKN002 08/07 Q1003', 'EGAC 140220Z AUTO 14004KT 110V180 4100 -RA BKN003 OVC027 07/07 Q1004', 'EGAC 140150Z AUTO 15005KT 110V200 5000 -RADZ BKN003 BKN009 OVC030 07/07 Q1004', 'EGAC 140120Z AUTO 15003KT 090V210 5000 -RADZ FEW002 SCT010 OVC036 07/07 Q1004', 'EGAC 140050Z AUTO 17004KT 8000 FEW024 OVC031 07/07 Q1004 RERA', 'EGAC 140020Z AUTO 14004KT 110V170 6000 -RADZ FEW006 BKN028 OVC039 07/07 Q1004', 'EGAC 132350Z AUTO 00000KT 9000 -RADZ FEW003 BKN037 07/06 Q1004', 'EGAC 132320Z AUTO VRB02KT 8000 -RADZ BKN002 OVC008 07/06 Q1004', 'EGAC 132250Z AUTO 00000KT 4900 -RADZ BKN002 OVC006 07/06 Q1004 RERA REDZ', 'EGAC 132220Z AUTO 00000KT 6000 -RADZ FEW002 OVC006 07/06 Q1005', 'EGAC 132150Z AUTO 00000KT 7000 -RADZ SCT003 OVC009 07/06 Q1005', 'EGAC 132120Z AUTO VRB01KT 6000 -RADZ FEW003 BKN015 OVC020 07/06 Q1005 RERA', 'EGAC 132050Z AUTO VRB02KT 2900 RADZ SCT005 BKN008 OVC013 07/06 Q1005', 'EGAC 132020Z AUTO 16004KT 130V200 8000 -RA FEW009 BKN014 OVC022 07/06 Q1005', 'EGAC 131950Z AUTO 19004KT 9999 FEW025 OVC032 07/05 Q1005', 'EGAC 131920Z AUTO 18004KT 150V210 9999 OVC035 07/05 Q1005', 'EGAC 131850Z AUTO VRB02KT 9999 BKN039 07/05 Q1005', 'EGAC 131820Z AUTO 15003KT 110V190 9999 FEW044 07/05 Q1004', 'EGAC 131750Z AUTO 15004KT 9999 SCT045 07/05 Q1004', 'EGAC 131720Z AUTO 13003KT 080V190 9999 FEW049 08/05 Q1004', 'EGAC 131650Z AUTO 15002KT 9999 FEW025 08/05 Q1004', 'EGAC 131620Z AUTO 21004KT 9999 NCD 08/04 Q1004', 'EGAC 131550Z AUTO 22004KT 9999 NCD 09/04 Q1004', 'EGAC 131520Z AUTO 20003KT 160V230 9999 FEW023 09/04 Q1004', 'EGAC 131450Z AUTO VRB02KT 9999 FEW024 SCT041 09/04 Q1004', 'EGAC 131420Z AUTO 20003KT 140V250 9999 BKN043 09/04 Q1005', 'EGAC 131350Z AUTO 21004KT 170V250 9999 BKN045 08/04 Q1005', 'EGAC 131320Z AUTO 20005KT 160V230 9999 NCD 08/04 Q1005', 'EGAC 131250Z AUTO 20006KT 9999 NCD 07/04 Q1005', 'EGAC 131220Z AUTO 21006KT 9999 NCD 07/04 Q1006', 'EGAC 131150Z AUTO 21008KT 9999 NCD 07/04 Q1006', 'EGAC 131120Z AUTO 21008KT 9999 NCD 06/04 Q1006', 'EGAC 131050Z AUTO 21009KT 9999 NCD 06/04 Q1006', 'EGAC 131020Z AUTO 20009KT 9999 NCD 05/03 Q1005', 'EGAC 130950Z AUTO 20005KT 9999 NCD 04/03 Q1006', 'EGAC 130920Z AUTO 20005KT 9999 NCD 03/02 Q1006', 'EGAC 130850Z AUTO 20006KT 9999 NCD 02/01 Q1006', 'EGAC 130820Z AUTO 21006KT 9999 NCD 01/01 Q1006', 'EGAC 130750Z AUTO 20007KT 9999 NCD 01/01 Q1006', 'EGAC 130720Z AUTO 20005KT 9999 NCD 01/00 Q1006', 'EGAC 130650Z AUTO 21006KT 9999 NCD 01/01 Q1005', 'EGAC 130620Z AUTO 20005KT 9999 NCD 01/00 Q1005', 'EGAC 130550Z AUTO 21007KT 9999 NCD 02/01 Q1005', 'EGAC 130520Z AUTO 21008KT 9999 FEW049 02/01 Q1005', 'EGAC 130450Z AUTO 21007KT 9999 NCD 02/01 Q1005', 'EGAC 130420Z AUTO 21007KT 9999 NCD 02/01 Q1005', 'EGAC 130350Z AUTO 21004KT 9999 NCD 02/01 Q1005', 'EGAC 130320Z AUTO 21007KT 9999 NCD 03/01 Q1005', 'EGAC 130250Z AUTO 21010KT 9999 NCD 03/01 Q1005', 'EGAC 130220Z AUTO 21009KT 9999 NCD 03/01 Q1005', 'EGAC 130150Z AUTO 21013KT 9999 NCD 03/01 Q1004', 'EGAC 130120Z AUTO 21014KT 9999 NCD 04/01 Q1004', 'EGAC 130050Z AUTO 21013KT 9999 NCD 03/01 Q1004', 'EGAC 130020Z AUTO 21013KT 9999 NCD 04/01 Q1004', 'EGAC 122350Z AUTO 21011KT 9999 NCD 04/01 Q1004', 'EGAC 122320Z AUTO 21013KT 9999 NCD 04/01 Q1003', 'EGAC 122250Z AUTO 21010KT 9999 NCD 04/02 Q1003', 'EGAC 122220Z AUTO 21010KT 9999 NCD 04/02 Q1003', 'EGAC 122150Z AUTO 22010KT 9999 NCD 05/02 Q1002', 'EGAC 122120Z AUTO 22010KT 9999 NCD 05/02 Q1002', 'EGAC 122050Z AUTO 23012KT 9999 NCD 05/02 Q1002', 'EGAC 122020Z AUTO 23011KT 210V270 9999 NCD 05/02 Q1001', 'EGAC 121950Z AUTO 25011KT 9999 NCD 06/02 Q1001', 'EGAC 121920Z AUTO 23010KT 9999 NCD 06/02 Q1001', 'EGAC 121850Z AUTO 23013KT 9999 NCD 06/02 Q1000', 'EGAC 121820Z AUTO 23012KT 9999 NCD 07/03 Q1000', 'EGAC 121750Z AUTO 23011KT 9999 FEW027 SCT043 07/03 Q1000', 'EGAC 121720Z AUTO 24013G25KT 9999 FEW024/// BKN034/// BKN042/// //////TCU 07/04 Q0999', 'EGAC 121650Z AUTO 23010KT 9999 BKN036 07/04 Q0999', 'EGAC 121620Z AUTO 23018G28KT 2300 SHRA FEW009/// SCT031/// //////TCU 06/04 Q0999', 'EGAC 121550Z AUTO 22019G31KT 9999 -RA BKN033/// //////TCU 08/03 Q0998', 'EGAC 121520Z AUTO 22019KT 9999 BKN032 BKN041 09/03 Q0998', 'EGAC 121450Z AUTO 22017KT 9999 SCT030 BKN036 BKN044 08/03 Q0999', 'EGAC 121420Z AUTO 23016KT 9999 BKN039 08/02 Q0999', 'EGAC 121350Z AUTO 22019KT 9999 FEW027 BKN032 08/02 Q0999', 'EGAC 121320Z AUTO 22016KT 9999 BKN025 OVC030 08/03 Q0999', 'EGAC 121250Z AUTO 22015KT 9999 BKN025 BKN030 07/03 Q0999', 'EGAC 121220Z AUTO 21015KT 9999 BKN027 07/03 Q0999', 'EGAC 121150Z AUTO 22013KT 9999 FEW022 07/02 Q0999', 'EGAC 121120Z AUTO 22012KT 180V240 9999 NCD 06/02 Q0999', 'EGAC 121050Z AUTO 21012KT 9999 NCD 06/02 Q0999', 'EGAC 121020Z AUTO 22012KT 9999 NCD 05/01 Q0999']","['2024-02-15 09:20:00', '2024-02-15 08:50:00', '2024-02-15 08:20:00', '2024-02-15 07:50:00', '2024-02-15 07:20:00', '2024-02-15 06:50:00', '2024-02-15 06:20:00', '2024-02-15 05:50:00', '2024-02-15 05:20:00', '2024-02-15 04:50:00', '2024-02-15 04:20:00', '2024-02-15 03:50:00', '2024-02-15 03:20:00', '2024-02-15 02:50:00', '2024-02-15 02:20:00', '2024-02-15 01:50:00', '2024-02-15 01:20:00', '2024-02-15 00:50:00', '2024-02-15 00:20:00', '2024-02-14 23:50:00', '2024-02-14 23:20:00', '2024-02-14 22:50:00', '2024-02-14 22:20:00', '2024-02-14 21:50:00', '2024-02-14 21:20:00', '2024-02-14 20:50:00', '2024-02-14 20:20:00', '2024-02-14 19:50:00', '2024-02-14 19:20:00', '2024-02-14 18:50:00', '2024-02-14 18:20:00', '2024-02-14 17:50:00', '2024-02-14 17:20:00', '2024-02-14 16:50:00', '2024-02-14 16:20:00', '2024-02-14 15:50:00', '2024-02-14 15:20:00', '2024-02-14 14:50:00', '2024-02-14 14:20:00', '2024-02-14 13:50:00', '2024-02-14 13:20:00', '2024-02-14 12:50:00', '2024-02-14 12:20:00', '2024-02-14 11:50:00', '2024-02-14 11:20:00', '2024-02-14 10:50:00', '2024-02-14 10:20:00', '2024-02-14 09:50:00', '2024-02-14 09:20:00', '2024-02-14 08:50:00', '2024-02-14 08:20:00', '2024-02-14 07:50:00', '2024-02-14 07:20:00', '2024-02-14 06:50:00', '2024-02-14 06:20:00', '2024-02-14 05:50:00', '2024-02-14 05:20:00', '2024-02-14 04:50:00', '2024-02-14 04:20:00', '2024-02-14 03:50:00', '2024-02-14 03:20:00', '2024-02-14 02:50:00', '2024-02-14 02:20:00', '2024-02-14 01:50:00', '2024-02-14 01:20:00', '2024-02-14 00:50:00', '2024-02-14 00:20:00', '2024-02-13 23:50:00', '2024-02-13 23:20:00', '2024-02-13 22:50:00', '2024-02-13 22:20:00', '2024-02-13 21:50:00', '2024-02-13 21:20:00', '2024-02-13 20:50:00', '2024-02-13 20:20:00', '2024-02-13 19:50:00', '2024-02-13 19:20:00', '2024-02-13 18:50:00', '2024-02-13 18:20:00', '2024-02-13 17:50:00', '2024-02-13 17:20:00', '2024-02-13 16:50:00', '2024-02-13 16:20:00', '2024-02-13 15:50:00', '2024-02-13 15:20:00', '2024-02-13 14:50:00', '2024-02-13 14:20:00', '2024-02-13 13:50:00', '2024-02-13 13:20:00', '2024-02-13 12:50:00', '2024-02-13 12:20:00', '2024-02-13 11:50:00', '2024-02-13 11:20:00', '2024-02-13 10:50:00', '2024-02-13 10:20:00', '2024-02-13 09:50:00', '2024-02-13 09:20:00', '2024-02-13 08:50:00', '2024-02-13 08:20:00', '2024-02-13 07:50:00', '2024-02-13 07:20:00', '2024-02-13 06:50:00', '2024-02-13 06:20:00', '2024-02-13 05:50:00', '2024-02-13 05:20:00', '2024-02-13 04:50:00', '2024-02-13 04:20:00', '2024-02-13 03:50:00', '2024-02-13 03:20:00', '2024-02-13 02:50:00', '2024-02-13 02:20:00', '2024-02-13 01:50:00', '2024-02-13 01:20:00', '2024-02-13 00:50:00', '2024-02-13 00:20:00', '2024-02-12 23:50:00', '2024-02-12 23:20:00', '2024-02-12 22:50:00', '2024-02-12 22:20:00', '2024-02-12 21:50:00', '2024-02-12 21:20:00', '2024-02-12 20:50:00', '2024-02-12 20:20:00', '2024-02-12 19:50:00', '2024-02-12 19:20:00', '2024-02-12 18:50:00', '2024-02-12 18:20:00', '2024-02-12 17:50:00', '2024-02-12 17:20:00', '2024-02-12 16:50:00', '2024-02-12 16:20:00', '2024-02-12 15:50:00', '2024-02-12 15:20:00', '2024-02-12 14:50:00', '2024-02-12 14:20:00', '2024-02-12 13:50:00', '2024-02-12 13:20:00', '2024-02-12 12:50:00', '2024-02-12 12:20:00', '2024-02-12 11:50:00', '2024-02-12 11:20:00', '2024-02-12 10:50:00', '2024-02-12 10:20:00']"
United-kingdom, Belfast International Airport (BFS/EGAA) ,"['EGAA 150920Z AUTO 20004KT 5000 RA BKN037 11/10 Q0999', 'EGAA 150850Z AUTO 18003KT 150V220 7000 -RA SCT006 SCT042 11/10 Q0999', 'EGAA 150820Z AUTO 17004KT 140V200 7000 -RA BKN039/// //////TCU 11/10 Q0999', 'EGAA 150750Z AUTO 16004KT 140V200 7000 -RA BKN010/// BKN042/// //////CB 11/10 Q0999 RERA', 'EGAA 150720Z AUTO 17005KT 140V200 6000 -RA BKN011/// BKN042/// //////CB 11/11 Q0999 RERA', 'EGAA 150650Z AUTO 18007KT 6000 RA OVC011/// //////TCU 11/11 Q0999', 'EGAA 150620Z AUTO 17006KT 9999 -RA BKN012 BKN047 11/11 Q0999', 'EGAA 150550Z AUTO 18007KT 140V200 6000 -RA FEW012/// BKN041/// //////TCU 11/11 Q0999', 'EGAA 150520Z AUTO 18008KT 9000 -RA SCT011 11/11 Q1000', 'EGAA 150450Z AUTO 19008KT 9999 -RA FEW007 BKN049 11/11 Q1000', 'EGAA 150420Z AUTO 19009KT 9999 -RA FEW007 11/11 Q1000', 'EGAA 150350Z AUTO 19010KT 160V220 9999 -RA SCT011 BKN017 BKN043 11/10 Q1000', 'EGAA 150320Z AUTO 20012KT 9999 SCT018 11/10 Q1000', 'EGAA 150250Z AUTO 19011KT 9999 SCT020 11/10 Q1000', 'EGAA 150220Z AUTO 20010KT 9999 FEW006 BKN017 11/10 Q1001', 'EGAA 150150Z AUTO 20010KT 9999 OVC005 11/10 Q1001', 'EGAA 150120Z AUTO 20009KT 160V220 9999 OVC006 11/10 Q1001', 'EGAA 150050Z AUTO 18008KT 9999 OVC007 11/10 Q1001', 'EGAA 150020Z AUTO 17006KT 9999 -RA OVC009 10/10 Q1001', 'EGAA 142350Z AUTO 16007KT 5000 -RA BR FEW010 SCT017 BKN022 10/10 Q1001 RERA REDZ', 'EGAA 142320Z AUTO 16008KT 4100 -RA BR FEW009 SCT024 11/10 Q1002 RERA REDZ', 'EGAA 142250Z AUTO 15007KT 4300 -RADZ BR FEW014 SCT022 BKN032 11/10 Q1002 REDZ RERA', 'EGAA 142220Z AUTO 15007KT 7000 -RA SCT020 BKN040 11/10 Q1002 RERA', 'EGAA 142150Z AUTO 16007KT 6000 -RA SCT038/// //////TCU 11/10 Q1003 RERA', 'EGAA 142120Z AUTO 16007KT 7000 -RA SCT019/// //////TCU 11/10 Q1003', 'EGAA 142050Z AUTO 16007KT 7000 -RA FEW048/// //////TCU 11/10 Q1003', 'EGAA 142020Z AUTO 17008KT 140V200 6000 -RA FEW041/// //////TCU 11/10 Q1003', 'EGAA 141950Z AUTO 18008KT 9999 -RA FEW042 11/10 Q1003', 'EGAA 141920Z AUTO 19008KT 160V220 9999 NCD 11/10 Q1003', 'EGAA 141850Z AUTO 20007KT 9999 NCD 11/10 Q1004', 'EGAA 141820Z AUTO 21006KT 9999 FEW013 SCT026 11/10 Q1004', 'EGAA 141750Z AUTO 21006KT 180V240 9999 SCT013 OVC019 12/10 Q1004', 'EGAA 141720Z AUTO 21006KT 170V230 9999 SCT013 BKN018 OVC025 12/10 Q1003', 'EGAA 141650Z AUTO 22003KT 9999 BKN015 BKN046 11/10 Q1003', 'EGAA 141620Z AUTO 22009KT 9999 BKN017 OVC043 11/10 Q1003', 'EGAA 141550Z AUTO 23012KT 9999 BKN014 12/10 Q1003', 'EGAA 141520Z 22010KT 9999 FEW007 SCT023 12/11 Q1003', 'EGAA 141450Z 21009KT 180V240 2500 -DZ BR SCT003 OVC012 12/12 Q1003', 'EGAA 141420Z 20008KT 170V230 2500 -DZ BR BKN007 OVC012 12/11 Q1003', 'EGAA 141350Z AUTO 19007KT 160V220 9999 SCT007 SCT029 12/11 Q1003', 'EGAA 141320Z AUTO 19007KT 160V220 9999 OVC006 12/11 Q1003', 'EGAA 141250Z AUTO 18006KT 9000 -RA FEW006 SCT041 11/11 Q1003 REDZ', 'EGAA 141220Z AUTO 18006KT 140V200 9999 FEW005 11/11 Q1003', 'EGAA 141150Z AUTO 18005KT 9999 -RADZ FEW005 SCT012 11/10 Q1003', 'EGAA 141120Z AUTO 18005KT 150V210 9999 FEW006 BKN012 11/10 Q1003', 'EGAA 141050Z AUTO 17005KT 140V200 9999 SCT005 BKN008 BKN016 10/10 Q1003', 'EGAA 141020Z AUTO 18005KT 9999 BKN006 OVC010 10/10 Q1003', 'EGAA 140950Z AUTO 17004KT 9999 OVC006 10/09 Q1003', 'EGAA 140920Z 17005KT 140V200 7000 BKN005 OVC009 09/09 Q1003', 'EGAA 140850Z 14003KT 100V200 4900 BR OVC004 08/08 Q1003', 'EGAA 140820Z 09004KT 060V120 5000 BR OVC004 08/08 Q1002', 'EGAA 140750Z 08003KT 9999 OVC005 08/07 Q1002', 'EGAA 140720Z 08004KT 9999 OVC006 07/07 Q1002', 'EGAA 140650Z 08005KT 9999 BKN006 OVC009 08/07 Q1002 RERA', 'EGAA 140620Z 08006KT 5000 RA OVC008 07/07 Q1002', 'EGAA 140550Z AUTO 08005KT 9999 -RA BKN009 OVC012 08/07 Q1002 REDZ', 'EGAA 140520Z AUTO 11006KT 9999 -RA OVC012/// //////TCU 08/07 Q1002 RERA REDZ', 'EGAA 140450Z AUTO 11007KT 6000 -DZRA BKN014/// BKN049/// //////TCU 08/07 Q1002 REDZ RERA', 'EGAA 140420Z AUTO 12008KT 7000 -RA OVC015/// //////TCU 08/07 Q1002 RERA REDZ', 'EGAA 140350Z AUTO 09006KT 9000 -RA OVC017/// //////TCU 07/07 Q1002 RERA REDZ', 'EGAA 140320Z AUTO 10005KT 3200 RADZ SCT009 BKN025 07/07 Q1003 REDZ', 'EGAA 140250Z AUTO 10005KT 4100 +DZ FEW006 OVC022 07/07 Q1003 RERA', 'EGAA 140220Z AUTO 12006KT 7000 -RA FEW024 OVC028 07/06 Q1003', 'EGAA 140150Z AUTO 12005KT 9999 -RA OVC030 07/06 Q1003', 'EGAA 140120Z AUTO 12006KT 9999 FEW005 OVC035 07/06 Q1003', 'EGAA 140050Z AUTO 13005KT 9999 FEW005 BKN029 07/06 Q1004', 'EGAA 140020Z AUTO 13006KT 6000 -DZ BKN004 BKN027 OVC036 07/06 Q1004 REDZ', 'EGAA 132350Z AUTO 12005KT 9999 BKN004 07/06 Q1004', 'EGAA 132320Z AUTO 11005KT 9999 -RA OVC003 06/06 Q1004', 'EGAA 132250Z AUTO 09004KT 9000 -DZ FEW006 SCT016 BKN029 06/05 Q1004', 'EGAA 132220Z AUTO 09003KT 9999 BKN016 06/05 Q1004', 'EGAA 132150Z AUTO 11003KT 9999 BKN015 06/05 Q1004', 'EGAA 132120Z AUTO 13004KT 9999 BKN018 BKN026 BKN040 06/05 Q1004', 'EGAA 132050Z AUTO 14003KT 9999 FEW020 BKN025 BKN035 06/05 Q1004', 'EGAA 132020Z AUTO 11003KT 9999 OVC025 05/04 Q1004', 'EGAA 131950Z AUTO 09004KT 9999 BKN030 04/03 Q1004', 'EGAA 131920Z AUTO 13002KT 9999 BKN037 04/03 Q1004', 'EGAA 131850Z AUTO 10004KT 9999 SCT041 03/03 Q1004', 'EGAA 131820Z AUTO 11002KT 9999 SCT043 05/03 Q1004', 'EGAA 131750Z AUTO 11003KT 9999 BKN045 04/03 Q1004', 'EGAA 131720Z AUTO 09004KT 9999 FEW047 05/04 Q1004', 'EGAA 131650Z AUTO 07003KT 9999 NCD 05/04 Q1004', 'EGAA 131620Z AUTO VRB01KT 9999 NCD 06/04 Q1004', 'EGAA 131550Z AUTO 35003KT 320V030 9999 FEW038 06/04 Q1004', 'EGAA 131520Z AUTO 35003KT 300V010 9999 FEW039 06/05 Q1004', 'EGAA 131450Z VRB02KT 9999 FEW040 07/04 Q1004', 'EGAA 131350Z AUTO 23003KT 180V280 9999 NCD 07/04 Q1005', 'EGAA 131320Z AUTO VRB02KT 9999 FEW010 07/04 Q1005', 'EGAA 131250Z 24003KT 200V330 9999 FEW010 06/04 Q1005', 'EGAA 131220Z AUTO 27003KT 220V320 9999 SCT010 06/04 Q1005', 'EGAA 131150Z AUTO 22004KT 170V260 9999 BKN008 BKN044 06/04 Q1006', 'EGAA 131120Z AUTO 23005KT 9999 SCT007 BKN045 05/04 Q1006', 'EGAA 131050Z AUTO 23003KT 190V280 9999 OVC005 05/04 Q1005', 'EGAA 131020Z AUTO 20004KT 170V230 9999 BKN005 OVC049 04/03 Q1005', 'EGAA 130950Z 21005KT 9999 SCT004 BKN048 03/03 Q1005', 'EGAA 130920Z 23004KT 9999 9000N OVC004 03/02 Q1005', 'EGAA 130850Z 20005KT 9999 7000NW OVC003 02/02 Q1005', 'EGAA 130820Z AUTO 19005KT 9999 OVC003 02/01 Q1005', 'EGAA 130750Z AUTO 18005KT 9999 BKN005 OVC008 02/01 Q1005', 'EGAA 130720Z AUTO 19004KT 150V210 9999 OVC005 02/01 Q1005', 'EGAA 130650Z AUTO 21007KT 9999 BKN006 02/01 Q1005', 'EGAA 130620Z AUTO 20006KT 9999 FEW007 02/01 Q1005', 'EGAA 130550Z AUTO 20006KT 9999 FEW033 01/00 Q1005', 'EGAA 130520Z AUTO 20006KT 9999 FEW036 02/00 Q1005', 'EGAA 130450Z AUTO 20007KT 9999 FEW034 02/00 Q1005', 'EGAA 130420Z AUTO 22008KT 9999 NCD 02/01 Q1004', 'EGAA 130350Z AUTO 23009KT 9999 NCD 02/01 Q1004', 'EGAA 130320Z AUTO 22008KT 9999 NCD 03/01 Q1004', 'EGAA 130250Z AUTO 23010KT 9999 FEW033 03/01 Q1004', 'EGAA 130220Z AUTO 22011KT 9999 NCD 03/01 Q1004', 'EGAA 130150Z AUTO 22006KT 9999 FEW039 03/01 Q1004', 'EGAA 130120Z AUTO 23009KT 9999 FEW035 03/01 Q1004', 'EGAA 130050Z AUTO 23009KT 9999 SCT037 03/01 Q1004', 'EGAA 130020Z AUTO 22007KT 9999 FEW031 03/01 Q1004', 'EGAA 122350Z AUTO 23007KT 9999 BKN034 03/01 Q1004', 'EGAA 122320Z AUTO 19009KT 160V220 9999 FEW042 03/01 Q1003', 'EGAA 122250Z AUTO 21008KT 9999 NCD 03/01 Q1003', 'EGAA 122220Z AUTO 22008KT 9999 FEW049 03/02 Q1003', 'EGAA 122150Z AUTO 23009KT 9999 FEW045 04/02 Q1002', 'EGAA 122120Z AUTO 23011KT 9999 BKN035 04/02 Q1002', 'EGAA 122050Z AUTO 24011KT 9999 NCD 04/02 Q1002', 'EGAA 122020Z AUTO 22008KT 9999 FEW040 04/02 Q1001', 'EGAA 121950Z 24012KT 9999 FEW031 04/01 Q1001', 'EGAA 121920Z AUTO 24013KT 9999 FEW026 04/02 Q1001', 'EGAA 121850Z AUTO 23013KT 9999 FEW034/// //////CB 05/02 Q1000', 'EGAA 121820Z AUTO 23013KT 9999 FEW030 05/03 Q1000', 'EGAA 121750Z AUTO 23011KT 9999 FEW032 05/03 Q0999', 'EGAA 121720Z 26011KT 230V300 9999 FEW015TCU SCT044 05/03 Q0999 REUP', 'EGAA 121650Z AUTO 25019KT 9999 FEW024/// SCT034/// BKN047/// //////CB 06/03 Q0999', 'EGAA 121620Z AUTO 23014KT 9999 FEW020/// BKN048/// //////CB 06/04 Q0999', 'EGAA 121550Z AUTO 23011KT 9999 FEW011/// //////TCU 05/04 Q0998 RERA', 'EGAA 121520Z 27010KT 5000 RA BKN025 BKN033 06/04 Q0998', 'EGAA 121450Z 23014KT 9999 -RA BKN025 BKN033 07/03 Q0998 REUP', 'EGAA 121420Z AUTO 22013KT 9999 -RA FEW028 BKN032 OVC039 07/03 Q0998', 'EGAA 121350Z AUTO 23014G25KT 9999 BKN026 BKN035 07/03 Q0998', 'EGAA 121320Z AUTO 23015KT 9999 FEW023 07/03 Q0999', 'EGAA 121250Z AUTO 23016KT 9999 FEW033 07/03 Q0999', 'EGAA 121220Z AUTO 23016KT 9999 FEW036 06/03 Q0999', 'EGAA 121150Z AUTO 23013KT 9999 SCT041 06/03 Q0999', 'EGAA 121120Z AUTO 23012KT 9999 NCD 05/02 Q0999', 'EGAA 121050Z AUTO 23014KT 9999 NCD 04/02 Q0999', 'EGAA 121020Z AUTO 23015KT 9999 NCD 04/02 Q0998']","['2024-02-15 09:20:00', '2024-02-15 08:50:00', '2024-02-15 08:20:00', '2024-02-15 07:50:00', '2024-02-15 07:20:00', '2024-02-15 06:50:00', '2024-02-15 06:20:00', '2024-02-15 05:50:00', '2024-02-15 05:20:00', '2024-02-15 04:50:00', '2024-02-15 04:20:00', '2024-02-15 03:50:00', '2024-02-15 03:20:00', '2024-02-15 02:50:00', '2024-02-15 02:20:00', '2024-02-15 01:50:00', '2024-02-15 01:20:00', '2024-02-15 00:50:00', '2024-02-15 00:20:00', '2024-02-14 23:50:00', '2024-02-14 23:20:00', '2024-02-14 22:50:00', '2024-02-14 22:20:00', '2024-02-14 21:50:00', '2024-02-14 21:20:00', '2024-02-14 20:50:00', '2024-02-14 20:20:00', '2024-02-14 19:50:00', '2024-02-14 19:20:00', '2024-02-14 18:50:00', '2024-02-14 18:20:00', '2024-02-14 17:50:00', '2024-02-14 17:20:00', '2024-02-14 16:50:00', '2024-02-14 16:20:00', '2024-02-14 15:50:00', '2024-02-14 15:20:00', '2024-02-14 14:50:00', '2024-02-14 14:20:00', '2024-02-14 13:50:00', '2024-02-14 13:20:00', '2024-02-14 12:50:00', '2024-02-14 12:20:00', '2024-02-14 11:50:00', '2024-02-14 11:20:00', '2024-02-14 10:50:00', '2024-02-14 10:20:00', '2024-02-14 09:50:00', '2024-02-14 09:20:00', '2024-02-14 08:50:00', '2024-02-14 08:20:00', '2024-02-14 07:50:00', '2024-02-14 07:20:00', '2024-02-14 06:50:00', '2024-02-14 06:20:00', '2024-02-14 05:50:00', '2024-02-14 05:20:00', '2024-02-14 04:50:00', '2024-02-14 04:20:00', '2024-02-14 03:50:00', '2024-02-14 03:20:00', '2024-02-14 02:50:00', '2024-02-14 02:20:00', '2024-02-14 01:50:00', '2024-02-14 01:20:00', '2024-02-14 00:50:00', '2024-02-14 00:20:00', '2024-02-13 23:50:00', '2024-02-13 23:20:00', '2024-02-13 22:50:00', '2024-02-13 22:20:00', '2024-02-13 21:50:00', '2024-02-13 21:20:00', '2024-02-13 20:50:00', '2024-02-13 20:20:00', '2024-02-13 19:50:00', '2024-02-13 19:20:00', '2024-02-13 18:50:00', '2024-02-13 18:20:00', '2024-02-13 17:50:00', '2024-02-13 17:20:00', '2024-02-13 16:50:00', '2024-02-13 16:20:00', '2024-02-13 15:50:00', '2024-02-13 15:20:00', '2024-02-13 14:50:00', '2024-02-13 13:50:00', '2024-02-13 13:20:00', '2024-02-13 12:50:00', '2024-02-13 12:20:00', '2024-02-13 11:50:00', '2024-02-13 11:20:00', '2024-02-13 10:50:00', '2024-02-13 10:20:00', '2024-02-13 09:50:00', '2024-02-13 09:20:00', '2024-02-13 08:50:00', '2024-02-13 08:20:00', '2024-02-13 07:50:00', '2024-02-13 07:20:00', '2024-02-13 06:50:00', '2024-02-13 06:20:00', '2024-02-13 05:50:00', '2024-02-13 05:20:00', '2024-02-13 04:50:00', '2024-02-13 04:20:00', '2024-02-13 03:50:00', '2024-02-13 03:20:00', '2024-02-13 02:50:00', '2024-02-13 02:20:00', '2024-02-13 01:50:00', '2024-02-13 01:20:00', '2024-02-13 00:50:00', '2024-02-13 00:20:00', '2024-02-12 23:50:00', '2024-02-12 23:20:00', '2024-02-12 22:50:00', '2024-02-12 22:20:00', '2024-02-12 21:50:00', '2024-02-12 21:20:00', '2024-02-12 20:50:00', '2024-02-12 20:20:00', '2024-02-12 19:50:00', '2024-02-12 19:20:00', '2024-02-12 18:50:00', '2024-02-12 18:20:00', '2024-02-12 17:50:00', '2024-02-12 17:20:00', '2024-02-12 16:50:00', '2024-02-12 16:20:00', '2024-02-12 15:50:00', '2024-02-12 15:20:00', '2024-02-12 14:50:00', '2024-02-12 14:20:00', '2024-02-12 13:50:00', '2024-02-12 13:20:00', '2024-02-12 12:50:00', '2024-02-12 12:20:00', '2024-02-12 11:50:00', '2024-02-12 11:20:00', '2024-02-12 10:50:00', '2024-02-12 10:20:00']"
United-kingdom, Benbecula Airport (BEB/EGPL) ,"['EGPL 150920Z 12007KT 5000 -RA FEW002 SCT003 OVC004 08/08 Q0997', 'EGPL 150850Z 11008KT 8000 -DZ SCT002 OVC005 08/08 Q0997', 'EGPL 150820Z 12007KT 8000 -DZ BKN002 OVC004 08/08 Q0997', 'EGPL 150750Z 12008KT 8000 -DZ BKN002 OVC004 08/08 Q0997', 'EGPL 150720Z 11006KT 9999 -DZ BKN002 OVC006 08/07 Q0998 REDZ', 'EGPL 150650Z AUTO 12006KT 2300 DZ SCT000/// OVC008/// 08/07 Q0998', 'EGPL 150620Z AUTO 13008KT 3300 DZ FEW001/// BKN006/// OVC012/// 08/07 Q0998 RERA', 'EGPL 150550Z AUTO 13007KT 2700 -DZ FEW001/// BKN005/// OVC013/// 08/07 Q0998', 'EGPL 150520Z AUTO 14007KT 6000 -RA BKN001/// BKN005/// OVC012/// 08/07 Q0998 RERA', 'EGPL 150450Z AUTO 15008KT 1500 RA BKN001/// OVC013/// 08/07 Q0999 RERA', 'EGPL 150420Z AUTO 14010KT 2500 RA BKN003/// OVC010/// 08/07 Q0999 REDZ', 'EGPL 150350Z AUTO 14009KT 2300 RA OVC003/// 08/07 Q0999 REDZ', 'EGPL 150320Z AUTO 14009KT 3900 RA OVC001/// 08/07 Q0999 REDZ', 'EGPL 150250Z AUTO 14010KT 3900 -RA OVC001/// 07/07 Q1000 RERA', 'EGPL 150220Z AUTO 14012KT 2900 RA OVC001/// 07/07 Q1000 REDZ', 'EGPL 150150Z AUTO 13011KT 4700 -DZ OVC001/// 07/07 Q1000', 'EGPL 150120Z AUTO 12010KT 8000 -RA BKN001/// OVC006/// 07/06 Q1000 RERA', 'EGPL 150050Z AUTO 11009KT 9999 BKN001/// OVC008/// 07/06 Q1001 RERA', 'EGPL 150020Z AUTO 10012KT 3100 RA SCT002/// BKN008/// OVC017/// 06/06 Q1001 RERA', 'EGPL 142350Z AUTO 10007KT 9999 BKN001/// OVC005/// 06/06 Q1001', 'EGPL 142320Z AUTO 10010KT 9999 -RA BKN004/// OVC008/// 06/05 Q1002', 'EGPL 142250Z AUTO 11009KT 9000 -RA BKN007/// OVC010/// 06/05 Q1002', 'EGPL 142220Z AUTO 10010KT 9999 BKN005/// OVC015/// 06/05 Q1002', 'EGPL 142150Z AUTO 11010KT 9999 FEW002/// OVC009/// 06/04 Q1003', 'EGPL 142120Z AUTO 10009KT 9999 BKN007/// OVC015/// 06/04 Q1003', 'EGPL 142050Z AUTO 11011KT 9999 BKN009/// OVC013/// 06/04 Q1003', 'EGPL 142020Z AUTO 11009KT 9999 OVC011/// 06/04 Q1003', 'EGPL 141950Z AUTO 11009KT 9999 OVC013/// 06/04 Q1004', 'EGPL 141920Z AUTO 10006KT 9999 OVC014/// 06/03 Q1004', 'EGPL 141850Z AUTO 11006KT 9999 BKN015/// 06/03 Q1004', 'EGPL 141820Z AUTO 10006KT 9999 OVC014/// 06/03 Q1004', 'EGPL 141750Z AUTO 11005KT 9999 OVC013/// 06/03 Q1004', 'EGPL 141720Z AUTO 11004KT 9999 OVC014/// 06/03 Q1004', 'EGPL 141650Z AUTO 11004KT 9999 FEW008/// BKN015/// 06/04 Q1004', 'EGPL 141620Z AUTO 09005KT 350V110 9999 -RA BKN011/// BKN015/// 07/04 Q1004', 'EGPL 141550Z AUTO 10006KT 9999 SCT014/// 07/04 Q1004', 'EGPL 141520Z 09004KT 9999 FEW018 07/04 Q1004', 'EGPL 141450Z 09005KT 9999 FEW018 07/04 Q1004', 'EGPL 141350Z 11003KT 9999 FEW030 08/04 Q1005', 'EGPL 141320Z 12003KT 9999 FEW030 08/04 Q1005', 'EGPL 141250Z 13003KT 9999 FEW030 08/04 Q1005', 'EGPL 141220Z 13003KT 9999 FEW030 08/04 Q1005', 'EGPL 141150Z 15003KT 9999 FEW030 08/05 Q1005', 'EGPL 141120Z 15002KT 9999 FEW015 SCT030 07/05 Q1005', 'EGPL 141050Z 15001KT 9999 FEW015 SCT035 07/05 Q1005', 'EGPL 141020Z 12005KT 9999 FEW015 SCT035 06/05 Q1005', 'EGPL 140950Z 14004KT 9999 FEW015 SCT035 06/04 Q1005', 'EGPL 140920Z 14004KT 9999 FEW015 05/03 Q1005', 'EGPL 140820Z 16004KT 9999 FEW015 BKN045 04/01 Q1004', 'EGPL 140750Z 16005KT 9999 FEW015 BKN045 03/01 Q1004', 'EGPL 140720Z AUTO 16004KT 9999 BKN045/// 03/01 Q1004', 'EGPL 140650Z AUTO 17007KT 9999 SCT037/// 03/01 Q1004', 'EGPL 140620Z AUTO 18007KT 9999 NCD 04/01 Q1004', 'EGPL 140550Z AUTO 18006KT 9999 FEW045/// 03/01 Q1004', 'EGPL 140520Z AUTO 19005KT 9999 NCD 03/01 Q1004', 'EGPL 140450Z AUTO 18008KT 9999 NCD 03/01 Q1003', 'EGPL 140420Z AUTO 18008KT 9999 NCD 03/01 Q1004', 'EGPL 140350Z AUTO 18006KT 9999 NCD 03/01 Q1004', 'EGPL 140320Z AUTO 18009KT 9999 SCT010/// 03/01 Q1004', 'EGPL 140250Z AUTO 18008KT 9999 NCD 02/00 Q1004', 'EGPL 140220Z AUTO 18006KT 9999 NCD 03/01 Q1003', 'EGPL 140150Z AUTO 18006KT 9999 NCD 03/01 Q1003', 'EGPL 140120Z AUTO 22005KT 9999 SCT011/// 04/02 Q1003', 'EGPL 140050Z AUTO 19007KT 9999 BKN010/// 03/01 Q1003', 'EGPL 140020Z AUTO 18006KT 9999 NCD 02/01 Q1003', 'EGPL 132350Z AUTO 19004KT 9999 NCD 06/03 Q1003', 'EGPL 132320Z AUTO 24007KT 9999 NCD 06/03 Q1003', 'EGPL 132250Z AUTO 24009KT 9999 NCD 06/03 Q1003', 'EGPL 132220Z AUTO 24008KT 9999 NCD 06/03 Q1003', 'EGPL 132150Z AUTO 25010KT 9999 FEW009/// 06/02 Q1003', 'EGPL 132120Z AUTO 24009KT 9999 FEW008/// 07/03 Q1003', 'EGPL 132050Z AUTO 23009KT 9999 SCT008/// 06/03 Q1002', 'EGPL 132020Z AUTO 23011KT 9999 FEW009/// 06/02 Q1002', 'EGPL 131950Z AUTO 23009KT 9999 SCT009/// 07/03 Q1002', 'EGPL 131920Z AUTO 25009KT 9999 NCD 06/02 Q1002', 'EGPL 131850Z AUTO 26011KT 9999 NCD 06/02 Q1002', 'EGPL 131820Z AUTO 24009KT 9999 FEW010/// SCT022/// 06/02 Q1002', 'EGPL 131750Z 29015KT 9999 FEW020 06/01 Q1001', 'EGPL 131720Z 25012KT 9999 FEW020 07/02 Q1001', 'EGPL 131650Z 26014G26KT 9999 FEW020 07/02 Q1001', 'EGPL 131620Z 26013KT 9999 FEW020 07/03 Q1001', 'EGPL 131550Z 26015KT 9999 FEW020 08/03 Q1001', 'EGPL 131520Z 26017KT 9999 FEW020 08/02 Q1000', 'EGPL 131420Z 26019KT 9999 VCSH FEW018CB 08/03 Q1000', 'EGPL 131350Z 26019KT 9999 VCSH FEW018CB 08/03 Q1000', 'EGPL 131320Z 26019KT 9999 VCSH FEW018CB 08/03 Q1000', 'EGPL 131250Z 26021KT 9999 VCSH FEW018CB 08/04 Q1000', 'EGPL 131220Z 26021KT 9999 VCSH FEW018CB 07/04 Q1000', 'EGPL 131150Z 26018KT 9999 VCSH FEW018CB 08/03 Q0999', 'EGPL 131120Z 25019KT 9999 VCSH SCT020CB 08/03 Q0999', 'EGPL 131050Z 26022KT 9999 VCSH SCT020CB 07/03 Q0999', 'EGPL 130950Z 26019KT 9999 VCSH SCT020CB 07/03 Q0998', 'EGPL 130920Z 26024KT 9999 VCSH FEW020CB 07/03 Q0998', 'EGPL 130850Z 25021KT 9999 VCSH FEW020CB 07/03 Q0998', 'EGPL 130820Z 26022KT 9999 VCSH SCT020CB 06/01 Q0998', 'EGPL 130750Z 25019KT 9999 VCSH FEW018CB SCT030 07/02 Q0997', 'EGPL 130720Z 25027G39KT 9999 VCSH SCT018CB BKN040 05/02 Q0997', 'EGPL 130650Z AUTO 27022G35KT 6000 -RA FEW007/// BKN011/// BKN020/// 06/02 Q0997', 'EGPL 130620Z AUTO 27023G34KT 9999 SCT011/// BKN017/// 06/01 Q0997', 'EGPL 130550Z AUTO 26020G33KT 9999 SCT010/// BKN014/// BKN033/// 06/02 Q0997 RERA', 'EGPL 130520Z AUTO 24018KT 9999 SCT011/// SCT018/// BKN030/// 05/01 Q0996 RERA', 'EGPL 130450Z AUTO 27026KT 9999 FEW010/// SCT016/// BKN028/// 06/01 Q0996', 'EGPL 130420Z AUTO 25016KT 9999 FEW037/// 06/02 Q0996', 'EGPL 130350Z AUTO 26017KT 9999 BKN008/// BKN022/// 05/02 Q0996', 'EGPL 130320Z AUTO 25011KT 9999 FEW025/// SCT032/// 05/02 Q0996', 'EGPL 130250Z AUTO 27024KT 9999 SCT009/// SCT017/// BKN043/// 06/02 Q0996', 'EGPL 130220Z AUTO 26014KT 9999 BKN012/// 06/03 Q0996', 'EGPL 130150Z AUTO 26016KT 9999 SCT009/// BKN013/// BKN028/// 05/02 Q0996 RERA', 'EGPL 130120Z AUTO 25015KT 9999 NCD 07/02 Q0996', 'EGPL 130050Z AUTO 26016KT 9999 NCD 07/01 Q0996', 'EGPL 130020Z AUTO 26015KT 9999 FEW010/// 06/02 Q0995', 'EGPL 122350Z AUTO 25016KT 9999 SCT010/// SCT017/// 06/02 Q0995', 'EGPL 122320Z 26018KT 9999 BKN007 06/02 Q0995', 'EGPL 122250Z 25016KT 9999 SCT008 BKN018 06/02 Q0995', 'EGPL 122220Z 27019KT 9999 -RA FEW007 BKN010 06/01 Q0995', 'EGPL 122150Z AUTO 27020KT 9999 FEW012/// 06/00 Q0994', 'EGPL 122120Z AUTO 27017KT 9999 BKN008/// BKN019/// 05/02 Q0994', 'EGPL 122050Z AUTO 26006KT 9999 SCT006/// BKN019/// 04/02 Q0993', 'EGPL 122020Z AUTO 31011KT 9999 SCT009/// SCT015/// BKN019/// 04/01 Q0993', 'EGPL 121950Z AUTO 31018KT 9999 -RA BKN003/// BKN008/// 04/02 Q0992 RERA', 'EGPL 121920Z AUTO 32011KT 9999 OVC002/// 04/02 Q0991 RERA', 'EGPL 121850Z AUTO 31010KT 9999 BKN002/// OVC007/// 03/02 Q0991', 'EGPL 121820Z AUTO 31014KT 9999 -RA BKN002/// OVC006/// 03/02 Q0990 RERA', 'EGPL 121750Z AUTO 30008KT 6000 -RA BKN002/// 03/02 Q0989', 'EGPL 121720Z AUTO 28016KT 9999 SCT002/// BKN006/// OVC017/// 03/01 Q0989', 'EGPL 121650Z AUTO 26018KT 9999 SCT004/// OVC011/// 04/02 Q0988', 'EGPL 121620Z AUTO 24014KT 9999 -RA SCT006/// BKN010/// BKN018/// 05/02 Q0988', 'EGPL 121550Z AUTO 22014KT 9999 ///////// 05/02 Q0988', 'EGPL 121520Z 23012KT 9999 -SHRA SCT008 BKN025CB 06/02 Q0988', 'EGPL 121450Z 20008KT 9999 -SHRA SCT008 BKN025CB 05/03 Q0988', 'EGPL 121420Z 21016KT 9999 -SHRA SCT008 BKN025CB 04/02 Q0989', 'EGPL 121350Z 20010KT 9999 VCSH BKN018CB 05/03 Q0989', 'EGPL 121320Z 19006KT 9999 VCSH SCT010 BKN018 04/03 Q0989', 'EGPL 121250Z 26016KT 9999 SHRA SCT014 BKN020 04/02 Q0990', 'EGPL 121220Z 20018KT 9999 VCSH SCT020CB SCT025 05/02 Q0990', 'EGPL 121150Z 22017KT 9999 VCSH SCT020CB SCT025 07/02 Q0990', 'EGPL 121120Z 23016KT 9999 VCSH SCT020CB SCT025 07/01 Q0990', 'EGPL 121050Z 24021KT 9999 VCSH SCT020CB SCT025 07/02 Q0990', 'EGPL 121020Z 24017KT 9999 VCSH SCT020CB 07/01 Q0990']","['2024-02-15 09:20:00', '2024-02-15 08:50:00', '2024-02-15 08:20:00', '2024-02-15 07:50:00', '2024-02-15 07:20:00', '2024-02-15 06:50:00', '2024-02-15 06:20:00', '2024-02-15 05:50:00', '2024-02-15 05:20:00', '2024-02-15 04:50:00', '2024-02-15 04:20:00', '2024-02-15 03:50:00', '2024-02-15 03:20:00', '2024-02-15 02:50:00', '2024-02-15 02:20:00', '2024-02-15 01:50:00', '2024-02-15 01:20:00', '2024-02-15 00:50:00', '2024-02-15 00:20:00', '2024-02-14 23:50:00', '2024-02-14 23:20:00', '2024-02-14 22:50:00', '2024-02-14 22:20:00', '2024-02-14 21:50:00', '2024-02-14 21:20:00', '2024-02-14 20:50:00', '2024-02-14 20:20:00', '2024-02-14 19:50:00', '2024-02-14 19:20:00', '2024-02-14 18:50:00', '2024-02-14 18:20:00', '2024-02-14 17:50:00', '2024-02-14 17:20:00', '2024-02-14 16:50:00', '2024-02-14 16:20:00', '2024-02-14 15:50:00', '2024-02-14 15:20:00', '2024-02-14 14:50:00', '2024-02-14 13:50:00', '2024-02-14 13:20:00', '2024-02-14 12:50:00', '2024-02-14 12:20:00', '2024-02-14 11:50:00', '2024-02-14 11:20:00', '2024-02-14 10:50:00', '2024-02-14 10:20:00', '2024-02-14 09:50:00', '2024-02-14 09:20:00', '2024-02-14 08:20:00', '2024-02-14 07:50:00', '2024-02-14 07:20:00', '2024-02-14 06:50:00', '2024-02-14 06:20:00', '2024-02-14 05:50:00', '2024-02-14 05:20:00', '2024-02-14 04:50:00', '2024-02-14 04:20:00', '2024-02-14 03:50:00', '2024-02-14 03:20:00', '2024-02-14 02:50:00', '2024-02-14 02:20:00', '2024-02-14 01:50:00', '2024-02-14 01:20:00', '2024-02-14 00:50:00', '2024-02-14 00:20:00', '2024-02-13 23:50:00', '2024-02-13 23:20:00', '2024-02-13 22:50:00', '2024-02-13 22:20:00', '2024-02-13 21:50:00', '2024-02-13 21:20:00', '2024-02-13 20:50:00', '2024-02-13 20:20:00', '2024-02-13 19:50:00', '2024-02-13 19:20:00', '2024-02-13 18:50:00', '2024-02-13 18:20:00', '2024-02-13 17:50:00', '2024-02-13 17:20:00', '2024-02-13 16:50:00', '2024-02-13 16:20:00', '2024-02-13 15:50:00', '2024-02-13 15:20:00', '2024-02-13 14:20:00', '2024-02-13 13:50:00', '2024-02-13 13:20:00', '2024-02-13 12:50:00', '2024-02-13 12:20:00', '2024-02-13 11:50:00', '2024-02-13 11:20:00', '2024-02-13 10:50:00', '2024-02-13 09:50:00', '2024-02-13 09:20:00', '2024-02-13 08:50:00', '2024-02-13 08:20:00', '2024-02-13 07:50:00', '2024-02-13 07:20:00', '2024-02-13 06:50:00', '2024-02-13 06:20:00', '2024-02-13 05:50:00', '2024-02-13 05:20:00', '2024-02-13 04:50:00', '2024-02-13 04:20:00', '2024-02-13 03:50:00', '2024-02-13 03:20:00', '2024-02-13 02:50:00', '2024-02-13 02:20:00', '2024-02-13 01:50:00', '2024-02-13 01:20:00', '2024-02-13 00:50:00', '2024-02-13 00:20:00', '2024-02-12 23:50:00', '2024-02-12 23:20:00', '2024-02-12 22:50:00', '2024-02-12 22:20:00', '2024-02-12 21:50:00', '2024-02-12 21:20:00', '2024-02-12 20:50:00', '2024-02-12 20:20:00', '2024-02-12 19:50:00', '2024-02-12 19:20:00', '2024-02-12 18:50:00', '2024-02-12 18:20:00', '2024-02-12 17:50:00', '2024-02-12 17:20:00', '2024-02-12 16:50:00', '2024-02-12 16:20:00', '2024-02-12 15:50:00', '2024-02-12 15:20:00', '2024-02-12 14:50:00', '2024-02-12 14:20:00', '2024-02-12 13:50:00', '2024-02-12 13:20:00', '2024-02-12 12:50:00', '2024-02-12 12:20:00', '2024-02-12 11:50:00', '2024-02-12 11:20:00', '2024-02-12 10:50:00', '2024-02-12 10:20:00']"
United-kingdom, RAF Benson (BEX/EGUB) ,"['EGUB 150920Z 17008KT 9999 FEW045 BKN150 13/11 Q1009 NOSIG RMK BLU BLU', 'EGUB 150850Z 16010KT 9999 FEW038 BKN150 13/11 Q1009 NOSIG RMK BLU BLU', 'EGUB 150820Z 16011KT 9999 FEW010 BKN150 12/11 Q1009 NOSIG RMK BLU BLU', 'EGUB 150750Z 15005KT 9999 SCT008 12/11 Q1009 RMK GRN', 'EGUB 150650Z 18011KT 9999 OVC006 13/12 Q1009 RMK YLO1', 'EGUB 150550Z AUTO 19006KT 9999 OVC004/// 13/13 Q1009', 'EGUB 150520Z AUTO 18006KT 9999 OVC005/// 13/12 Q1009', 'EGUB 150450Z AUTO 18008KT 9999 OVC005/// 13/12 Q1009', 'EGUB 150420Z AUTO 18012KT 9999 OVC006/// 13/12 Q1009', 'EGUB 150350Z AUTO 18013KT 9999 // OVC006/// 13/12 Q1010', 'EGUB 150320Z AUTO 17013KT 9999 // BKN006/// SCT050/// BKN076/// 12/12 Q1010', 'EGUB 150250Z AUTO 17010KT 9999 DZ OVC006/// 12/12 Q1010', 'EGUB 150220Z AUTO 18009KT 9999 OVC006/// 12/12 Q1010', 'EGUB 150150Z AUTO 19010KT 9999 // OVC006/// 12/12 Q1011', 'EGUB 150120Z AUTO 19008KT 9999 // OVC006/// 12/12 Q1011', 'EGUB 150050Z AUTO 19008KT 9999 -RA OVC006/// 12/12 Q1011', 'EGUB 150020Z AUTO 18010KT 9999 // OVC006/// 12/12 Q1011', 'EGUB 142350Z AUTO 18008KT 9999 // OVC005/// 12/12 Q1011', 'EGUB 142320Z AUTO 18010KT 9999 -RA OVC005/// 12/12 Q1011', 'EGUB 142250Z AUTO 18012KT 9999 OVC004/// 12/11 Q1011', 'EGUB 142220Z AUTO 18014KT 9999 // OVC006/// 12/11 Q1011', 'EGUB 142150Z AUTO 16011KT 9999 // OVC006/// 12/11 Q1012', 'EGUB 142050Z AUTO 18011KT 8000 // OVC005/// 12/11 Q1012', 'EGUB 141950Z AUTO 19009KT 9999 OVC009/// 12/11 Q1013', 'EGUB 141850Z AUTO 20011KT 9999 OVC009/// 12/11 Q1013', 'EGUB 141750Z AUTO 21011KT 9999 OVC008/// 13/11 Q1012', 'EGUB 141650Z AUTO 19011KT 9999 OVC009/// 13/11 Q1012', 'EGUB 141550Z 20009KT 9999 BKN013 OVC020 14/12 Q1011 NOSIG RMK GRN GRN', 'EGUB 141520Z 22010KT 9999 SCT013 OVC016 14/12 Q1012 NOSIG RMK GRN GRN', 'EGUB 141450Z 20011KT 9999 SCT013 SCT016 14/12 Q1011 TEMPO FEW013 BKN016 RMK GRN TEMPO WHT', 'EGUB 141420Z 20012KT 9999 BKN013 OVC016 14/12 Q1011 NOSIG RMK GRN GRN', 'EGUB 141350Z 20012KT 9999 BKN011 14/12 Q1012 NOSIG RMK GRN GRN', 'EGUB 141320Z 20012KT 9999 BKN010 14/12 Q1011 NOSIG RMK GRN GRN', 'EGUB 141250Z 20012KT 9999 BKN010 OVC015 14/12 Q1011 NOSIG RMK GRN GRN', 'EGUB 141220Z 20012KT 9999 BKN011 BKN014 14/12 Q1011 NOSIG RMK GRN GRN', 'EGUB 141150Z 21010KT 9999 BKN011 14/12 Q1012 NOSIG RMK GRN GRN', 'EGUB 141120Z 21011KT 9999 SCT010 BKN014 13/12 Q1011 NOSIG RMK GRN GRN', 'EGUB 141020Z 21013KT 9999 SCT009 BKN012 13/12 Q1011 NOSIG RMK GRN GRN', 'EGUB 140950Z 20011KT 9999 SCT010 BKN016 13/12 Q1011 NOSIG RMK GRN GRN', 'EGUB 140920Z 19009KT 9999 -DZ SCT008 OVC013 12/12 Q1011 RERA NOSIG RMK GRN GRN', 'EGUB 140850Z 18010KT 9999 RA SCT008 OVC012 12/11 Q1011 TEMPO 6000 -DZ RMK GRN TEMPO GRN', 'EGUB 140820Z 19009KT 9999 BKN009 12/11 Q1011 NOSIG RMK GRN GRN', 'EGUB 140750Z 20009KT 9999 BKN009 OVC012 12/11 Q1010 RMK GRN', 'EGUB 140650Z 19011KT 8000 -RADZ BKN008 OVC015 12/11 Q1010 RMK GRN', 'EGUB 140550Z AUTO 19011KT 9999 OVC006/// 12/11 Q1010', 'EGUB 140520Z AUTO 20010KT 9999 OVC011/// 12/11 Q1010', 'EGUB 140450Z AUTO 19009KT 9999 OVC013/// 12/10 Q1010', 'EGUB 140420Z AUTO 20009KT 9999 OVC013/// 12/10 Q1010', 'EGUB 140350Z AUTO 20009KT 9999 OVC013/// 12/10 Q1010', 'EGUB 140320Z AUTO 21010KT 9999 OVC010/// 12/10 Q1010', 'EGUB 140250Z AUTO 20010KT 9999 OVC010/// 12/10 Q1010', 'EGUB 140220Z AUTO 20011KT 9999 OVC011/// 12/10 Q1010', 'EGUB 140150Z AUTO 20009KT 9999 BKN012/// BKN031/// 11/10 Q1010', 'EGUB 140120Z AUTO 20011KT 9999 FEW014/// 11/10 Q1010', 'EGUB 140050Z AUTO 20010KT 9999 SCT011/// SCT029/// 11/10 Q1010', 'EGUB 140020Z AUTO 21008KT 9999 OVC011/// 11/10 Q1010', 'EGUB 132350Z AUTO 20010KT 9999 BKN009/// BKN028/// 11/10 Q1010', 'EGUB 132320Z AUTO 21010KT 9999 OVC026/// 12/10 Q1010', 'EGUB 132250Z AUTO 21013KT 9999 FEW013/// BKN030/// BKN130/// 12/10 Q1010', 'EGUB 132150Z AUTO 21011KT 9999 OVC016/// 12/10 Q1009', 'EGUB 132120Z AUTO 21011KT 9999 OVC013/// 12/10 Q1009', 'EGUB 132050Z AUTO 22011KT 9999 // OVC012/// 12/10 Q1009', 'EGUB 131950Z AUTO 22012KT 9999 // OVC011/// 12/11 Q1008', 'EGUB 131850Z AUTO 21014KT 9999 // OVC010/// 12/11 Q1007', 'EGUB 131750Z AUTO 18012KT 9999 OVC007/// 11/10 Q1007', 'EGUB 131650Z AUTO 18015KT 9999 // OVC007/// 10/10 Q1007', 'EGUB 131550Z AUTO 17016KT 6000 -DZ OVC006/// 10/09 Q1007', 'EGUB 131450Z AUTO 17019KT 9999 -DZ OVC008/// 09/08 Q1008', 'EGUB 131420Z 18016KT 9999 -SHRA SCT008 OVC012 09/08 Q1008 TEMPO 5000 -RADZ RMK GRN TEMPO GRN', 'EGUB 131350Z 17018KT 9999 -DZ BKN008 OVC015 09/08 Q1008 TEMPO 5000 -RADZ RMK GRN TEMPO GRN', 'EGUB 131320Z 17015KT 9999 7000NW -RA BKN009 OVC015 09/08 Q1009 TEMPO 4000 -RADZ RMK GRN TEMPO GRN', 'EGUB 131250Z 16014KT 9999 BKN010 OVC018 09/08 Q1009 TEMPO 7000 -RADZ RMK GRN TEMPO GRN', 'EGUB 131220Z 15012KT 9999 -RA BKN010 OVC020 08/07 Q1010 TEMPO 7000 RMK GRN TEMPO GRN', 'EGUB 131150Z 16013KT 9999 -RADZ SCT010 SCT020 BKN040 08/07 Q1011 TEMPO 6000 RMK GRN TEMPO GRN', 'EGUB 131120Z 16012KT 9999 -RA SCT011 OVC020 08/07 Q1011 TEMPO 7000 RMK GRN TEMPO GRN', 'EGUB 131050Z 17012KT 9999 -RADZ FEW010 SCT020 BKN028 08/07 Q1011 BECMG SCT010 RMK WHT BECMG GRN', 'EGUB 131020Z 16011KT 9999 -RA FEW024 SCT032 BKN090 08/07 Q1012 TEMPO 7000 SCT024 RMK BLU TEMPO WHT', 'EGUB 130950Z 17010KT 9999 -RA FEW024 OVC045 07/06 Q1012 TEMPO 7000 SCT024 RMK BLU TEMPO WHT', 'EGUB 130920Z 17011KT 9999 -RA FEW030 OVC050 07/06 Q1012 TEMPO 7000 SCT024 RMK BLU TEMPO WHT', 'EGUB 130850Z 17009KT 9999 -RA FEW030 OVC060 07/05 Q1012 TEMPO 7000 SCT024 RMK BLU TEMPO WHT', 'EGUB 130820Z 17008KT CAVOK 06/05 Q1012 NOSIG RMK BLU BLU', 'EGUB 130750Z 17008KT 9999 FEW040 SCT050 BKN100 05/04 Q1012 NOSIG RMK BLU BLU', 'EGUB 130650Z 19007KT CAVOK 06/03 Q1012 RMK BLU', 'EGUB 130550Z AUTO 19007KT 9999 BKN052/// BKN120/// 05/03 Q1012', 'EGUB 130520Z AUTO 18008KT 9999 SCT055/// SCT140/// 04/03 Q1012', 'EGUB 130450Z AUTO 19009KT 9999 OVC140/// 05/03 Q1012', 'EGUB 130420Z AUTO 18007KT 9999 OVC160/// 05/03 Q1012', 'EGUB 130350Z AUTO 19007KT 9999 FEW210/// 04/02 Q1012', 'EGUB 130320Z AUTO 19006KT 9999 SCT180/// 04/02 Q1012', 'EGUB 130250Z AUTO 17006KT 9999 SCT190/// 03/01 Q1012', 'EGUB 130220Z AUTO 20009KT 9999 BKN210/// 05/02 Q1012', 'EGUB 130150Z AUTO 19008KT 9999 FEW210/// 04/02 Q1012', 'EGUB 130120Z AUTO 19006KT 9999 NCD 03/01 Q1012', 'EGUB 130050Z AUTO 19007KT 9999 NCD 04/01 Q1012', 'EGUB 130020Z AUTO 19007KT 9999 NCD 04/01 Q1012', 'EGUB 122350Z AUTO 20009KT 9999 NCD 05/02 Q1011', 'EGUB 122320Z AUTO 19008KT 9999 NCD 05/02 Q1012', 'EGUB 122250Z AUTO 19009KT 9999 NCD 04/02 Q1011', 'EGUB 122220Z AUTO 20009KT 9999 NCD 05/01 Q1011', 'EGUB 122150Z AUTO 20007KT 9999 NCD 05/01 Q1011', 'EGUB 122120Z AUTO 20006KT 9999 NCD 04/01 Q1011', 'EGUB 122050Z AUTO 20007KT 9999 NCD 05/03 Q1011', 'EGUB 122020Z AUTO 18007KT 9999 NCD 02/00 Q1010', 'EGUB 121950Z AUTO 18006KT 9999 NCD 03/M00 Q1010', 'EGUB 121920Z AUTO 20004KT 9999 NCD 04/M00 Q1010', 'EGUB 121850Z AUTO 20005KT 9999 NCD 05/00 Q1010', 'EGUB 121820Z 24008KT CAVOK 06/01 Q1010 NOSIG RMK BLU BLU', 'EGUB 121750Z 23008KT CAVOK 06/01 Q1010 NOSIG RMK BLU BLU', 'EGUB 121720Z 22006KT 9999 FEW040 SCT250 06/01 Q1009 NOSIG RMK BLU BLU', 'EGUB 121650Z 24007KT 9999 FEW038 FEW250 08/01 Q1009 NOSIG RMK BLU BLU', 'EGUB 121620Z 24007KT 9999 FEW038 08/01 Q1008 NOSIG RMK BLU BLU', 'EGUB 121550Z 25010KT 9999 FEW036 09/01 Q1008 NOSIG RMK BLU', 'EGUB 121520Z 25009KT 9999 FEW040 08/01 Q1008 NOSIG RMK BLU BLU', 'EGUB 121450Z 24008KT 9999 FEW035 09/01 Q1008 NOSIG RMK BLU BLU', 'EGUB 121350Z 25011KT 9999 FEW032 09/01 Q1007 NOSIG RMK BLU BLU', 'EGUB 121320Z 27010KT 9999 FEW026 09/02 Q1007 NOSIG RMK BLU BLU', 'EGUB 121250Z 27008KT 9999 FEW028 09/02 Q1006 NOSIG RMK BLU BLU', 'EGUB 121220Z 27009KT 9999 FEW026 08/02 Q1006 NOSIG RMK BLU BLU', 'EGUB 121150Z 28008KT 9999 FEW022 08/03 Q1006 NOSIG RMK BLU BLU', 'EGUB 121120Z 28008KT 9999 FEW020 08/03 Q1005 NOSIG RMK BLU BLU', 'EGUB 121050Z 27007KT 9999 FEW015 07/03 Q1005 NOSIG RMK BLU BLU', 'EGUB 121020Z 26010KT 9999 FEW015 06/03 Q1005 NOSIG RMK BLU BLU']","['2024-02-15 09:20:00', '2024-02-15 08:50:00', '2024-02-15 08:20:00', '2024-02-15 07:50:00', '2024-02-15 06:50:00', '2024-02-15 05:50:00', '2024-02-15 05:20:00', '2024-02-15 04:50:00', '2024-02-15 04:20:00', '2024-02-15 03:50:00', '2024-02-15 03:20:00', '2024-02-15 02:50:00', '2024-02-15 02:20:00', '2024-02-15 01:50:00', '2024-02-15 01:20:00', '2024-02-15 00:50:00', '2024-02-15 00:20:00', '2024-02-14 23:50:00', '2024-02-14 23:20:00', '2024-02-14 22:50:00', '2024-02-14 22:20:00', '2024-02-14 21:50:00', '2024-02-14 20:50:00', '2024-02-14 19:50:00', '2024-02-14 18:50:00', '2024-02-14 17:50:00', '2024-02-14 16:50:00', '2024-02-14 15:50:00', '2024-02-14 15:20:00', '2024-02-14 14:50:00', '2024-02-14 14:20:00', '2024-02-14 13:50:00', '2024-02-14 13:20:00', '2024-02-14 12:50:00', '2024-02-14 12:20:00', '2024-02-14 11:50:00', '2024-02-14 11:20:00', '2024-02-14 10:20:00', '2024-02-14 09:50:00', '2024-02-14 09:20:00', '2024-02-14 08:50:00', '2024-02-14 08:20:00', '2024-02-14 07:50:00', '2024-02-14 06:50:00', '2024-02-14 05:50:00', '2024-02-14 05:20:00', '2024-02-14 04:50:00', '2024-02-14 04:20:00', '2024-02-14 03:50:00', '2024-02-14 03:20:00', '2024-02-14 02:50:00', '2024-02-14 02:20:00', '2024-02-14 01:50:00', '2024-02-14 01:20:00', '2024-02-14 00:50:00', '2024-02-14 00:20:00', '2024-02-13 23:50:00', '2024-02-13 23:20:00', '2024-02-13 22:50:00', '2024-02-13 21:50:00', '2024-02-13 21:20:00', '2024-02-13 20:50:00', '2024-02-13 19:50:00', '2024-02-13 18:50:00', '2024-02-13 17:50:00', '2024-02-13 16:50:00', '2024-02-13 15:50:00', '2024-02-13 14:50:00', '2024-02-13 14:20:00', '2024-02-13 13:50:00', '2024-02-13 13:20:00', '2024-02-13 12:50:00', '2024-02-13 12:20:00', '2024-02-13 11:50:00', '2024-02-13 11:20:00', '2024-02-13 10:50:00', '2024-02-13 10:20:00', '2024-02-13 09:50:00', '2024-02-13 09:20:00', '2024-02-13 08:50:00', '2024-02-13 08:20:00', '2024-02-13 07:50:00', '2024-02-13 06:50:00', '2024-02-13 05:50:00', '2024-02-13 05:20:00', '2024-02-13 04:50:00', '2024-02-13 04:20:00', '2024-02-13 03:50:00', '2024-02-13 03:20:00', '2024-02-13 02:50:00', '2024-02-13 02:20:00', '2024-02-13 01:50:00', '2024-02-13 01:20:00', '2024-02-13 00:50:00', '2024-02-13 00:20:00', '2024-02-12 23:50:00', '2024-02-12 23:20:00', '2024-02-12 22:50:00', '2024-02-12 22:20:00', '2024-02-12 21:50:00', '2024-02-12 21:20:00', '2024-02-12 20:50:00', '2024-02-12 20:20:00', '2024-02-12 19:50:00', '2024-02-12 19:20:00', '2024-02-12 18:50:00', '2024-02-12 18:20:00', '2024-02-12 17:50:00', '2024-02-12 17:20:00', '2024-02-12 16:50:00', '2024-02-12 16:20:00', '2024-02-12 15:50:00', '2024-02-12 15:20:00', '2024-02-12 14:50:00', '2024-02-12 13:50:00', '2024-02-12 13:20:00', '2024-02-12 12:50:00', '2024-02-12 12:20:00', '2024-02-12 11:50:00', '2024-02-12 11:20:00', '2024-02-12 10:50:00', '2024-02-12 10:20:00']"
United-kingdom, Birmingham Airport (BHX/EGBB) ,"['EGBB 150950Z 18008KT 130V230 9999 BKN009 14/13 Q1007', 'EGBB 150920Z 17006KT 130V210 9999 BKN009 14/12 Q1007', 'EGBB 150850Z 17008KT 140V220 9999 BKN009 14/12 Q1007', 'EGBB 150820Z 16005KT 100V190 9999 BKN009 14/12 Q1007', 'EGBB 150750Z 19009KT 130V220 9999 BKN008 14/12 Q1007', 'EGBB 150720Z 19009KT 140V240 9999 VCSH BKN007 14/12 Q1007', 'EGBB 150650Z 19005KT 130V230 9999 BKN006 13/12 Q1007', 'EGBB 150620Z 18007KT 140V240 7000 VCSH OVC006 13/12 Q1007', 'EGBB 150550Z 18007KT 9999 OVC006 13/12 Q1007', 'EGBB 150520Z 16008KT 9999 OVC005 12/12 Q1008', 'EGBB 150450Z 16007KT 7000 -RA BKN006 OVC028 12/11 Q1008', 'EGBB 150420Z 17005KT 9999 BKN005 BKN011 12/11 Q1008', 'EGBB 150350Z 17005KT 9999 BKN006 12/11 Q1008', 'EGBB 150320Z 16004KT 9999 BKN008 12/11 Q1008', 'EGBB 150250Z 19006KT 9999 BKN010 12/11 Q1009 REDZ', 'EGBB 150220Z 20005KT 9999 DZ BKN009 BKN013 12/11 Q1009', 'EGBB 150150Z 19008KT 9999 OVC007 13/11 Q1009', 'EGBB 150120Z 18008KT 9999 BKN004 OVC008 12/12 Q1009', 'EGBB 150050Z 17007KT 9000 OVC006 12/11 Q1009', 'EGBB 150020Z 17007KT 8000 -RA BKN006 12/11 Q1009', 'EGBB 142350Z 17007KT 8000 -RA OVC006 12/11 Q1009', 'EGBB 142320Z 17007KT 9999 OVC006 12/11 Q1010', 'EGBB 142250Z 17004KT 9999 BKN008 12/11 Q1010', 'EGBB 142220Z 18006KT 9999 BKN009 12/11 Q1010', 'EGBB 142150Z 16007KT 9999 BKN009 OVC015 12/11 Q1010', 'EGBB 142120Z 19007KT 9999 BKN012 12/11 Q1010', 'EGBB 142050Z 20008KT 9999 FEW009 SCT013 12/11 Q1010', 'EGBB 142020Z 20007KT 9999 FEW007 BKN012 12/11 Q1011 RERA REDZ', 'EGBB 141950Z 20007KT 3500 RADZ BKN008 13/12 Q1011 REDZ', 'EGBB 141920Z 20007KT 9999 FEW009 SCT019 13/11 Q1011', 'EGBB 141850Z 20004KT 9999 FEW010 SCT018 13/11 Q1011', 'EGBB 141820Z 20004KT 9999 SCT008 13/12 Q1010', 'EGBB 141750Z 21005KT 9999 -DZ BKN008 13/12 Q1010', 'EGBB 141720Z 21005KT 9000 VCSH BKN009 13/12 Q1010', 'EGBB 141650Z 19009KT 9000 VCSH SCT014 13/12 Q1010', 'EGBB 141620Z 20008KT 9999 VCSH SCT011 BKN032 14/12 Q1010', 'EGBB 141550Z 19007KT 9999 7000N VCSH SCT012 BKN031 14/12 Q1010', 'EGBB 141520Z 20009KT 9999 VCSH SCT014 SCT030 14/12 Q1009', 'EGBB 141450Z 20006KT 9999 VCSH SCT015 SCT031 14/12 Q1009', 'EGBB 141420Z 20009KT 9999 SCT018 15/12 Q1009', 'EGBB 141350Z 20009KT 9999 BKN012 14/12 Q1009', 'EGBB 141320Z 21010KT 9999 VCSH BKN012 14/12 Q1009', 'EGBB 141250Z 20009KT 150V250 9999 7000N VCSH BKN010 14/12 Q1009', 'EGBB 141220Z 20008KT 160V240 7000 -DZ BKN010 13/12 Q1009', 'EGBB 141150Z 19005KT 120V240 6000 -RADZ BKN009 13/12 Q1009', 'EGBB 141120Z 20007KT 9999 BKN007 13/12 Q1009', 'EGBB 141050Z 19011KT 9000 VCSH BKN007 13/12 Q1009', 'EGBB 141020Z 19008KT 6000 -RADZ BKN007 12/11 Q1009 RERA REDZ', 'EGBB 140950Z 20010KT 150V230 4500 RADZ BKN007 13/11 Q1009', 'EGBB 140920Z 19011KT 150V240 9999 VCSH BKN007 12/11 Q1009', 'EGBB 140850Z 19008KT 150V240 9999 -RA BKN007 12/11 Q1009', 'EGBB 140820Z 19008KT 120V220 9999 VCSH BKN007 12/11 Q1008', 'EGBB 140750Z 20008KT 140V260 9999 BKN006 12/11 Q1008', 'EGBB 140720Z 19006KT 130V240 7000 -RA BKN006 12/11 Q1008', 'EGBB 140650Z 19007KT 140V230 6000 -RA BKN006 12/11 Q1008', 'EGBB 140620Z 20006KT 120V290 9999 BKN007 12/10 Q1008', 'EGBB 140550Z 20009KT 150V240 9999 OVC007 12/11 Q1008 REDZ', 'EGBB 140520Z 20009KT 160V230 9999 DZ OVC007 12/10 Q1008', 'EGBB 140450Z 20007KT 170V250 9999 -RA BKN007 11/10 Q1008', 'EGBB 140420Z 20007KT 170V240 9999 BKN007 11/10 Q1008', 'EGBB 140350Z 20009KT 160V250 8000 -RA BKN006 11/10 Q1008', 'EGBB 140320Z 20008KT 160V240 3500 RA OVC006 11/10 Q1008', 'EGBB 140250Z 20008KT 8000 -RA OVC006 11/10 Q1008', 'EGBB 140220Z 19008KT 9999 OVC006 11/10 Q1008', 'EGBB 140150Z 19008KT 9999 BKN007 11/10 Q1008', 'EGBB 140050Z 20008KT 9999 BKN008 OVC022 11/10 Q1008', 'EGBB 140020Z 19004KT 9999 FEW008 OVC013 11/10 Q1008', 'EGBB 132350Z 17004KT 9999 SCT012 BKN017 11/10 Q1008', 'EGBB 132250Z 21006KT 9999 BKN029 11/09 Q1007', 'EGBB 132220Z 21006KT 9999 SCT012 BKN017 11/10 Q1007', 'EGBB 132150Z 20007KT 9999 BKN012 OVC018 11/10 Q1007', 'EGBB 132120Z 20007KT 9999 BKN012 11/10 Q1007', 'EGBB 132050Z 21005KT 9999 BKN012 11/10 Q1006', 'EGBB 132020Z 21005KT 9999 -RA BKN010 11/10 Q1006', 'EGBB 131950Z 22007KT 9999 BKN008 11/10 Q1006', 'EGBB 131920Z 22007KT 9999 BKN006 11/10 Q1006', 'EGBB 131850Z 18006KT 7000 -RADZ BKN004 10/10 Q1005 REDZ', 'EGBB 131820Z 18006KT 2800 DZ BKN003 OVC008 10/09 Q1005', 'EGBB 131750Z 14005KT 8000 -RADZ BKN004 OVC010 09/09 Q1005', 'EGBB 131720Z 14005KT 2500 -RADZ OVC003 09/08 Q1005 REDZ', 'EGBB 131650Z 14007KT 2000 RADZ OVC003 09/08 Q1005 REDZ', 'EGBB 131620Z 14007KT 3500 RADZ OVC004 08/08 Q1005 RERA', 'EGBB 131550Z 14008KT 6000 -RADZ OVC004 08/08 Q1006 RERA REDZ', 'EGBB 131520Z 12007KT 5000 RADZ OVC004 08/07 Q1006 REDZ', 'EGBB 131450Z 11009KT 2300 RADZ OVC004 08/07 Q1007', 'EGBB 131420Z 11007KT 1800 RADZ OVC004 08/07 Q1007', 'EGBB 131350Z 13007KT 3000 RA BKN004 08/07 Q1008', 'EGBB 131320Z 13007KT 8000 -RA BKN005 07/07 Q1008', 'EGBB 131250Z 14007KT 7000 -RA FEW007 OVC012 07/06 Q1009', 'EGBB 131220Z 14009KT 8000 -RA SCT006 OVC015 07/06 Q1009', 'EGBB 131150Z 14006KT 9000 -RA SCT007 BKN021 07/06 Q1010', 'EGBB 131120Z 14006KT 9999 -RA SCT017 BKN030 07/06 Q1010', 'EGBB 131050Z 14008KT 9999 -RA FEW008 BKN020 06/05 Q1010', 'EGBB 131020Z 15004KT 9999 -RA FEW021 BKN028 06/05 Q1011 RERA', 'EGBB 130950Z 17004KT 8000 RA SCT027 BKN042 06/04 Q1011', 'EGBB 130920Z 15005KT 9999 -RA FEW047 06/04 Q1011', 'EGBB 130850Z 15005KT CAVOK 06/04 Q1011', 'EGBB 130820Z 19005KT CAVOK 06/04 Q1011', 'EGBB 130750Z 18005KT CAVOK 05/03 Q1011', 'EGBB 130720Z 17004KT CAVOK 05/04 Q1010', 'EGBB 130650Z 19004KT CAVOK 05/04 Q1010', 'EGBB 130620Z 19004KT 9999 FEW035 05/04 Q1010', 'EGBB 130550Z 20004KT 9999 BKN031 06/04 Q1010', 'EGBB 130520Z 20004KT 9999 BKN033 06/04 Q1010', 'EGBB 130450Z 19005KT 9999 SCT022 SCT031 OVC047 06/04 Q1010', 'EGBB 130420Z 19005KT 9999 SCT022 BKN027 06/04 Q1010', 'EGBB 130350Z 19005KT 9999 BKN022 BKN039 06/04 Q1010', 'EGBB 130320Z 19005KT 9999 BKN021 BKN043 06/04 Q1010', 'EGBB 130250Z 19005KT 9999 FEW014 BKN021 05/04 Q1010', 'EGBB 130220Z 19005KT 9999 FEW021 05/04 Q1010', 'EGBB 130150Z 20007KT 9999 FEW025 SCT045 06/04 Q1010', 'EGBB 130120Z 19007KT 9999 BKN024 05/03 Q1010', 'EGBB 130050Z 20005KT 9999 FEW031 05/03 Q1010', 'EGBB 130020Z 20008KT 9999 FEW037 06/03 Q1010', 'EGBB 122350Z 20008KT CAVOK 06/03 Q1009', 'EGBB 122320Z 20008KT CAVOK 06/03 Q1009', 'EGBB 122250Z 20008KT CAVOK 06/03 Q1009', 'EGBB 122220Z 20010KT CAVOK 06/03 Q1009', 'EGBB 122150Z 20010KT 9999 FEW033 06/03 Q1009', 'EGBB 122120Z 19006KT 9999 BKN029 06/02 Q1009', 'EGBB 122050Z 19006KT 9999 FEW030 06/02 Q1008', 'EGBB 122020Z 20006KT 9999 FEW039 06/02 Q1008', 'EGBB 121950Z 21008KT 9999 FEW035 06/01 Q1008', 'EGBB 121920Z 21006KT 9999 FEW037 06/01 Q1008', 'EGBB 121850Z 20009KT CAVOK 07/00 Q1008', 'EGBB 121820Z 18006KT CAVOK 07/00 Q1008', 'EGBB 121750Z 19005KT CAVOK 07/M00 Q1008', 'EGBB 121720Z 21005KT CAVOK 08/00 Q1007', 'EGBB 121650Z 21007KT 9999 SCT040 08/01 Q1007', 'EGBB 121620Z 22007KT 9999 SCT048 08/01 Q1007', 'EGBB 121550Z 22005KT 9999 SCT043 09/00 Q1007', 'EGBB 121520Z 22007KT 9999 SCT040 09/00 Q1006', 'EGBB 121450Z 23008KT 9999 FEW040 09/M00 Q1006', 'EGBB 121420Z 26010KT 150V310 9999 SCT040 09/M00 Q1006', 'EGBB 121350Z 24008KT 9999 SCT035 09/01 Q1006', 'EGBB 121320Z 24009KT 9999 SCT035 08/00 Q1006', 'EGBB 121250Z 29009KT 9999 SCT030 08/01 Q1005', 'EGBB 121220Z 28010KT 9999 SCT026 08/02 Q1005', 'EGBB 121150Z 28010KT 9999 FEW025 08/02 Q1005', 'EGBB 121120Z 25006KT 9999 FEW023 07/02 Q1005', 'EGBB 121050Z 26005KT CAVOK 07/02 Q1004', 'EGBB 121020Z 24007KT CAVOK 06/02 Q1004']","['2024-02-15 09:50:00', '2024-02-15 09:20:00', '2024-02-15 08:50:00', '2024-02-15 08:20:00', '2024-02-15 07:50:00', '2024-02-15 07:20:00', '2024-02-15 06:50:00', '2024-02-15 06:20:00', '2024-02-15 05:50:00', '2024-02-15 05:20:00', '2024-02-15 04:50:00', '2024-02-15 04:20:00', '2024-02-15 03:50:00', '2024-02-15 03:20:00', '2024-02-15 02:50:00', '2024-02-15 02:20:00', '2024-02-15 01:50:00', '2024-02-15 01:20:00', '2024-02-15 00:50:00', '2024-02-15 00:20:00', '2024-02-14 23:50:00', '2024-02-14 23:20:00', '2024-02-14 22:50:00', '2024-02-14 22:20:00', '2024-02-14 21:50:00', '2024-02-14 21:20:00', '2024-02-14 20:50:00', '2024-02-14 20:20:00', '2024-02-14 19:50:00', '2024-02-14 19:20:00', '2024-02-14 18:50:00', '2024-02-14 18:20:00', '2024-02-14 17:50:00', '2024-02-14 17:20:00', '2024-02-14 16:50:00', '2024-02-14 16:20:00', '2024-02-14 15:50:00', '2024-02-14 15:20:00', '2024-02-14 14:50:00', '2024-02-14 14:20:00', '2024-02-14 13:50:00', '2024-02-14 13:20:00', '2024-02-14 12:50:00', '2024-02-14 12:20:00', '2024-02-14 11:50:00', '2024-02-14 11:20:00', '2024-02-14 10:50:00', '2024-02-14 10:20:00', '2024-02-14 09:50:00', '2024-02-14 09:20:00', '2024-02-14 08:50:00', '2024-02-14 08:20:00', '2024-02-14 07:50:00', '2024-02-14 07:20:00', '2024-02-14 06:50:00', '2024-02-14 06:20:00', '2024-02-14 05:50:00', '2024-02-14 05:20:00', '2024-02-14 04:50:00', '2024-02-14 04:20:00', '2024-02-14 03:50:00', '2024-02-14 03:20:00', '2024-02-14 02:50:00', '2024-02-14 02:20:00', '2024-02-14 01:50:00', '2024-02-14 00:50:00', '2024-02-14 00:20:00', '2024-02-13 23:50:00', '2024-02-13 22:50:00', '2024-02-13 22:20:00', '2024-02-13 21:50:00', '2024-02-13 21:20:00', '2024-02-13 20:50:00', '2024-02-13 20:20:00', '2024-02-13 19:50:00', '2024-02-13 19:20:00', '2024-02-13 18:50:00', '2024-02-13 18:20:00', '2024-02-13 17:50:00', '2024-02-13 17:20:00', '2024-02-13 16:50:00', '2024-02-13 16:20:00', '2024-02-13 15:50:00', '2024-02-13 15:20:00', '2024-02-13 14:50:00', '2024-02-13 14:20:00', '2024-02-13 13:50:00', '2024-02-13 13:20:00', '2024-02-13 12:50:00', '2024-02-13 12:20:00', '2024-02-13 11:50:00', '2024-02-13 11:20:00', '2024-02-13 10:50:00', '2024-02-13 10:20:00', '2024-02-13 09:50:00', '2024-02-13 09:20:00', '2024-02-13 08:50:00', '2024-02-13 08:20:00', '2024-02-13 07:50:00', '2024-02-13 07:20:00', '2024-02-13 06:50:00', '2024-02-13 06:20:00', '2024-02-13 05:50:00', '2024-02-13 05:20:00', '2024-02-13 04:50:00', '2024-02-13 04:20:00', '2024-02-13 03:50:00', '2024-02-13 03:20:00', '2024-02-13 02:50:00', '2024-02-13 02:20:00', '2024-02-13 01:50:00', '2024-02-13 01:20:00', '2024-02-13 00:50:00', '2024-02-13 00:20:00', '2024-02-12 23:50:00', '2024-02-12 23:20:00', '2024-02-12 22:50:00', '2024-02-12 22:20:00', '2024-02-12 21:50:00', '2024-02-12 21:20:00', '2024-02-12 20:50:00', '2024-02-12 20:20:00', '2024-02-12 19:50:00', '2024-02-12 19:20:00', '2024-02-12 18:50:00', '2024-02-12 18:20:00', '2024-02-12 17:50:00', '2024-02-12 17:20:00', '2024-02-12 16:50:00', '2024-02-12 16:20:00', '2024-02-12 15:50:00', '2024-02-12 15:20:00', '2024-02-12 14:50:00', '2024-02-12 14:20:00', '2024-02-12 13:50:00', '2024-02-12 13:20:00', '2024-02-12 12:50:00', '2024-02-12 12:20:00', '2024-02-12 11:50:00', '2024-02-12 11:20:00', '2024-02-12 10:50:00', '2024-02-12 10:20:00']"
