country,airport,METARs,UTC/Time
Algeria, Adrar Airport (AZR/DAUA) ,"['DAUA 032100Z 04011KT CAVOK 14/M02 Q1027', 'DAUA 032000Z 03008KT CAVOK 16/M03 Q1027', 'DAUA 031900Z 03010KT CAVOK 17/M03 Q1026', 'DAUA 031800Z 03008KT CAVOK 20/M04 Q1026', 'DAUA 031700Z 03014KT CAVOK 22/M02 Q1025', 'DAUA 031600Z 04011KT CAVOK 22/M03 Q1025', 'DAUA 031500Z 03018KT CAVOK 22/M02 Q1025', 'DAUA 031400Z 04016KT CAVOK 23/M02 Q1026', 'DAUA 031300Z 06018KT CAVOK 21/M03 Q1026', 'DAUA 031200Z 04015KT CAVOK 20/M02 Q1027', 'DAUA 031100Z 02010KT CAVOK 17/M03 Q1028', 'DAUA 031000Z 01011KT CAVOK 14/M05 Q1028', 'DAUA 030900Z 03010KT CAVOK 10/M06 Q1027', 'DAUA 030800Z 02006KT CAVOK 05/M09 Q1026', 'DAUA 030700Z 02008KT CAVOK 04/M09 Q1026', 'DAUA 030600Z 03010KT CAVOK 05/M08 Q1025', 'DAUA 030500Z 05011KT CAVOK 06/M08 Q1025', 'DAUA 030400Z 04009KT CAVOK 05/M09 Q1024', 'DAUA 030300Z 04010KT CAVOK 06/M08 Q1025', 'DAUA 030200Z 03011KT CAVOK 07/M08 Q1025', 'DAUA 030100Z 04010KT CAVOK 09/M08 Q1025', 'DAUA 030000Z 02012KT CAVOK 09/M08 Q1025', 'DAUA 022300Z 03010KT CAVOK 11/M07 Q1026', 'DAUA 022200Z 01011KT CAVOK 12/M08 Q1025', 'DAUA 022000Z 01011KT CAVOK 13/M09 Q1025', 'DAUA 021900Z 03010KT CAVOK 16/M08 Q1024', 'DAUA 021800Z 02011KT CAVOK 18/M07 Q1024', 'DAUA 021700Z 04015KT CAVOK 21/M09 Q1024', 'DAUA 021600Z 02014KT CAVOK 22/M09 Q1024', 'DAUA 021500Z 03015KT CAVOK 22/M10 Q1025', 'DAUA 021400Z 02010KT CAVOK 21/M08 Q1025', 'DAUA 021300Z 01012KT CAVOK 20/M06 Q1026', 'DAUA 021200Z 02010KT CAVOK 18/M03 Q1028', 'DAUA 021100Z 03011KT CAVOK 15/M03 Q1029', 'DAUA 021000Z 04012KT CAVOK 12/M02 Q1029', 'DAUA 020900Z 02011KT CAVOK 09/M03 Q1028', 'DAUA 020800Z 02012KT CAVOK 05/M03 Q1028', 'DAUA 020700Z 01011KT CAVOK 03/M04 Q1027', 'DAUA 020600Z 01010KT CAVOK 04/M05 Q1027', 'DAUA 020500Z 01009KT CAVOK 05/M05 Q1026', 'DAUA 020400Z 01008KT CAVOK 05/M05 Q1026', 'DAUA 020300Z 02007KT CAVOK 07/M05 Q1026', 'DAUA 020200Z 02009KT CAVOK 09/M04 Q1026', 'DAUA 020100Z 04008KT CAVOK 10/M05 Q1027', 'DAUA 020000Z 03014KT CAVOK 12/M04 Q1027', 'DAUA 012300Z 02012KT CAVOK 14/M05 Q1027', 'DAUA 012100Z 02014KT CAVOK 15/M07 Q1027', 'DAUA 012000Z 03012KT CAVOK 17/M07 Q1026', 'DAUA 011900Z 02012KT CAVOK 18/M07 Q1026', 'DAUA 011800Z 02012KT CAVOK 20/M07 Q1025', 'DAUA 011700Z 03014KT CAVOK 22/M06 Q1025', 'DAUA 011600Z 02014KT CAVOK 22/M04 Q1025', 'DAUA 011500Z 02016KT CAVOK 22/M03 Q1025', 'DAUA 011400Z 05010KT CAVOK 21/M03 Q1026', 'DAUA 011300Z 04016KT CAVOK 19/M03 Q1027', 'DAUA 011100Z 05017KT CAVOK 16/M02 Q1029', 'DAUA 011000Z 04016KT CAVOK 14/M02 Q1029', 'DAUA 010900Z 05018KT CAVOK 11/M02 Q1029', 'DAUA 010800Z 03010KT CAVOK 07/M03 Q1029', 'DAUA 010700Z 02009KT CAVOK 06/M04 Q1028', 'DAUA 010600Z 02012KT CAVOK 07/M04 Q1027', 'DAUA 010500Z 02012KT CAVOK 08/M03 Q1027', 'DAUA 010400Z 02010KT CAVOK 08/M04 Q1027', 'DAUA 010300Z 03010KT CAVOK 09/M04 Q1027', 'DAUA 010200Z 03015KT CAVOK 10/M04 Q1027', 'DAUA 010100Z 04011KT CAVOK 11/M04 Q1027', 'DAUA 010000Z 03012KT CAVOK 12/M04 Q1017', 'DAUA 312300Z 03013KT CAVOK 13/M05 Q1027']","['2024-02-03 21:00:00', '2024-02-03 20:00:00', '2024-02-03 19:00:00', '2024-02-03 18:00:00', '2024-02-03 17:00:00', '2024-02-03 16:00:00', '2024-02-03 15:00:00', '2024-02-03 14:00:00', '2024-02-03 13:00:00', '2024-02-03 12:00:00', '2024-02-03 11:00:00', '2024-02-03 10:00:00', '2024-02-03 09:00:00', '2024-02-03 08:00:00', '2024-02-03 07:00:00', '2024-02-03 06:00:00', '2024-02-03 05:00:00', '2024-02-03 04:00:00', '2024-02-03 03:00:00', '2024-02-03 02:00:00', '2024-02-03 01:00:00', '2024-02-03 00:00:00', '2024-02-02 23:00:00', '2024-02-02 22:00:00', '2024-02-02 20:00:00', '2024-02-02 19:00:00', '2024-02-02 18:00:00', '2024-02-02 17:00:00', '2024-02-02 16:00:00', '2024-02-02 15:00:00', '2024-02-02 14:00:00', '2024-02-02 13:00:00', '2024-02-02 12:00:00', '2024-02-02 11:00:00', '2024-02-02 10:00:00', '2024-02-02 09:00:00', '2024-02-02 08:00:00', '2024-02-02 07:00:00', '2024-02-02 06:00:00', '2024-02-02 05:00:00', '2024-02-02 04:00:00', '2024-02-02 03:00:00', '2024-02-02 02:00:00', '2024-02-02 01:00:00', '2024-02-02 00:00:00', '2024-02-01 23:00:00', '2024-02-01 21:00:00', '2024-02-01 20:00:00', '2024-02-01 19:00:00', '2024-02-01 18:00:00', '2024-02-01 17:00:00', '2024-02-01 16:00:00', '2024-02-01 15:00:00', '2024-02-01 14:00:00', '2024-02-01 13:00:00', '2024-02-01 11:00:00', '2024-02-01 10:00:00', '2024-02-01 09:00:00', '2024-02-01 08:00:00', '2024-02-01 07:00:00', '2024-02-01 06:00:00', '2024-02-01 05:00:00', '2024-02-01 04:00:00', '2024-02-01 03:00:00', '2024-02-01 02:00:00', '2024-02-01 01:00:00', '2024-02-01 00:00:00', '2024-01-31 23:00:00']"
Algeria, Algiers Houari Boumediene Airport (ALG/DAAG) ,"['DAAG 032130Z 17002KT 9999 FEW026 08/07 Q1033', 'DAAG 032100Z 00000KT 9999 FEW026 09/08 Q1033', 'DAAG 032030Z VRB01KT 9999 FEW026 11/10 Q1033', 'DAAG 032000Z VRB02KT 9999 FEW026 10/09 Q1033', 'DAAG 031930Z 00000KT 9999 FEW026 12/10 Q1033', 'DAAG 031900Z 08004KT 9999 FEW026 12/11 Q1033', 'DAAG 031830Z 07006KT 9999 FEW026 13/10 Q1033', 'DAAG 031800Z 07007KT 9999 FEW026 13/10 Q1032', 'DAAG 031730Z 07007KT 9999 FEW026 14/11 Q1032', 'DAAG 031700Z 06009KT 9999 FEW026 15/11 Q1032', 'DAAG 031630Z 05009KT 9999 FEW026 16/11 Q1032', 'DAAG 031600Z 06011KT 9999 FEW026 16/11 Q1032', 'DAAG 031530Z 06009KT 9999 FEW026 17/11 Q1032', 'DAAG 031500Z 07010KT 030V090 9999 FEW026 17/11 Q1032', 'DAAG 031430Z 07012KT 9999 FEW026 17/11 Q1032', 'DAAG 031400Z 06011KT 9999 FEW026 17/10 Q1032', 'DAAG 031330Z 05010KT 9999 FEW026 17/10 Q1032', 'DAAG 031300Z 06009KT 030V090 9999 FEW026 17/10 Q1032', 'DAAG 031230Z 03009KT 9999 FEW030 17/10 Q1033', 'DAAG 031200Z 04008KT 010V080 9999 FEW030 17/10 Q1033', 'DAAG 031130Z 05008KT 020V080 9999 FEW030 17/10 Q1034', 'DAAG 031100Z 05005KT 010V080 9999 FEW026 17/09 Q1034', 'DAAG 031030Z 03005KT 010V080 9999 FEW026 17/09 Q1034', 'DAAG 031000Z 05003KT 020V110 9999 FEW026 16/09 Q1034', 'DAAG 030930Z VRB02KT 9999 FEW026 SCT053 15/10 Q1034', 'DAAG 030900Z VRB02KT 9000 FEW026 SCT053 14/10 Q1034', 'DAAG 030830Z 21003KT 170V260 8000 FEW026 SCT053 12/09 Q1033', 'DAAG 030800Z 21003KT 7000 FEW026 BKN046 10/09 Q1033', 'DAAG 030730Z 24002KT 7000 FEW026 BKN046 09/08 Q1033', 'DAAG 030700Z 21004KT 6000 FEW026 BKN046 08/07 Q1033', 'DAAG 030630Z 22004KT 8000 FEW026 SCT050 08/07 Q1033', 'DAAG 030600Z 21004KT 7000 FEW023 08/07 Q1032', 'DAAG 030530Z 17001KT 7000 FEW023 09/08 Q1032', 'DAAG 030500Z 20002KT 9000 FEW023 09/08 Q1032', 'DAAG 030430Z 16002KT 8000 FEW023 SCT044 09/08 Q1032', 'DAAG 030400Z 00000KT 8000 FEW023 SCT073 10/09 Q1032', 'DAAG 030330Z 22003KT 8000 FEW023 SCT050 09/08 Q1032', 'DAAG 030300Z 21004KT 9999 FEW023 BKN046 10/09 Q1032', 'DAAG 030200Z 19004KT 9999 FEW023 BKN040 10/09 Q1032', 'DAAG 030130Z 19003KT 9999 FEW026 BKN046 09/08 Q1032', 'DAAG 030100Z 25002KT 9999 FEW026 BKN046 10/09 Q1032', 'DAAG 030030Z 22002KT 9999 FEW026 BKN046 10/09 Q1032', 'DAAG 030000Z 24003KT 9999 FEW026 BKN046 10/09 Q1032', 'DAAG 022330Z 24003KT 9999 FEW026 BKN046 11/09 Q1032', 'DAAG 022300Z 22003KT 9999 FEW026 BKN046 10/09 Q1032', 'DAAG 022230Z 22004KT 9000 FEW026 BKN046 12/10 Q1032', 'DAAG 022200Z 22002KT 9999 FEW026 BKN046 12/10 Q1032', 'DAAG 022130Z 08001KT 9999 FEW026 BKN046 12/10 Q1032', 'DAAG 022030Z 04004KT 010V070 9999 FEW026 BKN046 15/10 Q1032', 'DAAG 022000Z 34003KT 9999 FEW026 BKN046 15/09 Q1032', 'DAAG 021900Z 35002KT 9999 FEW026 BKN046 15/10 Q1032', 'DAAG 021830Z 36003KT 9999 FEW026 BKN046 15/09 Q1032', 'DAAG 021800Z 01004KT 340V040 9999 FEW026 BKN046 15/09 Q1032', 'DAAG 021730Z 35004KT 9999 FEW026 BKN046 15/10 Q1031', 'DAAG 021700Z 35005KT 9999 FEW026 BKN046 15/09 Q1031', 'DAAG 021630Z 36007KT 9999 FEW026 SCT050 16/10 Q1031', 'DAAG 021600Z 01009KT 9999 FEW026 SCT040 16/09 Q1031', 'DAAG 021530Z 34006KT 310V010 9999 FEW026 BKN040 15/09 Q1031', 'DAAG 021500Z 34007KT 310V010 9999 FEW026 BKN036 16/08 Q1031', 'DAAG 021430Z 35007KT 9999 FEW023 BKN040 16/08 Q1031', 'DAAG 021400Z VRB05KT 9999 FEW026 SCT040 16/08 Q1032', 'DAAG 021330Z VRB03KT 9999 FEW023 SCT040 16/10 Q1032', 'DAAG 021300Z VRB02KT 9999 FEW023 BKN040 15/09 Q1032', 'DAAG 021230Z 01003KT 330V060 9999 FEW023 BKN040 15/08 Q1032', 'DAAG 021200Z 10003KT 050V150 9999 FEW020 SCT040 15/09 Q1033', 'DAAG 021130Z VRB01KT 9999 FEW020 SCT040 15/09 Q1033', 'DAAG 021100Z VRB02KT 9999 FEW020 SCT040 15/10 Q1033', 'DAAG 021030Z VRB02KT 8000 FEW020 SCT040 14/09 Q1033', 'DAAG 021000Z VRB02KT 8000 FEW020 SCT040 13/09 Q1033', 'DAAG 020930Z 26003KT 230V310 8000 FEW020 SCT040 12/08 Q1033', 'DAAG 020900Z 28003KT 6000 FEW020 SCT040 11/08 Q1033', 'DAAG 020830Z 25004KT 6000 FEW020 SCT040 09/07 Q1032', 'DAAG 020800Z 21005KT 6000 FEW020 SCT040 08/07 Q1032', 'DAAG 020730Z 23002KT 4000 BR FEW015 SCT040 07/06 Q1032', 'DAAG 020700Z 20003KT 3000 BR FEW010 SCT040 06/05 Q1032', 'DAAG 020630Z 17003KT 6000 FEW010 04/04 Q1032', 'DAAG 020600Z 12003KT 6000 FEW010 05/05 Q1032', 'DAAG 020530Z 19003KT 6000 FEW010 05/04 Q1031', 'DAAG 020500Z 21003KT 6000 FEW010 06/06 Q1031', 'DAAG 020430Z 20004KT 6000 FEW008 05/04 Q1031', 'DAAG 020400Z 21003KT 6000 FEW008 05/04 Q1031', 'DAAG 020330Z 21003KT 4000 BR FEW008 05/05 Q1031', 'DAAG 020300Z 19003KT 3000 BR FEW008 06/05 Q1031', 'DAAG 020230Z 14002KT 3000 BR FEW008 05/04 Q1031', 'DAAG 020200Z 19002KT 3000 BR FEW008 08/07 Q1031', 'DAAG 020130Z 26001KT 4000 BR FEW008 07/07 Q1032', 'DAAG 020100Z 22005KT 4000 BR FEW008 07/06 Q1033', 'DAAG 020030Z 18003KT 3000 BR FEW006 06/06 Q1033', 'DAAG 020000Z 09002KT 0900 R23/P2000N R27/2000N FG FEW006 07/07 Q1033', 'DAAG 012330Z 00000KT 0900 R23/P2000N R27/0650N FG FEW006 07/07 Q1033', 'DAAG 012300Z 00000KT 0800 R23/P2000N R27/P2000N FG FEW010 07/07 Q1033', 'DAAG 012230Z 19002KT 6000 FEW016 08/07 Q1033', 'DAAG 012200Z 15003KT 8000 FEW020 08/07 Q1033', 'DAAG 012130Z 10003KT 8000 FEW020 08/07 Q1033', 'DAAG 012100Z 07002KT 8000 FEW023 10/08 Q1033', 'DAAG 012030Z 18002KT 8000 FEW023 10/08 Q1033', 'DAAG 012000Z 18003KT 9999 FEW023 10/08 Q1033', 'DAAG 011930Z 10002KT 9999 FEW023 11/09 Q1033', 'DAAG 011900Z 08002KT 9999 FEW023 12/09 Q1033', 'DAAG 011830Z 07003KT 9999 FEW023 13/10 Q1033', 'DAAG 011800Z 06004KT 9999 FEW023 13/09 Q1033', 'DAAG 011730Z 06004KT 9999 FEW023 13/10 Q1032', 'DAAG 011700Z 06005KT 9999 FEW023 15/10 Q1032', 'DAAG 011630Z 05005KT 9999 FEW023 15/10 Q1033', 'DAAG 011600Z 05006KT 9999 SCT023 15/10 Q1033', 'DAAG 011530Z 03007KT 360V110 9999 SCT023 16/09 Q1033', 'DAAG 011500Z 04007KT 9999 SCT023 16/09 Q1033', 'DAAG 011430Z 06004KT 030V090 9999 SCT023 16/09 Q1033', 'DAAG 011400Z 07005KT 020V110 9999 SCT023 16/10 Q1033', 'DAAG 011330Z 07008KT 040V100 9999 FEW023 BKN050 16/10 Q1033', 'DAAG 011300Z 04009KT 9999 FEW020 BKN050 16/10 Q1034', 'DAAG 011230Z 06009KT 9999 FEW023 BKN050 16/10 Q1034', 'DAAG 011200Z 04009KT 9999 FEW020 BKN050 16/10 Q1034', 'DAAG 011130Z 05007KT 8000 FEW020 BKN040 16/11 Q1035', 'DAAG 011100Z 04007KT 4000 BR SCT010 BKN040 16/12 Q1035', 'DAAG 011030Z VRB02KT 3000 BR SCT010 BKN040 16/11 Q1035', 'DAAG 011000Z 25005KT 3000 BR SCT010 BKN040 15/11 Q1035', 'DAAG 010930Z 25004KT 3000 BR SCT010 BKN040 15/11 Q1034', 'DAAG 010900Z 23003KT 3000 BR SCT010 BKN040 14/11 Q1034', 'DAAG 010830Z VRB02KT 3000 BR SCT010 BKN040 14/11 Q1034', 'DAAG 010800Z 23003KT 2000 BR FEW020 BKN040 13/11 Q1034', 'DAAG 010730Z 23004KT 4000 BR FEW020 BKN040 13/11 Q1034', 'DAAG 010700Z 20003KT 4500 BR FEW020 BKN040 13/12 Q1033', 'DAAG 010630Z 21003KT 5000 FEW020 BKN040 13/11 Q1033', 'DAAG 010600Z 21003KT 6000 FEW020 BKN040 13/11 Q1033', 'DAAG 010530Z 21003KT 6000 FEW020 BKN040 13/12 Q1033', 'DAAG 010500Z 22003KT 6000 FEW020 BKN040 13/12 Q1033', 'DAAG 010430Z 19002KT 6000 FEW020 BKN040 13/12 Q1033', 'DAAG 010400Z 19002KT 6000 FEW020 BKN040 13/11 Q1033', 'DAAG 010330Z 17002KT 6000 FEW020 BKN040 13/12 Q1033', 'DAAG 010300Z 00000KT 6000 FEW020 BKN040 13/12 Q1033', 'DAAG 010230Z 11001KT 6000 FEW020 BKN040 13/12 Q1033', 'DAAG 010200Z 00000KT 6000 FEW020 BKN040 14/12 Q1033', 'DAAG 010130Z VRB01KT 6000 FEW020 BKN036 14/12 Q1033', 'DAAG 010100Z 20003KT 6000 FEW020 BKN036 13/12 Q1033', 'DAAG 010030Z 20001KT 6000 FEW020 BKN036 14/12 Q1033', 'DAAG 010000Z 00000KT 6000 FEW020 BKN036 14/12 Q1034', 'DAAG 312330Z 19002KT 6000 FEW020 BKN036 14/12 Q1034', 'DAAG 312300Z 00000KT 6000 FEW020 BKN036 15/12 Q1034', 'DAAG 312230Z VRB01KT 6000 FEW023 BKN036 15/12 Q1034']","['2024-02-03 21:30:00', '2024-02-03 21:00:00', '2024-02-03 20:30:00', '2024-02-03 20:00:00', '2024-02-03 19:30:00', '2024-02-03 19:00:00', '2024-02-03 18:30:00', '2024-02-03 18:00:00', '2024-02-03 17:30:00', '2024-02-03 17:00:00', '2024-02-03 16:30:00', '2024-02-03 16:00:00', '2024-02-03 15:30:00', '2024-02-03 15:00:00', '2024-02-03 14:30:00', '2024-02-03 14:00:00', '2024-02-03 13:30:00', '2024-02-03 13:00:00', '2024-02-03 12:30:00', '2024-02-03 12:00:00', '2024-02-03 11:30:00', '2024-02-03 11:00:00', '2024-02-03 10:30:00', '2024-02-03 10:00:00', '2024-02-03 09:30:00', '2024-02-03 09:00:00', '2024-02-03 08:30:00', '2024-02-03 08:00:00', '2024-02-03 07:30:00', '2024-02-03 07:00:00', '2024-02-03 06:30:00', '2024-02-03 06:00:00', '2024-02-03 05:30:00', '2024-02-03 05:00:00', '2024-02-03 04:30:00', '2024-02-03 04:00:00', '2024-02-03 03:30:00', '2024-02-03 03:00:00', '2024-02-03 02:00:00', '2024-02-03 01:30:00', '2024-02-03 01:00:00', '2024-02-03 00:30:00', '2024-02-03 00:00:00', '2024-02-02 23:30:00', '2024-02-02 23:00:00', '2024-02-02 22:30:00', '2024-02-02 22:00:00', '2024-02-02 21:30:00', '2024-02-02 20:30:00', '2024-02-02 20:00:00', '2024-02-02 19:00:00', '2024-02-02 18:30:00', '2024-02-02 18:00:00', '2024-02-02 17:30:00', '2024-02-02 17:00:00', '2024-02-02 16:30:00', '2024-02-02 16:00:00', '2024-02-02 15:30:00', '2024-02-02 15:00:00', '2024-02-02 14:30:00', '2024-02-02 14:00:00', '2024-02-02 13:30:00', '2024-02-02 13:00:00', '2024-02-02 12:30:00', '2024-02-02 12:00:00', '2024-02-02 11:30:00', '2024-02-02 11:00:00', '2024-02-02 10:30:00', '2024-02-02 10:00:00', '2024-02-02 09:30:00', '2024-02-02 09:00:00', '2024-02-02 08:30:00', '2024-02-02 08:00:00', '2024-02-02 07:30:00', '2024-02-02 07:00:00', '2024-02-02 06:30:00', '2024-02-02 06:00:00', '2024-02-02 05:30:00', '2024-02-02 05:00:00', '2024-02-02 04:30:00', '2024-02-02 04:00:00', '2024-02-02 03:30:00', '2024-02-02 03:00:00', '2024-02-02 02:30:00', '2024-02-02 02:00:00', '2024-02-02 01:30:00', '2024-02-02 01:00:00', '2024-02-02 00:30:00', '2024-02-02 00:00:00', '2024-02-01 23:30:00', '2024-02-01 23:00:00', '2024-02-01 22:30:00', '2024-02-01 22:00:00', '2024-02-01 21:30:00', '2024-02-01 21:00:00', '2024-02-01 20:30:00', '2024-02-01 20:00:00', '2024-02-01 19:30:00', '2024-02-01 19:00:00', '2024-02-01 18:30:00', '2024-02-01 18:00:00', '2024-02-01 17:30:00', '2024-02-01 17:00:00', '2024-02-01 16:30:00', '2024-02-01 16:00:00', '2024-02-01 15:30:00', '2024-02-01 15:00:00', '2024-02-01 14:30:00', '2024-02-01 14:00:00', '2024-02-01 13:30:00', '2024-02-01 13:00:00', '2024-02-01 12:30:00', '2024-02-01 12:00:00', '2024-02-01 11:30:00', '2024-02-01 11:00:00', '2024-02-01 10:30:00', '2024-02-01 10:00:00', '2024-02-01 09:30:00', '2024-02-01 09:00:00', '2024-02-01 08:30:00', '2024-02-01 08:00:00', '2024-02-01 07:30:00', '2024-02-01 07:00:00', '2024-02-01 06:30:00', '2024-02-01 06:00:00', '2024-02-01 05:30:00', '2024-02-01 05:00:00', '2024-02-01 04:30:00', '2024-02-01 04:00:00', '2024-02-01 03:30:00', '2024-02-01 03:00:00', '2024-02-01 02:30:00', '2024-02-01 02:00:00', '2024-02-01 01:30:00', '2024-02-01 01:00:00', '2024-02-01 00:30:00', '2024-02-01 00:00:00', '2024-01-31 23:30:00', '2024-01-31 23:00:00', '2024-01-31 22:30:00']"
Algeria, Annaba Rabah Bitat Airport (AAE/DABB) ,"['DABB 032130Z 24004KT 8000 FEW020 10/10 Q1033', 'DABB 032100Z 26004KT 9999 FEW020 10/10 Q1033', 'DABB 032030Z VRB02KT 9999 FEW020 11/10 Q1033', 'DABB 032000Z VRB02KT 9999 FEW020 11/10 Q1033', 'DABB 031930Z 32004KT 9999 FEW020 11/10 Q1033', 'DABB 031900Z 36007KT 9999 FEW020 13/10 Q1033', 'DABB 031830Z 36009KT 9999 FEW020 14/11 Q1032', 'DABB 031800Z 36010KT 9999 FEW020 14/11 Q1032', 'DABB 031730Z 36008KT 9999 FEW020 14/11 Q1032', 'DABB 031700Z 36010KT 9999 FEW020 14/11 Q1032', 'DABB 031630Z 36010KT 9999 FEW020 15/11 Q1031', 'DABB 031600Z 01010KT 9999 FEW020 15/11 Q1031', 'DABB 031530Z 01010KT 9999 FEW020 16/11 Q1031', 'DABB 031500Z 02008KT 9999 FEW020 16/12 Q1031', 'DABB 031430Z 02008KT 9999 FEW020 16/12 Q1031', 'DABB 031400Z 02008KT 9999 FEW020 17/12 Q1031', 'DABB 031330Z 03006KT 9999 FEW020 16/11 Q1031', 'DABB 031300Z 03005KT 9999 FEW020 FEW023TCU SCT200 15/11 Q1031', 'DABB 031230Z 04005KT 9999 FEW020 FEW023TCU BKN200 18/10 Q1032', 'DABB 031200Z 06003KT 9999 FEW020 FEW023TCU BKN200 17/09 Q1032', 'DABB 031130Z 00000KT 9999 FEW020 FEW023TCU BKN200 16/10 Q1032', 'DABB 031100Z VRB02KT 9999 FEW020 FEW023TCU BKN200 16/11 Q1033', 'DABB 031030Z 25006KT 9999 FEW020 FEW023TCU SCT200 16/12 Q1033', 'DABB 031000Z 24006KT 9999 FEW020 FEW023TCU SCT200 15/12 Q1033', 'DABB 030930Z 24008KT 9999 FEW020 FEW023TCU 14/12 Q1033', 'DABB 030900Z 23006KT 9999 FEW020 FEW023TCU 13/12 Q1033', 'DABB 030830Z 24006KT 7000 FEW020 FEW023TCU 12/11 Q1032', 'DABB 030800Z 23003KT 7000 FEW020 FEW023TCU 11/10 Q1032', 'DABB 030730Z 21003KT 6000 FEW020 SCT033 09/08 Q1032', 'DABB 030700Z 23003KT 6000 FEW020 SCT033 08/07 Q1031', 'DABB 030630Z 22002KT 6000 FEW020 08/07 Q1031', 'DABB 030600Z 23005KT 8000 FEW020 08/07 Q1031', 'DABB 030530Z 22004KT 8000 FEW020 08/07 Q1031', 'DABB 030500Z 24004KT 8000 FEW020 SCT033 08/07 Q1030', 'DABB 030400Z 21005KT 8000 FEW020 SCT033 09/08 Q1031', 'DABB 030330Z 18003KT 8000 FEW020 SCT033 09/08 Q1030', 'DABB 030300Z 18004KT 6000 FEW020 SCT033 08/06 Q1030', 'DABB 030230Z 19003KT 140V260 4000 BR FEW020 SCT033 09/08 Q1030', 'DABB 030200Z VRB02KT 9999 FEW020 SCT033 09/08 Q1030', 'DABB 030130Z 24003KT 9999 FEW020 SCT033 10/09 Q1030', 'DABB 030100Z 23003KT 9999 FEW020 SCT033 10/09 Q1030', 'DABB 030030Z 19003KT 9999 FEW020 SCT033 10/09 Q1030', 'DABB 030000Z 24002KT 9999 FEW020 SCT033 10/09 Q1030', 'DABB 022330Z VRB01KT 9999 FEW020 SCT033 11/10 Q1030', 'DABB 022300Z 20002KT 9999 FEW020 SCT033 11/10 Q1030', 'DABB 022230Z 00000KT 9999 FEW020 SCT030 11/10 Q1030', 'DABB 022200Z 24001KT 9999 FEW020 SCT033 11/10 Q1030', 'DABB 022130Z 24002KT 9999 FEW020 SCT033 11/10 Q1030', 'DABB 022030Z 11002KT 8000 FEW020 SCT033 12/11 Q1029', 'DABB 022000Z 12004KT 8000 FEW020 SCT033 13/11 Q1029', 'DABB 021900Z 04008KT 8000 FEW020 SCT033 14/11 Q1029', 'DABB 021830Z 03010KT 8000 FEW020 SCT033 14/12 Q1028', 'DABB 021800Z 01010KT 8000 FEW020 SCT033 14/11 Q1028', 'DABB 021730Z 01010KT 7000 FEW020 SCT033 14/11 Q1028', 'DABB 021700Z 01010KT 7000 FEW020 SCT033 14/11 Q1028', 'DABB 021630Z 01011KT 7000 FEW020 FEW023TCU SCT033 15/11 Q1027', 'DABB 021600Z 35007KT 7000 FEW020 FEW023TCU BKN033 14/11 Q1027', 'DABB 021530Z 34008KT 7000 FEW020 FEW023TCU BKN033 14/11 Q1027', 'DABB 021500Z 33011KT 7000 -RA FEW020 FEW023TCU BKN033 13/11 Q1026', 'DABB 021430Z VRB01KT 5000 -RA FEW020 BKN033 14/11 Q1026', 'DABB 021400Z 31009KT 6000 -RA FEW020 BKN033 14/10 Q1026', 'DABB 021330Z 31007KT 5000 -RA FEW020 BKN033 14/11 Q1026', 'DABB 021300Z 32013KT 7000 FEW020 BKN033 14/12 Q1026', 'DABB 021230Z VRB04KT 7000 -RA FEW020 BKN033 14/13 Q1027', 'DABB 021200Z 24007KT 7000 -RA FEW020 BKN033 13/13 Q1027 RERA', 'DABB 021130Z 25011KT 2000 RA FEW020 BKN033 13/12 Q1027', 'DABB 021100Z 25010KT 6000 FEW020 BKN033 13/12 Q1028', 'DABB 021030Z 25008KT 6000 -RA FEW020 BKN033 13/12 Q1028 RERA', 'DABB 021000Z 26006KT 2000 RA FEW020 BKN033 13/11 Q1028', 'DABB 020930Z 23009KT 6000 -RA FEW020 BKN033 12/11 Q1028', 'DABB 020900Z 24006KT 3000 -RA FEW020 BKN033 12/11 Q1028', 'DABB 020830Z 26009KT 5000 -RA FEW020 BKN033 13/10 Q1027', 'DABB 020800Z 24009KT 7000 FEW020 BKN033 12/11 Q1027', 'DABB 020730Z 24010KT 7000 FEW020 BKN033 12/11 Q1027', 'DABB 020700Z 24007KT 7000 FEW020 BKN040 12/11 Q1027', 'DABB 020630Z 27008KT 7000 FEW020 SCT033 BKN100 12/10 Q1027', 'DABB 020600Z 27010KT 9999 FEW020 SCT033 12/09 Q1027', 'DABB 020530Z 23010KT 9999 FEW020 SCT033 12/09 Q1027', 'DABB 020500Z 24010KT 9999 FEW020 SCT033 12/09 Q1027', 'DABB 020430Z 24011KT 9999 FEW020 SCT033 12/09 Q1027', 'DABB 020400Z 24012KT 9999 FEW020 SCT033 12/09 Q1027', 'DABB 020330Z 25010KT 9999 FEW020 SCT033 12/09 Q1028', 'DABB 020300Z 25010KT 9999 FEW020 SCT033 12/09 Q1028', 'DABB 020230Z 26010KT 9999 FEW020 SCT033 13/09 Q1028', 'DABB 020200Z 27011KT 9999 FEW020 SCT033 12/09 Q1028', 'DABB 020130Z 27011KT 9999 FEW020 SCT033 12/08 Q1029', 'DABB 020100Z 28011KT 9999 FEW020 SCT033 12/09 Q1029', 'DABB 020030Z 27010KT 9999 FEW020 SCT033 12/09 Q1029', 'DABB 020000Z 28009KT 9999 FEW020 SCT033 12/09 Q1029', 'DABB 012330Z 27009KT 9999 FEW020 SCT033 13/09 Q1029', 'DABB 012300Z 24010KT 9999 FEW020 SCT033 12/09 Q1030', 'DABB 012230Z 25008KT 9999 FEW020 SCT033 12/09 Q1030', 'DABB 012200Z 22008KT 9999 FEW020 SCT033 12/09 Q1030', 'DABB 012130Z 23006KT 9999 FEW020 SCT033 12/09 Q1030', 'DABB 012100Z 22004KT 190V250 9999 FEW020 SCT033 12/09 Q1030', 'DABB 012030Z 25003KT 9999 FEW020 SCT033 13/08 Q1030', 'DABB 012000Z VRB02KT 9999 FEW020 SCT033 13/08 Q1031', 'DABB 011930Z VRB02KT 9999 FEW020 SCT033 11/08 Q1030', 'DABB 011900Z 24003KT 9999 FEW020 SCT033 12/08 Q1030', 'DABB 011830Z VRB02KT 9999 FEW020 BKN033 12/08 Q1030', 'DABB 011800Z VRB02KT 9999 FEW020 BKN033 13/08 Q1030', 'DABB 011730Z 34003KT 9999 FEW020 BKN033 14/08 Q1030', 'DABB 011700Z 35007KT 310V100 9999 FEW020 BKN033 14/08 Q1030', 'DABB 011630Z 36011KT 9999 FEW020 SCT033 14/08 Q1030', 'DABB 011600Z 35006KT 320V030 9999 FEW020 SCT033 15/09 Q1030', 'DABB 011530Z 01003KT 340V060 9999 FEW020 SCT033 15/08 Q1030', 'DABB 011500Z 35007KT 9999 FEW020 BKN033 15/09 Q1031', 'DABB 011430Z 00000KT 9999 FEW020 BKN033 15/08 Q1031', 'DABB 011400Z 35006KT 9999 FEW020 BKN033 15/08 Q1031', 'DABB 011330Z 36009KT 9999 FEW020 BKN033 15/08 Q1031', 'DABB 011300Z 01006KT 9999 FEW020 BKN033 15/08 Q1032', 'DABB 011230Z 36007KT 9999 FEW020 BKN033 15/08 Q1032', 'DABB 011200Z 01005KT 9999 FEW020 BKN040 15/08 Q1032', 'DABB 011130Z 02005KT 350V060 9999 FEW020 BKN033 15/08 Q1033', 'DABB 011100Z 36005KT 9999 FEW020 BKN040 15/08 Q1033', 'DABB 011030Z 36006KT 9999 FEW020 BKN033 15/08 Q1033', 'DABB 011000Z 35006KT 9999 FEW020 BKN033 14/08 Q1034', 'DABB 010930Z 36005KT 9999 FEW020 BKN033 14/09 Q1033', 'DABB 010900Z 35005KT 8000 FEW020 BKN033 14/11 Q1033', 'DABB 010830Z VRB01KT 8000 FEW020 BKN033 13/11 Q1033', 'DABB 010800Z VRB01KT 8000 FEW020 BKN033 13/11 Q1033', 'DABB 010730Z 25003KT 8000 FEW020 BKN033 12/11 Q1032', 'DABB 010700Z 24003KT 8000 FEW020 BKN033 12/11 Q1032', 'DABB 010630Z VRB01KT 8000 FEW020 BKN033 12/11 Q1032', 'DABB 010600Z VRB02KT 8000 FEW016 BKN033 12/11 Q1032', 'DABB 010530Z 23003KT 8000 FEW016 BKN033 12/11 Q1032', 'DABB 010500Z 34003KT 8000 FEW016 BKN033 12/11 Q1032', 'DABB 010430Z 23003KT 6000 FEW016 BKN033 12/11 Q1032', 'DABB 010400Z 23003KT 6000 FEW016 BKN033 12/11 Q1032', 'DABB 010330Z 00000KT 6000 FEW016 BKN033 12/11 Q1032', 'DABB 010300Z VRB01KT 6000 FEW016 BKN033 12/11 Q1032', 'DABB 010230Z 23001KT 6000 FEW016 BKN033 12/11 Q1032', 'DABB 010200Z 00000KT 6000 FEW016 BKN033 12/11 Q1032', 'DABB 010130Z 00000KT 6000 FEW016 BKN033 12/11 Q1032', 'DABB 010100Z 00000KT 6000 FEW016 BKN033 13/11 Q1032', 'DABB 010030Z VRB01KT 6000 FEW016 BKN033 13/11 Q1033', 'DABB 010000Z VRB02KT 6000 FEW016 BKN033 13/12 Q1033', 'DABB 312330Z 25002KT 6000 FEW016 BKN033 13/11 Q1033', 'DABB 312300Z VRB01KT 6000 FEW016 BKN033 13/11 Q1033', 'DABB 312230Z VRB01KT 6000 FEW016 BKN033 13/12 Q1033']","['2024-02-03 21:30:00', '2024-02-03 21:00:00', '2024-02-03 20:30:00', '2024-02-03 20:00:00', '2024-02-03 19:30:00', '2024-02-03 19:00:00', '2024-02-03 18:30:00', '2024-02-03 18:00:00', '2024-02-03 17:30:00', '2024-02-03 17:00:00', '2024-02-03 16:30:00', '2024-02-03 16:00:00', '2024-02-03 15:30:00', '2024-02-03 15:00:00', '2024-02-03 14:30:00', '2024-02-03 14:00:00', '2024-02-03 13:30:00', '2024-02-03 13:00:00', '2024-02-03 12:30:00', '2024-02-03 12:00:00', '2024-02-03 11:30:00', '2024-02-03 11:00:00', '2024-02-03 10:30:00', '2024-02-03 10:00:00', '2024-02-03 09:30:00', '2024-02-03 09:00:00', '2024-02-03 08:30:00', '2024-02-03 08:00:00', '2024-02-03 07:30:00', '2024-02-03 07:00:00', '2024-02-03 06:30:00', '2024-02-03 06:00:00', '2024-02-03 05:30:00', '2024-02-03 05:00:00', '2024-02-03 04:00:00', '2024-02-03 03:30:00', '2024-02-03 03:00:00', '2024-02-03 02:30:00', '2024-02-03 02:00:00', '2024-02-03 01:30:00', '2024-02-03 01:00:00', '2024-02-03 00:30:00', '2024-02-03 00:00:00', '2024-02-02 23:30:00', '2024-02-02 23:00:00', '2024-02-02 22:30:00', '2024-02-02 22:00:00', '2024-02-02 21:30:00', '2024-02-02 20:30:00', '2024-02-02 20:00:00', '2024-02-02 19:00:00', '2024-02-02 18:30:00', '2024-02-02 18:00:00', '2024-02-02 17:30:00', '2024-02-02 17:00:00', '2024-02-02 16:30:00', '2024-02-02 16:00:00', '2024-02-02 15:30:00', '2024-02-02 15:00:00', '2024-02-02 14:30:00', '2024-02-02 14:00:00', '2024-02-02 13:30:00', '2024-02-02 13:00:00', '2024-02-02 12:30:00', '2024-02-02 12:00:00', '2024-02-02 11:30:00', '2024-02-02 11:00:00', '2024-02-02 10:30:00', '2024-02-02 10:00:00', '2024-02-02 09:30:00', '2024-02-02 09:00:00', '2024-02-02 08:30:00', '2024-02-02 08:00:00', '2024-02-02 07:30:00', '2024-02-02 07:00:00', '2024-02-02 06:30:00', '2024-02-02 06:00:00', '2024-02-02 05:30:00', '2024-02-02 05:00:00', '2024-02-02 04:30:00', '2024-02-02 04:00:00', '2024-02-02 03:30:00', '2024-02-02 03:00:00', '2024-02-02 02:30:00', '2024-02-02 02:00:00', '2024-02-02 01:30:00', '2024-02-02 01:00:00', '2024-02-02 00:30:00', '2024-02-02 00:00:00', '2024-02-01 23:30:00', '2024-02-01 23:00:00', '2024-02-01 22:30:00', '2024-02-01 22:00:00', '2024-02-01 21:30:00', '2024-02-01 21:00:00', '2024-02-01 20:30:00', '2024-02-01 20:00:00', '2024-02-01 19:30:00', '2024-02-01 19:00:00', '2024-02-01 18:30:00', '2024-02-01 18:00:00', '2024-02-01 17:30:00', '2024-02-01 17:00:00', '2024-02-01 16:30:00', '2024-02-01 16:00:00', '2024-02-01 15:30:00', '2024-02-01 15:00:00', '2024-02-01 14:30:00', '2024-02-01 14:00:00', '2024-02-01 13:30:00', '2024-02-01 13:00:00', '2024-02-01 12:30:00', '2024-02-01 12:00:00', '2024-02-01 11:30:00', '2024-02-01 11:00:00', '2024-02-01 10:30:00', '2024-02-01 10:00:00', '2024-02-01 09:30:00', '2024-02-01 09:00:00', '2024-02-01 08:30:00', '2024-02-01 08:00:00', '2024-02-01 07:30:00', '2024-02-01 07:00:00', '2024-02-01 06:30:00', '2024-02-01 06:00:00', '2024-02-01 05:30:00', '2024-02-01 05:00:00', '2024-02-01 04:30:00', '2024-02-01 04:00:00', '2024-02-01 03:30:00', '2024-02-01 03:00:00', '2024-02-01 02:30:00', '2024-02-01 02:00:00', '2024-02-01 01:30:00', '2024-02-01 01:00:00', '2024-02-01 00:30:00', '2024-02-01 00:00:00', '2024-01-31 23:30:00', '2024-01-31 23:00:00', '2024-01-31 22:30:00']"
Algeria, Batna International Airport (BLJ/DABT) ,"['DABT 032100Z 00000KT CAVOK 06/M02 Q1034', 'DABT 032000Z 00000KT CAVOK 05/M01 Q1033', 'DABT 031900Z 00000KT CAVOK 09/01 Q1033', 'DABT 031800Z 05006KT CAVOK 10/M01 Q1033', 'DABT 031700Z 00000KT CAVOK 12/02 Q1032', 'DABT 031600Z 00000KT 9999 FEW020 13/02 Q1032', 'DABT 031500Z 33005KT 9999 SCT023 SCT200 13/00 Q1032', 'DABT 031400Z 17005KT 9999 SCT023 SCT200 13/00 Q1032', 'DABT 031300Z 11005KT 9999 SCT023 SCT200 13/00 Q1032', 'DABT 031200Z 04005KT 9999 SCT023 13/02 Q1033', 'DABT 031100Z 07005KT 9999 SCT020 12/01 Q1033', 'DABT 031000Z 10005KT 9999 SCT020 10/05 Q1031', 'DABT 030900Z 13005KT 8000 FEW020 09/06 Q1033', 'DABT 030800Z 00000KT 8000 SCT026 06/05 Q1031', 'DABT 030700Z 00000KT 8000 SCT026 03/02 Q1032', 'DABT 030600Z 00000KT 9999 SCT026 04/04 Q1031', 'DABT 030500Z 00000KT 9999 BKN026 05/04 Q1031', 'DABT 030400Z 00000KT 9999 BKN026 05/04 Q1031', 'DABT 030300Z 00000KT 9999 BKN026 06/05 Q1031', 'DABT 030200Z 00000KT 9999 BKN026 06/05 Q1031', 'DABT 030100Z 00000KT 9999 BKN026 06/05 Q1031', 'DABT 030000Z 00000KT 9999 BKN026 06/05 Q1031', 'DABT 022300Z 26003KT 9999 BKN026 05/04 Q1031', 'DABT 022200Z VRB02KT 9999 BKN026 06/06 Q1030', 'DABT 022000Z 35004KT 9999 BKN026 08/04 Q1030', 'DABT 021900Z 34006KT 9999 BKN026 08/04 Q1030', 'DABT 021800Z 34012KT 9999 BKN026 09/04 Q1029', 'DABT 021700Z 32008KT 9999 BKN026 10/03 Q1029', 'DABT 021600Z 33014KT 9999 BKN026 10/02 Q1028', 'DABT 021500Z 33018KT 9999 BKN026 11/02 Q1028', 'DABT 021400Z 32016KT 9999 BKN026 12/01 Q1028', 'DABT 021300Z 31017KT 9999 BKN026 12/01 Q1028', 'DABT 021200Z 30016KT 9999 BKN026 11/02 Q1029', 'DABT 021100Z 30014KT 9999 BKN026 12/02 Q1030', 'DABT 021000Z 28008KT 9999 BKN026 10/03 Q1030', 'DABT 020900Z 00000KT 9999 BKN023 08/05 Q1030', 'DABT 020800Z 00000KT 9999 BKN023 06/04 Q1030', 'DABT 020700Z 00000KT 9999 BKN026 04/03 Q1030', 'DABT 020600Z 00000KT 9999 BKN026 04/03 Q1030', 'DABT 020500Z 00000KT 9999 BKN026 04/02 Q1030', 'DABT 020400Z 00000KT 9999 FEW026 SCT100 04/03 Q1030', 'DABT 020300Z 23003KT CAVOK 03/02 Q1030', 'DABT 020200Z VRB02KT CAVOK 02/01 Q1030', 'DABT 020100Z 00000KT CAVOK 02/02 Q1031', 'DABT 012300Z 00000KT 8000 NSC 03/02 Q1031', 'DABT 012200Z 21003KT 8000 NSC 03/02 Q1032', 'DABT 012100Z VRB02KT 8000 NSC 03/01 Q1031', 'DABT 012000Z 00000KT CAVOK 04/03 Q1031', 'DABT 011900Z 13004KT 8000 NSC 05/03 Q1031', 'DABT 011800Z 12004KT 8000 NSC 06/03 Q1031', 'DABT 011700Z 14004KT 6000 NSC 09/04 Q1031', 'DABT 011600Z 20004KT 5000 NSC 11/05 Q1031', 'DABT 011500Z 20004KT 4000 BR NSC 10/06 Q1032', 'DABT 011400Z VRB02KT 4000 BR BKN020 10/07 Q1032', 'DABT 011300Z 22004KT 4000 BR OVC020 08/07 Q1033', 'DABT 011200Z 31003KT 4000 BR OVC020 08/07 Q1034', 'DABT 011100Z VRB02KT 4000 BR BKN020 07/07 Q1034', 'DABT 011000Z 25003KT 3000 BR BKN020 06/06 Q1034', 'DABT 010915Z 21004KT 2000 BR NSC 06/06 Q1034', 'DABT 010800Z VRB02KT 0100 FG VV/// 04/04 Q1033', 'DABT 010700Z VRB02KT 0100 FG VV/// 03/03 Q1033', 'DABT 010600Z VRB02KT 0500 FG NSC 03/03 Q1033', 'DABT 010500Z 22003KT 0500 FG NSC 01/01 Q1033', 'DABT 010400Z 21003KT 0500 FG NSC 02/02 Q1033', 'DABT 010300Z VRB02KT 3000 BR NSC M00/M01 Q1033', 'DABT 010225Z VRB02KT 3000 BR NSC M00/M01 Q1033', 'DABT 010200Z VRB02KT CAVOK 00/M01 Q1033', 'DABT 010100Z 11004KT CAVOK 02/M00 Q1033', 'DABT 010000Z VRB02KT CAVOK 02/M01 Q1033', 'DABT 312300Z VRB02KT CAVOK 03/M00 Q1034']","['2024-02-03 21:00:00', '2024-02-03 20:00:00', '2024-02-03 19:00:00', '2024-02-03 18:00:00', '2024-02-03 17:00:00', '2024-02-03 16:00:00', '2024-02-03 15:00:00', '2024-02-03 14:00:00', '2024-02-03 13:00:00', '2024-02-03 12:00:00', '2024-02-03 11:00:00', '2024-02-03 10:00:00', '2024-02-03 09:00:00', '2024-02-03 08:00:00', '2024-02-03 07:00:00', '2024-02-03 06:00:00', '2024-02-03 05:00:00', '2024-02-03 04:00:00', '2024-02-03 03:00:00', '2024-02-03 02:00:00', '2024-02-03 01:00:00', '2024-02-03 00:00:00', '2024-02-02 23:00:00', '2024-02-02 22:00:00', '2024-02-02 20:00:00', '2024-02-02 19:00:00', '2024-02-02 18:00:00', '2024-02-02 17:00:00', '2024-02-02 16:00:00', '2024-02-02 15:00:00', '2024-02-02 14:00:00', '2024-02-02 13:00:00', '2024-02-02 12:00:00', '2024-02-02 11:00:00', '2024-02-02 10:00:00', '2024-02-02 09:00:00', '2024-02-02 08:00:00', '2024-02-02 07:00:00', '2024-02-02 06:00:00', '2024-02-02 05:00:00', '2024-02-02 04:00:00', '2024-02-02 03:00:00', '2024-02-02 02:00:00', '2024-02-02 01:00:00', '2024-02-01 23:00:00', '2024-02-01 22:00:00', '2024-02-01 21:00:00', '2024-02-01 20:00:00', '2024-02-01 19:00:00', '2024-02-01 18:00:00', '2024-02-01 17:00:00', '2024-02-01 16:00:00', '2024-02-01 15:00:00', '2024-02-01 14:00:00', '2024-02-01 13:00:00', '2024-02-01 12:00:00', '2024-02-01 11:00:00', '2024-02-01 10:00:00', '2024-02-01 09:15:00', '2024-02-01 08:00:00', '2024-02-01 07:00:00', '2024-02-01 06:00:00', '2024-02-01 05:00:00', '2024-02-01 04:00:00', '2024-02-01 03:00:00', '2024-02-01 02:25:00', '2024-02-01 02:00:00', '2024-02-01 01:00:00', '2024-02-01 00:00:00', '2024-01-31 23:00:00']"
Algeria, Bechar Boudghene Ben Ali Lotfi Airport (CBH/DAOR) ,"['DAOR 032100Z 18004KT CAVOK 13/M04 Q1031', 'DAOR 032000Z 14004KT CAVOK 15/M05 Q1031', 'DAOR 031900Z 14005KT CAVOK 16/M06 Q1030', 'DAOR 031800Z 15006KT CAVOK 17/M06 Q1030', 'DAOR 031700Z 12004KT CAVOK 18/M08 Q1029', 'DAOR 031600Z 16003KT CAVOK 19/M07 Q1029', 'DAOR 031500Z 01004KT CAVOK 19/M07 Q1029', 'DAOR 031400Z 11003KT CAVOK 18/M07 Q1030', 'DAOR 031300Z 09004KT CAVOK 18/M07 Q1030', 'DAOR 031200Z 10007KT CAVOK 17/M08 Q1031', 'DAOR 031100Z 11011KT CAVOK 16/M07 Q1031', 'DAOR 031000Z 09008KT CAVOK 15/M08 Q1031', 'DAOR 030900Z 08005KT CAVOK 11/M10 Q1030', 'DAOR 030800Z VRB02KT CAVOK 05/M11 Q1030', 'DAOR 030700Z 00000KT CAVOK 03/M13 Q1029', 'DAOR 030600Z 05004KT CAVOK 05/M13 Q1029', 'DAOR 030500Z 02003KT CAVOK 04/M14 Q1028', 'DAOR 030400Z 00000KT CAVOK 04/M16 Q1026', 'DAOR 030300Z 05003KT CAVOK 04/M16 Q1028', 'DAOR 030200Z 04003KT CAVOK 05/M14 Q1028', 'DAOR 030100Z 08003KT CAVOK 07/M14 Q1028', 'DAOR 030000Z 05004KT CAVOK 08/M14 Q1029', 'DAOR 022300Z 04003KT CAVOK 07/M14 Q1029', 'DAOR 022200Z 00000KT CAVOK 10/M13 Q1028', 'DAOR 022000Z 00000KT CAVOK 12/M14 Q1028', 'DAOR 021900Z 00000KT CAVOK 14/M13 Q1028', 'DAOR 021800Z 25005KT CAVOK 17/M13 Q1027', 'DAOR 021700Z VRB02KT CAVOK 20/M11 Q1027', 'DAOR 021600Z 25003KT CAVOK 20/M11 Q1028', 'DAOR 021500Z 29003KT CAVOK 19/M13 Q1028', 'DAOR 021400Z VRB02KT CAVOK 19/M13 Q1028', 'DAOR 021300Z 00000KT CAVOK 19/M10 Q1029', 'DAOR 021200Z 00000KT CAVOK 16/M06 Q1030', 'DAOR 021100Z 00000KT CAVOK 15/M05 Q1031', 'DAOR 021000Z 00000KT CAVOK 12/M06 Q1031', 'DAOR 020900Z 00000KT CAVOK 08/M07 Q1031', 'DAOR 020800Z 00000KT CAVOK 03/M10 Q1031', 'DAOR 020700Z 00000KT CAVOK 02/M11 Q1030', 'DAOR 020600Z 07003KT CAVOK 03/M09 Q1030', 'DAOR 020500Z 04003KT CAVOK 03/M10 Q1030', 'DAOR 020400Z VRB02KT CAVOK 04/M11 Q1030', 'DAOR 020300Z VRB02KT CAVOK 05/M09 Q1031', 'DAOR 020200Z 00000KT CAVOK 05/M08 Q1031', 'DAOR 020100Z 33003KT CAVOK 05/M09 Q1031', 'DAOR 020000Z VRB02KT CAVOK 07/M08 Q1031', 'DAOR 012300Z 34003KT CAVOK 08/M08 Q1031', 'DAOR 012200Z 36003KT CAVOK 08/M08 Q1031', 'DAOR 012100Z 00000KT CAVOK 10/M08 Q1031', 'DAOR 012000Z 16004KT CAVOK 13/M06 Q1031', 'DAOR 011900Z 17003KT CAVOK 14/M06 Q1031', 'DAOR 011800Z 02003KT CAVOK 16/M06 Q1030', 'DAOR 011700Z 01003KT CAVOK 17/M05 Q1030', 'DAOR 011600Z 01004KT CAVOK 17/M04 Q1030', 'DAOR 011500Z 03004KT CAVOK 17/M03 Q1031', 'DAOR 011400Z 01004KT CAVOK 16/M02 Q1031', 'DAOR 011300Z 03003KT CAVOK 15/M01 Q1032', 'DAOR 011200Z VRB02KT CAVOK 14/M02 Q1034', 'DAOR 011100Z VRB02KT CAVOK 13/M02 Q1034', 'DAOR 011000Z VRB02KT CAVOK 11/M02 Q1035', 'DAOR 010900Z 04003KT CAVOK 09/M02 Q1034', 'DAOR 010800Z VRB02KT CAVOK 05/M04 Q1034', 'DAOR 010700Z VRB02KT CAVOK 04/M05 Q1033', 'DAOR 010600Z VRB02KT CAVOK 05/M03 Q1033', 'DAOR 010500Z VRB02KT CAVOK 05/M04 Q1032', 'DAOR 010400Z VRB02KT CAVOK 06/M03 Q1033', 'DAOR 010300Z VRB02KT CAVOK 08/M02 Q1033', 'DAOR 010200Z VRB02KT CAVOK 07/M03 Q1033', 'DAOR 010100Z 06004KT CAVOK 07/M03 Q1033', 'DAOR 010000Z 11004KT CAVOK 11/M01 Q1033', 'DAOR 312300Z 10004KT CAVOK 11/M01 Q1033']","['2024-02-03 21:00:00', '2024-02-03 20:00:00', '2024-02-03 19:00:00', '2024-02-03 18:00:00', '2024-02-03 17:00:00', '2024-02-03 16:00:00', '2024-02-03 15:00:00', '2024-02-03 14:00:00', '2024-02-03 13:00:00', '2024-02-03 12:00:00', '2024-02-03 11:00:00', '2024-02-03 10:00:00', '2024-02-03 09:00:00', '2024-02-03 08:00:00', '2024-02-03 07:00:00', '2024-02-03 06:00:00', '2024-02-03 05:00:00', '2024-02-03 04:00:00', '2024-02-03 03:00:00', '2024-02-03 02:00:00', '2024-02-03 01:00:00', '2024-02-03 00:00:00', '2024-02-02 23:00:00', '2024-02-02 22:00:00', '2024-02-02 20:00:00', '2024-02-02 19:00:00', '2024-02-02 18:00:00', '2024-02-02 17:00:00', '2024-02-02 16:00:00', '2024-02-02 15:00:00', '2024-02-02 14:00:00', '2024-02-02 13:00:00', '2024-02-02 12:00:00', '2024-02-02 11:00:00', '2024-02-02 10:00:00', '2024-02-02 09:00:00', '2024-02-02 08:00:00', '2024-02-02 07:00:00', '2024-02-02 06:00:00', '2024-02-02 05:00:00', '2024-02-02 04:00:00', '2024-02-02 03:00:00', '2024-02-02 02:00:00', '2024-02-02 01:00:00', '2024-02-02 00:00:00', '2024-02-01 23:00:00', '2024-02-01 22:00:00', '2024-02-01 21:00:00', '2024-02-01 20:00:00', '2024-02-01 19:00:00', '2024-02-01 18:00:00', '2024-02-01 17:00:00', '2024-02-01 16:00:00', '2024-02-01 15:00:00', '2024-02-01 14:00:00', '2024-02-01 13:00:00', '2024-02-01 12:00:00', '2024-02-01 11:00:00', '2024-02-01 10:00:00', '2024-02-01 09:00:00', '2024-02-01 08:00:00', '2024-02-01 07:00:00', '2024-02-01 06:00:00', '2024-02-01 05:00:00', '2024-02-01 04:00:00', '2024-02-01 03:00:00', '2024-02-01 02:00:00', '2024-02-01 01:00:00', '2024-02-01 00:00:00', '2024-01-31 23:00:00']"
Algeria, Bejaia Soummam Airport (BJA/DAAE) ,"['DAAE 032100Z 22004KT CAVOK 10/08 Q1033', 'DAAE 032000Z 19004KT 9999 FEW016 11/09 Q1033', 'DAAE 031900Z 19004KT 9999 FEW016 11/09 Q1033', 'DAAE 031800Z 20004KT 9999 FEW016 SCT233 12/09 Q1033', 'DAAE 031700Z 09004KT 9999 FEW016 SCT233 14/10 Q1032', 'DAAE 031600Z 09005KT 9999 FEW016 SCT233 16/11 Q1032', 'DAAE 031500Z 08005KT 010V100 9999 FEW016 SCT233 16/11 Q1032', 'DAAE 031400Z 09005KT 9999 FEW016 17/11 Q1032', 'DAAE 031300Z 09005KT 9999 FEW016 SCT090 17/12 Q1033', 'DAAE 031200Z 09004KT 9999 FEW016 SCT090 17/11 Q1033', 'DAAE 031100Z VRB02KT 9999 FEW016 SCT090 16/11 Q1034', 'DAAE 031000Z 24004KT 210V270 8000 FEW016 SCT090 14/11 Q1034', 'DAAE 030900Z 24008KT 9999 SCT016 13/10 Q1033', 'DAAE 030800Z 24005KT 8000 SCT016 FEW023TCU SCT033 11/10 Q1033', 'DAAE 030700Z 24005KT 7000 SCT016 FEW023TCU SCT033 11/08 Q1031', 'DAAE 030600Z 25005KT 7000 SCT016 FEW023TCU SCT033 10/09 Q1031', 'DAAE 030500Z 24006KT 7000 SCT016 FEW023TCU SCT033 11/10 Q1031', 'DAAE 030400Z 25006KT 7000 SCT016 FEW023TCU SCT033 10/09 Q1031', 'DAAE 030300Z 23005KT 7000 SCT016 FEW023TCU SCT033 10/09 Q1031', 'DAAE 030200Z 23004KT 7000 SCT016 FEW023TCU SCT033 11/09 Q1031', 'DAAE 030100Z 23004KT 7000 SCT016 FEW023TCU SCT033 11/09 Q1031', 'DAAE 030000Z 26003KT 7000 SCT016 FEW023TCU SCT033 11/09 Q1031', 'DAAE 022300Z VRB02KT 7000 SCT016 FEW023TCU SCT033 13/09 Q1031', 'DAAE 022200Z 04004KT 7000 SCT016 FEW023TCU SCT033 15/10 Q1031', 'DAAE 022000Z 20003KT 7000 SCT016 FEW023TCU SCT033 13/11 Q1031', 'DAAE 021900Z 22003KT 7000 SCT016 FEW023TCU SCT033 13/11 Q1031', 'DAAE 021800Z 28004KT 7000 SCT016 FEW023TCU SCT033 14/11 Q1030', 'DAAE 021700Z 30004KT 7000 SCT016 FEW023TCU SCT033 15/09 Q1030', 'DAAE 021600Z 27006KT 7000 SCT016 FEW023TCU SCT033 16/09 Q1030', 'DAAE 021500Z 29005KT 7000 FEW016 SCT033 BKN090 16/10 Q1030', 'DAAE 021400Z 32005KT 7000 FEW016 SCT033 BKN090 16/08 Q1030', 'DAAE 021300Z 24003KT 7000 FEW016 SCT033 BKN090 16/10 Q1030', 'DAAE 021200Z 25007KT 230V360 7000 FEW016 SCT033 BKN090 15/09 Q1030', 'DAAE 021100Z 26012KT 7000 FEW016 SCT090 14/09 Q1031', 'DAAE 021000Z 23009KT 7000 FEW016 SCT090 11/08 Q1032', 'DAAE 020900Z 25010KT 7000 FEW016 SCT033 10/07 Q1031', 'DAAE 020800Z 25015KT 7000 FEW016 SCT033 08/06 Q1031', 'DAAE 020700Z 25012KT 6000 FEW016 SCT040 08/06 Q1031', 'DAAE 020600Z 24011KT 9999 FEW016 SCT040 09/06 Q1030', 'DAAE 020500Z 25013KT 9999 FEW016 SCT090 09/07 Q1031', 'DAAE 020400Z 24010KT 9999 FEW016 SCT090 09/07 Q1030', 'DAAE 020300Z 24012KT 9999 FEW016 SCT090 10/07 Q1030', 'DAAE 020200Z 25008KT 9999 FEW016 SCT233 09/07 Q1030', 'DAAE 020100Z 24011KT 9999 FEW016 SCT233 09/07 Q1031', 'DAAE 020000Z 25005KT 9999 FEW016 SCT233 08/07 Q1032', 'DAAE 012300Z 24004KT 9000 FEW016 SCT233 08/06 Q1032', 'DAAE 012200Z 22004KT 9000 FEW016 SCT233 09/07 Q1032', 'DAAE 012100Z 24005KT 9000 FEW016 SCT233 09/07 Q1032', 'DAAE 012000Z 22004KT 9000 FEW016 SCT233 10/08 Q1032', 'DAAE 011900Z 20004KT 8000 FEW016 SCT233 11/08 Q1032', 'DAAE 011800Z 19004KT 8000 FEW016 SCT090 12/09 Q1032', 'DAAE 011700Z 07003KT 8000 FEW016 SCT033 14/09 Q1032', 'DAAE 011600Z 07004KT 8000 FEW016 SCT033 15/09 Q1032', 'DAAE 011500Z 08005KT 8000 FEW016 SCT033 16/10 Q1032', 'DAAE 011400Z 08004KT 8000 FEW016 SCT033 17/11 Q1032', 'DAAE 011300Z 07004KT 040V100 8000 FEW016 FEW023TCU SCT033 16/10 Q1033', 'DAAE 011200Z 04005KT 8000 FEW016 SCT033 BKN090 16/10 Q1034', 'DAAE 011100Z VRB02KT 5000 BR FEW016 SCT033 BKN090 16/10 Q1034', 'DAAE 011000Z 24004KT 4500 BR FEW016 SCT033 15/10 Q1034', 'DAAE 010900Z 25008KT 4500 BR FEW016 SCT033 14/10 Q1034', 'DAAE 010800Z 24007KT 4500 BR FEW016 SCT033 13/09 Q1033', 'DAAE 010700Z 25005KT 4500 BR FEW016 SCT033 12/09 Q1033', 'DAAE 010600Z 24006KT 4500 BR FEW016 SCT033 12/09 Q1033', 'DAAE 010500Z 24008KT 5000 FEW016 SCT033 12/09 Q1032', 'DAAE 010400Z 25010KT 5000 FEW016 SCT033 12/10 Q1032', 'DAAE 010300Z 25006KT 5000 FEW016 SCT033 12/10 Q1033', 'DAAE 010200Z 25005KT 5000 FEW016 SCT033 12/10 Q1033', 'DAAE 010100Z 25007KT 5000 FEW016 SCT033 12/10 Q1033', 'DAAE 010000Z 25005KT 5000 FEW016 SCT033 12/10 Q1033', 'DAAE 312300Z 23004KT 5000 FEW016 SCT033 13/10 Q1034']","['2024-02-03 21:00:00', '2024-02-03 20:00:00', '2024-02-03 19:00:00', '2024-02-03 18:00:00', '2024-02-03 17:00:00', '2024-02-03 16:00:00', '2024-02-03 15:00:00', '2024-02-03 14:00:00', '2024-02-03 13:00:00', '2024-02-03 12:00:00', '2024-02-03 11:00:00', '2024-02-03 10:00:00', '2024-02-03 09:00:00', '2024-02-03 08:00:00', '2024-02-03 07:00:00', '2024-02-03 06:00:00', '2024-02-03 05:00:00', '2024-02-03 04:00:00', '2024-02-03 03:00:00', '2024-02-03 02:00:00', '2024-02-03 01:00:00', '2024-02-03 00:00:00', '2024-02-02 23:00:00', '2024-02-02 22:00:00', '2024-02-02 20:00:00', '2024-02-02 19:00:00', '2024-02-02 18:00:00', '2024-02-02 17:00:00', '2024-02-02 16:00:00', '2024-02-02 15:00:00', '2024-02-02 14:00:00', '2024-02-02 13:00:00', '2024-02-02 12:00:00', '2024-02-02 11:00:00', '2024-02-02 10:00:00', '2024-02-02 09:00:00', '2024-02-02 08:00:00', '2024-02-02 07:00:00', '2024-02-02 06:00:00', '2024-02-02 05:00:00', '2024-02-02 04:00:00', '2024-02-02 03:00:00', '2024-02-02 02:00:00', '2024-02-02 01:00:00', '2024-02-02 00:00:00', '2024-02-01 23:00:00', '2024-02-01 22:00:00', '2024-02-01 21:00:00', '2024-02-01 20:00:00', '2024-02-01 19:00:00', '2024-02-01 18:00:00', '2024-02-01 17:00:00', '2024-02-01 16:00:00', '2024-02-01 15:00:00', '2024-02-01 14:00:00', '2024-02-01 13:00:00', '2024-02-01 12:00:00', '2024-02-01 11:00:00', '2024-02-01 10:00:00', '2024-02-01 09:00:00', '2024-02-01 08:00:00', '2024-02-01 07:00:00', '2024-02-01 06:00:00', '2024-02-01 05:00:00', '2024-02-01 04:00:00', '2024-02-01 03:00:00', '2024-02-01 02:00:00', '2024-02-01 01:00:00', '2024-02-01 00:00:00', '2024-01-31 23:00:00']"
Algeria, Biskra Airport (BSK/DAUB) ,"['DAUB 032100Z 33003KT CAVOK 13/02 Q1033', 'DAUB 032000Z VRB02KT CAVOK 13/03 Q1032', 'DAUB 031900Z 23003KT CAVOK 17/03 Q1032', 'DAUB 031800Z 20003KT CAVOK 17/03 Q1031', 'DAUB 031700Z 21003KT CAVOK 18/03 Q1031', 'DAUB 031600Z 24004KT 9999 FEW036 19/03 Q1030', 'DAUB 031500Z 26004KT 9999 FEW036 19/03 Q1030', 'DAUB 031400Z 23004KT 9999 FEW036 19/04 Q1031', 'DAUB 031300Z 24004KT 9999 FEW036 18/04 Q1031', 'DAUB 031200Z 24005KT CAVOK 18/04 Q1032', 'DAUB 031100Z 25004KT CAVOK 17/04 Q1032', 'DAUB 031000Z 21004KT CAVOK 16/04 Q1032', 'DAUB 030900Z VRB02KT CAVOK 16/04 Q1032', 'DAUB 030800Z 33003KT CAVOK 11/03 Q1031', 'DAUB 030700Z 36004KT CAVOK 09/02 Q1031', 'DAUB 030600Z 02005KT CAVOK 10/02 Q1030', 'DAUB 030500Z 32004KT 290V010 CAVOK 11/02 Q1029', 'DAUB 030400Z 35004KT CAVOK 12/02 Q1029', 'DAUB 030300Z 35004KT CAVOK 11/02 Q1028', 'DAUB 030200Z 34005KT CAVOK 13/02 Q1028', 'DAUB 030100Z 34005KT CAVOK 12/02 Q1028', 'DAUB 030000Z 34005KT CAVOK 13/03 Q1028', 'DAUB 022300Z 31006KT CAVOK 14/03 Q1028', 'DAUB 022200Z VRB02KT CAVOK 15/03 Q1028', 'DAUB 022000Z 35010KT CAVOK 17/02 Q1027', 'DAUB 021900Z 35010KT CAVOK 18/02 Q1027', 'DAUB 021800Z 33011KT 9999 FEW033 18/03 Q1026', 'DAUB 021700Z 32014KT 9999 SCT033 19/02 Q1026', 'DAUB 021600Z 33015KT 290V350 9999 SCT033 20/02 Q1026', 'DAUB 021500Z 30012KT 220V360 9999 SCT040 20/03 Q1026', 'DAUB 021400Z 30011KT 250V360 9999 FEW040 21/03 Q1026', 'DAUB 021300Z 25007KT 9999 FEW040 19/03 Q1027', 'DAUB 021200Z 28004KT 220V020 9999 FEW040 19/03 Q1028', 'DAUB 021100Z 26003KT 200V360 9999 FEW040 17/04 Q1022', 'DAUB 021000Z VRB01KT 9999 FEW040 16/04 Q1030', 'DAUB 020900Z 31004KT 260V330 CAVOK 13/03 Q1030', 'DAUB 020800Z 31003KT 270V330 CAVOK 11/03 Q1030', 'DAUB 020700Z 05003KT CAVOK 08/01 Q1029', 'DAUB 020600Z 05004KT CAVOK 08/01 Q1029', 'DAUB 020500Z 02004KT CAVOK 08/01 Q1028', 'DAUB 020400Z 34003KT CAVOK 09/02 Q1028', 'DAUB 020300Z 34004KT CAVOK 10/02 Q1028', 'DAUB 020200Z VRB02KT CAVOK 08/02 Q1028', 'DAUB 020000Z 02004KT CAVOK 12/03 Q1029', 'DAUB 012300Z 01004KT CAVOK 12/03 Q1029', 'DAUB 012200Z 35004KT CAVOK 12/03 Q1029', 'DAUB 012100Z 02004KT CAVOK 12/03 Q1029', 'DAUB 012000Z 04004KT CAVOK 13/03 Q1029', 'DAUB 011900Z 24003KT CAVOK 15/03 Q1029', 'DAUB 011800Z 28003KT CAVOK 17/04 Q1029', 'DAUB 011700Z 28004KT CAVOK 19/04 Q1029', 'DAUB 011600Z 30004KT CAVOK 20/05 Q1029', 'DAUB 011500Z 28005KT CAVOK 20/05 Q1030', 'DAUB 011400Z 25003KT CAVOK 19/05 Q1030', 'DAUB 011300Z 30004KT CAVOK 18/05 Q1031', 'DAUB 011200Z 33003KT CAVOK 18/05 Q1032', 'DAUB 011100Z 32003KT CAVOK 16/05 Q1033', 'DAUB 011000Z 32003KT CAVOK 15/04 Q1034', 'DAUB 010900Z VRB02KT CAVOK 13/04 Q1033', 'DAUB 010800Z 02004KT CAVOK 10/03 Q1033', 'DAUB 010700Z 07005KT CAVOK 07/02 Q1033', 'DAUB 010600Z 04004KT CAVOK 07/02 Q1032', 'DAUB 010500Z 00000KT CAVOK 06/01 Q1032', 'DAUB 010400Z VRB02KT CAVOK 07/01 Q1032', 'DAUB 010300Z 02004KT CAVOK 10/03 Q1032', 'DAUB 010200Z 01003KT CAVOK 09/02 Q1032', 'DAUB 010100Z VRB02KT CAVOK 09/02 Q1033', 'DAUB 010000Z VRB02KT CAVOK 08/03 Q1033', 'DAUB 312300Z 02003KT CAVOK 11/03 Q1033']","['2024-02-03 21:00:00', '2024-02-03 20:00:00', '2024-02-03 19:00:00', '2024-02-03 18:00:00', '2024-02-03 17:00:00', '2024-02-03 16:00:00', '2024-02-03 15:00:00', '2024-02-03 14:00:00', '2024-02-03 13:00:00', '2024-02-03 12:00:00', '2024-02-03 11:00:00', '2024-02-03 10:00:00', '2024-02-03 09:00:00', '2024-02-03 08:00:00', '2024-02-03 07:00:00', '2024-02-03 06:00:00', '2024-02-03 05:00:00', '2024-02-03 04:00:00', '2024-02-03 03:00:00', '2024-02-03 02:00:00', '2024-02-03 01:00:00', '2024-02-03 00:00:00', '2024-02-02 23:00:00', '2024-02-02 22:00:00', '2024-02-02 20:00:00', '2024-02-02 19:00:00', '2024-02-02 18:00:00', '2024-02-02 17:00:00', '2024-02-02 16:00:00', '2024-02-02 15:00:00', '2024-02-02 14:00:00', '2024-02-02 13:00:00', '2024-02-02 12:00:00', '2024-02-02 11:00:00', '2024-02-02 10:00:00', '2024-02-02 09:00:00', '2024-02-02 08:00:00', '2024-02-02 07:00:00', '2024-02-02 06:00:00', '2024-02-02 05:00:00', '2024-02-02 04:00:00', '2024-02-02 03:00:00', '2024-02-02 02:00:00', '2024-02-02 00:00:00', '2024-02-01 23:00:00', '2024-02-01 22:00:00', '2024-02-01 21:00:00', '2024-02-01 20:00:00', '2024-02-01 19:00:00', '2024-02-01 18:00:00', '2024-02-01 17:00:00', '2024-02-01 16:00:00', '2024-02-01 15:00:00', '2024-02-01 14:00:00', '2024-02-01 13:00:00', '2024-02-01 12:00:00', '2024-02-01 11:00:00', '2024-02-01 10:00:00', '2024-02-01 09:00:00', '2024-02-01 08:00:00', '2024-02-01 07:00:00', '2024-02-01 06:00:00', '2024-02-01 05:00:00', '2024-02-01 04:00:00', '2024-02-01 03:00:00', '2024-02-01 02:00:00', '2024-02-01 01:00:00', '2024-02-01 00:00:00', '2024-01-31 23:00:00']"
Algeria, Chlef International Airport (CFK/DAOI) ,"['DAOI 032100Z 10003KT CAVOK 12/06 Q1032', 'DAOI 032000Z VRB02KT CAVOK 13/06 Q1032', 'DAOI 031900Z 10004KT CAVOK 15/07 Q1032', 'DAOI 031800Z 36008KT CAVOK 16/08 Q1031', 'DAOI 031700Z 36008KT 9999 FEW023 17/08 Q1031', 'DAOI 031600Z 02004KT 9999 FEW023 19/08 Q1030', 'DAOI 031500Z VRB02KT 9999 FEW023 20/03 Q1031', 'DAOI 031400Z VRB02KT 9999 FEW023 19/04 Q1031', 'DAOI 031300Z 09006KT 9999 FEW023 17/04 Q1032', 'DAOI 031200Z 09009KT 9999 FEW023 16/06 Q1033', 'DAOI 031100Z 09009KT CAVOK 15/07 Q1033', 'DAOI 031000Z 09009KT 9000 NSC 13/08 Q1033', 'DAOI 030900Z 08006KT 9000 NSC 10/08 Q1033', 'DAOI 030800Z 05003KT CAVOK 08/07 Q1033', 'DAOI 030700Z 06003KT CAVOK 07/06 Q1033', 'DAOI 030600Z 07003KT CAVOK 08/06 Q1032', 'DAOI 030500Z 04005KT CAVOK 07/06 Q1032', 'DAOI 030400Z 14003KT CAVOK 07/05 Q1032', 'DAOI 030300Z 02004KT CAVOK 09/06 Q1032', 'DAOI 030200Z 02005KT 8000 NSC 10/06 Q1032', 'DAOI 030100Z 02006KT 8000 NSC 10/06 Q1032', 'DAOI 030000Z 04004KT 8000 NSC 10/06 Q1032', 'DAOI 022300Z 07009KT 8000 NSC 11/07 Q1032', 'DAOI 022200Z 07007KT 8000 NSC 12/07 Q1032', 'DAOI 022000Z 00000KT 8000 NSC 11/09 Q1031', 'DAOI 021900Z 00000KT 8000 NSC 13/08 Q1031', 'DAOI 021800Z 03005KT 8000 NSC 14/08 Q1030', 'DAOI 021700Z 10003KT 8000 NSC 16/09 Q1030', 'DAOI 021600Z 32005KT 8000 FEW026 17/10 Q1030', 'DAOI 021500Z 14004KT 6000 FEW020 17/10 Q1030', 'DAOI 021400Z 22004KT 4000 BR FEW020 16/09 Q1031', 'DAOI 021300Z 19003KT 3000 BR FEW020 16/09 Q1031', 'DAOI 021200Z 13003KT 2000 BR FEW020 15/09 Q1032', 'DAOI 021100Z 11004KT 2000 BR SCT013 12/08 Q1033', 'DAOI 021000Z 09007KT 1500 BR SCT013 10/09 Q1034', 'DAOI 020900Z 09004KT 1500 BR SCT013 08/08 Q1033', 'DAOI 020800Z 00000KT 1500 BR SCT013 06/06 Q1033', 'DAOI 020700Z 00000KT 2000 BR FEW023 05/05 Q1032', 'DAOI 020600Z 00000KT 6000 FEW026 06/06 Q1032', 'DAOI 020500Z 00000KT 6000 FEW026 06/06 Q1031', 'DAOI 020400Z 00000KT 7000 FEW026 06/06 Q1031', 'DAOI 020300Z 00000KT 7000 FEW026 07/07 Q1032', 'DAOI 020200Z 00000KT 7000 FEW026 07/07 Q1032', 'DAOI 020100Z VRB02KT 7000 FEW026 08/08 Q1032', 'DAOI 020000Z 34003KT 7000 FEW026 09/09 Q1032', 'DAOI 012300Z 00000KT 7000 FEW026 09/09 Q1033', 'DAOI 012200Z 00000KT 7000 SCT026 10/09 Q1032', 'DAOI 012100Z VRB02KT 7000 SCT026 11/09 Q1032', 'DAOI 012000Z VRB02KT 7000 SCT026 12/08 Q1032', 'DAOI 011900Z 34007KT 7000 SCT026 12/09 Q1032', 'DAOI 011800Z 34006KT 7000 FEW020 SCT026 13/09 Q1032', 'DAOI 011700Z 00000KT 7000 FEW020 BKN026 15/10 Q1033', 'DAOI 011600Z 00000KT 6000 SCT020 BKN026 15/09 Q1033', 'DAOI 011500Z 21003KT 4000 BR SCT020 SCT026 15/10 Q1033', 'DAOI 011400Z 00000KT 4000 BR SCT020 SCT026 14/10 Q1033', 'DAOI 011200Z 00000KT 3000 BR SCT020 SCT026 14/10 Q1035', 'DAOI 011100Z 00000KT 3000 BR SCT020 SCT026 13/10 Q1035', 'DAOI 011000Z 00000KT 3000 BR SCT020 SCT026 12/10 Q1035', 'DAOI 010900Z 10004KT 3000 BR SCT020 SCT026 11/11 Q1035', 'DAOI 010800Z 04004KT 3000 BR SCT020 SCT026 10/10 Q1034', 'DAOI 010700Z 08004KT 5000 SCT020 SCT026 10/10 Q1034', 'DAOI 010600Z 08003KT 7000 FEW026 SCT233 09/09 Q1034', 'DAOI 010500Z 06003KT 8000 NSC 09/09 Q1033', 'DAOI 010400Z 34003KT 8000 NSC 09/09 Q1033', 'DAOI 010300Z 00000KT 8000 NSC 09/09 Q1033', 'DAOI 010200Z 00000KT 8000 NSC 10/10 Q1033', 'DAOI 010100Z 00000KT 8000 NSC 10/10 Q1033', 'DAOI 010000Z 00000KT 8000 NSC 11/11 Q1034', 'DAOI 312300Z 00000KT 8000 NSC 11/10 Q1033']","['2024-02-03 21:00:00', '2024-02-03 20:00:00', '2024-02-03 19:00:00', '2024-02-03 18:00:00', '2024-02-03 17:00:00', '2024-02-03 16:00:00', '2024-02-03 15:00:00', '2024-02-03 14:00:00', '2024-02-03 13:00:00', '2024-02-03 12:00:00', '2024-02-03 11:00:00', '2024-02-03 10:00:00', '2024-02-03 09:00:00', '2024-02-03 08:00:00', '2024-02-03 07:00:00', '2024-02-03 06:00:00', '2024-02-03 05:00:00', '2024-02-03 04:00:00', '2024-02-03 03:00:00', '2024-02-03 02:00:00', '2024-02-03 01:00:00', '2024-02-03 00:00:00', '2024-02-02 23:00:00', '2024-02-02 22:00:00', '2024-02-02 20:00:00', '2024-02-02 19:00:00', '2024-02-02 18:00:00', '2024-02-02 17:00:00', '2024-02-02 16:00:00', '2024-02-02 15:00:00', '2024-02-02 14:00:00', '2024-02-02 13:00:00', '2024-02-02 12:00:00', '2024-02-02 11:00:00', '2024-02-02 10:00:00', '2024-02-02 09:00:00', '2024-02-02 08:00:00', '2024-02-02 07:00:00', '2024-02-02 06:00:00', '2024-02-02 05:00:00', '2024-02-02 04:00:00', '2024-02-02 03:00:00', '2024-02-02 02:00:00', '2024-02-02 01:00:00', '2024-02-02 00:00:00', '2024-02-01 23:00:00', '2024-02-01 22:00:00', '2024-02-01 21:00:00', '2024-02-01 20:00:00', '2024-02-01 19:00:00', '2024-02-01 18:00:00', '2024-02-01 17:00:00', '2024-02-01 16:00:00', '2024-02-01 15:00:00', '2024-02-01 14:00:00', '2024-02-01 12:00:00', '2024-02-01 11:00:00', '2024-02-01 10:00:00', '2024-02-01 09:00:00', '2024-02-01 08:00:00', '2024-02-01 07:00:00', '2024-02-01 06:00:00', '2024-02-01 05:00:00', '2024-02-01 04:00:00', '2024-02-01 03:00:00', '2024-02-01 02:00:00', '2024-02-01 01:00:00', '2024-02-01 00:00:00', '2024-01-31 23:00:00']"
Algeria, Constantine Mohamed Boudiaf International Airport (CZL/DABC) ,"['DABC 032130Z VRB01KT CAVOK 06/04 Q1033', 'DABC 032100Z VRB01KT CAVOK 06/03 Q1033', 'DABC 032030Z 14002KT 9999 FEW030 08/04 Q1033', 'DABC 032000Z 13005KT 9999 FEW030 08/04 Q1033', 'DABC 031930Z 11003KT 9999 FEW030 07/03 Q1033', 'DABC 031900Z 00000KT 9999 FEW030 08/04 Q1033', 'DABC 031830Z 01002KT 9999 FEW030 08/03 Q1033', 'DABC 031800Z VRB02KT 9999 FEW030 09/03 Q1033', 'DABC 031730Z 02005KT 9999 FEW030 10/03 Q1032', 'DABC 031700Z 34006KT 9999 FEW030 10/03 Q1032', 'DABC 031630Z 33008KT 9999 SCT030 12/04 Q1032', 'DABC 031600Z 34007KT 9999 SCT030 13/04 Q1032', 'DABC 031530Z 02003KT 9999 SCT026 14/04 Q1031', 'DABC 031500Z 35007KT 9999 SCT026 13/05 Q1032', 'DABC 031430Z 35006KT 9999 SCT026 13/04 Q1031', 'DABC 031400Z 33006KT 9999 SCT026 13/05 Q1031', 'DABC 031330Z VRB02KT 9999 SCT026 13/05 Q1032', 'DABC 031300Z 02005KT 9999 SCT026 14/06 Q1032', 'DABC 031230Z 36007KT 9999 SCT026 13/06 Q1032', 'DABC 031200Z 03005KT 9999 SCT026 12/05 Q1033', 'DABC 031130Z VRB01KT 9999 SCT020 12/05 Q1033', 'DABC 031100Z VRB01KT 9999 SCT020 12/06 Q1033', 'DABC 031030Z VRB02KT 9999 SCT016 11/06 Q1033', 'DABC 031000Z 09003KT 9999 SCT016 10/06 Q1033', 'DABC 030930Z 00000KT 9999 FEW020 10/08 Q1033', 'DABC 030900Z VRB02KT 1500 BR SCT004 08/07 Q1033', 'DABC 030830Z VRB02KT 1200 BR SCT004 07/06 Q1033', 'DABC 030800Z VRB01KT 0200 FG SCT004 05/05 Q1032', 'DABC 030730Z VRB01KT 0150 FG SCT004 04/04 Q1032', 'DABC 030700Z VRB02KT 0200 R32/0200N R34/1800U FG SCT004 03/03 Q1032', 'DABC 030630Z VRB02KT 0600 R32/0650N R34/0550D FG SCT005 04/04 Q1031', 'DABC 030600Z VRB02KT 4000 BR SCT005 04/04 Q1031', 'DABC 030530Z VRB01KT 6000 SCT026 05/05 Q1031', 'DABC 030500Z 35003KT 7000 SCT026 05/04 Q1031', 'DABC 030400Z 32004KT 7000 SCT026 06/05 Q1031', 'DABC 030330Z 31005KT 9999 SCT026 06/05 Q1031', 'DABC 030300Z 34003KT 8000 SCT026 06/05 Q1031', 'DABC 030230Z 32005KT 9999 SCT026 06/05 Q1031', 'DABC 030200Z 30005KT 9999 SCT026 08/07 Q1031', 'DABC 030100Z 33005KT 9999 SCT026 08/07 Q1031', 'DABC 030030Z 35006KT 9999 SCT026 08/07 Q1031', 'DABC 030000Z 32004KT 9999 SCT026 08/07 Q1031', 'DABC 022330Z 36008KT 9000 SCT026 08/07 Q1030', 'DABC 022300Z 34009KT 9000 FEW020 BKN026 08/06 Q1030', 'DABC 022230Z 36008KT 8000 FEW020 BKN026 08/06 Q1030', 'DABC 022200Z 34005KT 8000 FEW020 BKN026 08/07 Q1030', 'DABC 022130Z VRB02KT 8000 FEW020 BKN026 08/07 Q1030', 'DABC 022030Z 35007KT 9999 FEW020 BKN026 09/07 Q1030', 'DABC 022000Z 01007KT 9999 FEW020 BKN026 09/07 Q1030', 'DABC 021900Z 35006KT 9999 FEW020 BKN026 09/07 Q1030', 'DABC 021830Z 35009KT 9000 FEW020 BKN026 09/07 Q1029', 'DABC 021800Z 35007KT 9000 FEW020 BKN026 09/07 Q1029', 'DABC 021730Z 36006KT 9000 FEW020 BKN026 09/07 Q1029', 'DABC 021700Z 32008KT 9000 FEW020 BKN026 09/07 Q1028', 'DABC 021630Z 35010KT 9000 FEW020 BKN026 09/06 Q1028', 'DABC 021600Z 35011KT 8000 FEW020 BKN026 09/07 Q1028', 'DABC 021530Z 34011KT 8000 FEW020 BKN026 10/06 Q1028', 'DABC 021500Z 33011KT 9000 FEW020 BKN026 10/06 Q1028', 'DABC 021430Z 32012KT 9000 FEW020 BKN026 10/06 Q1028', 'DABC 021400Z 33014KT 8000 FEW020 BKN026 10/06 Q1028', 'DABC 021330Z 34010KT 8000 FEW020 BKN026 09/07 Q1028', 'DABC 021300Z 33012KT 8000 BKN026 10/06 Q1028', 'DABC 021230Z 33015KT 9000 BKN026 10/06 Q1028', 'DABC 021200Z 32011KT 8000 BKN026 10/06 Q1028', 'DABC 021130Z 31010KT 8000 -RA BKN026 10/06 Q1029', 'DABC 021100Z 33013KT 8000 BKN026 10/06 Q1029', 'DABC 021030Z 31010KT 9999 BKN026 10/06 Q1029', 'DABC 021000Z 29008KT 9999 BKN026 09/06 Q1029', 'DABC 020930Z 28007KT 9999 BKN026 09/06 Q1030', 'DABC 020900Z 31004KT 9999 BKN026 09/05 Q1030', 'DABC 020830Z 31004KT 9999 BKN026 09/05 Q1029', 'DABC 020800Z 28005KT 9999 BKN026 09/05 Q1029', 'DABC 020730Z 30003KT 9999 BKN023 08/05 Q1029', 'DABC 020700Z 30005KT 9999 BKN023 08/05 Q1029', 'DABC 020630Z 28005KT 9999 BKN023 08/05 Q1029', 'DABC 020600Z VRB02KT 9999 BKN023 07/05 Q1029', 'DABC 020530Z VRB02KT 9999 BKN023 08/05 Q1029', 'DABC 020500Z VRB02KT 9999 BKN023 08/05 Q1029', 'DABC 020430Z VRB02KT 9999 BKN023 08/05 Q1030', 'DABC 020400Z VRB02KT 9999 BKN023 07/05 Q1030', 'DABC 020330Z VRB02KT 9999 BKN023 07/05 Q1030', 'DABC 020300Z VRB02KT 9999 BKN023 07/05 Q1030', 'DABC 020230Z VRB02KT 9999 BKN023 08/04 Q1030', 'DABC 020200Z VRB02KT 9999 BKN023 08/04 Q1030', 'DABC 020130Z 30005KT 9999 BKN023 08/05 Q1030', 'DABC 020100Z 32005KT 9999 BKN023 08/04 Q1030', 'DABC 020030Z 33007KT 9999 BKN023 08/05 Q1031', 'DABC 020000Z 33007KT 9999 BKN023 08/05 Q1031', 'DABC 012330Z VRB02KT 9999 BKN023 07/04 Q1031', 'DABC 012300Z VRB02KT 9999 SCT026 06/04 Q1031', 'DABC 012230Z 30004KT 9999 SCT026 06/04 Q1031', 'DABC 012200Z 33006KT 9999 SCT026 06/04 Q1031', 'DABC 012130Z 33006KT 9999 SCT026 05/04 Q1031', 'DABC 012100Z 31005KT 9999 SCT026 06/04 Q1031', 'DABC 012030Z 35008KT 9999 SCT026 07/05 Q1031', 'DABC 012000Z VRB02KT 9999 SCT026 07/05 Q1031', 'DABC 011930Z 32005KT 9999 SCT026 07/05 Q1031', 'DABC 011900Z VRB02KT 9999 SCT026 08/05 Q1031', 'DABC 011830Z 04004KT 9999 SCT026 08/05 Q1031', 'DABC 011800Z 03005KT 9999 SCT026 09/05 Q1031', 'DABC 011730Z 35006KT 9999 BKN026 08/04 Q1031', 'DABC 011700Z 34004KT 9999 BKN026 09/04 Q1031', 'DABC 011630Z 35005KT 9999 BKN026 11/04 Q1031', 'DABC 011600Z 36006KT 9000 FEW016 BKN026 12/05 Q1031', 'DABC 011530Z 01007KT 9000 FEW016 BKN026 12/04 Q1031', 'DABC 011500Z 02006KT 9000 FEW016 BKN026 12/04 Q1031', 'DABC 011430Z 34003KT 8000 FEW016 BKN026 12/04 Q1031', 'DABC 011400Z 33003KT 8000 FEW016 BKN026 12/04 Q1032', 'DABC 011330Z 02005KT 8000 SCT013 BKN023 12/05 Q1032', 'DABC 011300Z 35005KT 8000 SCT013 BKN023 12/05 Q1032', 'DABC 011230Z 36007KT 7000 SCT013 BKN023 10/04 Q1033', 'DABC 011200Z 34005KT 7000 SCT013 BKN023 11/04 Q1033', 'DABC 011130Z 36007KT 6000 SCT013 BKN020 10/04 Q1034', 'DABC 011100Z 36006KT 6000 SCT013 BKN020 10/05 Q1034', 'DABC 011030Z 36004KT 6000 SCT013 BKN020 10/05 Q1034', 'DABC 011000Z 35005KT 6000 SCT013 BKN020 10/04 Q1034', 'DABC 010930Z 31003KT 6000 SCT013 BKN020 11/05 Q1033', 'DABC 010900Z 31005KT 6000 SCT013 BKN020 10/05 Q1033', 'DABC 010830Z 32005KT 6000 SCT013 BKN020 10/06 Q1033', 'DABC 010800Z 32003KT 6000 SCT013 BKN020 10/06 Q1033', 'DABC 010730Z 28003KT 6000 SCT013 BKN020 09/05 Q1033', 'DABC 010700Z 33004KT 5000 BR SCT013 BKN020 09/06 Q1033', 'DABC 010630Z VRB02KT 8000 BKN020 09/06 Q1032', 'DABC 010600Z 26004KT 8000 BKN020 09/06 Q1032', 'DABC 010530Z 28006KT 8000 BKN020 09/06 Q1032', 'DABC 010500Z 27005KT 7000 BKN016 09/06 Q1032', 'DABC 010430Z VRB02KT 7000 BKN016 09/07 Q1032', 'DABC 010400Z 00000KT 6000 BKN013 08/07 Q1032', 'DABC 010330Z VRB01KT 5000 BR BKN013 08/07 Q1032', 'DABC 010300Z VRB02KT 5000 BR SCT013 08/07 Q1032', 'DABC 010230Z VRB02KT 5000 BR SCT013 08/07 Q1033', 'DABC 010200Z VRB02KT 5000 BR SCT013 08/07 Q1033', 'DABC 010130Z VRB02KT 4500 BR SCT013 08/07 Q1033', 'DABC 010100Z 00000KT 4500 BR SCT013 08/07 Q1033', 'DABC 010030Z VRB01KT 5000 BR SCT013 08/07 Q1033', 'DABC 010000Z VRB01KT 5000 BR SCT013 08/07 Q1033', 'DABC 312330Z VRB01KT 5000 BR SCT013 09/08 Q1033', 'DABC 312300Z VRB02KT 5000 BR SCT013 09/08 Q1034', 'DABC 312230Z VRB01KT 4500 BR SCT013 08/07 Q1034']","['2024-02-03 21:30:00', '2024-02-03 21:00:00', '2024-02-03 20:30:00', '2024-02-03 20:00:00', '2024-02-03 19:30:00', '2024-02-03 19:00:00', '2024-02-03 18:30:00', '2024-02-03 18:00:00', '2024-02-03 17:30:00', '2024-02-03 17:00:00', '2024-02-03 16:30:00', '2024-02-03 16:00:00', '2024-02-03 15:30:00', '2024-02-03 15:00:00', '2024-02-03 14:30:00', '2024-02-03 14:00:00', '2024-02-03 13:30:00', '2024-02-03 13:00:00', '2024-02-03 12:30:00', '2024-02-03 12:00:00', '2024-02-03 11:30:00', '2024-02-03 11:00:00', '2024-02-03 10:30:00', '2024-02-03 10:00:00', '2024-02-03 09:30:00', '2024-02-03 09:00:00', '2024-02-03 08:30:00', '2024-02-03 08:00:00', '2024-02-03 07:30:00', '2024-02-03 07:00:00', '2024-02-03 06:30:00', '2024-02-03 06:00:00', '2024-02-03 05:30:00', '2024-02-03 05:00:00', '2024-02-03 04:00:00', '2024-02-03 03:30:00', '2024-02-03 03:00:00', '2024-02-03 02:30:00', '2024-02-03 02:00:00', '2024-02-03 01:00:00', '2024-02-03 00:30:00', '2024-02-03 00:00:00', '2024-02-02 23:30:00', '2024-02-02 23:00:00', '2024-02-02 22:30:00', '2024-02-02 22:00:00', '2024-02-02 21:30:00', '2024-02-02 20:30:00', '2024-02-02 20:00:00', '2024-02-02 19:00:00', '2024-02-02 18:30:00', '2024-02-02 18:00:00', '2024-02-02 17:30:00', '2024-02-02 17:00:00', '2024-02-02 16:30:00', '2024-02-02 16:00:00', '2024-02-02 15:30:00', '2024-02-02 15:00:00', '2024-02-02 14:30:00', '2024-02-02 14:00:00', '2024-02-02 13:30:00', '2024-02-02 13:00:00', '2024-02-02 12:30:00', '2024-02-02 12:00:00', '2024-02-02 11:30:00', '2024-02-02 11:00:00', '2024-02-02 10:30:00', '2024-02-02 10:00:00', '2024-02-02 09:30:00', '2024-02-02 09:00:00', '2024-02-02 08:30:00', '2024-02-02 08:00:00', '2024-02-02 07:30:00', '2024-02-02 07:00:00', '2024-02-02 06:30:00', '2024-02-02 06:00:00', '2024-02-02 05:30:00', '2024-02-02 05:00:00', '2024-02-02 04:30:00', '2024-02-02 04:00:00', '2024-02-02 03:30:00', '2024-02-02 03:00:00', '2024-02-02 02:30:00', '2024-02-02 02:00:00', '2024-02-02 01:30:00', '2024-02-02 01:00:00', '2024-02-02 00:30:00', '2024-02-02 00:00:00', '2024-02-01 23:30:00', '2024-02-01 23:00:00', '2024-02-01 22:30:00', '2024-02-01 22:00:00', '2024-02-01 21:30:00', '2024-02-01 21:00:00', '2024-02-01 20:30:00', '2024-02-01 20:00:00', '2024-02-01 19:30:00', '2024-02-01 19:00:00', '2024-02-01 18:30:00', '2024-02-01 18:00:00', '2024-02-01 17:30:00', '2024-02-01 17:00:00', '2024-02-01 16:30:00', '2024-02-01 16:00:00', '2024-02-01 15:30:00', '2024-02-01 15:00:00', '2024-02-01 14:30:00', '2024-02-01 14:00:00', '2024-02-01 13:30:00', '2024-02-01 13:00:00', '2024-02-01 12:30:00', '2024-02-01 12:00:00', '2024-02-01 11:30:00', '2024-02-01 11:00:00', '2024-02-01 10:30:00', '2024-02-01 10:00:00', '2024-02-01 09:30:00', '2024-02-01 09:00:00', '2024-02-01 08:30:00', '2024-02-01 08:00:00', '2024-02-01 07:30:00', '2024-02-01 07:00:00', '2024-02-01 06:30:00', '2024-02-01 06:00:00', '2024-02-01 05:30:00', '2024-02-01 05:00:00', '2024-02-01 04:30:00', '2024-02-01 04:00:00', '2024-02-01 03:30:00', '2024-02-01 03:00:00', '2024-02-01 02:30:00', '2024-02-01 02:00:00', '2024-02-01 01:30:00', '2024-02-01 01:00:00', '2024-02-01 00:30:00', '2024-02-01 00:00:00', '2024-01-31 23:30:00', '2024-01-31 23:00:00', '2024-01-31 22:30:00']"
Algeria, Djanet Inedbirene Airport (DJG/DAAJ) ,"['DAAJ 032100Z 00000KT CAVOK 11/M11 Q1026', 'DAAJ 032000Z 12003KT CAVOK 11/M14 Q1026', 'DAAJ 031900Z 06004KT CAVOK 11/M14 Q1025', 'DAAJ 031800Z 23005KT CAVOK 15/M13 Q1024', 'DAAJ 031700Z 22004KT CAVOK 16/M13 Q1024', 'DAAJ 031600Z 30004KT CAVOK 17/M13 Q1023', 'DAAJ 031500Z 36003KT CAVOK 18/M12 Q1023', 'DAAJ 031400Z 35005KT CAVOK 17/M12 Q1024', 'DAAJ 031300Z 28004KT CAVOK 16/M11 Q1024', 'DAAJ 031200Z 28005KT CAVOK 15/M09 Q1025', 'DAAJ 031100Z 29003KT CAVOK 14/M09 Q1026', 'DAAJ 031000Z VRB02KT CAVOK 12/M09 Q1026', 'DAAJ 030900Z VRB01KT CAVOK 11/M09 Q1026', 'DAAJ 030800Z 02004KT CAVOK 07/M10 Q1025', 'DAAJ 030700Z VRB01KT CAVOK 02/M11 Q1025', 'DAAJ 030600Z 08003KT CAVOK M00/M12 Q1024', 'DAAJ 030500Z VRB02KT CAVOK 00/M13 Q1024', 'DAAJ 030400Z 05003KT CAVOK 02/M11 Q1023', 'DAAJ 030300Z 16004KT CAVOK 03/M11 Q1024', 'DAAJ 030200Z 04003KT CAVOK 02/M12 Q1024', 'DAAJ 030100Z VRB02KT CAVOK 05/M11 Q1024', 'DAAJ 030000Z 36004KT CAVOK 06/M11 Q1024', 'DAAJ 022300Z 02004KT CAVOK 05/M12 Q1025', 'DAAJ 022200Z 03004KT CAVOK 06/M11 Q1025', 'DAAJ 022000Z 13003KT CAVOK 10/M10 Q1025', 'DAAJ 021900Z VRB02KT CAVOK 11/M11 Q1025', 'DAAJ 021800Z 17005KT CAVOK 13/M10 Q1024', 'DAAJ 021700Z 18005KT CAVOK 15/M10 Q1024', 'DAAJ 021600Z 17006KT CAVOK 16/M11 Q1024', 'DAAJ 021500Z 20005KT CAVOK 16/M09 Q1024', 'DAAJ 021400Z 21005KT CAVOK 16/M09 Q1024', 'DAAJ 021300Z 21004KT CAVOK 15/M08 Q1025', 'DAAJ 021200Z 00000KT CAVOK 15/M07 Q1027', 'DAAJ 021100Z 29003KT CAVOK 13/M07 Q1027', 'DAAJ 021000Z 28004KT CAVOK 12/M07 Q1027', 'DAAJ 020900Z 28008KT CAVOK 09/M08 Q1028', 'DAAJ 020800Z 31007KT CAVOK 07/M09 Q1027', 'DAAJ 020700Z 33005KT CAVOK 02/M10 Q1027', 'DAAJ 020600Z 04003KT CAVOK 00/M11 Q1027', 'DAAJ 020500Z 08003KT CAVOK 01/M10 Q1026', 'DAAJ 020400Z 35003KT CAVOK 01/M11 Q1026', 'DAAJ 020300Z 31005KT CAVOK 03/M11 Q1026', 'DAAJ 020200Z 32003KT CAVOK 02/M13 Q1026', 'DAAJ 020100Z VRB02KT CAVOK 03/M12 Q1027', 'DAAJ 020000Z VRB02KT CAVOK 05/M13 Q1027', 'DAAJ 012300Z 30004KT CAVOK 08/M11 Q1027', 'DAAJ 012200Z VRB02KT CAVOK 08/M11 Q1028', 'DAAJ 012100Z 06005KT CAVOK 08/M12 Q1027', 'DAAJ 012000Z 05004KT CAVOK 08/M13 Q1027', 'DAAJ 011900Z 22003KT CAVOK 10/M11 Q1027', 'DAAJ 011800Z 22004KT CAVOK 13/M10 Q1026', 'DAAJ 011700Z 23005KT CAVOK 15/M10 Q1026', 'DAAJ 011600Z 18005KT CAVOK 16/M09 Q1026', 'DAAJ 011500Z VRB02KT CAVOK 17/M09 Q1026', 'DAAJ 011400Z 24003KT CAVOK 16/M09 Q1026', 'DAAJ 011300Z 19003KT CAVOK 15/M09 Q1027', 'DAAJ 011100Z 28005KT 210V330 CAVOK 12/M07 Q1029', 'DAAJ 011000Z 28004KT CAVOK 11/M07 Q1030', 'DAAJ 010900Z 32003KT 230V020 CAVOK 09/M07 Q1030', 'DAAJ 010800Z VRB01KT CAVOK 07/M07 Q1029', 'DAAJ 010700Z 02003KT CAVOK 02/M08 Q1029', 'DAAJ 010600Z 02003KT CAVOK M00/M09 Q1029', 'DAAJ 010500Z 30004KT CAVOK 03/M07 Q1028', 'DAAJ 010400Z VRB02KT CAVOK 01/M10 Q1027', 'DAAJ 010300Z 26006KT CAVOK 05/M08 Q1027', 'DAAJ 010200Z 14003KT CAVOK 04/M09 Q1027', 'DAAJ 010100Z VRB02KT CAVOK 06/M09 Q1028', 'DAAJ 010000Z 27007KT CAVOK 06/M09 Q1028', 'DAAJ 312300Z 25007KT CAVOK 07/M10 Q1028']","['2024-02-03 21:00:00', '2024-02-03 20:00:00', '2024-02-03 19:00:00', '2024-02-03 18:00:00', '2024-02-03 17:00:00', '2024-02-03 16:00:00', '2024-02-03 15:00:00', '2024-02-03 14:00:00', '2024-02-03 13:00:00', '2024-02-03 12:00:00', '2024-02-03 11:00:00', '2024-02-03 10:00:00', '2024-02-03 09:00:00', '2024-02-03 08:00:00', '2024-02-03 07:00:00', '2024-02-03 06:00:00', '2024-02-03 05:00:00', '2024-02-03 04:00:00', '2024-02-03 03:00:00', '2024-02-03 02:00:00', '2024-02-03 01:00:00', '2024-02-03 00:00:00', '2024-02-02 23:00:00', '2024-02-02 22:00:00', '2024-02-02 20:00:00', '2024-02-02 19:00:00', '2024-02-02 18:00:00', '2024-02-02 17:00:00', '2024-02-02 16:00:00', '2024-02-02 15:00:00', '2024-02-02 14:00:00', '2024-02-02 13:00:00', '2024-02-02 12:00:00', '2024-02-02 11:00:00', '2024-02-02 10:00:00', '2024-02-02 09:00:00', '2024-02-02 08:00:00', '2024-02-02 07:00:00', '2024-02-02 06:00:00', '2024-02-02 05:00:00', '2024-02-02 04:00:00', '2024-02-02 03:00:00', '2024-02-02 02:00:00', '2024-02-02 01:00:00', '2024-02-02 00:00:00', '2024-02-01 23:00:00', '2024-02-01 22:00:00', '2024-02-01 21:00:00', '2024-02-01 20:00:00', '2024-02-01 19:00:00', '2024-02-01 18:00:00', '2024-02-01 17:00:00', '2024-02-01 16:00:00', '2024-02-01 15:00:00', '2024-02-01 14:00:00', '2024-02-01 13:00:00', '2024-02-01 11:00:00', '2024-02-01 10:00:00', '2024-02-01 09:00:00', '2024-02-01 08:00:00', '2024-02-01 07:00:00', '2024-02-01 06:00:00', '2024-02-01 05:00:00', '2024-02-01 04:00:00', '2024-02-01 03:00:00', '2024-02-01 02:00:00', '2024-02-01 01:00:00', '2024-02-01 00:00:00', '2024-01-31 23:00:00']"
Algeria, El Golea Airport (ELG/DAUE) ,"['DAUE 032100Z 06008KT CAVOK 13/02 Q1032', 'DAUE 032000Z 05008KT 9999 FEW040 14/03 Q1031', 'DAUE 031900Z 06004KT 9999 FEW040 15/01 Q1031', 'DAUE 031800Z 06004KT 9999 FEW040 16/01 Q1030', 'DAUE 031700Z 07005KT 9999 FEW040 17/02 Q1030', 'DAUE 031600Z 07006KT 9999 FEW040 18/02 Q1029', 'DAUE 031500Z 07005KT 9999 FEW040 18/02 Q1029', 'DAUE 031400Z 06008KT CAVOK 17/02 Q1029', 'DAUE 031300Z 06008KT CAVOK 18/02 Q1030', 'DAUE 031200Z 05009KT CAVOK 17/02 Q1030', 'DAUE 031100Z 06009KT CAVOK 15/02 Q1031', 'DAUE 031000Z 05008KT CAVOK 14/02 Q1031', 'DAUE 030900Z 04009KT CAVOK 13/02 Q1030', 'DAUE 030800Z 01005KT CAVOK 10/02 Q1029', 'DAUE 030700Z 36005KT CAVOK 08/01 Q1029', 'DAUE 030600Z 35004KT CAVOK 07/01 Q1028', 'DAUE 030500Z 01003KT CAVOK 08/01 Q1028', 'DAUE 030400Z 35004KT CAVOK 08/01 Q1028', 'DAUE 030300Z 04005KT CAVOK 11/02 Q1027', 'DAUE 030200Z 06008KT CAVOK 12/01 Q1027', 'DAUE 030100Z 06008KT CAVOK 12/01 Q1028', 'DAUE 030000Z 06006KT CAVOK 12/M00 Q1028', 'DAUE 022300Z 03004KT CAVOK 08/M03 Q1028', 'DAUE 022200Z VRB01KT CAVOK 07/M04 Q1028', 'DAUE 022000Z VRB02KT CAVOK 10/M04 Q1027', 'DAUE 021900Z VRB02KT CAVOK 12/M04 Q1027', 'DAUE 021800Z VRB02KT CAVOK 15/M03 Q1027', 'DAUE 021700Z 30003KT CAVOK 18/M04 Q1027', 'DAUE 021600Z 32004KT CAVOK 18/M04 Q1027', 'DAUE 021500Z 30004KT CAVOK 18/M04 Q1027', 'DAUE 021400Z 28003KT CAVOK 18/M03 Q1028', 'DAUE 021300Z 01003KT CAVOK 18/M03 Q1028', 'DAUE 021200Z 27003KT CAVOK 16/M03 Q1029', 'DAUE 021100Z 32003KT CAVOK 15/M02 Q1030', 'DAUE 021000Z 33004KT CAVOK 12/M02 Q1031', 'DAUE 020900Z 33004KT CAVOK 07/M03 Q1031', 'DAUE 020800Z 33004KT CAVOK 02/M04 Q1030', 'DAUE 020700Z 35005KT CAVOK M00/M05 Q1030', 'DAUE 020600Z 35003KT CAVOK M00/M05 Q1030', 'DAUE 020500Z 36004KT CAVOK 02/M05 Q1029', 'DAUE 020400Z 01004KT CAVOK 03/M04 Q1029', 'DAUE 020300Z 04003KT CAVOK 03/M04 Q1029', 'DAUE 020200Z 01003KT CAVOK 02/M04 Q1030', 'DAUE 020100Z 35003KT CAVOK 04/M04 Q1030', 'DAUE 020000Z 35003KT CAVOK 04/M04 Q1030', 'DAUE 012300Z VRB01KT CAVOK 05/M04 Q1030', 'DAUE 012200Z VRB01KT CAVOK 06/M03 Q1030', 'DAUE 012100Z VRB01KT CAVOK 07/M03 Q1031', 'DAUE 012000Z 06003KT CAVOK 13/M03 Q1031', 'DAUE 011900Z 07003KT CAVOK 13/M03 Q1030', 'DAUE 011800Z 06004KT CAVOK 15/M02 Q1030', 'DAUE 011700Z 06005KT CAVOK 16/M03 Q1030', 'DAUE 011600Z 05007KT CAVOK 17/M02 Q1030', 'DAUE 011500Z 06008KT CAVOK 17/M02 Q1031', 'DAUE 011400Z 05008KT CAVOK 17/M02 Q1031', 'DAUE 011300Z 08007KT CAVOK 16/M02 Q1031', 'DAUE 011200Z 08007KT CAVOK 15/M01 Q1032', 'DAUE 011100Z 07008KT CAVOK 15/00 Q1033', 'DAUE 011000Z 07007KT CAVOK 13/M00 Q1034', 'DAUE 010900Z 06007KT CAVOK 11/M00 Q1033', 'DAUE 010800Z 06005KT CAVOK 10/M00 Q1033', 'DAUE 010700Z 06005KT CAVOK 08/M00 Q1033', 'DAUE 010600Z 03004KT CAVOK 08/M01 Q1033', 'DAUE 010500Z 09004KT CAVOK 09/M00 Q1032', 'DAUE 010400Z 06005KT CAVOK 09/M00 Q1032', 'DAUE 010300Z 06006KT CAVOK 10/M01 Q1032', 'DAUE 010200Z 05005KT CAVOK 10/M01 Q1032', 'DAUE 010100Z 05004KT CAVOK 10/M01 Q1033', 'DAUE 010000Z 06005KT CAVOK 10/M02 Q1033', 'DAUE 312300Z 07006KT CAVOK 11/M02 Q1032']","['2024-02-03 21:00:00', '2024-02-03 20:00:00', '2024-02-03 19:00:00', '2024-02-03 18:00:00', '2024-02-03 17:00:00', '2024-02-03 16:00:00', '2024-02-03 15:00:00', '2024-02-03 14:00:00', '2024-02-03 13:00:00', '2024-02-03 12:00:00', '2024-02-03 11:00:00', '2024-02-03 10:00:00', '2024-02-03 09:00:00', '2024-02-03 08:00:00', '2024-02-03 07:00:00', '2024-02-03 06:00:00', '2024-02-03 05:00:00', '2024-02-03 04:00:00', '2024-02-03 03:00:00', '2024-02-03 02:00:00', '2024-02-03 01:00:00', '2024-02-03 00:00:00', '2024-02-02 23:00:00', '2024-02-02 22:00:00', '2024-02-02 20:00:00', '2024-02-02 19:00:00', '2024-02-02 18:00:00', '2024-02-02 17:00:00', '2024-02-02 16:00:00', '2024-02-02 15:00:00', '2024-02-02 14:00:00', '2024-02-02 13:00:00', '2024-02-02 12:00:00', '2024-02-02 11:00:00', '2024-02-02 10:00:00', '2024-02-02 09:00:00', '2024-02-02 08:00:00', '2024-02-02 07:00:00', '2024-02-02 06:00:00', '2024-02-02 05:00:00', '2024-02-02 04:00:00', '2024-02-02 03:00:00', '2024-02-02 02:00:00', '2024-02-02 01:00:00', '2024-02-02 00:00:00', '2024-02-01 23:00:00', '2024-02-01 22:00:00', '2024-02-01 21:00:00', '2024-02-01 20:00:00', '2024-02-01 19:00:00', '2024-02-01 18:00:00', '2024-02-01 17:00:00', '2024-02-01 16:00:00', '2024-02-01 15:00:00', '2024-02-01 14:00:00', '2024-02-01 13:00:00', '2024-02-01 12:00:00', '2024-02-01 11:00:00', '2024-02-01 10:00:00', '2024-02-01 09:00:00', '2024-02-01 08:00:00', '2024-02-01 07:00:00', '2024-02-01 06:00:00', '2024-02-01 05:00:00', '2024-02-01 04:00:00', '2024-02-01 03:00:00', '2024-02-01 02:00:00', '2024-02-01 01:00:00', '2024-02-01 00:00:00', '2024-01-31 23:00:00']"
Algeria, El Oued Guemar Airport (ELU/DAUO) ,"['DAUO 032100Z VRB02KT CAVOK 11/M00 Q1033', 'DAUO 032000Z VRB01KT CAVOK 12/M01 Q1032', 'DAUO 031900Z VRB02KT CAVOK 14/M01 Q1032', 'DAUO 031800Z VRB02KT CAVOK 15/00 Q1031', 'DAUO 031700Z 08003KT CAVOK 17/M00 Q1030', 'DAUO 031600Z 06003KT 360V100 CAVOK 17/M01 Q1030', 'DAUO 031500Z 06006KT 030V110 CAVOK 18/M00 Q1030', 'DAUO 031400Z 06008KT 010V100 CAVOK 17/01 Q1030', 'DAUO 031300Z 07008KT 030V110 CAVOK 17/01 Q1031', 'DAUO 031200Z 07009KT CAVOK 17/02 Q1031', 'DAUO 031100Z 08010KT 050V120 CAVOK 16/01 Q1031', 'DAUO 031000Z 06009KT CAVOK 15/03 Q1031', 'DAUO 030900Z 09004KT 050V130 CAVOK 13/06 Q1031', 'DAUO 030800Z VRB02KT CAVOK 12/07 Q1031', 'DAUO 030700Z 06003KT 9999 FEW040 10/06 Q1030', 'DAUO 030600Z 08004KT 9999 FEW040 11/06 Q1029', 'DAUO 030500Z 09007KT 9999 FEW040 12/06 Q1028', 'DAUO 030400Z 09006KT 9999 FEW040 11/05 Q1028', 'DAUO 030300Z 05005KT 9999 FEW040 10/04 Q1028', 'DAUO 030200Z 02004KT 9999 FEW040 10/02 Q1027', 'DAUO 030100Z 09005KT 9999 FEW040 09/02 Q1027', 'DAUO 030000Z 32004KT 9999 FEW040 09/02 Q1027', 'DAUO 022300Z VRB02KT 9999 FEW040 11/02 Q1027', 'DAUO 022200Z VRB02KT 9999 FEW040 13/03 Q1027', 'DAUO 022000Z 12003KT 9999 FEW040 14/03 Q1027', 'DAUO 021900Z VRB02KT 9999 FEW040 15/03 Q1027', 'DAUO 021800Z 30003KT 9999 FEW040 16/03 Q1026', 'DAUO 021700Z 33004KT 9999 FEW040 18/03 Q1026', 'DAUO 021600Z VRB01KT 9999 FEW040 20/03 Q1026', 'DAUO 021500Z VRB02KT 9999 FEW040 19/03 Q1026', 'DAUO 021400Z VRB02KT 9999 FEW046 19/03 Q1026', 'DAUO 021300Z VRB02KT 9999 FEW046 19/03 Q1026', 'DAUO 021200Z 14006KT 090V170 CAVOK 17/03 Q1028', 'DAUO 021100Z 11007KT CAVOK 15/02 Q1029', 'DAUO 021000Z 14005KT 100V170 CAVOK 12/02 Q1029', 'DAUO 020900Z 11005KT 080V140 CAVOK 09/01 Q1029', 'DAUO 020800Z VRB01KT CAVOK 08/02 Q1029', 'DAUO 020700Z 20004KT CAVOK 05/01 Q1028', 'DAUO 020600Z 21005KT CAVOK 05/01 Q1027', 'DAUO 020500Z 20006KT CAVOK 06/01 Q1027', 'DAUO 020400Z 20005KT CAVOK 07/01 Q1028', 'DAUO 020300Z 20005KT CAVOK 07/01 Q1028', 'DAUO 020200Z 20005KT CAVOK 07/01 Q1029', 'DAUO 020100Z 20004KT CAVOK 08/01 Q1029', 'DAUO 020000Z 20005KT CAVOK 08/01 Q1029', 'DAUO 012300Z 21005KT CAVOK 09/01 Q1029', 'DAUO 012200Z 22005KT CAVOK 09/01 Q1029', 'DAUO 012100Z 21005KT CAVOK 10/01 Q1029', 'DAUO 012000Z 22004KT CAVOK 12/01 Q1029', 'DAUO 011900Z 23004KT CAVOK 13/01 Q1029', 'DAUO 011800Z 25003KT CAVOK 15/02 Q1029', 'DAUO 011700Z 25004KT CAVOK 17/02 Q1030', 'DAUO 011600Z 28005KT CAVOK 18/01 Q1030', 'DAUO 011500Z 26005KT CAVOK 18/02 Q1030', 'DAUO 011400Z 28006KT CAVOK 17/03 Q1031', 'DAUO 011300Z 26006KT CAVOK 18/03 Q1031', 'DAUO 011200Z 26008KT CAVOK 17/03 Q1032', 'DAUO 011100Z 25006KT CAVOK 15/03 Q1034', 'DAUO 011000Z 25004KT CAVOK 14/04 Q1034', 'DAUO 010900Z 24005KT CAVOK 10/04 Q1033', 'DAUO 010800Z 26003KT 220V290 CAVOK 07/03 Q1033', 'DAUO 010700Z 22004KT CAVOK 05/03 Q1033', 'DAUO 010600Z 22004KT CAVOK 05/02 Q1032', 'DAUO 010500Z 21005KT CAVOK 06/03 Q1032', 'DAUO 010400Z 20005KT CAVOK 06/03 Q1032', 'DAUO 010300Z 20005KT CAVOK 07/03 Q1032', 'DAUO 010200Z 21005KT CAVOK 07/03 Q1033', 'DAUO 010100Z 19004KT CAVOK 08/03 Q1033', 'DAUO 010000Z 17003KT CAVOK 08/03 Q1033', 'DAUO 312300Z 19003KT CAVOK 09/03 Q1033']","['2024-02-03 21:00:00', '2024-02-03 20:00:00', '2024-02-03 19:00:00', '2024-02-03 18:00:00', '2024-02-03 17:00:00', '2024-02-03 16:00:00', '2024-02-03 15:00:00', '2024-02-03 14:00:00', '2024-02-03 13:00:00', '2024-02-03 12:00:00', '2024-02-03 11:00:00', '2024-02-03 10:00:00', '2024-02-03 09:00:00', '2024-02-03 08:00:00', '2024-02-03 07:00:00', '2024-02-03 06:00:00', '2024-02-03 05:00:00', '2024-02-03 04:00:00', '2024-02-03 03:00:00', '2024-02-03 02:00:00', '2024-02-03 01:00:00', '2024-02-03 00:00:00', '2024-02-02 23:00:00', '2024-02-02 22:00:00', '2024-02-02 20:00:00', '2024-02-02 19:00:00', '2024-02-02 18:00:00', '2024-02-02 17:00:00', '2024-02-02 16:00:00', '2024-02-02 15:00:00', '2024-02-02 14:00:00', '2024-02-02 13:00:00', '2024-02-02 12:00:00', '2024-02-02 11:00:00', '2024-02-02 10:00:00', '2024-02-02 09:00:00', '2024-02-02 08:00:00', '2024-02-02 07:00:00', '2024-02-02 06:00:00', '2024-02-02 05:00:00', '2024-02-02 04:00:00', '2024-02-02 03:00:00', '2024-02-02 02:00:00', '2024-02-02 01:00:00', '2024-02-02 00:00:00', '2024-02-01 23:00:00', '2024-02-01 22:00:00', '2024-02-01 21:00:00', '2024-02-01 20:00:00', '2024-02-01 19:00:00', '2024-02-01 18:00:00', '2024-02-01 17:00:00', '2024-02-01 16:00:00', '2024-02-01 15:00:00', '2024-02-01 14:00:00', '2024-02-01 13:00:00', '2024-02-01 12:00:00', '2024-02-01 11:00:00', '2024-02-01 10:00:00', '2024-02-01 09:00:00', '2024-02-01 08:00:00', '2024-02-01 07:00:00', '2024-02-01 06:00:00', '2024-02-01 05:00:00', '2024-02-01 04:00:00', '2024-02-01 03:00:00', '2024-02-01 02:00:00', '2024-02-01 01:00:00', '2024-02-01 00:00:00', '2024-01-31 23:00:00']"
Algeria, Ghardaia Noumerate Airport (GHA/DAUG) ,"['DAUG 032100Z 05005KT CAVOK 10/02 Q1033', 'DAUG 032000Z 06004KT CAVOK 11/02 Q1033', 'DAUG 031900Z 07004KT CAVOK 13/03 Q1033', 'DAUG 031800Z 06006KT CAVOK 14/03 Q1032', 'DAUG 031700Z 07009KT 9999 SCT040 15/04 Q1031', 'DAUG 031600Z 08011KT 9999 SCT040 16/04 Q1031', 'DAUG 031500Z 07010KT 9999 SCT040 16/04 Q1031', 'DAUG 031400Z 08009KT 9999 SCT040 16/04 Q1031', 'DAUG 031300Z 08010KT 9999 SCT040 16/05 Q1031', 'DAUG 031200Z 09011KT 9999 FEW040 16/05 Q1032', 'DAUG 031100Z 07014KT 9000 DRSA NSC 15/05 Q1032', 'DAUG 031000Z 07015KT 8000 DRSA NSC 13/04 Q1032', 'DAUG 030900Z 03011KT CAVOK 11/03 Q1031', 'DAUG 030800Z 36011KT CAVOK 10/03 Q1031', 'DAUG 030700Z 36011KT CAVOK 09/02 Q1030', 'DAUG 030600Z 34007KT CAVOK 08/02 Q1030', 'DAUG 030500Z 34008KT CAVOK 08/01 Q1029', 'DAUG 030400Z 34010KT CAVOK 10/02 Q1029', 'DAUG 030300Z 35010KT CAVOK 10/01 Q1029', 'DAUG 030200Z 29003KT CAVOK 08/01 Q1029', 'DAUG 030100Z 00000KT CAVOK 08/01 Q1029', 'DAUG 030000Z 32004KT CAVOK 10/01 Q1029', 'DAUG 022300Z 31003KT CAVOK 09/01 Q1029', 'DAUG 022200Z 00000KT CAVOK 11/01 Q1029', 'DAUG 022000Z 06007KT CAVOK 13/01 Q1028', 'DAUG 021900Z 05005KT CAVOK 14/01 Q1028', 'DAUG 021800Z 06009KT CAVOK 16/00 Q1028', 'DAUG 021700Z 03010KT CAVOK 18/M00 Q1027', 'DAUG 021500Z 02007KT 350V060 CAVOK 19/M02 Q1027', 'DAUG 021400Z 04008KT 350V070 CAVOK 18/M01 Q1027', 'DAUG 021300Z 02006KT 340V070 CAVOK 18/01 Q1028', 'DAUG 021200Z 03007KT 320V060 CAVOK 17/02 Q1029', 'DAUG 021100Z 03010KT CAVOK 16/02 Q1030', 'DAUG 021000Z 01006KT 340V040 CAVOK 15/01 Q1030', 'DAUG 020900Z 00000KT CAVOK 12/M00 Q1030', 'DAUG 020800Z 00000KT CAVOK 09/M01 Q1029', 'DAUG 020700Z 29003KT CAVOK 07/M03 Q1029', 'DAUG 020600Z VRB01KT CAVOK 08/M03 Q1029', 'DAUG 020500Z 26004KT CAVOK 09/M03 Q1029', 'DAUG 020400Z 28003KT CAVOK 09/M03 Q1029', 'DAUG 020300Z 26006KT CAVOK 10/M03 Q1029', 'DAUG 020200Z 25004KT CAVOK 10/M03 Q1029', 'DAUG 020100Z 30003KT CAVOK 10/M03 Q1030', 'DAUG 020000Z 30003KT CAVOK 10/M03 Q1030', 'DAUG 012300Z 29003KT 260V320 CAVOK 10/M04 Q1030', 'DAUG 012200Z VRB02KT CAVOK 10/M03 Q1030', 'DAUG 012100Z VRB02KT CAVOK 11/M02 Q1030', 'DAUG 012000Z 25003KT CAVOK 12/M03 Q1030', 'DAUG 011900Z 00000KT CAVOK 13/M03 Q1030', 'DAUG 011800Z 00000KT CAVOK 15/M03 Q1030', 'DAUG 011700Z 36005KT CAVOK 16/M03 Q1031', 'DAUG 011600Z 00000KT CAVOK 17/M03 Q1031', 'DAUG 011500Z 31004KT CAVOK 17/M01 Q1031', 'DAUG 011400Z 00000KT CAVOK 17/M01 Q1032', 'DAUG 011300Z 26004KT CAVOK 16/M00 Q1032', 'DAUG 011200Z 32003KT CAVOK 15/01 Q1033', 'DAUG 011100Z 30004KT CAVOK 15/01 Q1034', 'DAUG 011000Z 23004KT CAVOK 13/01 Q1035', 'DAUG 010900Z 00000KT CAVOK 11/01 Q1034', 'DAUG 010800Z 00000KT CAVOK 08/M00 Q1034', 'DAUG 010700Z 30003KT CAVOK 06/M00 Q1034', 'DAUG 010600Z 00000KT CAVOK 05/M01 Q1033', 'DAUG 010500Z 31003KT CAVOK 05/M02 Q1033', 'DAUG 010400Z 31003KT CAVOK 06/M01 Q1033', 'DAUG 010300Z 00000KT CAVOK 07/M01 Q1033', 'DAUG 010200Z 00000KT CAVOK 07/M01 Q1034', 'DAUG 010100Z 00000KT CAVOK 07/M01 Q1034', 'DAUG 010000Z 00000KT CAVOK 08/M01 Q1034', 'DAUG 312300Z 00000KT CAVOK 08/M01 Q1034']","['2024-02-03 21:00:00', '2024-02-03 20:00:00', '2024-02-03 19:00:00', '2024-02-03 18:00:00', '2024-02-03 17:00:00', '2024-02-03 16:00:00', '2024-02-03 15:00:00', '2024-02-03 14:00:00', '2024-02-03 13:00:00', '2024-02-03 12:00:00', '2024-02-03 11:00:00', '2024-02-03 10:00:00', '2024-02-03 09:00:00', '2024-02-03 08:00:00', '2024-02-03 07:00:00', '2024-02-03 06:00:00', '2024-02-03 05:00:00', '2024-02-03 04:00:00', '2024-02-03 03:00:00', '2024-02-03 02:00:00', '2024-02-03 01:00:00', '2024-02-03 00:00:00', '2024-02-02 23:00:00', '2024-02-02 22:00:00', '2024-02-02 20:00:00', '2024-02-02 19:00:00', '2024-02-02 18:00:00', '2024-02-02 17:00:00', '2024-02-02 15:00:00', '2024-02-02 14:00:00', '2024-02-02 13:00:00', '2024-02-02 12:00:00', '2024-02-02 11:00:00', '2024-02-02 10:00:00', '2024-02-02 09:00:00', '2024-02-02 08:00:00', '2024-02-02 07:00:00', '2024-02-02 06:00:00', '2024-02-02 05:00:00', '2024-02-02 04:00:00', '2024-02-02 03:00:00', '2024-02-02 02:00:00', '2024-02-02 01:00:00', '2024-02-02 00:00:00', '2024-02-01 23:00:00', '2024-02-01 22:00:00', '2024-02-01 21:00:00', '2024-02-01 20:00:00', '2024-02-01 19:00:00', '2024-02-01 18:00:00', '2024-02-01 17:00:00', '2024-02-01 16:00:00', '2024-02-01 15:00:00', '2024-02-01 14:00:00', '2024-02-01 13:00:00', '2024-02-01 12:00:00', '2024-02-01 11:00:00', '2024-02-01 10:00:00', '2024-02-01 09:00:00', '2024-02-01 08:00:00', '2024-02-01 07:00:00', '2024-02-01 06:00:00', '2024-02-01 05:00:00', '2024-02-01 04:00:00', '2024-02-01 03:00:00', '2024-02-01 02:00:00', '2024-02-01 01:00:00', '2024-02-01 00:00:00', '2024-01-31 23:00:00']"
Algeria, Hassi Messaoud Oued Irara Airport (HME/DAUH) ,"['DAUH 032100Z 01004KT 340V050 CAVOK 12/04 Q1032', 'DAUH 032000Z 02004KT 350V050 CAVOK 13/04 Q1032', 'DAUH 031900Z 03004KT 340V070 CAVOK 14/04 Q1031', 'DAUH 031800Z 04003KT 350V080 CAVOK 15/04 Q1030', 'DAUH 031700Z 05005KT 360V090 CAVOK 16/03 Q1030', 'DAUH 031600Z 05007KT 350V110 9999 FEW033 17/04 Q1029', 'DAUH 031500Z 03006KT 340V090 9999 SCT033 17/04 Q1029', 'DAUH 031400Z 06008KT 360V100 9999 BKN033 18/05 Q1029', 'DAUH 031300Z 06008KT 020V090 9999 FEW033 18/06 Q1029', 'DAUH 031200Z 07009KT 020V100 9999 FEW033 17/06 Q1030', 'DAUH 031100Z 07012KT 030V100 9999 FEW033 16/06 Q1030', 'DAUH 031000Z 08011KT CAVOK 15/04 Q1030', 'DAUH 030900Z 05004KT 350V100 CAVOK 13/02 Q1030', 'DAUH 030800Z 35003KT 320V020 CAVOK 09/01 Q1029', 'DAUH 030700Z 35005KT CAVOK 06/00 Q1028', 'DAUH 030600Z 35004KT CAVOK 07/00 Q1028', 'DAUH 030500Z 36004KT CAVOK 08/01 Q1027', 'DAUH 030400Z VRB01KT CAVOK 08/01 Q1027', 'DAUH 030300Z VRB01KT CAVOK 06/M00 Q1027', 'DAUH 030200Z VRB01KT CAVOK 07/M00 Q1027', 'DAUH 030100Z VRB01KT CAVOK 07/00 Q1027', 'DAUH 030000Z 02004KT CAVOK 10/01 Q1027', 'DAUH 022300Z 01003KT CAVOK 09/00 Q1027', 'DAUH 022200Z 36004KT CAVOK 09/M00 Q1027', 'DAUH 022000Z VRB02KT CAVOK 11/M01 Q1027', 'DAUH 021900Z VRB02KT CAVOK 12/M01 Q1026', 'DAUH 021800Z VRB01KT CAVOK 15/M00 Q1026', 'DAUH 021700Z 30001KT CAVOK 18/M01 Q1026', 'DAUH 021600Z 29004KT 260V350 CAVOK 18/M01 Q1026', 'DAUH 021500Z 26004KT 230V330 CAVOK 18/M01 Q1026', 'DAUH 021400Z 26004KT 210V320 CAVOK 18/M01 Q1026', 'DAUH 021300Z 24005KT 210V310 CAVOK 18/M00 Q1027', 'DAUH 021200Z 25005KT 220V280 CAVOK 17/00 Q1028', 'DAUH 021100Z 24005KT 210V280 CAVOK 15/01 Q1029', 'DAUH 021000Z 23005KT CAVOK 13/00 Q1030', 'DAUH 020900Z 22005KT CAVOK 10/00 Q1029', 'DAUH 020800Z 21003KT CAVOK 07/00 Q1029', 'DAUH 020700Z 23002KT CAVOK 03/M02 Q1029', 'DAUH 020600Z 22003KT CAVOK 03/M02 Q1029', 'DAUH 020500Z 23004KT CAVOK 04/M02 Q1028', 'DAUH 020400Z 23003KT CAVOK 03/M02 Q1028', 'DAUH 020300Z 20001KT CAVOK 04/M02 Q1028', 'DAUH 020200Z 07001KT CAVOK 04/M02 Q1029', 'DAUH 020100Z 16002KT CAVOK 06/M01 Q1029', 'DAUH 020000Z VRB01KT CAVOK 07/M01 Q1029', 'DAUH 012300Z 25002KT CAVOK 07/M01 Q1029', 'DAUH 012200Z VRB01KT CAVOK 08/M01 Q1030', 'DAUH 012100Z 20001KT CAVOK 09/M00 Q1030', 'DAUH 012000Z VRB01KT CAVOK 10/00 Q1030', 'DAUH 011900Z VRB01KT CAVOK 12/M00 Q1030', 'DAUH 011800Z 34002KT CAVOK 15/00 Q1030', 'DAUH 011700Z VRB01KT CAVOK 17/00 Q1030', 'DAUH 011600Z 28003KT 240V010 CAVOK 18/00 Q1030', 'DAUH 011500Z 29003KT 210V350 CAVOK 18/01 Q1030', 'DAUH 011400Z VRB01KT CAVOK 18/01 Q1031', 'DAUH 011300Z VRB03KT CAVOK 18/01 Q1031', 'DAUH 011200Z VRB02KT CAVOK 17/01 Q1032', 'DAUH 011100Z VRB02KT CAVOK 17/02 Q1033', 'DAUH 011000Z VRB02KT CAVOK 16/02 Q1034', 'DAUH 010900Z VRB01KT CAVOK 11/03 Q1034', 'DAUH 010800Z 34003KT CAVOK 08/02 Q1033', 'DAUH 010700Z VRB01KT CAVOK 04/01 Q1033', 'DAUH 010600Z 35001KT CAVOK 03/M00 Q1033', 'DAUH 010500Z VRB01KT CAVOK 04/00 Q1032', 'DAUH 010400Z 24001KT CAVOK 04/01 Q1032', 'DAUH 010300Z VRB01KT CAVOK 06/01 Q1032', 'DAUH 010200Z 33003KT CAVOK 05/00 Q1032', 'DAUH 010100Z VRB01KT CAVOK 06/01 Q1032', 'DAUH 010000Z VRB02KT CAVOK 07/01 Q1033', 'DAUH 312300Z 06003KT CAVOK 09/01 Q1033']","['2024-02-03 21:00:00', '2024-02-03 20:00:00', '2024-02-03 19:00:00', '2024-02-03 18:00:00', '2024-02-03 17:00:00', '2024-02-03 16:00:00', '2024-02-03 15:00:00', '2024-02-03 14:00:00', '2024-02-03 13:00:00', '2024-02-03 12:00:00', '2024-02-03 11:00:00', '2024-02-03 10:00:00', '2024-02-03 09:00:00', '2024-02-03 08:00:00', '2024-02-03 07:00:00', '2024-02-03 06:00:00', '2024-02-03 05:00:00', '2024-02-03 04:00:00', '2024-02-03 03:00:00', '2024-02-03 02:00:00', '2024-02-03 01:00:00', '2024-02-03 00:00:00', '2024-02-02 23:00:00', '2024-02-02 22:00:00', '2024-02-02 20:00:00', '2024-02-02 19:00:00', '2024-02-02 18:00:00', '2024-02-02 17:00:00', '2024-02-02 16:00:00', '2024-02-02 15:00:00', '2024-02-02 14:00:00', '2024-02-02 13:00:00', '2024-02-02 12:00:00', '2024-02-02 11:00:00', '2024-02-02 10:00:00', '2024-02-02 09:00:00', '2024-02-02 08:00:00', '2024-02-02 07:00:00', '2024-02-02 06:00:00', '2024-02-02 05:00:00', '2024-02-02 04:00:00', '2024-02-02 03:00:00', '2024-02-02 02:00:00', '2024-02-02 01:00:00', '2024-02-02 00:00:00', '2024-02-01 23:00:00', '2024-02-01 22:00:00', '2024-02-01 21:00:00', '2024-02-01 20:00:00', '2024-02-01 19:00:00', '2024-02-01 18:00:00', '2024-02-01 17:00:00', '2024-02-01 16:00:00', '2024-02-01 15:00:00', '2024-02-01 14:00:00', '2024-02-01 13:00:00', '2024-02-01 12:00:00', '2024-02-01 11:00:00', '2024-02-01 10:00:00', '2024-02-01 09:00:00', '2024-02-01 08:00:00', '2024-02-01 07:00:00', '2024-02-01 06:00:00', '2024-02-01 05:00:00', '2024-02-01 04:00:00', '2024-02-01 03:00:00', '2024-02-01 02:00:00', '2024-02-01 01:00:00', '2024-02-01 00:00:00', '2024-01-31 23:00:00']"
Algeria, Illizi Takhamalt Airport (VVZ/DAAP) ,"['DAAP 032100Z 06006KT CAVOK 12/M07 Q1028', 'DAAP 032000Z 06008KT CAVOK 12/M07 Q1028', 'DAAP 031900Z 05009KT CAVOK 13/M07 Q1027', 'DAAP 031800Z 04010KT CAVOK 15/M07 Q1027', 'DAAP 031700Z 04012KT CAVOK 17/M06 Q1025', 'DAAP 031600Z 05010KT CAVOK 19/M06 Q1025', 'DAAP 031500Z 03011KT CAVOK 19/M06 Q1025', 'DAAP 031400Z 06011KT CAVOK 19/M05 Q1025', 'DAAP 031300Z 07007KT CAVOK 18/M05 Q1025', 'DAAP 031200Z 09004KT CAVOK 18/M05 Q1026', 'DAAP 031100Z 07005KT CAVOK 17/M05 Q1026', 'DAAP 031000Z 07004KT CAVOK 14/M06 Q1026', 'DAAP 030900Z 06004KT CAVOK 11/M06 Q1026', 'DAAP 030800Z 09004KT CAVOK 08/M06 Q1026', 'DAAP 030700Z VRB03KT CAVOK 04/M08 Q1025', 'DAAP 030600Z VRB03KT CAVOK 03/M08 Q1025', 'DAAP 030500Z VRB03KT CAVOK 03/M10 Q1025', 'DAAP 030400Z 05004KT CAVOK 04/M10 Q1024', 'DAAP 030300Z 10005KT CAVOK 05/M08 Q1024', 'DAAP 030200Z 10005KT CAVOK 06/M08 Q1024', 'DAAP 030100Z 11005KT CAVOK 07/M08 Q1025', 'DAAP 030000Z 09004KT CAVOK 08/M08 Q1025', 'DAAP 022300Z 11005KT CAVOK 09/M08 Q1026', 'DAAP 022200Z 10004KT CAVOK 10/M08 Q1026', 'DAAP 022000Z 07005KT CAVOK 13/M08 Q1026', 'DAAP 021900Z 06005KT CAVOK 14/M08 Q1025', 'DAAP 021800Z 06005KT CAVOK 17/M08 Q1025', 'DAAP 021700Z VRB03KT CAVOK 19/M07 Q1024', 'DAAP 021600Z 12004KT CAVOK 20/M06 Q1024', 'DAAP 021500Z 06005KT CAVOK 20/M06 Q1024', 'DAAP 021400Z 06005KT CAVOK 20/M06 Q1025', 'DAAP 021300Z 07006KT CAVOK 19/M05 Q1025', 'DAAP 021200Z 13004KT CAVOK 19/M05 Q1026', 'DAAP 021100Z VRB03KT CAVOK 18/M05 Q1027', 'DAAP 021000Z 14005KT CAVOK 16/M03 Q1027', 'DAAP 020900Z 13004KT CAVOK 14/M02 Q1028', 'DAAP 020800Z VRB03KT CAVOK 09/M02 Q1028', 'DAAP 020700Z 11004KT CAVOK 04/M04 Q1027', 'DAAP 020600Z 11005KT CAVOK 03/M05 Q1027', 'DAAP 020500Z 11005KT CAVOK 04/M05 Q1026', 'DAAP 020400Z 10005KT CAVOK 04/M05 Q1026', 'DAAP 020300Z 10004KT CAVOK 05/M05 Q1026', 'DAAP 020200Z 11004KT CAVOK 06/M04 Q1027', 'DAAP 020100Z 11005KT CAVOK 07/M04 Q1027', 'DAAP 020000Z 11005KT CAVOK 08/M04 Q1028', 'DAAP 012300Z 10005KT CAVOK 08/M05 Q1028', 'DAAP 012200Z 09004KT CAVOK 09/M05 Q1029', 'DAAP 012100Z 09006KT CAVOK 11/M05 Q1028', 'DAAP 012000Z 09006KT CAVOK 12/M05 Q1028', 'DAAP 011900Z 08006KT CAVOK 13/M04 Q1028', 'DAAP 011800Z 07009KT CAVOK 15/M04 Q1027', 'DAAP 011700Z 08011KT CAVOK 17/M04 Q1026', 'DAAP 011600Z 09007KT CAVOK 19/M04 Q1026', 'DAAP 011500Z 10007KT 040V150 CAVOK 19/M04 Q1026', 'DAAP 011400Z 11006G16KT 070V160 CAVOK 19/M04 Q1026', 'DAAP 011300Z 11006KT 360V150 CAVOK 18/M04 Q1027', 'DAAP 011200Z 13007KT 060V180 CAVOK 17/M03 Q1028', 'DAAP 011100Z 13007KT CAVOK 17/M04 Q1029', 'DAAP 011000Z 13012KT 100V160 CAVOK 15/M02 Q1030', 'DAAP 010900Z 13012KT CAVOK 13/M02 Q1031', 'DAAP 010800Z 13005KT 080V160 CAVOK 11/M01 Q1030', 'DAAP 010700Z 12005KT CAVOK 07/M02 Q1030', 'DAAP 010600Z 12006KT CAVOK 05/M02 Q1030', 'DAAP 010500Z 11007KT CAVOK 05/M02 Q1030', 'DAAP 010400Z 12006KT CAVOK 05/M02 Q1029', 'DAAP 010300Z 12005KT CAVOK 05/M02 Q1030', 'DAAP 010200Z 09006KT CAVOK 05/M03 Q1030', 'DAAP 010100Z 11006KT CAVOK 06/M02 Q1030', 'DAAP 010000Z 12006KT CAVOK 08/M01 Q1031', 'DAAP 312300Z 10007KT CAVOK 09/M02 Q1031']","['2024-02-03 21:00:00', '2024-02-03 20:00:00', '2024-02-03 19:00:00', '2024-02-03 18:00:00', '2024-02-03 17:00:00', '2024-02-03 16:00:00', '2024-02-03 15:00:00', '2024-02-03 14:00:00', '2024-02-03 13:00:00', '2024-02-03 12:00:00', '2024-02-03 11:00:00', '2024-02-03 10:00:00', '2024-02-03 09:00:00', '2024-02-03 08:00:00', '2024-02-03 07:00:00', '2024-02-03 06:00:00', '2024-02-03 05:00:00', '2024-02-03 04:00:00', '2024-02-03 03:00:00', '2024-02-03 02:00:00', '2024-02-03 01:00:00', '2024-02-03 00:00:00', '2024-02-02 23:00:00', '2024-02-02 22:00:00', '2024-02-02 20:00:00', '2024-02-02 19:00:00', '2024-02-02 18:00:00', '2024-02-02 17:00:00', '2024-02-02 16:00:00', '2024-02-02 15:00:00', '2024-02-02 14:00:00', '2024-02-02 13:00:00', '2024-02-02 12:00:00', '2024-02-02 11:00:00', '2024-02-02 10:00:00', '2024-02-02 09:00:00', '2024-02-02 08:00:00', '2024-02-02 07:00:00', '2024-02-02 06:00:00', '2024-02-02 05:00:00', '2024-02-02 04:00:00', '2024-02-02 03:00:00', '2024-02-02 02:00:00', '2024-02-02 01:00:00', '2024-02-02 00:00:00', '2024-02-01 23:00:00', '2024-02-01 22:00:00', '2024-02-01 21:00:00', '2024-02-01 20:00:00', '2024-02-01 19:00:00', '2024-02-01 18:00:00', '2024-02-01 17:00:00', '2024-02-01 16:00:00', '2024-02-01 15:00:00', '2024-02-01 14:00:00', '2024-02-01 13:00:00', '2024-02-01 12:00:00', '2024-02-01 11:00:00', '2024-02-01 10:00:00', '2024-02-01 09:00:00', '2024-02-01 08:00:00', '2024-02-01 07:00:00', '2024-02-01 06:00:00', '2024-02-01 05:00:00', '2024-02-01 04:00:00', '2024-02-01 03:00:00', '2024-02-01 02:00:00', '2024-02-01 01:00:00', '2024-02-01 00:00:00', '2024-01-31 23:00:00']"
Algeria, In Amenas Zarzaitine Airport (IAM/DAUZ) ,"['DAUZ 032100Z 03005KT CAVOK 11/M00 Q1028', 'DAUZ 032000Z 03005KT CAVOK 13/M01 Q1028', 'DAUZ 031900Z 01004KT CAVOK 14/M02 Q1028', 'DAUZ 031800Z 07004KT CAVOK 14/M02 Q1027', 'DAUZ 031700Z 06006KT CAVOK 16/M01 Q1026', 'DAUZ 031600Z 07006KT 040V100 CAVOK 17/M02 Q1026', 'DAUZ 031500Z 06004KT 010V110 CAVOK 17/M04 Q1026', 'DAUZ 031400Z 05005KT 010V120 CAVOK 16/M04 Q1026', 'DAUZ 031300Z 08004KT 360V130 CAVOK 16/M02 Q1026', 'DAUZ 031200Z 09005KT 040V130 CAVOK 16/M02 Q1027', 'DAUZ 031100Z 07007KT 360V110 CAVOK 15/M01 Q1027', 'DAUZ 031000Z 06010KT CAVOK 13/M01 Q1027', 'DAUZ 030900Z 05010KT CAVOK 11/M01 Q1027', 'DAUZ 030800Z 04006KT CAVOK 07/M03 Q1027', 'DAUZ 030700Z 02004KT CAVOK 03/M05 Q1026', 'DAUZ 030600Z 04004KT CAVOK 02/M06 Q1025', 'DAUZ 030500Z 06003KT CAVOK 03/M05 Q1025', 'DAUZ 030400Z 05004KT CAVOK 03/M06 Q1025', 'DAUZ 030300Z 05006KT CAVOK 04/M05 Q1025', 'DAUZ 030200Z 06004KT CAVOK 04/M05 Q1025', 'DAUZ 030000Z 03010KT CAVOK 06/M05 Q1026', 'DAUZ 022300Z 03009KT CAVOK 08/M06 Q1026', 'DAUZ 022200Z 03004KT CAVOK 10/M06 Q1026', 'DAUZ 022000Z 14004KT 040V150 CAVOK 10/M07 Q1026', 'DAUZ 021900Z 13005KT CAVOK 12/M07 Q1026', 'DAUZ 021800Z 11003KT CAVOK 15/M06 Q1025', 'DAUZ 021700Z VRB01KT CAVOK 16/M05 Q1025', 'DAUZ 021600Z VRB02KT CAVOK 17/M05 Q1025', 'DAUZ 021500Z 00000KT CAVOK 17/M05 Q1025', 'DAUZ 021400Z 36003KT CAVOK 16/M04 Q1025', 'DAUZ 021300Z 11004KT 060V150 CAVOK 15/M03 Q1025', 'DAUZ 021200Z 15005KT 100V210 CAVOK 15/M03 Q1027', 'DAUZ 021100Z 14005KT 100V180 CAVOK 14/M02 Q1028', 'DAUZ 021000Z 12005KT CAVOK 12/M02 Q1029', 'DAUZ 020900Z 09003KT CAVOK 10/M03 Q1029', 'DAUZ 020800Z 06004KT CAVOK 06/M04 Q1028', 'DAUZ 020700Z 05006KT CAVOK 03/M05 Q1028', 'DAUZ 020600Z 05005KT CAVOK 01/M07 Q1028', 'DAUZ 020500Z 05005KT CAVOK 02/M07 Q1028', 'DAUZ 020400Z 05007KT CAVOK 02/M06 Q1027', 'DAUZ 020300Z 06004KT CAVOK 03/M06 Q1027', 'DAUZ 020200Z 04004KT CAVOK 03/M06 Q1028', 'DAUZ 020100Z 06003KT CAVOK 04/M06 Q1028', 'DAUZ 020000Z 11003KT CAVOK 06/M05 Q1029', 'DAUZ 012300Z 12004KT CAVOK 06/M05 Q1029', 'DAUZ 012200Z 10006KT CAVOK 08/M04 Q1029', 'DAUZ 012100Z 10006KT CAVOK 09/M04 Q1029', 'DAUZ 012000Z 07005KT CAVOK 08/M05 Q1029', 'DAUZ 011900Z 09005KT CAVOK 11/M03 Q1029', 'DAUZ 011800Z 09006KT CAVOK 12/M04 Q1029', 'DAUZ 011700Z 08008KT CAVOK 14/M03 Q1029', 'DAUZ 011600Z 09009KT CAVOK 15/M03 Q1029', 'DAUZ 011500Z 09008KT CAVOK 16/M03 Q1029', 'DAUZ 011400Z 11009KT 080V150 CAVOK 15/M03 Q1029', 'DAUZ 011300Z 13009KT CAVOK 15/M02 Q1029', 'DAUZ 011200Z 12011KT 090V150 CAVOK 14/M02 Q1030', 'DAUZ 011100Z 13012KT CAVOK 13/M02 Q1031', 'DAUZ 011000Z 13016KT CAVOK 13/M01 Q1032', 'DAUZ 010900Z 11009KT CAVOK 10/M02 Q1032', 'DAUZ 010800Z 06006KT CAVOK 05/M03 Q1032', 'DAUZ 010700Z 06007KT CAVOK 02/M03 Q1031', 'DAUZ 010600Z 07006KT CAVOK 01/M04 Q1031', 'DAUZ 010500Z 07006KT CAVOK 02/M03 Q1030', 'DAUZ 010400Z 07006KT CAVOK 02/M03 Q1030', 'DAUZ 010300Z 07005KT CAVOK 02/M03 Q1030', 'DAUZ 010200Z 07005KT CAVOK 03/M04 Q1031', 'DAUZ 010100Z 06005KT CAVOK 04/M03 Q1031', 'DAUZ 010000Z 07005KT CAVOK 04/M03 Q1031', 'DAUZ 312300Z 10005KT CAVOK 06/M02 Q1031']","['2024-02-03 21:00:00', '2024-02-03 20:00:00', '2024-02-03 19:00:00', '2024-02-03 18:00:00', '2024-02-03 17:00:00', '2024-02-03 16:00:00', '2024-02-03 15:00:00', '2024-02-03 14:00:00', '2024-02-03 13:00:00', '2024-02-03 12:00:00', '2024-02-03 11:00:00', '2024-02-03 10:00:00', '2024-02-03 09:00:00', '2024-02-03 08:00:00', '2024-02-03 07:00:00', '2024-02-03 06:00:00', '2024-02-03 05:00:00', '2024-02-03 04:00:00', '2024-02-03 03:00:00', '2024-02-03 02:00:00', '2024-02-03 00:00:00', '2024-02-02 23:00:00', '2024-02-02 22:00:00', '2024-02-02 20:00:00', '2024-02-02 19:00:00', '2024-02-02 18:00:00', '2024-02-02 17:00:00', '2024-02-02 16:00:00', '2024-02-02 15:00:00', '2024-02-02 14:00:00', '2024-02-02 13:00:00', '2024-02-02 12:00:00', '2024-02-02 11:00:00', '2024-02-02 10:00:00', '2024-02-02 09:00:00', '2024-02-02 08:00:00', '2024-02-02 07:00:00', '2024-02-02 06:00:00', '2024-02-02 05:00:00', '2024-02-02 04:00:00', '2024-02-02 03:00:00', '2024-02-02 02:00:00', '2024-02-02 01:00:00', '2024-02-02 00:00:00', '2024-02-01 23:00:00', '2024-02-01 22:00:00', '2024-02-01 21:00:00', '2024-02-01 20:00:00', '2024-02-01 19:00:00', '2024-02-01 18:00:00', '2024-02-01 17:00:00', '2024-02-01 16:00:00', '2024-02-01 15:00:00', '2024-02-01 14:00:00', '2024-02-01 13:00:00', '2024-02-01 12:00:00', '2024-02-01 11:00:00', '2024-02-01 10:00:00', '2024-02-01 09:00:00', '2024-02-01 08:00:00', '2024-02-01 07:00:00', '2024-02-01 06:00:00', '2024-02-01 05:00:00', '2024-02-01 04:00:00', '2024-02-01 03:00:00', '2024-02-01 02:00:00', '2024-02-01 01:00:00', '2024-02-01 00:00:00', '2024-01-31 23:00:00']"
Algeria, Jijel Ferhat Abbas Airport (GJL/DAAV) ,"['DAAV 032100Z VRB02KT CAVOK 10/09 Q1033', 'DAAV 032000Z VRB02KT CAVOK 10/09 Q1033', 'DAAV 031900Z VRB02KT CAVOK 12/10 Q1033', 'DAAV 031800Z VRB01KT 9999 FEW020 12/11 Q1033', 'DAAV 031700Z VRB02KT 9999 FEW020 15/11 Q1032', 'DAAV 031600Z 33003KT 300V010 9999 FEW020 16/11 Q1032', 'DAAV 031500Z 34004KT 300V010 9999 FEW020 16/11 Q1032', 'DAAV 031400Z 33004KT 300V010 9999 FEW020 17/11 Q1032', 'DAAV 031300Z 33004KT 9999 FEW020 16/11 Q1032', 'DAAV 031200Z 35004KT 310V030 9999 FEW020 16/12 Q1033', 'DAAV 031100Z 32005KT 9999 FEW020 16/12 Q1033', 'DAAV 031000Z 31004KT 280V360 9999 SCT020 16/12 Q1033', 'DAAV 030900Z VRB02KT 9999 FEW020 15/12 Q1033', 'DAAV 030800Z VRB02KT 9999 FEW020 12/11 Q1032', 'DAAV 030620Z VRB03KT 9999 0900SSW FG FEW020TCU 11/10 Q1031', 'DAAV 030600Z 14003KT 9999 FEW020 11/10 Q1031', 'DAAV 030500Z 11004KT 9999 FEW020 SCT033 12/11 Q1031', 'DAAV 030400Z VRB02KT 9999 FEW020 BKN033 13/12 Q1031', 'DAAV 030300Z VRB02KT 9999 SCT020 BKN033 12/11 Q1031', 'DAAV 030200Z VRB02KT 9999 SCT020 SCT033 12/11 Q1031', 'DAAV 030100Z VRB02KT 9999 SCT016 SCT033 13/11 Q1031 RERA', 'DAAV 030018Z 35004KT 320V020 8000 SCT016 BKN033 14/12 Q1031 RERA', 'DAAV 022300Z 16003KT 9999 SCT020 BKN033 13/11 Q1031', 'DAAV 022200Z 17004KT 9999 SCT020 BKN033 13/11 Q1031', 'DAAV 022000Z 33005KT 9999 SCT020 BKN033 15/12 Q1030', 'DAAV 021900Z 33006KT 9999 SCT020 BKN033 14/11 Q1030', 'DAAV 021800Z 33006KT 9000 SCT016 FEW020TCU BKN033 14/11 Q1030', 'DAAV 021700Z 30005KT 260V320 8000 -RA SCT016 FEW020TCU BKN033 14/12 Q1029', 'DAAV 021600Z 28009KT 9999 FEW020 FEW023TCU SCT033 15/11 Q1029', 'DAAV 021500Z 30014G24KT 8000 -RA FEW020 FEW023TCU BKN033 14/11 Q1029', 'DAAV 021400Z 28014KT 9999 FEW020 FEW023TCU SCT033 16/11 Q1029', 'DAAV 021300Z 27009KT 8000 FEW020 FEW023TCU SCT033 15/12 Q1029', 'DAAV 021200Z 25010KT 8000 -RA FEW020 FEW023TCU BKN030 14/11 Q1030', 'DAAV 021100Z 26013KT 9999 FEW020 BKN033 15/10 Q1030', 'DAAV 021000Z 26008KT 9999 FEW020 BKN033 14/11 Q1030', 'DAAV 020900Z 25004KT 9999 FEW020 SCT033 BKN090 13/10 Q1030', 'DAAV 020800Z 17003KT 9999 FEW020 SCT033 BKN090 11/09 Q1030', 'DAAV 020700Z 19003KT 9999 FEW020 SCT033 09/07 Q1030', 'DAAV 020600Z 19004KT 9999 SCT033 BKN090 09/07 Q1030', 'DAAV 020500Z 17003KT CAVOK 09/07 Q1030', 'DAAV 020400Z 19004KT CAVOK 08/06 Q1030', 'DAAV 020300Z 18005KT CAVOK 08/06 Q1030', 'DAAV 020200Z 17002KT CAVOK 08/07 Q1030', 'DAAV 020100Z 19004KT CAVOK 08/06 Q1030', 'DAAV 020000Z 16004KT CAVOK 10/07 Q1031', 'DAAV 012300Z 16003KT 9999 FEW033 09/07 Q1032', 'DAAV 012200Z 18003KT 9999 FEW033 10/07 Q1032', 'DAAV 012100Z 19003KT 9999 FEW033 10/07 Q1032', 'DAAV 012000Z 17003KT CAVOK 10/08 Q1032', 'DAAV 011900Z 19004KT CAVOK 11/08 Q1032', 'DAAV 011800Z 17003KT 9999 FEW033 SCT200 12/08 Q1032', 'DAAV 011700Z 34002KT 9999 FEW020 SCT033 14/08 Q1032', 'DAAV 011600Z 35003KT 310V020 9999 FEW020 SCT033 15/08 Q1032', 'DAAV 011500Z 34003KT 9999 FEW020 SCT033 15/09 Q1032', 'DAAV 011400Z 33004KT 300V020 9999 FEW020 SCT033 16/08 Q1032', 'DAAV 011300Z 33006KT 290V010 9999 FEW020 BKN033 17/09 Q1033', 'DAAV 011200Z 34006KT 320V030 9999 FEW020 BKN033 16/09 Q1034', 'DAAV 011100Z 36004KT 320V050 9999 FEW020 BKN033 16/09 Q1034', 'DAAV 011000Z 05004KT 360V080 8000 FEW020 BKN033 16/09 Q1034', 'DAAV 010900Z VRB02KT 8000 FEW020 BKN033 14/11 Q1033', 'DAAV 010800Z 00000KT 8000 FEW020 BKN033 13/11 Q1033', 'DAAV 010700Z 18003KT 8000 FEW020 BKN033 13/10 Q1033', 'DAAV 010600Z 18003KT 8000 FEW020 BKN033 13/11 Q1032', 'DAAV 010500Z 18002KT 8000 FEW020 BKN033 13/11 Q1032', 'DAAV 010400Z 15002KT 8000 FEW020 BKN033 13/11 Q1032', 'DAAV 010300Z VRB02KT 8000 FEW020 BKN033 13/11 Q1032', 'DAAV 010200Z 17002KT 8000 FEW020 BKN033 13/11 Q1033', 'DAAV 010100Z VRB02KT 8000 SCT020 BKN033 13/10 Q1033', 'DAAV 010000Z 20003KT 150V230 8000 SCT020 BKN033 13/11 Q1033', 'DAAV 312300Z 16003KT 8000 FEW020 BKN033 13/11 Q1033']","['2024-02-03 21:00:00', '2024-02-03 20:00:00', '2024-02-03 19:00:00', '2024-02-03 18:00:00', '2024-02-03 17:00:00', '2024-02-03 16:00:00', '2024-02-03 15:00:00', '2024-02-03 14:00:00', '2024-02-03 13:00:00', '2024-02-03 12:00:00', '2024-02-03 11:00:00', '2024-02-03 10:00:00', '2024-02-03 09:00:00', '2024-02-03 08:00:00', '2024-02-03 06:20:00', '2024-02-03 06:00:00', '2024-02-03 05:00:00', '2024-02-03 04:00:00', '2024-02-03 03:00:00', '2024-02-03 02:00:00', '2024-02-03 01:00:00', '2024-02-03 00:18:00', '2024-02-02 23:00:00', '2024-02-02 22:00:00', '2024-02-02 20:00:00', '2024-02-02 19:00:00', '2024-02-02 18:00:00', '2024-02-02 17:00:00', '2024-02-02 16:00:00', '2024-02-02 15:00:00', '2024-02-02 14:00:00', '2024-02-02 13:00:00', '2024-02-02 12:00:00', '2024-02-02 11:00:00', '2024-02-02 10:00:00', '2024-02-02 09:00:00', '2024-02-02 08:00:00', '2024-02-02 07:00:00', '2024-02-02 06:00:00', '2024-02-02 05:00:00', '2024-02-02 04:00:00', '2024-02-02 03:00:00', '2024-02-02 02:00:00', '2024-02-02 01:00:00', '2024-02-02 00:00:00', '2024-02-01 23:00:00', '2024-02-01 22:00:00', '2024-02-01 21:00:00', '2024-02-01 20:00:00', '2024-02-01 19:00:00', '2024-02-01 18:00:00', '2024-02-01 17:00:00', '2024-02-01 16:00:00', '2024-02-01 15:00:00', '2024-02-01 14:00:00', '2024-02-01 13:00:00', '2024-02-01 12:00:00', '2024-02-01 11:00:00', '2024-02-01 10:00:00', '2024-02-01 09:00:00', '2024-02-01 08:00:00', '2024-02-01 07:00:00', '2024-02-01 06:00:00', '2024-02-01 05:00:00', '2024-02-01 04:00:00', '2024-02-01 03:00:00', '2024-02-01 02:00:00', '2024-02-01 01:00:00', '2024-02-01 00:00:00', '2024-01-31 23:00:00']"
Algeria, Oran Es Senia Airport (ORN/DAOO) ,"['DAOO 032130Z 12003KT 8000 NSC 10/08 Q1031', 'DAOO 032100Z 12003KT 8000 NSC 11/08 Q1031', 'DAOO 032030Z VRB02KT 8000 NSC 12/09 Q1031', 'DAOO 032000Z 03005KT CAVOK 12/09 Q1031', 'DAOO 031930Z 01004KT CAVOK 13/09 Q1031', 'DAOO 031900Z 01004KT CAVOK 13/09 Q1031', 'DAOO 031830Z 01004KT 9000 NSC 13/09 Q1031', 'DAOO 031800Z 02005KT 9000 NSC 14/08 Q1030', 'DAOO 031730Z 03009KT 9000 NSC 15/08 Q1030', 'DAOO 031700Z 35007KT 9000 NSC 16/08 Q1030', 'DAOO 031630Z 34008KT 7000 FEW010 16/08 Q1030', 'DAOO 031600Z 34010KT 7000 FEW010 17/08 Q1029', 'DAOO 031530Z 32009KT 7000 FEW010 17/08 Q1029', 'DAOO 031500Z 33009KT 7000 FEW010 17/08 Q1029', 'DAOO 031430Z 34009KT 310V010 7000 FEW010 17/08 Q1030', 'DAOO 031400Z 34006KT 300V010 7000 FEW010 18/08 Q1030', 'DAOO 031330Z 01006KT 310V070 7000 FEW010 18/07 Q1030', 'DAOO 031300Z 05004KT 320V110 7000 FEW010 18/08 Q1030', 'DAOO 031230Z 01005KT 310V060 7000 FEW010 17/08 Q1031', 'DAOO 031200Z 04005KT 350V080 7000 FEW010 16/08 Q1031', 'DAOO 031130Z 02007KT 7000 FEW010 15/08 Q1032', 'DAOO 031100Z 05007KT 020V080 7000 FEW010 14/08 Q1032', 'DAOO 031030Z 04005KT 010V080 7000 FEW010 14/08 Q1032', 'DAOO 031000Z 04005KT 360V080 6000 FEW010 13/08 Q1032', 'DAOO 030930Z 04003KT 360V090 4000 BR SCT010 12/08 Q1032', 'DAOO 030900Z VRB02KT 3000 BR SCT010 11/08 Q1032', 'DAOO 030830Z 03004KT 2000 BR SCT010 09/09 Q1031', 'DAOO 030800Z 01003KT 1500 BR SCT010 08/08 Q1031', 'DAOO 030730Z 35004KT 1200 BR SCT010 06/06 Q1031', 'DAOO 030700Z VRB02KT 0900 FG BKN010 04/04 Q1031', 'DAOO 030630Z VRB01KT 0300 FG BKN010 04/04 Q1031', 'DAOO 030600Z VRB01KT 0400 FG BKN010 05/04 Q1030', 'DAOO 030530Z VRB02KT 2000 BR FEW010 07/07 Q1030', 'DAOO 030500Z 33003KT 4000 BR FEW010 08/07 Q1030', 'DAOO 030400Z 02004KT 4000 BR FEW010 08/07 Q1030', 'DAOO 030330Z 01003KT 4400 BR FEW010 08/07 Q1030', 'DAOO 030300Z 05003KT 4000 BR FEW010 07/07 Q1030', 'DAOO 030230Z 06002KT 4000 BR FEW010 07/06 Q1030', 'DAOO 030200Z VRB01KT 4000 BR FEW010 08/08 Q1030', 'DAOO 030130Z 07002KT 4000 BR FEW010 08/07 Q1030', 'DAOO 030100Z 00000KT 4000 BR FEW010 08/07 Q1030', 'DAOO 030000Z VRB01KT 6000 NSC 09/07 Q1031', 'DAOO 022330Z 12003KT 8000 NSC 09/07 Q1031', 'DAOO 022300Z VRB02KT 8000 NSC 10/08 Q1030', 'DAOO 022230Z 03002KT 8000 NSC 11/09 Q1030', 'DAOO 022200Z VRB02KT CAVOK 11/08 Q1030', 'DAOO 022130Z 03004KT CAVOK 11/09 Q1031', 'DAOO 022030Z 01003KT CAVOK 12/09 Q1031', 'DAOO 022000Z 01004KT CAVOK 12/09 Q1030', 'DAOO 021900Z 01004KT CAVOK 12/08 Q1030', 'DAOO 021830Z 02006KT CAVOK 13/08 Q1030', 'DAOO 021800Z 03007KT CAVOK 14/08 Q1030', 'DAOO 021730Z 03009KT CAVOK 14/08 Q1030', 'DAOO 021700Z 03009KT CAVOK 15/07 Q1030', 'DAOO 021630Z 03009KT CAVOK 16/07 Q1030', 'DAOO 021600Z 03008KT CAVOK 17/07 Q1029', 'DAOO 021530Z 04009KT CAVOK 17/07 Q1029', 'DAOO 021500Z 05007KT 020V080 CAVOK 17/07 Q1029', 'DAOO 021430Z 02006KT 340V060 CAVOK 17/07 Q1029', 'DAOO 021400Z 02006KT 330V060 9999 FEW030 17/07 Q1029', 'DAOO 021330Z 04007KT 350V090 9999 FEW030 17/08 Q1030', 'DAOO 021300Z 04008KT 010V080 9999 SCT026 17/08 Q1031', 'DAOO 021230Z 05006KT 360V090 9999 SCT026 17/08 Q1031', 'DAOO 021200Z 02006KT 340V070 9999 SCT026 16/09 Q1031', 'DAOO 021130Z 07004KT 020V110 9000 BKN026 16/09 Q1031', 'DAOO 021100Z VRB02KT 9000 BKN026 14/09 Q1032', 'DAOO 021030Z 19003KT 160V220 8000 BKN026 13/09 Q1032', 'DAOO 021000Z VRB02KT 5000 BKN026 12/09 Q1032', 'DAOO 020930Z VRB01KT 4000 BR SCT026 11/08 Q1031', 'DAOO 020900Z 00000KT 4000 BR SCT026 09/08 Q1031', 'DAOO 020830Z VRB01KT 8000 SCT026 08/06 Q1031', 'DAOO 020800Z 20003KT 5000 SCT026 07/06 Q1031', 'DAOO 020730Z VRB02KT 3000 BR SCT026 04/03 Q1031', 'DAOO 020700Z 13003KT 5000 FEW008 SCT026 05/05 Q1031', 'DAOO 020630Z 15004KT 6000 SCT008 SCT026 06/05 Q1030', 'DAOO 020600Z VRB02KT 4000 BR SCT008 06/05 Q1030', 'DAOO 020530Z 00000KT 4000 BR SCT008 06/05 Q1030', 'DAOO 020500Z VRB02KT 4000 BR SCT008 05/05 Q1030', 'DAOO 020430Z 22005KT 3000 BR SCT008 06/05 Q1030', 'DAOO 020400Z VRB02KT 0900 FG SCT008 07/07 Q1030', 'DAOO 020330Z VRB01KT 0800 FG SCT008 07/07 Q1030', 'DAOO 020300Z 00000KT 2000 BR SCT010 08/07 Q1031', 'DAOO 020230Z VRB01KT 3000 BR SCT010 06/05 Q1031', 'DAOO 020200Z VRB02KT 4000 BR SCT010 08/08 Q1031', 'DAOO 020130Z 34002KT 6000 SCT010 09/08 Q1031', 'DAOO 020100Z VRB02KT 6000 SCT010 08/08 Q1031', 'DAOO 020030Z 00000KT 5000 SCT010 09/08 Q1031', 'DAOO 020000Z VRB01KT 6000 SCT010 09/08 Q1031', 'DAOO 012330Z VRB01KT 8000 SCT010 09/08 Q1031', 'DAOO 012300Z VRB01KT 9000 FEW010 10/08 Q1031', 'DAOO 012230Z 03002KT 9000 FEW010 10/09 Q1031', 'DAOO 012200Z VRB02KT 9000 SCT010 11/09 Q1031', 'DAOO 012130Z 05003KT 9999 SCT010 11/09 Q1032', 'DAOO 012100Z VRB02KT 9999 SCT010 11/09 Q1032', 'DAOO 012030Z 01003KT 9999 SCT010 12/09 Q1031', 'DAOO 012000Z 01004KT 9999 FEW010 SCT030 13/10 Q1031', 'DAOO 011930Z 02005KT 9999 SCT030 13/10 Q1031', 'DAOO 011900Z 04007KT 9999 SCT030 14/10 Q1031', 'DAOO 011830Z 03007KT 9999 FEW020 SCT030 14/10 Q1031', 'DAOO 011800Z 03008KT 9999 FEW020 SCT030 14/10 Q1031', 'DAOO 011730Z 03008KT 9999 FEW020 SCT030 15/10 Q1031', 'DAOO 011700Z 03009KT 9999 FEW020 BKN030 16/10 Q1031', 'DAOO 011630Z 03009KT 9999 FEW020 BKN026 17/09 Q1031', 'DAOO 011600Z 04009KT 8000 BKN026 17/09 Q1031', 'DAOO 011530Z 35007KT 300V030 8000 BKN026 18/10 Q1032', 'DAOO 011500Z 31008KT 8000 BKN026 17/11 Q1032', 'DAOO 011430Z 33009KT 8000 BKN026 17/11 Q1032', 'DAOO 011400Z 32009KT 8000 BKN026 17/11 Q1032', 'DAOO 011330Z 32007KT 290V350 8000 BKN026 17/11 Q1032', 'DAOO 011300Z 32007KT 8000 BKN026 17/11 Q1032', 'DAOO 011230Z 32007KT 8000 BKN026 17/11 Q1033', 'DAOO 011200Z 33006KT 280V010 8000 BKN026 17/11 Q1033', 'DAOO 011130Z VRB03KT 8000 BKN026 17/10 Q1034', 'DAOO 011100Z 03004KT 340V080 8000 BKN026 17/10 Q1034', 'DAOO 011030Z 04003KT 8000 FEW016 BKN026 17/11 Q1034', 'DAOO 011000Z 02003KT 340V070 8000 FEW016 BKN026 16/11 Q1034', 'DAOO 010930Z 03004KT 360V060 8000 FEW016 BKN026 15/11 Q1034', 'DAOO 010900Z 00000KT 8000 FEW016 BKN026 15/11 Q1034', 'DAOO 010830Z 23002KT 8000 FEW016 BKN026 14/11 Q1034', 'DAOO 010800Z VRB02KT 8000 FEW016 BKN026 14/10 Q1033', 'DAOO 010730Z 04003KT 8000 FEW016 BKN026 14/11 Q1033', 'DAOO 010700Z 05003KT 8000 FEW016 BKN026 14/11 Q1033', 'DAOO 010630Z 05003KT 8000 FEW016 BKN026 14/11 Q1033', 'DAOO 010600Z 05004KT 8000 FEW016 BKN026 14/11 Q1032', 'DAOO 010530Z 06003KT 8000 FEW016 BKN026 14/11 Q1032', 'DAOO 010500Z 05003KT 8000 FEW016 BKN026 14/10 Q1032', 'DAOO 010430Z VRB02KT 8000 FEW016 BKN026 14/10 Q1032', 'DAOO 010400Z VRB01KT 8000 FEW016 BKN026 14/10 Q1032', 'DAOO 010330Z VRB02KT 8000 FEW016 BKN026 14/10 Q1032', 'DAOO 010300Z 05003KT 8000 FEW016 BKN026 14/10 Q1033', 'DAOO 010200Z 04004KT 8000 FEW016 BKN026 14/10 Q1033', 'DAOO 010130Z 05004KT 8000 FEW016 BKN026 14/10 Q1033', 'DAOO 010100Z 04005KT 8000 FEW016 BKN026 14/10 Q1032', 'DAOO 010030Z 03004KT 350V050 8000 FEW016 BKN026 14/10 Q1033', 'DAOO 010000Z 05003KT 8000 FEW016 BKN026 14/10 Q1033', 'DAOO 312330Z 04004KT 8000 FEW016 BKN026 14/10 Q1033', 'DAOO 312300Z 06003KT 8000 FEW016 BKN026 14/10 Q1033', 'DAOO 312230Z 04005KT 8000 FEW016 BKN026 14/10 Q1033']","['2024-02-03 21:30:00', '2024-02-03 21:00:00', '2024-02-03 20:30:00', '2024-02-03 20:00:00', '2024-02-03 19:30:00', '2024-02-03 19:00:00', '2024-02-03 18:30:00', '2024-02-03 18:00:00', '2024-02-03 17:30:00', '2024-02-03 17:00:00', '2024-02-03 16:30:00', '2024-02-03 16:00:00', '2024-02-03 15:30:00', '2024-02-03 15:00:00', '2024-02-03 14:30:00', '2024-02-03 14:00:00', '2024-02-03 13:30:00', '2024-02-03 13:00:00', '2024-02-03 12:30:00', '2024-02-03 12:00:00', '2024-02-03 11:30:00', '2024-02-03 11:00:00', '2024-02-03 10:30:00', '2024-02-03 10:00:00', '2024-02-03 09:30:00', '2024-02-03 09:00:00', '2024-02-03 08:30:00', '2024-02-03 08:00:00', '2024-02-03 07:30:00', '2024-02-03 07:00:00', '2024-02-03 06:30:00', '2024-02-03 06:00:00', '2024-02-03 05:30:00', '2024-02-03 05:00:00', '2024-02-03 04:00:00', '2024-02-03 03:30:00', '2024-02-03 03:00:00', '2024-02-03 02:30:00', '2024-02-03 02:00:00', '2024-02-03 01:30:00', '2024-02-03 01:00:00', '2024-02-03 00:00:00', '2024-02-02 23:30:00', '2024-02-02 23:00:00', '2024-02-02 22:30:00', '2024-02-02 22:00:00', '2024-02-02 21:30:00', '2024-02-02 20:30:00', '2024-02-02 20:00:00', '2024-02-02 19:00:00', '2024-02-02 18:30:00', '2024-02-02 18:00:00', '2024-02-02 17:30:00', '2024-02-02 17:00:00', '2024-02-02 16:30:00', '2024-02-02 16:00:00', '2024-02-02 15:30:00', '2024-02-02 15:00:00', '2024-02-02 14:30:00', '2024-02-02 14:00:00', '2024-02-02 13:30:00', '2024-02-02 13:00:00', '2024-02-02 12:30:00', '2024-02-02 12:00:00', '2024-02-02 11:30:00', '2024-02-02 11:00:00', '2024-02-02 10:30:00', '2024-02-02 10:00:00', '2024-02-02 09:30:00', '2024-02-02 09:00:00', '2024-02-02 08:30:00', '2024-02-02 08:00:00', '2024-02-02 07:30:00', '2024-02-02 07:00:00', '2024-02-02 06:30:00', '2024-02-02 06:00:00', '2024-02-02 05:30:00', '2024-02-02 05:00:00', '2024-02-02 04:30:00', '2024-02-02 04:00:00', '2024-02-02 03:30:00', '2024-02-02 03:00:00', '2024-02-02 02:30:00', '2024-02-02 02:00:00', '2024-02-02 01:30:00', '2024-02-02 01:00:00', '2024-02-02 00:30:00', '2024-02-02 00:00:00', '2024-02-01 23:30:00', '2024-02-01 23:00:00', '2024-02-01 22:30:00', '2024-02-01 22:00:00', '2024-02-01 21:30:00', '2024-02-01 21:00:00', '2024-02-01 20:30:00', '2024-02-01 20:00:00', '2024-02-01 19:30:00', '2024-02-01 19:00:00', '2024-02-01 18:30:00', '2024-02-01 18:00:00', '2024-02-01 17:30:00', '2024-02-01 17:00:00', '2024-02-01 16:30:00', '2024-02-01 16:00:00', '2024-02-01 15:30:00', '2024-02-01 15:00:00', '2024-02-01 14:30:00', '2024-02-01 14:00:00', '2024-02-01 13:30:00', '2024-02-01 13:00:00', '2024-02-01 12:30:00', '2024-02-01 12:00:00', '2024-02-01 11:30:00', '2024-02-01 11:00:00', '2024-02-01 10:30:00', '2024-02-01 10:00:00', '2024-02-01 09:30:00', '2024-02-01 09:00:00', '2024-02-01 08:30:00', '2024-02-01 08:00:00', '2024-02-01 07:30:00', '2024-02-01 07:00:00', '2024-02-01 06:30:00', '2024-02-01 06:00:00', '2024-02-01 05:30:00', '2024-02-01 05:00:00', '2024-02-01 04:30:00', '2024-02-01 04:00:00', '2024-02-01 03:30:00', '2024-02-01 03:00:00', '2024-02-01 02:00:00', '2024-02-01 01:30:00', '2024-02-01 01:00:00', '2024-02-01 00:30:00', '2024-02-01 00:00:00', '2024-01-31 23:30:00', '2024-01-31 23:00:00', '2024-01-31 22:30:00']"
Algeria, Ouargla Ain Beida Airport (OGX/DAUU) ,"['DAUU 032100Z 06005KT CAVOK 10/02 Q1032', 'DAUU 032000Z 06004KT 360V070 CAVOK 11/02 Q1032', 'DAUU 031900Z 05004KT CAVOK 12/03 Q1032', 'DAUU 031800Z 05005KT CAVOK 14/03 Q1031', 'DAUU 031700Z 06008KT 9999 FEW033 16/03 Q1030', 'DAUU 031600Z 05011KT 020V090 9999 FEW033 17/03 Q1030', 'DAUU 031500Z 05011KT 020V090 9999 FEW033 18/03 Q1029', 'DAUU 031400Z 05010KT 020V090 9999 FEW033 18/03 Q1029', 'DAUU 031300Z 08011KT 9999 FEW040 18/04 Q1030', 'DAUU 031200Z 09012KT 050V120 9999 FEW040 SCT080 17/06 Q1030', 'DAUU 031100Z 09014KT CAVOK 16/07 Q1030', 'DAUU 031000Z 08010KT CAVOK 15/06 Q1030', 'DAUU 030900Z 02004KT 350V080 CAVOK 12/03 Q1030', 'DAUU 030800Z 35004KT 310V030 CAVOK 07/01 Q1029', 'DAUU 030700Z 02004KT CAVOK 06/01 Q1029', 'DAUU 030600Z 01004KT CAVOK 06/01 Q1028', 'DAUU 030500Z 02004KT CAVOK 06/01 Q1028', 'DAUU 030400Z 35004KT CAVOK 08/02 Q1027', 'DAUU 030300Z 35006KT CAVOK 08/02 Q1027', 'DAUU 030200Z 03004KT CAVOK 08/02 Q1027', 'DAUU 030100Z 32004KT CAVOK 09/02 Q1027', 'DAUU 030000Z 00000KT CAVOK 09/02 Q1027', 'DAUU 022300Z 33004KT CAVOK 10/02 Q1027', 'DAUU 022200Z 33004KT CAVOK 11/02 Q1027', 'DAUU 022000Z 04008KT CAVOK 13/03 Q1027', 'DAUU 021900Z 03006KT CAVOK 15/02 Q1026', 'DAUU 021800Z 06004KT CAVOK 15/02 Q1026', 'DAUU 021700Z 02003KT 330V060 CAVOK 18/02 Q1025', 'DAUU 021600Z 03004KT 340V060 CAVOK 19/02 Q1025', 'DAUU 021500Z 01005KT CAVOK 19/01 Q1026', 'DAUU 021400Z VRB02KT CAVOK 19/M00 Q1026', 'DAUU 021300Z VRB02KT CAVOK 18/M01 Q1027', 'DAUU 021200Z 36003KT 290V090 CAVOK 17/M01 Q1028', 'DAUU 021100Z 36005KT 320V030 CAVOK 16/M02 Q1029', 'DAUU 021000Z 26004KT 220V290 CAVOK 14/M01 Q1029', 'DAUU 020900Z 23003KT CAVOK 12/M01 Q1029', 'DAUU 020800Z 22003KT CAVOK 06/M03 Q1028', 'DAUU 020700Z VRB02KT CAVOK 03/M03 Q1029', 'DAUU 020600Z 17004KT CAVOK 03/M03 Q1028', 'DAUU 020500Z VRB02KT CAVOK 04/M03 Q1028', 'DAUU 020400Z 17003KT CAVOK 05/M03 Q1028', 'DAUU 020300Z VRB02KT CAVOK 05/M03 Q1028', 'DAUU 020200Z 17003KT CAVOK 06/M03 Q1029', 'DAUU 020100Z 00000KT CAVOK 06/M03 Q1029', 'DAUU 020000Z 00000KT CAVOK 08/M02 Q1029', 'DAUU 012300Z 19003KT CAVOK 08/M02 Q1029', 'DAUU 012200Z 19003KT CAVOK 09/M02 Q1029', 'DAUU 012100Z 17003KT CAVOK 10/M02 Q1030', 'DAUU 012000Z 00000KT CAVOK 11/M01 Q1030', 'DAUU 011900Z 00000KT CAVOK 13/M00 Q1030', 'DAUU 011800Z 00000KT CAVOK 15/00 Q1030', 'DAUU 011700Z 05004KT CAVOK 17/00 Q1030', 'DAUU 011600Z 01004KT CAVOK 18/00 Q1030', 'DAUU 011500Z 24004KT CAVOK 18/00 Q1030', 'DAUU 011400Z 25004KT CAVOK 18/00 Q1031', 'DAUU 011300Z 08004KT CAVOK 17/01 Q1031', 'DAUU 011200Z 34004KT 8000 NSC 17/02 Q1032', 'DAUU 011100Z 20004KT 8000 NSC 17/02 Q1033', 'DAUU 011000Z 23004KT 6000 NSC 13/04 Q1034', 'DAUU 010900Z 35004KT 4000 FU NSC 11/03 Q1034', 'DAUU 010800Z 33004KT 5000 NSC 08/02 Q1033', 'DAUU 010700Z 32003KT CAVOK 05/01 Q1033', 'DAUU 010600Z 34003KT CAVOK 04/00 Q1033', 'DAUU 010500Z 35004KT CAVOK 05/00 Q1032', 'DAUU 010400Z 34004KT CAVOK 07/03 Q1032', 'DAUU 010300Z 36004KT CAVOK 06/01 Q1032', 'DAUU 010200Z 36003KT CAVOK 06/01 Q1032', 'DAUU 010100Z 36005KT CAVOK 07/01 Q1033', 'DAUU 010000Z 02003KT CAVOK 09/01 Q1033', 'DAUU 312300Z 09005KT CAVOK 08/00 Q1033']","['2024-02-03 21:00:00', '2024-02-03 20:00:00', '2024-02-03 19:00:00', '2024-02-03 18:00:00', '2024-02-03 17:00:00', '2024-02-03 16:00:00', '2024-02-03 15:00:00', '2024-02-03 14:00:00', '2024-02-03 13:00:00', '2024-02-03 12:00:00', '2024-02-03 11:00:00', '2024-02-03 10:00:00', '2024-02-03 09:00:00', '2024-02-03 08:00:00', '2024-02-03 07:00:00', '2024-02-03 06:00:00', '2024-02-03 05:00:00', '2024-02-03 04:00:00', '2024-02-03 03:00:00', '2024-02-03 02:00:00', '2024-02-03 01:00:00', '2024-02-03 00:00:00', '2024-02-02 23:00:00', '2024-02-02 22:00:00', '2024-02-02 20:00:00', '2024-02-02 19:00:00', '2024-02-02 18:00:00', '2024-02-02 17:00:00', '2024-02-02 16:00:00', '2024-02-02 15:00:00', '2024-02-02 14:00:00', '2024-02-02 13:00:00', '2024-02-02 12:00:00', '2024-02-02 11:00:00', '2024-02-02 10:00:00', '2024-02-02 09:00:00', '2024-02-02 08:00:00', '2024-02-02 07:00:00', '2024-02-02 06:00:00', '2024-02-02 05:00:00', '2024-02-02 04:00:00', '2024-02-02 03:00:00', '2024-02-02 02:00:00', '2024-02-02 01:00:00', '2024-02-02 00:00:00', '2024-02-01 23:00:00', '2024-02-01 22:00:00', '2024-02-01 21:00:00', '2024-02-01 20:00:00', '2024-02-01 19:00:00', '2024-02-01 18:00:00', '2024-02-01 17:00:00', '2024-02-01 16:00:00', '2024-02-01 15:00:00', '2024-02-01 14:00:00', '2024-02-01 13:00:00', '2024-02-01 12:00:00', '2024-02-01 11:00:00', '2024-02-01 10:00:00', '2024-02-01 09:00:00', '2024-02-01 08:00:00', '2024-02-01 07:00:00', '2024-02-01 06:00:00', '2024-02-01 05:00:00', '2024-02-01 04:00:00', '2024-02-01 03:00:00', '2024-02-01 02:00:00', '2024-02-01 01:00:00', '2024-02-01 00:00:00', '2024-01-31 23:00:00']"
Algeria, Setif Ain Arnat Airport (QSF/DAAS) ,"['DAAS 032100Z 03004KT CAVOK 04/01 Q1033', 'DAAS 032000Z 03004KT CAVOK 05/00 Q1033', 'DAAS 031900Z 01004KT CAVOK 07/01 Q1033', 'DAAS 031800Z VRB02KT CAVOK 08/M00 Q1032', 'DAAS 031700Z 13004KT CAVOK 11/M00 Q1031', 'DAAS 031600Z 08003KT CAVOK 12/01 Q1031', 'DAAS 031500Z 10005KT 9999 FEW026 12/01 Q1031', 'DAAS 031400Z 09005KT 9999 SCT026 12/02 Q1031', 'DAAS 031300Z 05005KT 9999 BKN026 12/02 Q1032', 'DAAS 031200Z 02003KT 9999 BKN026 10/03 Q1032', 'DAAS 031100Z 11003KT 9999 SCT026 10/03 Q1033', 'DAAS 031000Z VRB02KT 8000 FEW010 SCT026 09/04 Q1033', 'DAAS 030900Z 21003KT 6000 FEW010 SCT026 08/05 Q1033', 'DAAS 030800Z 20003KT 8000 BKN026 05/04 Q1032', 'DAAS 030700Z 05004KT 8000 BKN026 06/04 Q1031', 'DAAS 030600Z 02004KT 9999 SCT026 06/04 Q1030', 'DAAS 030500Z 04005KT 9999 SCT026 06/04 Q1030', 'DAAS 030400Z 04004KT 9999 BKN026 06/04 Q1030', 'DAAS 030300Z 01004KT 9999 BKN026 05/03 Q1030', 'DAAS 030200Z 04003KT 9999 SCT026 06/04 Q1030', 'DAAS 030100Z 15003KT 9999 SCT026 05/03 Q1030', 'DAAS 030000Z 12003KT 9999 SCT026 05/03 Q1030', 'DAAS 022300Z 22003KT 9999 SCT026 05/M07 Q1030', 'DAAS 022200Z 01003KT 9999 SCT026 05/03 Q1030', 'DAAS 022000Z 03005KT 9999 BKN026 07/04 Q1030', 'DAAS 021900Z 35008KT 9999 BKN026 07/M02 Q1029', 'DAAS 021800Z 34010KT 9999 BKN026 07/04 Q1029', 'DAAS 021700Z 32008KT 9999 BKN026 08/03 Q1028', 'DAAS 021600Z 32012KT 9999 BKN026 08/04 Q1029', 'DAAS 021500Z 33011KT 9999 BKN026 09/03 Q1028', 'DAAS 021400Z 33011KT 9999 SCT026 10/03 Q1029', 'DAAS 021300Z 31012KT 9999 BKN026 10/03 Q1029', 'DAAS 021200Z 33012KT 9999 BKN026 10/02 Q1029', 'DAAS 021100Z 33006KT 9999 SCT026 10/02 Q1030', 'DAAS 021000Z 26003KT 9999 BKN026 08/03 Q1031', 'DAAS 020900Z 30004KT 9999 SCT026 07/02 Q1030', 'DAAS 020800Z 27004KT 9999 FEW026 04/01 Q1030', 'DAAS 020700Z VRB02KT 9999 FEW026 02/M00 Q1030', 'DAAS 020600Z VRB01KT 7000 NSC 03/01 Q1030', 'DAAS 020500Z 02004KT 7000 NSC 03/01 Q1030', 'DAAS 020400Z 25003KT 7000 NSC 03/01 Q1029', 'DAAS 020300Z VRB01KT 7000 NSC 02/M00 Q1030', 'DAAS 020200Z 01003KT 7000 NSC 01/M01 Q1030', 'DAAS 020100Z VRB02KT 7000 NSC 03/M00 Q1031', 'DAAS 020000Z VRB02KT 7000 NSC 04/01 Q1031', 'DAAS 012300Z 24004KT 7000 NSC 04/01 Q1031', 'DAAS 012200Z VRB01KT 7000 NSC 05/01 Q1031', 'DAAS 012100Z 33010KT 7000 NSC 07/01 Q1031', 'DAAS 012000Z 28003KT 7000 NSC 06/03 Q1031', 'DAAS 011900Z 35006KT 8000 NSC 08/04 Q1031', 'DAAS 011800Z 34004KT 8000 NSC 08/04 Q1031', 'DAAS 011700Z 32005KT 8000 NSC 10/03 Q1030', 'DAAS 011600Z 32005KT 8000 NSC 12/03 Q1031', 'DAAS 011500Z 31004KT 8000 NSC 12/04 Q1031', 'DAAS 011400Z 31005KT 7000 FEW026 11/06 Q1031', 'DAAS 011300Z VRB02KT 7000 SCT026 11/06 Q1032', 'DAAS 011200Z VRB02KT 7000 SCT026 10/05 Q1033', 'DAAS 011100Z 31003KT 2000 BR NSC 06/05 Q1033', 'DAAS 011000Z 00000KT 0500 FG NSC 04/04 Q1033', 'DAAS 010900Z 27003KT 0200 FG NSC 03/03 Q1033', 'DAAS 010800Z VRB01KT 0200 FG NSC 02/02 Q1033', 'DAAS 010700Z 03003KT 0200 FG VV/// 01/00 Q1033', 'DAAS 010600Z VRB02KT 4000 BR FEW030 00/M01 Q1032', 'DAAS 010500Z VRB01KT 4000 BR FEW030 00/M01 Q1032', 'DAAS 010400Z 02003KT 4000 BR FEW030 01/M01 Q1032', 'DAAS 010300Z VRB02KT 7000 NSC 02/00 Q1032', 'DAAS 010200Z 02003KT 8000 NSC 01/M00 Q1032', 'DAAS 010100Z VRB02KT 8000 NSC 02/M00 Q1032', 'DAAS 010000Z VRB02KT 8000 NSC 02/00 Q1032', 'DAAS 312300Z VRB02KT 8000 NSC 03/01 Q1033']","['2024-02-03 21:00:00', '2024-02-03 20:00:00', '2024-02-03 19:00:00', '2024-02-03 18:00:00', '2024-02-03 17:00:00', '2024-02-03 16:00:00', '2024-02-03 15:00:00', '2024-02-03 14:00:00', '2024-02-03 13:00:00', '2024-02-03 12:00:00', '2024-02-03 11:00:00', '2024-02-03 10:00:00', '2024-02-03 09:00:00', '2024-02-03 08:00:00', '2024-02-03 07:00:00', '2024-02-03 06:00:00', '2024-02-03 05:00:00', '2024-02-03 04:00:00', '2024-02-03 03:00:00', '2024-02-03 02:00:00', '2024-02-03 01:00:00', '2024-02-03 00:00:00', '2024-02-02 23:00:00', '2024-02-02 22:00:00', '2024-02-02 20:00:00', '2024-02-02 19:00:00', '2024-02-02 18:00:00', '2024-02-02 17:00:00', '2024-02-02 16:00:00', '2024-02-02 15:00:00', '2024-02-02 14:00:00', '2024-02-02 13:00:00', '2024-02-02 12:00:00', '2024-02-02 11:00:00', '2024-02-02 10:00:00', '2024-02-02 09:00:00', '2024-02-02 08:00:00', '2024-02-02 07:00:00', '2024-02-02 06:00:00', '2024-02-02 05:00:00', '2024-02-02 04:00:00', '2024-02-02 03:00:00', '2024-02-02 02:00:00', '2024-02-02 01:00:00', '2024-02-02 00:00:00', '2024-02-01 23:00:00', '2024-02-01 22:00:00', '2024-02-01 21:00:00', '2024-02-01 20:00:00', '2024-02-01 19:00:00', '2024-02-01 18:00:00', '2024-02-01 17:00:00', '2024-02-01 16:00:00', '2024-02-01 15:00:00', '2024-02-01 14:00:00', '2024-02-01 13:00:00', '2024-02-01 12:00:00', '2024-02-01 11:00:00', '2024-02-01 10:00:00', '2024-02-01 09:00:00', '2024-02-01 08:00:00', '2024-02-01 07:00:00', '2024-02-01 06:00:00', '2024-02-01 05:00:00', '2024-02-01 04:00:00', '2024-02-01 03:00:00', '2024-02-01 02:00:00', '2024-02-01 01:00:00', '2024-02-01 00:00:00', '2024-01-31 23:00:00']"
Algeria, Tamanrasset Aguenar Airport (TMR/DAAT) ,"['DAAT 032130Z 14005KT CAVOK 09/M14 Q1026', 'DAAT 032100Z 14005KT CAVOK 10/M14 Q1026', 'DAAT 032030Z 20004KT CAVOK 13/M13 Q1026', 'DAAT 032000Z 20004KT 160V220 CAVOK 13/M13 Q1026', 'DAAT 031930Z 33004KT CAVOK 14/// Q1026', 'DAAT 031900Z 32006KT CAVOK 15/// Q1025', 'DAAT 031830Z 31010KT CAVOK 16/// Q1025', 'DAAT 031800Z 31011KT CAVOK 16/// Q1024', 'DAAT 031730Z 30015KT CAVOK 18/// Q1024', 'DAAT 031700Z 30016KT CAVOK 19/// Q1024', 'DAAT 031630Z 31015KT CAVOK 20/// Q1023', 'DAAT 031600Z 31014KT CAVOK 21/// Q1023', 'DAAT 031530Z 30014KT 270V330 CAVOK 21/// Q1023', 'DAAT 031500Z 29012KT 260V320 CAVOK 21/// Q1023', 'DAAT 031430Z 29009KT 260V330 CAVOK 21/// Q1023', 'DAAT 031400Z 29006KT 240V340 CAVOK 21/// Q1024', 'DAAT 031330Z 30006KT 260V330 CAVOK 21/// Q1024', 'DAAT 031300Z 27006KT 230V310 CAVOK 21/// Q1024', 'DAAT 031230Z 31005KT 260V020 CAVOK 20/// Q1025', 'DAAT 031200Z 24004KT 180V300 CAVOK 20/M14 Q1025', 'DAAT 031130Z VRB03KT CAVOK 20/// Q1025', 'DAAT 031100Z VRB03KT CAVOK 19/// Q1026', 'DAAT 031030Z 18003KT 110V270 CAVOK 17/M16 Q1026', 'DAAT 031000Z VRB03KT CAVOK 16/M15 Q1026', 'DAAT 030930Z 14004KT 120V180 CAVOK 16/M15 Q1026', 'DAAT 030900Z 00000KT CAVOK 16/M13 Q1026', 'DAAT 030830Z 00000KT CAVOK 13/M12 Q1025', 'DAAT 030800Z VRB02KT CAVOK 09/M13 Q1025', 'DAAT 030730Z 00000KT CAVOK 07/M14 Q1025', 'DAAT 030700Z 00000KT CAVOK 03/M15 Q1024', 'DAAT 030630Z VRB02KT CAVOK 02/M15 Q1024', 'DAAT 030600Z 00000KT CAVOK 03/M14 Q1024', 'DAAT 030530Z VRB02KT CAVOK 03/M14 Q1024', 'DAAT 030500Z 05003KT CAVOK 04/M13 Q1023', 'DAAT 030400Z 02004KT CAVOK 05/M13 Q1023', 'DAAT 030330Z VRB02KT CAVOK 04/M14 Q1023', 'DAAT 030300Z VRB02KT CAVOK 04/M13 Q1024', 'DAAT 030230Z VRB02KT CAVOK 04/M14 Q1024', 'DAAT 030200Z 00000KT CAVOK 04/M14 Q1024', 'DAAT 030130Z 03004KT CAVOK 05/M13 Q1024', 'DAAT 030100Z 00000KT CAVOK 05/M14 Q1024', 'DAAT 030030Z VRB02KT CAVOK 05/M14 Q1025', 'DAAT 030000Z VRB02KT CAVOK 07/M13 Q1025', 'DAAT 022330Z VRB02KT CAVOK 08/M13 Q1025', 'DAAT 022300Z 12003KT 090V150 CAVOK 08/M13 Q1025', 'DAAT 022230Z 14004KT CAVOK 09/M12 Q1026', 'DAAT 022200Z 14004KT CAVOK 10/M12 Q1026', 'DAAT 022130Z 14004KT CAVOK 10/M13 Q1026', 'DAAT 022030Z 16004KT CAVOK 13/M12 Q1026', 'DAAT 022000Z 18004KT CAVOK 14/M12 Q1026', 'DAAT 021900Z VRB04KT CAVOK 15/M12 Q1025', 'DAAT 021830Z 19004KT 160V220 CAVOK 16/M11 Q1025', 'DAAT 021800Z 20006KT CAVOK 17/M12 Q1024', 'DAAT 021730Z 27008KT 240V300 CAVOK 18/// Q1024', 'DAAT 021700Z 28010KT CAVOK 19/// Q1024', 'DAAT 021630Z 27007KT 250V310 CAVOK 20/// Q1024', 'DAAT 021600Z 25006KT 230V290 CAVOK 22/// Q1023', 'DAAT 021530Z 25008KT CAVOK 22/// Q1024', 'DAAT 021500Z 26005KT 200V310 CAVOK 22/// Q1024', 'DAAT 021430Z 27006KT CAVOK 22/// Q1024', 'DAAT 021400Z 25005KT 200V310 CAVOK 21/// Q1024', 'DAAT 021330Z 30004KT 250V010 CAVOK 21/// Q1024', 'DAAT 021300Z 32005KT CAVOK 20/// Q1025', 'DAAT 021230Z 30006KT 260V350 CAVOK 20/// Q1025', 'DAAT 021200Z VRB04KT CAVOK 20/// Q1026', 'DAAT 021130Z VRB04KT CAVOK 20/// Q1026', 'DAAT 021100Z 27003KT 170V340 CAVOK 19/// Q1027', 'DAAT 021030Z 28003KT 210V360 CAVOK 18/// Q1027', 'DAAT 021000Z 26003KT 170V320 CAVOK 18/// Q1027', 'DAAT 020930Z 33004KT 300V010 CAVOK 16/M16 Q1027', 'DAAT 020900Z 36004KT CAVOK 15/M16 Q1027', 'DAAT 020830Z 02005KT CAVOK 14/M15 Q1027', 'DAAT 020800Z 04004KT CAVOK 13/M15 Q1026', 'DAAT 020730Z 04005KT CAVOK 11/M15 Q1026', 'DAAT 020700Z 05006KT CAVOK 06/M17 Q1026', 'DAAT 020630Z 07003KT CAVOK 03/M15 Q1026', 'DAAT 020600Z 10003KT 030V170 CAVOK 05/M15 Q1026', 'DAAT 020530Z 12006KT CAVOK 04/M14 Q1026', 'DAAT 020500Z 05003KT 010V090 CAVOK 06/M15 Q1026', 'DAAT 020430Z 00000KT CAVOK 05/M14 Q1026', 'DAAT 020400Z 04003KT CAVOK 06/M14 Q1026', 'DAAT 020330Z VRB02KT CAVOK 06/M13 Q1026', 'DAAT 020300Z 05005KT CAVOK 09/M13 Q1026', 'DAAT 020200Z 05004KT CAVOK 09/M13 Q1026', 'DAAT 020130Z 08005KT CAVOK 09/M13 Q1026', 'DAAT 020100Z 13004KT 080V170 CAVOK 11/M12 Q1027', 'DAAT 020030Z 13004KT 060V220 CAVOK 09/M13 Q1027', 'DAAT 020000Z 07004KT 040V100 CAVOK 09/M14 Q1027', 'DAAT 012330Z 14003KT CAVOK 07/M15 Q1027', 'DAAT 012300Z 00000KT CAVOK 08/M14 Q1027', 'DAAT 012230Z VRB02KT CAVOK 09/M15 Q1028', 'DAAT 012200Z 13004KT CAVOK 09/M14 Q1028', 'DAAT 012130Z 15004KT CAVOK 10/M14 Q1028', 'DAAT 012100Z 14004KT CAVOK 11/M14 Q1028', 'DAAT 012030Z 19004KT 160V220 CAVOK 13/M13 Q1028', 'DAAT 012000Z 19004KT 160V220 CAVOK 14/M13 Q1027', 'DAAT 011930Z 21005KT CAVOK 14/M15 Q1027', 'DAAT 011900Z 23005KT CAVOK 15/M15 Q1027', 'DAAT 011830Z 26005KT 240V360 CAVOK 16/M15 Q1026', 'DAAT 011800Z 27006KT CAVOK 17/M15 Q1026', 'DAAT 011730Z 27007KT CAVOK 18/M14 Q1026', 'DAAT 011630Z 30005KT 260V360 CAVOK 20/M12 Q1026', 'DAAT 011600Z 27005KT 220V320 CAVOK 21/M12 Q1026', 'DAAT 011530Z VRB04KT CAVOK 22/M09 Q1026', 'DAAT 011500Z 28005KT CAVOK 21/M11 Q1026', 'DAAT 011430Z 28005KT 240V010 CAVOK 21/M12 Q1026', 'DAAT 011400Z 28006KT 230V310 CAVOK 21/M11 Q1026', 'DAAT 011330Z 28007KT 230V330 CAVOK 21/// Q1026', 'DAAT 011300Z 26005KT 200V330 CAVOK 21/// Q1027', 'DAAT 011230Z 27004KT 160V310 CAVOK 20/// Q1027', 'DAAT 011200Z 23003KT 130V300 CAVOK 20/// Q1028', 'DAAT 011130Z VRB02KT CAVOK 19/// Q1028', 'DAAT 011100Z 01003KT 320V100 CAVOK 18/// Q1029', 'DAAT 011030Z 31003KT 260V010 CAVOK 17/M16 Q1029', 'DAAT 011000Z 08004KT 350V140 CAVOK 17/M15 Q1029', 'DAAT 010930Z 08005KT 020V120 CAVOK 16/M15 Q1029', 'DAAT 010900Z 09006KT CAVOK 15/M14 Q1029', 'DAAT 010830Z 07007KT 030V090 CAVOK 14/M12 Q1029', 'DAAT 010800Z 10005KT CAVOK 13/M11 Q1028', 'DAAT 010730Z 07003KT 020V110 CAVOK 10/M12 Q1028', 'DAAT 010700Z 01003KT 330V040 CAVOK 07/M12 Q1028', 'DAAT 010630Z 03004KT 320V090 CAVOK 07/M11 Q1028', 'DAAT 010600Z 02004KT CAVOK 07/M11 Q1027', 'DAAT 010530Z 36004KT 340V040 CAVOK 07/M11 Q1027', 'DAAT 010500Z 05008KT 020V080 CAVOK 10/M10 Q1027', 'DAAT 010430Z 01008KT CAVOK 09/M10 Q1027', 'DAAT 010400Z 02008KT CAVOK 10/M10 Q1027', 'DAAT 010330Z 08014KT CAVOK 10/M10 Q1026', 'DAAT 010300Z 09016G26KT CAVOK 10/M10 Q1027', 'DAAT 010230Z 09016KT CAVOK 10/M10 Q1027', 'DAAT 010200Z 09014KT CAVOK 11/M11 Q1027', 'DAAT 010130Z 08015KT CAVOK 11/M10 Q1027', 'DAAT 010100Z 08014KT CAVOK 12/M10 Q1027', 'DAAT 010030Z 09011KT CAVOK 12/M10 Q1027', 'DAAT 010000Z 08014KT CAVOK 12/M10 Q1027', 'DAAT 312330Z 08012KT CAVOK 12/M10 Q1027', 'DAAT 312300Z 08013KT CAVOK 12/M10 Q1027', 'DAAT 312230Z 08014KT CAVOK 13/M11 Q1027']","['2024-02-03 21:30:00', '2024-02-03 21:00:00', '2024-02-03 20:30:00', '2024-02-03 20:00:00', '2024-02-03 19:30:00', '2024-02-03 19:00:00', '2024-02-03 18:30:00', '2024-02-03 18:00:00', '2024-02-03 17:30:00', '2024-02-03 17:00:00', '2024-02-03 16:30:00', '2024-02-03 16:00:00', '2024-02-03 15:30:00', '2024-02-03 15:00:00', '2024-02-03 14:30:00', '2024-02-03 14:00:00', '2024-02-03 13:30:00', '2024-02-03 13:00:00', '2024-02-03 12:30:00', '2024-02-03 12:00:00', '2024-02-03 11:30:00', '2024-02-03 11:00:00', '2024-02-03 10:30:00', '2024-02-03 10:00:00', '2024-02-03 09:30:00', '2024-02-03 09:00:00', '2024-02-03 08:30:00', '2024-02-03 08:00:00', '2024-02-03 07:30:00', '2024-02-03 07:00:00', '2024-02-03 06:30:00', '2024-02-03 06:00:00', '2024-02-03 05:30:00', '2024-02-03 05:00:00', '2024-02-03 04:00:00', '2024-02-03 03:30:00', '2024-02-03 03:00:00', '2024-02-03 02:30:00', '2024-02-03 02:00:00', '2024-02-03 01:30:00', '2024-02-03 01:00:00', '2024-02-03 00:30:00', '2024-02-03 00:00:00', '2024-02-02 23:30:00', '2024-02-02 23:00:00', '2024-02-02 22:30:00', '2024-02-02 22:00:00', '2024-02-02 21:30:00', '2024-02-02 20:30:00', '2024-02-02 20:00:00', '2024-02-02 19:00:00', '2024-02-02 18:30:00', '2024-02-02 18:00:00', '2024-02-02 17:30:00', '2024-02-02 17:00:00', '2024-02-02 16:30:00', '2024-02-02 16:00:00', '2024-02-02 15:30:00', '2024-02-02 15:00:00', '2024-02-02 14:30:00', '2024-02-02 14:00:00', '2024-02-02 13:30:00', '2024-02-02 13:00:00', '2024-02-02 12:30:00', '2024-02-02 12:00:00', '2024-02-02 11:30:00', '2024-02-02 11:00:00', '2024-02-02 10:30:00', '2024-02-02 10:00:00', '2024-02-02 09:30:00', '2024-02-02 09:00:00', '2024-02-02 08:30:00', '2024-02-02 08:00:00', '2024-02-02 07:30:00', '2024-02-02 07:00:00', '2024-02-02 06:30:00', '2024-02-02 06:00:00', '2024-02-02 05:30:00', '2024-02-02 05:00:00', '2024-02-02 04:30:00', '2024-02-02 04:00:00', '2024-02-02 03:30:00', '2024-02-02 03:00:00', '2024-02-02 02:00:00', '2024-02-02 01:30:00', '2024-02-02 01:00:00', '2024-02-02 00:30:00', '2024-02-02 00:00:00', '2024-02-01 23:30:00', '2024-02-01 23:00:00', '2024-02-01 22:30:00', '2024-02-01 22:00:00', '2024-02-01 21:30:00', '2024-02-01 21:00:00', '2024-02-01 20:30:00', '2024-02-01 20:00:00', '2024-02-01 19:30:00', '2024-02-01 19:00:00', '2024-02-01 18:30:00', '2024-02-01 18:00:00', '2024-02-01 17:30:00', '2024-02-01 16:30:00', '2024-02-01 16:00:00', '2024-02-01 15:30:00', '2024-02-01 15:00:00', '2024-02-01 14:30:00', '2024-02-01 14:00:00', '2024-02-01 13:30:00', '2024-02-01 13:00:00', '2024-02-01 12:30:00', '2024-02-01 12:00:00', '2024-02-01 11:30:00', '2024-02-01 11:00:00', '2024-02-01 10:30:00', '2024-02-01 10:00:00', '2024-02-01 09:30:00', '2024-02-01 09:00:00', '2024-02-01 08:30:00', '2024-02-01 08:00:00', '2024-02-01 07:30:00', '2024-02-01 07:00:00', '2024-02-01 06:30:00', '2024-02-01 06:00:00', '2024-02-01 05:30:00', '2024-02-01 05:00:00', '2024-02-01 04:30:00', '2024-02-01 04:00:00', '2024-02-01 03:30:00', '2024-02-01 03:00:00', '2024-02-01 02:30:00', '2024-02-01 02:00:00', '2024-02-01 01:30:00', '2024-02-01 01:00:00', '2024-02-01 00:30:00', '2024-02-01 00:00:00', '2024-01-31 23:30:00', '2024-01-31 23:00:00', '2024-01-31 22:30:00']"
Algeria, Tebessa Airport (TEE/DABS) ,"['DABS 032100Z 11003KT 9999 FEW033 03/M01 Q1033', 'DABS 032000Z 12004KT 9999 FEW033 06/00 Q1033', 'DABS 031900Z 11004KT 9999 FEW033 07/02 Q1033', 'DABS 031800Z VRB02KT 9999 FEW033 08/02 Q1032', 'DABS 031700Z 05003KT 9999 FEW033 09/01 Q1031', 'DABS 031600Z 35006KT 9999 SCT033 12/M02 Q1031', 'DABS 031500Z 06006KT 9999 SCT033 12/01 Q1031', 'DABS 031400Z 01008KT 9999 SCT030 12/M02 Q1031', 'DABS 031300Z 35010KT 9999 SCT030 12/M01 Q1031', 'DABS 031200Z 34005KT 9999 SCT030 12/00 Q1031', 'DABS 031100Z 05005KT 9999 SCT030 11/01 Q1032', 'DABS 031000Z 03006KT 9999 FEW023 SCT026 10/01 Q1032', 'DABS 030900Z VRB02KT 9999 SCT023 SCT026 09/04 Q1032', 'DABS 030800Z 34003KT 9999 SCT023 SCT026 06/05 Q1031', 'DABS 030700Z VRB02KT 8000 SCT023 SCT030 05/04 Q1031', 'DABS 030600Z VRB02KT 9000 FEW026 SCT030 04/03 Q1030', 'DABS 030500Z VRB02KT 9000 FEW026 SCT030 05/04 Q1030', 'DABS 030400Z VRB02KT 9999 FEW026 BKN030 04/03 Q1030', 'DABS 030300Z 27004KT 9999 FEW026 BKN030 05/04 Q1029', 'DABS 030200Z 27004KT 9999 FEW026 BKN030 05/02 Q1029', 'DABS 030100Z 35003KT 9999 FEW026 BKN030 05/02 Q1029', 'DABS 030000Z 03006KT 9999 FEW026 BKN030 07/03 Q1029', 'DABS 022300Z 03010KT 9000 FEW026 BKN030 07/04 Q1029', 'DABS 022200Z 32008KT 9000 FEW026 BKN030 07/06 Q1029', 'DABS 022000Z 32009KT 8000 -RA SCT026 BKN030 08/07 Q1028', 'DABS 021900Z 31010KT 8000 SCT026 BKN030 08/07 Q1028', 'DABS 021800Z 31009KT 8000 SCT026 BKN030 08/07 Q1027', 'DABS 021700Z 32011KT 7000 -RA SCT026 BKN030 08/07 Q1027', 'DABS 021600Z 30010KT 8000 -RA SCT026 BKN030 09/06 Q1026', 'DABS 021500Z 30014KT 9000 FEW026 BKN030 09/05 Q1026', 'DABS 021400Z 31012KT 9000 FEW026 BKN030 10/04 Q1026', 'DABS 021300Z 30009KT 9999 BKN030 11/03 Q1026', 'DABS 021200Z 31016KT 9999 BKN030 10/05 Q1027', 'DABS 021100Z 28008KT 9999 BKN030 10/03 Q1028', 'DABS 021000Z 29014KT 9000 FEW026 BKN030 10/03 Q1028', 'DABS 020900Z 28011KT 9000 FEW026 BKN030 09/03 Q1028', 'DABS 020800Z 30011KT 9000 FEW026 BKN030 08/03 Q1028', 'DABS 020700Z 30007KT 8000 BKN030 07/03 Q1028', 'DABS 020600Z 31006KT 8000 FEW026 BKN030 07/02 Q1028', 'DABS 020500Z 31004KT 7000 FEW020 BKN030 07/02 Q1028', 'DABS 020400Z 31005KT 7000 FEW020 BKN030 07/02 Q1028', 'DABS 020300Z 31008KT 7000 FEW020 BKN030 07/02 Q1028', 'DABS 020200Z 29010KT 7000 FEW020 BKN030 07/02 Q1029', 'DABS 020100Z 27006KT 7000 FEW020 BKN030 06/02 Q1029', 'DABS 020000Z 29006KT 8000 NSC 05/01 Q1029', 'DABS 012300Z 27008KT 8000 NSC 05/01 Q1030', 'DABS 012200Z 25006KT 8000 NSC 05/01 Q1030', 'DABS 012100Z 25004KT 8000 NSC 06/01 Q1030', 'DABS 012000Z 26006KT 8000 NSC 07/01 Q1030', 'DABS 011900Z 30006KT 8000 NSC 08/01 Q1030', 'DABS 011800Z 28004KT 8000 FEW033 08/01 Q1029', 'DABS 011700Z 32005KT 8000 FEW033 10/01 Q1029', 'DABS 011600Z 32009KT 8000 FEW033 12/01 Q1029', 'DABS 011500Z 32008KT 8000 FEW033 12/02 Q1030', 'DABS 011400Z 32008KT 8000 FEW033 13/03 Q1030', 'DABS 011300Z 31006KT 8000 SCT033 12/03 Q1031', 'DABS 011200Z 32009KT 9999 SCT033 12/03 Q1032', 'DABS 011100Z 29005KT 9999 FEW026 10/03 Q1033', 'DABS 011000Z 26005KT 9999 FEW026 08/02 Q1033', 'DABS 010900Z 27005KT 8000 FEW013 SCT023 06/02 Q1033', 'DABS 010800Z 31004KT 8000 FEW013 SCT023 04/M03 Q1033', 'DABS 010700Z VRB02KT 9000 FEW013 M01/M06 Q1032', 'DABS 010600Z 10005KT CAVOK M03/M08 Q1032', 'DABS 010500Z 11003KT CAVOK M01/M07 Q1032', 'DABS 010400Z VRB02KT CAVOK M03/M08 Q1032', 'DABS 010300Z 14003KT CAVOK 02/M05 Q1032', 'DABS 010200Z 11004KT CAVOK M00/M08 Q1032', 'DABS 010100Z 11004KT CAVOK 02/M06 Q1032', 'DABS 010000Z 11003KT CAVOK 01/M07 Q1033', 'DABS 312300Z 11003KT CAVOK 01/M08 Q1033']","['2024-02-03 21:00:00', '2024-02-03 20:00:00', '2024-02-03 19:00:00', '2024-02-03 18:00:00', '2024-02-03 17:00:00', '2024-02-03 16:00:00', '2024-02-03 15:00:00', '2024-02-03 14:00:00', '2024-02-03 13:00:00', '2024-02-03 12:00:00', '2024-02-03 11:00:00', '2024-02-03 10:00:00', '2024-02-03 09:00:00', '2024-02-03 08:00:00', '2024-02-03 07:00:00', '2024-02-03 06:00:00', '2024-02-03 05:00:00', '2024-02-03 04:00:00', '2024-02-03 03:00:00', '2024-02-03 02:00:00', '2024-02-03 01:00:00', '2024-02-03 00:00:00', '2024-02-02 23:00:00', '2024-02-02 22:00:00', '2024-02-02 20:00:00', '2024-02-02 19:00:00', '2024-02-02 18:00:00', '2024-02-02 17:00:00', '2024-02-02 16:00:00', '2024-02-02 15:00:00', '2024-02-02 14:00:00', '2024-02-02 13:00:00', '2024-02-02 12:00:00', '2024-02-02 11:00:00', '2024-02-02 10:00:00', '2024-02-02 09:00:00', '2024-02-02 08:00:00', '2024-02-02 07:00:00', '2024-02-02 06:00:00', '2024-02-02 05:00:00', '2024-02-02 04:00:00', '2024-02-02 03:00:00', '2024-02-02 02:00:00', '2024-02-02 01:00:00', '2024-02-02 00:00:00', '2024-02-01 23:00:00', '2024-02-01 22:00:00', '2024-02-01 21:00:00', '2024-02-01 20:00:00', '2024-02-01 19:00:00', '2024-02-01 18:00:00', '2024-02-01 17:00:00', '2024-02-01 16:00:00', '2024-02-01 15:00:00', '2024-02-01 14:00:00', '2024-02-01 13:00:00', '2024-02-01 12:00:00', '2024-02-01 11:00:00', '2024-02-01 10:00:00', '2024-02-01 09:00:00', '2024-02-01 08:00:00', '2024-02-01 07:00:00', '2024-02-01 06:00:00', '2024-02-01 05:00:00', '2024-02-01 04:00:00', '2024-02-01 03:00:00', '2024-02-01 02:00:00', '2024-02-01 01:00:00', '2024-02-01 00:00:00', '2024-01-31 23:00:00']"
Algeria, Tiaret Bou Chekif Airport (TID/DAOB) ,"['DAOB 032100Z 13003KT CAVOK 05/M00 Q1033', 'DAOB 032000Z 09005KT CAVOK 06/M00 Q1033', 'DAOB 031900Z 09006KT CAVOK 07/M00 Q1032', 'DAOB 031800Z 07004KT CAVOK 09/00 Q1032', 'DAOB 031700Z 07007KT CAVOK 12/01 Q1031', 'DAOB 031600Z 07007KT CAVOK 14/02 Q1031', 'DAOB 031500Z 07006KT CAVOK 14/02 Q1031', 'DAOB 031400Z 07007KT CAVOK 14/02 Q1031', 'DAOB 031300Z 09007KT CAVOK 13/03 Q1031', 'DAOB 031200Z 08008KT CAVOK 12/03 Q1032', 'DAOB 031100Z 11007KT CAVOK 11/03 Q1033', 'DAOB 031000Z 10008KT CAVOK 10/03 Q1033', 'DAOB 030900Z 10005KT CAVOK 06/03 Q1032', 'DAOB 030800Z VRB02KT CAVOK 01/01 Q1032', 'DAOB 030700Z 00000KT CAVOK M01/M01 Q1031', 'DAOB 030600Z 19003KT CAVOK M01/M01 Q1031', 'DAOB 030500Z 00000KT CAVOK M01/M02 Q1031', 'DAOB 030400Z 00000KT CAVOK 01/00 Q1031', 'DAOB 030300Z 00000KT CAVOK 01/01 Q1031', 'DAOB 030200Z VRB02KT CAVOK 03/02 Q1031', 'DAOB 030100Z 09004KT CAVOK 03/02 Q1031', 'DAOB 030000Z 09007KT CAVOK 04/03 Q1031', 'DAOB 022300Z 10004KT CAVOK 04/02 Q1031', 'DAOB 022200Z 18005KT CAVOK 03/02 Q1031', 'DAOB 022000Z VRB02KT CAVOK 07/02 Q1031', 'DAOB 021900Z VRB02KT CAVOK 08/03 Q1030', 'DAOB 021800Z 29003KT CAVOK 10/02 Q1030', 'DAOB 021700Z 34004KT CAVOK 13/03 Q1030', 'DAOB 021600Z 01004KT CAVOK 15/M01 Q1030', 'DAOB 021500Z 04003KT CAVOK 15/M01 Q1030', 'DAOB 021400Z 04004KT CAVOK 15/M01 Q1030', 'DAOB 021300Z 10003KT CAVOK 14/02 Q1030', 'DAOB 021200Z 08005KT CAVOK 13/04 Q1031', 'DAOB 021100Z 02003KT CAVOK 11/01 Q1032', 'DAOB 021000Z VRB01KT CAVOK 09/03 Q1032', 'DAOB 020900Z VRB02KT 7000 FEW016 04/04 Q1031', 'DAOB 020815Z VRB02KT 2000 BR FEW016 02/01 Q1031', 'DAOB 020700Z VRB01KT 0800 FG SCT010 01/01 Q1031', 'DAOB 020645Z 23006KT 0800 FG FEW016 SCT220 03/03 Q1030', 'DAOB 020600Z 23006KT 6000 FEW016 SCT220 03/02 Q1030', 'DAOB 020500Z 23006KT 6000 FEW016 SCT220 03/03 Q1030', 'DAOB 020400Z 24005KT 6000 FEW016 SCT220 04/03 Q1030', 'DAOB 020300Z 19003KT 6000 FEW016 SCT220 03/03 Q1031', 'DAOB 020200Z 00000KT 7000 NSC 02/02 Q1031', 'DAOB 020100Z 00000KT 7000 NSC 01/00 Q1031', 'DAOB 020000Z 19004KT 8000 NSC 00/M00 Q1031', 'DAOB 012300Z VRB02KT 8000 NSC 03/02 Q1032', 'DAOB 012200Z 25003KT CAVOK 03/02 Q1032', 'DAOB 012100Z 21003KT CAVOK 03/03 Q1032', 'DAOB 012000Z 17008KT CAVOK 04/03 Q1032', 'DAOB 011900Z VRB01KT CAVOK 06/04 Q1032', 'DAOB 011800Z VRB02KT CAVOK 08/04 Q1032', 'DAOB 011700Z 31006KT CAVOK 10/05 Q1032', 'DAOB 011600Z VRB02KT CAVOK 12/06 Q1032', 'DAOB 011500Z 31004KT CAVOK 13/05 Q1032', 'DAOB 011400Z 32010KT CAVOK 13/05 Q1032', 'DAOB 011300Z VRB02KT CAVOK 15/03 Q1032', 'DAOB 011200Z 28003KT CAVOK 14/06 Q1033', 'DAOB 011100Z 30003KT CAVOK 12/05 Q1034', 'DAOB 011000Z VRB02KT CAVOK 11/05 Q1034', 'DAOB 010900Z 20003KT CAVOK 09/04 Q1034', 'DAOB 010800Z 18003KT CAVOK 02/02 Q1034', 'DAOB 010700Z 21003KT CAVOK M01/M01 Q1033', 'DAOB 010600Z 22004KT CAVOK M01/M01 Q1033', 'DAOB 010500Z VRB02KT CAVOK 00/M00 Q1033', 'DAOB 010400Z 20004KT CAVOK 00/M00 Q1033', 'DAOB 010300Z VRB02KT CAVOK 01/01 Q1033', 'DAOB 010200Z 20003KT CAVOK 01/01 Q1033', 'DAOB 010100Z VRB02KT CAVOK 04/03 Q1033', 'DAOB 010000Z VRB02KT CAVOK 04/02 Q1034', 'DAOB 312300Z 00000KT CAVOK 05/02 Q1034']","['2024-02-03 21:00:00', '2024-02-03 20:00:00', '2024-02-03 19:00:00', '2024-02-03 18:00:00', '2024-02-03 17:00:00', '2024-02-03 16:00:00', '2024-02-03 15:00:00', '2024-02-03 14:00:00', '2024-02-03 13:00:00', '2024-02-03 12:00:00', '2024-02-03 11:00:00', '2024-02-03 10:00:00', '2024-02-03 09:00:00', '2024-02-03 08:00:00', '2024-02-03 07:00:00', '2024-02-03 06:00:00', '2024-02-03 05:00:00', '2024-02-03 04:00:00', '2024-02-03 03:00:00', '2024-02-03 02:00:00', '2024-02-03 01:00:00', '2024-02-03 00:00:00', '2024-02-02 23:00:00', '2024-02-02 22:00:00', '2024-02-02 20:00:00', '2024-02-02 19:00:00', '2024-02-02 18:00:00', '2024-02-02 17:00:00', '2024-02-02 16:00:00', '2024-02-02 15:00:00', '2024-02-02 14:00:00', '2024-02-02 13:00:00', '2024-02-02 12:00:00', '2024-02-02 11:00:00', '2024-02-02 10:00:00', '2024-02-02 09:00:00', '2024-02-02 08:15:00', '2024-02-02 07:00:00', '2024-02-02 06:45:00', '2024-02-02 06:00:00', '2024-02-02 05:00:00', '2024-02-02 04:00:00', '2024-02-02 03:00:00', '2024-02-02 02:00:00', '2024-02-02 01:00:00', '2024-02-02 00:00:00', '2024-02-01 23:00:00', '2024-02-01 22:00:00', '2024-02-01 21:00:00', '2024-02-01 20:00:00', '2024-02-01 19:00:00', '2024-02-01 18:00:00', '2024-02-01 17:00:00', '2024-02-01 16:00:00', '2024-02-01 15:00:00', '2024-02-01 14:00:00', '2024-02-01 13:00:00', '2024-02-01 12:00:00', '2024-02-01 11:00:00', '2024-02-01 10:00:00', '2024-02-01 09:00:00', '2024-02-01 08:00:00', '2024-02-01 07:00:00', '2024-02-01 06:00:00', '2024-02-01 05:00:00', '2024-02-01 04:00:00', '2024-02-01 03:00:00', '2024-02-01 02:00:00', '2024-02-01 01:00:00', '2024-02-01 00:00:00', '2024-01-31 23:00:00']"
Algeria, Timimoun Airport (TMX/DAUT) ,"['DAUT 032100Z 06011KT CAVOK 13/01 Q1029', 'DAUT 032000Z 05010KT CAVOK 14/01 Q1029', 'DAUT 031900Z 06014KT CAVOK 16/M01 Q1026', 'DAUT 031800Z 06014KT CAVOK 18/M00 Q1028', 'DAUT 031700Z 07014KT CAVOK 19/M00 Q1027', 'DAUT 031600Z 07015KT CAVOK 20/M01 Q1027', 'DAUT 031500Z 07018KT CAVOK 21/M01 Q1027', 'DAUT 031400Z 07016KT CAVOK 20/M00 Q1028', 'DAUT 031300Z 08016KT CAVOK 19/00 Q1028', 'DAUT 031200Z 08017KT CAVOK 19/00 Q1029', 'DAUT 031100Z 08015KT CAVOK 17/01 Q1029', 'DAUT 031000Z 07015KT CAVOK 14/01 Q1029', 'DAUT 030900Z 07015KT CAVOK 11/M00 Q1028', 'DAUT 030800Z 05007KT CAVOK 07/M03 Q1027', 'DAUT 030700Z 04005KT CAVOK 05/M05 Q1027', 'DAUT 030600Z 04006KT CAVOK 05/M05 Q1026', 'DAUT 030500Z 04005KT CAVOK 05/M05 Q1026', 'DAUT 030400Z 05005KT CAVOK 06/M05 Q1026', 'DAUT 030300Z 06006KT CAVOK 06/M06 Q1026', 'DAUT 030200Z 07006KT CAVOK 07/M05 Q1026', 'DAUT 030100Z 05006KT CAVOK 08/M06 Q1026', 'DAUT 030000Z 06005KT CAVOK 09/M06 Q1026', 'DAUT 022300Z 05004KT CAVOK 09/M06 Q1026', 'DAUT 022200Z 05007KT CAVOK 11/M06 Q1026', 'DAUT 022000Z 04006KT CAVOK 13/M06 Q1026', 'DAUT 021900Z 03004KT CAVOK 14/M07 Q1026', 'DAUT 021800Z 03006KT CAVOK 16/M07 Q1025', 'DAUT 021700Z 04008KT CAVOK 19/M07 Q1026', 'DAUT 021600Z 04010KT CAVOK 19/M08 Q1026', 'DAUT 021500Z 05007KT CAVOK 20/M06 Q1026', 'DAUT 021400Z 05007KT CAVOK 19/M06 Q1027', 'DAUT 021300Z 05008KT CAVOK 18/M03 Q1028', 'DAUT 021200Z 06008KT CAVOK 17/M03 Q1029', 'DAUT 021100Z 06012KT CAVOK 16/M01 Q1030', 'DAUT 021000Z 06010KT CAVOK 13/M02 Q1030', 'DAUT 020900Z 06007KT CAVOK 09/M03 Q1029', 'DAUT 020800Z 04005KT CAVOK 05/M03 Q1029', 'DAUT 020700Z 02006KT CAVOK 04/M04 Q1029', 'DAUT 020600Z 04007KT CAVOK 05/M04 Q1028', 'DAUT 020500Z 04005KT CAVOK 06/M04 Q1028', 'DAUT 020400Z 03005KT CAVOK 06/M04 Q1028', 'DAUT 020300Z 03008KT CAVOK 07/M04 Q1028', 'DAUT 020200Z 05008KT CAVOK 07/M04 Q1028', 'DAUT 020100Z 05008KT CAVOK 08/M04 Q1028', 'DAUT 020000Z 05010KT CAVOK 08/M04 Q1029', 'DAUT 012300Z 05010KT CAVOK 09/M04 Q1029', 'DAUT 012200Z 03006KT CAVOK 11/M04 Q1030', 'DAUT 012100Z 02006KT CAVOK 11/M04 Q1029', 'DAUT 012000Z 02007KT CAVOK 13/M04 Q1029', 'DAUT 011900Z 03008KT CAVOK 14/M03 Q1028', 'DAUT 011800Z 04012KT CAVOK 17/M03 Q1028', 'DAUT 011700Z 06017KT CAVOK 19/M03 Q1027', 'DAUT 011600Z 06017KT CAVOK 20/M04 Q1028', 'DAUT 011500Z 06018KT CAVOK 20/M04 Q1028', 'DAUT 011400Z 06017KT CAVOK 19/M04 Q1028', 'DAUT 011300Z 06016KT CAVOK 19/M03 Q1029', 'DAUT 011200Z 07017KT CAVOK 18/M02 Q1030', 'DAUT 011100Z 07019KT CAVOK 16/M01 Q1031', 'DAUT 011000Z 07021KT CAVOK 14/M01 Q1031', 'DAUT 010900Z 07020KT CAVOK 11/M01 Q1031', 'DAUT 010800Z 06016KT CAVOK 08/M01 Q1030', 'DAUT 010700Z 06014KT CAVOK 07/M02 Q1030', 'DAUT 010600Z 06013KT CAVOK 07/M02 Q1030', 'DAUT 010500Z 06013KT CAVOK 08/M03 Q1029', 'DAUT 010400Z 04011KT CAVOK 08/M03 Q1029', 'DAUT 010300Z 04009KT CAVOK 09/M03 Q1030', 'DAUT 010200Z 04011KT CAVOK 09/M03 Q1029', 'DAUT 010100Z 04008KT CAVOK 10/M03 Q1030', 'DAUT 010000Z 05013KT CAVOK 11/M03 Q1030', 'DAUT 312300Z 05011KT CAVOK 11/M03 Q1029']","['2024-02-03 21:00:00', '2024-02-03 20:00:00', '2024-02-03 19:00:00', '2024-02-03 18:00:00', '2024-02-03 17:00:00', '2024-02-03 16:00:00', '2024-02-03 15:00:00', '2024-02-03 14:00:00', '2024-02-03 13:00:00', '2024-02-03 12:00:00', '2024-02-03 11:00:00', '2024-02-03 10:00:00', '2024-02-03 09:00:00', '2024-02-03 08:00:00', '2024-02-03 07:00:00', '2024-02-03 06:00:00', '2024-02-03 05:00:00', '2024-02-03 04:00:00', '2024-02-03 03:00:00', '2024-02-03 02:00:00', '2024-02-03 01:00:00', '2024-02-03 00:00:00', '2024-02-02 23:00:00', '2024-02-02 22:00:00', '2024-02-02 20:00:00', '2024-02-02 19:00:00', '2024-02-02 18:00:00', '2024-02-02 17:00:00', '2024-02-02 16:00:00', '2024-02-02 15:00:00', '2024-02-02 14:00:00', '2024-02-02 13:00:00', '2024-02-02 12:00:00', '2024-02-02 11:00:00', '2024-02-02 10:00:00', '2024-02-02 09:00:00', '2024-02-02 08:00:00', '2024-02-02 07:00:00', '2024-02-02 06:00:00', '2024-02-02 05:00:00', '2024-02-02 04:00:00', '2024-02-02 03:00:00', '2024-02-02 02:00:00', '2024-02-02 01:00:00', '2024-02-02 00:00:00', '2024-02-01 23:00:00', '2024-02-01 22:00:00', '2024-02-01 21:00:00', '2024-02-01 20:00:00', '2024-02-01 19:00:00', '2024-02-01 18:00:00', '2024-02-01 17:00:00', '2024-02-01 16:00:00', '2024-02-01 15:00:00', '2024-02-01 14:00:00', '2024-02-01 13:00:00', '2024-02-01 12:00:00', '2024-02-01 11:00:00', '2024-02-01 10:00:00', '2024-02-01 09:00:00', '2024-02-01 08:00:00', '2024-02-01 07:00:00', '2024-02-01 06:00:00', '2024-02-01 05:00:00', '2024-02-01 04:00:00', '2024-02-01 03:00:00', '2024-02-01 02:00:00', '2024-02-01 01:00:00', '2024-02-01 00:00:00', '2024-01-31 23:00:00']"
Algeria, Tindouf Airport (TIN/DAOF) ,"['DAOF 032100Z 06008KT CAVOK 16/// Q1027', 'DAOF 032000Z 06010KT CAVOK 17/// Q1026', 'DAOF 031900Z 08010KT CAVOK 18/// Q1026', 'DAOF 031800Z 08010KT CAVOK 20/// Q1025', 'DAOF 031700Z 09014KT CAVOK 21/// Q1025', 'DAOF 031600Z 08012KT CAVOK 21/// Q1024', 'DAOF 031500Z 10014KT CAVOK 21/// Q1025', 'DAOF 031400Z 08012KT CAVOK 20/M11 Q1026', 'DAOF 031300Z 08020KT CAVOK 19/M11 Q1027', 'DAOF 031200Z 09012KT CAVOK 17/M11 Q1027', 'DAOF 031100Z 08010KT CAVOK 15/M11 Q1028', 'DAOF 031000Z 09009KT CAVOK 12/M12 Q1027', 'DAOF 030900Z 06005KT CAVOK 09/M12 Q1027', 'DAOF 030800Z 04005KT CAVOK 07/M13 Q1027', 'DAOF 030700Z 04005KT CAVOK 06/M13 Q1026', 'DAOF 030600Z 04005KT CAVOK 07/M12 Q1025', 'DAOF 030500Z 04006KT CAVOK 07/M12 Q1025', 'DAOF 030300Z 04005KT CAVOK 08/M10 Q1025', 'DAOF 030100Z 02005KT CAVOK 09/M10 Q1025', 'DAOF 030000Z 05004KT CAVOK 11/M09 Q1026', 'DAOF 022300Z 07004KT CAVOK 13/M09 Q1026', 'DAOF 022200Z 07004KT CAVOK 15/M09 Q1026', 'DAOF 022000Z 08004KT CAVOK 16/M09 Q1026', 'DAOF 021900Z 10006KT CAVOK 17/M08 Q1026', 'DAOF 021800Z 09009KT CAVOK 19/M08 Q1025', 'DAOF 021700Z 09011KT CAVOK 20/M07 Q1025', 'DAOF 021600Z 08011KT CAVOK 20/M07 Q1025', 'DAOF 021500Z 08012KT CAVOK 20/M06 Q1025', 'DAOF 021300Z 08014KT CAVOK 19/M05 Q1027', 'DAOF 021200Z 08014KT CAVOK 18/M04 Q1029', 'DAOF 021100Z 09011KT CAVOK 15/M04 Q1029', 'DAOF 021000Z 08011KT CAVOK 13/M05 Q1029', 'DAOF 020900Z 06004KT CAVOK 09/M05 Q1029', 'DAOF 020800Z 04004KT CAVOK 07/M05 Q1029', 'DAOF 020700Z 06003KT CAVOK 07/M05 Q1028', 'DAOF 020600Z 04005KT CAVOK 07/M05 Q1028', 'DAOF 020500Z 05005KT CAVOK 08/M05 Q1028', 'DAOF 020300Z 05004KT CAVOK 09/M06 Q1028', 'DAOF 020200Z 04005KT CAVOK 10/M07 Q1028', 'DAOF 020100Z 04006KT CAVOK 10/M09 Q1029', 'DAOF 020000Z 04004KT CAVOK 11/M09 Q1029', 'DAOF 012300Z 03004KT CAVOK 11/M09 Q1028', 'DAOF 012200Z 06005KT CAVOK 14/M09 Q1028', 'DAOF 012100Z 06006KT CAVOK 16/M08 Q1028', 'DAOF 012000Z 07006KT CAVOK 17/M08 Q1028', 'DAOF 011900Z 09007KT CAVOK 17/M07 Q1027', 'DAOF 011800Z 08013KT CAVOK 20/M07 Q1027', 'DAOF 011700Z 09015KT 8000 NSC 21/M06 Q1027', 'DAOF 011600Z 08015KT 8000 NSC 21/M06 Q1027', 'DAOF 011500Z 08015KT 8000 NSC 21/M04 Q1027', 'DAOF 011400Z 07016KT 8000 NSC 20/M03 Q1028', 'DAOF 011300Z 08016G26KT 8000 NSC 20/M02 Q1029', 'DAOF 011100Z 08018KT 8000 NSC 16/M01 Q1031', 'DAOF 011000Z 08016KT 8000 NSC 14/M00 Q1031', 'DAOF 010900Z 06007KT 9000 NSC 12/M00 Q1031', 'DAOF 010800Z 07008KT CAVOK 11/M01 Q1030', 'DAOF 010700Z 06005KT CAVOK 09/M01 Q1030', 'DAOF 010600Z 06006KT CAVOK 10/M01 Q1029', 'DAOF 010500Z 06007KT CAVOK 10/M00 Q1028', 'DAOF 010300Z 06006KT CAVOK 12/M00 Q1028', 'DAOF 010200Z 04004KT CAVOK 11/M00 Q1028', 'DAOF 010100Z 04005KT CAVOK 11/M01 Q1028', 'DAOF 010000Z 03004KT CAVOK 12/M01 Q1028']","['2024-02-03 21:00:00', '2024-02-03 20:00:00', '2024-02-03 19:00:00', '2024-02-03 18:00:00', '2024-02-03 17:00:00', '2024-02-03 16:00:00', '2024-02-03 15:00:00', '2024-02-03 14:00:00', '2024-02-03 13:00:00', '2024-02-03 12:00:00', '2024-02-03 11:00:00', '2024-02-03 10:00:00', '2024-02-03 09:00:00', '2024-02-03 08:00:00', '2024-02-03 07:00:00', '2024-02-03 06:00:00', '2024-02-03 05:00:00', '2024-02-03 03:00:00', '2024-02-03 01:00:00', '2024-02-03 00:00:00', '2024-02-02 23:00:00', '2024-02-02 22:00:00', '2024-02-02 20:00:00', '2024-02-02 19:00:00', '2024-02-02 18:00:00', '2024-02-02 17:00:00', '2024-02-02 16:00:00', '2024-02-02 15:00:00', '2024-02-02 13:00:00', '2024-02-02 12:00:00', '2024-02-02 11:00:00', '2024-02-02 10:00:00', '2024-02-02 09:00:00', '2024-02-02 08:00:00', '2024-02-02 07:00:00', '2024-02-02 06:00:00', '2024-02-02 05:00:00', '2024-02-02 03:00:00', '2024-02-02 02:00:00', '2024-02-02 01:00:00', '2024-02-02 00:00:00', '2024-02-01 23:00:00', '2024-02-01 22:00:00', '2024-02-01 21:00:00', '2024-02-01 20:00:00', '2024-02-01 19:00:00', '2024-02-01 18:00:00', '2024-02-01 17:00:00', '2024-02-01 16:00:00', '2024-02-01 15:00:00', '2024-02-01 14:00:00', '2024-02-01 13:00:00', '2024-02-01 11:00:00', '2024-02-01 10:00:00', '2024-02-01 09:00:00', '2024-02-01 08:00:00', '2024-02-01 07:00:00', '2024-02-01 06:00:00', '2024-02-01 05:00:00', '2024-02-01 03:00:00', '2024-02-01 02:00:00', '2024-02-01 01:00:00', '2024-02-01 00:00:00']"
Algeria, Tlemcen Zenata Airport (TLM/DAON) ,"['DAON 032130Z 00000KT 9999 FEW020 09/07 Q1031', 'DAON 032100Z 00000KT 9999 FEW020 09/07 Q1031', 'DAON 032030Z 00000KT CAVOK 10/08 Q1031', 'DAON 032000Z 00000KT CAVOK 10/08 Q1031', 'DAON 031930Z 00000KT CAVOK 11/08 Q1031', 'DAON 031900Z 33004KT CAVOK 12/09 Q1031', 'DAON 031830Z 33004KT CAVOK 12/09 Q1031', 'DAON 031800Z 33005KT CAVOK 13/08 Q1030', 'DAON 031730Z 33006KT CAVOK 14/08 Q1030', 'DAON 031700Z 34006KT CAVOK 15/09 Q1030', 'DAON 031630Z 34007KT CAVOK 16/08 Q1030', 'DAON 031600Z 34006KT CAVOK 17/08 Q1030', 'DAON 031530Z 33006KT CAVOK 17/08 Q1030', 'DAON 031500Z 28003KT CAVOK 18/08 Q1030', 'DAON 031430Z 30003KT CAVOK 17/07 Q1030', 'DAON 031400Z 31004KT CAVOK 17/07 Q1030', 'DAON 031330Z 00000KT 8000 FEW020 17/07 Q1031', 'DAON 031300Z 00000KT 8000 FEW020 16/07 Q1031', 'DAON 031230Z VRB02KT 8000 FEW020 16/06 Q1031', 'DAON 031200Z VRB02KT 8000 FEW020 15/07 Q1032', 'DAON 031100Z VRB02KT 8000 FEW020 13/06 Q1032', 'DAON 031030Z VRB02KT 8000 FEW020 12/06 Q1032', 'DAON 031000Z 00000KT 8000 FEW020 11/05 Q1032', 'DAON 030930Z 00000KT 8000 FEW020 10/05 Q1032', 'DAON 030900Z 00000KT 8000 FEW020 09/05 Q1032', 'DAON 030830Z 00000KT 8000 FEW010 07/05 Q1032', 'DAON 030800Z VRB02KT 7000 SCT010 05/03 Q1032', 'DAON 030730Z VRB02KT 6000 SCT010 04/03 Q1031', 'DAON 030700Z 22004KT 6000 SCT010 04/03 Q1031', 'DAON 030630Z 09002KT 6000 SCT010 04/03 Q1031', 'DAON 030600Z 09004KT 6000 SCT010 04/03 Q1031', 'DAON 030530Z 08004KT 7000 FEW010 05/04 Q1031', 'DAON 030500Z 09004KT 7000 FEW010 04/04 Q1030', 'DAON 030400Z 00000KT 7000 FEW010 05/04 Q1030', 'DAON 030330Z 00000KT 7000 FEW010 06/05 Q1030', 'DAON 030300Z 00000KT 7000 FEW010 05/04 Q1030', 'DAON 030230Z 09002KT 7000 FEW010 05/04 Q1030', 'DAON 030200Z 00000KT 7000 FEW010 06/05 Q1030', 'DAON 030130Z 00000KT 8000 FEW010 06/05 Q1030', 'DAON 030100Z 20003KT 8000 FEW010 07/05 Q1030', 'DAON 030030Z 13002KT 8000 FEW010 07/05 Q1030', 'DAON 030000Z 20003KT 8000 FEW010 07/05 Q1030', 'DAON 022330Z 22004KT 8000 NSC 07/05 Q1030', 'DAON 022300Z 22004KT 8000 NSC 07/05 Q1030', 'DAON 022230Z 23004KT 8000 NSC 08/06 Q1030', 'DAON 022200Z 21003KT 8000 NSC 09/07 Q1030', 'DAON 022130Z 25004KT 8000 NSC 09/07 Q1030', 'DAON 022030Z VRB02KT 8000 NSC 09/07 Q1030', 'DAON 022000Z VRB02KT 8000 NSC 10/08 Q1030', 'DAON 021900Z 32003KT 8000 NSC 12/09 Q1030', 'DAON 021830Z 32004KT 8000 NSC 13/09 Q1030', 'DAON 021800Z 33004KT 8000 NSC 13/09 Q1030', 'DAON 021730Z 32005KT 8000 NSC 14/09 Q1029', 'DAON 021700Z 33007KT 8000 NSC 15/10 Q1029', 'DAON 021630Z 33007KT 8000 NSC 16/09 Q1029', 'DAON 021600Z 33007KT 8000 NSC 17/10 Q1029', 'DAON 021530Z 32009KT 9000 NSC 17/09 Q1029', 'DAON 021500Z 34004KT 8000 NSC 18/09 Q1029', 'DAON 021430Z 32004KT 9000 NSC 18/09 Q1029', 'DAON 021400Z 02004KT 8000 NSC 18/09 Q1029', 'DAON 021330Z 34004KT 8000 NSC 17/09 Q1029', 'DAON 021300Z 31003KT 8000 NSC 17/09 Q1030', 'DAON 021230Z 13002KT 8000 NSC 16/10 Q1030', 'DAON 021200Z 03003KT 8000 NSC 15/09 Q1031', 'DAON 021130Z 06003KT 7000 FEW020 15/10 Q1031', 'DAON 021100Z 36003KT 7000 FEW020 14/09 Q1032', 'DAON 021030Z 05003KT 7000 FEW020 13/09 Q1032', 'DAON 021000Z 03002KT 6000 FEW010 12/09 Q1032', 'DAON 020930Z 06004KT 4000 BR SCT010 SCT020 11/09 Q1032', 'DAON 020900Z 06004KT 4000 BR SCT010 SCT020 10/09 Q1032', 'DAON 020830Z 11002KT 4000 BR SCT010 SCT020 10/08 Q1031', 'DAON 020800Z 13004KT 3000 BR SCT010 SCT020 09/08 Q1031', 'DAON 020730Z 10004KT 3000 BR BKN010 SCT020 09/08 Q1031', 'DAON 020700Z 08004KT 4000 BR SCT010 SCT020 09/08 Q1031', 'DAON 020630Z 09004KT 4000 BR SCT010 SCT020 09/08 Q1031', 'DAON 020600Z 10004KT 6000 SCT010 SCT020 09/08 Q1031', 'DAON 020530Z 00000KT 6000 SCT010 SCT020 08/07 Q1031', 'DAON 020500Z 00000KT 6000 SCT010 SCT020 08/07 Q1031', 'DAON 020430Z 23003KT 6000 SCT010 SCT020 08/07 Q1031', 'DAON 020400Z 00000KT 6000 SCT010 SCT020 07/06 Q1031', 'DAON 020330Z 07003KT 6000 SCT010 SCT020 07/06 Q1031', 'DAON 020300Z 00000KT 6000 SCT010 SCT020 07/06 Q1032', 'DAON 020230Z 11003KT 6000 SCT010 SCT020 07/06 Q1031', 'DAON 020200Z 00000KT 8000 FEW010 SCT020 07/06 Q1031', 'DAON 020130Z 00000KT 8000 FEW010 SCT020 07/06 Q1031', 'DAON 020100Z 00000KT 8000 FEW010 SCT020 07/06 Q1031', 'DAON 020030Z 10003KT 8000 FEW010 SCT020 08/07 Q1032', 'DAON 020000Z 21004KT 8000 FEW010 SCT020 08/07 Q1032', 'DAON 012330Z 22004KT 9000 FEW010 SCT020 08/07 Q1032', 'DAON 012300Z 00000KT 9000 FEW010 SCT020 09/08 Q1032', 'DAON 012230Z 18003KT 9000 SCT020 09/08 Q1032', 'DAON 012200Z 18004KT 9000 SCT020 10/08 Q1032', 'DAON 012130Z 19004KT 9000 SCT020 10/08 Q1032', 'DAON 012100Z 20004KT 9000 SCT020 10/09 Q1032', 'DAON 012030Z 22004KT 9000 SCT020 10/09 Q1032', 'DAON 012000Z 00000KT 9000 SCT020 11/09 Q1032', 'DAON 011930Z 25003KT 9000 SCT020 11/09 Q1032', 'DAON 011900Z 32003KT 9000 SCT020 13/10 Q1032', 'DAON 011830Z 32004KT 9000 SCT020 13/10 Q1031', 'DAON 011800Z 33005KT 9000 SCT020 14/10 Q1031', 'DAON 011730Z 33006KT 9000 SCT020 14/10 Q1031', 'DAON 011700Z 34007KT 9000 SCT020 15/12 Q1031', 'DAON 011630Z 33007KT 9000 NSC 16/11 Q1031', 'DAON 011600Z 34007KT 8000 NSC 17/10 Q1031', 'DAON 011530Z 32004KT 8000 NSC 18/08 Q1031', 'DAON 011500Z 06003KT 8000 NSC 18/08 Q1032', 'DAON 011430Z 03003KT 8000 NSC 18/08 Q1032', 'DAON 011400Z 07003KT 8000 NSC 17/08 Q1032', 'DAON 011330Z 10003KT 8000 SCT020 17/08 Q1032', 'DAON 011300Z 09004KT 8000 SCT020 16/09 Q1033', 'DAON 011230Z 04004KT 8000 SCT020 16/08 Q1033', 'DAON 011200Z 04004KT 7000 FEW010 SCT020 15/08 Q1034', 'DAON 011130Z 07004KT 7000 BKN010 15/08 Q1034', 'DAON 011100Z 11003KT 6000 BKN010 14/09 Q1035', 'DAON 011030Z 10004KT 5000 BKN010 13/09 Q1035', 'DAON 011000Z 10003KT 5000 BKN010 13/09 Q1035', 'DAON 010930Z 09003KT 4000 BR BKN010 12/09 Q1035', 'DAON 010900Z 07003KT 4000 BR BKN010 12/09 Q1035', 'DAON 010830Z 10002KT 4000 BR BKN010 11/09 Q1034', 'DAON 010800Z 14004KT 4000 BR BKN010 11/08 Q1034', 'DAON 010730Z 14003KT 4000 BR BKN010 11/08 Q1033', 'DAON 010700Z VRB02KT 4000 BR BKN010 10/09 Q1034', 'DAON 010630Z 13003KT 4000 BR BKN010 09/08 Q1033', 'DAON 010600Z VRB02KT 4000 BR BKN010 09/08 Q1033', 'DAON 010530Z VRB02KT 4000 BR BKN010 09/08 Q1033', 'DAON 010500Z VRB02KT 4000 BR BKN010 08/08 Q1033', 'DAON 010430Z VRB02KT 4000 BR BKN010 08/08 Q1033', 'DAON 010400Z 00000KT 4000 BR BKN010 08/07 Q1033', 'DAON 010330Z VRB02KT 6000 SCT010 07/07 Q1033', 'DAON 010300Z 00000KT 6000 SCT010 07/07 Q1033', 'DAON 010230Z VRB02KT 6000 SCT010 08/08 Q1033', 'DAON 010200Z VRB02KT 6000 SCT010 08/08 Q1033', 'DAON 010130Z 22003KT 6000 SCT010 09/08 Q1033', 'DAON 010100Z 20003KT 6000 SCT010 08/07 Q1033', 'DAON 010030Z 21003KT 7000 SCT010 09/08 Q1033', 'DAON 010000Z VRB02KT 7000 SCT010 09/08 Q1033', 'DAON 312330Z VRB02KT 7000 SCT010 09/08 Q1033', 'DAON 312300Z 18004KT 7000 SCT010 09/08 Q1033', 'DAON 312230Z VRB02KT 7000 SCT010 09/08 Q1033']","['2024-02-03 21:30:00', '2024-02-03 21:00:00', '2024-02-03 20:30:00', '2024-02-03 20:00:00', '2024-02-03 19:30:00', '2024-02-03 19:00:00', '2024-02-03 18:30:00', '2024-02-03 18:00:00', '2024-02-03 17:30:00', '2024-02-03 17:00:00', '2024-02-03 16:30:00', '2024-02-03 16:00:00', '2024-02-03 15:30:00', '2024-02-03 15:00:00', '2024-02-03 14:30:00', '2024-02-03 14:00:00', '2024-02-03 13:30:00', '2024-02-03 13:00:00', '2024-02-03 12:30:00', '2024-02-03 12:00:00', '2024-02-03 11:00:00', '2024-02-03 10:30:00', '2024-02-03 10:00:00', '2024-02-03 09:30:00', '2024-02-03 09:00:00', '2024-02-03 08:30:00', '2024-02-03 08:00:00', '2024-02-03 07:30:00', '2024-02-03 07:00:00', '2024-02-03 06:30:00', '2024-02-03 06:00:00', '2024-02-03 05:30:00', '2024-02-03 05:00:00', '2024-02-03 04:00:00', '2024-02-03 03:30:00', '2024-02-03 03:00:00', '2024-02-03 02:30:00', '2024-02-03 02:00:00', '2024-02-03 01:30:00', '2024-02-03 01:00:00', '2024-02-03 00:30:00', '2024-02-03 00:00:00', '2024-02-02 23:30:00', '2024-02-02 23:00:00', '2024-02-02 22:30:00', '2024-02-02 22:00:00', '2024-02-02 21:30:00', '2024-02-02 20:30:00', '2024-02-02 20:00:00', '2024-02-02 19:00:00', '2024-02-02 18:30:00', '2024-02-02 18:00:00', '2024-02-02 17:30:00', '2024-02-02 17:00:00', '2024-02-02 16:30:00', '2024-02-02 16:00:00', '2024-02-02 15:30:00', '2024-02-02 15:00:00', '2024-02-02 14:30:00', '2024-02-02 14:00:00', '2024-02-02 13:30:00', '2024-02-02 13:00:00', '2024-02-02 12:30:00', '2024-02-02 12:00:00', '2024-02-02 11:30:00', '2024-02-02 11:00:00', '2024-02-02 10:30:00', '2024-02-02 10:00:00', '2024-02-02 09:30:00', '2024-02-02 09:00:00', '2024-02-02 08:30:00', '2024-02-02 08:00:00', '2024-02-02 07:30:00', '2024-02-02 07:00:00', '2024-02-02 06:30:00', '2024-02-02 06:00:00', '2024-02-02 05:30:00', '2024-02-02 05:00:00', '2024-02-02 04:30:00', '2024-02-02 04:00:00', '2024-02-02 03:30:00', '2024-02-02 03:00:00', '2024-02-02 02:30:00', '2024-02-02 02:00:00', '2024-02-02 01:30:00', '2024-02-02 01:00:00', '2024-02-02 00:30:00', '2024-02-02 00:00:00', '2024-02-01 23:30:00', '2024-02-01 23:00:00', '2024-02-01 22:30:00', '2024-02-01 22:00:00', '2024-02-01 21:30:00', '2024-02-01 21:00:00', '2024-02-01 20:30:00', '2024-02-01 20:00:00', '2024-02-01 19:30:00', '2024-02-01 19:00:00', '2024-02-01 18:30:00', '2024-02-01 18:00:00', '2024-02-01 17:30:00', '2024-02-01 17:00:00', '2024-02-01 16:30:00', '2024-02-01 16:00:00', '2024-02-01 15:30:00', '2024-02-01 15:00:00', '2024-02-01 14:30:00', '2024-02-01 14:00:00', '2024-02-01 13:30:00', '2024-02-01 13:00:00', '2024-02-01 12:30:00', '2024-02-01 12:00:00', '2024-02-01 11:30:00', '2024-02-01 11:00:00', '2024-02-01 10:30:00', '2024-02-01 10:00:00', '2024-02-01 09:30:00', '2024-02-01 09:00:00', '2024-02-01 08:30:00', '2024-02-01 08:00:00', '2024-02-01 07:30:00', '2024-02-01 07:00:00', '2024-02-01 06:30:00', '2024-02-01 06:00:00', '2024-02-01 05:30:00', '2024-02-01 05:00:00', '2024-02-01 04:30:00', '2024-02-01 04:00:00', '2024-02-01 03:30:00', '2024-02-01 03:00:00', '2024-02-01 02:30:00', '2024-02-01 02:00:00', '2024-02-01 01:30:00', '2024-02-01 01:00:00', '2024-02-01 00:30:00', '2024-02-01 00:00:00', '2024-01-31 23:30:00', '2024-01-31 23:00:00', '2024-01-31 22:30:00']"
Algeria, Touggourt Sidi Mahdi Airport (TGR/DAUK) ,"['DAUK 032100Z 00000KT CAVOK 08/02 Q1033', 'DAUK 032000Z 00000KT CAVOK 09/01 Q1033', 'DAUK 031900Z 07004KT CAVOK 12/01 Q1032', 'DAUK 031800Z 04003KT CAVOK 13/01 Q1031', 'DAUK 031700Z 05003KT CAVOK 16/01 Q1031', 'DAUK 031600Z 05005KT CAVOK 17/01 Q1031', 'DAUK 031500Z 05006KT CAVOK 18/01 Q1030', 'DAUK 031400Z 05007KT CAVOK 17/01 Q1030', 'DAUK 031300Z 06006KT CAVOK 17/02 Q1031', 'DAUK 031200Z 06008KT 9999 FEW040 16/02 Q1031', 'DAUK 031100Z 06007KT 9999 FEW040 16/04 Q1032', 'DAUK 031000Z 06006KT CAVOK 15/07 Q1032', 'DAUK 030900Z 05004KT CAVOK 12/06 Q1031', 'DAUK 030800Z 03003KT CAVOK 09/04 Q1031', 'DAUK 030700Z 04003KT CAVOK 06/01 Q1030', 'DAUK 030600Z 02003KT CAVOK 07/01 Q1029', 'DAUK 030500Z 01004KT CAVOK 08/01 Q1028', 'DAUK 030400Z 35004KT CAVOK 09/01 Q1028', 'DAUK 030300Z VRB02KT CAVOK 07/01 Q1028', 'DAUK 030200Z 36003KT CAVOK 07/01 Q1028', 'DAUK 030100Z 04003KT CAVOK 08/01 Q1028', 'DAUK 030000Z VRB02KT CAVOK 08/02 Q1028', 'DAUK 022300Z VRB02KT CAVOK 10/01 Q1028', 'DAUK 022200Z VRB02KT CAVOK 10/01 Q1028', 'DAUK 022000Z VRB02KT CAVOK 12/03 Q1027', 'DAUK 021900Z 34003KT CAVOK 13/01 Q1027', 'DAUK 021800Z 04003KT CAVOK 15/01 Q1027', 'DAUK 021700Z 02004KT CAVOK 17/02 Q1026', 'DAUK 021600Z 06003KT CAVOK 18/02 Q1026', 'DAUK 021500Z 05003KT CAVOK 18/02 Q1026', 'DAUK 021400Z 04004KT CAVOK 18/01 Q1026', 'DAUK 021300Z 34004KT CAVOK 18/01 Q1027', 'DAUK 021200Z VRB02KT CAVOK 17/01 Q1028', 'DAUK 021100Z 09003KT CAVOK 14/01 Q1029', 'DAUK 021000Z 03003KT CAVOK 14/03 Q1029', 'DAUK 020900Z 00000KT CAVOK 11/01 Q1029', 'DAUK 020800Z 00000KT CAVOK 07/00 Q1029', 'DAUK 020700Z 19004KT CAVOK 05/M01 Q1028', 'DAUK 020600Z 18004KT CAVOK 05/M01 Q1028', 'DAUK 020500Z 18005KT CAVOK 07/M01 Q1028', 'DAUK 020400Z 18005KT CAVOK 07/M01 Q1028', 'DAUK 020300Z 19005KT CAVOK 06/00 Q1029', 'DAUK 020200Z 19005KT CAVOK 07/00 Q1029', 'DAUK 020100Z 18004KT CAVOK 08/00 Q1029', 'DAUK 020000Z 18005KT CAVOK 08/00 Q1029', 'DAUK 012300Z 18004KT CAVOK 08/00 Q1029', 'DAUK 012200Z 17005KT CAVOK 09/00 Q1029', 'DAUK 012100Z 16006KT CAVOK 11/01 Q1029', 'DAUK 012000Z 16005KT CAVOK 12/01 Q1029', 'DAUK 011900Z 16005KT CAVOK 12/01 Q1030', 'DAUK 011800Z 17004KT CAVOK 13/02 Q1030', 'DAUK 011700Z 22004KT CAVOK 17/02 Q1030', 'DAUK 011600Z 23006KT CAVOK 18/01 Q1030', 'DAUK 011500Z 28004KT CAVOK 17/01 Q1031', 'DAUK 011400Z 28006KT CAVOK 17/02 Q1031', 'DAUK 011300Z 25005KT CAVOK 17/02 Q1032', 'DAUK 011200Z 24006KT CAVOK 16/02 Q1033', 'DAUK 011100Z 25005KT CAVOK 15/03 Q1034', 'DAUK 011000Z 26006KT CAVOK 14/02 Q1034', 'DAUK 010900Z VRB02KT CAVOK 10/02 Q1034', 'DAUK 010800Z 18003KT CAVOK 07/00 Q1033', 'DAUK 010700Z 21003KT CAVOK 05/M00 Q1033', 'DAUK 010600Z 22003KT CAVOK 05/M00 Q1033', 'DAUK 010500Z 23003KT CAVOK 04/M00 Q1032', 'DAUK 010400Z 19004KT CAVOK 06/01 Q1032', 'DAUK 010300Z 16004KT CAVOK 07/01 Q1033', 'DAUK 010200Z 16005KT CAVOK 07/01 Q1033', 'DAUK 010100Z 15004KT CAVOK 08/02 Q1033', 'DAUK 010000Z 00000KT CAVOK 07/02 Q1033', 'DAUK 312300Z 00000KT CAVOK 07/02 Q1033']","['2024-02-03 21:00:00', '2024-02-03 20:00:00', '2024-02-03 19:00:00', '2024-02-03 18:00:00', '2024-02-03 17:00:00', '2024-02-03 16:00:00', '2024-02-03 15:00:00', '2024-02-03 14:00:00', '2024-02-03 13:00:00', '2024-02-03 12:00:00', '2024-02-03 11:00:00', '2024-02-03 10:00:00', '2024-02-03 09:00:00', '2024-02-03 08:00:00', '2024-02-03 07:00:00', '2024-02-03 06:00:00', '2024-02-03 05:00:00', '2024-02-03 04:00:00', '2024-02-03 03:00:00', '2024-02-03 02:00:00', '2024-02-03 01:00:00', '2024-02-03 00:00:00', '2024-02-02 23:00:00', '2024-02-02 22:00:00', '2024-02-02 20:00:00', '2024-02-02 19:00:00', '2024-02-02 18:00:00', '2024-02-02 17:00:00', '2024-02-02 16:00:00', '2024-02-02 15:00:00', '2024-02-02 14:00:00', '2024-02-02 13:00:00', '2024-02-02 12:00:00', '2024-02-02 11:00:00', '2024-02-02 10:00:00', '2024-02-02 09:00:00', '2024-02-02 08:00:00', '2024-02-02 07:00:00', '2024-02-02 06:00:00', '2024-02-02 05:00:00', '2024-02-02 04:00:00', '2024-02-02 03:00:00', '2024-02-02 02:00:00', '2024-02-02 01:00:00', '2024-02-02 00:00:00', '2024-02-01 23:00:00', '2024-02-01 22:00:00', '2024-02-01 21:00:00', '2024-02-01 20:00:00', '2024-02-01 19:00:00', '2024-02-01 18:00:00', '2024-02-01 17:00:00', '2024-02-01 16:00:00', '2024-02-01 15:00:00', '2024-02-01 14:00:00', '2024-02-01 13:00:00', '2024-02-01 12:00:00', '2024-02-01 11:00:00', '2024-02-01 10:00:00', '2024-02-01 09:00:00', '2024-02-01 08:00:00', '2024-02-01 07:00:00', '2024-02-01 06:00:00', '2024-02-01 05:00:00', '2024-02-01 04:00:00', '2024-02-01 03:00:00', '2024-02-01 02:00:00', '2024-02-01 01:00:00', '2024-02-01 00:00:00', '2024-01-31 23:00:00']"
American-samoa, Pago Pago International Airport (PPG/NSTU) ,"['NSTU 032150Z 13007KT 11SM SCT016 BKN040 OVC100 30/28 A2970 RMK SLP059 T03010282', 'NSTU 032051Z VRB06KT 12SM SCT017 BKN040 OVC100 31/28 A2971 RMK SLP061 8/87/ T03090276 52002', 'NSTU 031950Z VRB05KT 12SM SCT018 BKN040 BKN100 OVC230 30/28 A2972 RMK SLP066 T03040275', 'NSTU 031850Z VRB02KT 12SM SCT018 BKN040 BKN100 OVC230 30/27 A2972 RMK SLP066 T02970272', 'NSTU 031750Z VRB03KT 12SM FEW018 SCT040 BKN100 28/27 A2970 RMK SLP059 8/870 T02840270 10288 20278 52010', 'NSTU 031650Z VRB03KT 10SM FEW018 SCT040 BKN100 28/27 A2969 RMK SLP054 T02840269', 'NSTU 031550Z 32012G17KT 10SM SCT018 BKN040 BKN100 29/27 A2968 RMK SLP051 T02860269', 'NSTU 031350Z VRB05KT 10SM SCT016 BKN038 OVC100 28/27 A2970 RMK SLP058 T02780273', 'NSTU 031250Z 31006G13KT 10SM SCT016 BKN040 BKN100 29/27 A2972 RMK SLP064 T02880273', 'NSTU 031152Z 32018G27KT 10SM SCT016 BKN040 BKN100 29/27 A2973 RMK SLP069 8/870 T02860271 10291 20286 58012', 'NSTU 031055Z 32010G17KT 10SM SCT016 BKN040 29/27 A2975 RMK SLP075 T02890272 403080267', 'NSTU 030950Z 34010G23KT 10SM SCT016 BKN040 29/28 A2976 RMK SLP080 T02900278', 'NSTU 030850Z VRB03KT 10SM SCT019 BKN040 29/27 A2977 RMK SLP081 8/800 T02900274 52012', 'NSTU 030750Z VRB03KT 10SM SCT022 BKN040 29/27 A2976 RMK SLP078 T02890272', 'NSTU 030650Z VRB06KT 10SM FEW022 BKN045 BKN100 29/27 A2974 RMK SLP073 T02910274', 'NSTU 030550Z 32008KT 11SM FEW019 BKN045 OVC100 29/27 A2973 RMK SLP069 8/82/ T02910274 10305 20291 52007', 'NSTU 030450Z 33011KT 12SM SCT019 BKN040 BKN100 OVC220 30/28 A2972 RMK SLP064 T02950276', 'NSTU 030350Z 33011G18KT 12SM FEW018 SCT040 BKN100 BKN220 30/28 A2971 RMK SLP061 T03000276', 'NSTU 030250Z 32009KT 12SM SCT018 SCT040 BKN100 OVC220 30/28 A2971 RMK SLP063 8/828 T03030282 57005', 'NSTU 030150Z 33011G16KT 12SM SCT018 BKN040 BKN100 OVC220 30/28 A2972 RMK SLP066 T03040279', 'NSTU 030050Z 33010G16KT 12SM SCT018 BKN040 BKN100 OVC220 30/28 A2972 RMK SLP066 T03010277', 'NSTU 022350Z 32012G17KT 12SM SCT016 BKN040 BKN100 OVC220 31/28 A2973 RMK SLP068 8/828 T03050281 10308 20276 58025', 'NSTU 022250Z 32010G19KT 12SM SCT016 SCT040 BKN100 BKN220 30/28 A2976 RMK SLP078 T03030277', 'NSTU 022150Z 33018G29KT 12SM SCT017 SCT040 BKN100 BKN220 30/28 A2978 RMK SLP085 T02970275', 'NSTU 022050Z 33013G19KT 12SM SCT016TCU BKN100 BKN220 31/29 A2980 RMK TCU W-N-E SLP093 8/278 T03080287 51008', 'NSTU 021950Z 33012G18KT 12SM FEW018 SCT100 BKN220 30/27 A2981 RMK SLP097 T02990274', 'NSTU 021850Z 34012KT 12SM FEW016TCU SCT040 BKN120 BKN220 29/28 A2980 RMK W-N-NE SLP091 T02870276', 'NSTU 021652Z 34007KT 10SM FEW019 SCT040 BKN100 28/27 A2975 RMK SLP076 T02830273', 'NSTU 021550Z VRB05KT 10SM FEW019 SCT040 29/27 A2975 RMK SLP076 T02860273', 'NSTU 021450Z 36007KT 10SM FEW021 SCT120 BKN220 29/27 A2976 RMK SLP078 8/178 T02860273 58007', 'NSTU 021252Z VRB05KT 10SM FEW021 SCT120 28/27 A2978 RMK SLP083 T02790270', 'NSTU 021150Z VRB05KT 10SM FEW021 SCT120 27/27 A2978 RMK SLP085 70012 8/170 T02670267 10290 20267 58002', 'NSTU 021055Z VRB05KT 10SM FEW021 SCT120 27/27 A2979 RMK SLP088 T02720268 403110272', 'NSTU 020950Z VRB04KT 10SM FEW021 FEW120 27/27 A2979 RMK SLP088 T02700270', 'NSTU 020850Z 34007KT 10SM FEW019 SCT120 28/27 A2979 RMK SLP086 8/170 T02760272 51002', 'NSTU 020750Z 00000KT 10SM FEW019 SCT120 28/27 A2980 RMK SLP093 T02840272', 'NSTU 020650Z VRB05KT 10SM FEW019 SCT120 29/27 A2980 RMK SLP091 T02880272', 'NSTU 020550Z 25007KT 12SM FEW019 SCT120 BKN220 29/27 A2978 RMK SLP085 60004 8/178 T02900271 10299 20283 52019', 'NSTU 020450Z 24007KT 12SM SCT019 BKN120 OVC220 30/27 A2974 RMK SLP073 T02950271', 'NSTU 020350Z 24009KT 12SM FEW021 BKN120 OVC220 29/27 A2972 RMK SLP066 T02940271', 'NSTU 020250Z 23007KT 12SM FEW021 BKN120 OVC220 30/27 A2972 RMK SLP066 60004 8/178 T02990272 57019', 'NSTU 020150Z 28008G15KT 12SM FEW023 SCT100 BKN220 30/27 A2973 RMK SLP069 T02990274', 'NSTU 020050Z 28012G17KT 12SM SCT019TCU BKN100 BKN220 30/27 A2979 RMK SHRAE20 TCU S-W SLP088 T02960274', 'NSTU 012350Z 28016G27KT 10SM -SHRA SCT018TCU BKN100 OVC220 28/28 A2978 RMK SHRAB43 TCU ALQDS SLP085 60008 8/228 T02830281 10311 20283 57015', 'NSTU 012250Z 31009G15KT 12SM FEW020 BKN100 BKN220 31/28 A2979 RMK SLP090 T03110283', 'NSTU 012150Z 32009G15KT 12SM FEW020 BKN100 OVC220 31/28 A2982 RMK SLP098 T03050279', 'NSTU 012050Z 34013G19KT 12SM FEW018 BKN100 OVC220 30/28 A2982 RMK SLP100 8/129 T03000280 52015', 'NSTU 011950Z 32011G16KT 12SM FEW021 BKN100 OVC220 30/28 A2980 RMK SLP093 T03000277', 'NSTU 011850Z 35007G15KT 12SM FEW021 SCT110 BKN220 29/28 A2979 RMK SLP090 T02920278', 'NSTU 011750Z 33010KT 12SM FEW015TCU BKN110 BKN220 29/28 A2978 RMK TCU W-N SLP085 8/178 T02910279 10291 20280 52005', 'NSTU 011650Z 32007KT 10SM FEW020 SCT110 BKN220 29/28 A2976 RMK SLP080 T02890278', 'NSTU 011555Z VRB05KT 10SM SCT019 BKN100 BKN200 28/27 A2976 RMK SLP080 T02830272', 'NSTU 011250Z 00000KT 10SM FEW019 SCT100 BKN200 29/27 A2976 RMK SLP078 T02880270', 'NSTU 011150Z VRB03KT 10SM FEW019 SCT100 BKN200 29/27 A2979 RMK SLP090 8/178 T02850270 10300 20273 58012', 'NSTU 011050Z 34007KT 10SM FEW019 SCT100 BKN200 28/27 A2981 RMK SLP095 T02770271 403270263', 'NSTU 010950Z VRB02KT 10SM FEW019 FEW100 27/27 A2983 RMK SLP102 T02730270', 'NSTU 010850Z VRB04KT 10SM FEW019 FEW100 28/27 A2983 RMK SLP102 8/170 T02780270 52017', 'NSTU 010750Z VRB03KT 10SM FEW019 SCT100 28/27 A2982 RMK SLP098 T02840273', 'NSTU 010650Z 34007KT 10SM FEW019 SCT100 BKN200 30/27 A2980 RMK SLP091 T02970271', 'NSTU 010550Z VRB05KT 12SM FEW140 SCT200 30/30 A2978 RMK SLP085 8/071 T03000299 10314 20300 52017', 'NSTU 010450Z 36007G12KT 12SM FEW019 BKN140 31/28 A2975 RMK SLP076 T03140277', 'NSTU 010350Z VRB05KT 12SM FEW019 FEW140 SCT200 31/28 A2973 RMK SLP069 T03060282', 'NSTU 010250Z VRB04KT 12SM SCT021 BKN140 31/28 A2973 RMK SLP068 8/170 T03070284 57017', 'NSTU 010150Z VRB06KT 12SM SCT021 BKN210 31/29 A2974 RMK SLP073 T03130285', 'NSTU 010050Z 01009KT 12SM VCSH SCT020TCU BKN210 31/28 A2977 RMK VCSH N TCU W-N-E SLP081 T03110281', 'NSTU 312350Z 33008KT 12SM SCT020TCU BKN210 30/29 A2978 RMK TCU W-N SLP085 8/201 T03040287 10327 20274 57007', 'NSTU 312250Z 11007KT 12SM FEW021TCU SCT210 33/30 A2979 RMK TCU W SLP088 T03270298']","['2024-02-03 21:50:00', '2024-02-03 20:51:00', '2024-02-03 19:50:00', '2024-02-03 18:50:00', '2024-02-03 17:50:00', '2024-02-03 16:50:00', '2024-02-03 15:50:00', '2024-02-03 13:50:00', '2024-02-03 12:50:00', '2024-02-03 11:52:00', '2024-02-03 10:55:00', '2024-02-03 09:50:00', '2024-02-03 08:50:00', '2024-02-03 07:50:00', '2024-02-03 06:50:00', '2024-02-03 05:50:00', '2024-02-03 04:50:00', '2024-02-03 03:50:00', '2024-02-03 02:50:00', '2024-02-03 01:50:00', '2024-02-03 00:50:00', '2024-02-02 23:50:00', '2024-02-02 22:50:00', '2024-02-02 21:50:00', '2024-02-02 20:50:00', '2024-02-02 19:50:00', '2024-02-02 18:50:00', '2024-02-02 16:52:00', '2024-02-02 15:50:00', '2024-02-02 14:50:00', '2024-02-02 12:52:00', '2024-02-02 11:50:00', '2024-02-02 10:55:00', '2024-02-02 09:50:00', '2024-02-02 08:50:00', '2024-02-02 07:50:00', '2024-02-02 06:50:00', '2024-02-02 05:50:00', '2024-02-02 04:50:00', '2024-02-02 03:50:00', '2024-02-02 02:50:00', '2024-02-02 01:50:00', '2024-02-02 00:50:00', '2024-02-01 23:50:00', '2024-02-01 22:50:00', '2024-02-01 21:50:00', '2024-02-01 20:50:00', '2024-02-01 19:50:00', '2024-02-01 18:50:00', '2024-02-01 17:50:00', '2024-02-01 16:50:00', '2024-02-01 15:55:00', '2024-02-01 12:50:00', '2024-02-01 11:50:00', '2024-02-01 10:50:00', '2024-02-01 09:50:00', '2024-02-01 08:50:00', '2024-02-01 07:50:00', '2024-02-01 06:50:00', '2024-02-01 05:50:00', '2024-02-01 04:50:00', '2024-02-01 03:50:00', '2024-02-01 02:50:00', '2024-02-01 01:50:00', '2024-02-01 00:50:00', '2024-01-31 23:50:00', '2024-01-31 22:50:00']"
Angola, Cabinda Airport (CAB/FNCA) ,"['FNCA 032100Z AUTO VRB03KT 9999 NCD 29/26 Q1012', 'FNCA 032000Z 24004KT 210V290 9999 FEW020 29/26 Q1011 NOSIG', 'FNCA 031900Z 25006KT 9999 FEW020 29/26 Q1010 NOSIG', 'FNCA 031700Z AUTO 25006KT 210V270 9999 NCD 30/25 Q1008', 'FNCA 031400Z AUTO 25008KT 210V280 9999 NCD 32/24 Q1008', 'FNCA 031200Z 26007KT 220V290 9999 FEW016 32/24 Q1010 NOSIG', 'FNCA 031100Z 28006KT 240V320 9999 FEW015 31/25 Q1011 NOSIG', 'FNCA 031000Z AUTO 31006KT 280V350 9999 NCD 31/25 Q1011', 'FNCA 030900Z AUTO 32006KT 280V350 9999 OVC021 30/25 Q1012', 'FNCA 030800Z VRB03KT 9999 FEW015 31/25 Q1012 NOSIG', 'FNCA 030600Z 00000KT 9999 FEW023 26/24 Q1011 NOSIG', 'FNCA 030300Z AUTO 08006KT 9999 NCD 25/24 Q1010', 'FNCA 030100Z AUTO VRB03KT 9999 NCD 26/24 Q1010', 'FNCA 030000Z AUTO 08005KT 9999 NCD 26/24 Q1011', 'FNCA 022100Z AUTO VRB02KT 9999 NCD 28/23 Q1012', 'FNCA 021800Z VRB03KT 9000 FEW026 BKN050 29/25 Q1009 NOSIG', 'FNCA 021300Z 26007KT 200V310 9999 FEW018 32/25 Q1011 NOSIG', 'FNCA 021100Z 28005KT 250V320 9999 FEW018 31/25 Q1012 NOSIG', 'FNCA 021000Z VRB03KT 9999 SCT018 32/25 Q1013 NOSIG', 'FNCA 020900Z VRB03KT 9999 SCT014 BKN018 29/26 Q1014 NOSIG', 'FNCA 020500Z AUTO 11001KT 9999 FEW002 BKN010 25/25 Q1012', 'FNCA 020400Z AUTO 00000KT 9999 NCD 25/25 Q1012', 'FNCA 020300Z AUTO 17001KT 9999 NCD 26/25 Q1012', 'FNCA 020200Z AUTO 08002KT 9999 NCD 26/25 Q1012', 'FNCA 020100Z AUTO 12002KT 9999 NCD 26/25 Q1012', 'FNCA 020000Z AUTO VRB02KT 9999 NCD 26/25 Q1013', 'FNCA 012300Z AUTO 18004KT 9999 BKN019 26/25 Q1014', 'FNCA 012200Z AUTO 20004KT 160V230 9999 OVC015 26/25 Q1014', 'FNCA 012100Z AUTO 19004KT 9999 OVC019 26/25 Q1013', 'FNCA 012000Z VRB03KT 9000 FEW026 BKN050 27/25 Q1012 NOSIG', 'FNCA 011900Z VRB02KT 9000 FEW026 BKN050 28/25 Q1011 NOSIG', 'FNCA 011800Z VRB02KT 9000 FEW026 BKN050 28/25 Q1010 NOSIG', 'FNCA 011700Z VRB03KT 9999 FEW026 BKN050 28/25 Q1010 NOSIG', 'FNCA 011600Z VRB03KT 9999 FEW026 BKN050 29/25 Q1010 NOSIG', 'FNCA 011300Z 26005KT 210V300 9999 FEW015 BKN024 OVC050 29/25 Q1013', 'FNCA 011000Z 17004KT 130V200 9999 FEW020 SCT026 OVC050 28/25 Q1016 NOSIG', 'FNCA 010600Z VRB03KT 9999 FEW010 SCT020 OVC050 25/24 Q1014 NOSIG', 'FNCA 010500Z AUTO 07005KT 040V110 9999 NCD 25/24 Q1013', 'FNCA 010400Z AUTO 04005KT 010V070 9999 BKN024 OVC030 26/24 Q1012', 'FNCA 010300Z AUTO 06003KT 030V090 9999 NCD 25/23 Q1012', 'FNCA 010200Z AUTO VRB02KT 9999 NCD 25/23 Q1012', 'FNCA 010100Z AUTO 07004KT 030V090 9999 NCD 25/23 Q1012', 'FNCA 010000Z AUTO 08006KT 9999 NCD 25/23 Q1013', 'FNCA 312300Z AUTO 07004KT 040V100 9999 NCD 25/23 Q1014']","['2024-02-03 21:00:00', '2024-02-03 20:00:00', '2024-02-03 19:00:00', '2024-02-03 17:00:00', '2024-02-03 14:00:00', '2024-02-03 12:00:00', '2024-02-03 11:00:00', '2024-02-03 10:00:00', '2024-02-03 09:00:00', '2024-02-03 08:00:00', '2024-02-03 06:00:00', '2024-02-03 03:00:00', '2024-02-03 01:00:00', '2024-02-03 00:00:00', '2024-02-02 21:00:00', '2024-02-02 18:00:00', '2024-02-02 13:00:00', '2024-02-02 11:00:00', '2024-02-02 10:00:00', '2024-02-02 09:00:00', '2024-02-02 05:00:00', '2024-02-02 04:00:00', '2024-02-02 03:00:00', '2024-02-02 02:00:00', '2024-02-02 01:00:00', '2024-02-02 00:00:00', '2024-02-01 23:00:00', '2024-02-01 22:00:00', '2024-02-01 21:00:00', '2024-02-01 20:00:00', '2024-02-01 19:00:00', '2024-02-01 18:00:00', '2024-02-01 17:00:00', '2024-02-01 16:00:00', '2024-02-01 13:00:00', '2024-02-01 10:00:00', '2024-02-01 06:00:00', '2024-02-01 05:00:00', '2024-02-01 04:00:00', '2024-02-01 03:00:00', '2024-02-01 02:00:00', '2024-02-01 01:00:00', '2024-02-01 00:00:00', '2024-01-31 23:00:00']"
Angola, Catumbela Airport (CBT/FNCT) ,"['FNCT 032100Z AUTO VRB02KT 9999 BKN016 28/26 Q1012', 'FNCT 032000Z AUTO 23003KT 9999 NCD 29/25 Q1011', 'FNCT 031900Z AUTO 22004KT 9999 NCD 29/26 Q1010', 'FNCT 031400Z 28008KT 9999 sct018 31/25 Q1009', 'FNCT 031200Z AUTO 31009KT 9999 NCD 31/24 Q1010', 'FNCT 031000Z AUTO 32008KT 9999 NCD 31/24 Q1011', 'FNCT 030900Z AUTO 32006KT 280V360 9999 NCD 30/24 Q1012', 'FNCT 030800Z AUTO 34003KT 270V070 9999 NCD 30/24 Q1012', 'FNCT 030700Z AUTO 06004KT 020V090 9999 NCD 29/25 Q1012', 'FNCT 030600Z VRB03KT 9999 FEW015 BKN022 27/25 Q1011', 'FNCT 030300Z AUTO VRB02KT 9999 NCD 26/25 Q1010', 'FNCT 030100Z AUTO 05002KT 9999 NCD 27/25 Q1010', 'FNCT 030000Z AUTO 05003KT 9999 FEW012 27/26 Q1011', 'FNCT 022100Z AUTO 08003KT 9999 NCD 28/26 Q1012', 'FNCT 021800Z AUTO VRB02KT 9999 BKN050 28/25 Q1010', 'FNCT 021300Z 33009KT 9999 SCT015 FEW025CB 30/24 Q1010', 'FNCT 021100Z AUTO 34011KT 9999 NCD 30/24 Q1012', 'FNCT 021000Z AUTO 33007KT 9999 NCD 30/25 Q1012', 'FNCT 020900Z AUTO VRB03KT 9999 NCD 29/24 Q1013', 'FNCT 020500Z AUTO 00000KT 9999 NCD 25/24 Q1012', 'FNCT 020400Z AUTO 35002KT 9999 NCD 25/24 Q1012', 'FNCT 020300Z AUTO 02002KT 9999 NCD 25/24 Q1012', 'FNCT 020200Z AUTO VRB02KT 9999 NCD 25/25 Q1012', 'FNCT 020100Z AUTO 34002KT 9999 -RA NCD 26/25 Q1012', 'FNCT 020000Z AUTO 34002KT 9999 -RA NCD 26/25 Q1013', 'FNCT 012300Z AUTO 05003KT 9999 FEW030 26/25 Q1013', 'FNCT 012200Z AUTO 15004KT 120V190 9999 BKN015 BKN026 OVC032 26/25 Q1014', 'FNCT 012100Z AUTO VRB02KT 9999 OVC016 26/25 Q1014', 'FNCT 012000Z AUTO 05004KT 9999 BKN016 BKN035 OVC045 25/25 Q1014', 'FNCT 011900Z AUTO 07004KT 9999 SCT031 OVC041 26/25 Q1013', 'FNCT 011800Z AUTO 06005KT 9999 -RA BKN022 OVC050 26/25 Q1012', 'FNCT 011700Z 36009KT 9.000 -RA OVC014 27/26 Q1012', 'FNCT 011600Z 35010KT 9000 -RA OVC014 28/25 Q1011', 'FNCT 011300Z AUTO 33010KT 290V360 9999 NCD 30/25 Q1011', 'FNCT 011000Z AUTO 31006KT 270V350 //// NCD 29/22 Q1014', 'FNCT 010600Z AUTO VRB02KT //// SCT005 25/24 Q1014', 'FNCT 010500Z AUTO VRB03KT //// NCD 25/24 Q1013', 'FNCT 010400Z AUTO VRB02KT //// FEW013 SCT028 25/24 Q1012', 'FNCT 010300Z AUTO VRB02KT //// OVC012 25/24 Q1012', 'FNCT 010200Z AUTO 00000KT //// FEW014 OVC039 24/24 Q1012', 'FNCT 010100Z AUTO 36004KT 340V040 //// OVC014 25/24 Q1013', 'FNCT 010000Z AUTO VRB03KT //// SCT004 BKN012 OVC018 25/24 Q1013', 'FNCT 312300Z AUTO 04004KT //// OVC011 24/23 Q1014']","['2024-02-03 21:00:00', '2024-02-03 20:00:00', '2024-02-03 19:00:00', '2024-02-03 14:00:00', '2024-02-03 12:00:00', '2024-02-03 10:00:00', '2024-02-03 09:00:00', '2024-02-03 08:00:00', '2024-02-03 07:00:00', '2024-02-03 06:00:00', '2024-02-03 03:00:00', '2024-02-03 01:00:00', '2024-02-03 00:00:00', '2024-02-02 21:00:00', '2024-02-02 18:00:00', '2024-02-02 13:00:00', '2024-02-02 11:00:00', '2024-02-02 10:00:00', '2024-02-02 09:00:00', '2024-02-02 05:00:00', '2024-02-02 04:00:00', '2024-02-02 03:00:00', '2024-02-02 02:00:00', '2024-02-02 01:00:00', '2024-02-02 00:00:00', '2024-02-01 23:00:00', '2024-02-01 22:00:00', '2024-02-01 21:00:00', '2024-02-01 20:00:00', '2024-02-01 19:00:00', '2024-02-01 18:00:00', '2024-02-01 17:00:00', '2024-02-01 16:00:00', '2024-02-01 13:00:00', '2024-02-01 10:00:00', '2024-02-01 06:00:00', '2024-02-01 05:00:00', '2024-02-01 04:00:00', '2024-02-01 03:00:00', '2024-02-01 02:00:00', '2024-02-01 01:00:00', '2024-02-01 00:00:00', '2024-01-31 23:00:00']"
Angola, Huambo Albano Machado Airport (NOV/FNHU) ,"['FNHU 032100Z AUTO 23004KT 9999 // NCD 18/17 Q1022', 'FNHU 032000Z AUTO VRB02KT 9999 // NCD 18/17 Q1022', 'FNHU 031900Z AUTO 21004KT 9999 // NCD 18/17 Q1021', 'FNHU 031700Z AUTO 32013KT 9999 // FEW025 SCT031 18/17 Q1019', 'FNHU 031400Z 35005KT 9999 SCT015 24/16 Q1019', 'FNHU 031200Z AUTO 35007KT 320V020 9999 // NCD 22/16 Q1021', 'FNHU 031100Z 02007KT 9999 SCT011 OVC060 21/18 Q1022', 'FNHU 031000Z 01007KT 9999 BKN011 OVC060 20/17 Q1023', 'FNHU 030900Z AUTO /////KT //// ////// ///// Q////', 'FNHU 030800Z AUTO /////KT //// ////// ///// Q////', 'FNHU 030700Z AUTO /////KT //// ////// ///// Q////', 'FNHU 030600Z AUTO /////KT //// ////// ///// Q////', 'FNHU 030300Z AUTO /////KT //// ////// ///// Q////', 'FNHU 030100Z AUTO /////KT //// ////// ///// Q////', 'FNHU 030000Z AUTO /////KT //// ////// ///// Q////', 'FNHU 022100Z AUTO 12006KT 9999 // BKN012 17/16 Q1023', 'FNHU 021800Z AUTO VRB02KT 9999 // FEW050 20/16 Q1020', 'FNHU 021400Z 01009KT 9999 BKN040 26/16 Q1019', 'FNHU 021300Z AUTO 01010KT 320V040 9999 // NCD 26/16 Q1020', 'FNHU 021100Z 02007KT 9999 BKN030 25/17 Q1022', 'FNHU 021000Z 36007KT 9999 FEW025 24/16 Q1023', 'FNHU 020900Z AUTO 05005KT 340V120 9999 // BKN019 22/17 Q1024', 'FNHU 020800Z 05004KT 9999 BKN008 21/18 Q1024', 'FNHU 020500Z AUTO VRB02KT 9999 // NCD 17/17 Q1023', 'FNHU 020400Z AUTO 15003KT 1600 // NCD 17/17 Q1023', 'FNHU 020300Z AUTO VRB02KT 1800 // BKN001 17/16 Q1023', 'FNHU 020200Z AUTO 00000KT 9999 // SCT002 BKN008 17/17 Q1023', 'FNHU 020100Z AUTO 36002KT 9999 // BKN010 17/17 Q1023', 'FNHU 020000Z AUTO 01004KT 330V030 9999 // OVC002 17/17 Q1024', 'FNHU 012300Z AUTO 03008KT 9999 // BKN001 17/17 Q1024', 'FNHU 012200Z AUTO VRB03KT 9999 // FEW039 18/17 Q1025', 'FNHU 012100Z AUTO 01004KT 9999 // SCT050 18/17 Q1025', 'FNHU 012000Z AUTO VRB02KT 9999 // BKN016 BKN026 OVC031 18/17 Q1024', 'FNHU 011900Z AUTO 34008KT 9999 // SCT024 BKN049 BKN070 20/16 Q1023', 'FNHU 011800Z AUTO VRB03KT 9999 // SCT044 BKN080 21/17 Q1023', 'FNHU 011700Z AUTO 03003KT 360V070 9999 // FEW080 23/16 Q1021', 'FNHU 011600Z AUTO 02005KT 350V070 9999 // NCD 24/16 Q1020', 'FNHU 011400Z 01008KT 9999 24/16 Q1021', 'FNHU 011300Z 01008KT 9999 SCT034 BKN048 BKN075 24/16 Q1022', 'FNHU 011200Z 03007KT 9999 BKN027 OVC032 24/17 Q1023', 'FNHU 011000Z 02011KT 9999 BKN018 OVC029 22/17 Q1025', 'FNHU 010900Z 01010KT 9999 SCT009 BKN014 OVC019 20/17 Q1025', 'FNHU 010800Z 02006KT 9999 FEW006 BKN060 20/17 Q1025', 'FNHU 010700Z 36006KT 9999 OVC002 18/17 Q1025', 'FNHU 010600Z AUTO 36008KT 9999 // FEW001 17/17 Q1024', 'FNHU 010500Z AUTO 01007KT 9999 // NCD 17/16 Q1023', 'FNHU 010400Z AUTO 03006KT 9999 // NCD 17/17 Q1023', 'FNHU 010300Z AUTO 02006KT 9999 // NCD 17/17 Q1022', 'FNHU 010200Z AUTO 36007KT 9999 // FEW065 18/17 Q1023', 'FNHU 010100Z AUTO 01011KT 9999 // NCD 18/17 Q1023', 'FNHU 010000Z AUTO 02007KT 9999 // NCD 18/17 Q1023', 'FNHU 312300Z AUTO 01006KT 9999 // NCD 18/17 Q1024']","['2024-02-03 21:00:00', '2024-02-03 20:00:00', '2024-02-03 19:00:00', '2024-02-03 17:00:00', '2024-02-03 14:00:00', '2024-02-03 12:00:00', '2024-02-03 11:00:00', '2024-02-03 10:00:00', '2024-02-03 09:00:00', '2024-02-03 08:00:00', '2024-02-03 07:00:00', '2024-02-03 06:00:00', '2024-02-03 03:00:00', '2024-02-03 01:00:00', '2024-02-03 00:00:00', '2024-02-02 21:00:00', '2024-02-02 18:00:00', '2024-02-02 14:00:00', '2024-02-02 13:00:00', '2024-02-02 11:00:00', '2024-02-02 10:00:00', '2024-02-02 09:00:00', '2024-02-02 08:00:00', '2024-02-02 05:00:00', '2024-02-02 04:00:00', '2024-02-02 03:00:00', '2024-02-02 02:00:00', '2024-02-02 01:00:00', '2024-02-02 00:00:00', '2024-02-01 23:00:00', '2024-02-01 22:00:00', '2024-02-01 21:00:00', '2024-02-01 20:00:00', '2024-02-01 19:00:00', '2024-02-01 18:00:00', '2024-02-01 17:00:00', '2024-02-01 16:00:00', '2024-02-01 14:00:00', '2024-02-01 13:00:00', '2024-02-01 12:00:00', '2024-02-01 10:00:00', '2024-02-01 09:00:00', '2024-02-01 08:00:00', '2024-02-01 07:00:00', '2024-02-01 06:00:00', '2024-02-01 05:00:00', '2024-02-01 04:00:00', '2024-02-01 03:00:00', '2024-02-01 02:00:00', '2024-02-01 01:00:00', '2024-02-01 00:00:00', '2024-01-31 23:00:00']"
Angola, Kuito Airport (SVP/FNKU) ,['FNKU 021200Z 01005KT 9999 BKN032 26/14 Q1020'],['2024-02-02 12:00:00']
Angola, Luanda Quatro de Fevereiro Airport (LAD/FNLU) ,"['FNLU 032200Z 22006KT 9999 FEW022 27/25 Q1012 NOSIG', 'FNLU 032100Z 21005KT CAVOK 28/24 Q1011 NOSIG', 'FNLU 032000Z 23009KT 9999 FEW022 28/24 Q1009 NOSIG', 'FNLU 031900Z 23009KT CAVOK 28/24 Q1009 NOSIG', 'FNLU 031800Z 24009KT 9999 FEW022 27/24 Q1008 NOSIG', 'FNLU 031700Z 26010KT 9999 FEW022 29/24 Q1007 NOSIG', 'FNLU 031600Z 26011KT 9999 FEW022 FEW024CB 30/24 Q1006', 'FNLU 031500Z 27012KT 9999 SCT022 31/24 Q1007 NOSIG', 'FNLU 031400Z 28010KT 9999 FEW022 SCT080 32/23 Q1007 NOSIG', 'FNLU 031300Z 31009KT 280V340 9999 SCT022 SCT080 32/23 Q1008 NOSIG', 'FNLU 031200Z 30007KT 250V350 9999 BKN022 32/24 Q1009 NOSIG', 'FNLU 031100Z 26005KT 9999 SCT020 SCT021 BKN060 32/24 Q1010', 'FNLU 031000Z 11005KT 9999 SCT020 FEW022 BKN060 32/23 Q1011', 'FNLU 030900Z 10006KT 050V180 9999 SCT019 FEW020 BKN060 31/23 Q1011', 'FNLU 030800Z 11006KT 050V140 9999 SCT020 BKN060 29/24 Q1012', 'FNLU 030700Z 11007KT 9999 SCT020 BKN060 27/// Q1011', 'FNLU 030600Z 11004KT 070V130 9999 SCT020 BKN060 26/24 Q1010 NOSIG', 'FNLU 030500Z 11004KT 9000 BKN022 26/24 Q1010 NOSIG', 'FNLU 030400Z VRB03KT 9999 BKN022 26/24 Q1010 NOSIG', 'FNLU 030300Z VRB03KT 9999 BKN022 26/24 Q1010 NOSIG', 'FNLU 030200Z VRB03KT 9999 BKN022 26/25 Q1010 NOSIG', 'FNLU 030100Z VRB03KT 9999 BKN022 26/24 Q1010 NOSIG', 'FNLU 030000Z VRB03KT 9999 BKN020 26/24 Q1010 NOSIG', 'FNLU 022300Z 25004KT 9999 SCT020 27/24 Q1011 NOSIG', 'FNLU 022100Z 26004KT 9999 SCT020 27/24 Q1012 NOSIG', 'FNLU 021900Z 24005KT 9999 FEW020 27/24 Q1009 NOSIG', 'FNLU 021800Z 25007KT 9999 FEW020 FEW025CB 28/24 Q//1008 NOSIG', 'FNLU 021300Z 31009KT 9999 FEW022 FEW024CB ///// Q1010 NOSIG', 'FNLU 021200Z 30007KT 9999 FEW022 FEW024CB SCT080 32/// Q1011 NOSIG', 'FNLU 021100Z 28006KT 240V330 9999 SCT022 SCT080 31/24 Q1012 NOSIG', 'FNLU 021000Z 29005KT 230V330 9999 FEW022 SCT080 31/24 Q1012 NOSIG', 'FNLU 020900Z VRB03KT 9999 FEW020 BKN080 30/21 Q1013 NOSIG', 'FNLU 020800Z 14004KT 110V190 9999 FEW020 BKN080 29/23 Q1013 NOSIG', 'FNLU 020700Z 10006KT 9999 FEW020 BKN080 27/24 Q1012 NOSIG', 'FNLU 020600Z 10002KT 9000 FEW019 FEW022TCU BKN080 25/23 Q1012 NOSIG', 'FNLU 020500Z VRB02KT 8000 FEW020 SCT080 24/23 Q1012', 'FNLU 020400Z VRB03KT 8000 FEW020 SCT070 24/23 Q1012', 'FNLU 020300Z VRB03KT 8000 FEW020 BKN070 25/24 Q1011', 'FNLU 020200Z VRB02KT 8000 FEW020 BKN070 25/24 Q1012', 'FNLU 020100Z VRB02KT 8000 FEW020 BKN070 25/24 Q1012 NOSIG', 'FNLU 020000Z 11005KT 090V150 9999 SCT020 SCT070 26/24 Q1013 NOSIG', 'FNLU 012300Z VRB02KT 9999 FEW022 SCT070 25/24 Q1013 NOSIG', 'FNLU 012200Z VRB03KT 9999 FEW022 25/24 Q1013 NOSIG', 'FNLU 012100Z 11004KT 9999 FEW022 26/24 Q1013 NOSIG', 'FNLU 012000Z 15004KT 120V180 9999 FEW020 25/24 Q1012 NOSIG', 'FNLU 011900Z VRB02KT 9999 FEW020 26/24 Q1012 NOSIG', 'FNLU 011800Z VRB02KT 9999 FEW020 SCT060 26/24 Q1011 NOSIG', 'FNLU 011700Z 28004KT 9999 FEW020 BKN060 27/// Q1011 NOSIG', 'FNLU 011600Z 28005KT 260V360 9999 FEW020 BKN060 28/24 Q1011 NOSIG', 'FNLU 011500Z 34007KT 340V010 9999 BKN022 28/24 Q1011 NOSIG', 'FNLU 011400Z 35010KT 9999 SCT020 BKN060 26/23 Q1012 NOSIG', 'FNLU 011300Z 35007KT 9999 SCT020 BKN060 26/25 Q1012 NOSIG', 'FNLU 011200Z AUTO 33009KT //// // BKN008 BKN026 OVC032 26/24 Q1014', 'FNLU 011100Z 35010KT 9999 SCT020 BKN070 26/24 Q1014 NOSIG', 'FNLU 011000Z 33006KT 8000 -RA SCT020 OVC060 25/24 Q1015 TEMPO -RA', 'FNLU 010900Z 34008KT 8000 RA SCT020 BKN070 25/24 Q1015 TEMPO -RA', 'FNLU 010800Z 01006KT 9999 RA SCT018 BKN070 25/// Q1015 TEMPO -RA', 'FNLU 010700Z VRB04KT 240V340 7000 RA SCT020 BKN060 25/// Q1014 TEMPO -RA', 'FNLU 010600Z VRB03KT 7000 SCT015 BKN020 BKN060 24/// Q1013 NOSIG', 'FNLU 010500Z 15004KT 080V220 5000 -RA FEW012 OVC020 23/// Q1013', 'FNLU 010402Z 21015KT 4000 -SHRA SCT010 BKN016 OVC060 25/// Q1013', 'FNLU 010300Z VRB03KT 060V120 7000 FEW020 BKN070 26/// Q1012', 'FNLU 010200Z VRB02KT 7000 FEW020 BKN070 25/// Q1012', 'FNLU 010100Z VRB02KT 7000 FEW020 BKN070 26/// Q1012', 'FNLU 010000Z 03005KT 7000 FEW016 SCT020 BKN070 26/// Q1013', 'FNLU 312300Z 03007KT 7000 SCT016 BKN020 BKN070 26/// Q1013']","['2024-02-03 22:00:00', '2024-02-03 21:00:00', '2024-02-03 20:00:00', '2024-02-03 19:00:00', '2024-02-03 18:00:00', '2024-02-03 17:00:00', '2024-02-03 16:00:00', '2024-02-03 15:00:00', '2024-02-03 14:00:00', '2024-02-03 13:00:00', '2024-02-03 12:00:00', '2024-02-03 11:00:00', '2024-02-03 10:00:00', '2024-02-03 09:00:00', '2024-02-03 08:00:00', '2024-02-03 07:00:00', '2024-02-03 06:00:00', '2024-02-03 05:00:00', '2024-02-03 04:00:00', '2024-02-03 03:00:00', '2024-02-03 02:00:00', '2024-02-03 01:00:00', '2024-02-03 00:00:00', '2024-02-02 23:00:00', '2024-02-02 21:00:00', '2024-02-02 19:00:00', '2024-02-02 18:00:00', '2024-02-02 13:00:00', '2024-02-02 12:00:00', '2024-02-02 11:00:00', '2024-02-02 10:00:00', '2024-02-02 09:00:00', '2024-02-02 08:00:00', '2024-02-02 07:00:00', '2024-02-02 06:00:00', '2024-02-02 05:00:00', '2024-02-02 04:00:00', '2024-02-02 03:00:00', '2024-02-02 02:00:00', '2024-02-02 01:00:00', '2024-02-02 00:00:00', '2024-02-01 23:00:00', '2024-02-01 22:00:00', '2024-02-01 21:00:00', '2024-02-01 20:00:00', '2024-02-01 19:00:00', '2024-02-01 18:00:00', '2024-02-01 17:00:00', '2024-02-01 16:00:00', '2024-02-01 15:00:00', '2024-02-01 14:00:00', '2024-02-01 13:00:00', '2024-02-01 12:00:00', '2024-02-01 11:00:00', '2024-02-01 10:00:00', '2024-02-01 09:00:00', '2024-02-01 08:00:00', '2024-02-01 07:00:00', '2024-02-01 06:00:00', '2024-02-01 05:00:00', '2024-02-01 04:02:00', '2024-02-01 03:00:00', '2024-02-01 02:00:00', '2024-02-01 01:00:00', '2024-02-01 00:00:00', '2024-01-31 23:00:00']"
Angola, Lubango Airport (SDD/FNUB) ,"['FNUB 032100Z AUTO VRB03KT //// // SCT008 BKN019 BKN025 18/18 Q1025', 'FNUB 032000Z AUTO 00000KT //// // NCD 18/17 Q1024', 'FNUB 031900Z AUTO VRB02KT //// // NCD 18/18 Q1023', 'FNUB 031700Z AUTO 34006KT 310V020 //// // FEW013 BKN049 20/18 Q1021', 'FNUB 031400Z AUTO 35009KT 290V030 //// // SCT027 BKN041 OVC048 24/17 Q1021', 'FNUB 031200Z AUTO 35010KT 310V040 //// // SCT017 24/17 Q1023', 'FNUB 031100Z AUTO 01010KT 320V060 //// // SCT016 BKN022 23/18 Q1023', 'FNUB 031000Z AUTO 01009KT 320V060 //// // SCT013 22/17 Q1024', 'FNUB 030900Z AUTO 36007KT 300V040 //// // SCT008 BKN012 OVC023 20/18 Q1024', 'FNUB 030800Z AUTO 36008KT 310V050 //// // BKN007 BKN012 OVC022 20/17 Q1024', 'FNUB 030700Z AUTO 36007KT 330V030 //// // BKN001 OVC008 18/17 Q1024', 'FNUB 030600Z AUTO 01006KT 340V050 //// // OVC001 17/17 Q1023', 'FNUB 030300Z AUTO 36005KT 320V030 //// // SCT002 OVC006 18/17 Q1022', 'FNUB 030100Z AUTO 00000KT //// // OVC002 18/17 Q1022', 'FNUB 030000Z AUTO 00000KT //// // FEW004 18/17 Q1023', 'FNUB 022100Z AUTO 00000KT //// // BKN019 18/17 Q1024', 'FNUB 021800Z AUTO 16007KT 130V200 //// // BKN027 OVC040 19/17 Q1022', 'FNUB 021300Z AUTO 35007KT 290V050 //// // FEW032 25/16 Q1022', 'FNUB 021100Z 01009KT 320V050 9999 SCT020 FEW030CB 25/16 Q1024', 'FNUB 021000Z 01005KT 290V080 9999 FEW020 BKN090 24/16 Q1024', 'FNUB 020900Z 36004KT 9999 FEW017 BKN090 23/17 Q1025', 'FNUB 020500Z AUTO VRB01KT //// // NCD 16/16 Q1024', 'FNUB 020400Z AUTO VRB02KT //// // NCD 16/16 Q1024', 'FNUB 020300Z AUTO 01006KT 340V040 //// // OVC001 17/16 Q1024', 'FNUB 020200Z AUTO 36003KT //// // OVC001 16/16 Q1024', 'FNUB 020100Z AUTO 36005KT 320V030 //// // BKN001 17/16 Q1025', 'FNUB 020000Z AUTO 05003KT //// // SCT100 17/16 Q1025', 'FNUB 012300Z AUTO 21003KT //// // NCD 18/17 Q1026', 'FNUB 012200Z AUTO 18003KT //// // NCD 18/17 Q1027', 'FNUB 012100Z AUTO 22004KT 180V250 //// // NCD 18/17 Q1026', 'FNUB 012000Z AUTO 19005KT //// // SCT037 18/17 Q1026', 'FNUB 011900Z AUTO 13004KT //// // NCD 18/18 Q1026', 'FNUB 011800Z AUTO 13003KT //// // NCD 19/18 Q1025', 'FNUB 011700Z AUTO VRB02KT //// // NCD 18/17 Q1024', 'FNUB 011600Z AUTO VRB02KT //// // NCD 18/17 Q1023', 'FNUB 011300Z AUTO 01012KT 320V050 //// // BKN039 BKN055 BKN080 25/16 Q1023', 'FNUB 011000Z 09008KT 050V140 9/9 SCT025 25/16 Q1026', 'FNUB 010600Z 22004KT 190V270 9999 FEW025 BKN080 19/15 Q1026', 'FNUB 010500Z AUTO 19005KT //// // NCD 17/15 Q1025', 'FNUB 010400Z AUTO 20006KT //// // FEW095 17/15 Q1024', 'FNUB 010300Z AUTO 20007KT 160V230 //// // BKN001 18/17 Q1024', 'FNUB 010200Z AUTO VRB03KT //// // BKN050 BKN080 OVC090 19/17 Q1024', 'FNUB 010100Z AUTO VRB02KT //// // FEW042 18/16 Q1025', 'FNUB 010000Z AUTO VRB02KT //// // SCT043 BKN080 18/16 Q1025', 'FNUB 312300Z AUTO 21004KT //// // NCD 18/16 Q1026']","['2024-02-03 21:00:00', '2024-02-03 20:00:00', '2024-02-03 19:00:00', '2024-02-03 17:00:00', '2024-02-03 14:00:00', '2024-02-03 12:00:00', '2024-02-03 11:00:00', '2024-02-03 10:00:00', '2024-02-03 09:00:00', '2024-02-03 08:00:00', '2024-02-03 07:00:00', '2024-02-03 06:00:00', '2024-02-03 03:00:00', '2024-02-03 01:00:00', '2024-02-03 00:00:00', '2024-02-02 21:00:00', '2024-02-02 18:00:00', '2024-02-02 13:00:00', '2024-02-02 11:00:00', '2024-02-02 10:00:00', '2024-02-02 09:00:00', '2024-02-02 05:00:00', '2024-02-02 04:00:00', '2024-02-02 03:00:00', '2024-02-02 02:00:00', '2024-02-02 01:00:00', '2024-02-02 00:00:00', '2024-02-01 23:00:00', '2024-02-01 22:00:00', '2024-02-01 21:00:00', '2024-02-01 20:00:00', '2024-02-01 19:00:00', '2024-02-01 18:00:00', '2024-02-01 17:00:00', '2024-02-01 16:00:00', '2024-02-01 13:00:00', '2024-02-01 10:00:00', '2024-02-01 06:00:00', '2024-02-01 05:00:00', '2024-02-01 04:00:00', '2024-02-01 03:00:00', '2024-02-01 02:00:00', '2024-02-01 01:00:00', '2024-02-01 00:00:00', '2024-01-31 23:00:00']"
Angola, Luena Airport (LUO/FNUE) ,"['FNUE 032100Z AUTO 21002KT 9999 ////// 21/19 Q1021', 'FNUE 032000Z AUTO 15003KT 9999 ////// 22/19 Q1021', 'FNUE 031900Z AUTO 14004KT 9999 ////// 22/18 Q1020', 'FNUE 031700Z AUTO 27004KT 160V310 9999 ////// 25/19 Q1018', 'FNUE 031400Z AUTO 26005KT 220V330 9999 ////// 28/19 Q1017', 'FNUE 031200Z AUTO 28008KT 220V310 9999 ////// 26/19 Q1020', 'FNUE 031100Z AUTO 26007KT 210V320 9999 ////// 24/19 Q1021', 'FNUE 031000Z AUTO 29008KT 240V330 9999 BKN011 BKN017 OVC070 22/18 Q1022', 'FNUE 030900Z 29006KT 250V310 9999 SCT012 BKN035 20/18 Q1023', 'FNUE 030800Z 28006KT 250V320 9999 SCT012 BKN024 20/18 Q1023', 'FNUE 030700Z AUTO 20004KT 160V240 5000 -RA BKN035 BKN045 19/18 Q1023', 'FNUE 030600Z 28006KT 260V320 9999 SCT018 BKN028 18/17 Q1022', 'FNUE 030300Z AUTO VRB02KT 9999 ////// 18/18 Q1020', 'FNUE 030100Z AUTO VRB03KT 9999 ////// 18/18 Q1020', 'FNUE 030000Z AUTO 33003KT 9999 ////// 18/18 Q1021', 'FNUE 022100Z AUTO VRB01KT 9999 -RA ////// 19/19 Q1022', 'FNUE 021800Z AUTO 24005KT 210V290 9999 ////// 19/17 Q1021', 'FNUE 021300Z AUTO 12006KT 090V150 9999 BKN026 BKN043 25/19 Q1020', 'FNUE 021100Z 13004KT 100V170 9999 DZ SCT012 FEW023TCU 22/20 Q1023']","['2024-02-03 21:00:00', '2024-02-03 20:00:00', '2024-02-03 19:00:00', '2024-02-03 17:00:00', '2024-02-03 14:00:00', '2024-02-03 12:00:00', '2024-02-03 11:00:00', '2024-02-03 10:00:00', '2024-02-03 09:00:00', '2024-02-03 08:00:00', '2024-02-03 07:00:00', '2024-02-03 06:00:00', '2024-02-03 03:00:00', '2024-02-03 01:00:00', '2024-02-03 00:00:00', '2024-02-02 21:00:00', '2024-02-02 18:00:00', '2024-02-02 13:00:00', '2024-02-02 11:00:00']"
Angola, Namibe Welwitschia Mirabilis Airport (MSZ/FNMO) ,['FNMO 021200Z 27010KT 9999 SCT025CB BKN030 29/25 Q1011'],['2024-02-02 12:00:00']
Angola, Ondjiva Pereira Airport (VPE/FNGI) ,"['FNGI 032100Z AUTO VRB02KT CAVOK 22/21 Q1018', 'FNGI 032000Z AUTO VRB02KT CAVOK 22/21 Q1018', 'FNGI 031900Z AUTO VRB02KT CAVOK 22/21 Q1018', 'FNGI 031700Z AUTO /////KT //// ////// ///// Q////', 'FNGI 031400Z AUTO 10009G24KT 050V170 3100 +RA BKN007 BKN017 OVC043 21/19 Q1017', 'FNGI 031200Z 30004KT 240V350 9999 FEW009 BKN020 29/19 Q1016', 'FNGI 031100Z VRB02KT 9999 FEW010 BKN020 29/20 Q1017', 'FNGI 031000Z AUTO VRB03KT CAVOK 27/19 Q1018', 'FNGI 030900Z 14006KT 070V190 9999 FEW010 SCT020 26/20 Q1019', 'FNGI 030800Z VRB03KT 9999 FEW009 SCT020 25/19 Q1019', 'FNGI 030700Z AUTO VRB01KT 9999 SCT004 23/20 Q1018', 'FNGI 030600Z AUTO 23005KT 200V260 9999 OVC003 21/20 Q1017', 'FNGI 030300Z AUTO 26005KT 230V290 9999 OVC048 20/19 Q1017', 'FNGI 030100Z AUTO 27008KT 240V300 9999 FEW005 SCT013 OVC021 21/19 Q1018', 'FNGI 030000Z AUTO 01006KT 330V040 9999 FEW021 SCT042 BKN050 22/20 Q1017', 'FNGI 022100Z AUTO 26007KT 9999 FEW065 25/19 Q1018', 'FNGI 021800Z AUTO 02002KT CAVOK 29/19 Q1015', 'FNGI 021300Z AUTO 06006KT 010V120 CAVOK 30/18 Q1016', 'FNGI 021100Z AUTO VRB04KT 9999 BKN033 BKN038 28/19 Q1018', 'FNGI 021000Z VRB03KT 9999 FEW010 BKN020 27/19 Q1020', 'FNGI 020900Z VRB02KT 9999 SCT009 BKN020 26/21 Q1021', 'FNGI 020500Z AUTO 00000KT CAVOK 22/21 Q1020', 'FNGI 020400Z AUTO VRB02KT 9999 FEW033 21/20 Q1019', 'FNGI 020300Z AUTO VRB02KT CAVOK 22/21 Q1019', 'FNGI 020200Z AUTO VRB01KT CAVOK 22/21 Q1019', 'FNGI 020100Z AUTO 28004KT CAVOK 23/21 Q1019', 'FNGI 020000Z AUTO VRB02KT CAVOK 23/21 Q1019', 'FNGI 012300Z AUTO VRB02KT CAVOK 23/21 Q1020', 'FNGI 012200Z AUTO 13004KT CAVOK 23/21 Q1020', 'FNGI 012100Z AUTO 00000KT CAVOK 23/20 Q1020', 'FNGI 012000Z AUTO 05002KT CAVOK 24/21 Q1020', 'FNGI 011900Z AUTO 06003KT CAVOK 24/21 Q1019', 'FNGI 011800Z AUTO 08003KT CAVOK 25/20 Q1019', 'FNGI 011700Z AUTO VRB02KT CAVOK 27/19 Q1018', 'FNGI 011600Z AUTO VRB01KT CAVOK 27/19 Q1018', 'FNGI 011300Z AUTO 07004KT 010V150 CAVOK 26/18 Q1019', 'FNGI 011000Z 03007KT 9999 SCT008 BKN080 23/20 Q1022', 'FNGI 010600Z AUTO VRB03KT CAVOK 22/20 Q1020', 'FNGI 010500Z AUTO VRB03KT 9999 FEW005 21/20 Q1019', 'FNGI 010400Z AUTO 03005KT 360V070 CAVOK 21/20 Q1019', 'FNGI 010300Z AUTO 07004KT 040V120 9999 -RA NCD 21/19 Q1019', 'FNGI 010200Z AUTO 12007KT 9999 FEW050 21/19 Q1019', 'FNGI 010100Z AUTO 20006KT 160V240 9999 FEW038 BKN049 OVC060 25/18 Q1019', 'FNGI 010000Z AUTO 28004KT 260V320 CAVOK 24/18 Q1019', 'FNGI 312300Z AUTO 30007KT 270V330 CAVOK 24/18 Q1020']","['2024-02-03 21:00:00', '2024-02-03 20:00:00', '2024-02-03 19:00:00', '2024-02-03 17:00:00', '2024-02-03 14:00:00', '2024-02-03 12:00:00', '2024-02-03 11:00:00', '2024-02-03 10:00:00', '2024-02-03 09:00:00', '2024-02-03 08:00:00', '2024-02-03 07:00:00', '2024-02-03 06:00:00', '2024-02-03 03:00:00', '2024-02-03 01:00:00', '2024-02-03 00:00:00', '2024-02-02 21:00:00', '2024-02-02 18:00:00', '2024-02-02 13:00:00', '2024-02-02 11:00:00', '2024-02-02 10:00:00', '2024-02-02 09:00:00', '2024-02-02 05:00:00', '2024-02-02 04:00:00', '2024-02-02 03:00:00', '2024-02-02 02:00:00', '2024-02-02 01:00:00', '2024-02-02 00:00:00', '2024-02-01 23:00:00', '2024-02-01 22:00:00', '2024-02-01 21:00:00', '2024-02-01 20:00:00', '2024-02-01 19:00:00', '2024-02-01 18:00:00', '2024-02-01 17:00:00', '2024-02-01 16:00:00', '2024-02-01 13:00:00', '2024-02-01 10:00:00', '2024-02-01 06:00:00', '2024-02-01 05:00:00', '2024-02-01 04:00:00', '2024-02-01 03:00:00', '2024-02-01 02:00:00', '2024-02-01 01:00:00', '2024-02-01 00:00:00', '2024-01-31 23:00:00']"
Angola, Saurimo Airport (VHC/FNSA) ,"['FNSA 021100Z 09007KT 9999 SCT030 BKN080 26/21 Q1018', 'FNSA 021000Z 13007KT 9999 SCT030 BKN080 26/21 Q1018']","['2024-02-02 11:00:00', '2024-02-02 09:58:00']"
Anguilla, The Valley Clayton J. Lloyd International Airport (AXA/TQPF) ,"['TQPF 032200Z 13003KT 9999 FEW022 26/21 Q1011', 'TQPF 032100Z 15005KT 9999 FEW020 27/21 Q1011', 'TQPF 032000Z 34006KT 9999 FEW021 27/21 Q1011', 'TQPF 031900Z 31005KT 9999 FEW022 28/21 Q1011', 'TQPF 031800Z 15007KT 9999 FEW022 27/20 Q1011', 'TQPF 031700Z 16005KT 9999 SCT022 27/20 Q1012', 'TQPF 031600Z 32004KT 9999 FEW022 28/20 Q1013', 'TQPF 031500Z 17008KT 9999 FEW020 SCT036 27/20 Q1013', 'TQPF 031400Z 15006KT 9999 FEW021 SCT038 27/20 Q1014', 'TQPF 031300Z VRB02KT 9999 FEW023 SCT035 25/21 Q1013', 'TQPF 031200Z 00000KT 9999 BKN032 24/22 Q1013', 'TQPF 031100Z 00000KT 9999 FEW034 21/19 Q1012', 'TQPF 022300Z 00000KT 9999 FEW020 24/20 Q1012', 'TQPF 022200Z 35006KT 9999 FEW019 25/20 Q1012', 'TQPF 022100Z 02006KT 9999 FEW019 SCT037 26/21 Q1011', 'TQPF 022000Z 35009KT 9999 FEW017 BKN037 26/21 Q1012', 'TQPF 021900Z 35003KT 9999 FEW018 BKN037 26/21 Q1012', 'TQPF 021800Z 35008KT 9999 FEW018 BKN039 26/21 Q1012', 'TQPF 021700Z 35008KT 9999 FEW016 BKN040 26/22 Q1013', 'TQPF 021600Z 02008KT 9999 FEW018 SCT038 26/23 Q1013', 'TQPF 021500Z 02011KT 9999 FEW017 SCT038 25/24 Q1014', 'TQPF 021400Z 02010KT 9999 SCT016 SCT036 25/24 Q1014', 'TQPF 021300Z 36006KT 9999 FEW017 BKN035 23/23 Q1014', 'TQPF 021200Z 25004KT 9999 -SHRA SCT015 BKN035 24/23 Q1013', 'TQPF 021100Z 33004KT 9999 SCT016 BKN035 24/23 Q1013', 'TQPF 012300Z 27004KT 9999 FEW018 26/23 Q1012', 'TQPF 012200Z 26007KT 9999 FEW017 27/23 Q1012', 'TQPF 012100Z 24008KT 9999 SCT018TCU 27/23 Q1012 RMK TCU-NE', 'TQPF 012000Z 25007KT 9999 FEW018 28/23 Q1011', 'TQPF 011900Z 24008KT 9999 FEW019 29/23 Q1012', 'TQPF 011800Z 28010KT 9999 SCT019 28/22 Q1012', 'TQPF 011700Z 28004KT 9999 FEW018 28/23 Q1013', 'TQPF 011600Z 21008KT 9999 FEW018 28/23 Q1014', 'TQPF 011500Z 20008KT 9999 FC FEW018 28/24 Q1015', 'TQPF 011400Z 18007KT 9999 FEW017 27/24 Q1015', 'TQPF 011300Z 19005KT 9999 FEW018 27/24 Q1015', 'TQPF 011200Z 19005KT 9999 FEW018 26/24 Q1013', 'TQPF 011100Z 12004KT 9999 SCT018 24/22 Q1014', 'TQPF 312300Z 07003KT 9999 FEW019 26/22 Q1014']","['2024-02-03 22:00:00', '2024-02-03 21:00:00', '2024-02-03 20:00:00', '2024-02-03 19:00:00', '2024-02-03 18:00:00', '2024-02-03 17:00:00', '2024-02-03 16:00:00', '2024-02-03 15:00:00', '2024-02-03 14:00:00', '2024-02-03 13:00:00', '2024-02-03 12:00:00', '2024-02-03 11:00:00', '2024-02-02 23:00:00', '2024-02-02 22:00:00', '2024-02-02 21:00:00', '2024-02-02 20:00:00', '2024-02-02 19:00:00', '2024-02-02 18:00:00', '2024-02-02 17:00:00', '2024-02-02 16:00:00', '2024-02-02 15:00:00', '2024-02-02 14:00:00', '2024-02-02 13:00:00', '2024-02-02 12:00:00', '2024-02-02 11:00:00', '2024-02-01 23:00:00', '2024-02-01 22:00:00', '2024-02-01 21:00:00', '2024-02-01 20:00:00', '2024-02-01 19:00:00', '2024-02-01 18:00:00', '2024-02-01 17:00:00', '2024-02-01 16:00:00', '2024-02-01 15:00:00', '2024-02-01 14:00:00', '2024-02-01 13:00:00', '2024-02-01 12:00:00', '2024-02-01 11:00:00', '2024-01-31 23:00:00']"
Antarctica, King George Island Teniente R. Marsh Airport (TNM/SCRM) ,"['SCRM 032200Z 28016KT 9999 BKN009 M02/M03 Q0992 NOSIG', 'SCRM 032100Z 27017KT 9999 BKN008 M02/M03 Q0992 NOSIG', 'SCRM 032000Z 29018KT 9999 SCT007 BKN030 M01/M02 Q0992 NOSIG', 'SCRM 031900Z 28018KT 9999 SCT008 BKN200 M01/M03 Q0993 NOSIG', 'SCRM 031800Z 27016KT 9999 BKN008 M01/M02 Q0993 NOSIG', 'SCRM 031700Z 28018KT 9999 FEW006 BKN008 M01/M03 Q0993 NOSIG', 'SCRM 031600Z 27019KT 9999 BKN008 M02/M03 Q0993 NOSIG', 'SCRM 031500Z 27019KT 9999 SCT009 BKN015 M01/M03 Q0993 NOSIG', 'SCRM 031400Z 26017KT 9999 BKN020 M02/M04 Q0992 NOSIG', 'SCRM 031300Z 26019KT 9999 SCT025 SCT200 M02/M05 Q0992 NOSIG', 'SCRM 031200Z 25019KT 9999 FEW025 SCT200 M02/M05 Q0992 NOSIG', 'SCRM 031100Z 25023KT CAVOK M03/M05 Q0991 NOSIG', 'SCRM 031000Z 26024KT 9999 BKN020 M03/M06 Q0992 NOSIG', 'SCRM 030900Z 25022KT 9999 SCT020 M03/M05 Q0991 NOSIG', 'SCRM 030600Z 26023KT 9999 SCT014 BKN020 M03/M05 Q0990 NOSIG', 'SCRM 030300Z 26020KT 9999 SCT015 BKN040 M03/M05 Q0990 NOSIG', 'SCRM 030000Z 25024KT 9999 SCT011 BKN020 M02/M04 Q0988 NOSIG', 'SCRM 022300Z 25023KT 9999 SCT013 BKN020 M02/M04 Q0988 NOSIG', 'SCRM 022200Z 25021KT 9999 SCT011 BKN015 M02/M03 Q0987 NOSIG', 'SCRM 022100Z 26025KT 9999 SCT013 BKN018 M02/M03 Q0986 NOSIG', 'SCRM 022000Z 24023KT 9999 BKN013 M02/M03 Q0986 NOSIG', 'SCRM 021900Z 24021KT 9999 FEW004 BKN006 M02/M03 Q0984 NOSIG', 'SCRM 021700Z 17019KT 3000 SHRASN OVC004 M02/M03 Q0982 NOSIG', 'SCRM 021600Z 13015KT 3000 -SHRASN OVC002 M02/M02 Q0979 NOSIG', 'SCRM 021500Z 24004KT 1200 SHRA OVC002 M01/M01 Q0978 TEMPO 12015KT 3000 SHRASN', 'SCRM 021400Z 34008KT 0300 FZFG VV002 M01/M01 Q0977 NOSIG', 'SCRM 021300Z 35010KT 1200 BR OVC002 M01/M01 Q0977 TEMPO VRB02KT 0300 FZFG', 'SCRM 021200Z 36010KT 2000 -FZDZ OVC002 M01/M01 Q0977 NOSIG', 'SCRM 020900Z 01015KT 8000 -SHRA OVC004 M00/M01 Q0977 NOSIG', 'SCRM 020600Z 03025KT 1200 -SHRA OVC003 M01/M02 Q0982 NOSIG', 'SCRM 020300Z 03024KT 8000 VCFG OVC007 M01/M02 Q0982 NOSIG', 'SCRM 020000Z 02020KT 9999 -SHRA OVC004 M01/M02 Q0988 BECMG 1200 SHRASN OVC002', 'SCRM 012300Z 02018KT 9999 BKN008 OVC063 M01/M02 Q0989 BECMG 1200 SHRASN OVC002', 'SCRM 012200Z 03013KT 8000 VCFG SCT003 BKN050 M01/M01 Q0991 BECMG 1200 SHRASN', 'SCRM 012000Z 01016KT 8000 VCFG OVC003 M01/M01 Q0993 BECMG 1200 SHRASN', 'SCRM 011900Z 36012KT 8000 VCFG BKN004 OVC015 M01/M02 Q0994 BECMG 1200 SHRASN OVC002', 'SCRM 011800Z 34011KT 8000 VCFG BKN003 M01/M02 Q0994 NOSIG', 'SCRM 011700Z 33014KT 8000 VCFG FEW003 BKN035 M01/M02 Q0995 NOSIG', 'SCRM 011600Z 33013KT 8000 VCFG SCT003 BKN200 M01/M01 Q0995 NOSIG', 'SCRM 011500Z 31011KT 8000 VCFG OVC004 M01/M02 Q0995 NOSIG', 'SCRM 011400Z 32012KT 8000 VCFG BKN004 M01/M02 Q0995 NOSIG', 'SCRM 011300Z 31011KT 8000 VCFG FEW003 SCT200 M01/M02 Q0995 NOSIG', 'SCRM 011200Z 32009KT 8000 VCFG SCT003 M02/M02 Q0995 NOSIG', 'SCRM 011100Z 30010KT 9999 OVC007 M02/M03 Q0995 NOSIG', 'SCRM 011000Z 30010KT 8000 VCFG BKN010 M02/M03 Q0995 NOSIG', 'SCRM 010900Z 30010KT 8000 VCFG SCT015 BKN025 M03/M03 Q0994 NOSIG', 'SCRM 010600Z 31007KT 8000 VCFG OVC003 M03/M03 Q0994 NOSIG', 'SCRM 010300Z 27011KT 8000 VCFG OVC003 M03/M03 Q0992 NOSIG', 'SCRM 010000Z 15012KT 1200 SHSN OVC006 M03/M04 Q0989 NOSIG', 'SCRM 312300Z 14019KT 3000 -SHSN OVC004 M03/M04 Q0987 NOSIG']","['2024-02-03 22:00:00', '2024-02-03 21:00:00', '2024-02-03 20:00:00', '2024-02-03 19:00:00', '2024-02-03 18:00:00', '2024-02-03 17:00:00', '2024-02-03 16:00:00', '2024-02-03 15:00:00', '2024-02-03 14:00:00', '2024-02-03 13:00:00', '2024-02-03 12:00:00', '2024-02-03 11:00:00', '2024-02-03 10:00:00', '2024-02-03 09:00:00', '2024-02-03 06:00:00', '2024-02-03 03:00:00', '2024-02-03 00:00:00', '2024-02-02 23:00:00', '2024-02-02 22:00:00', '2024-02-02 21:00:00', '2024-02-02 20:00:00', '2024-02-02 19:00:00', '2024-02-02 17:00:00', '2024-02-02 16:00:00', '2024-02-02 15:00:00', '2024-02-02 14:00:00', '2024-02-02 13:00:00', '2024-02-02 12:00:00', '2024-02-02 09:00:00', '2024-02-02 06:00:00', '2024-02-02 03:00:00', '2024-02-02 00:00:00', '2024-02-01 23:00:00', '2024-02-01 22:00:00', '2024-02-01 20:00:00', '2024-02-01 19:00:00', '2024-02-01 18:00:00', '2024-02-01 17:00:00', '2024-02-01 16:00:00', '2024-02-01 15:00:00', '2024-02-01 14:00:00', '2024-02-01 13:00:00', '2024-02-01 12:00:00', '2024-02-01 11:00:00', '2024-02-01 10:00:00', '2024-02-01 09:00:00', '2024-02-01 06:00:00', '2024-02-01 03:00:00', '2024-02-01 00:00:00', '2024-01-31 23:00:00']"
Antarctica, McMurdo Phoenix Airfield (QAX/NZFX) ,"['NZFX 030255Z 06005KT 9999 FEW040 FEW090 M07/M10 A2935 RMK AO2A SLP935 LSR10 GRID23005KT SDG/HDG', 'NZFX 030155Z 03007KT 9999 FEW040 FEW090 M07/M10 A2934 RMK AO2A SLP930 LSR10 GRID20007KT SDG/HDG', 'NZFX 030055Z 02006KT 9999 FEW025 FEW047 SCT090 M08/M11 A2933 RMK AO2A SLP928 LSR10 SN DSNT GRID N GRID19006KT SDG/HDG', 'NZFX 030025Z 04006KT 9999 FEW020 FEW047 SCT090 SCT180 M08/M12 A2932 RMK AO2A SN DSNT GRID N GRID21006KT SDG/HDG', 'NZFX 022355Z 04005KT 9999 FEW020 SCT047 BKN090 BKN180 M08/M12 A2932 RMK AO2A SLP925 LSR10 SN DSNT GRID W-N GRID21005KT SDG/HDG', 'NZFX 022325Z VRB06KT 9999 FEW020 BKN090 BKN180 M08/M12 A2931 RMK AO2A SN DSNT GRID W-N SDG/HDG', 'NZFX 022255Z 05006KT 9999 FEW020 BKN090 BKN180 M09/M12 A2930 RMK AO2A SLP919 LSR10 SN DSNT GRID SW-NW GRID22006KT SDG/HDG', 'NZFX 022155Z 08004KT 9999 FEW030 SCT090 BKN180 M10/M13 A2930 RMK AO2A SLP917 LSR10 SN DSNT GRID SW-NW GRID25004KT SDG/HDG', 'NZFX 022055Z 09006KT 9999 FEW030 SCT090 BKN180 M12/M15 A2929 RMK AO2A SLP913 LSR10 SN DSNT GRID SW-NW GRID26006KT SDG/HDG', 'NZFX 021955Z 12004KT 9999 FEW030 FEW090 BKN180 M14/M17 A2927 RMK AO2A SLP906 LSR10 GRID29004KT SDG/HDG', 'NZFX 021855Z 05003KT 9999 FEW030 FEW090 SCT180 M15/M19 A2925 RMK AO2A SLP900 LSR10 GRID22003KT SDG/HDG', 'NZFX 021755Z 02006KT 9999 FEW030 BKN090 BKN180 M13/M15 A2923 RMK AO2A SLP894 LSR10 GRID19006KT SDG/HDG', 'NZFX 021655Z 03007KT 9999 FEW030 BKN100 BKN180 M14/M17 A2922 RMK AO2A SLP890 LSR10 GRID20007KT SDG/HDG', 'NZFX 021555Z 02008KT 9999 FEW030 BKN100 BKN180 M14/M16 A2921 RMK AO2A SLP887 LSR10 GRID19008KT SDG/HDG', 'NZFX 021455Z 04005KT 9999 FEW030 SCT100 M15/M17 A2921 RMK AO2A SLP895 LSR10 GRID21005KT SDG/HDG', 'NZFX 021355Z 03007KT 9999 FEW030 SCT100 M14/M17 A2920 RMK AO2A SLP885 LSR10 GRID20007KT SDG/HDG FIRST', 'NZFX 020610Z 04007KT 9999 FEW035 BKN080 BKN180 M09/M12 A2913 RMK AO2A GRID21007KT SDG/HDG LAST', 'NZFX 020555Z 04007KT 9999 FEW035 SCT080 SCT180 M08/M12 A2913 RMK AO2A SLP859 LSR10 GRID21007KT SDG/HDG', 'NZFX 020455Z 04006KT 9999 FEW035 SCT080 SCT180 M07/M10 A2913 RMK AO2A SLP858 LSR10 GRID21006KT SDG/HDG', 'NZFX 020355Z 03009KT 9999 FEW035 BKN080 BKN180 M06/M10 A2912 RMK AO2A SLP855 LSR10 GRID20009KT SDF/HDG', 'NZFX 020255Z 07004KT 9999 FEW025 SCT040 BKN090 BKN180 M06/M10 A2911 RMK AO2A SLP853 LSR10 GRID24004KT SDG/HDG', 'NZFX 020225Z 12004KT 9999 FEW020 FEW040 SCT090 BKN180 M07/M09 A2911 RMK AO2A GRID29004KT SDG/HDG', 'NZFX 020155Z 13008KT 9999 FEW020 SCT040 SCT100 BKN180 M07/M10 A2910 RMK AO2A SLP849 LSR10 GRID30008KT SDG/HDP', 'NZFX 020125Z 16007KT 9999 FEW015 FEW050 SCT100 BKN180 M05/M08 A2911 RMK AO2A GRID33007KT SDG/HDG', 'NZFX 020055Z 14005KT 9999 FEW020 FEW060 SCT100 BKN180 M07/M09 A2909 RMK AO2A SLP846 LSR10 SN DSNT GRID N GRID31005KT SDG/HDG', 'NZFX 012355Z 00000KT 9999 FEW020 SCT060 SCT100 BKN180 M08/M11 A2909 RMK AO2A SLP845 LSR09 SN DSNT GRID NW-N SDG/HDG', 'NZFX 012255Z 16006KT 9999 FEW020 SCT070 BKN180 M08/M12 A2908 RMK AO2A SLP842 LSR09 GRID33006KT SDG/HDG', 'NZFX 012155Z 06007KT 9999 FEW030 FEW070 BKN180 M08/M12 A2907 RMK AO2A SLP840 LSR09 GRID23007KT SDG/HDG', 'NZFX 012055Z 16005KT 9999 FEW010 FEW030 BKN180 M08/M11 A2906 RMK AO2A SLP835 LSR09 GRID33005KT SDG/HDG', 'NZFX 011955Z 16006KT 9999 FEW010 SCT030 BKN180 M07/M11 A2905 RMK AO2A SLP833 LSR09 GRID33006KT SDG/HDG', 'NZFX 011855Z 10004KT 9999 FEW010 SCT030 BKN180 M08/M11 A2905 RMK AO2A SLP833 LSR09 GRID27004KT SDG/HDG', 'NZFX 011755Z 05006KT 9999 -SN SCT030 BKN180 M09/M11 A2905 RMK AO2A SLP832 LSR09 GRID22006KT SDG/HDG', 'NZFX 011655Z 04004KT 9999 SCT030 BKN180 M08/M11 A2904 RMK AO2A SLP829 LSR09 GRID21004KT SDG/HDG', 'NZFX 011555Z 01007KT 9999 -SN BKN030 BKN180 M08/M10 A2904 RMK AO2A SLP829 RCRNR GRID18007KT SDF/HDG FIRST', 'NZFX 010530Z 18010KT 9999 FEW015 SCT040 BKN065 BKN100 M06/M10 A2908 RMK AO2A GRID35010KT SDP/HDG LAST', 'NZFX 010455Z 18026G30KT 6000 BLSN FEW015 SCT045 SCT065 BKN100 M06/M10 A2909 RMK AO2A PK WND GRID34031/0357 VIS GRID W-N 3200 SLP867 LSR09 GRID35026G30KT SDP/HDP', 'NZFX 010355Z 19017G31KT 6000 BLSN FEW015 SCT045 BKN065 BKN150 M06/M10 A2914 RMK AO2A PK WND GRID02033/22 SLP862 LSR09 GRID36017G31KT SDP/HDP', 'NZFX 010255Z 19020KT 4800 BLSN FEW020 SCT045 BKN065 BKN150 M06/M09 A2913 RMK AO2A PK WND GRID360/23 VIS GRID W-N 1600 SLP861 LSR09 GRID36020KT SDF/HDP', 'NZFX 010225Z 19028G33KT 4000 BLSN FEW025 SCT050 BKN070 BKN150 M05/M09 A2913 RMK AO2A PK WND GRID36033/20 VIS GRID NW-NE 1600 GRID36028G33KT SDF/HDP', 'NZFX 010155Z 20022G27KT 8000 BLSN FEW025 SCT040 BKN070 M06/M09 A2915 RMK AO2A VIS GRID NW-N 2800 PK WND GRID36027/48 SLP867 LSR09 GRID01022G27KT SDP/HDF HDP GRID NW-N', 'NZFX 010125Z 19016KT 9000 BLSN FEW025 BKN040 BKN070 M06/M10 A2916 RMK AO2A VIS GRID NW 3200 GRID36016KT SDP/HDG HDP GRID NW', 'NZFX 010055Z VRB04KT 9999 FEW025 BKN040 BKN070 M06/M11 A2916 RMK AO2A SLP871 LSR09 SN DSNT GRID NW-N SDP/HDG', 'NZFX 312355Z 36006KT 9999 FEW025 BKN045 BKN080 M04/M09 A2918 RMK AO2A SNE10 SLP879 LSR09 SN DSNT GRID N GRID17006KT SDP/HDG', 'NZFX 312310Z 12006G17KT 9999 FEW025 BKN040 M05/M11 A2917 RMK AO2A GRID29006G17KT SDP/HDG', 'NZFX 312255Z VRB05KT 9999 -SN FEW025 BKN040 M06/M10 A2919 RMK AO2A SLP880 LSR09 SDP/HDG']","['2024-02-03 02:55:00', '2024-02-03 01:55:00', '2024-02-03 00:55:00', '2024-02-03 00:25:00', '2024-02-02 23:55:00', '2024-02-02 23:25:00', '2024-02-02 22:55:00', '2024-02-02 21:55:00', '2024-02-02 20:55:00', '2024-02-02 19:55:00', '2024-02-02 18:55:00', '2024-02-02 17:55:00', '2024-02-02 16:55:00', '2024-02-02 15:55:00', '2024-02-02 14:55:00', '2024-02-02 13:55:00', '2024-02-02 06:10:00', '2024-02-02 05:55:00', '2024-02-02 04:55:00', '2024-02-02 03:55:00', '2024-02-02 02:55:00', '2024-02-02 02:25:00', '2024-02-02 01:55:00', '2024-02-02 01:25:00', '2024-02-02 00:55:00', '2024-02-01 23:55:00', '2024-02-01 22:55:00', '2024-02-01 21:55:00', '2024-02-01 20:55:00', '2024-02-01 19:55:00', '2024-02-01 18:55:00', '2024-02-01 17:55:00', '2024-02-01 16:55:00', '2024-02-01 15:55:00', '2024-02-01 05:30:00', '2024-02-01 04:55:00', '2024-02-01 03:55:00', '2024-02-01 02:55:00', '2024-02-01 02:25:00', '2024-02-01 01:55:00', '2024-02-01 01:25:00', '2024-02-01 00:55:00', '2024-01-31 23:55:00', '2024-01-31 23:10:00', '2024-01-31 22:55:00']"
Antarctica, McMurdo Williams Field (QAW/NZWD) ,"['NZWD 030510Z 00000KT 9999 SCT015 M05/M09 A2938 RMK AO2A SDG/HDG LAST', 'NZWD 030455Z 00000KT 9999 SCT015 M05/M09 A2938 RMK AO2A SLP948 SDG/HDG', 'NZWD 030355Z 00000KT 9999 FEW015 M05/M09 A2938 RMK AO2A SLP948 SDG/HDG', 'NZWD 030255Z 03003KT 9999 FEW015 FEW085 M05/M09 A2937 RMK AO2A SLP944 GRID20003KT SDG/HDG', 'NZWD 030155Z 02006KT 9999 FEW015 FEW035 SCT085 SCT180 M07/M10 A2935 RMK AO2A SLP937 GRID19006KT SDG/HDG', 'NZWD 030055Z 03004KT 9999 FEW015 FEW035 SCT085 SCT180 M07/M10 A2934 RMK AO2A SLP937 GRID20004KT SDG/HDG', 'NZWD 022355Z 03007KT 9999 FEW015 SCT035 SCT085 SCT180 M07/M11 A2933 RMK AO2A SLP935 SN DSNT GRID N GRID20007KT SDG/HDG', 'NZWD 022255Z 03007KT 9999 FEW015 SCT035 BKN085 M07/M11 A2932 RMK AO2A SLP931 GRID20007KT SDF/HDG', 'NZWD 022155Z 06004KT 9999 BKN046 BKN080 M09/M12 A2931 RMK AO2A SLP926 GRID23004KT SDG/HDG', 'NZWD 022055Z 11004KT 9999 FEW035 BKN060 BKN095 M09/M12 A2929 RMK AO2A SLP922 SN DSNT GRID NW-NE GRID28004KT SDG/HDG', 'NZWD 021955Z 01004KT 9999 SCT035 SCT090 SCT180 M12/M15 A2928 RMK AO2A SLP916 GRID18004KT SDG/HDG', 'NZWD 021855Z 35005KT 9999 FEW035 BKN090 BKN180 M13/M16 A2926 RMK AO2A SLP911 GRID16005KT SDF/HDG', 'NZWD 021755Z 03005KT 9999 FEW035 BKN090 BKN180 M12/M16 A2925 RMK AO2A SLP906 GRID20005KT SDF/HDG', 'NZWD 021655Z 01007KT 9999 FEW030 BKN090 BKN120 M13/M16 A2924 RMK AO2A SLP900 GRID18007KT SDF/HDF', 'NZWD 021555Z 01008KT 9999 FEW030 BKN100 M13/M17 A2923 RMK AO2A SLP897 GRID18008KT SDG/HDG', 'NZWD 021455Z 02009KT 9999 FEW030 BKN100 M15/M17 A2922 RMK AO2A SLP894 GRID19009KT SDG/HDG', 'NZWD 021355Z 36006KT 9999 FEW020 SCT030 BKN100 M15/M16 A2921 RMK AO2A SLP892 GRID17006KT SDG/HDG', 'NZWD 021255Z 01006KT 9999 SCT030 BKN120 M15/M18 A2921 RMK AO2A SLP890 GRID18006KT SDG/HDG', 'NZWD 021155Z 03007KT 9999 FEW035 BKN120 M14/M16 A2919 RMK AO2A SLP886 GRID20007KT SDG/HDG', 'NZWD 021055Z 03005KT 9999 FEW035 BKN110 M11/M15 A2918 RMK AO2A SLP981 GRID20005KT SDG/HDG', 'NZWD 020955Z 02006KT 9999 FEW035 BKN090 M10/M14 A2917 RMK AO2A SLP876 GRID19006KT SDG/HDG', 'NZWD 020855Z 04004KT 9999 FEW035 BKN090 M09/M13 A2916 RMK AO2A SLP874 GRID21004KT SDG/HDG', 'NZWD 020755Z 03005KT 9999 FEW035 BKN090 M08/M12 A2915 RMK AO2A SLP872 GRID20005KT SDG/HDG', 'NZWD 020655Z 36005KT 9999 FEW030 BKN080 BKN100 M08/M11 A2915 RMK AO2A SLP870 GRID17005KT SDG/HDG', 'NZWD 020555Z 02004KT 9999 FEW025 BKN090 M07/M10 A2914 RMK AO2A SLP868 GRID19004KT SDG/HDG', 'NZWD 020455Z 01003KT 9999 FEW025 BKN090 M06/M09 A2914 RMK AO2A SLP867 GRID18003KT SDG/HDG', 'NZWD 020355Z 01006KT 9999 BKN085 05/M08 A2913 RMK AO2A SLP865 GRID18006KT SDG/HDG', 'NZWD 020320Z 03006KT BKN085 M04/M08 A2913 RMK AO2A SLP863 GRID20006KT SDG/HDG FIRST', 'NZWD 010855Z 18019KT 9999 DRSN SCT050 OVC065 M06/M08 A2908 RMK AO2A SLP846 GRID35019KT SDP/HDF LAST', 'NZWD 010755Z 21010KT 9999 BLSN FEW008 SCT016 BKN035 M05/M08 A2911 RMK AO2A SLP856 GRID02010KT SDP/HDF', 'NZWD 010655Z 19026G29KT 9000 BLSN SCT035 OVC075 06/M08 A2909 RMK AO2A SLP851 GRID36026G29KT SDP/HDF', 'NZWD 010555Z 21020G25KT 9999 DRSN SCT035 OVC075 M05/M08 A2910 RMK AO2A SLP856 GRID02020G25KT SDP/HDF', 'NZWD 010455Z 19023G27KT 9000 BLSN SCT035 OVC080 M05/M08 A2911 RMK AO2A SLP856 GRID36023G27KT SDP/HDF', 'NZWD 010400Z 21020G32KT 9000 BLSN BKN050 OVC070 M05/M08 A2912 RMK AO2A GRID02020G32KT SDP/HDF', 'NZWD 010255Z 20020G25KT 9999 DRSN SCT050 BKN070 M05/M07 A2913 RMK AO2A SLP865 GRID01020G25KT SDP/HDF', 'NZWD 010155Z 20022KT 9999 DRSN SCT025 OVC060 M04/M07 A2915 RMK AO2A SLP871 GRID01022KT SDP/HDF', 'NZWD 010055Z 23018KT 9999 DRSN SCT025 OVC042 M04/M09 A2918 RMK AO2A SLP884 GRID04018KT SDP/HDF', 'NZWD 312355Z 34005KT 9999 FEW025 BKN049 M04/M09 A2918 RMK AO2A SLP892 SNE24 GRID15005KT SDF/HDG', 'NZWD 312324Z 14008KT 9999 FEW025 BKN046 M04/M10 A2918 RMK AO2A GRID31008KT SDP/HDG', 'NZWD 312255Z 36008KT 9999 -SN DRSN FEW020 OVC039 M06/M08 A2921 RMK AO2A SLP893 GRID17008KT SDP/HDG']","['2024-02-03 05:10:00', '2024-02-03 04:55:00', '2024-02-03 03:55:00', '2024-02-03 02:55:00', '2024-02-03 01:55:00', '2024-02-03 00:55:00', '2024-02-02 23:55:00', '2024-02-02 22:55:00', '2024-02-02 21:55:00', '2024-02-02 20:55:00', '2024-02-02 19:55:00', '2024-02-02 18:55:00', '2024-02-02 17:55:00', '2024-02-02 16:55:00', '2024-02-02 15:55:00', '2024-02-02 14:55:00', '2024-02-02 13:55:00', '2024-02-02 12:55:00', '2024-02-02 11:55:00', '2024-02-02 10:55:00', '2024-02-02 09:55:00', '2024-02-02 08:55:00', '2024-02-02 07:55:00', '2024-02-02 06:55:00', '2024-02-02 05:55:00', '2024-02-02 04:55:00', '2024-02-02 03:55:00', '2024-02-02 03:20:00', '2024-02-01 08:55:00', '2024-02-01 07:55:00', '2024-02-01 06:55:00', '2024-02-01 05:55:00', '2024-02-01 04:55:00', '2024-02-01 04:00:00', '2024-02-01 02:55:00', '2024-02-01 01:55:00', '2024-02-01 00:55:00', '2024-01-31 23:55:00', '2024-01-31 23:24:00', '2024-01-31 22:55:00']"
Antigua-and-barbuda, Antigua V. C. Bird International Airport (ANU/TAPA) ,"['TAPA 032100Z 07004KT 010V110 9999 FEW020 26/20 Q1011 NOSIG', 'TAPA 032000Z 08003KT 050V150 9999 FEW020 27/20 Q1011 NOSIG', 'TAPA 031900Z 09005KT 050V150 9999 SCT020 27/21 Q1011 NOSIG', 'TAPA 031800Z 05006KT 000V110 9999 SCT020 26/20 Q1011 NOSIG', 'TAPA 031700Z 06007KT 010V120 9999 SCT020 28/21 Q1012 NOSIG', 'TAPA 031600Z 05006KT 360V130 9999 SCT020 29/20 Q1013 NOSIG', 'TAPA 031500Z 05007KT 360V130 9999 FEW020 28/20 Q1013 NOSIG', 'TAPA 031400Z 09003KT 9999 FEW021 28/20 Q1014 NOSIG', 'TAPA 031300Z VRB02KT 9999 FEW023 27/21 Q1013 NOSIG', 'TAPA 031200Z 26003KT 9999 FEW024 24/21 Q1013 NOSIG', 'TAPA 031100Z 26004KT 9999 FEW024 20/19 Q1012 NOSIG', 'TAPA 031000Z 26003KT 9999 FEW018 21/19 Q1011 NOSIG', 'TAPA 030800Z 26003KT 9999 FEW020 21/19 Q1010 NOSIG', 'TAPA 030700Z VRB02KT 9999 FEW020 22/19 Q1011 NOSIG', 'TAPA 030600Z VRB02KT 9999 FEW020 22/20 Q1011 NOSIG', 'TAPA 030500Z 27003KT 9999 FEW020 22/20 Q1012 NOSIG', 'TAPA 030400Z 25003KT 9999 FEW020 22/20 Q1012 NOSIG', 'TAPA 030300Z VRB02KT 9999 FEW020 23/20 Q1013 NOSIG', 'TAPA 030200Z VRB01KT 9999 SCT022 24/21 Q1013 NOSIG', 'TAPA 030100Z 05003KT 010V100 9999 FEW022 24/20 Q1013 NOSIG', 'TAPA 030000Z 01004KT 340V050 9999 VCSH FEW018 24/20 Q1013 NOSIG', 'TAPA 022300Z 33004KT 300V010 9999 FEW020 24/20 Q1012 NOSIG', 'TAPA 022200Z 35005KT 310V030 9999 SCT020 25/20 Q1012 NOSIG', 'TAPA 022100Z 36008KT 320V030 9999 SCT020 26/22 Q1012 NOSIG', 'TAPA 022000Z 36009KT 9999 FEW020 27/22 Q1011 NOSIG', 'TAPA 021900Z 33008KT 270V020 9999 VCSH FEW020 28/21 Q1012 NOSIG', 'TAPA 021800Z 34010KT 280V030 9999 SCT020 28/21 Q1012 NOSIG', 'TAPA 021700Z 35010KT 270V020 9999 SCT020 28/22 Q1012 NOSIG', 'TAPA 021600Z 29009KT 230V340 9999 SCT020 29/21 Q1013 NOSIG', 'TAPA 021500Z 27010KT 220V320 9999 FEW022 29/20 Q1014 NOSIG', 'TAPA 021400Z 27009KT 220V340 9999 SCT022 28/21 Q1014 NOSIG', 'TAPA 021300Z 27008KT 230V300 9999 SCT018 27/22 Q1014 NOSIG', 'TAPA 021200Z VRB02KT 9999 FEW018 25/22 Q1013 NOSIG', 'TAPA 021100Z VRB02KT 9999 FEW018 22/21 Q1013 NOSIG', 'TAPA 021000Z VRB02KT 9999 FEW018 22/21 Q1012 NOSIG', 'TAPA 020800Z VRB02KT 9999 FEW020 23/22 Q1011 NOSIG', 'TAPA 020700Z VRB02KT 9999 FEW020 22/21 Q1011 NOSIG', 'TAPA 020600Z VRB02KT 9999 FEW020 23/22 Q1012 NOSIG', 'TAPA 020500Z VRB02KT 9999 FEW020 22/21 Q1012 NOSIG', 'TAPA 020400Z 27003KT 9999 FEW020 22/21 Q1013 NOSIG', 'TAPA 020300Z VRB02KT 9999 FEW020 23/22 Q1013 NOSIG', 'TAPA 020200Z VRB01KT 9999 FEW022 23/21 Q1014 NOSIG', 'TAPA 020100Z VRB02KT 9999 FEW020 24/22 Q1014 NOSIG', 'TAPA 020000Z VRB02KT 9999 FEW020 24/22 Q1013 NOSIG', 'TAPA 012300Z VRB02KT 9999 FEW020 25/22 Q1013 NOSIG', 'TAPA 012200Z 28004KT 250V320 9999 FEW020 28/21 Q1013 NOSIG', 'TAPA 012100Z 25007KT 200V280 9999 FEW020 28/21 Q1012 NOSIG', 'TAPA 012000Z 26009KT 220V300 9999 FEW020 30/20 Q1012 NOSIG', 'TAPA 011900Z 31003KT 030V100 9999 SCT022 29/23 Q1012 NOSIG', 'TAPA 011800Z 06006KT 030V100 9999 SCT022 29/22 Q1012 NOSIG', 'TAPA 011700Z 05006KT 360V100 9999 SCT022 28/22 Q1013 NOSIG', 'TAPA 011600Z 01008KT 330V060 9999 VCSH SCT020 27/23 Q1014 NOSIG', 'TAPA 011500Z 23005KT 170V280 9999 BKN020 29/21 Q1015 NOSIG', 'TAPA 011400Z 20004KT 120V270 9999 SCT020 28/22 Q1015 NOSIG', 'TAPA 011300Z 16003KT 9999 FEW020 27/23 Q1015 NOSIG', 'TAPA 011200Z 24003KT 9999 -SHRA SCT018 SCT036 25/24 Q1015 NOSIG', 'TAPA 011100Z VRB02KT 9999 VCSH FEW018 BKN036 23/22 Q1014 NOSIG', 'TAPA 011000Z VRB02KT 9999 VCSH FEW020 SCT038 22/21 Q1013 NOSIG', 'TAPA 010900Z VRB02KT 9999 VCSH FEW020 SCT039 23/22 Q1013 NOSIG', 'TAPA 010800Z VRB01KT 9999 VCSH SCT020 SCT038 22/21 Q1012 NOSIG', 'TAPA 010708Z VRB01KT 9999 -SHRA SCT018 SCT038 23/22 Q1013 RESHRA NOSIG', 'TAPA 010600Z 09003KT 9999 VCSH SCT020 23/22 Q1013 NOSIG', 'TAPA 010500Z VRB01KT 9999 -RA FEW018 SCT036 23/22 Q1014 NOSIG', 'TAPA 010400Z VRB02KT 9999 SCT018 23/22 Q1015 NOSIG', 'TAPA 010300Z 25003KT 9999 SCT018 24/22 Q1015 NOSIG', 'TAPA 010200Z VRB02KT 9999 SCT020 25/22 Q1015 NOSIG', 'TAPA 010100Z VRB01KT 9999 FEW020 24/22 Q1015 NOSIG', 'TAPA 010000Z VRB02KT 9999 FEW020 24/21 Q1015 NOSIG', 'TAPA 312300Z 08004KT 9999 FEW020 25/22 Q1014 NOSIG']","['2024-02-03 21:00:00', '2024-02-03 20:00:00', '2024-02-03 19:00:00', '2024-02-03 18:00:00', '2024-02-03 17:00:00', '2024-02-03 16:00:00', '2024-02-03 15:00:00', '2024-02-03 14:00:00', '2024-02-03 13:00:00', '2024-02-03 12:00:00', '2024-02-03 11:00:00', '2024-02-03 10:00:00', '2024-02-03 08:00:00', '2024-02-03 07:00:00', '2024-02-03 06:00:00', '2024-02-03 05:00:00', '2024-02-03 04:00:00', '2024-02-03 03:00:00', '2024-02-03 02:00:00', '2024-02-03 01:00:00', '2024-02-03 00:00:00', '2024-02-02 23:00:00', '2024-02-02 22:00:00', '2024-02-02 21:00:00', '2024-02-02 20:00:00', '2024-02-02 19:00:00', '2024-02-02 18:00:00', '2024-02-02 17:00:00', '2024-02-02 16:00:00', '2024-02-02 15:00:00', '2024-02-02 14:00:00', '2024-02-02 13:00:00', '2024-02-02 12:00:00', '2024-02-02 11:00:00', '2024-02-02 10:00:00', '2024-02-02 08:00:00', '2024-02-02 07:00:00', '2024-02-02 06:00:00', '2024-02-02 05:00:00', '2024-02-02 04:00:00', '2024-02-02 03:00:00', '2024-02-02 02:00:00', '2024-02-02 01:00:00', '2024-02-02 00:00:00', '2024-02-01 23:00:00', '2024-02-01 22:00:00', '2024-02-01 21:00:00', '2024-02-01 20:00:00', '2024-02-01 19:00:00', '2024-02-01 18:00:00', '2024-02-01 17:00:00', '2024-02-01 16:00:00', '2024-02-01 15:00:00', '2024-02-01 14:00:00', '2024-02-01 13:00:00', '2024-02-01 12:00:00', '2024-02-01 11:00:00', '2024-02-01 10:00:00', '2024-02-01 09:00:00', '2024-02-01 08:00:00', '2024-02-01 07:08:00', '2024-02-01 06:00:00', '2024-02-01 05:00:00', '2024-02-01 04:00:00', '2024-02-01 03:00:00', '2024-02-01 02:00:00', '2024-02-01 01:00:00', '2024-02-01 00:00:00', '2024-01-31 23:00:00']"
Argentina, Buenos Aires Ministro Pistarini International Airport (EZE/SAEZ) ,"['SAEZ 032100Z 21005KT CAVOK 38/12 Q1008 NOSIG', 'SAEZ 032000Z 27005KT CAVOK 38/13 Q1008 NOSIG', 'SAEZ 031900Z 26007G18KT CAVOK 38/13 Q1008 NOSIG', 'SAEZ 031800Z 31008KT 320V020 CAVOK 37/15 Q1009 NOSIG', 'SAEZ 031700Z 31006KT 260V340 CAVOK 36/17 Q1009 NOSIG', 'SAEZ 031600Z 32007KT 260V010 CAVOK 34/18 Q1010 NOSIG', 'SAEZ 031500Z 33008KT 260V010 CAVOK 33/19 Q1010 NOSIG', 'SAEZ 031400Z 34008KT CAVOK 30/19 Q1011 NOSIG', 'SAEZ 031300Z 36008KT CAVOK 29/19 Q1011 NOSIG', 'SAEZ 031200Z 36011KT CAVOK 29/19 Q1012 NOSIG', 'SAEZ 031100Z 03007KT CAVOK 27/20 Q1011 NOSIG', 'SAEZ 031000Z 03006KT CAVOK 26/19 Q1011 NOSIG', 'SAEZ 030900Z 04007KT CAVOK 26/19 Q1011 NOSIG', 'SAEZ 030800Z 04008KT 010V070 CAVOK 26/19 Q1011 NOSIG', 'SAEZ 030700Z 04008KT CAVOK 27/17 Q1011 NOSIG', 'SAEZ 030600Z 09009KT CAVOK 27/17 Q1011 NOSIG', 'SAEZ 030500Z 01005KT CAVOK 29/14 Q1011 NOSIG', 'SAEZ 030400Z 02008KT CAVOK 30/14 Q1011 NOSIG', 'SAEZ 030300Z 03008KT 360V070 CAVOK 30/13 Q1011 NOSIG', 'SAEZ 030200Z 03009KT CAVOK 31/13 Q1012 NOSIG', 'SAEZ 030100Z 09003KT CAVOK 27/20 Q1012 NOSIG', 'SAEZ 030000Z 06009KT CAVOK 30/18 Q1011 NOSIG', 'SAEZ 022300Z 06008KT CAVOK 32/16 Q1011 NOSIG', 'SAEZ 022200Z 06010KT CAVOK 34/14 Q1011 NOSIG', 'SAEZ 022100Z 07011KT CAVOK 35/14 Q1011 NOSIG', 'SAEZ 022000Z 04011KT CAVOK 35/14 Q1012 NOSIG', 'SAEZ 021900Z 03010KT CAVOK 36/14 Q1012 NOSIG', 'SAEZ 021800Z 06013KT CAVOK 36/11 Q1013 NOSIG', 'SAEZ 021700Z 05012KT CAVOK 36/09 Q1013 NOSIG', 'SAEZ 021600Z 05011KT CAVOK 37/05 Q1014 NOSIG', 'SAEZ 021500Z 03010KT CAVOK 36/06 Q1015 NOSIG', 'SAEZ 021400Z 02008KT 350V060 CAVOK 35/11 Q1016 NOSIG', 'SAEZ 021300Z 36009KT CAVOK 32/14 Q1016 NOSIG', 'SAEZ 021200Z 01009KT CAVOK 30/16 Q1016 NOSIG', 'SAEZ 021100Z 01008KT CAVOK 28/16 Q1017 NOSIG', 'SAEZ 021000Z 01005KT CAVOK 26/16 Q1016 NOSIG', 'SAEZ 020900Z 01005KT CAVOK 27/13 Q1016 NOSIG', 'SAEZ 020800Z 03006KT CAVOK 28/14 Q1015 NOSIG', 'SAEZ 020700Z 02006KT CAVOK 28/18 Q1015 NOSIG', 'SAEZ 020600Z 06008KT CAVOK 29/18 Q1015 NOSIG', 'SAEZ 020500Z 06008KT CAVOK 30/18 Q1015 NOSIG', 'SAEZ 020400Z 07008KT CAVOK 29/22 Q1016 NOSIG', 'SAEZ 020300Z 06009KT CAVOK 29/21 Q1016 NOSIG', 'SAEZ 020200Z 08009KT CAVOK 30/19 Q1016 NOSIG', 'SAEZ 020100Z 08009KT CAVOK 30/18 Q1016 NOSIG', 'SAEZ 020000Z 07010KT CAVOK 31/17 Q1015 NOSIG', 'SAEZ 012300Z 07012KT CAVOK 33/17 Q1014 NOSIG', 'SAEZ 012200Z 08015KT CAVOK 35/14 Q1014 NOSIG', 'SAEZ 012100Z 06012KT 9999 FEW060TCU 37/13 Q1014 NOSIG', 'SAEZ 012000Z 04013KT 9999 FEW060TCU 38/13 Q1013 NOSIG', 'SAEZ 011900Z 01008KT 330V040 9999 FEW060TCU 38/15 Q1013 NOSIG', 'SAEZ 011800Z 35005KT 330V040 9999 FEW060TCU 38/14 Q1014 NOSIG', 'SAEZ 011700Z 33008KT CAVOK 38/14 Q1015 NOSIG', 'SAEZ 011600Z 05005KT CAVOK 37/16 Q1015 NOSIG', 'SAEZ 011500Z 30006KT CAVOK 37/17 Q1015 NOSIG', 'SAEZ 011400Z 31006KT CAVOK 35/17 Q1016 NOSIG', 'SAEZ 011300Z 31007KT CAVOK 34/18 Q1016 NOSIG', 'SAEZ 011200Z 31005KT CAVOK 32/20 Q1015 NOSIG', 'SAEZ 011100Z 35004KT CAVOK 28/20 Q1015 NOSIG', 'SAEZ 011000Z 31003KT 8000 NSC 24/20 Q1015 NOSIG', 'SAEZ 010900Z 36001KT 8000 NSC 22/20 Q1014 NOSIG', 'SAEZ 010800Z 05001KT CAVOK 25/19 Q1013 NOSIG', 'SAEZ 010700Z 04001KT CAVOK 24/19 Q1013 NOSIG', 'SAEZ 010600Z 36001KT CAVOK 26/20 Q1013 NOSIG', 'SAEZ 010500Z 06003KT CAVOK 27/20 Q1013 NOSIG', 'SAEZ 010400Z 05002KT 040V120 CAVOK 27/20 Q1013 NOSIG', 'SAEZ 010300Z 07002KT CAVOK 28/20 Q1013 NOSIG', 'SAEZ 010200Z 07002KT CAVOK 28/19 Q1013 NOSIG', 'SAEZ 010100Z 01002KT CAVOK 28/18 Q1012 NOSIG', 'SAEZ 010000Z 01004KT CAVOK 31/17 Q1012 NOSIG', 'SAEZ 312300Z 02005KT CAVOK 32/17 Q1011 NOSIG']","['2024-02-03 21:00:00', '2024-02-03 20:00:00', '2024-02-03 19:00:00', '2024-02-03 18:00:00', '2024-02-03 17:00:00', '2024-02-03 16:00:00', '2024-02-03 15:00:00', '2024-02-03 14:00:00', '2024-02-03 13:00:00', '2024-02-03 12:00:00', '2024-02-03 11:00:00', '2024-02-03 10:00:00', '2024-02-03 09:00:00', '2024-02-03 08:00:00', '2024-02-03 07:00:00', '2024-02-03 06:00:00', '2024-02-03 05:00:00', '2024-02-03 04:00:00', '2024-02-03 03:00:00', '2024-02-03 02:00:00', '2024-02-03 01:00:00', '2024-02-03 00:00:00', '2024-02-02 23:00:00', '2024-02-02 22:00:00', '2024-02-02 21:00:00', '2024-02-02 20:00:00', '2024-02-02 19:00:00', '2024-02-02 18:00:00', '2024-02-02 17:00:00', '2024-02-02 16:00:00', '2024-02-02 15:00:00', '2024-02-02 14:00:00', '2024-02-02 13:00:00', '2024-02-02 12:00:00', '2024-02-02 11:00:00', '2024-02-02 10:00:00', '2024-02-02 09:00:00', '2024-02-02 08:00:00', '2024-02-02 07:00:00', '2024-02-02 06:00:00', '2024-02-02 05:00:00', '2024-02-02 04:00:00', '2024-02-02 03:00:00', '2024-02-02 02:00:00', '2024-02-02 01:00:00', '2024-02-02 00:00:00', '2024-02-01 23:00:00', '2024-02-01 22:00:00', '2024-02-01 21:00:00', '2024-02-01 20:00:00', '2024-02-01 19:00:00', '2024-02-01 18:00:00', '2024-02-01 17:00:00', '2024-02-01 16:00:00', '2024-02-01 15:00:00', '2024-02-01 14:00:00', '2024-02-01 13:00:00', '2024-02-01 12:00:00', '2024-02-01 11:00:00', '2024-02-01 10:00:00', '2024-02-01 09:00:00', '2024-02-01 08:00:00', '2024-02-01 07:00:00', '2024-02-01 06:00:00', '2024-02-01 05:00:00', '2024-02-01 04:00:00', '2024-02-01 03:00:00', '2024-02-01 02:00:00', '2024-02-01 01:00:00', '2024-02-01 00:00:00', '2024-01-31 23:00:00']"
Argentina, Buenos Aires Jorge Newbery Airport (AEP/SABE) ,"['SABE 032100Z 01007KT 330V100 9000 NSC 32/25 Q1009 NOSIG', 'SABE 032000Z 01007KT 340V050 CAVOK 32/26 Q1009 NOSIG', 'SABE 031900Z 02006KT 350V050 CAVOK 32/25 Q1009 NOSIG', 'SABE 031800Z 02007KT 340V060 8000 NSC 32/25 Q1009 NOSIG', 'SABE 031700Z 36008KT 300V020 8000 NSC 31/23 Q1010 NOSIG', 'SABE 031600Z 34010KT 290V010 9000 NSC 31/23 Q1010 NOSIG', 'SABE 031500Z 35007KT 320V020 CAVOK 30/22 Q1011 NOSIG', 'SABE 031400Z 34009KT CAVOK 29/21 Q1011 NOSIG', 'SABE 031300Z 33008KT CAVOK 28/20 Q1012 NOSIG', 'SABE 031200Z 35008KT CAVOK 27/21 Q1012 NOSIG', 'SABE 031100Z 36009KT CAVOK 26/21 Q1012 NOSIG', 'SABE 031000Z 36011KT 320V020 CAVOK 26/20 Q1011 NOSIG', 'SABE 030900Z 36010KT CAVOK 26/20 Q1012 NOSIG', 'SABE 030800Z 36009KT 330V030 CAVOK 26/20 Q1012 NOSIG', 'SABE 030700Z 36012KT CAVOK 27/20 Q1012 NOSIG', 'SABE 030600Z 01011KT CAVOK 27/19 Q1012 NOSIG', 'SABE 030500Z 02011KT CAVOK 30/19 Q1011 NOSIG', 'SABE 030400Z 01012KT CAVOK 30/20 Q1012 NOSIG', 'SABE 030300Z 02011KT CAVOK 30/18 Q1012 NOSIG', 'SABE 030200Z 01010KT CAVOK 31/18 Q1012 NOSIG', 'SABE 030100Z 03009KT 010V070 CAVOK 31/21 Q1012 NOSIG', 'SABE 030048Z 04010KT CAVOK 32/22 Q1012 NOSIG', 'SABE 030000Z 10008KT CAVOK 30/25 Q1011 NOSIG', 'SABE 022300Z 11011KT CAVOK 29/25 Q1011 NOSIG', 'SABE 022200Z 11015KT CAVOK 30/24 Q1011 NOSIG', 'SABE 022100Z 11012KT CAVOK 31/24 Q1012 NOSIG', 'SABE 022000Z 10011KT CAVOK 32/22 Q1012 NOSIG', 'SABE 021900Z 10010KT CAVOK 32/23 Q1013 NOSIG', 'SABE 021800Z 10009KT 060V120 CAVOK 32/22 Q1014 NOSIG', 'SABE 021700Z 07005KT 040V100 CAVOK 31/21 Q1014 NOSIG', 'SABE 021600Z 06004KT 020V090 CAVOK 30/21 Q1015 NOSIG', 'SABE 021500Z 05006KT 020V090 CAVOK 30/21 Q1016 NOSIG', 'SABE 021400Z 03005KT 360V070 CAVOK 29/21 Q1017 NOSIG', 'SABE 021300Z 36005KT CAVOK 28/20 Q1017 NOSIG', 'SABE 021200Z 35005KT CAVOK 27/19 Q1017 NOSIG', 'SABE 021100Z 33006KT CAVOK 27/20 Q1017 NOSIG', 'SABE 021000Z 33006KT 300V010 CAVOK 26/19 Q1017 NOSIG', 'SABE 020900Z 35008KT 310V020 CAVOK 27/19 Q1016 NOSIG', 'SABE 020800Z 36012KT 330V030 CAVOK 28/18 Q1016 NOSIG', 'SABE 020700Z 36011KT CAVOK 29/17 Q1016 NOSIG', 'SABE 020600Z 02008KT CAVOK 29/20 Q1016 NOSIG', 'SABE 020500Z 02009KT CAVOK 30/20 Q1016 NOSIG', 'SABE 020400Z 04010KT CAVOK 30/21 Q1016 NOSIG', 'SABE 020300Z 07006KT CAVOK 30/25 Q1016 NOSIG', 'SABE 020200Z 10011KT CAVOK 29/24 Q1016 NOSIG', 'SABE 020100Z 11013KT CAVOK 30/23 Q1016 NOSIG', 'SABE 020000Z 10013KT CAVOK 31/22 Q1015 NOSIG', 'SABE 012300Z 10011KT CAVOK 31/23 Q1015 NOSIG', 'SABE 012200Z 09011KT 9999 FEW050CB 33/20 Q1015 NOSIG', 'SABE 012100Z 07007KT 9999 FEW045CB 33/22 Q1014 NOSIG', 'SABE 012000Z 04006KT 360V080 9999 FEW045CB 34/22 Q1014 NOSIG', 'SABE 011900Z 03007KT 9999 FEW040CB 34/23 Q1015 NOSIG', 'SABE 011800Z 03008KT 010V070 9999 FEW033TCU 33/25 Q1015 NOSIG', 'SABE 011700Z 03007KT 9999 FEW032TCU 33/25 Q1016 NOSIG', 'SABE 011600Z 03007KT 350V070 9999 FEW032 32/25 Q1016 NOSIG', 'SABE 011500Z 01007KT 9999 FEW035 32/23 Q1016 NOSIG', 'SABE 011400Z 35007KT 310V020 CAVOK 32/24 Q1016 NOSIG', 'SABE 011300Z 35006KT 310V010 CAVOK 30/23 Q1016 NOSIG', 'SABE 011200Z 35006KT 310V040 CAVOK 30/22 Q1016 NOSIG', 'SABE 011100Z 33004KT 290V010 CAVOK 29/21 Q1016 NOSIG', 'SABE 011000Z 31005KT 270V330 CAVOK 27/22 Q1015 NOSIG', 'SABE 010900Z 33004KT CAVOK 28/24 Q1015 NOSIG', 'SABE 010800Z 30003KT CAVOK 28/25 Q1014 NOSIG', 'SABE 010700Z VRB01KT CAVOK 28/23 Q1014 NOSIG', 'SABE 010600Z VRB02KT CAVOK 29/24 Q1014 NOSIG', 'SABE 010500Z VRB02KT CAVOK 29/23 Q1014 NOSIG', 'SABE 010400Z 07002KT CAVOK 29/22 Q1014 NOSIG', 'SABE 010300Z VRB02KT CAVOK 29/22 Q1014 NOSIG', 'SABE 010200Z 06004KT CAVOK 30/22 Q1013 NOSIG', 'SABE 010100Z VRB01KT CAVOK 30/23 Q1013 NOSIG', 'SABE 010000Z VRB02KT CAVOK 30/24 Q1012 NOSIG', 'SABE 312300Z 06003KT CAVOK 30/25 Q1012 NOSIG']","['2024-02-03 21:00:00', '2024-02-03 20:00:00', '2024-02-03 19:00:00', '2024-02-03 18:00:00', '2024-02-03 17:00:00', '2024-02-03 16:00:00', '2024-02-03 15:00:00', '2024-02-03 14:00:00', '2024-02-03 13:00:00', '2024-02-03 12:00:00', '2024-02-03 11:00:00', '2024-02-03 10:00:00', '2024-02-03 09:00:00', '2024-02-03 08:00:00', '2024-02-03 07:00:00', '2024-02-03 06:00:00', '2024-02-03 05:00:00', '2024-02-03 04:00:00', '2024-02-03 03:00:00', '2024-02-03 02:00:00', '2024-02-03 01:00:00', '2024-02-03 00:48:00', '2024-02-03 00:00:00', '2024-02-02 23:00:00', '2024-02-02 22:00:00', '2024-02-02 21:00:00', '2024-02-02 20:00:00', '2024-02-02 19:00:00', '2024-02-02 18:00:00', '2024-02-02 17:00:00', '2024-02-02 16:00:00', '2024-02-02 15:00:00', '2024-02-02 14:00:00', '2024-02-02 13:00:00', '2024-02-02 12:00:00', '2024-02-02 11:00:00', '2024-02-02 10:00:00', '2024-02-02 09:00:00', '2024-02-02 08:00:00', '2024-02-02 07:00:00', '2024-02-02 06:00:00', '2024-02-02 05:00:00', '2024-02-02 04:00:00', '2024-02-02 03:00:00', '2024-02-02 02:00:00', '2024-02-02 01:00:00', '2024-02-02 00:00:00', '2024-02-01 23:00:00', '2024-02-01 22:00:00', '2024-02-01 21:00:00', '2024-02-01 20:00:00', '2024-02-01 19:00:00', '2024-02-01 18:00:00', '2024-02-01 17:00:00', '2024-02-01 16:00:00', '2024-02-01 15:00:00', '2024-02-01 14:00:00', '2024-02-01 13:00:00', '2024-02-01 12:00:00', '2024-02-01 11:00:00', '2024-02-01 10:00:00', '2024-02-01 09:00:00', '2024-02-01 08:00:00', '2024-02-01 07:00:00', '2024-02-01 06:00:00', '2024-02-01 05:00:00', '2024-02-01 04:00:00', '2024-02-01 03:00:00', '2024-02-01 02:00:00', '2024-02-01 01:00:00', '2024-02-01 00:00:00', '2024-01-31 23:00:00']"
Argentina, Comodoro Rivadavia International Airport (CRD/SAVC) ,"['SAVC 032100Z 06015KT CAVOK 18/01 Q1019', 'SAVC 032000Z 06014KT CAVOK 18/01 Q1019', 'SAVC 031900Z 08010KT 040V130 CAVOK 18/M04 Q1019', 'SAVC 031800Z 12012KT 090V160 CAVOK 19/M03 Q1019', 'SAVC 031700Z 14012KT 110V170 CAVOK 19/M02 Q1019', 'SAVC 031600Z 17015KT CAVOK 19/M03 Q1020', 'SAVC 031500Z 21017KT 180V250 CAVOK 18/M06 Q1020', 'SAVC 031407Z 20016G26KT CAVOK 17/M06 Q1020', 'SAVC 031307Z 22016G26KT 190V250 CAVOK 16/M06 Q1020', 'SAVC 031200Z 21020G31KT CAVOK 14/M07 Q1019', 'SAVC 031100Z 23015G26KT 9999 FEW045 14/M06 Q1018', 'SAVC 031000Z 23020KT CAVOK 13/M06 Q1016', 'SAVC 030927Z 23022G32KT CAVOK 13/M06 Q1015', 'SAVC 030800Z 24018G29KT CAVOK 15/M03 Q1013', 'SAVC 030700Z 25017G27KT CAVOK 15/M00 Q1011', 'SAVC 030609Z 26026G36KT CAVOK 15/01 Q1009', 'SAVC 030500Z 27028G41KT CAVOK 17/01 Q1007', 'SAVC 030423Z 27026G36KT CAVOK 17/02 Q1006', 'SAVC 030300Z 26026G38KT 9000 NSC 19/02 Q1006', 'SAVC 030200Z 27024KT 5000 BLDU NSC 20/02 Q1004', 'SAVC 030100Z 28027KT 3000 BLDU NSC 21/03 Q1003', 'SAVC 030000Z 27031G47KT 1500 BLDU NSC 23/00 Q1001', 'SAVC 022300Z 28027G37KT 2000 BLDU SCT030 24/01 Q1001', 'SAVC 022200Z 29031G45KT 2000 BLDU SCT027 26/M01 Q1001', 'SAVC 022139Z 28033G47KT 3000 BLDU FEW045 27/M03 Q1001 RMK', 'SAVC 022126Z 28030G44KT 0900 R25/1400U BLDU NSC 27/M02 Q1000', 'SAVC 022000Z 29033G51KT 9999 FEW045 29/03 Q1000', 'SAVC 021900Z 28028G41KT 9999 FEW045 29/08 Q1001', 'SAVC 021800Z 29028G42KT 7000 SCT045 BKN200 30/05 Q1001', 'SAVC 021700Z 31022KT 280V340 CAVOK 29/07 Q1002', 'SAVC 021600Z 31019G30KT CAVOK 27/07 Q1003', 'SAVC 021500Z 31023G37KT CAVOK 27/07 Q1003', 'SAVC 021400Z 31023G35KT CAVOK 27/08 Q1004', 'SAVC 021300Z 30017G28KT CAVOK 26/08 Q1005', 'SAVC 021200Z 31011KT CAVOK 23/08 Q1006', 'SAVC 021100Z VRB03KT CAVOK 23/07 Q1007', 'SAVC 021000Z 30014KT CAVOK 22/06 Q1007', 'SAVC 020900Z 31010KT CAVOK 22/05 Q1008', 'SAVC 020800Z 29011KT 270V330 CAVOK 22/06 Q1008', 'SAVC 020700Z 30014KT CAVOK 23/06 Q1008', 'SAVC 020600Z 29018G31KT CAVOK 23/06 Q1008', 'SAVC 020500Z 29015KT CAVOK 24/05 Q1009', 'SAVC 020400Z 30015KT CAVOK 25/07 Q1009', 'SAVC 020300Z 29019KT CAVOK 26/08 Q1009', 'SAVC 020200Z 29011KT CAVOK 26/07 Q1009', 'SAVC 020100Z 29019KT CAVOK 27/09 Q1009', 'SAVC 020000Z 29017G28KT CAVOK 28/10 Q1008', 'SAVC 012300Z 28018KT CAVOK 29/08 Q1007', 'SAVC 012200Z 28018KT CAVOK 30/08 Q1007', 'SAVC 012100Z 29017G29KT CAVOK 31/06 Q1008', 'SAVC 012000Z 29017KT 250V310 CAVOK 32/04 Q1008', 'SAVC 011900Z 30020G31KT 270V330 CAVOK 32/06 Q1007', 'SAVC 011800Z 29020G32KT 260V320 CAVOK 32/08 Q1008', 'SAVC 011700Z 27020G30KT CAVOK 31/08 Q1009', 'SAVC 011600Z 27018G31KT 250V320 CAVOK 30/08 Q1009', 'SAVC 011500Z 29024G34KT CAVOK 29/08 Q1009', 'SAVC 011400Z 30016G26KT 270V330 CAVOK 28/09 Q1010', 'SAVC 011300Z 30016G26KT 270V330 9999 FEW045 27/10 Q1010', 'SAVC 011200Z 31016G26KT CAVOK 24/10 Q1010', 'SAVC 011100Z 30012KT CAVOK 24/10 Q1010', 'SAVC 011000Z 31008KT 280V350 CAVOK 21/10 Q1011', 'SAVC 010900Z 32012KT CAVOK 21/10 Q1010', 'SAVC 010800Z 29007KT 270V330 CAVOK 21/10 Q1010', 'SAVC 010700Z 28008KT CAVOK 21/08 Q1010', 'SAVC 010600Z 30008KT CAVOK 21/08 Q1010', 'SAVC 010500Z 28010KT CAVOK 22/08 Q1011', 'SAVC 010400Z 28013KT CAVOK 24/07 Q1011', 'SAVC 010300Z 27017KT CAVOK 24/07 Q1010', 'SAVC 010200Z 27013KT CAVOK 24/06 Q1010', 'SAVC 010100Z 27011KT CAVOK 25/06 Q1010', 'SAVC 010000Z 27015KT CAVOK 26/05 Q1009', 'SAVC 312300Z 28022KT CAVOK 28/05 Q1008']","['2024-02-03 21:00:00', '2024-02-03 20:00:00', '2024-02-03 19:00:00', '2024-02-03 18:00:00', '2024-02-03 17:00:00', '2024-02-03 16:00:00', '2024-02-03 15:00:00', '2024-02-03 14:07:00', '2024-02-03 13:07:00', '2024-02-03 12:00:00', '2024-02-03 11:00:00', '2024-02-03 10:00:00', '2024-02-03 09:27:00', '2024-02-03 08:00:00', '2024-02-03 07:00:00', '2024-02-03 06:09:00', '2024-02-03 05:00:00', '2024-02-03 04:23:00', '2024-02-03 03:00:00', '2024-02-03 02:00:00', '2024-02-03 01:00:00', '2024-02-03 00:00:00', '2024-02-02 23:00:00', '2024-02-02 22:00:00', '2024-02-02 21:39:00', '2024-02-02 21:26:00', '2024-02-02 20:00:00', '2024-02-02 19:00:00', '2024-02-02 18:00:00', '2024-02-02 17:00:00', '2024-02-02 16:00:00', '2024-02-02 15:00:00', '2024-02-02 14:00:00', '2024-02-02 13:00:00', '2024-02-02 12:00:00', '2024-02-02 11:00:00', '2024-02-02 10:00:00', '2024-02-02 09:00:00', '2024-02-02 08:00:00', '2024-02-02 07:00:00', '2024-02-02 06:00:00', '2024-02-02 05:00:00', '2024-02-02 04:00:00', '2024-02-02 03:00:00', '2024-02-02 02:00:00', '2024-02-02 01:00:00', '2024-02-02 00:00:00', '2024-02-01 23:00:00', '2024-02-01 22:00:00', '2024-02-01 21:00:00', '2024-02-01 20:00:00', '2024-02-01 19:00:00', '2024-02-01 18:00:00', '2024-02-01 17:00:00', '2024-02-01 16:00:00', '2024-02-01 15:00:00', '2024-02-01 14:00:00', '2024-02-01 13:00:00', '2024-02-01 12:00:00', '2024-02-01 11:00:00', '2024-02-01 10:00:00', '2024-02-01 09:00:00', '2024-02-01 08:00:00', '2024-02-01 07:00:00', '2024-02-01 06:00:00', '2024-02-01 05:00:00', '2024-02-01 04:00:00', '2024-02-01 03:00:00', '2024-02-01 02:00:00', '2024-02-01 01:00:00', '2024-02-01 00:00:00', '2024-01-31 23:00:00']"
Argentina, Cordoba International Airport (COR/SACO) ,"['SACO 032100Z 18016KT 9999 FEW020 FEW050CB 35/20 Q1010 NOSIG', 'SACO 032044Z 17016KT 130V200 9999 FEW030 FEW050CB 35/20 Q1010 NOSIG', 'SACO 032000Z 11008KT 9999 FEW030 FEW050CB 37/19 Q1010 BECMG 11015KT 9999 TS FEW040CB', 'SACO 031900Z 09010KT 060V130 9999 FEW050TCU 38/19 Q1009 NOSIG', 'SACO 031800Z 06009KT 020V090 9999 FEW050TCU 39/20 Q1010 NOSIG', 'SACO 031700Z 06010KT 9999 FEW050TCU 38/19 Q1010 NOSIG', 'SACO 031600Z 05008KT 360V090 CAVOK 38/18 Q1011 NOSIG', 'SACO 031500Z 03008KT 350V070 CAVOK 37/16 Q1011 NOSIG', 'SACO 031400Z 02009KT 350V060 CAVOK 36/16 Q1011 NOSIG', 'SACO 031300Z 01011KT CAVOK 33/17 Q1011 NOSIG', 'SACO 031200Z 36011KT CAVOK 31/17 Q1012 NOSIG', 'SACO 031100Z 34007KT CAVOK 26/14 Q1012 NOSIG', 'SACO 031000Z 36007KT CAVOK 22/13 Q1011 NOSIG', 'SACO 030900Z 34007KT CAVOK 23/12 Q1011 NOSIG', 'SACO 030800Z 33007KT CAVOK 23/13 Q1011 NOSIG', 'SACO 030700Z 34007KT CAVOK 22/13 Q1012 NOSIG', 'SACO 030600Z 33005KT CAVOK 21/13 Q1012 NOSIG', 'SACO 030500Z 34005KT CAVOK 21/14 Q1013 NOSIG', 'SACO 030400Z 31007KT CAVOK 21/14 Q1014 NOSIG', 'SACO 030300Z 30006KT CAVOK 22/14 Q1014 NOSIG', 'SACO 030200Z 32006KT CAVOK 23/15 Q1013 NOSIG', 'SACO 030100Z 32005KT CAVOK 22/15 Q1013 NOSIG', 'SACO 030000Z 06004KT CAVOK 24/15 Q1012 NOSIG', 'SACO 022300Z 06007KT CAVOK 28/14 Q1011 NOSIG', 'SACO 022200Z 06010KT CAVOK 32/13 Q1011 NOSIG', 'SACO 022100Z 04013KT CAVOK 33/12 Q1011 NOSIG', 'SACO 022000Z 05011KT 020V080 CAVOK 33/12 Q1012 NOSIG', 'SACO 021900Z 05013KT 020V080 CAVOK 34/12 Q1012 NOSIG', 'SACO 021800Z 05015KT CAVOK 34/11 Q1013 NOSIG', 'SACO 021700Z 05015G25KT 010V070 CAVOK 34/12 Q1014 NOSIG', 'SACO 021600Z 04013KT 010V070 CAVOK 33/13 Q1015 NOSIG', 'SACO 021500Z 04016KT 010V070 CAVOK 32/12 Q1016 NOSIG', 'SACO 021400Z 01017KT CAVOK 31/12 Q1016 NOSIG', 'SACO 021300Z 01015KT CAVOK 30/13 Q1016 NOSIG', 'SACO 021200Z 36012KT CAVOK 29/13 Q1017 NOSIG', 'SACO 021100Z 35004KT CAVOK 24/15 Q1017 NOSIG', 'SACO 021000Z 35005KT CAVOK 18/13 Q1016 NOSIG', 'SACO 020900Z 34006KT CAVOK 19/13 Q1016 NOSIG', 'SACO 020800Z 35007KT CAVOK 20/13 Q1016 NOSIG', 'SACO 020700Z 35006KT CAVOK 19/13 Q1017 NOSIG', 'SACO 020600Z 36008KT CAVOK 21/14 Q1017 NOSIG', 'SACO 020500Z 01009KT CAVOK 22/15 Q1017 NOSIG', 'SACO 020400Z 36007KT CAVOK 22/16 Q1017 NOSIG', 'SACO 020300Z 35007KT CAVOK 21/16 Q1017 NOSIG', 'SACO 020200Z 34005KT CAVOK 23/17 Q1017 NOSIG', 'SACO 020100Z 36005KT CAVOK 23/18 Q1016 NOSIG', 'SACO 020000Z 05006KT CAVOK 27/18 Q1015 NOSIG', 'SACO 012300Z 07010KT CAVOK 30/19 Q1014 NOSIG', 'SACO 012200Z 05011KT CAVOK 32/18 Q1014 NOSIG', 'SACO 012100Z 05012KT CAVOK 33/18 Q1014 NOSIG', 'SACO 012000Z 04012KT 9999 FEW045 34/18 Q1014 NOSIG', 'SACO 011900Z 05013KT 020V080 9999 FEW045 34/19 Q1015 NOSIG', 'SACO 011800Z 05012KT 020V090 9999 FEW045 34/18 Q1015 NOSIG', 'SACO 011700Z 05014KT 010V070 9999 FEW045 33/19 Q1016 NOSIG', 'SACO 011600Z 05013KT 010V080 CAVOK 32/19 Q1017 NOSIG', 'SACO 011500Z 04011KT 010V070 CAVOK 33/19 Q1017 NOSIG', 'SACO 011400Z 02010KT 340V050 CAVOK 32/18 Q1017 NOSIG', 'SACO 011300Z 01011KT 340V040 CAVOK 31/18 Q1017 NOSIG', 'SACO 011200Z 36009KT CAVOK 29/18 Q1017 NOSIG', 'SACO 011100Z 35007KT CAVOK 24/17 Q1017 NOSIG', 'SACO 011000Z 36003KT CAVOK 19/16 Q1016 NOSIG', 'SACO 010900Z 31002KT CAVOK 22/17 Q1016 NOSIG', 'SACO 010800Z 34005KT CAVOK 19/16 Q1015 NOSIG', 'SACO 010700Z 32004KT CAVOK 19/16 Q1016 NOSIG', 'SACO 010600Z 30005KT CAVOK 22/17 Q1016 NOSIG', 'SACO 010500Z 33005KT CAVOK 22/17 Q1016 NOSIG', 'SACO 010400Z 33005KT CAVOK 22/17 Q1016 NOSIG', 'SACO 010300Z 32005KT CAVOK 23/17 Q1016 NOSIG', 'SACO 010200Z 33005KT CAVOK 23/17 Q1016 NOSIG', 'SACO 010100Z 34005KT CAVOK 24/18 Q1015 NOSIG', 'SACO 010000Z 04006KT CAVOK 26/18 Q1014 NOSIG', 'SACO 312300Z 06006KT CAVOK 29/18 Q1013 NOSIG']","['2024-02-03 21:00:00', '2024-02-03 20:44:00', '2024-02-03 20:00:00', '2024-02-03 19:00:00', '2024-02-03 18:00:00', '2024-02-03 17:00:00', '2024-02-03 16:00:00', '2024-02-03 15:00:00', '2024-02-03 14:00:00', '2024-02-03 13:00:00', '2024-02-03 12:00:00', '2024-02-03 11:00:00', '2024-02-03 10:00:00', '2024-02-03 09:00:00', '2024-02-03 08:00:00', '2024-02-03 07:00:00', '2024-02-03 06:00:00', '2024-02-03 05:00:00', '2024-02-03 04:00:00', '2024-02-03 03:00:00', '2024-02-03 02:00:00', '2024-02-03 01:00:00', '2024-02-03 00:00:00', '2024-02-02 23:00:00', '2024-02-02 22:00:00', '2024-02-02 21:00:00', '2024-02-02 20:00:00', '2024-02-02 19:00:00', '2024-02-02 18:00:00', '2024-02-02 17:00:00', '2024-02-02 16:00:00', '2024-02-02 15:00:00', '2024-02-02 14:00:00', '2024-02-02 13:00:00', '2024-02-02 12:00:00', '2024-02-02 11:00:00', '2024-02-02 10:00:00', '2024-02-02 09:00:00', '2024-02-02 08:00:00', '2024-02-02 07:00:00', '2024-02-02 06:00:00', '2024-02-02 05:00:00', '2024-02-02 04:00:00', '2024-02-02 03:00:00', '2024-02-02 02:00:00', '2024-02-02 01:00:00', '2024-02-02 00:00:00', '2024-02-01 23:00:00', '2024-02-01 22:00:00', '2024-02-01 21:00:00', '2024-02-01 20:00:00', '2024-02-01 19:00:00', '2024-02-01 18:00:00', '2024-02-01 17:00:00', '2024-02-01 16:00:00', '2024-02-01 15:00:00', '2024-02-01 14:00:00', '2024-02-01 13:00:00', '2024-02-01 12:00:00', '2024-02-01 11:00:00', '2024-02-01 10:00:00', '2024-02-01 09:00:00', '2024-02-01 08:00:00', '2024-02-01 07:00:00', '2024-02-01 06:00:00', '2024-02-01 05:00:00', '2024-02-01 04:00:00', '2024-02-01 03:00:00', '2024-02-01 02:00:00', '2024-02-01 01:00:00', '2024-02-01 00:00:00', '2024-01-31 23:00:00']"
Argentina, Corrientes International Airport (CNQ/SARC) ,"['SARC 032100Z 10008KT 9000 FEW050TCU 39/18 Q1007', 'SARC 032000Z 10007KT 9000 NSC 40/17 Q1007', 'SARC 031900Z 10006KT 9000 NSC 40/19 Q1008', 'SARC 031800Z 36007KT 9000 NSC 40/20 Q1008', 'SARC 031700Z 01006KT 9000 FEW049 40/19 Q1009', 'SARC 031600Z 01010KT 9000 FEW044 39/19 Q1010', 'SARC 031500Z 01011KT 9000 NSC 38/20 Q1010', 'SARC 031400Z 02011KT CAVOK 35/21 Q1011', 'SARC 031300Z 36012KT 9000 NSC 33/21 Q1011', 'SARC 031200Z 01010KT 9000 NSC 31/21 Q1011', 'SARC 031100Z 03008KT 9000 NSC 29/22 Q1011', 'SARC 031000Z 05006KT 8000 NSC 27/23 Q1010', 'SARC 030900Z 05005KT CAVOK 26/22 Q1010', 'SARC 030800Z 05008KT CAVOK 26/23 Q1009', 'SARC 030700Z 05002KT CAVOK 27/23 Q1010', 'SARC 030600Z 07005KT CAVOK 27/23 Q1010', 'SARC 030500Z 07004KT CAVOK 27/23 Q1010', 'SARC 030400Z 07004KT CAVOK 28/22 Q1010', 'SARC 030300Z 07005KT CAVOK 29/23 Q1010', 'SARC 030200Z 09006KT CAVOK 29/23 Q1010', 'SARC 030100Z 09005KT CAVOK 31/23 Q1010', 'SARC 030000Z 11012KT CAVOK 32/23 Q1009', 'SARC 022300Z 09006KT 7000 FEW040 33/22 Q1008', 'SARC 022200Z 09007KT 7000 FEW040 36/21 Q1008', 'SARC 022100Z 09009KT 8000 FEW030 37/20 Q1008', 'SARC 022000Z 09008KT 8000 FEW030 38/20 Q1009', 'SARC 021900Z VRB04KT 8000 SCT030 38/21 Q1010', 'SARC 021800Z 32005KT 8000 SCT030 39/21 Q1010', 'SARC 021700Z 36006KT 8000 SCT030 38/20 Q1011', 'SARC 021600Z 03005KT 8000 FEW030 37/19 Q1012', 'SARC 021500Z 34004KT 320V050 8000 NSC 35/22 Q1012', 'SARC 021400Z 05005KT CAVOK 34/21 Q1013', 'SARC 021300Z 09003KT CAVOK 31/21 Q1013', 'SARC 021200Z 09006KT CAVOK 27/20 Q1013', 'SARC 021100Z 11006KT CAVOK 25/18 Q1013', 'SARC 021000Z 14005KT CAVOK 22/18 Q1013', 'SARC 020900Z 14009KT CAVOK 22/18 Q1012', 'SARC 020800Z 09005KT CAVOK 23/18 Q1012', 'SARC 020700Z 09005KT CAVOK 23/18 Q1012', 'SARC 020600Z 14005KT CAVOK 23/18 Q1012', 'SARC 020500Z 14006KT CAVOK 23/18 Q1013', 'SARC 020400Z 14006KT CAVOK 24/18 Q1014', 'SARC 020300Z 14006KT CAVOK 24/18 Q1013', 'SARC 020200Z 14006KT 7000 NSC 25/17 Q1013', 'SARC 020100Z 14004KT 7000 NSC 25/18 Q1013', 'SARC 020000Z 16006KT 6000 NSC 26/18 Q1012', 'SARC 012300Z 14006KT 6000 NSC 28/19 Q1012', 'SARC 012200Z 16010KT CAVOK 32/16 Q1011', 'SARC 012100Z 14008KT 9999 FEW020 35/17 Q1011', 'SARC 012000Z 18013KT 9999 FEW020 35/17 Q1011', 'SARC 011900Z 16010KT 9999 SCT020 36/18 Q1012', 'SARC 011800Z 14013KT 9999 SCT020 35/18 Q1012', 'SARC 011700Z 09008KT 9999 SCT020 35/19 Q1013', 'SARC 011600Z 14005KT 9999 FEW020 35/19 Q1013', 'SARC 011500Z 11009KT CAVOK 34/19 Q1013', 'SARC 011400Z 14009KT CAVOK 32/19 Q1014', 'SARC 011300Z 11006KT CAVOK 30/19 Q1014', 'SARC 011200Z 11007KT CAVOK 28/18 Q1014', 'SARC 011100Z 11005KT CAVOK 25/18 Q1013', 'SARC 011000Z 14006KT CAVOK 22/19 Q1013', 'SARC 010900Z 14005KT CAVOK 21/19 Q1012', 'SARC 010800Z 14006KT CAVOK 21/19 Q1012', 'SARC 010700Z 14005KT CAVOK 21/20 Q1012', 'SARC 010600Z 14004KT CAVOK 23/20 Q1012', 'SARC 010500Z 14005KT CAVOK 23/21 Q1012', 'SARC 010400Z 12004KT CAVOK 25/20 Q1012', 'SARC 010300Z 11005KT CAVOK 26/20 Q1012', 'SARC 010200Z 11005KT 8000 NSC 26/21 Q1012', 'SARC 010100Z 11003KT 8000 NSC 27/21 Q1011', 'SARC 010000Z 13005KT 8000 NSC 28/21 Q1011', 'SARC 312300Z 12006KT 8000 FEW034 30/20 Q1010']","['2024-02-03 21:00:00', '2024-02-03 20:00:00', '2024-02-03 19:00:00', '2024-02-03 18:00:00', '2024-02-03 17:00:00', '2024-02-03 16:00:00', '2024-02-03 15:00:00', '2024-02-03 14:00:00', '2024-02-03 13:00:00', '2024-02-03 12:00:00', '2024-02-03 11:00:00', '2024-02-03 10:00:00', '2024-02-03 09:00:00', '2024-02-03 08:00:00', '2024-02-03 07:00:00', '2024-02-03 06:00:00', '2024-02-03 05:00:00', '2024-02-03 04:00:00', '2024-02-03 03:00:00', '2024-02-03 02:00:00', '2024-02-03 01:00:00', '2024-02-03 00:00:00', '2024-02-02 23:00:00', '2024-02-02 22:00:00', '2024-02-02 21:00:00', '2024-02-02 20:00:00', '2024-02-02 19:00:00', '2024-02-02 18:00:00', '2024-02-02 17:00:00', '2024-02-02 16:00:00', '2024-02-02 15:00:00', '2024-02-02 14:00:00', '2024-02-02 13:00:00', '2024-02-02 12:00:00', '2024-02-02 11:00:00', '2024-02-02 10:00:00', '2024-02-02 09:00:00', '2024-02-02 08:00:00', '2024-02-02 07:00:00', '2024-02-02 06:00:00', '2024-02-02 05:00:00', '2024-02-02 04:00:00', '2024-02-02 03:00:00', '2024-02-02 02:00:00', '2024-02-02 01:00:00', '2024-02-02 00:00:00', '2024-02-01 23:00:00', '2024-02-01 22:00:00', '2024-02-01 21:00:00', '2024-02-01 20:00:00', '2024-02-01 19:00:00', '2024-02-01 18:00:00', '2024-02-01 17:00:00', '2024-02-01 16:00:00', '2024-02-01 15:00:00', '2024-02-01 14:00:00', '2024-02-01 13:00:00', '2024-02-01 12:00:00', '2024-02-01 11:00:00', '2024-02-01 10:00:00', '2024-02-01 09:00:00', '2024-02-01 08:00:00', '2024-02-01 07:00:00', '2024-02-01 06:00:00', '2024-02-01 05:00:00', '2024-02-01 04:00:00', '2024-02-01 03:00:00', '2024-02-01 02:00:00', '2024-02-01 01:00:00', '2024-02-01 00:00:00', '2024-01-31 23:00:00']"
Argentina, Formosa International Airport (FMA/SARF) ,"['SARF 032100Z 09008KT 9999 FEW025 38/19 Q1007', 'SARF 032000Z 09010KT 9999 SCT025 39/19 Q1007', 'SARF 031900Z 02004KT 9999 SCT025 41/19 Q1008', 'SARF 031800Z 36007KT 9999 SCT025 40/19 Q1009', 'SARF 031600Z 02006G18KT CAVOK 39/19 Q1010', 'SARF 031500Z 36013KT CAVOK 39/16 Q1011', 'SARF 031400Z 02016KT CAVOK 37/19 Q1011', 'SARF 031300Z 36017KT CAVOK 34/19 Q1012', 'SARF 031200Z 02009KT CAVOK 31/21 Q1012', 'SARF 031100Z 02009KT CAVOK 29/21 Q1011', 'SARF 031000Z 02008KT CAVOK 26/21 Q1010', 'SARF 030900Z 02007KT CAVOK 27/21 Q1010', 'SARF 030800Z 02007KT CAVOK 28/21 Q1010', 'SARF 030700Z 05010KT CAVOK 28/22 Q1009', 'SARF 030600Z 11005KT CAVOK 26/23 Q1010', 'SARF 030500Z 11005KT CAVOK 27/23 Q1010', 'SARF 030400Z 09004KT CAVOK 28/23 Q1010', 'SARF 030300Z 09004KT CAVOK 29/23 Q1010', 'SARF 030200Z 11003KT CAVOK 29/25 Q1010', 'SARF 030100Z 09005KT CAVOK 30/24 Q1010', 'SARF 030000Z 09005KT CAVOK 31/23 Q1009', 'SARF 022300Z 09005KT 6000 NSC 33/22 Q1008', 'SARF 022200Z 09007KT 6000 NSC 35/22 Q1008', 'SARF 022100Z 11010KT 8000 FEW040 37/21 Q1008', 'SARF 022000Z 09009KT 8000 FEW040 38/19 Q1008', 'SARF 021900Z 09010KT 6000 SCT040 FEW050CB 38/19 Q1009', 'SARF 021800Z 07010KT 6000 FEW040 SCT050TCU 39/19 Q1010', 'SARF 021700Z 36005KT 6000 FEW040 SCT050TCU 38/19 Q1011', 'SARF 021600Z 36005KT 6000 SCT040 38/20 Q1011', 'SARF 021500Z 36008KT 6000 FEW040 37/20 Q1012', 'SARF 021400Z 02006KT 6000 NSC 36/21 Q1013', 'SARF 021300Z 02007KT 8000 NSC 33/21 Q1013', 'SARF 021200Z 00000KT 9000 NSC 29/23 Q1013', 'SARF 021100Z 09005KT CAVOK 25/22 Q1013', 'SARF 021000Z 14002KT CAVOK 23/21 Q1012', 'SARF 020900Z 00000KT CAVOK 24/21 Q1012', 'SARF 020800Z 00000KT CAVOK 25/21 Q1011', 'SARF 020700Z 18004KT CAVOK 25/21 Q1011', 'SARF 020600Z 00000KT CAVOK 25/21 Q1012', 'SARF 020500Z 00000KT CAVOK 26/21 Q1012', 'SARF 020400Z 21002KT CAVOK 26/21 Q1013', 'SARF 020300Z 18004KT CAVOK 27/21 Q1013', 'SARF 020200Z 14006KT CAVOK 28/21 Q1013', 'SARF 020100Z 18006KT CAVOK 29/21 Q1011', 'SARF 020000Z 18006KT CAVOK 30/21 Q1011', 'SARF 012300Z 16009KT CAVOK 32/20 Q1010', 'SARF 012200Z 16009KT CAVOK 34/20 Q1009', 'SARF 012100Z 16014KT 9999 FEW030 36/19 Q1009', 'SARF 012000Z 16006KT 9999 FEW030 37/17 Q1009', 'SARF 011900Z 11005KT 9999 FEW030 37/17 Q1010', 'SARF 011800Z 16005KT 9999 FEW030 37/19 Q1011', 'SARF 011700Z 16005KT 9999 FEW030 36/19 Q1011', 'SARF 011600Z 07005KT 9999 FEW030 36/18 Q1012', 'SARF 011500Z 09003KT CAVOK 35/21 Q1012', 'SARF 011400Z 09004KT CAVOK 33/22 Q1013', 'SARF 011300Z 14005KT CAVOK 30/21 Q1013', 'SARF 011200Z 14006KT CAVOK 28/21 Q1013', 'SARF 011100Z 18003KT CAVOK 25/21 Q1012', 'SARF 011000Z 18003KT CAVOK 22/20 Q1012', 'SARF 010900Z 16003KT CAVOK 22/21 Q1011', 'SARF 010800Z 14003KT CAVOK 23/21 Q1011', 'SARF 010700Z 20005KT CAVOK 23/21 Q1011', 'SARF 010600Z 20005KT CAVOK 24/21 Q1010', 'SARF 010500Z 00000KT CAVOK 25/22 Q1011', 'SARF 010400Z 16002KT CAVOK 25/21 Q1011', 'SARF 010300Z 16004KT CAVOK 26/21 Q1011', 'SARF 010200Z 14006KT CAVOK 27/21 Q1011', 'SARF 010100Z 18006KT CAVOK 28/21 Q1011', 'SARF 010000Z 16007KT CAVOK 30/20 Q1010', 'SARF 312300Z 15008KT CAVOK 32/21 Q1009']","['2024-02-03 21:00:00', '2024-02-03 20:00:00', '2024-02-03 19:00:00', '2024-02-03 18:00:00', '2024-02-03 16:00:00', '2024-02-03 15:00:00', '2024-02-03 14:00:00', '2024-02-03 13:00:00', '2024-02-03 12:00:00', '2024-02-03 11:00:00', '2024-02-03 10:00:00', '2024-02-03 09:00:00', '2024-02-03 08:00:00', '2024-02-03 07:00:00', '2024-02-03 06:00:00', '2024-02-03 05:00:00', '2024-02-03 04:00:00', '2024-02-03 03:00:00', '2024-02-03 02:00:00', '2024-02-03 01:00:00', '2024-02-03 00:00:00', '2024-02-02 23:00:00', '2024-02-02 22:00:00', '2024-02-02 21:00:00', '2024-02-02 20:00:00', '2024-02-02 19:00:00', '2024-02-02 18:00:00', '2024-02-02 17:00:00', '2024-02-02 16:00:00', '2024-02-02 15:00:00', '2024-02-02 14:00:00', '2024-02-02 13:00:00', '2024-02-02 12:00:00', '2024-02-02 11:00:00', '2024-02-02 10:00:00', '2024-02-02 09:00:00', '2024-02-02 08:00:00', '2024-02-02 07:00:00', '2024-02-02 06:00:00', '2024-02-02 05:00:00', '2024-02-02 04:00:00', '2024-02-02 03:00:00', '2024-02-02 02:00:00', '2024-02-02 01:00:00', '2024-02-02 00:00:00', '2024-02-01 23:00:00', '2024-02-01 22:00:00', '2024-02-01 21:00:00', '2024-02-01 20:00:00', '2024-02-01 19:00:00', '2024-02-01 18:00:00', '2024-02-01 17:00:00', '2024-02-01 16:00:00', '2024-02-01 15:00:00', '2024-02-01 14:00:00', '2024-02-01 13:00:00', '2024-02-01 12:00:00', '2024-02-01 11:00:00', '2024-02-01 10:00:00', '2024-02-01 09:00:00', '2024-02-01 08:00:00', '2024-02-01 07:00:00', '2024-02-01 06:00:00', '2024-02-01 05:00:00', '2024-02-01 04:00:00', '2024-02-01 03:00:00', '2024-02-01 02:00:00', '2024-02-01 01:00:00', '2024-02-01 00:00:00', '2024-01-31 23:00:00']"
Argentina, Jujuy Gobernador Horacio Guzman International Airport (JUJ/SASJ) ,"['SASJ 032100Z 03009KT 360V070 9999 FEW050 BKN200 36/14 Q1012', 'SASJ 032000Z 03008KT 340V080 9999 FEW050TCU SCT200 37/14 Q1012', 'SASJ 031900Z 01009KT 320V080 9999 FEW050TCU 37/11 Q1013', 'SASJ 031800Z 04011KT 010V070 9999 FEW050TCU 36/13 Q1014', 'SASJ 031700Z 04011KT 360V080 9999 FEW040 36/12 Q1014', 'SASJ 031600Z 04010KT 350V070 9999 FEW040 34/16 Q1015', 'SASJ 031500Z VRB03KT CAVOK 33/17 Q1016', 'SASJ 031400Z 04005KT 330V100 CAVOK 31/18 Q1016', 'SASJ 031300Z VRB02KT CAVOK 30/17 Q1016', 'SASJ 031200Z 34006KT CAVOK 27/18 Q1016', 'SASJ 031100Z 30006KT CAVOK 24/16 Q1015', 'SASJ 031000Z 32007KT 9999 FEW140 22/17 Q1014', 'SASJ 030900Z 32005KT 9999 FEW140 22/16 Q1014', 'SASJ 030800Z 32005KT CAVOK 23/17 Q1014', 'SASJ 030700Z 33007KT CAVOK 22/18 Q1014', 'SASJ 030600Z 31007KT CAVOK 24/18 Q1014', 'SASJ 030500Z 33008KT CAVOK 23/18 Q1015', 'SASJ 030400Z 34009KT CAVOK 23/18 Q1015', 'SASJ 030300Z 30006KT 270V330 CAVOK 25/17 Q1015', 'SASJ 030200Z 30005KT CAVOK 27/19 Q1015', 'SASJ 030100Z 32006KT CAVOK 28/18 Q1015', 'SASJ 030000Z 33005KT CAVOK 30/17 Q1014', 'SASJ 022300Z 01004KT 9999 FEW070CB SCT200 32/17 Q1013', 'SASJ 022200Z 01006KT 9999 FEW070CB BKN200 33/17 Q1013', 'SASJ 022100Z 02008KT 9999 FEW070CB SCT200 34/16 Q1013', 'SASJ 022000Z 02010KT 350V050 9999 FEW070CB 35/14 Q1013', 'SASJ 021900Z 01011KT 340V050 9999 FEW060TCU FEW070CB 36/17 Q1014', 'SASJ 021800Z 05009KT 010V100 9999 FEW060TCU 34/18 Q1015', 'SASJ 021700Z 05007KT 330V120 9999 FEW050TCU 33/17 Q1016', 'SASJ 021600Z 12005KT 050V170 9999 FEW050TCU 32/18 Q1017', 'SASJ 021500Z 13005KT 060V160 9999 FEW045 30/19 Q1018', 'SASJ 021400Z 14005KT 090V210 CAVOK 29/20 Q1018', 'SASJ 021300Z 16003KT 090V240 CAVOK 28/20 Q1019', 'SASJ 021200Z 29005KT 240V340 CAVOK 25/18 Q1019', 'SASJ 021100Z 34007KT CAVOK 23/19 Q1019', 'SASJ 021000Z 30005KT 270V330 9999 SCT060 23/19 Q1019', 'SASJ 020900Z 29004KT 9999 BKN120 23/19 Q1019', 'SASJ 020800Z 33003KT 9999 SCT060 BKN150 23/19 Q1019', 'SASJ 020700Z 32007KT 9000 TS SCT060 FEW070CB BKN140 24/18 Q1019', 'SASJ 020627Z 34006KT 9000 TS SCT060 FEW070CB BKN100 23/19 Q1019', 'SASJ 020500Z VRB03KT 9999 FEW080 BKN150 24/19 Q1018', 'SASJ 020400Z 32005KT 9999 BKN150 24/19 Q1019', 'SASJ 020300Z 32005KT 9999 BKN130 24/20 Q1019', 'SASJ 020200Z 32004KT 9999 BKN130 25/20 Q1019', 'SASJ 020100Z 29006KT 250V320 9999 FEW080 BKN130 26/20 Q1018', 'SASJ 020000Z 32008KT 9999 SCT050 BKN140 25/20 Q1017', 'SASJ 012300Z 34011KT 9999 SCT045 FEW075CB BKN200 24/21 Q1017', 'SASJ 012200Z 29008KT 260V320 9999 FEW048 FEW078CB BKN200 25/19 Q1016', 'SASJ 012134Z 32010KT 9999 FEW048 FEW078CB BKN210 25/17 Q1016 RETSRA', 'SASJ 012100Z 31012KT 8000 TSRA SCT047 SCT078CB BKN210 26/19 Q1016', 'SASJ 012022Z 11018G32KT 8000 TSRA SCT078CB BKN200 23/17 Q1015', 'SASJ 011938Z 08008KT 040V120 9999 TS SCT075CB BKN200 35/16 Q1015', 'SASJ 011900Z 01007KT 300V090 9999 FEW060TCU SCT070CB 35/16 Q1015', 'SASJ 011800Z VRB03KT 9999 SCT070CB 35/15 Q1016', 'SASJ 011700Z VRB04KT 9999 FEW060CB 33/14 Q1017', 'SASJ 011600Z 08005KT 030V120 9999 FEW050CB 32/16 Q1018', 'SASJ 011500Z VRB03KT CAVOK 31/17 Q1019', 'SASJ 011400Z VRB02KT CAVOK 28/18 Q1019', 'SASJ 011300Z 26003KT 210V330 CAVOK 25/18 Q1019', 'SASJ 011200Z VRB03KT CAVOK 25/18 Q1019', 'SASJ 011100Z 33007KT 310V010 CAVOK 22/18 Q1018', 'SASJ 011000Z 31009KT 9999 FEW065 BKN140 22/17 Q1018', 'SASJ 010900Z 31010KT 9999 BKN100 22/18 Q1018', 'SASJ 010800Z 31010KT 9999 BKN100 22/18 Q1018 RETS', 'SASJ 010700Z 27010KT 9999 FEW080 OVC100 22/18 Q1018 RETS', 'SASJ 010600Z 26007KT 9999 TS BKN080 FEW093CB OVC110 22/20 Q1018', 'SASJ 010500Z 23005KT 190V270 8000 -TSRA BKN072 FEW088CB BKN110 23/19 Q1018', 'SASJ 010443Z VRB04KT 8000 -TSRA BKN072 FEW088CB OVC110 23/20 Q1018', 'SASJ 010400Z 32006KT 9999 TS SCT065 FEW095CB BKN130 26/17 Q1017', 'SASJ 010300Z VRB01KT 9999 VCTS FEW080CB SCT100 25/18 Q1018', 'SASJ 010200Z 27003KT CAVOK 27/17 Q1016', 'SASJ 010100Z 31005KT 9999 FEW085 OVC180 27/17 Q1015', 'SASJ 010000Z 14011KT 9999 SCT083 BKN130 28/17 Q1016', 'SASJ 312300Z 28003KT 9999 FEW065CB OVC140 29/17 Q1015']","['2024-02-03 21:00:00', '2024-02-03 20:00:00', '2024-02-03 19:00:00', '2024-02-03 18:00:00', '2024-02-03 17:00:00', '2024-02-03 16:00:00', '2024-02-03 15:00:00', '2024-02-03 14:00:00', '2024-02-03 13:00:00', '2024-02-03 12:00:00', '2024-02-03 11:00:00', '2024-02-03 10:00:00', '2024-02-03 09:00:00', '2024-02-03 08:00:00', '2024-02-03 07:00:00', '2024-02-03 06:00:00', '2024-02-03 05:00:00', '2024-02-03 04:00:00', '2024-02-03 03:00:00', '2024-02-03 02:00:00', '2024-02-03 01:00:00', '2024-02-03 00:00:00', '2024-02-02 23:00:00', '2024-02-02 22:00:00', '2024-02-02 21:00:00', '2024-02-02 20:00:00', '2024-02-02 19:00:00', '2024-02-02 18:00:00', '2024-02-02 17:00:00', '2024-02-02 16:00:00', '2024-02-02 15:00:00', '2024-02-02 14:00:00', '2024-02-02 13:00:00', '2024-02-02 12:00:00', '2024-02-02 11:00:00', '2024-02-02 10:00:00', '2024-02-02 09:00:00', '2024-02-02 08:00:00', '2024-02-02 07:00:00', '2024-02-02 06:27:00', '2024-02-02 05:00:00', '2024-02-02 04:00:00', '2024-02-02 03:00:00', '2024-02-02 02:00:00', '2024-02-02 01:00:00', '2024-02-02 00:00:00', '2024-02-01 23:00:00', '2024-02-01 22:00:00', '2024-02-01 21:34:00', '2024-02-01 21:00:00', '2024-02-01 20:22:00', '2024-02-01 19:38:00', '2024-02-01 19:00:00', '2024-02-01 18:00:00', '2024-02-01 17:00:00', '2024-02-01 16:00:00', '2024-02-01 15:00:00', '2024-02-01 14:00:00', '2024-02-01 13:00:00', '2024-02-01 12:00:00', '2024-02-01 11:00:00', '2024-02-01 10:00:00', '2024-02-01 09:00:00', '2024-02-01 08:00:00', '2024-02-01 07:00:00', '2024-02-01 06:00:00', '2024-02-01 05:00:00', '2024-02-01 04:43:00', '2024-02-01 04:00:00', '2024-02-01 03:00:00', '2024-02-01 02:00:00', '2024-02-01 01:00:00', '2024-02-01 00:00:00', '2024-01-31 23:00:00']"
Armenia, Gyumri Shirak Airport (LWN/UDSG) ,"['UDSG 032130Z 12001KT 2600 BR FEW013 BKN040 M09/M10 Q1019 NOSIG', 'UDSG 032100Z 12004KT 3000 BR FEW013 BKN040 M09/M11 Q1019 NOSIG', 'UDSG 032030Z 13002KT 2500 BR FEW013 BKN040 M10/M11 Q1019 NOSIG', 'UDSG 032000Z 07001KT 2800 BR FEW013 BKN040 M10/M11 Q1020 NOSIG', 'UDSG 031930Z 04002KT 2200 BR FEW013 BKN040 M10/M11 Q1020 NOSIG', 'UDSG 031900Z 10001KT 2900 BR BKN040 M10/M12 Q1020 NOSIG', 'UDSG 031830Z 03002KT 2600 BR BKN046 M11/M13 Q1020 NOSIG', 'UDSG 031800Z 02001KT 3500 BR BKN046 M10/M12 Q1020 NOSIG', 'UDSG 031730Z 03001KT 3800 BR BKN046 M10/M12 Q1020 NOSIG', 'UDSG 031700Z 12001KT 3700 BR BKN049 M10/M12 Q1020 NOSIG', 'UDSG 031630Z 12003KT 4200 BR FEW016 BKN049 M11/M13 Q1020 NOSIG', 'UDSG 031600Z 07001KT 3800 BR FEW016 BKN049 M10/M12 Q1020 NOSIG', 'UDSG 031530Z VRB01KT 4400 BR FEW013 SCT049 M10/M12 Q1020 NOSIG', 'UDSG 031500Z 08005KT 4200 BR FEW013 SCT049 M12/M14 Q1020 NOSIG', 'UDSG 031430Z 00000KT 4200 BR SCT049 M10/M12 Q1019 NOSIG', 'UDSG 031400Z 20002KT 4800 BR SCT049 M09/M12 Q1019 NOSIG', 'UDSG 031330Z VRB02KT 4900 BR SCT049 M08/M10 Q1019 NOSIG', 'UDSG 031300Z 22001KT 5000 BR SCT049 M07/M10 Q1019 NOSIG', 'UDSG 031230Z 26002KT 6000 SCT049 M06/M10 Q1019 NOSIG', 'UDSG 031200Z 30001KT 6000 FEW016 SCT049 M07/M10 Q1019 NOSIG', 'UDSG 031130Z 28003KT 6000 FEW016 SCT049 M07/M10 Q1019 NOSIG', 'UDSG 031100Z 28003KT 5000 BR FEW016 BKN046 M07/M11 Q1019 NOSIG', 'UDSG 031030Z VRB01KT 4500 BR FEW016 BKN046 M06/M11 Q1019 NOSIG', 'UDSG 031000Z 21001KT 4200 BR FEW016 BKN046 M07/M12 Q1019 NOSIG', 'UDSG 030930Z VRB01KT 4100 BR FEW016 BKN046 M08/M13 Q1019 NOSIG', 'UDSG 030900Z 23002KT 5000 BR FEW016 BKN046 M08/M13 Q1020 NOSIG', 'UDSG 030830Z VRB01KT 5000 BR FEW016 BKN046 M08/M13 Q1020 NOSIG', 'UDSG 030800Z 00000KT 5000 BR FEW020 BKN043 M08/M13 Q1020 NOSIG', 'UDSG 030730Z VRB01KT 4900 BR FEW016 BKN043 M10/M14 Q1020 NOSIG', 'UDSG 030700Z 09002KT 4600 BR FEW013 BKN040 M11/M15 Q1020 NOSIG', 'UDSG 030630Z 11002KT 4500 BR FEW013 SCT043 M13/M16 Q1020 NOSIG', 'UDSG 030600Z 12002KT 4700 BR FEW011 SCT043 M14/M16 Q1020 NOSIG', 'UDSG 030530Z VRB01KT 3200 BR FEW043 M13/M16 Q1019 NOSIG', 'UDSG 030500Z 35003KT 4500 BR FEW043 M15/M17 Q1019 NOSIG', 'UDSG 030430Z VRB01KT 5000 BR NSC M16/M18 Q1019 NOSIG', 'UDSG 030400Z 14003KT 5000 BR NSC M18/M20 Q1018 NOSIG', 'UDSG 030330Z 00000KT 4700 BR NSC M17/M19 Q1018 NOSIG', 'UDSG 030300Z VRB01KT 4100 BR NSC M15/M17 Q1018 NOSIG', 'UDSG 030230Z 05001KT 3100 BR NSC M15/M17 Q1018 NOSIG', 'UDSG 030200Z 06004KT 4400 BR NSC M17/M19 Q1018 NOSIG', 'UDSG 030130Z VRB01KT 4400 BR NSC M16/M18 Q1018 NOSIG', 'UDSG 030100Z VRB01KT 4200 BR NSC M15/M17 Q1018 NOSIG', 'UDSG 030030Z 33001KT 4600 BR NSC M14/M17 Q1017 NOSIG', 'UDSG 030000Z 10002KT 4700 BR NSC M15/M17 Q1018 NOSIG', 'UDSG 022330Z 14002KT 3800 BR NSC M15/M18 Q1017 NOSIG', 'UDSG 022300Z 00000KT 4100 BR NSC M15/M17 Q1018 NOSIG', 'UDSG 022230Z VRB01KT 4200 BR NSC M16/M18 Q1017 NOSIG', 'UDSG 022200Z VRB01KT 3900 BR NSC M15/M18 Q1017 NOSIG', 'UDSG 022130Z VRB01KT 4300 BR NSC M16/M18 Q1017 NOSIG', 'UDSG 022100Z 14001KT 4100 BR NSC M15/M18 Q1017 NOSIG', 'UDSG 022030Z VRB01KT 5000 BR NSC M16/M19 Q1017 NOSIG', 'UDSG 022000Z 07002KT 6000 NSC M16/M19 Q1017 NOSIG', 'UDSG 021930Z 04002KT 3900 BR NSC M17/M19 Q1017 NOSIG', 'UDSG 021900Z 03002KT 3700 BR NSC M15/M17 Q1017 NOSIG', 'UDSG 021830Z 05003KT 3000 BR NSC M17/M18 Q1017 NOSIG', 'UDSG 021800Z 06005KT 3100 BR NSC M19/M21 Q1017 NOSIG', 'UDSG 021730Z 05005KT 3900 BR NSC M18/M20 Q1017 NOSIG', 'UDSG 021700Z 05004KT 3800 BR NSC M17/M19 Q1017 NOSIG', 'UDSG 021630Z 06004KT 4000 BR NSC M17/M19 Q1017 NOSIG', 'UDSG 021600Z 07004KT 3900 BR NSC M17/M19 Q1017 NOSIG', 'UDSG 021530Z 06001KT 4900 BR NSC M15/M17 Q1017 NOSIG', 'UDSG 021500Z 00000KT 5000 BR NSC M12/M15 Q1017 NOSIG', 'UDSG 021430Z 16002KT 6000 NSC M11/M15 Q1016 NOSIG', 'UDSG 021400Z VRB01KT 9000 NSC M09/M14 Q1016 NOSIG', 'UDSG 021330Z 24001KT 8000 NSC M08/M13 Q1016 NOSIG', 'UDSG 021300Z 24002KT 9000 NSC M08/M14 Q1016 NOSIG', 'UDSG 021230Z 26003KT 8000 NSC M08/M13 Q1016 NOSIG', 'UDSG 021200Z 22002KT 7000 NSC M07/M13 Q1016 NOSIG', 'UDSG 021130Z 19002KT 6000 NSC M08/M13 Q1016 NOSIG', 'UDSG 021100Z VRB01KT 7000 NSC M07/M13 Q1016 NOSIG', 'UDSG 021030Z 27002KT 6000 NSC M09/M13 Q1016 NOSIG', 'UDSG 021000Z 29002KT 5000 BR NSC M10/M14 Q1016 NOSIG', 'UDSG 020930Z 29003KT 5000 BR NSC M10/M14 Q1017 NOSIG', 'UDSG 020900Z 22001KT 5000 BR NSC M11/M14 Q1017 NOSIG', 'UDSG 020830Z 20002KT 5000 BR NSC M12/M15 Q1017 NOSIG', 'UDSG 020800Z 16001KT 6000 NSC M12/M15 Q1018 NOSIG', 'UDSG 020730Z 00000KT 5000 BR NSC M13/M16 Q1018 NOSIG', 'UDSG 020700Z 14001KT 6000 NSC M16/M18 Q1018 NOSIG', 'UDSG 020630Z 14001KT 7000 NSC M18/M20 Q1018 NOSIG', 'UDSG 020600Z 00000KT 6000 NSC M18/M20 Q1018 NOSIG', 'UDSG 020530Z 05002KT 4300 BR NSC M19/M21 Q1018 NOSIG', 'UDSG 020500Z 04003KT 6000 NSC M21/M23 Q1018 NOSIG', 'UDSG 020430Z 09002KT 8000 NSC M21/M24 Q1018 NOSIG', 'UDSG 020400Z 09001KT 7000 NSC M21/M24 Q1017 NOSIG', 'UDSG 020330Z 08002KT 7000 NSC M22/M24 Q1017 NOSIG', 'UDSG 020300Z 03002KT 5000 BR NSC M22/M25 Q1017 NOSIG', 'UDSG 020230Z 03003KT 6000 NSC M22/M24 Q1017 NOSIG', 'UDSG 020200Z VRB01KT 6000 NSC M21/M24 Q1017 NOSIG', 'UDSG 020130Z 05002KT 3400 BR NSC M19/M21 Q1017 NOSIG', 'UDSG 020100Z 04004KT 5000 BR NSC M19/M21 Q1017 NOSIG', 'UDSG 020030Z 11004KT 4000 BR NSC M22/M24 Q1018 NOSIG', 'UDSG 020000Z 07004KT 4800 BR NSC M21/M24 Q1018 NOSIG', 'UDSG 012330Z 05002KT 4200 BR NSC M21/M23 Q1018 NOSIG', 'UDSG 012300Z 05002KT 4700 BR NSC M20/M22 Q1018 NOSIG', 'UDSG 012230Z 05002KT 4400 BR NSC M20/M22 Q1018 NOSIG', 'UDSG 012200Z 07002KT 3500 BR NSC M19/M21 Q1018 NOSIG', 'UDSG 012130Z 05003KT 5000 BR NSC M20/M23 Q1019 NOSIG', 'UDSG 012100Z 05004KT 3300 BR NSC M20/M22 Q1019 NOSIG', 'UDSG 012030Z 06002KT 4200 BR NSC M19/M22 Q1019 NOSIG', 'UDSG 012000Z 06002KT 4700 BR NSC M18/M20 Q1019 NOSIG', 'UDSG 011930Z 05003KT 4100 BR NSC M18/M21 Q1019 NOSIG', 'UDSG 011900Z 06003KT 3100 BR NSC M20/M21 Q1019 NOSIG', 'UDSG 011830Z 04004KT 3500 BR NSC M19/M21 Q1020 NOSIG', 'UDSG 011800Z 06004KT 3800 BR NSC M17/M18 Q1020 NOSIG', 'UDSG 011730Z 05005KT 2700 BR NSC M17/M19 Q1020 NOSIG', 'UDSG 011700Z 07003KT 5000 BR NSC M18/M20 Q1020 NOSIG', 'UDSG 011630Z 07001KT 7000 NSC M16/M19 Q1020 NOSIG', 'UDSG 011600Z 08003KT 9999 NSC M16/M18 Q1020 NOSIG', 'UDSG 011530Z 12001KT 9000 NSC M15/M18 Q1020 NOSIG', 'UDSG 011500Z 00000KT 9000 NSC M12/M15 Q1020 NOSIG', 'UDSG 011430Z 20001KT 9999 NSC M11/M14 Q1020 NOSIG', 'UDSG 011400Z 23001KT 9999 NSC M08/M14 Q1020 NOSIG', 'UDSG 011330Z 00000KT 9999 NSC M06/M14 Q1020 NOSIG', 'UDSG 011300Z 00000KT 9999 NSC M06/M13 Q1020 NOSIG', 'UDSG 011230Z 29001KT 9999 NSC M07/M13 Q1020 NOSIG', 'UDSG 011200Z 17002KT 9999 NSC M07/M13 Q1020 NOSIG', 'UDSG 011130Z 16002KT 9999 NSC M07/M13 Q1020 NOSIG', 'UDSG 011100Z 15001KT 9999 FEW049 M07/M14 Q1020 NOSIG', 'UDSG 011030Z 15001KT 9999 FEW049 M07/M13 Q1021 NOSIG', 'UDSG 011000Z 00000KT 9000 FEW043 M08/M12 Q1021 NOSIG', 'UDSG 010930Z 18002KT 6000 FEW043 M09/M12 Q1021 NOSIG', 'UDSG 010900Z VRB01KT 6000 FEW043 M10/M12 Q1022 NOSIG', 'UDSG 010830Z 15002KT 4700 BR FEW043 M11/M13 Q1022 NOSIG', 'UDSG 010800Z 07001KT 4500 BR FEW043 M11/M13 Q1023 NOSIG', 'UDSG 010730Z VRB01KT 4400 BR FEW040 M12/M14 Q1023 NOSIG', 'UDSG 010700Z 11002KT 3300 BR FEW040 M14/M16 Q1023 NOSIG', 'UDSG 010630Z 05001KT 3400 BR SCT033 M16/M18 Q1023 NOSIG', 'UDSG 010600Z 04001KT 0300 R02/0375N FZFG VV004 M19/M22 Q1023 TEMPO 1500 BR OVC010', 'UDSG 010530Z 05003KT 0100 R02/0125N FZFG VV003 M21/M24 Q1023 TEMPO 1500 BR OVC010', 'UDSG 010500Z 08002KT 0800 R02/0800D FZFG VV003 M21/M24 Q1023 TEMPO 1500 BR OVC010', 'UDSG 010430Z 05003KT 020V090 0650 R02/0650U FZFG VV002 M21/M23 Q1023 TEMPO 1500 BR OVC010', 'UDSG 010400Z 05004KT 0050 R02/0300U FZFG VV001 M22/M24 Q1023 NOSIG', 'UDSG 010330Z 08002KT 0050 R02/0250N FZFG VV001 M22/M24 Q1023 NOSIG', 'UDSG 010300Z 08003KT 5000 BR FEW049 M22/M24 Q1023 NOSIG', 'UDSG 010230Z 04004KT 4100 BR FEW049 M22/M25 Q1024 NOSIG', 'UDSG 010200Z 03001KT 4100 BR FEW049 M19/M21 Q1024 NOSIG', 'UDSG 010130Z 05001KT 3700 BR FEW049 M21/M23 Q1024 NOSIG', 'UDSG 010100Z 04001KT 3700 BR FEW049 M20/M22 Q1024 NOSIG', 'UDSG 010030Z 05001KT 3400 BR FEW049 M19/M21 Q1024 NOSIG', 'UDSG 010000Z 04002KT 3400 BR FEW049 M20/M22 Q1024 NOSIG', 'UDSG 312330Z 04003KT 3400 BR FEW049 M20/M22 Q1024 NOSIG', 'UDSG 312300Z 06005KT 3400 BR FEW049 M22/M24 Q1025 NOSIG', 'UDSG 312230Z 08003KT 3200 BR NSC M21/M24 Q1025 NOSIG']","['2024-02-03 21:30:00', '2024-02-03 21:00:00', '2024-02-03 20:30:00', '2024-02-03 20:00:00', '2024-02-03 19:30:00', '2024-02-03 19:00:00', '2024-02-03 18:30:00', '2024-02-03 18:00:00', '2024-02-03 17:30:00', '2024-02-03 17:00:00', '2024-02-03 16:30:00', '2024-02-03 16:00:00', '2024-02-03 15:30:00', '2024-02-03 15:00:00', '2024-02-03 14:30:00', '2024-02-03 14:00:00', '2024-02-03 13:30:00', '2024-02-03 13:00:00', '2024-02-03 12:30:00', '2024-02-03 12:00:00', '2024-02-03 11:30:00', '2024-02-03 11:00:00', '2024-02-03 10:30:00', '2024-02-03 10:00:00', '2024-02-03 09:30:00', '2024-02-03 09:00:00', '2024-02-03 08:30:00', '2024-02-03 08:00:00', '2024-02-03 07:30:00', '2024-02-03 07:00:00', '2024-02-03 06:30:00', '2024-02-03 06:00:00', '2024-02-03 05:30:00', '2024-02-03 05:00:00', '2024-02-03 04:30:00', '2024-02-03 04:00:00', '2024-02-03 03:30:00', '2024-02-03 03:00:00', '2024-02-03 02:30:00', '2024-02-03 02:00:00', '2024-02-03 01:30:00', '2024-02-03 01:00:00', '2024-02-03 00:30:00', '2024-02-03 00:00:00', '2024-02-02 23:30:00', '2024-02-02 23:00:00', '2024-02-02 22:30:00', '2024-02-02 22:00:00', '2024-02-02 21:30:00', '2024-02-02 21:00:00', '2024-02-02 20:30:00', '2024-02-02 20:00:00', '2024-02-02 19:30:00', '2024-02-02 19:00:00', '2024-02-02 18:30:00', '2024-02-02 18:00:00', '2024-02-02 17:30:00', '2024-02-02 17:00:00', '2024-02-02 16:30:00', '2024-02-02 16:00:00', '2024-02-02 15:30:00', '2024-02-02 15:00:00', '2024-02-02 14:30:00', '2024-02-02 14:00:00', '2024-02-02 13:30:00', '2024-02-02 13:00:00', '2024-02-02 12:30:00', '2024-02-02 12:00:00', '2024-02-02 11:30:00', '2024-02-02 11:00:00', '2024-02-02 10:30:00', '2024-02-02 10:00:00', '2024-02-02 09:30:00', '2024-02-02 09:00:00', '2024-02-02 08:30:00', '2024-02-02 08:00:00', '2024-02-02 07:30:00', '2024-02-02 07:00:00', '2024-02-02 06:30:00', '2024-02-02 06:00:00', '2024-02-02 05:30:00', '2024-02-02 05:00:00', '2024-02-02 04:30:00', '2024-02-02 04:00:00', '2024-02-02 03:30:00', '2024-02-02 03:00:00', '2024-02-02 02:30:00', '2024-02-02 02:00:00', '2024-02-02 01:30:00', '2024-02-02 01:00:00', '2024-02-02 00:30:00', '2024-02-02 00:00:00', '2024-02-01 23:30:00', '2024-02-01 23:00:00', '2024-02-01 22:30:00', '2024-02-01 22:00:00', '2024-02-01 21:30:00', '2024-02-01 21:00:00', '2024-02-01 20:30:00', '2024-02-01 20:00:00', '2024-02-01 19:30:00', '2024-02-01 19:00:00', '2024-02-01 18:30:00', '2024-02-01 18:00:00', '2024-02-01 17:30:00', '2024-02-01 17:00:00', '2024-02-01 16:30:00', '2024-02-01 16:00:00', '2024-02-01 15:30:00', '2024-02-01 15:00:00', '2024-02-01 14:30:00', '2024-02-01 14:00:00', '2024-02-01 13:30:00', '2024-02-01 13:00:00', '2024-02-01 12:30:00', '2024-02-01 12:00:00', '2024-02-01 11:30:00', '2024-02-01 11:00:00', '2024-02-01 10:30:00', '2024-02-01 10:00:00', '2024-02-01 09:30:00', '2024-02-01 09:00:00', '2024-02-01 08:30:00', '2024-02-01 08:00:00', '2024-02-01 07:30:00', '2024-02-01 07:00:00', '2024-02-01 06:30:00', '2024-02-01 06:00:00', '2024-02-01 05:30:00', '2024-02-01 05:00:00', '2024-02-01 04:30:00', '2024-02-01 04:00:00', '2024-02-01 03:30:00', '2024-02-01 03:00:00', '2024-02-01 02:30:00', '2024-02-01 02:00:00', '2024-02-01 01:30:00', '2024-02-01 01:00:00', '2024-02-01 00:30:00', '2024-02-01 00:00:00', '2024-01-31 23:30:00', '2024-01-31 23:00:00', '2024-01-31 22:30:00']"
Armenia, Yerevan Zvartnots International Airport (EVN/UDYZ) ,"['UDYZ 032130Z 18001KT 1800 R09/P2000N BR SCT021 M02/M03 Q1022 NOSIG', 'UDYZ 032100Z 00000KT 2300 BR SCT021 M01/M03 Q1022 NOSIG', 'UDYZ 032030Z 18001KT 2300 BR SCT027 M01/M03 Q1022 NOSIG', 'UDYZ 032000Z 00000KT 2300 BR SCT027 M01/M03 Q1022 NOSIG', 'UDYZ 031930Z 13002KT 2300 BR BKN025 M01/M03 Q1022 NOSIG', 'UDYZ 031900Z 00000KT 3500 BR BKN046 M01/M04 Q1022 NOSIG', 'UDYZ 031830Z 00000KT 3500 -SN BR BKN046 M01/M04 Q1023 NOSIG', 'UDYZ 031800Z 26001KT 3500 BR FEW046 M01/M04 Q1023 NOSIG', 'UDYZ 031730Z 22002KT 3500 BR NSC M01/M04 Q1023 NOSIG', 'UDYZ 031700Z 26001KT 3500 BR NSC M01/M04 Q1022 NOSIG', 'UDYZ 031630Z 28001KT 6000 FEW043 M01/M04 Q1023 NOSIG', 'UDYZ 031600Z 00000KT 6000 FEW043 M01/M04 Q1022 NOSIG', 'UDYZ 031530Z 35002KT 6000 FEW043 M01/M04 Q1022 NOSIG', 'UDYZ 031500Z 35002KT 6000 FEW043 M01/M04 Q1022 NOSIG', 'UDYZ 031430Z 29001KT 6000 FEW043 M00/M05 Q1022 NOSIG', 'UDYZ 031400Z 33001KT 6000 FEW043 M00/M05 Q1022 NOSIG', 'UDYZ 031330Z 35001KT 6000 FEW043 00/M05 Q1022 NOSIG', 'UDYZ 031300Z VRB02KT 6000 FEW043 00/M05 Q1022 NOSIG', 'UDYZ 031230Z 32002KT 6000 SCT043 00/M05 Q1022 NOSIG', 'UDYZ 031200Z 00000KT 6000 SCT043 01/M07 Q1022 NOSIG', 'UDYZ 031130Z VRB01KT 6000 SCT033 00/M06 Q1021 NOSIG', 'UDYZ 031100Z VRB02KT 6000 SCT033 00/M07 Q1021 NOSIG', 'UDYZ 031030Z 22003KT 6000 BKN028 00/M07 Q1022 NOSIG', 'UDYZ 031000Z VRB01KT 6000 BKN028 00/M06 Q1022 NOSIG', 'UDYZ 030930Z 00000KT 6000 FEW024 M00/M07 Q1022 NOSIG', 'UDYZ 030900Z VRB01KT 6000 FEW030 M00/M06 Q1023 NOSIG', 'UDYZ 030830Z VRB01KT 6000 SCT030 M01/M06 Q1023 NOSIG', 'UDYZ 030800Z VRB01KT 3500 BR BKN030 M02/M06 Q1023 NOSIG', 'UDYZ 030730Z VRB01KT 3500 BR BKN030 M03/M07 Q1023 NOSIG', 'UDYZ 030700Z VRB01KT 3500 BR BKN030 M04/M07 Q1023 NOSIG', 'UDYZ 030630Z VRB01KT 3000 BR BKN032 M05/M07 Q1023 NOSIG', 'UDYZ 030600Z 16002KT 3000 BR BKN032 M06/M08 Q1023 NOSIG', 'UDYZ 030530Z 00000KT 3000 BR BKN033 M06/M08 Q1023 NOSIG', 'UDYZ 030500Z 00000KT 3000 BR SCT031 M07/M09 Q1022 NOSIG', 'UDYZ 030430Z 31001KT 2300 BR SCT031 M09/M10 Q1022 NOSIG', 'UDYZ 030400Z 00000KT 2300 BR SCT031 M09/M10 Q1021 NOSIG', 'UDYZ 030330Z 13001KT 2000 R09/P2000N BR SCT030 M09/M10 Q1021 NOSIG', 'UDYZ 030300Z 08001KT 2000 R09/P2000N BR SCT030 M08/M10 Q1021 NOSIG', 'UDYZ 030230Z 09001KT 2000 R09/P2000N BR SCT028 M08/M09 Q1021 NOSIG', 'UDYZ 030200Z 00000KT 2000 R09/P2000N BR SCT009 M09/M10 Q1021 NOSIG', 'UDYZ 030130Z 00000KT 2000 R09/P2000N BR SCT001 M08/M10 Q1021 NOSIG', 'UDYZ 030100Z 00000KT 2000 R09/P2000N BR SCT016 M07/M09 Q1021 NOSIG', 'UDYZ 030030Z 00000KT 2300 BR SCT029 M07/M08 Q1020 NOSIG', 'UDYZ 030000Z 00000KT 2300 BR SCT030 M07/M09 Q1020 NOSIG', 'UDYZ 022330Z 16001KT 2300 BR SCT030 M07/M08 Q1020 NOSIG', 'UDYZ 022300Z 11001KT 2300 BR SCT030 M07/M08 Q1020 NOSIG', 'UDYZ 022230Z 09001KT 2300 BR SCT030 M06/M08 Q1020 NOSIG', 'UDYZ 022200Z 13002KT 2000 R09/P2000N BR SCT026 M06/M09 Q1020 NOSIG', 'UDYZ 022130Z 01002KT 3500 BR FEW027 M05/M10 Q1020 NOSIG', 'UDYZ 022100Z 02003KT 3500 BR FEW025 M05/M09 Q1020 NOSIG', 'UDYZ 022030Z 04001KT 3500 BR FEW032 M05/M09 Q1020 NOSIG', 'UDYZ 022000Z 05003KT 6000 FEW030 M04/M09 Q1020 NOSIG', 'UDYZ 021930Z 04004KT 6000 FEW031 M04/M09 Q1020 NOSIG', 'UDYZ 021900Z 03004KT 6000 FEW031 M04/M08 Q1020 NOSIG', 'UDYZ 021830Z 01001KT 6000 FEW032 M04/M08 Q1020 NOSIG', 'UDYZ 021800Z 01002KT 6000 FEW032 M04/M07 Q1020 NOSIG', 'UDYZ 021730Z 00000KT 6000 FEW032 M04/M07 Q1020 NOSIG', 'UDYZ 021700Z 00000KT 6000 FEW032 M03/M07 Q1019 NOSIG', 'UDYZ 021630Z 00000KT 6000 FEW030 M02/M07 Q1019 NOSIG', 'UDYZ 021600Z 00000KT 6000 FEW030 M02/M08 Q1019 NOSIG', 'UDYZ 021530Z 00000KT 6000 FEW031 M02/M07 Q1019 NOSIG', 'UDYZ 021500Z 21001KT 9999 FEW033 M01/M07 Q1019 NOSIG', 'UDYZ 021430Z 22002KT 9999 FEW032 M00/M08 Q1019 NOSIG', 'UDYZ 021400Z 21002KT 9999 NSC 00/M09 Q1018 NOSIG', 'UDYZ 021330Z VRB02KT 9999 NSC 01/M09 Q1018 NOSIG', 'UDYZ 021300Z VRB02KT 9999 NSC 01/M08 Q1018 NOSIG', 'UDYZ 021230Z 19003KT 9999 NSC 01/M09 Q1018 NOSIG', 'UDYZ 021200Z 16003KT 110V200 9999 NSC 01/M08 Q1018 NOSIG', 'UDYZ 021130Z VRB02KT 9999 FEW030 01/M08 Q1018 NOSIG', 'UDYZ 021100Z 14004KT 030V190 9999 FEW024 01/M08 Q1018 NOSIG', 'UDYZ 021030Z VRB01KT 6000 FEW025 01/M08 Q1019 NOSIG', 'UDYZ 021000Z VRB02KT 6000 FEW027 00/M08 Q1019 NOSIG', 'UDYZ 020930Z VRB02KT 6000 FEW026 M00/M07 Q1019 NOSIG', 'UDYZ 020900Z VRB02KT 6000 FEW026 M01/M07 Q1020 NOSIG', 'UDYZ 020830Z 00000KT 6000 FEW020 M02/M08 Q1020 NOSIG', 'UDYZ 020800Z VRB01KT 3500 BR FEW021 M02/M07 Q1020 NOSIG', 'UDYZ 020730Z 17003KT 3500 BR FEW019 M03/M07 Q1020 NOSIG', 'UDYZ 020700Z 17001KT 3000 BR FEW020 M04/M07 Q1020 NOSIG', 'UDYZ 020630Z 18001KT 2300 BR FEW020 M06/M07 Q1021 NOSIG', 'UDYZ 020600Z 00000KT 3000 BR FEW021 M06/M08 Q1021 NOSIG', 'UDYZ 020530Z 00000KT 2300 BR SCT021 M08/M09 Q1021 NOSIG', 'UDYZ 020500Z 00000KT 2000 0050E R09/2000N BCFG SCT014 M09/M11 Q1020 NOSIG', 'UDYZ 020430Z 00000KT 0100 0050N R09/0175N FZFG VV005 M10/M12 Q1020 NOSIG', 'UDYZ 020400Z 00000KT 0050 R09/0200N FZFG VV002 M10/M11 Q1020 NOSIG', 'UDYZ 020330Z 12001KT 0450 0050N R09/P2000D FZFG VV010 M10/M11 Q1020 NOSIG', 'UDYZ 020300Z 00000KT 2000 0050N R09/P2000N BCFG SCT023 M09/M10 Q1020 TEMPO 0200 FZFG VV001', 'UDYZ 020230Z 00000KT 3000 BR FEW022 M08/M09 Q1020 NOSIG', 'UDYZ 020200Z 00000KT 3500 BR FEW022 M08/M10 Q1020 NOSIG', 'UDYZ 020130Z 00000KT 3500 BR FEW023 M08/M10 Q1020 NOSIG', 'UDYZ 020100Z 00000KT 3500 BR FEW023 M07/M09 Q1020 NOSIG', 'UDYZ 020030Z 00000KT 3500 BR FEW023 M07/M09 Q1020 NOSIG', 'UDYZ 020000Z 00000KT 3500 BR FEW023 M07/M09 Q1020 NOSIG', 'UDYZ 012330Z 00000KT 3500 BR FEW022 M06/M09 Q1021 NOSIG', 'UDYZ 012300Z 00000KT 3500 BR FEW022 M07/M09 Q1021 NOSIG', 'UDYZ 012230Z 10001KT 3500 BR FEW023 M06/M08 Q1021 NOSIG', 'UDYZ 012200Z 10001KT 3500 BR FEW023 M06/M08 Q1021 NOSIG', 'UDYZ 012130Z 09001KT 3500 BR FEW023 M06/M08 Q1021 NOSIG', 'UDYZ 012100Z 12002KT 3500 BR FEW022 M05/M08 Q1021 NOSIG', 'UDYZ 012030Z 14002KT 3500 BR NSC M05/M07 Q1021 NOSIG', 'UDYZ 012000Z VRB02KT 3500 BR NSC M04/M07 Q1021 NOSIG', 'UDYZ 011930Z 04004KT 3500 BR NSC M04/M08 Q1021 NOSIG', 'UDYZ 011900Z 05002KT 3500 BR NSC M04/M07 Q1022 NOSIG', 'UDYZ 011830Z 03001KT 3500 BR NSC M04/M07 Q1022 NOSIG', 'UDYZ 011800Z 02001KT 3500 BR NSC M04/M06 Q1022 NOSIG', 'UDYZ 011730Z 00000KT 3500 BR NSC M03/M06 Q1022 NOSIG', 'UDYZ 011700Z 00000KT 6000 NSC M02/M06 Q1022 NOSIG', 'UDYZ 011630Z VRB01KT 6000 NSC M03/M06 Q1022 NOSIG', 'UDYZ 011600Z 34002KT 6000 NSC M02/M06 Q1022 NOSIG', 'UDYZ 011530Z 29002KT 6000 NSC M02/M06 Q1022 NOSIG', 'UDYZ 011500Z 27003KT 6000 NSC M01/M06 Q1022 NOSIG', 'UDYZ 011430Z 26003KT 6000 NSC M00/M06 Q1022 NOSIG', 'UDYZ 011400Z 25004KT 6000 NSC 00/M06 Q1022 NOSIG', 'UDYZ 011330Z 25005KT 6000 FEW029 01/M07 Q1022 NOSIG', 'UDYZ 011300Z 23004KT 200V270 6000 FEW029 01/M06 Q1022 NOSIG', 'UDYZ 011230Z 22002KT 6000 FEW027 02/M07 Q1022 NOSIG', 'UDYZ 011200Z VRB01KT 6000 FEW027 02/M07 Q1022 NOSIG', 'UDYZ 011130Z VRB01KT 6000 NSC 02/M06 Q1022 NOSIG', 'UDYZ 011100Z VRB01KT 6000 NSC 02/M07 Q1023 NOSIG', 'UDYZ 011030Z 00000KT 6000 NSC 02/M06 Q1023 NOSIG', 'UDYZ 011000Z VRB01KT 6000 NSC 01/M06 Q1023 NOSIG', 'UDYZ 010930Z VRB01KT 6000 NSC 00/M07 Q1024 NOSIG', 'UDYZ 010900Z VRB01KT 6000 NSC M01/M07 Q1024 NOSIG', 'UDYZ 010830Z VRB02KT 6000 NSC M01/M07 Q1025 NOSIG', 'UDYZ 010800Z 25001KT 6000 NSC M02/M07 Q1025 NOSIG', 'UDYZ 010730Z 23001KT 3500 BR NSC M03/M07 Q1025 NOSIG', 'UDYZ 010700Z 00000KT 3500 BR NSC M04/M08 Q1026 NOSIG', 'UDYZ 010630Z 00000KT 3500 BR FEW028 M05/M08 Q1026 NOSIG', 'UDYZ 010600Z 00000KT 3500 BR FEW028 M06/M08 Q1026 NOSIG', 'UDYZ 010530Z 19001KT 3500 BR FEW028 M07/M09 Q1026 NOSIG', 'UDYZ 010500Z 15001KT 3500 BR NSC M07/M09 Q1026 NOSIG', 'UDYZ 010430Z 00000KT 3500 BR NSC M08/M10 Q1026 NOSIG', 'UDYZ 010400Z 00000KT 3500 BR NSC M08/M09 Q1026 NOSIG', 'UDYZ 010330Z 25001KT 6000 NSC M07/M09 Q1026 NOSIG', 'UDYZ 010300Z 00000KT 6000 NSC M07/M09 Q1026 NOSIG', 'UDYZ 010230Z VRB01KT 6000 FEW046 M07/M09 Q1026 NOSIG', 'UDYZ 010200Z VRB01KT 6000 FEW036 M06/M09 Q1026 NOSIG', 'UDYZ 010130Z 00000KT 6000 SCT026 M07/M08 Q1026 NOSIG', 'UDYZ 010100Z 00000KT 6000 SCT024 M07/M09 Q1026 NOSIG', 'UDYZ 010030Z 00000KT 6000 SCT023 M07/M09 Q1026 NOSIG', 'UDYZ 010000Z 03001KT 6000 SCT023 M07/M09 Q1027 NOSIG', 'UDYZ 312330Z 00000KT 6000 SCT022 M06/M09 Q1027 NOSIG', 'UDYZ 312300Z 20001KT 3500 BR SCT023 M06/M08 Q1027 NOSIG', 'UDYZ 312230Z 00000KT 3500 BR FEW023 M06/M08 Q1027 NOSIG']","['2024-02-03 21:30:00', '2024-02-03 21:00:00', '2024-02-03 20:30:00', '2024-02-03 20:00:00', '2024-02-03 19:30:00', '2024-02-03 19:00:00', '2024-02-03 18:30:00', '2024-02-03 18:00:00', '2024-02-03 17:30:00', '2024-02-03 17:00:00', '2024-02-03 16:30:00', '2024-02-03 16:00:00', '2024-02-03 15:30:00', '2024-02-03 15:00:00', '2024-02-03 14:30:00', '2024-02-03 14:00:00', '2024-02-03 13:30:00', '2024-02-03 13:00:00', '2024-02-03 12:30:00', '2024-02-03 12:00:00', '2024-02-03 11:30:00', '2024-02-03 11:00:00', '2024-02-03 10:30:00', '2024-02-03 10:00:00', '2024-02-03 09:30:00', '2024-02-03 09:00:00', '2024-02-03 08:30:00', '2024-02-03 08:00:00', '2024-02-03 07:30:00', '2024-02-03 07:00:00', '2024-02-03 06:30:00', '2024-02-03 06:00:00', '2024-02-03 05:30:00', '2024-02-03 05:00:00', '2024-02-03 04:30:00', '2024-02-03 04:00:00', '2024-02-03 03:30:00', '2024-02-03 03:00:00', '2024-02-03 02:30:00', '2024-02-03 02:00:00', '2024-02-03 01:30:00', '2024-02-03 01:00:00', '2024-02-03 00:30:00', '2024-02-03 00:00:00', '2024-02-02 23:30:00', '2024-02-02 23:00:00', '2024-02-02 22:30:00', '2024-02-02 22:00:00', '2024-02-02 21:30:00', '2024-02-02 21:00:00', '2024-02-02 20:30:00', '2024-02-02 20:00:00', '2024-02-02 19:30:00', '2024-02-02 19:00:00', '2024-02-02 18:30:00', '2024-02-02 18:00:00', '2024-02-02 17:30:00', '2024-02-02 17:00:00', '2024-02-02 16:30:00', '2024-02-02 16:00:00', '2024-02-02 15:30:00', '2024-02-02 15:00:00', '2024-02-02 14:30:00', '2024-02-02 14:00:00', '2024-02-02 13:30:00', '2024-02-02 13:00:00', '2024-02-02 12:30:00', '2024-02-02 12:00:00', '2024-02-02 11:30:00', '2024-02-02 11:00:00', '2024-02-02 10:30:00', '2024-02-02 10:00:00', '2024-02-02 09:30:00', '2024-02-02 09:00:00', '2024-02-02 08:30:00', '2024-02-02 08:00:00', '2024-02-02 07:30:00', '2024-02-02 07:00:00', '2024-02-02 06:30:00', '2024-02-02 06:00:00', '2024-02-02 05:30:00', '2024-02-02 05:00:00', '2024-02-02 04:30:00', '2024-02-02 04:00:00', '2024-02-02 03:30:00', '2024-02-02 03:00:00', '2024-02-02 02:30:00', '2024-02-02 02:00:00', '2024-02-02 01:30:00', '2024-02-02 01:00:00', '2024-02-02 00:30:00', '2024-02-02 00:00:00', '2024-02-01 23:30:00', '2024-02-01 23:00:00', '2024-02-01 22:30:00', '2024-02-01 22:00:00', '2024-02-01 21:30:00', '2024-02-01 21:00:00', '2024-02-01 20:30:00', '2024-02-01 20:00:00', '2024-02-01 19:30:00', '2024-02-01 19:00:00', '2024-02-01 18:30:00', '2024-02-01 18:00:00', '2024-02-01 17:30:00', '2024-02-01 17:00:00', '2024-02-01 16:30:00', '2024-02-01 16:00:00', '2024-02-01 15:30:00', '2024-02-01 15:00:00', '2024-02-01 14:30:00', '2024-02-01 14:00:00', '2024-02-01 13:30:00', '2024-02-01 13:00:00', '2024-02-01 12:30:00', '2024-02-01 12:00:00', '2024-02-01 11:30:00', '2024-02-01 11:00:00', '2024-02-01 10:30:00', '2024-02-01 10:00:00', '2024-02-01 09:30:00', '2024-02-01 09:00:00', '2024-02-01 08:30:00', '2024-02-01 08:00:00', '2024-02-01 07:30:00', '2024-02-01 07:00:00', '2024-02-01 06:30:00', '2024-02-01 06:00:00', '2024-02-01 05:30:00', '2024-02-01 05:00:00', '2024-02-01 04:30:00', '2024-02-01 04:00:00', '2024-02-01 03:30:00', '2024-02-01 03:00:00', '2024-02-01 02:30:00', '2024-02-01 02:00:00', '2024-02-01 01:30:00', '2024-02-01 01:00:00', '2024-02-01 00:30:00', '2024-02-01 00:00:00', '2024-01-31 23:30:00', '2024-01-31 23:00:00', '2024-01-31 22:30:00']"
Aruba, Oranjestad Queen Beatrix International Airport (AUA/TNCA) ,"['TNCA 032200Z 07010KT 9999 BKN018 28/24 Q1009 NOSIG', 'TNCA 032100Z 08013KT 9999 SCT021 29/24 Q1008 NOSIG', 'TNCA 032000Z 07011KT 9999 BKN021 29/24 Q1009 NOSIG', 'TNCA 031900Z 08010KT 030V110 9999 VCSH BKN022 29/24 Q1009 NOSIG', 'TNCA 031800Z 09010KT 9999 BKN022 29/24 Q1010 NOSIG', 'TNCA 031700Z 11011KT 9999 BKN023 29/23 Q1011 NOSIG', 'TNCA 031600Z 08013KT 9999 BKN021 30/24 Q1011 NOSIG', 'TNCA 031500Z 10014KT 9999 BKN021 30/24 Q1012 NOSIG', 'TNCA 031400Z 10013KT 9999 BKN018 29/24 Q1012 NOSIG', 'TNCA 031300Z 09010KT 9999 BKN020 28/25 Q1011 NOSIG', 'TNCA 031200Z 08007KT 9999 FEW015 27/24 Q1011 NOSIG', 'TNCA 031100Z 09009KT 9999 SCT015 27/24 Q1010 NOSIG', 'TNCA 031000Z 09008KT 9999 SCT015 27/24 Q1010 NOSIG', 'TNCA 030900Z 07009KT 9999 FEW016 27/24 Q1009 NOSIG', 'TNCA 030800Z 07009KT 9999 FEW016 27/24 Q1009 NOSIG', 'TNCA 030700Z 09009KT 9999 SCT017 27/24 Q1010 NOSIG', 'TNCA 030600Z 09009KT 9999 SCT017 27/24 Q1010 NOSIG', 'TNCA 030300Z 08011KT 9999 SCT017 27/24 Q1011 NOSIG', 'TNCA 030200Z 07012KT 9999 SCT017 27/24 Q1011 NOSIG', 'TNCA 030100Z 07011KT 9999 BKN017 27/24 Q1011 NOSIG', 'TNCA 030000Z 07011KT 9999 BKN016 27/24 Q1010 NOSIG', 'TNCA 022300Z 06013KT 9999 BKN016 28/24 Q1010 NOSIG', 'TNCA 022200Z 06013KT 9999 BKN015 28/24 Q1010 NOSIG', 'TNCA 022100Z 08014KT 9999 SCT018 29/24 Q1009 NOSIG', 'TNCA 022000Z 06013KT 9999 SCT019 29/23 Q1010 NOSIG', 'TNCA 021900Z 08013KT 9999 BKN019 31/24 Q1010 NOSIG', 'TNCA 021800Z 08012KT 9999 BKN022 30/24 Q1011 NOSIG', 'TNCA 021700Z 08014KT 9999 BKN022 30/24 Q1012 NOSIG', 'TNCA 021600Z 09013KT 9999 BKN021 30/24 Q1013 NOSIG', 'TNCA 021500Z 08012KT 9999 SCT020 29/24 Q1013 NOSIG', 'TNCA 021400Z 08013KT 9999 SCT019 29/24 Q1013 NOSIG', 'TNCA 021300Z 08012KT 9999 SCT017 28/24 Q1013 NOSIG', 'TNCA 021200Z 08008KT 9999 SCT017 27/24 Q1012 NOSIG', 'TNCA 021100Z 08007KT 9999 FEW017 26/24 Q1011 NOSIG', 'TNCA 021000Z 08008KT 9999 FEW017 26/24 Q1011 NOSIG', 'TNCA 020900Z 06007KT 9999 FEW017 27/24 Q1011 NOSIG', 'TNCA 020800Z 07009KT 9999 FEW017 27/24 Q1011 NOSIG', 'TNCA 020700Z 07009KT 9999 SCT017 27/24 Q1011 NOSIG', 'TNCA 020600Z 07010KT 9999 SCT017 27/24 Q1012 NOSIG', 'TNCA 020500Z 07009KT 9999 SCT017 27/24 Q1012 NOSIG', 'TNCA 020400Z 07009KT 9999 BKN017 27/24 Q1013 NOSIG', 'TNCA 020300Z 06009KT 9999 BKN017 27/24 Q1013 NOSIG', 'TNCA 020200Z 07009KT 9999 BKN017 27/24 Q1013 NOSIG', 'TNCA 020100Z 06013KT 9999 SCT016 27/24 Q1012 NOSIG', 'TNCA 020000Z 06013KT 9999 SCT 1600FT 27/24 Q1011 NOSIG', 'TNCA 012300Z 06011KT 9999 SCT 1600FT 27/24 Q1011 NOSIG', 'TNCA 012200Z 06014KT 9999 SCT017 28/24 Q1011 NOSIG', 'TNCA 012100Z 06012KT 9999 SCT017 28/24 Q1011 NOSIG', 'TNCA 012000Z 06013KT 9999 SCT020 29/24 Q1011 NOSIG', 'TNCA 011900Z 07013KT 040V100 9999 BKN020 29/24 Q1011 NOSIG', 'TNCA 011800Z 07013KT 9999 BKN022 29/23 Q1012 NOSIG', 'TNCA 011700Z 08015KT 040V100 9999 SCT020 29/23 Q1013 NOSIG', 'TNCA 011400Z 09013KT 9999 SCT020 29/23 Q1014 NOSIG', 'TNCA 011300Z 07012KT 9999 BKN018 27/24 Q1014 NOSIG', 'TNCA 011200Z 08010KT 9999 SCT017 27/24 Q1013 NOSIG', 'TNCA 011100Z 08009KT 9999 SCT016 26/23 Q1012 NOSIG', 'TNCA 010900Z 09010KT 9999 FEW016 26/23 Q1011 NOSIG', 'TNCA 010800Z 09009KT 9999 FEW017 26/23 Q1011 NOSIG', 'TNCA 010700Z 10012KT 9999 FEW017 26/23 Q1011 NOSIG', 'TNCA 010300Z 10013KT 9999 SCT017 27/24 Q1013 NOSIG', 'TNCA 010200Z 09015KT 9999 SCT017 27/24 Q1013 NOSIG', 'TNCA 010100Z 08014KT 9999 FEW017 27/24 Q1012 NOSIG', 'TNCA 010000Z 07017KT 9999 SCT016 27/24 Q1012 NOSIG', 'TNCA 312300Z 07016KT 9999 FEW017 28/24 Q1011 NOSIG']","['2024-02-03 22:00:00', '2024-02-03 21:00:00', '2024-02-03 20:00:00', '2024-02-03 19:00:00', '2024-02-03 18:00:00', '2024-02-03 17:00:00', '2024-02-03 16:00:00', '2024-02-03 15:00:00', '2024-02-03 14:00:00', '2024-02-03 13:00:00', '2024-02-03 12:00:00', '2024-02-03 11:00:00', '2024-02-03 10:00:00', '2024-02-03 09:00:00', '2024-02-03 08:00:00', '2024-02-03 07:00:00', '2024-02-03 06:00:00', '2024-02-03 03:00:00', '2024-02-03 02:00:00', '2024-02-03 01:00:00', '2024-02-03 00:00:00', '2024-02-02 23:00:00', '2024-02-02 22:00:00', '2024-02-02 21:00:00', '2024-02-02 20:00:00', '2024-02-02 19:00:00', '2024-02-02 18:00:00', '2024-02-02 17:00:00', '2024-02-02 16:00:00', '2024-02-02 15:00:00', '2024-02-02 14:00:00', '2024-02-02 13:00:00', '2024-02-02 12:00:00', '2024-02-02 11:00:00', '2024-02-02 10:00:00', '2024-02-02 09:00:00', '2024-02-02 08:00:00', '2024-02-02 07:00:00', '2024-02-02 06:00:00', '2024-02-02 05:00:00', '2024-02-02 04:00:00', '2024-02-02 03:00:00', '2024-02-02 02:00:00', '2024-02-02 01:00:00', '2024-02-02 00:00:00', '2024-02-01 23:00:00', '2024-02-01 22:00:00', '2024-02-01 21:00:00', '2024-02-01 20:00:00', '2024-02-01 19:00:00', '2024-02-01 18:00:00', '2024-02-01 17:00:00', '2024-02-01 14:00:00', '2024-02-01 13:00:00', '2024-02-01 12:00:00', '2024-02-01 11:00:00', '2024-02-01 09:00:00', '2024-02-01 08:00:00', '2024-02-01 07:00:00', '2024-02-01 03:00:00', '2024-02-01 02:00:00', '2024-02-01 01:00:00', '2024-02-01 00:00:00', '2024-01-31 23:00:00']"
Australia, Adelaide Airport (ADL/YPAD) ,"['YPAD 032130Z 04003KT CAVOK 24/12 Q1002', 'YPAD 032030Z 04005KT CAVOK 20/12 Q1002', 'YPAD 032000Z AUTO 05003KT 9999 // NCD 20/13 Q1002 RF00.0/000.0', 'YPAD 031930Z AUTO 05005KT 9999 // NCD 19/13 Q1002 RF00.0/000.0', 'YPAD 031900Z AUTO 08005KT 9999 // NCD 18/13 Q1003 RF00.0/000.0', 'YPAD 031830Z AUTO 12007KT 9999 // NCD 18/14 Q1003 RF00.0/000.0', 'YPAD 031800Z AUTO 00000KT 9999 // NCD 19/15 Q1003 RF00.0/000.0', 'YPAD 031730Z AUTO 09004KT 9999 // NCD 19/15 Q1003 RF00.0/000.0', 'YPAD 031700Z AUTO 00000KT 9999 // NCD 19/16 Q1004 RF00.0/000.0', 'YPAD 031630Z AUTO 23004KT 9999 // NCD 19/16 Q1004 RF00.0/000.0', 'YPAD 031600Z AUTO 01004KT 9999 // NCD 20/16 Q1004 RF00.0/000.0', 'YPAD 031530Z AUTO 04006KT 9999 // NCD 20/16 Q1004 RF00.0/000.0', 'YPAD 031500Z AUTO 05005KT 9999 // NCD 20/17 Q1004 RF00.0/000.0', 'YPAD 031430Z AUTO 04006KT 9999 // NCD 21/17 Q1005 RF00.0/000.0', 'YPAD 031400Z AUTO 00000KT 9999 // NCD 21/17 Q1005 RF00.0/000.0', 'YPAD 031330Z AUTO 35001KT 9999 // NCD 21/17 Q1005 RF00.0/000.0', 'YPAD 031300Z AUTO 33002KT 9999 // NCD 22/16 Q1006 RF00.0/000.0', 'YPAD 031230Z AUTO 27003KT 9999 // NCD 23/17 Q1006 RF00.0/000.0', 'YPAD 031200Z AUTO 00000KT 9999 // NCD 23/17 Q1006 RF00.0/000.0', 'YPAD 031130Z AUTO 20003KT 9999 // NCD 24/18 Q1006 RF00.0/000.0', 'YPAD 031100Z AUTO 21006KT 9999 // NCD 24/17 Q1006 RF00.0/000.0', 'YPAD 031030Z AUTO 21007KT 9999 // NCD 24/17 Q1006 RF00.0/000.0', 'YPAD 031000Z AUTO 21007KT 9999 // NCD 24/18 Q1006 RF00.0/000.0', 'YPAD 030930Z AUTO 21009KT 9999 // NCD 25/17 Q1006 RF00.0/000.0', 'YPAD 030900Z AUTO 21010KT 9999 // NCD 26/18 Q1006 RF00.0/000.0', 'YPAD 030830Z 22010KT CAVOK 28/16 Q1006 STATION CLOSING - REOPENS AT 07:00 04/02/2024', 'YPAD 030730Z 21009KT CAVOK 30/15 Q1006', 'YPAD 030630Z 22008KT CAVOK 29/15 Q1007', 'YPAD 030600Z 22008KT CAVOK 30/15 Q1007', 'YPAD 030530Z 22009KT CAVOK 31/15 Q1007', 'YPAD 030500Z 23008KT CAVOK 31/14 Q1008', 'YPAD 030430Z 25008KT CAVOK 30/13 Q1008', 'YPAD 030400Z 24007KT CAVOK 31/16 Q1008', 'YPAD 030330Z 25006KT CAVOK 30/14 Q1009', 'YPAD 030300Z 25008KT CAVOK 28/14 Q1009', 'YPAD 030230Z 26008KT CAVOK 27/15 Q1009', 'YPAD 030200Z 27006KT CAVOK 28/14 Q1010', 'YPAD 030130Z 27007KT CAVOK 26/17 Q1010', 'YPAD 030100Z 26009KT CAVOK 26/16 Q1010', 'YPAD 030030Z 27008KT CAVOK 26/15 Q1010', 'YPAD 030000Z 35006KT 310V010 CAVOK 28/14 Q1011 RF00.0/000.0', 'YPAD 022330Z 02006KT CAVOK 27/11 Q1010', 'YPAD 022300Z 04006KT CAVOK 26/12 Q1010', 'YPAD 022230Z 03007KT CAVOK 24/11 Q1011', 'YPAD 022200Z 05006KT CAVOK 22/11 Q1011', 'YPAD 022130Z 04006KT CAVOK 20/10 Q1011', 'YPAD 022100Z 04006KT CAVOK 18/09 Q1011', 'YPAD 022030Z 04005KT CAVOK 16/09 Q1011', 'YPAD 021930Z 12003KT CAVOK 15/10 Q1011', 'YPAD 021900Z 00000KT CAVOK 15/11 Q1011', 'YPAD 021830Z 05001KT CAVOK 16/10 Q1011', 'YPAD 021800Z 04006KT CAVOK 16/11 Q1011', 'YPAD 021730Z 10004KT CAVOK 16/11 Q1011', 'YPAD 021700Z 00000KT CAVOK 16/12 Q1011', 'YPAD 021630Z 00000KT CAVOK 16/13 Q1011', 'YPAD 021530Z 10003KT CAVOK 16/12 Q1012', 'YPAD 021500Z 10003KT CAVOK 17/13 Q1012', 'YPAD 021430Z 08004KT CAVOK 17/13 Q1012', 'YPAD 021400Z 06003KT CAVOK 18/12 Q1012', 'YPAD 021330Z 00000KT CAVOK 18/13 Q1012', 'YPAD 021300Z 15003KT CAVOK 18/12 Q1013', 'YPAD 021230Z 16005KT CAVOK 19/13 Q1013', 'YPAD 021200Z 15005KT CAVOK 20/13 Q1013', 'YPAD 021130Z 15007KT CAVOK 20/14 Q1012', 'YPAD 021030Z 17008KT CAVOK 22/14 Q1012', 'YPAD 021000Z 17008KT CAVOK 23/14 Q1012', 'YPAD 020930Z 17008KT CAVOK 25/13 Q1012', 'YPAD 020900Z 16010KT CAVOK 26/13 Q1012', 'YPAD 020830Z 15010KT CAVOK 27/13 Q1012', 'YPAD 020800Z AUTO 15010KT 9999 // NCD 27/14 Q1012 RF00.0/000.0', 'YPAD 020730Z AUTO 15009KT 9999 // NCD 28/16 Q1012 RF00.0/000.0', 'YPAD 020700Z AUTO 22013KT 9999 // NCD 25/19 Q1012 RF00.0/000.0', 'YPAD 020630Z AUTO 22016KT 9999 // NCD 24/18 Q1012 RF00.0/000.0', 'YPAD 020600Z AUTO 21017KT 9999 // NCD 24/18 Q1013 RF00.0/000.0', 'YPAD 020530Z AUTO 21017KT 9999 // NCD 23/17 Q1012 RF00.0/000.0', 'YPAD 020500Z AUTO 21018KT 9999 // NCD 24/18 Q1013 RF00.0/000.0', 'YPAD 020430Z AUTO 23017KT 9999 // NCD 24/18 Q1013 RF00.0/000.0', 'YPAD 020400Z AUTO 23015KT 9999 // NCD 25/18 Q1014 RF00.0/000.0', 'YPAD 020330Z AUTO 23016KT 9999 // NCD 24/18 Q1014 RF00.0/000.0', 'YPAD 020300Z AUTO 24014KT 9999 // NCD 25/18 Q1015 RF00.0/000.0', 'YPAD 020230Z 25012KT 9999 FEW025 23/17 Q1015', 'YPAD 020200Z 24013KT 9999 FEW026 23/17 Q1015', 'YPAD 020130Z 24010KT 9999 FEW026 23/16 Q1016', 'YPAD 020100Z 25005KT 9999 FEW024 22/15 Q1016', 'YPAD 020030Z 04002KT 9999 FEW021 22/14 Q1017', 'YPAD 020000Z 07003KT 9999 FEW021 22/14 Q1017', 'YPAD 012330Z 36005KT 9999 FEW020 21/14 Q1017', 'YPAD 012300Z 16003KT 9999 BKN020 21/14 Q1017', 'YPAD 012230Z 17006KT 9999 BKN020 19/14 Q1017', 'YPAD 012200Z 15008KT 9999 BKN018 19/14 Q1017', 'YPAD 012130Z 14008KT 9999 BKN016 18/14 Q1017', 'YPAD 012100Z 15008KT 9999 BKN016 18/14 Q1017', 'YPAD 012030Z 16008KT 9999 BKN017 18/14 Q1016', 'YPAD 012000Z 17005KT 9999 FEW017 BKN020 17/13 Q1016 RF00.0/000.0', 'YPAD 011930Z 17006KT 9999 FEW018 SCT020 17/13 Q1016 RF00.0/000.0', 'YPAD 011900Z 19007KT 9999 FEW020 SCT023 16/12 Q1016 RF00.0/000.0', 'YPAD 011830Z 18005KT 9999 FEW020 16/12 Q1016', 'YPAD 011800Z 17005KT 9999 FEW020 16/12 Q1016', 'YPAD 011730Z 16007KT 9999 FEW020 SCT023 16/12 Q1016 RF00.0/000.0', 'YPAD 011700Z 15008KT 9999 FEW020 BKN023 17/12 Q1016 RF00.0/000.0', 'YPAD 011630Z 16008KT 9999 FEW019 BKN023 17/12 Q1017 RF00.0/000.0', 'YPAD 011600Z 15005KT 9999 FEW019 BKN023 16/12 Q1017 RF00.0/000.0', 'YPAD 011530Z 16007KT 9999 FEW019 BKN023 16/13 Q1017 RF00.0/000.0', 'YPAD 011500Z 19006KT 9999 FEW019 16/12 Q1017', 'YPAD 011430Z 17007KT 9999 FEW018 16/12 Q1017', 'YPAD 011330Z 17007KT 9999 FEW020 17/13 Q1018', 'YPAD 011230Z 17009KT 9999 FEW020 17/13 Q1018', 'YPAD 011130Z 17012KT 9999 FEW022 18/13 Q1017', 'YPAD 011100Z 16010KT 9999 FEW022 18/13 Q1017', 'YPAD 011030Z 16013KT 9999 FEW022 18/13 Q1017', 'YPAD 010930Z 16013KT 9999 FEW025 20/13 Q1017', 'YPAD 010830Z 17015KT 9999 FEW025 23/13 Q1016', 'YPAD 010800Z 21016KT 9999 FEW023 23/16 Q1016', 'YPAD 010730Z 21017KT 9999 FEW025 23/15 Q1016', 'YPAD 010700Z 21021KT 9999 FEW022 23/15 Q1015', 'YPAD 010630Z 21023KT 9999 FEW022 23/16 Q1015', 'YPAD 010600Z 21019KT 9999 FEW022 23/16 Q1016', 'YPAD 010530Z 22019KT 9999 FEW022 24/17 Q1016', 'YPAD 010500Z 22019KT 9999 FEW025 23/16 Q1016', 'YPAD 010430Z 22018KT CAVOK 23/16 Q1017', 'YPAD 010400Z 21018KT CAVOK 23/16 Q1017', 'YPAD 010330Z 22018KT 9999 FEW025 23/17 Q1017', 'YPAD 010300Z 23018KT CAVOK 22/16 Q1018', 'YPAD 010230Z 22015KT 9999 FEW025 22/16 Q1018', 'YPAD 010130Z 23016KT CAVOK 21/15 Q1018', 'YPAD 010100Z 24015KT 9999 FEW028 21/15 Q1019', 'YPAD 010030Z 24012KT 9999 FEW028 20/14 Q1019', 'YPAD 010000Z 22011KT 9999 FEW028 20/14 Q1019', 'YPAD 312330Z 19007KT 170V230 9999 FEW028 20/14 Q1019 RF00.0/000.0', 'YPAD 312300Z 19008KT 9999 FEW028 20/13 Q1019', 'YPAD 312230Z 21005KT 9999 FEW028 20/13 Q1019']","['2024-02-03 21:30:00', '2024-02-03 20:30:00', '2024-02-03 20:00:00', '2024-02-03 19:30:00', '2024-02-03 19:00:00', '2024-02-03 18:30:00', '2024-02-03 18:00:00', '2024-02-03 17:30:00', '2024-02-03 17:00:00', '2024-02-03 16:30:00', '2024-02-03 16:00:00', '2024-02-03 15:30:00', '2024-02-03 15:00:00', '2024-02-03 14:30:00', '2024-02-03 14:00:00', '2024-02-03 13:30:00', '2024-02-03 13:00:00', '2024-02-03 12:30:00', '2024-02-03 12:00:00', '2024-02-03 11:30:00', '2024-02-03 11:00:00', '2024-02-03 10:30:00', '2024-02-03 10:00:00', '2024-02-03 09:30:00', '2024-02-03 09:00:00', '2024-02-03 08:30:00', '2024-02-03 07:30:00', '2024-02-03 06:30:00', '2024-02-03 06:00:00', '2024-02-03 05:30:00', '2024-02-03 05:00:00', '2024-02-03 04:30:00', '2024-02-03 04:00:00', '2024-02-03 03:30:00', '2024-02-03 03:00:00', '2024-02-03 02:30:00', '2024-02-03 02:00:00', '2024-02-03 01:30:00', '2024-02-03 01:00:00', '2024-02-03 00:30:00', '2024-02-03 00:00:00', '2024-02-02 23:30:00', '2024-02-02 23:00:00', '2024-02-02 22:30:00', '2024-02-02 22:00:00', '2024-02-02 21:30:00', '2024-02-02 21:00:00', '2024-02-02 20:30:00', '2024-02-02 19:30:00', '2024-02-02 19:00:00', '2024-02-02 18:30:00', '2024-02-02 18:00:00', '2024-02-02 17:30:00', '2024-02-02 17:00:00', '2024-02-02 16:30:00', '2024-02-02 15:30:00', '2024-02-02 15:00:00', '2024-02-02 14:30:00', '2024-02-02 14:00:00', '2024-02-02 13:30:00', '2024-02-02 13:00:00', '2024-02-02 12:30:00', '2024-02-02 12:00:00', '2024-02-02 11:30:00', '2024-02-02 10:30:00', '2024-02-02 10:00:00', '2024-02-02 09:30:00', '2024-02-02 09:00:00', '2024-02-02 08:30:00', '2024-02-02 08:00:00', '2024-02-02 07:30:00', '2024-02-02 07:00:00', '2024-02-02 06:30:00', '2024-02-02 06:00:00', '2024-02-02 05:30:00', '2024-02-02 05:00:00', '2024-02-02 04:30:00', '2024-02-02 04:00:00', '2024-02-02 03:30:00', '2024-02-02 03:00:00', '2024-02-02 02:30:00', '2024-02-02 02:00:00', '2024-02-02 01:30:00', '2024-02-02 01:00:00', '2024-02-02 00:30:00', '2024-02-02 00:00:00', '2024-02-01 23:30:00', '2024-02-01 23:00:00', '2024-02-01 22:30:00', '2024-02-01 22:00:00', '2024-02-01 21:30:00', '2024-02-01 21:00:00', '2024-02-01 20:30:00', '2024-02-01 20:00:00', '2024-02-01 19:30:00', '2024-02-01 19:00:00', '2024-02-01 18:30:00', '2024-02-01 18:00:00', '2024-02-01 17:30:00', '2024-02-01 17:00:00', '2024-02-01 16:30:00', '2024-02-01 16:00:00', '2024-02-01 15:30:00', '2024-02-01 15:00:00', '2024-02-01 14:30:00', '2024-02-01 13:30:00', '2024-02-01 12:30:00', '2024-02-01 11:30:00', '2024-02-01 11:00:00', '2024-02-01 10:30:00', '2024-02-01 09:30:00', '2024-02-01 08:30:00', '2024-02-01 08:00:00', '2024-02-01 07:30:00', '2024-02-01 07:00:00', '2024-02-01 06:30:00', '2024-02-01 06:00:00', '2024-02-01 05:30:00', '2024-02-01 05:00:00', '2024-02-01 04:30:00', '2024-02-01 04:00:00', '2024-02-01 03:30:00', '2024-02-01 03:00:00', '2024-02-01 02:30:00', '2024-02-01 01:30:00', '2024-02-01 01:00:00', '2024-02-01 00:30:00', '2024-02-01 00:00:00', '2024-01-31 23:30:00', '2024-01-31 23:00:00', '2024-01-31 22:30:00']"
Australia, Alice Springs Airport (ASP/YBAS) ,"['YBAS 032130Z AUTO 00000KT 9999 // NCD 27/10 Q1007 RF00.0/000.0', 'YBAS 032100Z AUTO 10004KT 9999 // NCD 28/09 Q1006 RF00.0/000.0', 'YBAS 032030Z AUTO 12008KT 9999 // OVC120 29/09 Q1006 RF00.0/000.0', 'YBAS 032000Z AUTO 08017KT 9999 // OVC100 28/10 Q1004 RF00.0/000.0', 'YBAS 031958Z AUTO 08017KT 9999 // OVC100 28/10 Q1004 RF00.0/000.0', 'YBAS 031900Z AUTO 10011KT 100V200 9999 -SHRA OVC100 28/11 Q1006', 'YBAS 031830Z AUTO 23005KT 9999 // OVC105 28/12 Q1005 RF00.0/000.0', 'YBAS 031800Z AUTO 23007KT 9999 // OVC115 28/11 Q1005 RF00.0/000.0', 'YBAS 031730Z AUTO 24008KT 9999 // BKN125 28/13 Q1006 RF00.0/000.0', 'YBAS 031700Z AUTO 26009KT 9999 -SHRA NCD 27/15 Q1006 RF00.0/000.0', 'YBAS 031630Z AUTO 25006KT 9999 -SHRA NCD 28/11 Q1006 RF00.0/000.0', 'YBAS 031600Z AUTO 24007KT 9999 // BKN110 30/09 Q1006 RF00.0/000.0', 'YBAS 031530Z AUTO 24007KT 9999 // SCT110 30/08 Q1007 RF00.0/000.0', 'YBAS 031500Z AUTO 24007KT 9999 // OVC094 30/09 Q1008 RF00.0/000.0', 'YBAS 031430Z AUTO 15007KT 9999 // OVC110 30/09 Q1008 RF00.0/000.0', 'YBAS 031400Z AUTO 12007KT 9999 // BKN110 31/09 Q1008 RF00.0/000.0', 'YBAS 031330Z AUTO 15007KT 9999 // OVC100 OVC120 31/09 Q1008', 'YBAS 031300Z AUTO 17006KT 9999 // OVC096 OVC115 30/09 Q1009', 'YBAS 031230Z AUTO 21004KT 9999 // BKN100 OVC125 30/11 Q1008', 'YBAS 031200Z AUTO 17005KT 9999 -RA BKN115 31/09 Q1008 RF00.0/000.0', 'YBAS 031130Z AUTO 19007KT 9999 // SCT083 OVC120 31/09 Q1008', 'YBAS 031100Z AUTO 17007KT 9999 // OVC110 32/09 Q1008 RF00.0/000.0', 'YBAS 031030Z AUTO 16006KT 9999 // OVC110 32/08 Q1008 RF00.0/000.0', 'YBAS 031000Z AUTO 15006KT 9999 // SCT086 OVC110 32/08 Q1008', 'YBAS 030930Z AUTO 13007KT 9999 // BKN115 33/08 Q1008 RF00.0/000.0', 'YBAS 030900Z AUTO 15010KT 9999 // OVC125 33/08 Q1007 RF00.0/000.0', 'YBAS 030830Z AUTO 16011KT 9999 // OVC115 33/09 Q1007 RF00.0/000.0', 'YBAS 030800Z AUTO 19009KT 9999 // SCT091 OVC115 33/08 Q1007', 'YBAS 030730Z AUTO 17013KT 9999 // OVC115 33/06 Q1007 RF00.0/000.0', 'YBAS 030700Z AUTO 14009KT 9999 // OVC115 33/06 Q1008 RF00.0/000.0', 'YBAS 030630Z AUTO 12011KT 9999 // OVC115 34/05 Q1008 RF00.0/000.0', 'YBAS 030600Z AUTO 11013KT 9999 // SCT094 OVC115 34/06 Q1008', 'YBAS 030530Z AUTO 11011KT 9999 // OVC115 33/07 Q1008 RF00.0/000.0', 'YBAS 030500Z AUTO 12010KT 9999 // SCT039 34/09 Q1008 RF00.0/000.0', 'YBAS 030430Z AUTO 10015KT 9999 // SCT053 SCT084 BKN115 34/10 Q1008', 'YBAS 030400Z AUTO 08013KT 9999 // NCD 33/11 Q1009 RF00.0/000.0', 'YBAS 030330Z AUTO 07013KT 9999 // NCD 33/11 Q1009 RF00.0/000.0', 'YBAS 030300Z AUTO 07018KT 9999 // NCD 34/11 Q1009 RF00.0/000.0', 'YBAS 030231Z AUTO 07016G26KT 9999 // NCD 36/02 Q1009 RF00.0/000.0', 'YBAS 030130Z AUTO 11010KT 9999 // NCD 35/00 Q1010 RF00.0/000.0', 'YBAS 030100Z AUTO 10008KT 9999 // NCD 34/00 Q1010 RF00.0/000.0', 'YBAS 030030Z AUTO 12006KT 9999 // NCD 33/M00 Q1010 RF00.0/000.0', 'YBAS 030000Z AUTO 12007KT 9999 // NCD 32/01 Q1010 RF00.0/000.0', 'YBAS 022330Z AUTO 13007KT 9999 // NCD 32/01 Q1010 RF00.0/000.0', 'YBAS 022300Z AUTO 17005KT 9999 // NCD 30/04 Q1010 RF00.0/000.0', 'YBAS 022230Z AUTO 17004KT 9999 // NCD 29/04 Q1010 RF00.0/000.0', 'YBAS 022200Z AUTO 19001KT 9999 // NCD 28/06 Q1009 RF00.0/000.0', 'YBAS 022130Z AUTO 24004KT 9999 // NCD 26/06 Q1009 RF00.0/000.0', 'YBAS 022100Z AUTO 29004KT 9999 // NCD 26/06 Q1009 RF00.0/000.0', 'YBAS 022030Z AUTO 29004KT 9999 // NCD 26/05 Q1009 RF00.0/000.0', 'YBAS 022000Z AUTO 00000KT 9999 // NCD 27/06 Q1008 RF00.0/000.0', 'YBAS 021930Z AUTO 23003KT 9999 // SCT125 27/05 Q1008 RF00.0/000.0', 'YBAS 021900Z AUTO 25005KT 9999 // NCD 27/06 Q1008 RF00.0/000.0', 'YBAS 021830Z AUTO 00000KT 9999 // NCD 26/06 Q1008 RF00.0/000.0', 'YBAS 021800Z AUTO 15003KT 9999 // NCD 27/06 Q1008 RF00.0/000.0', 'YBAS 021730Z AUTO 14006KT 9999 // NCD 28/04 Q1008 RF00.0/000.0', 'YBAS 021700Z AUTO 14005KT 9999 // NCD 28/05 Q1008 RF00.0/000.0', 'YBAS 021630Z AUTO 18005KT 9999 // NCD 29/05 Q1008 RF00.0/000.0', 'YBAS 021600Z AUTO 15006KT 9999 // NCD 29/04 Q1009 RF00.0/000.0', 'YBAS 021530Z AUTO 14006KT 9999 // NCD 30/04 Q1009 RF00.0/000.0', 'YBAS 021500Z AUTO 12005KT 9999 // NCD 31/04 Q1009 RF00.0/000.0', 'YBAS 021430Z AUTO 13005KT 9999 // NCD 31/04 Q1009 RF00.0/000.0', 'YBAS 021400Z AUTO 14006KT 9999 // NCD 31/04 Q1009 RF00.0/000.0', 'YBAS 021330Z AUTO 12005KT 9999 // NCD 32/04 Q1010 RF00.0/000.0', 'YBAS 021300Z AUTO 13005KT 9999 // NCD 32/04 Q1009 RF00.0/000.0', 'YBAS 021230Z AUTO 13007KT 9999 // NCD 33/03 Q1009 RF00.0/000.0', 'YBAS 021200Z AUTO 13006KT 9999 // BKN120 33/03 Q1009 RF00.0/000.0', 'YBAS 021130Z AUTO 13006KT 9999 // NCD 34/03 Q1009 RF00.0/000.0', 'YBAS 021100Z AUTO 12008KT 9999 // SCT105 35/03 Q1009 RF00.0/000.0', 'YBAS 021030Z AUTO 11009KT 9999 // SCT105 35/03 Q1009 RF00.0/000.0', 'YBAS 021000Z AUTO 11012KT 9999 // SCT115 35/03 Q1008 RF00.0/000.0', 'YBAS 020930Z AUTO 11011KT 9999 // NCD 35/03 Q1008 RF00.0/000.0', 'YBAS 020900Z AUTO 12007KT 9999 // SCT120 36/03 Q1007 RF00.0/000.0', 'YBAS 020830Z AUTO 11012G22KT 9999 // SCT120 37/04 Q1007 RF00.0/000.0', 'YBAS 020800Z AUTO 10009KT 9999 // SCT120 38/03 Q1007 RF00.0/000.0', 'YBAS 020730Z AUTO 13011KT 090V150 9999 // ////// 38/04 Q1007', 'YBAS 020700Z AUTO 12010KT 090V170 9999 // ////// 38/04 Q1007', 'YBAS 020630Z AUTO 16013KT 070V170 9999 // SCT115 38/03 Q1007', 'YBAS 020604Z AUTO 14015KT 070V140 9999 // SCT110 37/02 Q1007', 'YBAS 020530Z AUTO 11012G26KT 080V140 9999 // SCT110 38/02 Q1007', 'YBAS 020500Z AUTO 10009KT 060V180 9999 // NCD 39/03 Q1008 RF00.0/000.0', 'YBAS 020430Z AUTO 08005KT 9999 // SCT110 37/02 Q1009 RF00.0/000.0', 'YBAS 020400Z AUTO 14011KT 080V160 9999 // NCD 37/02 Q1009 RF00.0/000.0', 'YBAS 020330Z AUTO 08011KT 070V130 9999 // NCD 37/00 Q1010 RF00.0/000.0', 'YBAS 020300Z AUTO 11012KT 9999 // NCD 36/M00 Q1010 RF00.0/000.0', 'YBAS 020230Z AUTO 13013KT 9999 // NCD 36/M00 Q1011 RF00.0/000.0', 'YBAS 020200Z AUTO 13013KT 9999 // NCD 35/M01 Q1011 RF00.0/000.0', 'YBAS 020130Z AUTO 11015KT 9999 // NCD 34/M00 Q1012 RF00.0/000.0', 'YBAS 020100Z AUTO 11015KT 9999 // NCD 34/M01 Q1012 RF00.0/000.0', 'YBAS 020043Z AUTO 10016G27KT 9999 // NCD 33/M01 Q1012 RF00.0/000.0', 'YBAS 020000Z AUTO 10015KT 9999 // NCD 32/M01 Q1013 RF00.0/000.0', 'YBAS 012330Z AUTO 12013KT 9999 // NCD 31/M02 Q1013 RF00.0/000.0', 'YBAS 012326Z AUTO 12015KT 9999 // NCD 31/M01 Q1013 RF00.0/000.0', 'YBAS 012230Z AUTO 00000KT 9999 // NCD 26/M01 Q1013 RF00.0/000.0', 'YBAS 012200Z AUTO 24004KT 9999 // NCD 23/00 Q1013 RF00.0/000.0', 'YBAS 012130Z AUTO 27004KT 9999 // NCD 20/02 Q1013 RF00.0/000.0', 'YBAS 012100Z AUTO 27004KT 9999 // NCD 18/02 Q1013 RF00.0/000.0', 'YBAS 012030Z AUTO 25004KT 9999 // NCD 18/01 Q1012 RF00.0/000.0', 'YBAS 012000Z AUTO 27006KT 9999 // NCD 18/01 Q1012 RF00.0/000.0', 'YBAS 011930Z AUTO 28005KT 9999 // NCD 18/01 Q1012 RF00.0/000.0', 'YBAS 011900Z AUTO 27004KT 9999 // NCD 19/01 Q1012 RF00.0/000.0', 'YBAS 011830Z AUTO 27007KT 9999 // NCD 18/01 Q1012 RF00.0/000.0', 'YBAS 011800Z AUTO 23006KT 9999 // NCD 18/01 Q1011 RF00.0/000.0', 'YBAS 011730Z AUTO 26005KT 210V270 9999 // NCD 19/01 Q1011 RF00.0/000.0', 'YBAS 011700Z AUTO 18005KT 9999 // NCD 20/02 Q1011 RF00.0/000.0', 'YBAS 011630Z AUTO 15001KT 9999 // NCD 21/02 Q1012 RF00.0/000.0', 'YBAS 011600Z AUTO 07001KT 9999 // NCD 21/01 Q1012 RF00.0/000.0', 'YBAS 011530Z AUTO 35005KT 9999 // NCD 23/01 Q1012 RF00.0/000.0', 'YBAS 011500Z AUTO 11001KT 9999 // NCD 23/00 Q1012 RF00.0/000.0', 'YBAS 011430Z AUTO 00000KT 9999 // NCD 23/01 Q1012 RF00.0/000.0', 'YBAS 011400Z AUTO 18006KT 9999 // NCD 24/M00 Q1012 RF00.0/000.0', 'YBAS 011330Z AUTO 18007KT 9999 // NCD 24/00 Q1012 RF00.0/000.0', 'YBAS 011300Z AUTO 17007KT 9999 // NCD 25/M01 Q1012 RF00.0/000.0', 'YBAS 011230Z AUTO 15007KT 9999 // NCD 26/M00 Q1012 RF00.0/000.0', 'YBAS 011200Z AUTO 15007KT 9999 // NCD 27/M01 Q1012 RF00.0/000.0', 'YBAS 011130Z AUTO 15007KT 9999 // NCD 29/M01 Q1012 RF00.0/000.0', 'YBAS 011100Z AUTO 15007KT 9999 // NCD 30/M01 Q1011 RF00.0/000.0', 'YBAS 011030Z AUTO 14008KT 9999 // NCD 32/M01 Q1011 RF00.0/000.0', 'YBAS 011000Z AUTO 15009KT 9999 // NCD 33/M01 Q1010 RF00.0/000.0', 'YBAS 010930Z AUTO 14011KT 9999 // NCD 35/M01 Q1010 RF00.0/000.0', 'YBAS 010900Z AUTO 15013KT 9999 // NCD 36/M01 Q1010 RF00.0/000.0', 'YBAS 010830Z AUTO 14014KT 9999 // NCD 36/M00 Q1009 RF00.0/000.0', 'YBAS 010800Z AUTO 15013KT 110V170 9999 // NCD 37/00 Q1009 RF00.0/000.0', 'YBAS 010730Z AUTO 15013KT 9999 // NCD 37/00 Q1009 RF00.0/000.0', 'YBAS 010700Z AUTO 16014KT 9999 // NCD 37/00 Q1009 RF00.0/000.0', 'YBAS 010630Z AUTO 16014KT 9999 // NCD 37/00 Q1010 RF00.0/000.0', 'YBAS 010600Z AUTO 13010KT 120V180 9999 // NCD 37/02 Q1010 RF00.0/000.0', 'YBAS 010530Z AUTO 18012KT 9999 // NCD 38/02 Q1010 RF00.0/000.0', 'YBAS 010500Z AUTO 13012KT 9999 // NCD 37/02 Q1011 RF00.0/000.0', 'YBAS 010430Z AUTO 15013KT 9999 // NCD 36/02 Q1011 RF00.0/000.0', 'YBAS 010400Z AUTO 15011KT 110V190 9999 // NCD 36/03 Q1011 RF00.0/000.0', 'YBAS 010330Z AUTO 12011KT 090V160 9999 // NCD 35/02 Q1012 RF00.0/000.0', 'YBAS 010300Z AUTO 15006KT 9999 // NCD 34/02 Q1012 RF00.0/000.0', 'YBAS 010230Z AUTO 12013KT 9999 // NCD 34/03 Q1013 RF00.0/000.0', 'YBAS 010200Z AUTO 13014KT 9999 // NCD 34/03 Q1014 RF00.0/000.0', 'YBAS 010130Z AUTO 11015KT 9999 // NCD 33/02 Q1014 RF00.0/000.0', 'YBAS 010100Z AUTO 12013KT 9999 // NCD 32/01 Q1014 RF00.0/000.0', 'YBAS 010030Z AUTO 11012KT 9999 // NCD 31/00 Q1015 RF00.0/000.0', 'YBAS 010000Z AUTO 14013KT 9999 // NCD 30/M02 Q1015 RF00.0/000.0', 'YBAS 312330Z AUTO 12012KT 9999 // NCD 29/M04 Q1015 RF00.0/000.0', 'YBAS 312300Z AUTO 12012KT 9999 // NCD 28/M04 Q1016 RF00.0/000.0', 'YBAS 312230Z AUTO 15008KT 9999 // NCD 26/M04 Q1015 RF00.0/000.0']","['2024-02-03 21:30:00', '2024-02-03 21:00:00', '2024-02-03 20:30:00', '2024-02-03 20:00:00', '2024-02-03 19:58:00', '2024-02-03 19:00:00', '2024-02-03 18:30:00', '2024-02-03 18:00:00', '2024-02-03 17:30:00', '2024-02-03 17:00:00', '2024-02-03 16:30:00', '2024-02-03 16:00:00', '2024-02-03 15:30:00', '2024-02-03 15:00:00', '2024-02-03 14:30:00', '2024-02-03 14:00:00', '2024-02-03 13:30:00', '2024-02-03 13:00:00', '2024-02-03 12:30:00', '2024-02-03 12:00:00', '2024-02-03 11:30:00', '2024-02-03 11:00:00', '2024-02-03 10:30:00', '2024-02-03 10:00:00', '2024-02-03 09:30:00', '2024-02-03 09:00:00', '2024-02-03 08:30:00', '2024-02-03 08:00:00', '2024-02-03 07:30:00', '2024-02-03 07:00:00', '2024-02-03 06:30:00', '2024-02-03 06:00:00', '2024-02-03 05:30:00', '2024-02-03 05:00:00', '2024-02-03 04:30:00', '2024-02-03 04:00:00', '2024-02-03 03:30:00', '2024-02-03 03:00:00', '2024-02-03 02:31:00', '2024-02-03 01:30:00', '2024-02-03 01:00:00', '2024-02-03 00:30:00', '2024-02-03 00:00:00', '2024-02-02 23:30:00', '2024-02-02 23:00:00', '2024-02-02 22:30:00', '2024-02-02 22:00:00', '2024-02-02 21:30:00', '2024-02-02 21:00:00', '2024-02-02 20:30:00', '2024-02-02 20:00:00', '2024-02-02 19:30:00', '2024-02-02 19:00:00', '2024-02-02 18:30:00', '2024-02-02 18:00:00', '2024-02-02 17:30:00', '2024-02-02 17:00:00', '2024-02-02 16:30:00', '2024-02-02 16:00:00', '2024-02-02 15:30:00', '2024-02-02 15:00:00', '2024-02-02 14:30:00', '2024-02-02 14:00:00', '2024-02-02 13:30:00', '2024-02-02 13:00:00', '2024-02-02 12:30:00', '2024-02-02 12:00:00', '2024-02-02 11:30:00', '2024-02-02 11:00:00', '2024-02-02 10:30:00', '2024-02-02 10:00:00', '2024-02-02 09:30:00', '2024-02-02 09:00:00', '2024-02-02 08:30:00', '2024-02-02 08:00:00', '2024-02-02 07:30:00', '2024-02-02 07:00:00', '2024-02-02 06:30:00', '2024-02-02 06:04:00', '2024-02-02 05:30:00', '2024-02-02 05:00:00', '2024-02-02 04:30:00', '2024-02-02 04:00:00', '2024-02-02 03:30:00', '2024-02-02 03:00:00', '2024-02-02 02:30:00', '2024-02-02 02:00:00', '2024-02-02 01:30:00', '2024-02-02 01:00:00', '2024-02-02 00:43:00', '2024-02-02 00:00:00', '2024-02-01 23:30:00', '2024-02-01 23:26:00', '2024-02-01 22:30:00', '2024-02-01 22:00:00', '2024-02-01 21:30:00', '2024-02-01 21:00:00', '2024-02-01 20:30:00', '2024-02-01 20:00:00', '2024-02-01 19:30:00', '2024-02-01 19:00:00', '2024-02-01 18:30:00', '2024-02-01 18:00:00', '2024-02-01 17:30:00', '2024-02-01 17:00:00', '2024-02-01 16:30:00', '2024-02-01 16:00:00', '2024-02-01 15:30:00', '2024-02-01 15:00:00', '2024-02-01 14:30:00', '2024-02-01 14:00:00', '2024-02-01 13:30:00', '2024-02-01 13:00:00', '2024-02-01 12:30:00', '2024-02-01 12:00:00', '2024-02-01 11:30:00', '2024-02-01 11:00:00', '2024-02-01 10:30:00', '2024-02-01 10:00:00', '2024-02-01 09:30:00', '2024-02-01 09:00:00', '2024-02-01 08:30:00', '2024-02-01 08:00:00', '2024-02-01 07:30:00', '2024-02-01 07:00:00', '2024-02-01 06:30:00', '2024-02-01 06:00:00', '2024-02-01 05:30:00', '2024-02-01 05:00:00', '2024-02-01 04:30:00', '2024-02-01 04:00:00', '2024-02-01 03:30:00', '2024-02-01 03:00:00', '2024-02-01 02:30:00', '2024-02-01 02:00:00', '2024-02-01 01:30:00', '2024-02-01 01:00:00', '2024-02-01 00:30:00', '2024-02-01 00:00:00', '2024-01-31 23:30:00', '2024-01-31 23:00:00', '2024-01-31 22:30:00']"
Austria, Graz Airport (GRZ/LOWG) ,"['LOWG 032150Z AUTO VRB02KT CAVOK 01/00 Q1023 NOSIG', 'LOWG 032120Z AUTO VRB01KT CAVOK 01/00 Q1023 NOSIG', 'LOWG 032050Z AUTO 01003KT 330V070 CAVOK 02/00 Q1024 NOSIG', 'LOWG 032020Z AUTO VRB02KT CAVOK 01/00 Q1024 NOSIG', 'LOWG 031950Z AUTO VRB02KT CAVOK 02/01 Q1024 NOSIG', 'LOWG 031920Z AUTO VRB02KT 9999 NCD 02/00 Q1023 NOSIG', 'LOWG 031850Z AUTO VRB01KT 9999 NCD 03/00 Q1023 NOSIG', 'LOWG 031820Z AUTO 36003KT 340V050 9999 NCD 04/01 Q1023 NOSIG', 'LOWG 031750Z AUTO VRB02KT 9999 NCD 04/01 Q1022 NOSIG', 'LOWG 031720Z AUTO VRB02KT 9999 NCD 03/00 Q1022 NOSIG', 'LOWG 031650Z AUTO VRB02KT 9999 NCD 07/02 Q1022 NOSIG', 'LOWG 031620Z AUTO VRB02KT 9999 NCD 07/01 Q1022 NOSIG', 'LOWG 031550Z AUTO 21004KT 170V290 9999 NCD 10/03 Q1022 NOSIG', 'LOWG 031520Z AUTO 20005KT 9999 NCD 12/03 Q1021 NOSIG', 'LOWG 031450Z AUTO 18005KT 9999 NCD 12/03 Q1021 NOSIG', 'LOWG 031420Z AUTO 16006KT 9999 NCD 13/02 Q1021 NOSIG', 'LOWG 031350Z AUTO 17006KT 140V230 9999 NCD 14/03 Q1022 NOSIG', 'LOWG 031320Z AUTO 16005KT 9999 NCD 13/02 Q1022 NOSIG', 'LOWG 031250Z AUTO 18004KT 120V230 9999 NCD 14/03 Q1022 NOSIG', 'LOWG 031220Z AUTO 16006KT 120V190 9999 NCD 13/03 Q1022 NOSIG', 'LOWG 031150Z AUTO 17005KT 140V230 9999 NCD 13/03 Q1023 NOSIG', 'LOWG 031120Z AUTO 17005KT 140V200 9999 NCD 12/02 Q1023 NOSIG', 'LOWG 031050Z AUTO VRB04KT 9999 NCD 10/02 Q1023 NOSIG', 'LOWG 031020Z AUTO 18005KT 150V230 9999 NCD 08/02 Q1023 NOSIG', 'LOWG 030950Z AUTO VRB03KT 9999 NCD 07/01 Q1023 NOSIG', 'LOWG 030920Z AUTO VRB03KT 9999 NCD 05/01 Q1023 NOSIG', 'LOWG 030850Z AUTO VRB02KT 9999 NCD 05/01 Q1023 NOSIG', 'LOWG 030820Z AUTO VRB01KT 9999 NCD 03/00 Q1023 NOSIG', 'LOWG 030750Z AUTO VRB02KT 9999 NCD 00/M01 Q1023 NOSIG', 'LOWG 030720Z AUTO VRB03KT 9999 NCD M01/M02 Q1023 NOSIG', 'LOWG 030650Z AUTO VRB02KT 9999 NCD M03/M04 Q1023 NOSIG', 'LOWG 030620Z AUTO VRB03KT 9999 NCD M03/M03 Q1023 NOSIG', 'LOWG 030550Z AUTO 18003KT 130V240 9999 NCD M03/M04 Q1023 NOSIG', 'LOWG 030520Z AUTO VRB02KT 9999 NCD M03/M03 Q1022 TEMPO 2500 BCFG', 'LOWG 030450Z AUTO VRB02KT 9999 NCD M03/M03 Q1022 TEMPO 2500 BCFG', 'LOWG 030420Z AUTO 01003KT 300V070 9999 NCD M03/M04 Q1023', 'LOWG 030350Z AUTO VRB02KT 9999 NCD M04/M05 Q1023', 'LOWG 030320Z AUTO VRB02KT 7000 NCD M03/M04 Q1022', 'LOWG 030250Z AUTO VRB01KT 6000 FEW070 M02/M03 Q1022', 'LOWG 030220Z AUTO VRB02KT 8000 FEW070 M03/M04 Q1022', 'LOWG 030150Z AUTO VRB02KT 5000 BR NCD M03/M04 Q1022', 'LOWG 030120Z AUTO VRB02KT 6000 NCD M02/M02 Q1022', 'LOWG 030050Z AUTO VRB02KT 9000 NCD M02/M03 Q1022', 'LOWG 030020Z AUTO VRB02KT 9999 NCD M04/M05 Q1023', 'LOWG 022350Z AUTO VRB02KT 5000 1000W R16/P1500U R34/P1500U BR NCD M02/M02 Q1023', 'LOWG 022320Z AUTO VRB01KT 0800 R16/P1500D R34/0750D BCFG NCD M02/M03 Q1024', 'LOWG 022250Z AUTO VRB01KT 4400 0800W R16/P1500D R34/P1500D BCFG NCD M02/M03 Q1024', 'LOWG 022220Z AUTO VRB01KT 9000 NCD M01/M02 Q1024 NOSIG', 'LOWG 022150Z AUTO VRB01KT 9000 NCD M02/M04 Q1025 NOSIG', 'LOWG 022120Z AUTO VRB01KT 9999 NCD 00/M01 Q1025 NOSIG', 'LOWG 022050Z AUTO VRB01KT 9999 NCD 01/M01 Q1025 NOSIG', 'LOWG 022020Z AUTO VRB01KT CAVOK 01/M00 Q1026 NOSIG', 'LOWG 021950Z AUTO VRB01KT CAVOK 02/M00 Q1026 NOSIG', 'LOWG 021920Z AUTO VRB01KT 9999 BKN060 02/M00 Q1026 NOSIG', 'LOWG 021850Z AUTO VRB02KT 9999 BKN060 03/01 Q1027 NOSIG', 'LOWG 021820Z AUTO VRB01KT 9999 OVC060 03/00 Q1027 NOSIG', 'LOWG 021750Z AUTO VRB02KT 9999 BKN060 03/00 Q1027 NOSIG', 'LOWG 021720Z AUTO 30002KT 9999 BKN060 04/01 Q1028 NOSIG', 'LOWG 021650Z AUTO 04002KT 9999 FEW044 BKN060 04/00 Q1028 NOSIG', 'LOWG 021620Z AUTO 34003KT 9999 FEW048 BKN060 06/01 Q1028 NOSIG', 'LOWG 021550Z AUTO VRB01KT 9999 FEW060 BKN070 06/01 Q1027 NOSIG', 'LOWG 021520Z AUTO 00000KT 9999 FEW060 BKN070 07/01 Q1027 NOSIG', 'LOWG 021450Z AUTO VRB01KT 9999 SCT060 BKN080 08/02 Q1027 NOSIG', 'LOWG 021420Z AUTO 15003KT 9999 FEW060 BKN070 08/01 Q1027 NOSIG', 'LOWG 021350Z AUTO 16004KT 120V180 9999 FEW060 BKN070 08/01 Q1028 NOSIG', 'LOWG 021320Z AUTO 16004KT 9999 FEW060 BKN070 07/01 Q1028 NOSIG', 'LOWG 021250Z AUTO 14004KT 110V170 9999 FEW060 BKN070 07/01 Q1028 NOSIG', 'LOWG 021220Z AUTO 17005KT 9999 FEW060 SCT080 07/01 Q1028 NOSIG', 'LOWG 021150Z AUTO 15007KT 9999 FEW060 SCT070 08/02 Q1029 NOSIG', 'LOWG 021120Z AUTO 19003KT 120V230 9999 FEW060 07/02 Q1029 NOSIG', 'LOWG 021050Z AUTO 15004KT 110V200 9999 FEW060 06/01 Q1029 NOSIG', 'LOWG 021020Z AUTO VRB03KT 9999 FEW070 06/01 Q1030 NOSIG', 'LOWG 020950Z AUTO VRB02KT 9999 FEW070 04/01 Q1030 NOSIG', 'LOWG 020920Z AUTO VRB02KT 9999 FEW070 03/01 Q1030 NOSIG', 'LOWG 020850Z AUTO VRB01KT 9999 FEW070 02/M00 Q1030 NOSIG', 'LOWG 020820Z AUTO VRB02KT CAVOK 00/M01 Q1030 NOSIG', 'LOWG 020750Z AUTO VRB02KT CAVOK M02/M02 Q1030 NOSIG', 'LOWG 020720Z AUTO VRB02KT 9999 FEW060 M03/M03 Q1030 NOSIG', 'LOWG 020650Z AUTO VRB01KT 8000 FEW060 M04/M05 Q1029 NOSIG', 'LOWG 020620Z AUTO VRB01KT 2000 0600W R16/0600D R34/P1500D BCFG NSC M05/M06 Q1029 BECMG 9999', 'LOWG 020550Z AUTO VRB02KT 6000 0900W R16/P1500U R34/P1500U BCFG FEW004 M04/M04 Q1029 TEMPO 2000 BCFG', 'LOWG 020520Z AUTO VRB02KT 6000 0500S R16/0800U R34/1500U BCFG FEW060 M03/M04 Q1029 TEMPO 2000 BCFG', 'LOWG 020450Z AUTO VRB02KT 6000 0800W R16/P1500D R34/P1500U BCFG FEW060 M04/M05 Q1028 TEMPO 2000 BCFG', 'LOWG 020420Z AUTO VRB02KT 7000 2700W BR FEW004 M04/M04 Q1028', 'LOWG 020350Z AUTO VRB02KT 5000 BR FEW005 M03/M03 Q1028', 'LOWG 020320Z AUTO VRB01KT 9999 SCT060 M02/M03 Q1028', 'LOWG 020250Z AUTO VRB02KT 9999 BKN060 M03/M03 Q1028', 'LOWG 020220Z AUTO VRB02KT 9999 FEW060 M02/M03 Q1028', 'LOWG 020150Z AUTO VRB01KT 9999 FEW050 M03/M03 Q1028', 'LOWG 020120Z AUTO VRB02KT 9999 FEW060 M01/M02 Q1028', 'LOWG 020050Z AUTO 20003KT 160V330 9999 FEW050 M01/M02 Q1028', 'LOWG 020020Z AUTO VRB02KT 9999 FEW048 BKN060 M02/M02 Q1028', 'LOWG 012350Z AUTO 29003KT 250V320 9999 FEW050 SCT060 M01/M02 Q1028', 'LOWG 012320Z AUTO VRB02KT 7000 FEW060 M03/M04 Q1028', 'LOWG 012250Z AUTO VRB01KT 9999 FEW050 M02/M02 Q1028', 'LOWG 012220Z AUTO 32003KT 260V350 9999 FEW050 M01/M02 Q1028 NOSIG', 'LOWG 012150Z AUTO 35003KT 9999 FEW060 M01/M02 Q1027 NOSIG', 'LOWG 012120Z AUTO 31003KT 290V350 9999 FEW050 SCT060 M00/M01 Q1027 NOSIG', 'LOWG 012050Z AUTO 03002KT 9999 SCT060 M00/M01 Q1027 NOSIG', 'LOWG 012020Z AUTO VRB01KT 9999 FEW060 M00/M02 Q1027 NOSIG', 'LOWG 011950Z AUTO VRB01KT 9999 FEW060 00/M01 Q1027 NOSIG', 'LOWG 011920Z AUTO 29003KT 240V030 9999 FEW060 02/M01 Q1026 NOSIG', 'LOWG 011850Z AUTO 14003KT 120V210 9999 FEW050 M01/M02 Q1026 NOSIG', 'LOWG 011820Z AUTO 17003KT 120V290 9999 FEW060 02/M00 Q1026 NOSIG', 'LOWG 011750Z AUTO VRB01KT 9999 FEW060 03/00 Q1026 NOSIG', 'LOWG 011720Z AUTO VRB02KT 9999 FEW060 04/00 Q1026 NOSIG', 'LOWG 011650Z AUTO 21003KT 180V240 9999 FEW060 BKN070 04/00 Q1025 NOSIG', 'LOWG 011620Z AUTO VRB02KT 9999 FEW060 BKN070 05/00 Q1025 NOSIG', 'LOWG 011550Z AUTO 01002KT 9999 FEW060 SCT070 BKN080 05/00 Q1025 NOSIG', 'LOWG 011520Z AUTO VRB01KT 9999 FEW060 05/00 Q1025 NOSIG', 'LOWG 011450Z AUTO 35005KT 9999 SCT070 BKN080 06/01 Q1025 TEMPO 34007KT', 'LOWG 011420Z AUTO 34005KT 9999 FEW060 SCT070 BKN080 06/01 Q1025 TEMPO 34007KT', 'LOWG 011350Z AUTO 02004KT 9999 FEW050 OVC070 06/01 Q1024 NOSIG', 'LOWG 011320Z AUTO 34003KT 290V010 9999 FEW060 BKN070 06/01 Q1024 NOSIG', 'LOWG 011250Z AUTO VRB03KT 9999 -RA FEW050 BKN060 06/00 Q1025 NOSIG', 'LOWG 011220Z AUTO 12004KT 9999 FEW050 OVC060 06/00 Q1025 NOSIG', 'LOWG 011150Z AUTO VRB02KT 9999 -RA FEW050 BKN060 05/M00 Q1025 NOSIG', 'LOWG 011120Z AUTO VRB02KT 9999 SCT070 05/M01 Q1025 NOSIG', 'LOWG 011050Z AUTO VRB02KT CAVOK 04/M01 Q1026 NOSIG', 'LOWG 011020Z AUTO VRB02KT 9999 NCD 03/M00 Q1026 NOSIG', 'LOWG 010950Z AUTO VRB01KT 9999 NCD 02/M00 Q1026 NOSIG', 'LOWG 010920Z AUTO VRB01KT 9999 NCD 00/M02 Q1026 NOSIG', 'LOWG 010850Z AUTO VRB01KT 9999 NCD M00/M02 Q1026 NOSIG', 'LOWG 010820Z AUTO VRB01KT 9999 NCD M02/M02 Q1026 NOSIG', 'LOWG 010750Z AUTO VRB01KT 9999 FEW050 M03/M03 Q1026 NOSIG', 'LOWG 010720Z AUTO VRB02KT 9000 FEW050 M05/M06 Q1026 NOSIG', 'LOWG 010650Z AUTO VRB02KT 1200 0550SW R16/1100U R34/0600D BCFG NCD M05/M05 Q1027 BECMG 8000', 'LOWG 010620Z AUTO VRB01KT 4700 0600W R16/P1500D R34/P1500U BCFG NSC M05/M06 Q1027 BECMG 8000', 'LOWG 010550Z AUTO VRB01KT 7000 0650W R16/P1500D R34/P1500D BCFG NCD M06/M06 Q1027 TEMPO 2000 BR BCFG', 'LOWG 010520Z AUTO VRB01KT 8000 NCD M05/M05 Q1027 TEMPO 2000 BR BCFG', 'LOWG 010450Z AUTO VRB02KT 9999 NCD M06/M06 Q1027 TEMPO 2000 BR BCFG', 'LOWG 010420Z AUTO VRB01KT 9999 0750S R16/P1500U R34/P1500D BCFG NCD M06/M07 Q1027', 'LOWG 010350Z AUTO 33002KT 9000 FEW003 M05/M05 Q1027', 'LOWG 010320Z AUTO VRB01KT 9999 0450S R16/P1500U R34/0600D BCFG NCD M05/M05 Q1027', 'LOWG 010250Z AUTO VRB01KT 5000 R16/P1500U R34/1500U BR NCD M06/M06 Q1028', 'LOWG 010220Z AUTO VRB01KT 2400 R16/P1500U R34/P1500D BR NCD M05/M06 Q1028', 'LOWG 010150Z AUTO VRB01KT 5000 1000S R16/P1500U R34/P1500D BR NCD M04/M05 Q1028', 'LOWG 010120Z AUTO VRB01KT 8000 NCD M04/M05 Q1029', 'LOWG 010050Z AUTO VRB01KT 2700 1000N R16/P1500D R34/P1500D BR NCD M04/M04 Q1029', 'LOWG 010020Z AUTO VRB01KT 6000 FEW005 M04/M05 Q1029', 'LOWG 312350Z AUTO VRB01KT 9000 NCD M04/M04 Q1030', 'LOWG 312320Z AUTO 00000KT 8000 NCD M04/M04 Q1030', 'LOWG 312250Z AUTO VRB02KT 9999 NCD M03/M05 Q1030']","['2024-02-03 21:50:00', '2024-02-03 21:20:00', '2024-02-03 20:50:00', '2024-02-03 20:20:00', '2024-02-03 19:50:00', '2024-02-03 19:20:00', '2024-02-03 18:50:00', '2024-02-03 18:20:00', '2024-02-03 17:50:00', '2024-02-03 17:20:00', '2024-02-03 16:50:00', '2024-02-03 16:20:00', '2024-02-03 15:50:00', '2024-02-03 15:20:00', '2024-02-03 14:50:00', '2024-02-03 14:20:00', '2024-02-03 13:50:00', '2024-02-03 13:20:00', '2024-02-03 12:50:00', '2024-02-03 12:20:00', '2024-02-03 11:50:00', '2024-02-03 11:20:00', '2024-02-03 10:50:00', '2024-02-03 10:20:00', '2024-02-03 09:50:00', '2024-02-03 09:20:00', '2024-02-03 08:50:00', '2024-02-03 08:20:00', '2024-02-03 07:50:00', '2024-02-03 07:20:00', '2024-02-03 06:50:00', '2024-02-03 06:20:00', '2024-02-03 05:50:00', '2024-02-03 05:20:00', '2024-02-03 04:50:00', '2024-02-03 04:20:00', '2024-02-03 03:50:00', '2024-02-03 03:20:00', '2024-02-03 02:50:00', '2024-02-03 02:20:00', '2024-02-03 01:50:00', '2024-02-03 01:20:00', '2024-02-03 00:50:00', '2024-02-03 00:20:00', '2024-02-02 23:50:00', '2024-02-02 23:20:00', '2024-02-02 22:50:00', '2024-02-02 22:20:00', '2024-02-02 21:50:00', '2024-02-02 21:20:00', '2024-02-02 20:50:00', '2024-02-02 20:20:00', '2024-02-02 19:50:00', '2024-02-02 19:20:00', '2024-02-02 18:50:00', '2024-02-02 18:20:00', '2024-02-02 17:50:00', '2024-02-02 17:20:00', '2024-02-02 16:50:00', '2024-02-02 16:20:00', '2024-02-02 15:50:00', '2024-02-02 15:20:00', '2024-02-02 14:50:00', '2024-02-02 14:20:00', '2024-02-02 13:50:00', '2024-02-02 13:20:00', '2024-02-02 12:50:00', '2024-02-02 12:20:00', '2024-02-02 11:50:00', '2024-02-02 11:20:00', '2024-02-02 10:50:00', '2024-02-02 10:20:00', '2024-02-02 09:50:00', '2024-02-02 09:20:00', '2024-02-02 08:50:00', '2024-02-02 08:20:00', '2024-02-02 07:50:00', '2024-02-02 07:20:00', '2024-02-02 06:50:00', '2024-02-02 06:20:00', '2024-02-02 05:50:00', '2024-02-02 05:20:00', '2024-02-02 04:50:00', '2024-02-02 04:20:00', '2024-02-02 03:50:00', '2024-02-02 03:20:00', '2024-02-02 02:50:00', '2024-02-02 02:20:00', '2024-02-02 01:50:00', '2024-02-02 01:20:00', '2024-02-02 00:50:00', '2024-02-02 00:20:00', '2024-02-01 23:50:00', '2024-02-01 23:20:00', '2024-02-01 22:50:00', '2024-02-01 22:20:00', '2024-02-01 21:50:00', '2024-02-01 21:20:00', '2024-02-01 20:50:00', '2024-02-01 20:20:00', '2024-02-01 19:50:00', '2024-02-01 19:20:00', '2024-02-01 18:50:00', '2024-02-01 18:20:00', '2024-02-01 17:50:00', '2024-02-01 17:20:00', '2024-02-01 16:50:00', '2024-02-01 16:20:00', '2024-02-01 15:50:00', '2024-02-01 15:20:00', '2024-02-01 14:50:00', '2024-02-01 14:20:00', '2024-02-01 13:50:00', '2024-02-01 13:20:00', '2024-02-01 12:50:00', '2024-02-01 12:20:00', '2024-02-01 11:50:00', '2024-02-01 11:20:00', '2024-02-01 10:50:00', '2024-02-01 10:20:00', '2024-02-01 09:50:00', '2024-02-01 09:20:00', '2024-02-01 08:50:00', '2024-02-01 08:20:00', '2024-02-01 07:50:00', '2024-02-01 07:20:00', '2024-02-01 06:50:00', '2024-02-01 06:20:00', '2024-02-01 05:50:00', '2024-02-01 05:20:00', '2024-02-01 04:50:00', '2024-02-01 04:20:00', '2024-02-01 03:50:00', '2024-02-01 03:20:00', '2024-02-01 02:50:00', '2024-02-01 02:20:00', '2024-02-01 01:50:00', '2024-02-01 01:20:00', '2024-02-01 00:50:00', '2024-02-01 00:20:00', '2024-01-31 23:50:00', '2024-01-31 23:20:00', '2024-01-31 22:50:00']"
Austria, Innsbruck Kranebitten Airport (INN/LOWI) ,"['LOWI 032150Z VRB02KT CAVOK 02/00 Q1027 NOSIG', 'LOWI 032120Z VRB01KT CAVOK 03/01 Q1027 NOSIG', 'LOWI 032050Z VRB01KT CAVOK 02/01 Q1027 NOSIG', 'LOWI 032020Z VRB02KT CAVOK 03/01 Q1027 NOSIG', 'LOWI 031950Z VRB02KT CAVOK 04/01 Q1027 NOSIG', 'LOWI 031920Z VRB03KT CAVOK 05/02 Q1027 NOSIG', 'LOWI 031850Z VRB02KT CAVOK 05/03 Q1027 NOSIG', 'LOWI 031820Z VRB02KT CAVOK 06/03 Q1026 NOSIG', 'LOWI 031750Z VRB02KT CAVOK 07/03 Q1026 NOSIG', 'LOWI 031720Z VRB02KT CAVOK 08/03 Q1026 NOSIG', 'LOWI 031650Z VRB02KT CAVOK 10/04 Q1026 NOSIG', 'LOWI 031620Z 14005KT 060V230 9999 FEW080 11/04 Q1026 NOSIG', 'LOWI 031550Z 10005KT 060V160 9999 FEW080 12/04 Q1026 NOSIG', 'LOWI 031520Z 09006KT 040V150 9999 FEW080 14/04 Q1025 NOSIG', 'LOWI 031450Z 10007KT 9999 FEW080 15/04 Q1025 NOSIG', 'LOWI 031420Z 12004KT 050V190 9999 FEW080 15/04 Q1025 NOSIG', 'LOWI 031350Z 17003KT 080V210 9999 FEW080 15/04 Q1025 NOSIG', 'LOWI 031320Z 16003KT 100V220 9999 FEW070 14/03 Q1025 NOSIG', 'LOWI 031250Z VRB02KT 9999 FEW070 14/04 Q1026 NOSIG', 'LOWI 031220Z VRB02KT 9999 FEW070 13/02 Q1026 NOSIG', 'LOWI 031150Z VRB02KT 9999 FEW070 12/03 Q1027 NOSIG', 'LOWI 031120Z VRB01KT 9999 FEW070 11/03 Q1028 NOSIG', 'LOWI 031050Z VRB02KT 9999 FEW070 10/04 Q1028 NOSIG', 'LOWI 031020Z VRB02KT 9999 FEW070 09/03 Q1029 NOSIG', 'LOWI 030950Z 13003KT 080V220 9999 SCT075 08/03 Q1029 NOSIG', 'LOWI 030920Z 16003KT 110V190 9999 SCT075 06/03 Q1029 NOSIG', 'LOWI 030850Z VRB02KT 9999 SCT075 04/02 Q1029 NOSIG', 'LOWI 030820Z VRB01KT 9999 SCT075 02/02 Q1029 NOSIG', 'LOWI 030750Z VRB02KT 9999 SCT075 M00/M00 Q1029 NOSIG', 'LOWI 030720Z VRB02KT 9999 FEW001 SCT080 M00/M00 Q1029 NOSIG', 'LOWI 030650Z VRB01KT 9999 3000W BR SCT080 M01/M01 Q1029 NOSIG', 'LOWI 030620Z VRB02KT 9999 2000W BCFG FEW080 M01/M01 Q1029 TEMPO 1500 BCFG', 'LOWI 030550Z VRB02KT 9000 2000W R26/0800D BCFG FEW080 M00/M00 Q1029 TEMPO 1500 BCFG', 'LOWI 030520Z VRB01KT 9000 1500W R08/1400N R26/P1500U BCFG FEW080 M00/M00 Q1029 TEMPO 1500 BCFG', 'LOWI 030450Z VRB01KT 9000 1000E R08/P1500U R26/0650D BCFG FEW080 M00/M00 Q1029 TEMPO 1500 BCFG', 'LOWI 030420Z VRB01KT 9000 1000W R08/0700D R26/1400U BCFG FEW080 00/00 Q1029 TEMPO 1500 BCFG', 'LOWI 030350Z AUTO VRB01KT 7000 2300W BR FEW070 01/01 Q1029', 'LOWI 030320Z AUTO VRB02KT 7000 FEW070 SCT080 01/01 Q1029', 'LOWI 030250Z AUTO VRB01KT 8000 FEW070 BKN080 02/02 Q1030', 'LOWI 030220Z AUTO VRB01KT 9999 FEW070 BKN090 02/02 Q1030', 'LOWI 030150Z AUTO VRB02KT 9000 FEW070 SCT080 BKN090 02/02 Q1030', 'LOWI 030120Z AUTO VRB01KT 9999 FEW070 BKN080 02/02 Q1030', 'LOWI 030050Z AUTO VRB01KT 9999 FEW070 BKN080 01/01 Q1031', 'LOWI 030020Z AUTO 00000KT 9999 FEW070 BKN080 01/01 Q1031', 'LOWI 022350Z AUTO VRB01KT 7000 FEW070 OVC080 01/01 Q1031', 'LOWI 022320Z AUTO VRB01KT 9000 OVC070 01/01 Q1032', 'LOWI 022250Z AUTO VRB02KT 7000 FEW070 SCT080 01/01 Q1032', 'LOWI 022220Z AUTO VRB02KT 2900 BR FEW070 01/01 Q1032', 'LOWI 022150Z VRB01KT 9999 SCT075 02/02 Q1031 NOSIG', 'LOWI 022120Z VRB02KT 9999 SCT075 02/02 Q1031 NOSIG', 'LOWI 022050Z VRB01KT 9999 BKN075 02/02 Q1031 NOSIG', 'LOWI 022020Z VRB01KT 9999 BKN075 03/02 Q1032 NOSIG', 'LOWI 021950Z VRB02KT 9999 BKN075 03/02 Q1032 NOSIG', 'LOWI 021920Z VRB02KT 9999 BKN075 03/03 Q1032 NOSIG', 'LOWI 021850Z VRB01KT 9999 BKN075 04/03 Q1032 NOSIG', 'LOWI 021820Z VRB02KT 9999 BKN075 04/03 Q1032 NOSIG', 'LOWI 021750Z 28002KT 9999 BKN075 05/03 Q1032 NOSIG', 'LOWI 021720Z VRB01KT 9999 BKN070 05/03 Q1032 NOSIG', 'LOWI 021650Z 00000KT 9999 BKN070 05/03 Q1032 NOSIG', 'LOWI 021620Z VRB01KT 9999 BKN070 06/03 Q1033 NOSIG', 'LOWI 021550Z VRB02KT 9999 BKN065 06/03 Q1033 NOSIG', 'LOWI 021520Z VRB01KT 9999 FEW020 BKN065 06/04 Q1032 NOSIG', 'LOWI 021450Z VRB02KT 9999 FEW020 BKN065 06/03 Q1032 NOSIG', 'LOWI 021420Z 13004KT 9999 FEW012 SCT040 BKN065 06/03 Q1033 NOSIG', 'LOWI 021350Z VRB02KT 9999 FEW012 SCT040 BKN065 06/03 Q1033 NOSIG', 'LOWI 021320Z VRB01KT 9999 FEW012 BKN065 06/03 Q1033 NOSIG', 'LOWI 021250Z 27004KT 220V300 9999 -RA FEW008 BKN070 06/03 Q1032 NOSIG', 'LOWI 021220Z 25004KT 9999 -RA FEW008 BKN070 06/03 Q1032 NOSIG', 'LOWI 021150Z 26004KT 210V290 9999 FEW008 BKN070 06/03 Q1032 NOSIG', 'LOWI 021120Z VRB02KT 9999 FEW008 BKN075 05/03 Q1033 NOSIG', 'LOWI 021050Z VRB02KT 9999 FEW008 BKN095 05/03 Q1033 NOSIG', 'LOWI 021020Z 28004KT 9999 SCT008 BKN095 04/03 Q1033 NOSIG', 'LOWI 020950Z 27003KT 230V290 8000 FEW006 SCT010 BKN085 04/03 Q1033 NOSIG', 'LOWI 020920Z VRB02KT 8000 FEW005 SCT010 BKN090 04/03 Q1033 NOSIG', 'LOWI 020850Z 26003KT 220V290 6000 FEW006 SCT010 BKN015 03/02 Q1034 NOSIG', 'LOWI 020820Z 23003KT 190V260 6000 FEW005 SCT008 BKN015 03/02 Q1034 TEMPO BKN013', 'LOWI 020750Z 28002KT 6000 FEW004 SCT008 BKN015 02/02 Q1034 TEMPO BKN010', 'LOWI 020720Z 26003KT 210V300 6000 FEW004 SCT008 BKN015 02/02 Q1033 TEMPO BKN008', 'LOWI 020650Z VRB02KT 6000 FEW003 SCT007 BKN015 02/02 Q1033 TEMPO BKN008', 'LOWI 020620Z 25003KT 6000 FEW005 SCT008 BKN015 02/02 Q1033 TEMPO BKN008', 'LOWI 020550Z 28004KT 6000 FEW004 SCT007 BKN015 02/02 Q1032 TEMPO BKN008', 'LOWI 020520Z 26004KT 6000 FEW003 SCT006 BKN015 02/02 Q1032 TEMPO BKN008', 'LOWI 020450Z VRB02KT 6000 FEW005 SCT008 BKN015 02/02 Q1032 TEMPO BKN010', 'LOWI 020420Z AUTO 26003KT 9999 FEW008 SCT017 BKN022 02/02 Q1032', 'LOWI 020350Z AUTO VRB02KT 9999 BKN008 02/02 Q1032', 'LOWI 020320Z AUTO 25003KT 9999 FEW006 BKN008 02/02 Q1032', 'LOWI 020250Z AUTO 29002KT 7000 FEW006 BKN008 02/02 Q1032', 'LOWI 020220Z AUTO VRB01KT 9999 FEW006 BKN009 02/02 Q1032', 'LOWI 020150Z AUTO 26002KT 9999 SCT007 BKN009 02/02 Q1032', 'LOWI 020120Z AUTO VRB01KT 9999 FEW006 BKN009 02/02 Q1032', 'LOWI 020050Z AUTO 26003KT 9999 FEW006 BKN007 02/02 Q1032', 'LOWI 020020Z AUTO 27003KT 9999 FEW006 BKN007 02/02 Q1032', 'LOWI 012350Z AUTO VRB02KT 9000 FEW006 BKN008 02/02 Q1032', 'LOWI 012320Z AUTO 26005KT 7000 FEW007 BKN009 02/02 Q1032', 'LOWI 012250Z AUTO VRB01KT 7000 FEW007 BKN009 02/02 Q1032', 'LOWI 012220Z AUTO VRB02KT 9000 FEW006 BKN009 02/02 Q1032', 'LOWI 012150Z AUTO VRB02KT 7000 FEW007 BKN009 02/02 Q1032', 'LOWI 012120Z 23003KT 190V260 8000 FEW007 BKN012 BKN080 02/02 Q1032 NOSIG', 'LOWI 012050Z 24003KT 190V260 8000 FEW007 SCT012 BKN070 02/02 Q1032 TEMPO BKN012', 'LOWI 012020Z VRB02KT 8000 -RA SCT012 SCT030 BKN070 02/02 Q1032 TEMPO BKN012', 'LOWI 011950Z VRB01KT 8000 SCT012 SCT030 BKN070 02/02 Q1032 TEMPO BKN012', 'LOWI 011920Z VRB01KT 9999 SCT012 BKN070 02/02 Q1032 TEMPO BKN012', 'LOWI 011850Z 28003KT 9999 SCT012 SCT030 BKN070 02/02 Q1032 TEMPO BKN013', 'LOWI 011820Z 21003KT 9999 FEW010 SCT013 BKN060 03/02 Q1031 BECMG BKN013', 'LOWI 011750Z VRB01KT 9999 FEW030 SCT040 BKN060 03/03 Q1031 NOSIG', 'LOWI 011720Z VRB02KT 9999 -DZ FEW030 SCT040 BKN060 03/02 Q1031 NOSIG', 'LOWI 011650Z VRB01KT 9999 -RA FEW030 SCT040 BKN060 03/02 Q1031 NOSIG', 'LOWI 011620Z VRB01KT 9999 -DZ FEW030 SCT040 BKN055 03/02 Q1030 NOSIG', 'LOWI 011550Z 12002KT 9999 -RADZ FEW030 SCT040 BKN050 04/02 Q1030 NOSIG', 'LOWI 011520Z VRB02KT 9999 -RA FEW035 SCT040 BKN050 04/02 Q1030 NOSIG', 'LOWI 011450Z VRB01KT 9999 -RA FEW035 SCT045 BKN060 04/01 Q1030 NOSIG', 'LOWI 011420Z VRB01KT 9999 -RA FEW035 SCT045 BKN060 04/01 Q1030 NOSIG', 'LOWI 011350Z 20002KT 9999 -RADZ FEW035 SCT045 BKN060 04/01 Q1029 NOSIG', 'LOWI 011320Z VRB02KT 9999 FEW040 SCT050 BKN060 04/00 Q1029 NOSIG', 'LOWI 011250Z VRB02KT 9999 FEW040 SCT050 BKN060 04/00 Q1029 NOSIG', 'LOWI 011220Z VRB01KT 9999 FEW040 SCT050 BKN060 04/00 Q1029 NOSIG', 'LOWI 011150Z VRB01KT 9999 FEW040 SCT050 BKN060 03/00 Q1030 NOSIG', 'LOWI 011120Z 26002KT 9999 -DZRA FEW030 SCT040 BKN050 02/00 Q1030 NOSIG', 'LOWI 011050Z VRB01KT 9999 -RA FEW030 SCT040 BKN053 02/M00 Q1030 NOSIG', 'LOWI 011020Z VRB01KT 9999 -RA FEW040 SCT050 BKN060 01/M01 Q1031 NOSIG', 'LOWI 010950Z 28004KT 9999 FEW040 SCT050 BKN060 01/M00 Q1031 NOSIG', 'LOWI 010920Z 24003KT 9999 FEW050 SCT060 BKN080 01/M01 Q1030 NOSIG', 'LOWI 010850Z VRB01KT 9999 FEW050 SCT065 BKN100 00/M01 Q1030 NOSIG', 'LOWI 010820Z VRB01KT 9999 FEW050 SCT065 BKN085 M00/M01 Q1030 NOSIG', 'LOWI 010750Z VRB01KT 9999 FEW060 SCT080 BKN120 M01/M01 Q1030 NOSIG', 'LOWI 010720Z VRB02KT 9999 FEW060 SCT080 BKN100 M01/M02 Q1030 NOSIG', 'LOWI 010650Z VRB02KT 9999 SCT070 M01/M02 Q1030 NOSIG', 'LOWI 010620Z VRB02KT 9999 SCT070 M01/M02 Q1030 NOSIG', 'LOWI 010550Z VRB01KT 9999 SCT070 M01/M02 Q1031 NOSIG', 'LOWI 010520Z VRB01KT 9999 SCT070 M03/M03 Q1031 NOSIG', 'LOWI 010450Z VRB01KT 9999 FEW070 SCT120 M02/M03 Q1030 NOSIG', 'LOWI 010420Z AUTO VRB02KT 9999 NCD M02/M03 Q1030', 'LOWI 010350Z AUTO VRB02KT 9999 NCD M03/M04 Q1030', 'LOWI 010320Z AUTO VRB02KT 9999 NCD M02/M03 Q1030', 'LOWI 010250Z AUTO 27003KT 220V360 9999 NCD M02/M02 Q1030', 'LOWI 010220Z AUTO 30004KT 210V330 9999 NCD M02/M03 Q1030', 'LOWI 010150Z AUTO VRB02KT 9999 NCD M02/M03 Q1030', 'LOWI 010120Z AUTO VRB01KT 9999 NCD M02/M03 Q1031', 'LOWI 010050Z AUTO VRB02KT 9999 NCD M02/M02 Q1031', 'LOWI 010020Z AUTO VRB01KT 9999 NCD M02/M03 Q1032', 'LOWI 312350Z AUTO VRB01KT 9999 NCD M02/M02 Q1032', 'LOWI 312320Z AUTO VRB01KT 9999 NCD M02/M03 Q1032', 'LOWI 312250Z AUTO VRB02KT 9999 NCD M01/M03 Q1032']","['2024-02-03 21:50:00', '2024-02-03 21:20:00', '2024-02-03 20:50:00', '2024-02-03 20:20:00', '2024-02-03 19:50:00', '2024-02-03 19:20:00', '2024-02-03 18:50:00', '2024-02-03 18:20:00', '2024-02-03 17:50:00', '2024-02-03 17:20:00', '2024-02-03 16:50:00', '2024-02-03 16:20:00', '2024-02-03 15:50:00', '2024-02-03 15:20:00', '2024-02-03 14:50:00', '2024-02-03 14:20:00', '2024-02-03 13:50:00', '2024-02-03 13:20:00', '2024-02-03 12:50:00', '2024-02-03 12:20:00', '2024-02-03 11:50:00', '2024-02-03 11:20:00', '2024-02-03 10:50:00', '2024-02-03 10:20:00', '2024-02-03 09:50:00', '2024-02-03 09:20:00', '2024-02-03 08:50:00', '2024-02-03 08:20:00', '2024-02-03 07:50:00', '2024-02-03 07:20:00', '2024-02-03 06:50:00', '2024-02-03 06:20:00', '2024-02-03 05:50:00', '2024-02-03 05:20:00', '2024-02-03 04:50:00', '2024-02-03 04:20:00', '2024-02-03 03:50:00', '2024-02-03 03:20:00', '2024-02-03 02:50:00', '2024-02-03 02:20:00', '2024-02-03 01:50:00', '2024-02-03 01:20:00', '2024-02-03 00:50:00', '2024-02-03 00:20:00', '2024-02-02 23:50:00', '2024-02-02 23:20:00', '2024-02-02 22:50:00', '2024-02-02 22:20:00', '2024-02-02 21:50:00', '2024-02-02 21:20:00', '2024-02-02 20:50:00', '2024-02-02 20:20:00', '2024-02-02 19:50:00', '2024-02-02 19:20:00', '2024-02-02 18:50:00', '2024-02-02 18:20:00', '2024-02-02 17:50:00', '2024-02-02 17:20:00', '2024-02-02 16:50:00', '2024-02-02 16:20:00', '2024-02-02 15:50:00', '2024-02-02 15:20:00', '2024-02-02 14:50:00', '2024-02-02 14:20:00', '2024-02-02 13:50:00', '2024-02-02 13:20:00', '2024-02-02 12:50:00', '2024-02-02 12:20:00', '2024-02-02 11:50:00', '2024-02-02 11:20:00', '2024-02-02 10:50:00', '2024-02-02 10:20:00', '2024-02-02 09:50:00', '2024-02-02 09:20:00', '2024-02-02 08:50:00', '2024-02-02 08:20:00', '2024-02-02 07:50:00', '2024-02-02 07:20:00', '2024-02-02 06:50:00', '2024-02-02 06:20:00', '2024-02-02 05:50:00', '2024-02-02 05:20:00', '2024-02-02 04:50:00', '2024-02-02 04:20:00', '2024-02-02 03:50:00', '2024-02-02 03:20:00', '2024-02-02 02:50:00', '2024-02-02 02:20:00', '2024-02-02 01:50:00', '2024-02-02 01:20:00', '2024-02-02 00:50:00', '2024-02-02 00:20:00', '2024-02-01 23:50:00', '2024-02-01 23:20:00', '2024-02-01 22:50:00', '2024-02-01 22:20:00', '2024-02-01 21:50:00', '2024-02-01 21:20:00', '2024-02-01 20:50:00', '2024-02-01 20:20:00', '2024-02-01 19:50:00', '2024-02-01 19:20:00', '2024-02-01 18:50:00', '2024-02-01 18:20:00', '2024-02-01 17:50:00', '2024-02-01 17:20:00', '2024-02-01 16:50:00', '2024-02-01 16:20:00', '2024-02-01 15:50:00', '2024-02-01 15:20:00', '2024-02-01 14:50:00', '2024-02-01 14:20:00', '2024-02-01 13:50:00', '2024-02-01 13:20:00', '2024-02-01 12:50:00', '2024-02-01 12:20:00', '2024-02-01 11:50:00', '2024-02-01 11:20:00', '2024-02-01 10:50:00', '2024-02-01 10:20:00', '2024-02-01 09:50:00', '2024-02-01 09:20:00', '2024-02-01 08:50:00', '2024-02-01 08:20:00', '2024-02-01 07:50:00', '2024-02-01 07:20:00', '2024-02-01 06:50:00', '2024-02-01 06:20:00', '2024-02-01 05:50:00', '2024-02-01 05:20:00', '2024-02-01 04:50:00', '2024-02-01 04:20:00', '2024-02-01 03:50:00', '2024-02-01 03:20:00', '2024-02-01 02:50:00', '2024-02-01 02:20:00', '2024-02-01 01:50:00', '2024-02-01 01:20:00', '2024-02-01 00:50:00', '2024-02-01 00:20:00', '2024-01-31 23:50:00', '2024-01-31 23:20:00', '2024-01-31 22:50:00']"
Austria, Klagenfurt Airport (KLU/LOWK) ,"['LOWK 032150Z AUTO 30002KT 9999 NCD M01/M02 Q1025 NOSIG', 'LOWK 032120Z AUTO 28003KT 9999 NCD M01/M02 Q1025 NOSIG', 'LOWK 032050Z AUTO 28003KT 210V320 9999 NCD M00/M02 Q1025 NOSIG', 'LOWK 032020Z AUTO 32003KT 260V010 9999 NCD M00/M02 Q1025 NOSIG', 'LOWK 031950Z AUTO 32003KT 290V360 9999 NCD 00/M02 Q1025 NOSIG', 'LOWK 031920Z AUTO 31002KT 9999 NCD 00/M02 Q1025 NOSIG', 'LOWK 031850Z AUTO 29003KT 9999 NCD 00/M02 Q1024 NOSIG', 'LOWK 031820Z AUTO 31003KT 9999 NCD 01/M01 Q1024 NOSIG', 'LOWK 031750Z AUTO 31003KT 9999 NCD 01/M01 Q1024 NOSIG', 'LOWK 031720Z AUTO 30003KT 250V360 9999 NCD 02/M01 Q1024 NOSIG', 'LOWK 031650Z AUTO VRB01KT 9999 NCD 02/M01 Q1023 NOSIG', 'LOWK 031620Z AUTO VRB01KT 9999 NCD 03/M01 Q1023 NOSIG', 'LOWK 031550Z AUTO VRB01KT 9999 NCD 04/M00 Q1023 NOSIG', 'LOWK 031520Z AUTO VRB01KT 9999 NCD 04/M00 Q1023 NOSIG', 'LOWK 031450Z AUTO VRB02KT 9999 NCD 04/M00 Q1023 NOSIG', 'LOWK 031420Z AUTO VRB02KT 9999 NCD 06/M00 Q1023 NOSIG', 'LOWK 031350Z AUTO 10003KT 050V140 9999 NCD 07/00 Q1023 NOSIG', 'LOWK 031320Z AUTO 08003KT 050V110 9999 NCD 08/00 Q1023 NOSIG', 'LOWK 031250Z AUTO 11003KT 060V180 9999 NCD 08/01 Q1023 NOSIG', 'LOWK 031220Z AUTO 12003KT 070V170 9999 NCD 07/00 Q1024 NOSIG', 'LOWK 031150Z AUTO VRB02KT 9999 NCD 07/M00 Q1024 NOSIG', 'LOWK 031120Z AUTO VRB01KT 9999 NCD 07/M00 Q1025 NOSIG', 'LOWK 031050Z AUTO VRB02KT 9999 NCD 06/M00 Q1025 NOSIG', 'LOWK 031020Z AUTO VRB02KT CAVOK 05/M01 Q1026 NOSIG', 'LOWK 030950Z AUTO VRB02KT 9999 NCD 04/M01 Q1026 NOSIG', 'LOWK 030920Z AUTO VRB02KT 9999 NCD 02/M02 Q1026 NOSIG', 'LOWK 030850Z AUTO 27003KT 190V310 9999 NCD 01/M02 Q1026 NOSIG', 'LOWK 030820Z AUTO VRB02KT 9999 NCD M01/M03 Q1026 NOSIG', 'LOWK 030750Z AUTO VRB03KT 9999 NCD M02/M03 Q1026 NOSIG', 'LOWK 030720Z AUTO 27003KT 200V320 9999 NCD M02/M03 Q1026 NOSIG', 'LOWK 030650Z AUTO VRB02KT 9999 FEW090 M03/M04 Q1026 NOSIG', 'LOWK 030620Z AUTO 31004KT 9999 FEW090 M03/M04 Q1025 NOSIG', 'LOWK 030550Z AUTO 30003KT 270V340 9999 FEW090 M03/M04 Q1025 NOSIG', 'LOWK 030520Z AUTO VRB02KT 9999 FEW090 M03/M04 Q1025 NOSIG', 'LOWK 030450Z AUTO VRB01KT 9999 NCD M03/M04 Q1025 NOSIG', 'LOWK 030420Z AUTO VRB01KT 9999 NCD M03/M04 Q1025', 'LOWK 030350Z AUTO VRB03KT 9999 FEW090 M02/M03 Q1025', 'LOWK 030320Z AUTO VRB02KT 9999 FEW080 M02/M04 Q1025', 'LOWK 030250Z AUTO VRB03KT 9999 FEW080 M01/M03 Q1024', 'LOWK 030220Z AUTO 28004KT 240V320 9999 FEW080 M01/M03 Q1025', 'LOWK 030150Z AUTO 28005KT 240V300 9999 FEW080 M01/M03 Q1025', 'LOWK 030120Z AUTO 29005KT 9999 NCD M01/M02 Q1026', 'LOWK 030050Z AUTO 31008KT 9999 NCD M01/M03 Q1026', 'LOWK 030020Z AUTO 28005KT 240V300 9999 NCD M01/M03 Q1026', 'LOWK 022350Z AUTO 30004KT 9999 NCD M01/M02 Q1026', 'LOWK 022320Z AUTO VRB02KT 9999 NCD M01/M02 Q1027', 'LOWK 022250Z AUTO 29003KT 9999 NCD M01/M02 Q1027', 'LOWK 022220Z AUTO 29003KT 260V320 9999 NCD M01/M02 Q1027 NOSIG', 'LOWK 022150Z AUTO 28003KT 200V340 9999 NCD M01/M02 Q1027 NOSIG', 'LOWK 022120Z AUTO 30005KT 9999 NCD M00/M02 Q1027 NOSIG', 'LOWK 022050Z AUTO 31004KT 280V340 9999 NCD M01/M03 Q1028 NOSIG', 'LOWK 022020Z AUTO 23003KT 180V240 CAVOK 00/M02 Q1028 NOSIG', 'LOWK 021950Z AUTO 30005KT CAVOK 00/M02 Q1028 NOSIG', 'LOWK 021920Z AUTO 32003KT CAVOK 00/M02 Q1028 NOSIG', 'LOWK 021850Z AUTO 30003KT 240V340 CAVOK 01/M02 Q1028 NOSIG', 'LOWK 021820Z AUTO 30005KT 9999 NCD 01/M02 Q1028 NOSIG', 'LOWK 021750Z AUTO 32004KT 9999 FEW060 02/M02 Q1028 NOSIG', 'LOWK 021720Z AUTO VRB01KT 9999 SCT070 03/M01 Q1028 NOSIG', 'LOWK 021650Z AUTO VRB01KT 9999 FEW070 BKN080 03/M01 Q1028 NOSIG', 'LOWK 021620Z AUTO VRB01KT 9999 FEW080 SCT100 04/M01 Q1028 NOSIG', 'LOWK 021550Z AUTO VRB01KT 9999 FEW070 BKN100 05/M01 Q1028 NOSIG', 'LOWK 021520Z AUTO VRB02KT 9999 FEW070 BKN100 05/M01 Q1028 NOSIG', 'LOWK 021450Z AUTO 12003KT 080V170 9999 FEW070 06/M00 Q1028 NOSIG', 'LOWK 021420Z AUTO 10003KT 070V130 9999 FEW070 05/M01 Q1028 NOSIG', 'LOWK 021350Z AUTO 10004KT 060V150 9999 FEW070 SCT080 06/M01 Q1028 NOSIG', 'LOWK 021320Z AUTO 11003KT 060V160 9999 FEW070 BKN080 05/M00 Q1028 NOSIG', 'LOWK 021250Z AUTO 12003KT 060V150 9999 BKN080 05/M01 Q1028 NOSIG', 'LOWK 021220Z AUTO 10003KT 050V150 9999 BKN080 06/M01 Q1029 NOSIG', 'LOWK 021150Z AUTO 11003KT 070V180 9999 NCD 05/M01 Q1029 NOSIG', 'LOWK 021120Z AUTO VRB02KT 9999 NCD 05/M01 Q1030 NOSIG', 'LOWK 021050Z AUTO VRB01KT 9999 FEW001 04/M01 Q1030 NOSIG', 'LOWK 021020Z AUTO VRB01KT 9999 FEW001 02/M01 Q1030 NOSIG', 'LOWK 020950Z AUTO VRB02KT 9999 4500E R10/P1500U R28/P1500U BR FEW000 SCT001 M00/M01 Q1031 BECMG 9999', 'LOWK 020920Z AUTO VRB01KT 0500 R10/1100U R28/0450N FZFG BKN001 M02/M02 Q1031 TEMPO 1200 BCFG SCT002 BECMG 9999 NSW', 'LOWK 020850Z AUTO VRB01KT 0500 R10/0650N R28/0600N FZFG BKN001 M03/M03 Q1031 TEMPO 1200 BCFG SCT002 BECMG FM1000 9999 NSW', 'LOWK 020820Z AUTO VRB01KT 0400 R10/0550N R28/0500N FZFG FEW001 BKN002 M03/M04 Q1031 TEMPO 2000 BCFG SCT002 BECMG FM0930 9999 NSW', 'LOWK 020750Z AUTO VRB02KT 0400 R10/0400U R28/0500D FZFG FEW001 BKN002 M04/M04 Q1031 TEMPO 2000 BCFG SCT002 BECMG FM0900 9999 NSW', 'LOWK 020720Z AUTO VRB01KT 6000 0600E R10/P1500D R28/0450D BCFG SCT001 M04/M05 Q1031 TEMPO 2000 BCFG BKN002', 'LOWK 020650Z AUTO VRB01KT 9999 FEW001 M05/M06 Q1030 NOSIG', 'LOWK 020620Z AUTO VRB02KT CAVOK M05/M06 Q1030 NOSIG', 'LOWK 020550Z AUTO VRB01KT 9999 NCD M04/M06 Q1030 NOSIG', 'LOWK 020520Z AUTO VRB02KT 9999 NCD M04/M05 Q1029 NOSIG', 'LOWK 020450Z AUTO VRB02KT 9999 FEW070 M04/M06 Q1029 NOSIG', 'LOWK 020420Z AUTO 28003KT 210V310 9999 FEW070 M03/M05 Q1029', 'LOWK 020350Z AUTO 30003KT 9999 NSC M03/M05 Q1029', 'LOWK 020320Z AUTO 32002KT 9999 FEW070 M03/M05 Q1029', 'LOWK 020250Z AUTO 30003KT 9999 FEW070 SCT080 M03/M04 Q1029', 'LOWK 020220Z AUTO 30003KT 9999 BKN070 M03/M04 Q1029', 'LOWK 020150Z AUTO VRB01KT 9999 FEW070 M03/M04 Q1029', 'LOWK 020120Z AUTO VRB01KT 9999 FEW070 M03/M04 Q1029', 'LOWK 020050Z AUTO VRB02KT 9999 FEW070 M03/M05 Q1029', 'LOWK 020020Z AUTO VRB01KT 9999 NCD M03/M04 Q1029', 'LOWK 012350Z AUTO 30004KT 260V360 9999 FEW070 M03/M04 Q1029', 'LOWK 012320Z AUTO VRB02KT 9999 NCD M03/M04 Q1029', 'LOWK 012250Z AUTO VRB01KT 9999 NCD M03/M04 Q1029', 'LOWK 012220Z AUTO 27003KT 9999 NCD M02/M03 Q1028', 'LOWK 012150Z AUTO 32003KT 300V360 9999 NCD M02/M03 Q1028 NOSIG', 'LOWK 012120Z AUTO VRB02KT 9999 NCD M02/M04 Q1028 NOSIG', 'LOWK 012050Z AUTO VRB02KT 9999 NCD M02/M03 Q1028 NOSIG', 'LOWK 012020Z AUTO VRB02KT 9999 NCD M02/M03 Q1028 NOSIG', 'LOWK 011950Z AUTO VRB01KT 9999 NCD M02/M03 Q1028 NOSIG', 'LOWK 011920Z AUTO VRB02KT 9999 NCD M01/M03 Q1028 NOSIG', 'LOWK 011850Z AUTO VRB01KT 9999 NCD M01/M03 Q1028 NOSIG', 'LOWK 011820Z AUTO 29003KT 220V350 9999 FEW070 M01/M03 Q1027 NOSIG', 'LOWK 011750Z AUTO 31003KT 260V340 CAVOK 00/M02 Q1028 NOSIG', 'LOWK 011720Z AUTO 30004KT 9999 FEW080 01/M02 Q1027 NOSIG', 'LOWK 011650Z AUTO VRB01KT 9999 SCT070 01/M02 Q1027 NOSIG', 'LOWK 011620Z AUTO VRB02KT 9999 FEW070 BKN080 01/M02 Q1027 NOSIG', 'LOWK 011550Z AUTO VRB01KT 9999 FEW070 BKN090 02/M02 Q1026 NOSIG', 'LOWK 011520Z AUTO VRB01KT 9999 BKN080 03/M02 Q1026 NOSIG', 'LOWK 011450Z AUTO VRB02KT 9999 BKN080 03/M02 Q1026 NOSIG', 'LOWK 011420Z AUTO VRB01KT 9999 FEW070 BKN080 03/M02 Q1026 NOSIG', 'LOWK 011350Z AUTO VRB02KT 9999 FEW070 BKN080 03/M01 Q1026 NOSIG', 'LOWK 011320Z AUTO VRB02KT 9999 FEW060 BKN080 03/M02 Q1026 NOSIG', 'LOWK 011250Z AUTO VRB02KT 9999 FEW050 BKN070 04/M02 Q1026 NOSIG', 'LOWK 011220Z AUTO 34003KT 300V010 9999 -RA FEW048 BKN060 03/M02 Q1027 NOSIG', 'LOWK 011150Z AUTO VRB02KT 9999 -SHRA FEW048 OVC060 03/M02 Q1027 NOSIG', 'LOWK 011120Z AUTO VRB02KT 9999 FEW050 BKN080 03/M02 Q1028 NOSIG', 'LOWK 011050Z AUTO VRB02KT CAVOK 03/M02 Q1028 NOSIG', 'LOWK 011020Z AUTO VRB01KT CAVOK 02/M02 Q1028 NOSIG', 'LOWK 010950Z AUTO VRB02KT CAVOK 00/M03 Q1029 NOSIG', 'LOWK 010920Z AUTO VRB02KT CAVOK M01/M04 Q1029 NOSIG', 'LOWK 010850Z AUTO VRB01KT CAVOK M02/M04 Q1029 NOSIG', 'LOWK 010820Z AUTO VRB01KT CAVOK M02/M04 Q1029 NOSIG', 'LOWK 010750Z AUTO VRB01KT 9999 NCD M03/M05 Q1029 NOSIG', 'LOWK 010720Z AUTO VRB02KT 9999 NCD M04/M06 Q1030 NOSIG', 'LOWK 010650Z AUTO 30003KT 260V320 9999 NCD M04/M06 Q1030 NOSIG', 'LOWK 010620Z AUTO VRB01KT 9999 NCD M06/M07 Q1029 NOSIG', 'LOWK 010550Z AUTO VRB02KT 9999 NCD M05/M06 Q1029 NOSIG', 'LOWK 010520Z AUTO VRB02KT 9999 NCD M05/M06 Q1029 NOSIG', 'LOWK 010450Z AUTO 34003KT 9999 NCD M05/M06 Q1029 NOSIG', 'LOWK 010420Z AUTO 19002KT 9999 NCD M05/M06 Q1029', 'LOWK 010350Z AUTO 31004KT 9999 NCD M04/M05 Q1029', 'LOWK 010320Z AUTO VRB01KT 9999 NCD M04/M06 Q1030', 'LOWK 010250Z AUTO 30004KT 9999 NCD M04/M05 Q1030', 'LOWK 010220Z AUTO 30003KT 9999 NCD M04/M05 Q1030', 'LOWK 010150Z AUTO 31003KT 9999 NCD M04/M05 Q1030', 'LOWK 010120Z AUTO 30003KT 9999 NCD M04/M05 Q1031', 'LOWK 010050Z AUTO VRB02KT 9999 NCD M04/M05 Q1031', 'LOWK 010020Z AUTO 33002KT 9999 NCD M03/M05 Q1031', 'LOWK 312350Z AUTO VRB02KT 9999 NCD M03/M05 Q1031', 'LOWK 312320Z AUTO 33002KT 9999 NCD M03/M05 Q1031', 'LOWK 312250Z AUTO VRB02KT 9999 NCD M02/M04 Q1031']","['2024-02-03 21:50:00', '2024-02-03 21:20:00', '2024-02-03 20:50:00', '2024-02-03 20:20:00', '2024-02-03 19:50:00', '2024-02-03 19:20:00', '2024-02-03 18:50:00', '2024-02-03 18:20:00', '2024-02-03 17:50:00', '2024-02-03 17:20:00', '2024-02-03 16:50:00', '2024-02-03 16:20:00', '2024-02-03 15:50:00', '2024-02-03 15:20:00', '2024-02-03 14:50:00', '2024-02-03 14:20:00', '2024-02-03 13:50:00', '2024-02-03 13:20:00', '2024-02-03 12:50:00', '2024-02-03 12:20:00', '2024-02-03 11:50:00', '2024-02-03 11:20:00', '2024-02-03 10:50:00', '2024-02-03 10:20:00', '2024-02-03 09:50:00', '2024-02-03 09:20:00', '2024-02-03 08:50:00', '2024-02-03 08:20:00', '2024-02-03 07:50:00', '2024-02-03 07:20:00', '2024-02-03 06:50:00', '2024-02-03 06:20:00', '2024-02-03 05:50:00', '2024-02-03 05:20:00', '2024-02-03 04:50:00', '2024-02-03 04:20:00', '2024-02-03 03:50:00', '2024-02-03 03:20:00', '2024-02-03 02:50:00', '2024-02-03 02:20:00', '2024-02-03 01:50:00', '2024-02-03 01:20:00', '2024-02-03 00:50:00', '2024-02-03 00:20:00', '2024-02-02 23:50:00', '2024-02-02 23:20:00', '2024-02-02 22:50:00', '2024-02-02 22:20:00', '2024-02-02 21:50:00', '2024-02-02 21:20:00', '2024-02-02 20:50:00', '2024-02-02 20:20:00', '2024-02-02 19:50:00', '2024-02-02 19:20:00', '2024-02-02 18:50:00', '2024-02-02 18:20:00', '2024-02-02 17:50:00', '2024-02-02 17:20:00', '2024-02-02 16:50:00', '2024-02-02 16:20:00', '2024-02-02 15:50:00', '2024-02-02 15:20:00', '2024-02-02 14:50:00', '2024-02-02 14:20:00', '2024-02-02 13:50:00', '2024-02-02 13:20:00', '2024-02-02 12:50:00', '2024-02-02 12:20:00', '2024-02-02 11:50:00', '2024-02-02 11:20:00', '2024-02-02 10:50:00', '2024-02-02 10:20:00', '2024-02-02 09:50:00', '2024-02-02 09:20:00', '2024-02-02 08:50:00', '2024-02-02 08:20:00', '2024-02-02 07:50:00', '2024-02-02 07:20:00', '2024-02-02 06:50:00', '2024-02-02 06:20:00', '2024-02-02 05:50:00', '2024-02-02 05:20:00', '2024-02-02 04:50:00', '2024-02-02 04:20:00', '2024-02-02 03:50:00', '2024-02-02 03:20:00', '2024-02-02 02:50:00', '2024-02-02 02:20:00', '2024-02-02 01:50:00', '2024-02-02 01:20:00', '2024-02-02 00:50:00', '2024-02-02 00:20:00', '2024-02-01 23:50:00', '2024-02-01 23:20:00', '2024-02-01 22:50:00', '2024-02-01 22:20:00', '2024-02-01 21:50:00', '2024-02-01 21:20:00', '2024-02-01 20:50:00', '2024-02-01 20:20:00', '2024-02-01 19:50:00', '2024-02-01 19:20:00', '2024-02-01 18:50:00', '2024-02-01 18:20:00', '2024-02-01 17:50:00', '2024-02-01 17:20:00', '2024-02-01 16:50:00', '2024-02-01 16:20:00', '2024-02-01 15:50:00', '2024-02-01 15:20:00', '2024-02-01 14:50:00', '2024-02-01 14:20:00', '2024-02-01 13:50:00', '2024-02-01 13:20:00', '2024-02-01 12:50:00', '2024-02-01 12:20:00', '2024-02-01 11:50:00', '2024-02-01 11:20:00', '2024-02-01 10:50:00', '2024-02-01 10:20:00', '2024-02-01 09:50:00', '2024-02-01 09:20:00', '2024-02-01 08:50:00', '2024-02-01 08:20:00', '2024-02-01 07:50:00', '2024-02-01 07:20:00', '2024-02-01 06:50:00', '2024-02-01 06:20:00', '2024-02-01 05:50:00', '2024-02-01 05:20:00', '2024-02-01 04:50:00', '2024-02-01 04:20:00', '2024-02-01 03:50:00', '2024-02-01 03:20:00', '2024-02-01 02:50:00', '2024-02-01 02:20:00', '2024-02-01 01:50:00', '2024-02-01 01:20:00', '2024-02-01 00:50:00', '2024-02-01 00:20:00', '2024-01-31 23:50:00', '2024-01-31 23:20:00', '2024-01-31 22:50:00']"
Austria, Linz Airport (LNZ/LOWL) ,"['LOWL 032150Z AUTO 25003KT 9999 FEW019 OVC046 06/05 Q1026', 'LOWL 032120Z AUTO 27004KT 9999 FEW020 SCT022 BKN050 06/05 Q1026 NOSIG', 'LOWL 032050Z AUTO 26006KT 9999 FEW022 OVC044 06/05 Q1027 NOSIG', 'LOWL 032020Z AUTO 25008KT 9999 FEW022 SCT046 BKN060 06/05 Q1027 NOSIG', 'LOWL 031950Z AUTO 25009KT 9999 FEW016 SCT042 BKN044 07/05 Q1027 NOSIG', 'LOWL 031920Z AUTO 25009KT 9999 FEW016 BKN044 07/05 Q1027 NOSIG', 'LOWL 031850Z AUTO 27011KT 9999 FEW042 BKN044 07/05 Q1027 NOSIG', 'LOWL 031820Z AUTO 28014KT 9999 FEW044 SCT046 BKN080 07/04 Q1027 NOSIG', 'LOWL 031750Z AUTO 29012KT 9999 FEW048 SCT080 07/04 Q1027 NOSIG', 'LOWL 031720Z AUTO 29015KT 9999 FEW048 SCT080 07/04 Q1027 NOSIG', 'LOWL 031650Z AUTO 29012KT 9999 FEW019 SCT046 07/04 Q1026 NOSIG', 'LOWL 031620Z AUTO 30013KT 9999 FEW020 07/04 Q1027 NOSIG', 'LOWL 031550Z AUTO 30014KT 9999 FEW022 08/05 Q1026 NOSIG', 'LOWL 031520Z AUTO 29021KT 9999 FEW044 09/05 Q1026 NOSIG', 'LOWL 031450Z AUTO 30012KT 9999 FEW022 10/05 Q1026 NOSIG', 'LOWL 031420Z AUTO 29017KT 9999 NCD 10/05 Q1026 NOSIG', 'LOWL 031350Z AUTO 29016KT 9999 FEW034 10/05 Q1026 NOSIG', 'LOWL 031320Z AUTO 31015KT 9999 SCT032 10/05 Q1026 NOSIG', 'LOWL 031250Z AUTO 31013KT 9999 FEW030 BKN032 10/05 Q1026 NOSIG', 'LOWL 031220Z AUTO 30013KT 9999 FEW024 BKN028 10/05 Q1027 NOSIG', 'LOWL 031150Z AUTO 29011KT 9999 FEW022 BKN024 08/04 Q1027 NOSIG', 'LOWL 031120Z AUTO 28016KT 9999 FEW020 BKN022 08/04 Q1028 NOSIG', 'LOWL 031050Z AUTO 27019KT 9999 FEW020 BKN024 09/05 Q1028 NOSIG', 'LOWL 031020Z AUTO 27018KT 9999 BKN020 08/04 Q1028 NOSIG', 'LOWL 030950Z AUTO 27019KT 9999 BKN020 08/04 Q1028 NOSIG', 'LOWL 030920Z AUTO 26014KT 9999 FEW019 BKN022 08/03 Q1028 NOSIG', 'LOWL 030850Z AUTO 25010KT 9999 SCT022 BKN024 07/02 Q1028 NOSIG', 'LOWL 030820Z AUTO 24010KT 9999 BKN024 06/01 Q1028 NOSIG', 'LOWL 030750Z AUTO 25011KT 9999 FEW020 SCT022 BKN028 06/01 Q1028 NOSIG', 'LOWL 030720Z AUTO 25013KT 9999 FEW020 BKN022 06/01 Q1028 NOSIG', 'LOWL 030650Z AUTO 26011KT 9999 FEW020 BKN022 05/01 Q1028 NOSIG', 'LOWL 030620Z AUTO 24012KT 9999 FEW022 SCT026 05/00 Q1027 NOSIG', 'LOWL 030550Z AUTO 25013KT 9999 NCD 05/00 Q1027 NOSIG', 'LOWL 030520Z AUTO 25013KT 9999 NCD 05/00 Q1027 NOSIG', 'LOWL 030450Z AUTO 25012KT 9999 NCD 05/00 Q1027 NOSIG', 'LOWL 030420Z AUTO 25013KT 9999 NCD 05/00 Q1027', 'LOWL 030350Z AUTO 25009KT 9999 NCD 05/00 Q1027', 'LOWL 030320Z AUTO 27008KT 9999 NCD 05/00 Q1027', 'LOWL 030250Z AUTO 30007KT 9999 NCD 04/00 Q1027', 'LOWL 030220Z AUTO 30008KT 9999 NCD 06/00 Q1027', 'LOWL 030150Z AUTO 30006KT 260V320 9999 NCD 07/00 Q1027', 'LOWL 030120Z AUTO 27009KT 9999 NCD 07/00 Q1026', 'LOWL 030050Z AUTO 28012KT 9999 FEW034 SCT038 08/M00 Q1026', 'LOWL 030020Z AUTO 28005KT 230V310 9999 FEW036 BKN042 08/00 Q1026', 'LOWL 022350Z AUTO 29008KT 9999 FEW046 BKN050 06/02 Q1026', 'LOWL 022320Z AUTO 31007KT 9999 FEW042 BKN050 07/02 Q1027', 'LOWL 022250Z AUTO 29012KT 9999 FEW036 OVC050 08/02 Q1027', 'LOWL 022220Z AUTO 27011KT 9999 FEW036 BKN044 07/02 Q1027', 'LOWL 022150Z AUTO 27009KT 9999 FEW038 OVC048 07/03 Q1027 NOSIG', 'LOWL 022120Z AUTO 27011KT 9999 FEW040 BKN046 07/03 Q1027 NOSIG', 'LOWL 022050Z AUTO 28005KT 9999 FEW040 BKN044 07/04 Q1028 NOSIG', 'LOWL 022020Z AUTO 28011KT 9999 FEW042 SCT044 BKN046 07/04 Q1028 NOSIG', 'LOWL 021950Z AUTO 29010KT 9999 FEW046 BKN050 07/04 Q1028 NOSIG', 'LOWL 021920Z AUTO 28010KT 9999 BKN050 06/04 Q1028 NOSIG', 'LOWL 021850Z AUTO 29009KT 9999 OVC060 07/04 Q1028 NOSIG', 'LOWL 021820Z AUTO 30013KT 9999 SCT060 07/04 Q1029 NOSIG', 'LOWL 021750Z AUTO 28011KT 9999 FEW050 SCT060 BKN070 06/04 Q1029 NOSIG', 'LOWL 021720Z AUTO 29008KT 9999 OVC050 06/04 Q1029 NOSIG', 'LOWL 021650Z AUTO 28008KT 9999 SCT050 BKN060 06/04 Q1029 NOSIG', 'LOWL 021620Z AUTO 27007KT 9999 OVC060 06/04 Q1029 NOSIG', 'LOWL 021550Z AUTO 28008KT 9999 OVC060 06/04 Q1029 NOSIG', 'LOWL 021520Z AUTO 26010KT 9999 FEW044 OVC060 07/04 Q1029 NOSIG', 'LOWL 021450Z AUTO 27011KT 9999 -RA FEW024 SCT028 BKN060 07/05 Q1030 NOSIG', 'LOWL 021420Z AUTO 26013KT 9999 -RA FEW015 BKN024 06/05 Q1030 NOSIG', 'LOWL 021350Z AUTO 28011KT 9999 -RA FEW013 SCT017 BKN024 06/05 Q1030 NOSIG', 'LOWL 021320Z AUTO 29011KT 9999 -RA FEW016 SCT020 BKN024 06/05 Q1030 NOSIG', 'LOWL 021250Z AUTO 29013KT 9999 -RA FEW018 SCT022 BKN032 06/04 Q1030 NOSIG', 'LOWL 021220Z AUTO 29010KT 9999 FEW018 SCT026 BKN048 06/04 Q1030 NOSIG', 'LOWL 021150Z AUTO 29011KT 9999 FEW022 BKN026 06/04 Q1031 NOSIG', 'LOWL 021120Z AUTO 29011KT 9999 FEW024 SCT060 06/04 Q1031 NOSIG', 'LOWL 021050Z AUTO 30011KT 9999 FEW036 BKN080 06/03 Q1032 NOSIG', 'LOWL 021020Z AUTO 29012KT 9999 FEW016 05/03 Q1032 NOSIG', 'LOWL 020950Z AUTO 29011KT 9999 FEW022 SCT026 05/02 Q1032 NOSIG', 'LOWL 020920Z AUTO 28008KT 9999 FEW026 04/03 Q1032 NOSIG', 'LOWL 020850Z AUTO 30008KT 9999 FEW015 04/02 Q1032 NOSIG', 'LOWL 020820Z AUTO 29009KT CAVOK 04/02 Q1032 NOSIG', 'LOWL 020750Z AUTO 29009KT CAVOK 03/02 Q1032 NOSIG', 'LOWL 020720Z AUTO 29009KT CAVOK 03/02 Q1032 NOSIG', 'LOWL 020650Z AUTO 27007KT CAVOK 03/02 Q1032 NOSIG', 'LOWL 020620Z AUTO 28008KT CAVOK 03/02 Q1032 NOSIG', 'LOWL 020550Z AUTO 27006KT CAVOK 03/02 Q1032 NOSIG', 'LOWL 020520Z AUTO 27010KT 9999 FEW012 03/02 Q1031 NOSIG', 'LOWL 020450Z AUTO 28007KT CAVOK 03/02 Q1032 NOSIG', 'LOWL 020420Z AUTO 27007KT 9999 FEW010 03/02 Q1031 NOSIG', 'LOWL 020350Z AUTO 26008KT 9999 FEW010 BKN012 04/02 Q1031', 'LOWL 020320Z AUTO 27008KT 9999 BKN013 04/03 Q1031', 'LOWL 020250Z AUTO 26009KT 9999 FEW012 BKN013 05/03 Q1030', 'LOWL 020220Z AUTO 28010KT 9999 FEW012 BKN013 05/03 Q1031', 'LOWL 020150Z AUTO 26012KT 9999 FEW014 05/03 Q1031', 'LOWL 020120Z AUTO 26010KT 9999 NCD 04/03 Q1031', 'LOWL 020050Z AUTO 26010KT 9999 NSC 05/04 Q1030', 'LOWL 020020Z AUTO 28012KT 9999 FEW019 BKN022 05/04 Q1030', 'LOWL 012350Z AUTO 26011KT 9999 FEW022 05/04 Q1030', 'LOWL 012320Z AUTO 26009KT 9999 FEW011 SCT050 04/04 Q1031', 'LOWL 012250Z AUTO 25010KT 9999 FEW019 SCT050 05/04 Q1031', 'LOWL 012220Z AUTO 29011KT 9999 FEW048 OVC050 05/04 Q1031', 'LOWL 012150Z AUTO 26008KT 9999 FEW026 SCT030 BKN050 05/04 Q1031', 'LOWL 012120Z AUTO 28009KT 9999 FEW026 04/03 Q1031 NOSIG', 'LOWL 012050Z AUTO 26009KT 9999 NCD 05/03 Q1030 NOSIG', 'LOWL 012020Z AUTO 26009KT 9999 FEW019 05/04 Q1030 NOSIG', 'LOWL 011950Z AUTO 27011KT 9999 NCD 05/03 Q1030 NOSIG', 'LOWL 011920Z AUTO 26011KT 9999 FEW019 SCT050 06/05 Q1030 NOSIG', 'LOWL 011850Z AUTO 26011KT 9999 SCT020 SCT046 06/05 Q1030 NOSIG', 'LOWL 011820Z 27010KT 9999 FEW012 BKN040 06/05 Q1029 NOSIG', 'LOWL 011750Z 28013KT 9999 FEW008 SCT015 BKN035 07/06 Q1029 NOSIG', 'LOWL 011720Z 26010KT 9999 -RA FEW008 SCT013 BKN030 07/06 Q1029 NOSIG', 'LOWL 011650Z 26011KT 9999 -RA FEW008 SCT016 BKN025 07/06 Q1028 NOSIG', 'LOWL 011620Z 25012KT 9999 FEW008 SCT015 BKN025 07/06 Q1028 NOSIG', 'LOWL 011550Z 26011KT 9999 FEW008 SCT015 BKN020 07/06 Q1028 NOSIG', 'LOWL 011520Z 27011KT 9999 -DZ FEW008 SCT016 BKN022 07/06 Q1028 NOSIG', 'LOWL 011450Z AUTO 27007KT 9999 FEW011 SCT013 BKN030 07/06 Q1028 TEMPO BKN014', 'LOWL 011420Z AUTO 26009KT 9999 -DZ FEW010 BKN014 07/06 Q1027 TEMPO BKN015', 'LOWL 011350Z AUTO 27013KT 9999 FEW022 BKN028 07/06 Q1027 NOSIG', 'LOWL 011320Z AUTO 27014KT 9999 -RA FEW013 SCT026 BKN034 07/06 Q1027 NOSIG', 'LOWL 011250Z AUTO 28017KT 9999 -RA FEW013 BKN016 07/05 Q1027 TEMPO BKN014', 'LOWL 011220Z AUTO 27016KT 9999 -RA FEW015 SCT036 BKN050 07/06 Q1027 TEMPO 4000 SHRA', 'LOWL 011150Z AUTO 26020KT 9999 -RA FEW020 SCT035 BKN040 07/05 Q1027 TEMPO SHRA', 'LOWL 011120Z AUTO 26017KT 9999 -RA FEW028 SCT032 BKN040 07/05 Q1028 TEMPO SHRA', 'LOWL 011050Z AUTO 28017KT 9999 -RA FEW015 SCT044 BKN050 07/05 Q1028 TEMPO RA', 'LOWL 011020Z AUTO 28016KT 9999 -RA FEW028 SCT044 BKN050 07/05 Q1028 NOSIG', 'LOWL 010950Z AUTO 28011KT 9999 -RA FEW024 SCT042 BKN050 07/04 Q1028 NOSIG', 'LOWL 010920Z AUTO 26006KT 9999 FEW026 SCT028 BKN042 06/03 Q1028 TEMPO 28015KT SHRA', 'LOWL 010850Z AUTO 28004KT 9999 FEW028 BKN030 05/03 Q1028 TEMPO 28010KT SHRA', 'LOWL 010820Z AUTO 31003KT 250V020 9999 FEW028 SCT050 04/02 Q1028 TEMPO 28008KT SHRA', 'LOWL 010750Z AUTO 26009KT 9999 FEW044 05/03 Q1028 TEMPO FM0930 SHRA', 'LOWL 010720Z AUTO 28005KT 9999 FEW044 SCT050 03/01 Q1028 NOSIG', 'LOWL 010650Z AUTO VRB02KT 9999 FEW046 SCT050 03/01 Q1028 NOSIG', 'LOWL 010620Z AUTO 33004KT 270V030 9999 FEW046 OVC050 02/01 Q1028 NOSIG', 'LOWL 010550Z AUTO VRB01KT 9999 FEW044 BKN050 02/01 Q1028 NOSIG', 'LOWL 010520Z AUTO 31002KT 9999 FEW028 SCT030 BKN042 02/01 Q1028 NOSIG', 'LOWL 010450Z AUTO 23004KT 9999 FEW024 BKN026 02/01 Q1028 NOSIG', 'LOWL 010420Z AUTO 25005KT 9999 FEW026 BKN030 01/01 Q1028 NOSIG', 'LOWL 010350Z AUTO 22002KT 9999 FEW026 BKN028 00/00 Q1028', 'LOWL 010320Z AUTO 24005KT 9000 FEW026 BKN030 00/M00 Q1028', 'LOWL 010250Z AUTO 27004KT 7000 FEW028 BKN034 M01/M01 Q1028', 'LOWL 010220Z AUTO 24002KT 6000 FEW060 M00/M01 Q1028', 'LOWL 010150Z AUTO 28005KT 6000 FEW044 SCT060 M01/M01 Q1028', 'LOWL 010120Z AUTO 25005KT 7000 FEW042 BKN044 00/00 Q1029', 'LOWL 010050Z AUTO 22003KT 6000 FEW042 OVC046 00/M00 Q1029', 'LOWL 010020Z AUTO 22003KT 5000 BR FEW044 BKN046 M01/M01 Q1029', 'LOWL 312350Z AUTO 25003KT 4700 BR FEW042 BKN046 M01/M01 Q1030', 'LOWL 312320Z AUTO 22003KT 4200 BR FEW044 M01/M01 Q1030', 'LOWL 312250Z AUTO 26005KT 4400 BR FEW050 M02/M02 Q1030']","['2024-02-03 21:50:00', '2024-02-03 21:20:00', '2024-02-03 20:50:00', '2024-02-03 20:20:00', '2024-02-03 19:50:00', '2024-02-03 19:20:00', '2024-02-03 18:50:00', '2024-02-03 18:20:00', '2024-02-03 17:50:00', '2024-02-03 17:20:00', '2024-02-03 16:50:00', '2024-02-03 16:20:00', '2024-02-03 15:50:00', '2024-02-03 15:20:00', '2024-02-03 14:50:00', '2024-02-03 14:20:00', '2024-02-03 13:50:00', '2024-02-03 13:20:00', '2024-02-03 12:50:00', '2024-02-03 12:20:00', '2024-02-03 11:50:00', '2024-02-03 11:20:00', '2024-02-03 10:50:00', '2024-02-03 10:20:00', '2024-02-03 09:50:00', '2024-02-03 09:20:00', '2024-02-03 08:50:00', '2024-02-03 08:20:00', '2024-02-03 07:50:00', '2024-02-03 07:20:00', '2024-02-03 06:50:00', '2024-02-03 06:20:00', '2024-02-03 05:50:00', '2024-02-03 05:20:00', '2024-02-03 04:50:00', '2024-02-03 04:20:00', '2024-02-03 03:50:00', '2024-02-03 03:20:00', '2024-02-03 02:50:00', '2024-02-03 02:20:00', '2024-02-03 01:50:00', '2024-02-03 01:20:00', '2024-02-03 00:50:00', '2024-02-03 00:20:00', '2024-02-02 23:50:00', '2024-02-02 23:20:00', '2024-02-02 22:50:00', '2024-02-02 22:20:00', '2024-02-02 21:50:00', '2024-02-02 21:20:00', '2024-02-02 20:50:00', '2024-02-02 20:20:00', '2024-02-02 19:50:00', '2024-02-02 19:20:00', '2024-02-02 18:50:00', '2024-02-02 18:20:00', '2024-02-02 17:50:00', '2024-02-02 17:20:00', '2024-02-02 16:50:00', '2024-02-02 16:20:00', '2024-02-02 15:50:00', '2024-02-02 15:20:00', '2024-02-02 14:50:00', '2024-02-02 14:20:00', '2024-02-02 13:50:00', '2024-02-02 13:20:00', '2024-02-02 12:50:00', '2024-02-02 12:20:00', '2024-02-02 11:50:00', '2024-02-02 11:20:00', '2024-02-02 10:50:00', '2024-02-02 10:20:00', '2024-02-02 09:50:00', '2024-02-02 09:20:00', '2024-02-02 08:50:00', '2024-02-02 08:20:00', '2024-02-02 07:50:00', '2024-02-02 07:20:00', '2024-02-02 06:50:00', '2024-02-02 06:20:00', '2024-02-02 05:50:00', '2024-02-02 05:20:00', '2024-02-02 04:50:00', '2024-02-02 04:20:00', '2024-02-02 03:50:00', '2024-02-02 03:20:00', '2024-02-02 02:50:00', '2024-02-02 02:20:00', '2024-02-02 01:50:00', '2024-02-02 01:20:00', '2024-02-02 00:50:00', '2024-02-02 00:20:00', '2024-02-01 23:50:00', '2024-02-01 23:20:00', '2024-02-01 22:50:00', '2024-02-01 22:20:00', '2024-02-01 21:50:00', '2024-02-01 21:20:00', '2024-02-01 20:50:00', '2024-02-01 20:20:00', '2024-02-01 19:50:00', '2024-02-01 19:20:00', '2024-02-01 18:50:00', '2024-02-01 18:20:00', '2024-02-01 17:50:00', '2024-02-01 17:20:00', '2024-02-01 16:50:00', '2024-02-01 16:20:00', '2024-02-01 15:50:00', '2024-02-01 15:20:00', '2024-02-01 14:50:00', '2024-02-01 14:20:00', '2024-02-01 13:50:00', '2024-02-01 13:20:00', '2024-02-01 12:50:00', '2024-02-01 12:20:00', '2024-02-01 11:50:00', '2024-02-01 11:20:00', '2024-02-01 10:50:00', '2024-02-01 10:20:00', '2024-02-01 09:50:00', '2024-02-01 09:20:00', '2024-02-01 08:50:00', '2024-02-01 08:20:00', '2024-02-01 07:50:00', '2024-02-01 07:20:00', '2024-02-01 06:50:00', '2024-02-01 06:20:00', '2024-02-01 05:50:00', '2024-02-01 05:20:00', '2024-02-01 04:50:00', '2024-02-01 04:20:00', '2024-02-01 03:50:00', '2024-02-01 03:20:00', '2024-02-01 02:50:00', '2024-02-01 02:20:00', '2024-02-01 01:50:00', '2024-02-01 01:20:00', '2024-02-01 00:50:00', '2024-02-01 00:20:00', '2024-01-31 23:50:00', '2024-01-31 23:20:00', '2024-01-31 22:50:00']"
Austria, Salzburg Airport (SZG/LOWS) ,"['LOWS 032150Z VRB01KT 9999 FEW020 BKN070 BKN090 02/02 Q1027 NOSIG', 'LOWS 032120Z VRB01KT 9999 FEW060 BKN095 02/01 Q1028 NOSIG', 'LOWS 032050Z VRB01KT 9999 FEW060 BKN095 03/02 Q1028 NOSIG', 'LOWS 032020Z 29004KT 260V330 9999 FEW060 SCT100 05/03 Q1028 NOSIG', 'LOWS 031950Z 30005KT 230V330 9999 FEW060 BKN100 05/03 Q1028 NOSIG', 'LOWS 031920Z 30007KT 270V330 9999 FEW060 SCT100 06/02 Q1028 NOSIG', 'LOWS 031850Z 31004KT 280V340 9999 FEW060 05/02 Q1028 NOSIG', 'LOWS 031820Z 08003KT 9999 FEW060 05/02 Q1027 NOSIG', 'LOWS 031750Z VRB02KT 9999 FEW060 06/02 Q1027 NOSIG', 'LOWS 031720Z VRB01KT 9999 FEW060 06/02 Q1027 NOSIG', 'LOWS 031650Z VRB02KT 9999 FEW060 08/03 Q1027 NOSIG', 'LOWS 031620Z 33006KT 9999 FEW060 08/03 Q1027 NOSIG', 'LOWS 031550Z 33010KT 9999 FEW060 10/03 Q1027 NOSIG', 'LOWS 031520Z 35010KT 9999 FEW060 12/03 Q1026 NOSIG', 'LOWS 031450Z 35009KT 9999 FEW060 12/02 Q1026 NOSIG', 'LOWS 031420Z 35009KT 9999 FEW060 13/01 Q1026 NOSIG', 'LOWS 031350Z 33005KT 290V360 9999 FEW060 13/02 Q1026 NOSIG', 'LOWS 031320Z 32006KT 280V360 9999 FEW060 13/01 Q1026 NOSIG', 'LOWS 031250Z 35009KT 9999 FEW060 13/01 Q1026 NOSIG', 'LOWS 031220Z 35010KT 9999 FEW050 11/00 Q1027 NOSIG', 'LOWS 031150Z 35012KT 9999 FEW050 SCT060 11/00 Q1027 NOSIG', 'LOWS 031120Z 34011KT 9999 FEW050 BKN060 11/M01 Q1028 NOSIG', 'LOWS 031050Z 33008KT 300V360 9999 FEW050 BKN060 11/M00 Q1028 NOSIG', 'LOWS 031020Z 32007KT 9999 SCT050 10/M01 Q1028 NOSIG', 'LOWS 030950Z 33006KT 9999 SCT050 09/02 Q1028 NOSIG', 'LOWS 030920Z 34008KT 9999 FEW060 09/M00 Q1028 NOSIG', 'LOWS 030850Z 35006KT 9999 SCT050 09/M02 Q1028 NOSIG', 'LOWS 030820Z 03008KT 9999 FEW050 SCT070 06/M01 Q1028 NOSIG', 'LOWS 030750Z 35004KT 9999 FEW050 SCT060 04/01 Q1028 NOSIG', 'LOWS 030720Z 32005KT 9999 FEW050 SCT070 02/01 Q1028 NOSIG', 'LOWS 030650Z 35004KT 310V020 9999 SCT050 02/01 Q1028 NOSIG', 'LOWS 030620Z VRB02KT 9999 SCT050 03/02 Q1028 NOSIG', 'LOWS 030550Z VRB02KT 9999 FEW046 SCT050 03/02 Q1028 NOSIG', 'LOWS 030520Z VRB02KT 9999 FEW046 BKN050 04/02 Q1028 NOSIG', 'LOWS 030450Z 09003KT 040V190 9999 SCT050 04/02 Q1028 NOSIG', 'LOWS 030420Z 16004KT 130V220 9999 FEW050 BKN060 03/01 Q1028 NOSIG', 'LOWS 030350Z 16003KT 100V200 9999 FEW050 02/01 Q1028 NOSIG', 'LOWS 030320Z VRB02KT 9999 FEW060 04/02 Q1027 NOSIG', 'LOWS 030250Z AUTO VRB01KT 9999 FEW060 04/02 Q1027', 'LOWS 030220Z AUTO VRB02KT 9999 FEW050 BKN070 05/02 Q1027', 'LOWS 030150Z AUTO 32003KT 9999 OVC070 06/02 Q1027', 'LOWS 030120Z AUTO VRB02KT 9999 FEW050 OVC070 06/02 Q1027', 'LOWS 030050Z AUTO 09004KT 040V120 9999 BKN060 07/02 Q1027', 'LOWS 030020Z AUTO 14010KT 9999 FEW050 SCT060 06/02 Q1027', 'LOWS 022350Z AUTO 15008KT 9999 FEW050 BKN060 06/02 Q1027', 'LOWS 022320Z AUTO 14007KT 110V170 9999 BKN060 06/02 Q1028', 'LOWS 022250Z AUTO 15009KT 9999 FEW060 06/02 Q1028', 'LOWS 022220Z AUTO 15009KT 9999 SCT050 06/02 Q1029', 'LOWS 022150Z 15009KT 9999 BKN050 06/03 Q1029 NOSIG', 'LOWS 022120Z 15008KT 9999 FEW050 BKN060 06/03 Q1029 NOSIG', 'LOWS 022050Z 15008KT 9999 BKN050 07/03 Q1029 NOSIG', 'LOWS 022020Z 15009KT 9999 BKN050 07/03 Q1029 NOSIG', 'LOWS 021950Z 14010KT 9999 FEW050 BKN060 07/03 Q1029 NOSIG', 'LOWS 021920Z 14007KT 110V170 9999 FEW050 BKN060 07/03 Q1029 NOSIG', 'LOWS 021850Z 14006KT 090V210 9999 FEW050 BKN060 07/03 Q1030 NOSIG', 'LOWS 021820Z 15008KT 9999 SCT060 BKN070 07/03 Q1030 NOSIG', 'LOWS 021750Z 18008KT 9999 FEW050 BKN060 07/03 Q1030 NOSIG', 'LOWS 021720Z 18007KT 160V220 9999 FEW050 BKN060 07/02 Q1030 NOSIG', 'LOWS 021650Z 18009KT 9999 FEW050 BKN060 08/02 Q1030 NOSIG', 'LOWS 021620Z 21012KT 180V240 9999 FEW060 BKN065 08/02 Q1030 NOSIG', 'LOWS 021550Z 22008KT 9999 FEW060 BKN065 08/02 Q1031 NOSIG', 'LOWS 021520Z 20011KT 9999 FEW060 BKN070 08/02 Q1031 NOSIG', 'LOWS 021450Z 22010KT 9999 FEW060 BKN070 07/03 Q1031 NOSIG', 'LOWS 021420Z 22009KT 180V240 9999 FEW060 BKN070 07/03 Q1031 NOSIG', 'LOWS 021350Z 23009KT 180V310 9999 -RA FEW024 SCT034 BKN046 07/03 Q1031 NOSIG', 'LOWS 021320Z 25007KT 210V310 9999 -RA FEW024 SCT034 BKN046 06/04 Q1032 NOSIG', 'LOWS 021250Z 30011KT 9999 -RA FEW024 BKN030 07/04 Q1032 NOSIG', 'LOWS 021220Z 29010G20KT 260V320 9999 -RADZ FEW024 SCT030 BKN040 08/03 Q1032 NOSIG', 'LOWS 021150Z 30010KT 270V330 9999 FEW028 SCT032 BKN050 08/04 Q1032 NOSIG', 'LOWS 021120Z 31012KT 9999 -DZ FEW028 SCT032 BKN050 08/03 Q1032 NOSIG', 'LOWS 021050Z 28010KT 250V310 9999 FEW028 SCT036 BKN050 08/02 Q1032 NOSIG', 'LOWS 021020Z 29008KT 9999 FEW028 SCT040 BKN060 08/02 Q1032 NOSIG', 'LOWS 020950Z 29010KT 260V320 9999 FEW028 SCT040 BKN060 08/03 Q1033 NOSIG', 'LOWS 020920Z 30009KT 9999 FEW028 SCT040 BKN060 08/03 Q1033 NOSIG', 'LOWS 020850Z 29006KT 260V320 9999 FEW038 SCT044 BKN050 07/02 Q1032 NOSIG', 'LOWS 020820Z VRB02KT 9999 FEW010 SCT035 BKN050 05/04 Q1033 NOSIG', 'LOWS 020750Z VRB01KT 9999 FEW010 SCT024 BKN038 04/04 Q1033 NOSIG', 'LOWS 020720Z VRB02KT 9999 FEW005 SCT024 BKN038 04/04 Q1033 NOSIG', 'LOWS 020650Z VRB01KT 9999 FEW005 SCT024 BKN038 04/03 Q1033 NOSIG', 'LOWS 020620Z 22003KT 9999 FEW020 SCT026 BKN044 04/03 Q1032 NOSIG', 'LOWS 020550Z 28003KT 9999 FEW026 SCT032 BKN040 04/03 Q1032 NOSIG', 'LOWS 020520Z VRB01KT 9999 FEW012 SCT030 BKN048 04/03 Q1032 NOSIG', 'LOWS 020450Z 24002KT 9999 FEW010 SCT026 BKN050 04/03 Q1032 NOSIG', 'LOWS 020420Z AUTO 30006KT 9999 FEW022 SCT026 BKN050 04/03 Q1032', 'LOWS 020350Z AUTO 29003KT 260V340 9999 FEW020 BKN026 05/03 Q1032', 'LOWS 020320Z AUTO VRB02KT 9999 FEW006 BKN024 04/03 Q1031 RERA', 'LOWS 020250Z AUTO 24004KT 7000 -RADZ FEW003 SCT020 BKN024 05/03 Q1032 RERA', 'LOWS 020220Z AUTO 26004KT 9999 -RA FEW009 BKN020 05/04 Q1032', 'LOWS 020150Z AUTO 24005KT 9999 -RA FEW013 SCT015 BKN020 05/04 Q1032', 'LOWS 020120Z AUTO 23003KT 9999 -RA FEW012 SCT017 BKN024 05/04 Q1032 REDZ', 'LOWS 020050Z AUTO 35003KT 9999 FEW006 BKN022 05/04 Q1032', 'LOWS 020020Z AUTO VRB02KT 7000 -RA FEW015 SCT018 BKN026 05/04 Q1031 RERA', 'LOWS 012350Z AUTO 26003KT 230V310 9999 -RA FEW007 BKN024 05/04 Q1031', 'LOWS 012320Z AUTO 26003KT 9999 -RA FEW012 SCT016 BKN020 05/04 Q1032 RERA', 'LOWS 012250Z AUTO VRB02KT 9999 -RADZ FEW012 SCT017 BKN024 06/05 Q1032 RERA', 'LOWS 012220Z AUTO 25003KT 9999 -RA FEW012 SCT015 BKN024 06/05 Q1031', 'LOWS 012150Z AUTO 28004KT 250V310 9999 FEW009 SCT015 BKN024 06/05 Q1031', 'LOWS 012120Z AUTO 21004KT 190V290 9999 FEW007 SCT013 BKN020 06/05 Q1031 NOSIG', 'LOWS 012050Z AUTO 35003KT 310V020 9999 FEW016 SCT019 BKN028 06/05 Q1031 NOSIG', 'LOWS 012020Z AUTO 33003KT 9999 FEW015 BKN022 06/05 Q1031 NOSIG', 'LOWS 011950Z AUTO 30006KT 9999 FEW018 BKN022 06/05 Q1031 NOSIG', 'LOWS 011920Z AUTO 33010KT 9999 -RA FEW009 SCT015 BKN020 06/05 Q1031 NOSIG', 'LOWS 011850Z AUTO 24004KT 200V290 9999 FEW012 SCT026 BKN036 06/04 Q1031 NOSIG', 'LOWS 011820Z AUTO 23005KT 9999 FEW020 SCT026 BKN038 06/05 Q1031 NOSIG', 'LOWS 011750Z AUTO 23006KT 200V260 9999 FEW020 SCT026 BKN036 06/05 Q1030 NOSIG', 'LOWS 011720Z AUTO 22006KT 9999 -RA FEW020 SCT022 BKN026 06/05 Q1030 NOSIG', 'LOWS 011650Z AUTO 24004KT 200V290 9999 -RA FEW019 BKN024 06/04 Q1030 NOSIG', 'LOWS 011620Z AUTO 27007KT 220V300 9999 FEW019 SCT020 BKN022 07/04 Q1029 NOSIG', 'LOWS 011550Z 27008KT 9999 -RADZ FEW008 BKN024 BKN038 07/04 Q1029 NOSIG', 'LOWS 011520Z 25005KT 9999 FEW010 BKN025 BKN040 06/04 Q1029 NOSIG', 'LOWS 011450Z 23003KT 9999 FEW010 SCT027 BKN040 06/04 Q1029 NOSIG', 'LOWS 011420Z 24005KT 9999 -RADZ FEW010 SCT023 BKN036 06/04 Q1029 NOSIG', 'LOWS 011350Z 25005KT 9999 -RA FEW010 SCT024 BKN032 06/04 Q1029 NOSIG', 'LOWS 011320Z 27007KT 9999 -RA FEW005 SCT016 BKN026 06/05 Q1029 RERA TEMPO RA', 'LOWS 011250Z 27006KT 5000 RA FEW004 SCT015 BKN026 05/05 Q1029 TEMPO -RA', 'LOWS 011220Z VRB03KT 8000 -RA FEW004 SCT014 BKN026 05/04 Q1029 TEMPO 29010KT SHRA', 'LOWS 011150Z 15003KT 9999 -RA FEW012 SCT025 BKN036 04/03 Q1029 TEMPO 29010KT SHRA', 'LOWS 011120Z 16004KT 9999 -RA FEW014 SCT028 BKN040 04/03 Q1029 TEMPO 29010KT SHRA', 'LOWS 011050Z 14005KT 9999 -RA FEW022 SCT030 BKN040 04/03 Q1029 TEMPO 29010KT SHRA', 'LOWS 011020Z 12003KT 9999 -SHRA FEW023 SCT034 BKN042 05/02 Q1029 TEMPO 29010KT SHRA', 'LOWS 010950Z 15004KT 9999 -SHRA FEW025 SCT035 BKN042 05/01 Q1029 TEMPO 29010KT SHRA', 'LOWS 010920Z 16006KT 9999 FEW032 SCT042 BKN050 05/00 Q1029 TEMPO 29010KT SHRA', 'LOWS 010850Z 14004KT 100V180 9999 FEW032 SCT040 BKN050 05/00 Q1029 TEMPO 29010KT SHRA', 'LOWS 010820Z 14006KT 9999 FEW035 BKN042 04/00 Q1029 TEMPO 29010KT SHRA', 'LOWS 010750Z VRB05KT 9999 VCSH FEW030 SCT036 BKN042 04/00 Q1029 TEMPO 29010KT', 'LOWS 010720Z 14005KT 9999 FEW030 SCT037 BKN045 04/00 Q1029 TEMPO 29008KT', 'LOWS 010650Z 14004KT 9999 FEW030 SCT037 BKN045 04/00 Q1029 NOSIG', 'LOWS 010620Z 16007KT 9999 FEW028 SCT035 BKN042 04/M00 Q1029 NOSIG', 'LOWS 010550Z 14005KT 9999 FEW028 SCT035 BKN042 04/M01 Q1029 NOSIG', 'LOWS 010520Z 14004KT 9999 FEW025 SCT035 BKN040 04/M00 Q1029 NOSIG', 'LOWS 010450Z 16006KT 9999 FEW025 BKN038 02/M00 Q1029 WS ALL RWY NOSIG', 'LOWS 010420Z AUTO VRB02KT 9999 FEW030 SCT034 BKN050 02/M01 Q1030', 'LOWS 010350Z AUTO 17004KT 9999 FEW030 SCT032 BKN070 02/M01 Q1029', 'LOWS 010320Z AUTO 17003KT 9999 BKN060 03/M01 Q1029', 'LOWS 010250Z AUTO 15004KT 110V190 9999 BKN060 03/M01 Q1029', 'LOWS 010220Z AUTO 14007KT 100V170 9999 FEW050 03/M01 Q1029', 'LOWS 010150Z AUTO 15009KT 9999 FEW060 03/M01 Q1028', 'LOWS 010120Z AUTO 14008KT 9999 FEW050 BKN070 03/M01 Q1029', 'LOWS 010050Z AUTO 16006KT 9999 BKN050 03/M01 Q1029', 'LOWS 010020Z AUTO 15008KT 9999 FEW050 BKN060 03/M01 Q1029', 'LOWS 312350Z AUTO 15007KT 9999 FEW050 OVC070 03/M01 Q1030', 'LOWS 312320Z AUTO 16006KT 9999 BKN060 03/M01 Q1030', 'LOWS 312250Z AUTO 16007KT 9999 BKN060 03/M01 Q1030']","['2024-02-03 21:50:00', '2024-02-03 21:20:00', '2024-02-03 20:50:00', '2024-02-03 20:20:00', '2024-02-03 19:50:00', '2024-02-03 19:20:00', '2024-02-03 18:50:00', '2024-02-03 18:20:00', '2024-02-03 17:50:00', '2024-02-03 17:20:00', '2024-02-03 16:50:00', '2024-02-03 16:20:00', '2024-02-03 15:50:00', '2024-02-03 15:20:00', '2024-02-03 14:50:00', '2024-02-03 14:20:00', '2024-02-03 13:50:00', '2024-02-03 13:20:00', '2024-02-03 12:50:00', '2024-02-03 12:20:00', '2024-02-03 11:50:00', '2024-02-03 11:20:00', '2024-02-03 10:50:00', '2024-02-03 10:20:00', '2024-02-03 09:50:00', '2024-02-03 09:20:00', '2024-02-03 08:50:00', '2024-02-03 08:20:00', '2024-02-03 07:50:00', '2024-02-03 07:20:00', '2024-02-03 06:50:00', '2024-02-03 06:20:00', '2024-02-03 05:50:00', '2024-02-03 05:20:00', '2024-02-03 04:50:00', '2024-02-03 04:20:00', '2024-02-03 03:50:00', '2024-02-03 03:20:00', '2024-02-03 02:50:00', '2024-02-03 02:20:00', '2024-02-03 01:50:00', '2024-02-03 01:20:00', '2024-02-03 00:50:00', '2024-02-03 00:20:00', '2024-02-02 23:50:00', '2024-02-02 23:20:00', '2024-02-02 22:50:00', '2024-02-02 22:20:00', '2024-02-02 21:50:00', '2024-02-02 21:20:00', '2024-02-02 20:50:00', '2024-02-02 20:20:00', '2024-02-02 19:50:00', '2024-02-02 19:20:00', '2024-02-02 18:50:00', '2024-02-02 18:20:00', '2024-02-02 17:50:00', '2024-02-02 17:20:00', '2024-02-02 16:50:00', '2024-02-02 16:20:00', '2024-02-02 15:50:00', '2024-02-02 15:20:00', '2024-02-02 14:50:00', '2024-02-02 14:20:00', '2024-02-02 13:50:00', '2024-02-02 13:20:00', '2024-02-02 12:50:00', '2024-02-02 12:20:00', '2024-02-02 11:50:00', '2024-02-02 11:20:00', '2024-02-02 10:50:00', '2024-02-02 10:20:00', '2024-02-02 09:50:00', '2024-02-02 09:20:00', '2024-02-02 08:50:00', '2024-02-02 08:20:00', '2024-02-02 07:50:00', '2024-02-02 07:20:00', '2024-02-02 06:50:00', '2024-02-02 06:20:00', '2024-02-02 05:50:00', '2024-02-02 05:20:00', '2024-02-02 04:50:00', '2024-02-02 04:20:00', '2024-02-02 03:50:00', '2024-02-02 03:20:00', '2024-02-02 02:50:00', '2024-02-02 02:20:00', '2024-02-02 01:50:00', '2024-02-02 01:20:00', '2024-02-02 00:50:00', '2024-02-02 00:20:00', '2024-02-01 23:50:00', '2024-02-01 23:20:00', '2024-02-01 22:50:00', '2024-02-01 22:20:00', '2024-02-01 21:50:00', '2024-02-01 21:20:00', '2024-02-01 20:50:00', '2024-02-01 20:20:00', '2024-02-01 19:50:00', '2024-02-01 19:20:00', '2024-02-01 18:50:00', '2024-02-01 18:20:00', '2024-02-01 17:50:00', '2024-02-01 17:20:00', '2024-02-01 16:50:00', '2024-02-01 16:20:00', '2024-02-01 15:50:00', '2024-02-01 15:20:00', '2024-02-01 14:50:00', '2024-02-01 14:20:00', '2024-02-01 13:50:00', '2024-02-01 13:20:00', '2024-02-01 12:50:00', '2024-02-01 12:20:00', '2024-02-01 11:50:00', '2024-02-01 11:20:00', '2024-02-01 10:50:00', '2024-02-01 10:20:00', '2024-02-01 09:50:00', '2024-02-01 09:20:00', '2024-02-01 08:50:00', '2024-02-01 08:20:00', '2024-02-01 07:50:00', '2024-02-01 07:20:00', '2024-02-01 06:50:00', '2024-02-01 06:20:00', '2024-02-01 05:50:00', '2024-02-01 05:20:00', '2024-02-01 04:50:00', '2024-02-01 04:20:00', '2024-02-01 03:50:00', '2024-02-01 03:20:00', '2024-02-01 02:50:00', '2024-02-01 02:20:00', '2024-02-01 01:50:00', '2024-02-01 01:20:00', '2024-02-01 00:50:00', '2024-02-01 00:20:00', '2024-01-31 23:50:00', '2024-01-31 23:20:00', '2024-01-31 22:50:00']"
Austria, Vienna International Airport (VIE/LOWW) ,"['LOWW 032150Z 28015KT 9999 FEW038 BKN042 10/05 Q1023 NOSIG', 'LOWW 032120Z 28016KT CAVOK 10/04 Q1023 NOSIG', 'LOWW 032050Z 28013KT 9999 FEW040 10/04 Q1023 NOSIG', 'LOWW 032020Z 27012KT 9999 FEW050 10/04 Q1023 NOSIG', 'LOWW 031950Z 28013KT 9999 FEW046 SCT050 10/04 Q1023 NOSIG', 'LOWW 031920Z 29015KT 9999 FEW034 SCT050 10/04 Q1023 NOSIG', 'LOWW 031850Z 29016KT 9999 FEW034 BKN036 11/04 Q1024 NOSIG', 'LOWW 031820Z 29016KT 9999 FEW036 SCT040 11/04 Q1023 NOSIG', 'LOWW 031750Z 29017KT 9999 FEW038 11/04 Q1023 NOSIG', 'LOWW 031720Z 30018KT 9999 FEW050 11/04 Q1023 NOSIG', 'LOWW 031650Z 30019KT CAVOK 11/04 Q1022 NOSIG', 'LOWW 031620Z 30017KT 9999 FEW050 11/04 Q1022 NOSIG', 'LOWW 031550Z 30020G30KT 9999 FEW050 11/04 Q1022 NOSIG', 'LOWW 031520Z 29019KT 9999 FEW030 11/04 Q1022 NOSIG', 'LOWW 031450Z 30019G31KT 9999 FEW048 12/04 Q1022 NOSIG', 'LOWW 031420Z 30023KT 9999 FEW050 12/04 Q1022 NOSIG', 'LOWW 031350Z 30024KT 9999 FEW050 12/04 Q1023 NOSIG', 'LOWW 031320Z 31021G31KT 9999 FEW030 11/04 Q1022 NOSIG', 'LOWW 031250Z 30023KT 9999 FEW033 11/04 Q1022 NOSIG', 'LOWW 031220Z 30027G39KT 9999 FEW033 11/04 Q1022 NOSIG', 'LOWW 031150Z 30023G33KT 9999 FEW033 11/04 Q1023 NOSIG', 'LOWW 031120Z 29023KT 9999 FEW034 11/03 Q1023 NOSIG', 'LOWW 031050Z 30022KT 9999 FEW032 11/03 Q1023 NOSIG', 'LOWW 031020Z 30019KT 9999 FEW032 SCT038 11/03 Q1024 NOSIG', 'LOWW 030950Z 31019KT 9999 FEW032 BKN038 10/03 Q1024 NOSIG', 'LOWW 030920Z 30019KT 9999 BKN038 09/02 Q1024 NOSIG', 'LOWW 030850Z 29017KT 9999 BKN038 09/02 Q1024 NOSIG', 'LOWW 030820Z 30018KT 9999 FEW040 09/01 Q1024 NOSIG', 'LOWW 030750Z 31016KT 9999 FEW040 08/01 Q1024 NOSIG', 'LOWW 030720Z 32019KT 9999 FEW040 08/01 Q1024 NOSIG', 'LOWW 030650Z 33014KT 9999 FEW040 07/01 Q1024 NOSIG', 'LOWW 030620Z 33008KT 300V020 9999 FEW042 SCT044 07/01 Q1024 TEMPO 29018G28KT', 'LOWW 030550Z 31007KT 9999 FEW040 BKN042 07/01 Q1023 TEMPO 29018G28KT', 'LOWW 030520Z 31008KT 9999 SCT042 06/01 Q1023 NOSIG', 'LOWW 030450Z 35006KT CAVOK 06/01 Q1023 TEMPO 29016G26KT', 'LOWW 030420Z 35005KT 310V020 CAVOK 06/01 Q1023 BECMG 29015G25KT', 'LOWW 030350Z VRB03KT CAVOK 07/01 Q1023 BECMG 29015G25KT', 'LOWW 030320Z 32007KT 290V350 CAVOK 08/01 Q1022 NOSIG', 'LOWW 030250Z 31012KT 280V350 CAVOK 09/01 Q1022 NOSIG', 'LOWW 030220Z 31014KT CAVOK 09/01 Q1022 NOSIG', 'LOWW 030150Z 31015KT CAVOK 10/01 Q1022 NOSIG', 'LOWW 030120Z 30019G30KT 9999 FEW050 10/01 Q1022 NOSIG', 'LOWW 030050Z 31019KT 9999 FEW050 10/M00 Q1022 NOSIG', 'LOWW 030020Z 30020G30KT 9999 FEW050 11/M00 Q1021 NOSIG', 'LOWW 022350Z 29016KT 260V320 9999 FEW050 11/01 Q1022 NOSIG', 'LOWW 022320Z 29018KT 9999 FEW050 11/00 Q1022 NOSIG', 'LOWW 022250Z 28019KT 9999 FEW050 11/00 Q1022 NOSIG', 'LOWW 022220Z 28017KT CAVOK 11/00 Q1022 NOSIG', 'LOWW 022150Z 28018KT CAVOK 11/00 Q1023 NOSIG', 'LOWW 022120Z 29015KT CAVOK 11/M00 Q1023 NOSIG', 'LOWW 022050Z 29018KT 9999 FEW046 BKN050 11/M00 Q1023 NOSIG', 'LOWW 022020Z 29017KT 9999 FEW048 BKN050 11/00 Q1024 NOSIG', 'LOWW 021950Z 29010KT 9999 FEW044 BKN048 10/01 Q1024 NOSIG', 'LOWW 021920Z 28014KT 9999 FEW048 BKN050 10/01 Q1024 NOSIG', 'LOWW 021850Z 28011KT 9999 FEW046 OVC050 10/02 Q1025 NOSIG', 'LOWW 021820Z 28012KT 9999 OVC050 09/02 Q1025 NOSIG', 'LOWW 021750Z 28012KT 9999 FEW050 09/03 Q1026 NOSIG', 'LOWW 021720Z 28010KT 9999 FEW035 08/03 Q1026 NOSIG', 'LOWW 021650Z 28013KT 9999 FEW035 08/03 Q1026 NOSIG', 'LOWW 021620Z 29014KT 9999 FEW030 07/03 Q1027 NOSIG', 'LOWW 021550Z 29017KT 9999 -RA FEW025 SCT028 BKN030 07/03 Q1027 NOSIG', 'LOWW 021520Z 31013KT 9999 -RA FEW030 SCT034 BKN042 08/01 Q1027 NOSIG', 'LOWW 021450Z 29013KT 260V330 9999 -RADZ FEW034 SCT042 BKN050 08/00 Q1028 NOSIG', 'LOWW 021420Z 29012KT 9999 FEW040 09/01 Q1028 NOSIG', 'LOWW 021350Z 29014KT 260V320 9999 FEW050 09/00 Q1028 NOSIG', 'LOWW 021320Z 29015KT CAVOK 09/M00 Q1028 NOSIG', 'LOWW 021250Z 30015KT 280V340 CAVOK 09/M00 Q1028 NOSIG', 'LOWW 021220Z 29013KT CAVOK 09/M00 Q1028 NOSIG', 'LOWW 021150Z 31012KT CAVOK 09/M01 Q1029 NOSIG', 'LOWW 021120Z 30012KT 270V340 9999 FEW044 09/M01 Q1029 NOSIG', 'LOWW 021050Z 31011KT 280V340 9999 FEW040 09/M00 Q1030 NOSIG', 'LOWW 021020Z 30011KT 9999 FEW035 08/01 Q1030 NOSIG', 'LOWW 020950Z 31008KT 9999 FEW030 07/01 Q1030 NOSIG', 'LOWW 020920Z 32007KT 270V340 9999 FEW030 07/02 Q1030 NOSIG', 'LOWW 020850Z 32005KT 290V360 9999 FEW025 07/02 Q1030 NOSIG', 'LOWW 020820Z 33005KT 9999 FEW025 06/02 Q1030 NOSIG', 'LOWW 020750Z 33007KT 9999 FEW040 06/02 Q1030 NOSIG', 'LOWW 020720Z 31005KT 290V350 9999 FEW040 05/01 Q1030 BECMG 30012KT', 'LOWW 020650Z 31003KT 270V360 9999 FEW040 05/M01 Q1030 BECMG 30012KT', 'LOWW 020620Z 32012KT 9999 FEW040 05/M01 Q1029 NOSIG', 'LOWW 020550Z 32013KT 9999 FEW042 05/M01 Q1029 NOSIG', 'LOWW 020520Z 32012KT 9999 FEW042 05/M02 Q1029 NOSIG', 'LOWW 020450Z 32013KT 9999 FEW042 05/M01 Q1029 NOSIG', 'LOWW 020420Z 32008KT 9999 FEW042 05/M01 Q1029 NOSIG', 'LOWW 020350Z 33006KT 9999 FEW042 04/M01 Q1029 NOSIG', 'LOWW 020320Z 32007KT 9999 FEW042 04/M01 Q1029 NOSIG', 'LOWW 020250Z 32008KT 9999 FEW042 04/M01 Q1028 NOSIG', 'LOWW 020220Z 33010KT 9999 FEW042 04/M00 Q1028 NOSIG', 'LOWW 020150Z 32010KT 9999 FEW042 05/M00 Q1028 NOSIG', 'LOWW 020120Z 32010KT 9999 FEW046 SCT050 05/M00 Q1029 NOSIG', 'LOWW 020050Z 32010KT 9999 BKN050 06/00 Q1029 NOSIG', 'LOWW 020020Z 32008KT 9999 FEW044 SCT050 05/00 Q1029 NOSIG', 'LOWW 012350Z 33011KT 9999 FEW044 SCT050 06/01 Q1029 NOSIG', 'LOWW 012320Z 32009KT 9999 FEW044 SCT050 06/02 Q1029 NOSIG', 'LOWW 012250Z 32012KT 9999 FEW046 SCT048 06/02 Q1029 NOSIG', 'LOWW 012220Z 32012KT 9999 FEW030 BKN050 06/02 Q1028 NOSIG', 'LOWW 012150Z 32011KT 9999 FEW028 SCT040 06/02 Q1028 NOSIG', 'LOWW 012120Z 32011KT 9999 FEW050 06/02 Q1028 NOSIG', 'LOWW 012050Z 33009KT 9999 OVC050 07/03 Q1028 NOSIG', 'LOWW 012020Z 32008KT 9999 FEW022 06/03 Q1027 NOSIG', 'LOWW 011950Z 33011KT 9999 FEW022 07/04 Q1027 NOSIG', 'LOWW 011920Z 32009KT 9999 FEW020 SCT024 BKN030 07/04 Q1027 NOSIG', 'LOWW 011850Z 31010KT 9999 FEW016 SCT024 BKN030 07/05 Q1027 NOSIG', 'LOWW 011820Z 31013KT 9999 FEW015 SCT044 07/05 Q1027 NOSIG', 'LOWW 011750Z 29013KT 9999 FEW042 BKN050 07/05 Q1027 NOSIG', 'LOWW 011720Z 30011KT 9999 -RA FEW015 SCT024 BKN030 07/05 Q1026 NOSIG', 'LOWW 011650Z 31009KT 9999 -RA FEW015 SCT022 BKN036 07/05 Q1026 TEMPO SHRA', 'LOWW 011620Z 32009KT 9999 -RA FEW019 SCT022 BKN026 08/05 Q1026 TEMPO SHRA', 'LOWW 011550Z 30009KT 9999 FEW019 BKN030 08/05 Q1026 NOSIG', 'LOWW 011520Z 29011KT 9999 FEW022 BKN030 08/04 Q1025 NOSIG', 'LOWW 011450Z 30008KT 9999 FEW022 SCT034 BKN036 08/05 Q1025 NOSIG', 'LOWW 011420Z 29010KT 9999 FEW018 BKN034 08/05 Q1025 NOSIG', 'LOWW 011350Z 29009KT 9999 -RA FEW016 SCT034 BKN042 08/05 Q1025 NOSIG', 'LOWW 011320Z 28011KT 9999 -RA FEW016 SCT028 BKN048 08/05 Q1025 NOSIG', 'LOWW 011250Z 28012KT 9999 -RA FEW015 SCT028 BKN034 08/05 Q1025 NOSIG', 'LOWW 011220Z 28012KT 9999 -RA FEW018 BKN034 08/05 Q1025 NOSIG', 'LOWW 011150Z 29013KT 9999 -RA FEW018 SCT046 BKN050 09/05 Q1025 TEMPO RA', 'LOWW 011120Z 28016KT 9999 -RA FEW030 SCT040 BKN050 09/05 Q1025 TEMPO RA', 'LOWW 011050Z 29016KT 9999 -RA FEW030 10/04 Q1025 TEMPO RA', 'LOWW 011020Z 29014KT 9999 BKN050 10/03 Q1025 NOSIG', 'LOWW 010950Z 28010KT 9999 FEW050 10/03 Q1026 NOSIG', 'LOWW 010920Z 28014KT 9999 FEW050 10/03 Q1026 NOSIG', 'LOWW 010850Z 28017KT CAVOK 09/03 Q1026 NOSIG', 'LOWW 010820Z 28008KT 250V310 9999 FEW040 08/03 Q1026 NOSIG', 'LOWW 010750Z 29006KT 260V320 9999 FEW050 07/02 Q1026 NOSIG', 'LOWW 010720Z 27008KT 9999 FEW030 SCT046 06/02 Q1026 NOSIG', 'LOWW 010650Z 21007KT 190V250 7000 FEW038 BKN044 02/00 Q1026 BECMG 28012KT', 'LOWW 010620Z 19006KT 4900 BR FEW030 BKN044 01/M01 Q1026 BECMG FM0730 28012KT', 'LOWW 010550Z 18008KT 5000 BR FEW030 BKN036 01/M00 Q1026 BECMG FM0630 28012KT', 'LOWW 010520Z 18008KT 5000 BR FEW036 BKN038 01/M01 Q1026 BECMG FM0600 28012KT', 'LOWW 010450Z 19005KT 160V220 5000 BR BKN040 01/M01 Q1027 BECMG FM0600 28012KT', 'LOWW 010420Z 21005KT 4700 BR FEW044 BKN046 01/M01 Q1027 NOSIG', 'LOWW 010350Z 16004KT 4500 BR FEW044 BKN046 M00/M01 Q1027 NOSIG', 'LOWW 010320Z 18006KT 5000 BR SCT046 M01/M02 Q1027 NOSIG', 'LOWW 010250Z 17004KT 150V220 5000 BR FEW046 M01/M02 Q1027 NOSIG', 'LOWW 010220Z 25004KT 220V280 6000 FEW048 BKN050 01/M01 Q1027 NOSIG', 'LOWW 010150Z 20003KT 170V230 6000 FEW042 01/M01 Q1028 NOSIG', 'LOWW 010120Z 18004KT 6000 BKN044 01/M01 Q1028 NOSIG', 'LOWW 010050Z 12003KT 6000 FEW044 BKN046 00/M01 Q1029 NOSIG', 'LOWW 010020Z 13004KT 6000 FEW046 01/M00 Q1029 NOSIG', 'LOWW 312350Z 18005KT 6000 FEW046 BKN048 02/M00 Q1029 NOSIG', 'LOWW 312320Z 17004KT 6000 FEW046 BKN048 02/M00 Q1029 NOSIG', 'LOWW 312250Z 18004KT 6000 FEW048 BKN050 02/00 Q1030 NOSIG']","['2024-02-03 21:50:00', '2024-02-03 21:20:00', '2024-02-03 20:50:00', '2024-02-03 20:20:00', '2024-02-03 19:50:00', '2024-02-03 19:20:00', '2024-02-03 18:50:00', '2024-02-03 18:20:00', '2024-02-03 17:50:00', '2024-02-03 17:20:00', '2024-02-03 16:50:00', '2024-02-03 16:20:00', '2024-02-03 15:50:00', '2024-02-03 15:20:00', '2024-02-03 14:50:00', '2024-02-03 14:20:00', '2024-02-03 13:50:00', '2024-02-03 13:20:00', '2024-02-03 12:50:00', '2024-02-03 12:20:00', '2024-02-03 11:50:00', '2024-02-03 11:20:00', '2024-02-03 10:50:00', '2024-02-03 10:20:00', '2024-02-03 09:50:00', '2024-02-03 09:20:00', '2024-02-03 08:50:00', '2024-02-03 08:20:00', '2024-02-03 07:50:00', '2024-02-03 07:20:00', '2024-02-03 06:50:00', '2024-02-03 06:20:00', '2024-02-03 05:50:00', '2024-02-03 05:20:00', '2024-02-03 04:50:00', '2024-02-03 04:20:00', '2024-02-03 03:50:00', '2024-02-03 03:20:00', '2024-02-03 02:50:00', '2024-02-03 02:20:00', '2024-02-03 01:50:00', '2024-02-03 01:20:00', '2024-02-03 00:50:00', '2024-02-03 00:20:00', '2024-02-02 23:50:00', '2024-02-02 23:20:00', '2024-02-02 22:50:00', '2024-02-02 22:20:00', '2024-02-02 21:50:00', '2024-02-02 21:20:00', '2024-02-02 20:50:00', '2024-02-02 20:20:00', '2024-02-02 19:50:00', '2024-02-02 19:20:00', '2024-02-02 18:50:00', '2024-02-02 18:20:00', '2024-02-02 17:50:00', '2024-02-02 17:20:00', '2024-02-02 16:50:00', '2024-02-02 16:20:00', '2024-02-02 15:50:00', '2024-02-02 15:20:00', '2024-02-02 14:50:00', '2024-02-02 14:20:00', '2024-02-02 13:50:00', '2024-02-02 13:20:00', '2024-02-02 12:50:00', '2024-02-02 12:20:00', '2024-02-02 11:50:00', '2024-02-02 11:20:00', '2024-02-02 10:50:00', '2024-02-02 10:20:00', '2024-02-02 09:50:00', '2024-02-02 09:20:00', '2024-02-02 08:50:00', '2024-02-02 08:20:00', '2024-02-02 07:50:00', '2024-02-02 07:20:00', '2024-02-02 06:50:00', '2024-02-02 06:20:00', '2024-02-02 05:50:00', '2024-02-02 05:20:00', '2024-02-02 04:50:00', '2024-02-02 04:20:00', '2024-02-02 03:50:00', '2024-02-02 03:20:00', '2024-02-02 02:50:00', '2024-02-02 02:20:00', '2024-02-02 01:50:00', '2024-02-02 01:20:00', '2024-02-02 00:50:00', '2024-02-02 00:20:00', '2024-02-01 23:50:00', '2024-02-01 23:20:00', '2024-02-01 22:50:00', '2024-02-01 22:20:00', '2024-02-01 21:50:00', '2024-02-01 21:20:00', '2024-02-01 20:50:00', '2024-02-01 20:20:00', '2024-02-01 19:50:00', '2024-02-01 19:20:00', '2024-02-01 18:50:00', '2024-02-01 18:20:00', '2024-02-01 17:50:00', '2024-02-01 17:20:00', '2024-02-01 16:50:00', '2024-02-01 16:20:00', '2024-02-01 15:50:00', '2024-02-01 15:20:00', '2024-02-01 14:50:00', '2024-02-01 14:20:00', '2024-02-01 13:50:00', '2024-02-01 13:20:00', '2024-02-01 12:50:00', '2024-02-01 12:20:00', '2024-02-01 11:50:00', '2024-02-01 11:20:00', '2024-02-01 10:50:00', '2024-02-01 10:20:00', '2024-02-01 09:50:00', '2024-02-01 09:20:00', '2024-02-01 08:50:00', '2024-02-01 08:20:00', '2024-02-01 07:50:00', '2024-02-01 07:20:00', '2024-02-01 06:50:00', '2024-02-01 06:20:00', '2024-02-01 05:50:00', '2024-02-01 05:20:00', '2024-02-01 04:50:00', '2024-02-01 04:20:00', '2024-02-01 03:50:00', '2024-02-01 03:20:00', '2024-02-01 02:50:00', '2024-02-01 02:20:00', '2024-02-01 01:50:00', '2024-02-01 01:20:00', '2024-02-01 00:50:00', '2024-02-01 00:20:00', '2024-01-31 23:50:00', '2024-01-31 23:20:00', '2024-01-31 22:50:00']"
Austria, Vienna Voslau Airport (QOV/LOAV) ,"['LOAV 031600Z 32011KT 9999 FEW040 12/06', 'LOAV 031500Z 31014G26KT 9999 FEW040 14/06', 'LOAV 031400Z 30012G28KT 9999 FEW040 14/06', 'LOAV 031300Z 30022G32KT 9999 FEW040 15/06', 'LOAV 031200Z 30022G34KT 9999 FEW040 13/06', 'LOAV 031100Z 30022G37KT 9999 FEW040 13/06', 'LOAV 031000Z 31022G34KT 9999 FEW040 12/05', 'LOAV 030900Z 30025G42KT 9999 FEW040 12/05', 'LOAV 030800Z 30025G39KT 9999 FEW050 12/04', 'LOAV 021600Z 30015KT 9999 BKN040 07/04', 'LOAV 021500Z 33010KT 9999 -RA BKN040 07/03', 'LOAV 021400Z 28012G22KT 9999 -RA SCT040 10/05', 'LOAV 021300Z 28012G22KT 9999 FEW040 10/05', 'LOAV 021200Z 30009G25KT 9999 FEW040 10/05', 'LOAV 021100Z 29020G30KT 9999 FEW040 10/04', 'LOAV 021000Z 30015G25KT 9999 FEW040 10/04', 'LOAV 020900Z 31013KT CAVOK 08/05', 'LOAV 020800Z 28015KT CAVOK 07/05', 'LOAV 011600Z 30009G20KT 9999 FEW025 SCT040 09/07', 'LOAV 011500Z 28014G26KT 9999 FEW025 SCT040 09/07', 'LOAV 011400Z 28015G30KT 9999 -SHRA FEW015 BKN050 10/09', 'LOAV 011300Z 28015G30KT 9999 -SHRA FEW015 BKN050 09/07', 'LOAV 011200Z 28016G34KT 9999 -SHRA FEW015 BKN050 10/08', 'LOAV 011100Z 27015G25KT 9999 FEW030 BKN050 13/09', 'LOAV 011000Z 27015G25KT 9999 FEW030 BKN050 12/09', 'LOAV 010900Z 30015G28KT 9999 FEW030 BKN050 13/08', 'LOAV 010835Z 30015G38KT 9999 FEW030 BKN050 12/07', 'LOAV 010800Z VRB03KT 9999 FEW030 BKN050 03/02']","['2024-02-03 16:00:00', '2024-02-03 15:00:00', '2024-02-03 14:00:00', '2024-02-03 13:00:00', '2024-02-03 12:00:00', '2024-02-03 11:00:00', '2024-02-03 10:00:00', '2024-02-03 09:00:00', '2024-02-03 08:00:00', '2024-02-02 16:00:00', '2024-02-02 15:00:00', '2024-02-02 14:00:00', '2024-02-02 13:00:00', '2024-02-02 12:00:00', '2024-02-02 11:00:00', '2024-02-02 10:00:00', '2024-02-02 09:00:00', '2024-02-02 08:00:00', '2024-02-01 16:00:00', '2024-02-01 15:00:00', '2024-02-01 14:00:00', '2024-02-01 13:00:00', '2024-02-01 12:00:00', '2024-02-01 11:00:00', '2024-02-01 10:00:00', '2024-02-01 09:00:00', '2024-02-01 08:35:00', '2024-02-01 08:00:00']"
Azerbaijan, Baku Heydar Aliyev International Airport (GYD/UBBB) ,"['UBBB 032200Z 30004KT 8000 BCFG NSC 02/01 Q1018 NOSIG', 'UBBB 032130Z 30004KT CAVOK 02/01 Q1018 NOSIG', 'UBBB 032100Z 30006KT CAVOK 03/02 Q1018 NOSIG', 'UBBB 032030Z 31006KT CAVOK 04/02 Q1019 NOSIG', 'UBBB 031930Z 30010KT 9999 SCT005 05/03 Q1019 NOSIG', 'UBBB 031830Z 29008KT CAVOK 06/03 Q1019 NOSIG', 'UBBB 031730Z 31010KT 9999 FEW049 06/03 Q1019 NOSIG', 'UBBB 031630Z 31012KT 9999 SCT047 06/02 Q1018 NOSIG', 'UBBB 031530Z 30010KT CAVOK 06/02 Q1018 NOSIG', 'UBBB 031500Z 30010KT CAVOK 05/01 Q1017 NOSIG', 'UBBB 031430Z 29008KT CAVOK 05/M01 Q1017 NOSIG', 'UBBB 031400Z 28010KT CAVOK 06/M01 Q1017 NOSIG', 'UBBB 031330Z 29008KT CAVOK 07/02 Q1016 NOSIG', 'UBBB 031300Z 29008KT CAVOK 08/03 Q1016 NOSIG', 'UBBB 031200Z 19014KT CAVOK 09/02 Q1015 NOSIG', 'UBBB 031100Z 17018KT CAVOK 09/01 Q1015 NOSIG', 'UBBB 031030Z 18018KT CAVOK 09/01 Q1015 NOSIG', 'UBBB 030930Z 18014KT CAVOK 09/00 Q1016 NOSIG', 'UBBB 030830Z 19014KT CAVOK 09/00 Q1017 NOSIG', 'UBBB 030730Z 18012KT CAVOK 09/M00 Q1017 NOSIG', 'UBBB 030700Z 16012KT CAVOK 08/03 Q1018 NOSIG', 'UBBB 030630Z 17008KT CAVOK 08/03 Q1018 NOSIG', 'UBBB 030600Z 16008KT CAVOK 07/03 Q1017 NOSIG', 'UBBB 030530Z 17008KT 8000 NSC 06/04 Q1018 NOSIG', 'UBBB 030430Z 16006KT 7000 NSC 01/M00 Q1017 NOSIG', 'UBBB 030330Z 12002KT CAVOK M01/M02 Q1017 NOSIG', 'UBBB 030300Z 00000KT CAVOK M01/M02 Q1017 NOSIG', 'UBBB 030230Z 00000KT CAVOK M02/M03 Q1017 NOSIG', 'UBBB 030130Z VRB02KT 8000 NSC M00/M01 Q1017 NOSIG', 'UBBB 030030Z 16004KT 8000 NSC M01/M02 Q1016 NOSIG', 'UBBB 022330Z 00000KT 8000 NSC M01/M02 Q1017 NOSIG', 'UBBB 022300Z 00000KT 8000 NSC M02/M03 Q1017 NOSIG', 'UBBB 022230Z VRB02KT 8000 NSC M01/M02 Q1017 NOSIG', 'UBBB 022200Z 33002KT 8000 NSC M02/M03 Q1017 NOSIG', 'UBBB 022130Z 33002KT 8000 NSC M00/M01 Q1017 NOSIG', 'UBBB 022100Z 00000KT 8000 NSC M01/M02 Q1017 NOSIG', 'UBBB 022030Z 00000KT 8000 NSC M00/M01 Q1017 NOSIG', 'UBBB 022000Z 28002KT 8000 NSC 01/M00 Q1017 NOSIG', 'UBBB 021930Z 30002KT 8000 NSC 01/M01 Q1017 NOSIG', 'UBBB 021900Z 31004KT 8000 NSC 02/01 Q1017 NOSIG', 'UBBB 021830Z 30004KT 8000 NSC 01/00 Q1018 NOSIG', 'UBBB 021800Z 00000KT 8000 NSC 01/M00 Q1018 NOSIG', 'UBBB 021730Z 00000KT CAVOK 02/01 Q1018 NOSIG', 'UBBB 021630Z 28002KT CAVOK 03/01 Q1018 NOSIG', 'UBBB 021600Z 32004KT CAVOK 02/M00 Q1018 NOSIG', 'UBBB 021500Z 34004KT CAVOK 03/00 Q1018 NOSIG', 'UBBB 021430Z 36004KT 9999 FEW010 05/01 Q1017 NOSIG', 'UBBB 021400Z 36006KT CAVOK 06/02 Q1017 NOSIG', 'UBBB 021330Z 36006KT CAVOK 07/02 Q1017 NOSIG', 'UBBB 021230Z 01004KT CAVOK 08/03 Q1016 NOSIG', 'UBBB 021200Z 01006KT CAVOK 08/03 Q1016 NOSIG', 'UBBB 021130Z 35008KT CAVOK 08/03 Q1016 NOSIG', 'UBBB 021030Z 33006KT 9999 SCT012 07/03 Q1016 NOSIG', 'UBBB 020930Z 32010KT 9999 BKN012 06/03 Q1017 NOSIG', 'UBBB 020900Z 31010KT 9999 BKN010 07/03 Q1018 NOSIG', 'UBBB 020830Z 32010KT 9999 SCT011 07/02 Q1018 NOSIG', 'UBBB 020730Z 32006KT CAVOK 07/03 Q1019 NOSIG', 'UBBB 020700Z 32006KT 8000 FEW010 06/03 Q1019 NOSIG', 'UBBB 020630Z 33008KT 8000 SCT007 05/03 Q1019 NOSIG', 'UBBB 020600Z 34006KT 5000 BR BKN007 05/03 Q1019 NOSIG', 'UBBB 020500Z VRB02KT 8000 BKN005 02/01 Q1019 NOSIG', 'UBBB 020430Z VRB02KT 8000 BKN006 01/M00 Q1019 NOSIG', 'UBBB 020330Z 32004KT CAVOK M00/M02 Q1019 NOSIG', 'UBBB 020300Z 34006KT CAVOK 01/M01 Q1019 NOSIG', 'UBBB 020230Z 21004KT CAVOK 04/01 Q1018 NOSIG', 'UBBB 020130Z 18006KT CAVOK 03/01 Q1019 NOSIG', 'UBBB 020100Z 17008KT CAVOK 03/01 Q1019 NOSIG', 'UBBB 020030Z 16010KT CAVOK 02/01 Q1019 NOSIG', 'UBBB 012330Z 16010KT CAVOK 04/02 Q1020 NOSIG', 'UBBB 012300Z 16010KT CAVOK 04/02 Q1020 NOSIG', 'UBBB 012230Z 16010KT CAVOK 03/01 Q1020 NOSIG', 'UBBB 012130Z 15008KT CAVOK 03/01 Q1020 NOSIG', 'UBBB 012030Z 15010KT CAVOK 04/02 Q1021 NOSIG', 'UBBB 011930Z 15010KT CAVOK 04/02 Q1021 NOSIG', 'UBBB 011830Z 15010KT CAVOK 04/02 Q1022 NOSIG', 'UBBB 011730Z 15008KT CAVOK 05/02 Q1022 NOSIG', 'UBBB 011630Z 16010KT CAVOK 06/03 Q1023 NOSIG', 'UBBB 011530Z 16010KT CAVOK 05/02 Q1023 NOSIG', 'UBBB 011430Z 16010KT CAVOK 06/02 Q1023 NOSIG', 'UBBB 011400Z 16010KT CAVOK 07/02 Q1023 NOSIG', 'UBBB 011330Z 17012KT CAVOK 07/02 Q1023 NOSIG', 'UBBB 011230Z 16014KT CAVOK 08/02 Q1023 NOSIG', 'UBBB 011130Z 16016KT CAVOK 08/02 Q1023 NOSIG', 'UBBB 011030Z 16016KT CAVOK 08/02 Q1024 NOSIG', 'UBBB 010930Z 14014KT CAVOK 08/01 Q1024 NOSIG', 'UBBB 010830Z 15016KT CAVOK 07/02 Q1025 NOSIG', 'UBBB 010730Z 15014KT CAVOK 07/01 Q1026 NOSIG', 'UBBB 010630Z 16014KT CAVOK 06/02 Q1027 NOSIG', 'UBBB 010530Z 16012KT CAVOK 05/03 Q1027 NOSIG', 'UBBB 010430Z 15006KT CAVOK 02/00 Q1028 NOSIG', 'UBBB 010400Z 15008KT 8000 NSC 01/M00 Q1028 NOSIG', 'UBBB 010300Z 13004KT CAVOK 01/00 Q1028 NOSIG', 'UBBB 010230Z 13004KT CAVOK 01/M00 Q1028 NOSIG', 'UBBB 010200Z 14006KT CAVOK 02/01 Q1028 NOSIG', 'UBBB 010130Z 13004KT CAVOK 01/M00 Q1028 NOSIG', 'UBBB 010030Z 17004KT CAVOK 02/M00 Q1028 NOSIG', 'UBBB 010000Z 16004KT CAVOK 03/00 Q1029 NOSIG', 'UBBB 312300Z 19004KT CAVOK 02/M00 Q1029 NOSIG']","['2024-02-03 22:00:00', '2024-02-03 21:30:00', '2024-02-03 21:00:00', '2024-02-03 20:30:00', '2024-02-03 19:30:00', '2024-02-03 18:30:00', '2024-02-03 17:30:00', '2024-02-03 16:30:00', '2024-02-03 15:30:00', '2024-02-03 15:00:00', '2024-02-03 14:30:00', '2024-02-03 14:00:00', '2024-02-03 13:30:00', '2024-02-03 13:00:00', '2024-02-03 12:00:00', '2024-02-03 11:00:00', '2024-02-03 10:30:00', '2024-02-03 09:30:00', '2024-02-03 08:30:00', '2024-02-03 07:30:00', '2024-02-03 07:00:00', '2024-02-03 06:30:00', '2024-02-03 06:00:00', '2024-02-03 05:30:00', '2024-02-03 04:30:00', '2024-02-03 03:30:00', '2024-02-03 03:00:00', '2024-02-03 02:30:00', '2024-02-03 01:30:00', '2024-02-03 00:30:00', '2024-02-02 23:30:00', '2024-02-02 23:00:00', '2024-02-02 22:30:00', '2024-02-02 22:00:00', '2024-02-02 21:30:00', '2024-02-02 21:00:00', '2024-02-02 20:30:00', '2024-02-02 20:00:00', '2024-02-02 19:30:00', '2024-02-02 19:00:00', '2024-02-02 18:30:00', '2024-02-02 18:00:00', '2024-02-02 17:30:00', '2024-02-02 16:30:00', '2024-02-02 16:00:00', '2024-02-02 15:00:00', '2024-02-02 14:30:00', '2024-02-02 14:00:00', '2024-02-02 13:30:00', '2024-02-02 12:30:00', '2024-02-02 12:00:00', '2024-02-02 11:30:00', '2024-02-02 10:30:00', '2024-02-02 09:30:00', '2024-02-02 09:00:00', '2024-02-02 08:30:00', '2024-02-02 07:30:00', '2024-02-02 07:00:00', '2024-02-02 06:30:00', '2024-02-02 06:00:00', '2024-02-02 05:00:00', '2024-02-02 04:30:00', '2024-02-02 03:30:00', '2024-02-02 03:00:00', '2024-02-02 02:30:00', '2024-02-02 01:30:00', '2024-02-02 01:00:00', '2024-02-02 00:30:00', '2024-02-01 23:30:00', '2024-02-01 23:00:00', '2024-02-01 22:30:00', '2024-02-01 21:30:00', '2024-02-01 20:30:00', '2024-02-01 19:30:00', '2024-02-01 18:30:00', '2024-02-01 17:30:00', '2024-02-01 16:30:00', '2024-02-01 15:30:00', '2024-02-01 14:30:00', '2024-02-01 14:00:00', '2024-02-01 13:30:00', '2024-02-01 12:30:00', '2024-02-01 11:30:00', '2024-02-01 10:30:00', '2024-02-01 09:30:00', '2024-02-01 08:30:00', '2024-02-01 07:30:00', '2024-02-01 06:30:00', '2024-02-01 05:30:00', '2024-02-01 04:30:00', '2024-02-01 04:00:00', '2024-02-01 03:00:00', '2024-02-01 02:30:00', '2024-02-01 02:00:00', '2024-02-01 01:30:00', '2024-02-01 00:30:00', '2024-02-01 00:00:00', '2024-01-31 23:00:00']"
Azerbaijan, Fuzuli International Airport (FZL/UBBF) ,"['UBBF 032200Z AUTO 30010KT 9999 // NSC 01/M03 Q1018', 'UBBF 032130Z AUTO 30008KT 9999 // NSC 01/M03 Q1018', 'UBBF 032100Z AUTO 32008KT 9999 // NSC 02/M02 Q1018', 'UBBF 032030Z AUTO 29008KT 9999 // NSC 02/M02 Q1018', 'UBBF 032000Z AUTO 31008KT 9999 // NSC 02/M02 Q1018', 'UBBF 031930Z AUTO 31008KT 9999 // NSC 03/M02 Q1018', 'UBBF 031900Z AUTO 30010KT 9999 // NSC 03/M02 Q1018', 'UBBF 031830Z AUTO 29010KT 9999 // NSC 03/M02 Q1018', 'UBBF 031800Z AUTO VRB04KT 9999 // NSC 03/M02 Q1018', 'UBBF 031730Z AUTO 31008KT 230V330 9999 // NSC 04/M02 Q1018', 'UBBF 031700Z AUTO 30012KT 9999 // NSC 04/M02 Q1017', 'UBBF 031630Z AUTO 30010KT 9999 // NSC 03/M01 Q1017', 'UBBF 031600Z AUTO 30010KT 9999 // NSC 04/M01 Q1017', 'UBBF 031530Z AUTO 31010KT 9999 // NSC 04/M01 Q1017', 'UBBF 031500Z AUTO 29004KT 250V330 9999 // NSC 04/M01 Q1017', 'UBBF 031430Z AUTO 36004KT 280V030 9999 // NSC 05/M01 Q1017', 'UBBF 031400Z AUTO 04006KT 9999 // NSC 08/M01 Q1016', 'UBBF 031330Z 05006KT 9999 NSC 09/M01 Q1016 NOSIG', 'UBBF 031300Z VRB02KT 9999 NSC 11/M04 Q1016 NOSIG', 'UBBF 031230Z 06004KT 9999 NSC 11/M06 Q1016 NOSIG', 'UBBF 031200Z VRB02KT 9999 NSC 11/M07 Q1016 NOSIG', 'UBBF 031130Z 16004KT 9999 NSC 11/M06 Q1016 NOSIG', 'UBBF 031100Z 10006KT 9999 NSC 11/M06 Q1016 NOSIG', 'UBBF 031030Z 10004KT 9999 NSC 11/M05 Q1016 NOSIG', 'UBBF 031000Z 13006KT 9999 NSC 11/M05 Q1016 NOSIG', 'UBBF 030930Z 12006KT 9999 NSC 10/M05 Q1016 NOSIG', 'UBBF 030900Z 14006KT 9999 NSC 10/M04 Q1017 NOSIG', 'UBBF 030830Z 15006KT 9999 NSC 10/M04 Q1017 NOSIG', 'UBBF 030800Z 16006KT 9999 NSC 10/M04 Q1017 NOSIG', 'UBBF 030730Z 18006KT 9999 NSC 09/M03 Q1017 NOSIG', 'UBBF 030700Z 18006KT 9999 NSC 07/M00 Q1017 NOSIG', 'UBBF 030630Z 21004KT 9999 FEW100 07/M03 Q1017 NOSIG', 'UBBF 030600Z 30006KT 9999 FEW100 04/M03 Q1017 NOSIG', 'UBBF 030530Z 30008KT 9999 FEW100 02/M03 Q1017 NOSIG', 'UBBF 030500Z 30010KT 9999 FEW100 01/M04 Q1017 NOSIG', 'UBBF 030430Z AUTO 29008KT 9999 // ///////// M02/M05 Q1017', 'UBBF 030400Z AUTO 30008KT 9999 // ///////// M02/M06 Q1017', 'UBBF 030330Z AUTO 30008KT 9999 // ///////// M02/M06 Q1016', 'UBBF 030300Z AUTO 31008KT 9999 // ///////// M02/M06 Q1016', 'UBBF 030230Z AUTO 30010KT 9999 // ///////// M01/M06 Q1016', 'UBBF 030200Z AUTO 31010KT 9999 // ///////// M02/M05 Q1016', 'UBBF 030130Z AUTO 31012KT 9999 // ///////// M02/M05 Q1016', 'UBBF 030100Z AUTO 30010KT 9999 // ///////// M02/M05 Q1015', 'UBBF 030030Z AUTO 31010KT 9999 // ///////// M01/M05 Q1015', 'UBBF 030000Z AUTO 28008KT 9999 // ///////// M02/M05 Q1015', 'UBBF 022330Z AUTO 27008KT 230V310 9999 // ///////// M01/M05 Q1015', 'UBBF 022300Z AUTO 31010KT 9999 // ///////// M01/M05 Q1015', 'UBBF 022230Z AUTO 31010KT 9999 // ///////// M00/M04 Q1015', 'UBBF 022200Z AUTO 28006KT 230V300 9999 // ///////// M01/M05 Q1015', 'UBBF 022130Z AUTO 29010KT 9999 // ///////// M01/M04 Q1015', 'UBBF 022100Z AUTO 28008KT 9999 // ///////// M02/M05 Q1015', 'UBBF 022030Z AUTO 29010KT 9999 // ///////// M01/M04 Q1015', 'UBBF 022000Z AUTO 29010KT 9999 // ///////// M01/M04 Q1016', 'UBBF 021930Z AUTO 30010KT 9999 // ///////// M01/M04 Q1016', 'UBBF 021900Z AUTO 30010KT 9999 // ///////// M01/M04 Q1016', 'UBBF 021830Z AUTO 30010KT 9999 // ///////// M01/M03 Q1016', 'UBBF 021800Z AUTO 30010KT 9999 // ///////// M01/M04 Q1016', 'UBBF 021730Z AUTO 30010KT 9999 // ///////// M00/M03 Q1016', 'UBBF 021700Z AUTO 30010KT 9999 // ///////// 00/M03 Q1017', 'UBBF 021630Z AUTO 30010KT 9999 // ///////// 00/M03 Q1017', 'UBBF 021600Z AUTO 30008KT 9999 // ///////// 00/M03 Q1016', 'UBBF 021530Z AUTO 30006KT 9999 // ///////// 00/M03 Q1016', 'UBBF 021500Z AUTO 31002KT 9999 // ///////// 04/M01 Q1016', 'UBBF 021430Z AUTO 03002KT 350V080 9999 // ///////// 05/M01 Q1016', 'UBBF 021400Z 05004KT 9999 FEW100 06/M01 Q1015 NOSIG', 'UBBF 021330Z 11006KT 9999 FEW100 08/M01 Q1015 NOSIG', 'UBBF 021300Z VRB02KT 9999 FEW100 09/M02 Q1015 NOSIG', 'UBBF 021230Z 10006KT 9999 FEW100 09/M02 Q1015 NOSIG', 'UBBF 021200Z 13004KT 9999 FEW100 09/M04 Q1015 NOSIG', 'UBBF 021130Z 09006KT 9999 FEW100 10/M03 Q1015 NOSIG', 'UBBF 021100Z VRB02KT 9999 FEW100 09/M05 Q1015 NOSIG', 'UBBF 021030Z 08004KT 9999 FEW100 09/M03 Q1016 NOSIG', 'UBBF 020900Z 14006KT 9999 SCT100 09/M04 Q1017 NOSIG', 'UBBF 020830Z 14004KT 9999 SCT100 08/M02 Q1017 NOSIG', 'UBBF 020800Z 17004KT 9999 SCT100 07/M01 Q1018 NOSIG', 'UBBF 020730Z 18004KT 9999 SCT100 06/M01 Q1018 NOSIG', 'UBBF 020700Z 17004KT 9999 SCT100 06/M02 Q1018 NOSIG', 'UBBF 020630Z VRB02KT 9999 SCT100 04/M03 Q1018 NOSIG', 'UBBF 020600Z 28004KT 9999 SCT100 03/M03 Q1019 NOSIG', 'UBBF 020530Z 29006KT 9999 SCT100 00/M04 Q1019 NOSIG', 'UBBF 020500Z 30008KT 9999 SCT100 M01/M05 Q1019 NOSIG', 'UBBF 020430Z AUTO 27008KT 9999 // ///////// M03/M06 Q1019', 'UBBF 020400Z AUTO 30010KT 9999 // ///////// M03/M06 Q1019', 'UBBF 020330Z AUTO 30010KT 9999 // ///////// M03/M06 Q1019', 'UBBF 020300Z AUTO 30010KT 9999 // ///////// M03/M06 Q1018', 'UBBF 020230Z AUTO 30010KT 9999 // ///////// M02/M06 Q1018', 'UBBF 020200Z AUTO 30012KT 9999 // ///////// M02/M06 Q1018', 'UBBF 020130Z AUTO 30012KT 9999 // ///////// M02/M05 Q1018', 'UBBF 020100Z AUTO 31012KT 9999 // ///////// M02/M05 Q1019', 'UBBF 020030Z AUTO 30012KT 9999 // ///////// M02/M05 Q1019', 'UBBF 020000Z AUTO 30010KT 9999 // ///////// M02/M05 Q1019', 'UBBF 012330Z AUTO 30010KT 9999 // ///////// M02/M05 Q1019', 'UBBF 012300Z AUTO 30008KT 9999 // ///////// M02/M05 Q1020', 'UBBF 012230Z AUTO 28006KT 9999 // ///////// M03/M05 Q1020', 'UBBF 012200Z AUTO 31008KT 9999 // ///////// M02/M05 Q1020', 'UBBF 012130Z AUTO 30010KT 9999 // ///////// M02/M04 Q1020', 'UBBF 012100Z AUTO 30010KT 9999 // ///////// M02/M04 Q1021', 'UBBF 012030Z AUTO 30010KT 9999 // ///////// M02/M04 Q1021', 'UBBF 012000Z AUTO 29008KT 9999 // ///////// M02/M04 Q1021', 'UBBF 011930Z AUTO 30008KT 9999 // ///////// M01/M04 Q1021', 'UBBF 011900Z AUTO 30010KT 9999 // ///////// M01/M04 Q1022', 'UBBF 011830Z AUTO 30010KT 9999 // ///////// M01/M04 Q1022', 'UBBF 011800Z AUTO 30010KT 9999 // ///////// M01/M03 Q1022', 'UBBF 011730Z AUTO 30010KT 9999 // ///////// M01/M03 Q1022', 'UBBF 011700Z AUTO 31008KT 9999 // ///////// M01/M03 Q1022', 'UBBF 011630Z AUTO 30010KT 9999 // ///////// M01/M03 Q1022', 'UBBF 011600Z AUTO 31008KT 9999 // ///////// M01/M03 Q1022', 'UBBF 011530Z AUTO 30006KT 9999 // ///////// M01/M02 Q1023', 'UBBF 011500Z AUTO 24004KT 9999 // ///////// 01/M02 Q1022', 'UBBF 011430Z AUTO 18002KT 170V240 9999 // ///////// 02/M01 Q1022', 'UBBF 011400Z 15004KT 9999 FEW100 03/00 Q1022 NOSIG', 'UBBF 011330Z 16006KT 9999 FEW100 04/00 Q1022 NOSIG', 'UBBF 011300Z 15008KT 9999 FEW100 05/M00 Q1022 NOSIG', 'UBBF 011230Z VRB02KT 9999 FEW100 07/M02 Q1023 NOSIG', 'UBBF 011200Z VRB02KT 9999 FEW100 07/M01 Q1023 NOSIG', 'UBBF 011130Z VRB02KT 9999 FEW100 06/M02 Q1023 NOSIG', 'UBBF 011100Z 15004KT 9999 FEW100 06/M01 Q1023 NOSIG', 'UBBF 011030Z VRB02KT 9999 FEW100 06/M01 Q1023 NOSIG', 'UBBF 011000Z VRB02KT 9999 FEW100 06/M01 Q1024 NOSIG', 'UBBF 010930Z VRB02KT 9999 FEW100 05/M00 Q1024 NOSIG', 'UBBF 010900Z 25004KT 9999 FEW100 05/M02 Q1025 NOSIG', 'UBBF 010830Z VRB02KT 9999 FEW100 05/M03 Q1025 NOSIG', 'UBBF 010800Z VRB02KT 9999 FEW100 04/M03 Q1026 NOSIG', 'UBBF 010730Z 30004KT 9999 FEW100 03/M03 Q1026 NOSIG', 'UBBF 010700Z 29006KT 9999 FEW100 02/M03 Q1026 NOSIG', 'UBBF 010630Z 30008KT 9999 FEW100 01/M03 Q1026 NOSIG', 'UBBF 010600Z 30008KT 9999 FEW100 M00/M03 Q1027 NOSIG', 'UBBF 010530Z 29008KT 9999 FEW100 M01/M04 Q1027 NOSIG', 'UBBF 010500Z 30008KT 9999 FEW100 M01/M04 Q1027 NOSIG', 'UBBF 010430Z AUTO 30010KT 9999 // ///////// M02/M05 Q1027', 'UBBF 010400Z AUTO 30010KT 9999 // NSC M02/M05 Q1027', 'UBBF 010330Z AUTO 30010KT 9999 // NSC M02/M05 Q1027', 'UBBF 010300Z AUTO 30008KT 9999 // ///032/// M02/M04 Q1027', 'UBBF 010230Z AUTO 31006KT 9999 // ///032/// M02/M04 Q1027', 'UBBF 010200Z AUTO 30006KT 9999 // ///033/// M03/M05 Q1027', 'UBBF 010130Z AUTO 31006KT 9999 // ///035/// M02/M04 Q1027', 'UBBF 010100Z AUTO 30008KT 9999 // ///098/// M02/M04 Q1027', 'UBBF 010030Z AUTO 30010KT 9999 // ///039/// M01/M03 Q1028', 'UBBF 010000Z AUTO 30006KT 9999 // ///036/// M01/M03 Q1028', 'UBBF 312330Z AUTO 32004KT 280V360 9999 // ///036/// M01/M02 Q1028', 'UBBF 312300Z AUTO 32004KT 9999 // ///035/// M00/M02 Q1028']","['2024-02-03 22:00:00', '2024-02-03 21:30:00', '2024-02-03 21:00:00', '2024-02-03 20:30:00', '2024-02-03 20:00:00', '2024-02-03 19:30:00', '2024-02-03 19:00:00', '2024-02-03 18:30:00', '2024-02-03 18:00:00', '2024-02-03 17:30:00', '2024-02-03 17:00:00', '2024-02-03 16:30:00', '2024-02-03 16:00:00', '2024-02-03 15:30:00', '2024-02-03 15:00:00', '2024-02-03 14:30:00', '2024-02-03 14:00:00', '2024-02-03 13:30:00', '2024-02-03 13:00:00', '2024-02-03 12:30:00', '2024-02-03 12:00:00', '2024-02-03 11:30:00', '2024-02-03 11:00:00', '2024-02-03 10:30:00', '2024-02-03 10:00:00', '2024-02-03 09:30:00', '2024-02-03 09:00:00', '2024-02-03 08:30:00', '2024-02-03 08:00:00', '2024-02-03 07:30:00', '2024-02-03 07:00:00', '2024-02-03 06:30:00', '2024-02-03 06:00:00', '2024-02-03 05:30:00', '2024-02-03 05:00:00', '2024-02-03 04:30:00', '2024-02-03 04:00:00', '2024-02-03 03:30:00', '2024-02-03 03:00:00', '2024-02-03 02:30:00', '2024-02-03 02:00:00', '2024-02-03 01:30:00', '2024-02-03 01:00:00', '2024-02-03 00:30:00', '2024-02-03 00:00:00', '2024-02-02 23:30:00', '2024-02-02 23:00:00', '2024-02-02 22:30:00', '2024-02-02 22:00:00', '2024-02-02 21:30:00', '2024-02-02 21:00:00', '2024-02-02 20:30:00', '2024-02-02 20:00:00', '2024-02-02 19:30:00', '2024-02-02 19:00:00', '2024-02-02 18:30:00', '2024-02-02 18:00:00', '2024-02-02 17:30:00', '2024-02-02 17:00:00', '2024-02-02 16:30:00', '2024-02-02 16:00:00', '2024-02-02 15:30:00', '2024-02-02 15:00:00', '2024-02-02 14:30:00', '2024-02-02 14:00:00', '2024-02-02 13:30:00', '2024-02-02 13:00:00', '2024-02-02 12:30:00', '2024-02-02 12:00:00', '2024-02-02 11:30:00', '2024-02-02 11:00:00', '2024-02-02 10:30:00', '2024-02-02 09:00:00', '2024-02-02 08:30:00', '2024-02-02 08:00:00', '2024-02-02 07:30:00', '2024-02-02 07:00:00', '2024-02-02 06:30:00', '2024-02-02 06:00:00', '2024-02-02 05:30:00', '2024-02-02 05:00:00', '2024-02-02 04:30:00', '2024-02-02 04:00:00', '2024-02-02 03:30:00', '2024-02-02 03:00:00', '2024-02-02 02:30:00', '2024-02-02 02:00:00', '2024-02-02 01:30:00', '2024-02-02 01:00:00', '2024-02-02 00:30:00', '2024-02-02 00:00:00', '2024-02-01 23:30:00', '2024-02-01 23:00:00', '2024-02-01 22:30:00', '2024-02-01 22:00:00', '2024-02-01 21:30:00', '2024-02-01 21:00:00', '2024-02-01 20:30:00', '2024-02-01 20:00:00', '2024-02-01 19:30:00', '2024-02-01 19:00:00', '2024-02-01 18:30:00', '2024-02-01 18:00:00', '2024-02-01 17:30:00', '2024-02-01 17:00:00', '2024-02-01 16:30:00', '2024-02-01 16:00:00', '2024-02-01 15:30:00', '2024-02-01 15:00:00', '2024-02-01 14:30:00', '2024-02-01 14:00:00', '2024-02-01 13:30:00', '2024-02-01 13:00:00', '2024-02-01 12:30:00', '2024-02-01 12:00:00', '2024-02-01 11:30:00', '2024-02-01 11:00:00', '2024-02-01 10:30:00', '2024-02-01 10:00:00', '2024-02-01 09:30:00', '2024-02-01 09:00:00', '2024-02-01 08:30:00', '2024-02-01 08:00:00', '2024-02-01 07:30:00', '2024-02-01 07:00:00', '2024-02-01 06:30:00', '2024-02-01 06:00:00', '2024-02-01 05:30:00', '2024-02-01 05:00:00', '2024-02-01 04:30:00', '2024-02-01 04:00:00', '2024-02-01 03:30:00', '2024-02-01 03:00:00', '2024-02-01 02:30:00', '2024-02-01 02:00:00', '2024-02-01 01:30:00', '2024-02-01 01:00:00', '2024-02-01 00:30:00', '2024-02-01 00:00:00', '2024-01-31 23:30:00', '2024-01-31 23:00:00']"
Azerbaijan, Ganja International Airport (GNJ/UBBG) ,"['UBBG 032200Z 28010KT 9999 SCT100 05/M03 Q1018 NOSIG', 'UBBG 032130Z 27010KT 9999 SCT100 05/M03 Q1018 NOSIG', 'UBBG 032100Z 26008KT 9999 SCT100 05/M02 Q1018 NOSIG', 'UBBG 032030Z 28008KT 9999 SCT100 04/M03 Q1019 NOSIG', 'UBBG 032000Z 23006KT 210V270 9999 SCT100 05/M03 Q1019 NOSIG', 'UBBG 031930Z 30004KT 260V340 9999 SCT100 05/M03 Q1019 NOSIG', 'UBBG 031900Z 28010KT 9999 SCT100 06/M02 Q1019 NOSIG', 'UBBG 031830Z 29012KT 9999 SCT100 05/M02 Q1019 NOSIG', 'UBBG 031800Z 29010KT 9999 SCT100 06/M02 Q1018 NOSIG', 'UBBG 031730Z 29012KT 9999 SCT100 07/M02 Q1018 NOSIG', 'UBBG 031700Z 29014KT 9999 SCT100 07/M02 Q1018 NOSIG', 'UBBG 031630Z 29012KT 9999 SCT100 06/M03 Q1018 NOSIG', 'UBBG 031600Z 29010KT 9999 BKN100 06/M03 Q1017 NOSIG', 'UBBG 031530Z 31010KT 280V350 9999 BKN100 07/M03 Q1017 NOSIG', 'UBBG 031500Z 29010KT 9999 BKN100 08/M04 Q1017 NOSIG', 'UBBG 031430Z 30010KT 9999 BKN100 07/M03 Q1016 NOSIG', 'UBBG 031400Z 31010KT 9999 BKN100 08/M04 Q1016 NOSIG', 'UBBG 031330Z 30010KT 9999 BKN100 09/M04 Q1016 NOSIG', 'UBBG 031300Z 31012KT 9999 BKN100 11/M05 Q1016 NOSIG', 'UBBG 031230Z 32010KT 9999 BKN100 11/M04 Q1016 NOSIG', 'UBBG 031200Z 32012KT 9999 BKN100 11/M05 Q1015 NOSIG', 'UBBG 031130Z 32012KT 9999 BKN100 12/M05 Q1015 NOSIG', 'UBBG 031100Z 32014KT 9999 BKN100 11/M05 Q1016 NOSIG', 'UBBG 031030Z 32010KT 9999 BKN100 11/M04 Q1016 NOSIG', 'UBBG 031000Z 32010KT 290V350 9999 SCT100 11/M03 Q1016 NOSIG', 'UBBG 030930Z 30012KT 9999 SCT100 11/M03 Q1016 NOSIG', 'UBBG 030900Z 31012KT 9999 SCT100 10/M02 Q1016 NOSIG', 'UBBG 030830Z 31014KT 9999 SCT100 09/M01 Q1017 NOSIG', 'UBBG 030800Z 31014KT 9999 SCT100 09/M02 Q1017 NOSIG', 'UBBG 030730Z 31012KT 9999 SCT100 09/M01 Q1017 NOSIG', 'UBBG 030700Z 31014KT 9999 SCT100 08/M02 Q1017 NOSIG', 'UBBG 030630Z 30016KT 9999 SCT100 08/M02 Q1017 NOSIG', 'UBBG 030600Z 29010KT 9999 SCT100 08/M03 Q1017 NOSIG', 'UBBG 030530Z 28012KT 9999 SCT100 07/M02 Q1017 NOSIG', 'UBBG 030500Z 27012KT 9999 SCT100 06/M03 Q1017 NOSIG', 'UBBG 030430Z 27012KT 9999 SCT100 05/M04 Q1017 NOSIG', 'UBBG 030400Z 28012KT 9999 SCT100 05/M04 Q1016 NOSIG', 'UBBG 030330Z 28014KT 9999 FEW100 06/M04 Q1016 NOSIG', 'UBBG 030300Z 28014KT 9999 SCT100 06/M04 Q1016 NOSIG', 'UBBG 030230Z 28014KT 9999 SCT100 06/M03 Q1016 NOSIG', 'UBBG 030200Z 28012KT 9999 SCT100 06/M04 Q1016 NOSIG', 'UBBG 030130Z 28010KT 9999 SCT100 05/M04 Q1016 NOSIG', 'UBBG 030100Z 25008KT 9999 SCT100 04/M04 Q1016 NOSIG', 'UBBG 030030Z 22006KT 9999 SCT100 02/M05 Q1016 NOSIG', 'UBBG 030000Z 20008KT 9999 SCT100 02/M05 Q1016 NOSIG', 'UBBG 022330Z 20008KT 9999 SCT100 02/M05 Q1016 NOSIG', 'UBBG 022300Z 24004KT 9999 SCT100 02/M04 Q1016 NOSIG', 'UBBG 022230Z 24006KT 9999 SCT100 03/M04 Q1016 NOSIG', 'UBBG 022200Z 21006KT 9999 SCT100 02/M04 Q1016 NOSIG', 'UBBG 022130Z 25004KT 9999 SCT100 03/M04 Q1016 NOSIG', 'UBBG 022100Z 20008KT 9999 SCT100 03/M04 Q1016 NOSIG', 'UBBG 022030Z 19008KT 9999 SCT100 03/M04 Q1016 NOSIG', 'UBBG 022000Z 19008KT 9999 SCT100 03/M04 Q1016 NOSIG', 'UBBG 021930Z 17008KT 9999 SCT100 04/M04 Q1016 NOSIG', 'UBBG 021900Z 17006KT 9999 SCT100 03/M04 Q1016 NOSIG', 'UBBG 021830Z 19006KT 9999 SCT100 03/M03 Q1016 NOSIG', 'UBBG 021800Z 18006KT 9999 SCT100 03/M04 Q1016 NOSIG', 'UBBG 021730Z 20008KT 9999 SCT100 03/M04 Q1016 NOSIG', 'UBBG 021700Z 19008KT 9999 FEW100 03/M04 Q1016 NOSIG', 'UBBG 021630Z 19008KT 9999 FEW100 03/M04 Q1016 NOSIG', 'UBBG 021600Z 20008KT 9999 FEW100 04/M04 Q1015 NOSIG', 'UBBG 021530Z 20008KT 9999 FEW100 03/M03 Q1015 NOSIG', 'UBBG 021500Z 22006KT 9999 FEW100 04/M03 Q1015 NOSIG', 'UBBG 021430Z 23004KT 9999 FEW100 06/M04 Q1015 NOSIG', 'UBBG 021400Z 27004KT 9999 FEW100 08/M06 Q1015 NOSIG', 'UBBG 021330Z 29004KT 9999 FEW100 09/M07 Q1015 NOSIG', 'UBBG 021300Z 30006KT 270V350 9999 FEW100 10/M06 Q1015 NOSIG', 'UBBG 021230Z 31006KT 270V350 9999 FEW100 10/M06 Q1015 NOSIG', 'UBBG 021200Z 30006KT 9999 FEW100 10/M06 Q1015 NOSIG', 'UBBG 021130Z 30006KT 260V330 9999 FEW100 10/M06 Q1015 NOSIG', 'UBBG 021100Z 28006KT 240V320 9999 FEW100 09/M07 Q1015 NOSIG', 'UBBG 021030Z 30008KT 260V340 9999 FEW100 09/M05 Q1016 NOSIG', 'UBBG 020900Z 31008KT 260V350 9999 FEW100 07/M05 Q1017 NOSIG', 'UBBG 020830Z 31008KT 280V340 9999 FEW100 07/M05 Q1018 NOSIG', 'UBBG 020800Z 31006KT 270V350 9999 FEW100 07/M05 Q1018 NOSIG', 'UBBG 020730Z 30006KT 9999 FEW100 05/M06 Q1018 NOSIG', 'UBBG 020700Z 30006KT 270V340 9999 FEW100 04/M05 Q1018 NOSIG', 'UBBG 020630Z 31006KT 280V340 9999 FEW100 03/M06 Q1018 NOSIG', 'UBBG 020600Z 31004KT 9999 FEW100 03/M07 Q1018 NOSIG', 'UBBG 020530Z VRB02KT 9999 FEW100 03/M05 Q1019 NOSIG', 'UBBG 020500Z 20004KT 9999 FEW100 01/M05 Q1019 NOSIG', 'UBBG 020430Z 19006KT 9999 FEW100 M01/M06 Q1019 NOSIG', 'UBBG 020400Z 21008KT 9999 FEW100 M02/M06 Q1019 NOSIG', 'UBBG 020330Z 21006KT 9999 FEW100 M02/M06 Q1019 NOSIG', 'UBBG 020300Z 20006KT 9999 FEW100 M02/M06 Q1019 NOSIG', 'UBBG 020230Z 23004KT 9999 FEW100 M02/M05 Q1019 NOSIG', 'UBBG 020200Z 21006KT 9999 FEW100 M01/M05 Q1019 NOSIG', 'UBBG 020130Z 21006KT 9999 FEW100 M01/M05 Q1019 NOSIG', 'UBBG 020100Z 20008KT 9999 FEW100 M01/M05 Q1019 NOSIG', 'UBBG 020030Z 19006KT 9999 FEW100 M01/M05 Q1019 NOSIG', 'UBBG 020000Z 19006KT 9999 FEW100 M01/M05 Q1019 NOSIG', 'UBBG 012330Z 20006KT 190V270 9999 FEW100 M01/M05 Q1020 NOSIG', 'UBBG 012300Z 20006KT 9999 FEW100 M01/M04 Q1020 NOSIG', 'UBBG 012230Z 23002KT 9999 FEW100 M01/M05 Q1020 NOSIG', 'UBBG 012200Z 20006KT 170V330 9999 FEW100 M01/M05 Q1020 NOSIG', 'UBBG 012130Z 20008KT 9999 FEW100 00/M05 Q1020 NOSIG', 'UBBG 012100Z 20008KT 9999 FEW100 00/M05 Q1021 NOSIG', 'UBBG 012030Z 21008KT 9999 FEW100 00/M04 Q1021 NOSIG', 'UBBG 012000Z 21008KT 9999 FEW100 00/M04 Q1021 NOSIG', 'UBBG 011930Z 21008KT 9999 FEW100 00/M03 Q1021 NOSIG', 'UBBG 011900Z 20008KT 9999 FEW100 00/M03 Q1022 NOSIG', 'UBBG 011830Z 20008KT 9999 FEW100 01/M03 Q1022 NOSIG', 'UBBG 011800Z 21008KT 9999 FEW100 00/M03 Q1022 NOSIG', 'UBBG 011730Z 20008KT 9999 FEW100 01/M03 Q1022 NOSIG', 'UBBG 011700Z 20008KT 9999 FEW100 01/M03 Q1022 NOSIG', 'UBBG 011630Z 20008KT 9999 FEW100 01/M02 Q1022 NOSIG', 'UBBG 011600Z 20008KT 9999 FEW100 01/M02 Q1022 NOSIG', 'UBBG 011530Z 21006KT 9999 FEW100 02/M02 Q1022 NOSIG', 'UBBG 011500Z 00000KT 9999 FEW100 04/M03 Q1022 NOSIG', 'UBBG 011430Z 32002KT 9999 FEW100 04/M04 Q1022 NOSIG', 'UBBG 011400Z 33004KT 9999 FEW100 05/M03 Q1022 NOSIG', 'UBBG 011330Z 33004KT 9999 FEW100 06/M03 Q1022 NOSIG', 'UBBG 011300Z 33004KT 290V360 9999 FEW100 06/M03 Q1022 NOSIG', 'UBBG 011230Z 33006KT 280V010 9999 FEW100 07/M03 Q1023 NOSIG', 'UBBG 011200Z 35004KT 290V030 9999 FEW100 07/M03 Q1023 NOSIG', 'UBBG 011130Z 34004KT 240V030 9999 FEW100 07/M03 Q1023 NOSIG', 'UBBG 011100Z 27004KT 190V360 9999 FEW100 07/M03 Q1023 NOSIG', 'UBBG 011030Z 31004KT 270V040 9999 FEW100 07/M03 Q1023 NOSIG', 'UBBG 011000Z VRB02KT 9999 FEW100 06/M03 Q1024 NOSIG', 'UBBG 010930Z 34004KT 9999 FEW100 06/M03 Q1024 NOSIG', 'UBBG 010900Z 31004KT 9999 FEW100 05/M03 Q1025 NOSIG', 'UBBG 010830Z 30004KT 260V060 9999 FEW100 05/M03 Q1025 NOSIG', 'UBBG 010800Z 34004KT 9999 FEW100 04/M03 Q1026 NOSIG', 'UBBG 010730Z 32004KT 280V360 9999 SCT100 04/M04 Q1026 NOSIG', 'UBBG 010700Z 31004KT 260V350 9999 SCT100 03/M04 Q1027 NOSIG', 'UBBG 010630Z VRB02KT 9999 SCT100 03/M04 Q1027 NOSIG', 'UBBG 010600Z VRB02KT 9999 SCT100 02/M04 Q1027 NOSIG', 'UBBG 010530Z 18004KT 9999 SCT100 01/M03 Q1027 NOSIG', 'UBBG 010500Z 19004KT 9999 SCT100 M00/M03 Q1027 NOSIG', 'UBBG 010430Z 21006KT 9999 SCT100 M02/M04 Q1027 NOSIG', 'UBBG 010400Z 20006KT 9999 BKN066 M02/M04 Q1027 NOSIG', 'UBBG 010330Z 21006KT 9999 BKN066 M02/M04 Q1027 NOSIG', 'UBBG 010300Z 22004KT 9999 BKN066 M02/M04 Q1027 NOSIG', 'UBBG 010230Z 21006KT 9999 BKN066 M02/M04 Q1027 NOSIG', 'UBBG 010200Z 21004KT 9999 SCT100 M02/M04 Q1027 NOSIG', 'UBBG 010130Z 20004KT 9999 SCT100 M02/M04 Q1028 NOSIG', 'UBBG 010100Z 20006KT 9999 SCT100 M02/M04 Q1028 NOSIG', 'UBBG 010030Z 21006KT 9999 SCT100 M02/M03 Q1028 NOSIG', 'UBBG 010000Z 22006KT 9999 SCT100 M02/M03 Q1028 NOSIG', 'UBBG 312330Z 22006KT 9999 SCT100 M02/M03 Q1028 NOSIG', 'UBBG 312300Z 23004KT 9999 SCT100 M01/M04 Q1029 NOSIG']","['2024-02-03 22:00:00', '2024-02-03 21:30:00', '2024-02-03 21:00:00', '2024-02-03 20:30:00', '2024-02-03 20:00:00', '2024-02-03 19:30:00', '2024-02-03 19:00:00', '2024-02-03 18:30:00', '2024-02-03 18:00:00', '2024-02-03 17:30:00', '2024-02-03 17:00:00', '2024-02-03 16:30:00', '2024-02-03 16:00:00', '2024-02-03 15:30:00', '2024-02-03 15:00:00', '2024-02-03 14:30:00', '2024-02-03 14:00:00', '2024-02-03 13:30:00', '2024-02-03 13:00:00', '2024-02-03 12:30:00', '2024-02-03 12:00:00', '2024-02-03 11:30:00', '2024-02-03 11:00:00', '2024-02-03 10:30:00', '2024-02-03 10:00:00', '2024-02-03 09:30:00', '2024-02-03 09:00:00', '2024-02-03 08:30:00', '2024-02-03 08:00:00', '2024-02-03 07:30:00', '2024-02-03 07:00:00', '2024-02-03 06:30:00', '2024-02-03 06:00:00', '2024-02-03 05:30:00', '2024-02-03 05:00:00', '2024-02-03 04:30:00', '2024-02-03 04:00:00', '2024-02-03 03:30:00', '2024-02-03 03:00:00', '2024-02-03 02:30:00', '2024-02-03 02:00:00', '2024-02-03 01:30:00', '2024-02-03 01:00:00', '2024-02-03 00:30:00', '2024-02-03 00:00:00', '2024-02-02 23:30:00', '2024-02-02 23:00:00', '2024-02-02 22:30:00', '2024-02-02 22:00:00', '2024-02-02 21:30:00', '2024-02-02 21:00:00', '2024-02-02 20:30:00', '2024-02-02 20:00:00', '2024-02-02 19:30:00', '2024-02-02 19:00:00', '2024-02-02 18:30:00', '2024-02-02 18:00:00', '2024-02-02 17:30:00', '2024-02-02 17:00:00', '2024-02-02 16:30:00', '2024-02-02 16:00:00', '2024-02-02 15:30:00', '2024-02-02 15:00:00', '2024-02-02 14:30:00', '2024-02-02 14:00:00', '2024-02-02 13:30:00', '2024-02-02 13:00:00', '2024-02-02 12:30:00', '2024-02-02 12:00:00', '2024-02-02 11:30:00', '2024-02-02 11:00:00', '2024-02-02 10:30:00', '2024-02-02 09:00:00', '2024-02-02 08:30:00', '2024-02-02 08:00:00', '2024-02-02 07:30:00', '2024-02-02 07:00:00', '2024-02-02 06:30:00', '2024-02-02 06:00:00', '2024-02-02 05:30:00', '2024-02-02 05:00:00', '2024-02-02 04:30:00', '2024-02-02 04:00:00', '2024-02-02 03:30:00', '2024-02-02 03:00:00', '2024-02-02 02:30:00', '2024-02-02 02:00:00', '2024-02-02 01:30:00', '2024-02-02 01:00:00', '2024-02-02 00:30:00', '2024-02-02 00:00:00', '2024-02-01 23:30:00', '2024-02-01 23:00:00', '2024-02-01 22:30:00', '2024-02-01 22:00:00', '2024-02-01 21:30:00', '2024-02-01 21:00:00', '2024-02-01 20:30:00', '2024-02-01 20:00:00', '2024-02-01 19:30:00', '2024-02-01 19:00:00', '2024-02-01 18:30:00', '2024-02-01 18:00:00', '2024-02-01 17:30:00', '2024-02-01 17:00:00', '2024-02-01 16:30:00', '2024-02-01 16:00:00', '2024-02-01 15:30:00', '2024-02-01 15:00:00', '2024-02-01 14:30:00', '2024-02-01 14:00:00', '2024-02-01 13:30:00', '2024-02-01 13:00:00', '2024-02-01 12:30:00', '2024-02-01 12:00:00', '2024-02-01 11:30:00', '2024-02-01 11:00:00', '2024-02-01 10:30:00', '2024-02-01 10:00:00', '2024-02-01 09:30:00', '2024-02-01 09:00:00', '2024-02-01 08:30:00', '2024-02-01 08:00:00', '2024-02-01 07:30:00', '2024-02-01 07:00:00', '2024-02-01 06:30:00', '2024-02-01 06:00:00', '2024-02-01 05:30:00', '2024-02-01 05:00:00', '2024-02-01 04:30:00', '2024-02-01 04:00:00', '2024-02-01 03:30:00', '2024-02-01 03:00:00', '2024-02-01 02:30:00', '2024-02-01 02:00:00', '2024-02-01 01:30:00', '2024-02-01 01:00:00', '2024-02-01 00:30:00', '2024-02-01 00:00:00', '2024-01-31 23:30:00', '2024-01-31 23:00:00']"
Azerbaijan, Lankaran International Airport (LLK/UBBL) ,"['UBBL 032200Z 00000KT 9999 SCT055 04/M01 Q1019 NOSIG', 'UBBL 032100Z 00000KT 9999 SCT055 04/M01 Q1019 NOSIG', 'UBBL 032000Z 00000KT 9999 SCT055 05/M01 Q1019 NOSIG', 'UBBL 031900Z 15005KT 9999 SCT055 04/M01 Q1020 NOSIG', 'UBBL 031800Z 20003KT 9999 SCT055 06/00 Q1020 NOSIG', 'UBBL 031700Z VRB03KT 9999 SCT060 04/02 Q1020 NOSIG', 'UBBL 031600Z VRB03KT 9999 SCT060 05/03 Q1020 NOSIG', 'UBBL 031500Z 00000KT 9999 SCT060 06/03 Q1019 NOSIG', 'UBBL 031400Z VRB03KT 9999 SCT060 09/03 Q1019 NOSIG', 'UBBL 031300Z 15005KT 9999 SCT060 11/03 Q1018 NOSIG', 'UBBL 031200Z 15005KT 9999 NSC 12/01 Q1018 NOSIG', 'UBBL 031100Z 12004KT 9999 NSC 12/M02 Q1018 NOSIG', 'UBBL 031000Z 11005KT 9999 NSC 11/M01 Q1018 NOSIG', 'UBBL 030900Z 08003KT 9999 NSC 11/M01 Q1019 NOSIG', 'UBBL 030800Z 00000KT 9999 SCT060 11/M01 Q1019 NOSIG', 'UBBL 030700Z 00000KT 9999 SCT060 10/00 Q1020 NOSIG', 'UBBL 030600Z 00000KT 9999 SCT060 05/03 Q1019 NOSIG', 'UBBL 030500Z 00000KT 9999 SCT060 00/00 Q1019 NOSIG', 'UBBL 030400Z 00000KT 9000 SCT060 M02/M02 Q1019 NOSIG', 'UBBL 030300Z 00000KT 8000 SCT060 M02/M02 Q1018 NOSIG', 'UBBL 030200Z 00000KT 6000 SCT100 M01/M01 Q1018 NOSIG', 'UBBL 030100Z 00000KT 6000 SCT100 M01/M01 Q1018 NOSIG', 'UBBL 030000Z 00000KT 6000 SCT100 M01/M01 Q1018 NOSIG', 'UBBL 022300Z 00000KT 6000 SCT100 M01/M01 Q1017 NOSIG', 'UBBL 022200Z 00000KT 6000 SCT100 M00/M00 Q1018 NOSIG', 'UBBL 022100Z 00000KT 7000 SCT100 00/00 Q1018 NOSIG', 'UBBL 022000Z 00000KT 8000 SCT100 01/M01 Q1018 NOSIG', 'UBBL 021900Z 21004KT 9000 SCT100 03/01 Q1018 NOSIG', 'UBBL 021800Z VRB03KT 9000 SCT100 03/01 Q1019 NOSIG', 'UBBL 021700Z 19004KT 9000 SCT100 04/02 Q1018 NOSIG', 'UBBL 021600Z 19004KT 9000 SCT100 05/02 Q1019 NOSIG', 'UBBL 021500Z 16005KT 9999 SCT050 05/02 Q1019 NOSIG', 'UBBL 021400Z VRB03KT 9999 SCT050 07/01 Q1018 NOSIG', 'UBBL 021300Z 13005KT 9999 OVC060 09/02 Q1018 NOSIG', 'UBBL 021200Z VRB02KT 9999 OVC060 10/01 Q1018 NOSIG', 'UBBL 021100Z VRB02KT 9999 OVC060 09/02 Q1018 NOSIG', 'UBBL 021000Z VRB02KT 9999 OVC060 08/01 Q1019 NOSIG', 'UBBL 020900Z VRB02KT 9000 OVC060 09/01 Q1019 NOSIG', 'UBBL 020800Z VRB02KT 9000 OVC060 09/02 Q1020 NOSIG', 'UBBL 020700Z 33003KT 9000 OVC060 07/02 Q1021 NOSIG', 'UBBL 020600Z 32005KT 9000 OVC060 06/03 Q1021 NOSIG', 'UBBL 020500Z 00000KT 9000 OVC050 05/04 Q1021 NOSIG', 'UBBL 020400Z 00000KT 9000 OVC060 05/03 Q1021 NOSIG', 'UBBL 020300Z VRB02KT 9999 OVC060 05/03 Q1020 NOSIG', 'UBBL 020200Z VRB02KT 9000 OVC046 05/03 Q1020 NOSIG', 'UBBL 020100Z 00000KT 9000 OVC045 05/05 Q1021 NOSIG', 'UBBL 020000Z 00000KT 9000 OVC044 05/05 Q1021 NOSIG', 'UBBL 012300Z 00000KT 9000 OVC060 05/05 Q1022 NOSIG', 'UBBL 012200Z VRB02KT 8000 OVC060 05/05 Q1022 NOSIG', 'UBBL 012100Z VRB03KT 6000 OVC060 05/05 Q1023 NOSIG', 'UBBL 012000Z 00000KT 3100 BR OVC060 05/05 Q1023 NOSIG', 'UBBL 011900Z 00000KT 3300 BR OVC060 05/05 Q1023 NOSIG', 'UBBL 011800Z 00000KT 3500 BR OVC044 05/05 Q1024 NOSIG', 'UBBL 011700Z 00000KT 6000 OVC045 05/05 Q1024 NOSIG', 'UBBL 011600Z 00000KT 8000 OVC045 05/05 Q1025 NOSIG', 'UBBL 011500Z 00000KT 9000 OVC028 05/04 Q1025 NOSIG', 'UBBL 011400Z VRB02KT 9000 -RA OVC030 05/04 Q1025 NOSIG', 'UBBL 011300Z VRB02KT 8000 -RA OVC030 06/04 Q1025 NOSIG', 'UBBL 011200Z 36003KT 9999 -RA OVC035 06/04 Q1025 NOSIG', 'UBBL 011100Z VRB03KT 9999 -RA OVC040 06/04 Q1026 NOSIG', 'UBBL 011000Z 35005KT 9999 -RA OVC030 06/03 Q1026 NOSIG', 'UBBL 010900Z 36005KT 9999 OVC030 06/03 Q1027 NOSIG', 'UBBL 010800Z 35006KT 9000 -RA OVC030 06/04 Q1028 NOSIG', 'UBBL 010700Z 36006KT 9999 -RA OVC040 06/04 Q1029 NOSIG', 'UBBL 010600Z 00000KT 9999 -RA OVC035 05/04 Q1029 NOSIG', 'UBBL 010500Z 00000KT 9000 -RA OVC040 05/04 Q1029 NOSIG', 'UBBL 010400Z VRB03KT 8000 BKN037 04/04 Q1029 NOSIG', 'UBBL 010300Z 32004KT 9000 BKN060 04/04 Q1029 NOSIG', 'UBBL 010200Z VRB03KT 9000 OVC045 04/04 Q1029 NOSIG', 'UBBL 010100Z VRB03KT 9000 OVC041 05/03 Q1030 NOSIG', 'UBBL 010000Z 00000KT 9000 OVC041 05/03 Q1030 NOSIG', 'UBBL 312300Z 00000KT 9000 OVC042 05/03 Q1030 NOSIG']","['2024-02-03 22:00:00', '2024-02-03 21:00:00', '2024-02-03 20:00:00', '2024-02-03 19:00:00', '2024-02-03 18:00:00', '2024-02-03 17:00:00', '2024-02-03 16:00:00', '2024-02-03 15:00:00', '2024-02-03 14:00:00', '2024-02-03 13:00:00', '2024-02-03 12:00:00', '2024-02-03 11:00:00', '2024-02-03 10:00:00', '2024-02-03 09:00:00', '2024-02-03 08:00:00', '2024-02-03 07:00:00', '2024-02-03 06:00:00', '2024-02-03 05:00:00', '2024-02-03 04:00:00', '2024-02-03 03:00:00', '2024-02-03 02:00:00', '2024-02-03 01:00:00', '2024-02-03 00:00:00', '2024-02-02 23:00:00', '2024-02-02 21:55:00', '2024-02-02 21:00:00', '2024-02-02 19:59:00', '2024-02-02 19:00:00', '2024-02-02 17:55:00', '2024-02-02 17:00:00', '2024-02-02 16:00:00', '2024-02-02 15:00:00', '2024-02-02 14:00:00', '2024-02-02 13:00:00', '2024-02-02 12:00:00', '2024-02-02 11:00:00', '2024-02-02 10:00:00', '2024-02-02 09:00:00', '2024-02-02 08:00:00', '2024-02-02 06:58:00', '2024-02-02 06:00:00', '2024-02-02 05:00:00', '2024-02-02 04:00:00', '2024-02-02 03:00:00', '2024-02-02 02:00:00', '2024-02-02 01:00:00', '2024-02-02 00:00:00', '2024-02-01 23:00:00', '2024-02-01 22:00:00', '2024-02-01 21:00:00', '2024-02-01 20:00:00', '2024-02-01 19:00:00', '2024-02-01 18:00:00', '2024-02-01 17:00:00', '2024-02-01 16:00:00', '2024-02-01 15:00:00', '2024-02-01 14:00:00', '2024-02-01 13:00:00', '2024-02-01 12:00:00', '2024-02-01 10:59:00', '2024-02-01 10:00:00', '2024-02-01 09:00:00', '2024-02-01 07:58:00', '2024-02-01 07:00:00', '2024-02-01 05:59:00', '2024-02-01 05:00:00', '2024-02-01 04:00:00', '2024-02-01 03:00:00', '2024-02-01 02:00:00', '2024-02-01 01:00:00', '2024-02-01 00:00:00', '2024-01-31 23:00:00']"
Azerbaijan, Nakhchivan International Airport (NAJ/UBBN) ,"['UBBN 032200Z 09002KT 5000 BR FEW030 SCT083 M05/M05 Q1020 NOSIG RMK MT OBSC QFE690', 'UBBN 032130Z VRB02KT 5000 BR FEW030 SCT090 M04/M05 Q1021 NOSIG RMK MT OBSC QFE690', 'UBBN 032100Z 08004KT 6000 FEW033 SCT090 M03/M04 Q1021 NOSIG RMK MT OBSC QFE690', 'UBBN 032030Z 07006KT 6000 FEW033 SCT090 M03/M03 Q1021 NOSIG RMK MT OBSC QFE690', 'UBBN 032000Z VRB02KT 6000 FEW033 SCT090 M03/M05 Q1021 NOSIG RMK MT OBSC QFE690', 'UBBN 031930Z VRB02KT 6000 FEW033 SCT090 M03/M04 Q1021 NOSIG RMK MT OBSC QFE690', 'UBBN 031900Z 23002KT 6000 FEW033 SCT090 M03/M04 Q1021 NOSIG RMK MT OBSC QFE690', 'UBBN 031830Z 15004KT 7000 FEW036 SCT090 M03/M04 Q1021 NOSIG RMK MT OBSC QFE691', 'UBBN 031800Z 09004KT 7000 FEW036 SCT090 M02/M04 Q1021 NOSIG RMK MT OBSC QFE690', 'UBBN 031730Z 17002KT 7000 FEW036 SCT090 M02/M04 Q1021 NOSIG RMK MT OBSC QFE690', 'UBBN 031700Z VRB02KT 7000 FEW036 SCT090 M01/M04 Q1021 NOSIG RMK MT OBSC QFE690', 'UBBN 031630Z 00000KT 7000 FEW036 SCT090 M01/M04 Q1021 NOSIG RMK MT OBSC QFE690', 'UBBN 031600Z 34002KT 8000 FEW040 SCT090 M02/M04 Q1021 NOSIG RMK MT OBSC QFE690', 'UBBN 031530Z 30004KT 8000 FEW040 SCT090 M00/M05 Q1021 NOSIG RMK MT OBSC QFE690', 'UBBN 031500Z 28004KT 8000 FEW040 SCT090 01/M05 Q1021 NOSIG RMK MT OBSC QFE690', 'UBBN 031430Z 27006KT 8000 FEW040 SCT090 01/M05 Q1020 NOSIG RMK MT OBSC QFE690', 'UBBN 031400Z 25006KT 8000 FEW040 SCT090 01/M05 Q1020 NOSIG RMK MT OBSC QFE690', 'UBBN 031330Z 24008KT 8000 FEW040 SCT090 02/M05 Q1020 NOSIG RMK MT OBSC QFE690', 'UBBN 031300Z 25006KT 8000 NSC 02/M05 Q1020 NOSIG RMK MT OBSC QFE690', 'UBBN 031230Z 25008KT 8000 NSC 02/M05 Q1020 NOSIG RMK MT OBSC QFE690', 'UBBN 031200Z 25006KT 9999 NSC 02/M05 Q1020 NOSIG RMK MT OP QFE689', 'UBBN 031130Z 26008KT 9999 NSC 02/M05 Q1020 NOSIG RMK MT OP QFE690', 'UBBN 031100Z 26006KT 9999 NSC 02/M05 Q1020 NOSIG RMK MT OP QFE689', 'UBBN 031030Z 25006KT 9999 NSC 02/M05 Q1020 NOSIG RMK MT OP QFE689', 'UBBN 031000Z 28004KT 9999 NSC 02/M06 Q1020 NOSIG RMK MT OP QFE690', 'UBBN 030930Z 27006KT 9999 NSC 02/M05 Q1020 NOSIG RMK MT OP QFE690', 'UBBN 030900Z 21004KT 9999 NSC 01/M05 Q1021 NOSIG RMK MT OP QFE690', 'UBBN 030830Z 21004KT 9999 NSC 01/M05 Q1021 NOSIG RMK MT OP QFE690', 'UBBN 030800Z 23004KT 9999 NSC 00/M05 Q1021 NOSIG RMK MT OBSC QFE690', 'UBBN 030730Z 23006KT 9000 NSC M01/M05 Q1021 NOSIG RMK MT OBSC QFE690', 'UBBN 030700Z 23004KT 7000 NSC M01/M05 Q1021 NOSIG RMK MT OBSC QFE690', 'UBBN 030630Z VRB02KT 6000 NSC M02/M05 Q1021 NOSIG RMK MT OBSC QFE690', 'UBBN 030600Z 22004KT 6000 NSC M03/M05 Q1021 NOSIG RMK MT OBSC QFE690', 'UBBN 030530Z VRB02KT 5000 BR NSC M03/M05 Q1021 NOSIG RMK MT OBSC QFE690', 'UBBN 030500Z 07004KT 4000 BR NSC M04/M05 Q1021 NOSIG RMK MT OBSC QFE690', 'UBBN 030430Z 07004KT 4000 BR NSC M05/M06 Q1021 NOSIG RMK MT OBSC QFE690', 'UBBN 030400Z VRB02KT 4000 BR NSC M05/M06 Q1020 NOSIG RMK MT OBSC QFE690', 'UBBN 030330Z VRB02KT 4000 BR SCT033 M05/M06 Q1020 NOSIG RMK MT OBSC QFE690', 'UBBN 030300Z VRB02KT 4000 BR SCT033 M06/M06 Q1020 NOSIG RMK MT OBSC QFE689', 'UBBN 030230Z VRB02KT 5000 BR SCT033 M05/M06 Q1019 NOSIG RMK MT OBSC QFE689', 'UBBN 030200Z 24002KT 5000 BR SCT033 M05/M05 Q1019 NOSIG RMK MT OBSC QFE689', 'UBBN 030130Z 13002KT 4000 BR SCT033 M05/M05 Q1019 NOSIG RMK MT OBSC QFE689', 'UBBN 030030Z VRB02KT 5000 BR BKN033 M04/M04 Q1019 NOSIG RMK MT OBSC QFE689', 'UBBN 030000Z 27002KT 5000 BR BKN033 M04/M05 Q1019 NOSIG RMK MT OBSC QFE689', 'UBBN 022330Z 00000KT 5000 BR BKN033 M03/M06 Q1019 NOSIG RMK MT OBSC QFE689', 'UBBN 022300Z 00000KT 5000 BR BKN033 M03/M05 Q1019 NOSIG RMK MT OBSC QFE689', 'UBBN 022230Z VRB02KT 5000 BR BKN033 M03/M04 Q1018 NOSIG RMK MT OBSC QFE688', 'UBBN 022200Z 00000KT 5000 BR BKN033 M02/M05 Q1018 NOSIG RMK MT OBSC QFE689', 'UBBN 022130Z 31002KT 5000 BR BKN033 M02/M05 Q1018 NOSIG RMK MT OBSC QFE689', 'UBBN 022100Z 28004KT 5000 BR BKN033 M02/M04 Q1018 NOSIG RMK MT OBSC QFE689', 'UBBN 022030Z 33004KT 5000 BR BKN033 M02/M03 Q1019 NOSIG RMK MT OBSC QFE689', 'UBBN 022000Z 28004KT 5000 BR BKN033 M01/M04 Q1019 NOSIG RMK MT OBSC QFE689', 'UBBN 021930Z 25004KT 6000 BKN033 M02/M03 Q1019 NOSIG RMK MT OBSC QFE689', 'UBBN 021900Z 22004KT 8000 SCT033 M02/M04 Q1019 NOSIG RMK MT OBSC QFE689', 'UBBN 021830Z 34004KT 8000 SCT033 M01/M06 Q1019 NOSIG RMK MT OBSC QFE689', 'UBBN 021800Z 35004KT 8000 BKN033 M01/M06 Q1018 NOSIG RMK MT OBSC QFE688', 'UBBN 021730Z 30004KT 8000 BKN033 M01/M06 Q1018 NOSIG RMK MT OBSC QFE688', 'UBBN 021700Z VRB02KT 8000 BKN033 M00/M06 Q1018 NOSIG RMK MT OBSC QFE688', 'UBBN 021630Z 08004KT 8000 BKN030 M00/M04 Q1018 NOSIG RMK MT OBSC QFE688', 'UBBN 021600Z VRB02KT 8000 BKN030 00/M06 Q1018 NOSIG RMK MT OBSC QFE688', 'UBBN 021530Z VRB02KT 8000 BKN030 00/M05 Q1018 NOSIG RMK MT OBSC QFE688', 'UBBN 021500Z VRB02KT 8000 SCT033 BKN073 00/M05 Q1017 NOSIG RMK MT OBSC QFE688', 'UBBN 021430Z 36004KT 8000 SCT033 BKN073 00/M07 Q1017 NOSIG RMK MT OBSC QFE688', 'UBBN 021400Z 31004KT 8000 SCT033 BKN073 01/M07 Q1017 NOSIG RMK MT OBSC QFE687', 'UBBN 021330Z 29004KT 8000 SCT033 BKN073 01/M07 Q1017 NOSIG RMK MT OBSC QFE687', 'UBBN 021300Z 20006KT 8000 SCT033 BKN073 01/M07 Q1017 NOSIG RMK MT OBSC QFE687', 'UBBN 021230Z 22006KT 8000 SCT033 BKN073 01/M07 Q1017 NOSIG RMK MT OBSC QFE687', 'UBBN 021200Z 24006KT 8000 SCT033 BKN073 01/M07 Q1017 NOSIG RMK MT OBSC QFE687', 'UBBN 021130Z 25006KT 8000 SCT033 BKN073 00/M07 Q1017 NOSIG RMK MT OBSC QFE687', 'UBBN 021100Z 32004KT 8000 SCT033 BKN073 01/M06 Q1017 NOSIG RMK MT OBSC QFE687', 'UBBN 021030Z 26004KT 8000 SCT033 BKN073 01/M07 Q1017 NOSIG RMK MT OBSC QFE688', 'UBBN 020900Z 25006KT 8000 BKN036 M00/M06 Q1018 NOSIG RMK MT OBSC QFE688', 'UBBN 020830Z 26004KT 8000 BKN036 M01/M07 Q1019 NOSIG RMK MT OBSC QFE689', 'UBBN 020800Z VRB02KT 8000 BKN036 M01/M06 Q1019 NOSIG RMK MT OBSC QFE689', 'UBBN 020730Z 21004KT 7000 OVC033 M02/M07 Q1019 NOSIG RMK MT OBSC QFE689', 'UBBN 020700Z 23006KT 7000 OVC033 M02/M07 Q1019 NOSIG RMK MT OBSC QFE689', 'UBBN 020630Z 24008KT 7000 OVC033 M02/M07 Q1019 NOSIG RMK MT OBSC QFE689', 'UBBN 020600Z 23008KT 7000 OVC033 M02/M06 Q1019 NOSIG RMK MT OBSC QFE689', 'UBBN 020530Z 21006KT 8000 OVC036 M02/M05 Q1019 NOSIG RMK MT OBSC QFE689', 'UBBN 020500Z 21004KT 6000 OVC036 M02/M04 Q1018 NOSIG RMK MT OBSC QFE688', 'UBBN 020430Z 22004KT 6000 OVC036 M02/M04 Q1018 NOSIG RMK MT OBSC QFE688', 'UBBN 020400Z 25004KT 7000 OVC035 M02/M05 Q1018 NOSIG RMK MT OBSC QFE688', 'UBBN 020330Z 21004KT 8000 OVC033 M02/M05 Q1018 NOSIG RMK MT OBSC QFE688', 'UBBN 020300Z 00000KT 6000 OVC038 M02/M05 Q1018 NOSIG RMK MT OBSC QFE688', 'UBBN 020230Z 24002KT 6000 OVC038 M02/M05 Q1018 NOSIG RMK MT OBSC QFE688', 'UBBN 020200Z 23002KT 6000 OVC038 M01/M05 Q1018 NOSIG RMK MT OBSC QFE688', 'UBBN 020130Z 26002KT 6000 OVC038 M01/M06 Q1018 NOSIG RMK MT OBSC QFE688', 'UBBN 020030Z 21004KT 6000 OVC038 M01/M05 Q1018 NOSIG RMK MT OBSC QFE688', 'UBBN 020000Z 22002KT 6000 OVC038 M01/M05 Q1018 NOSIG RMK MT OBSC QFE689', 'UBBN 012330Z VRB02KT 6000 OVC038 M01/M05 Q1019 NOSIG RMK MT OBSC QFE689', 'UBBN 012300Z 22004KT 6000 OVC038 M01/M05 Q1019 NOSIG RMK MT OBSC QFE689', 'UBBN 012230Z 23004KT 6000 OVC038 M01/M05 Q1019 NOSIG RMK MT OBSC QFE689', 'UBBN 012200Z 24004KT 6000 OVC038 M01/M05 Q1019 NOSIG RMK MT OBSC QFE689', 'UBBN 012130Z 00000KT 6000 OVC038 M01/M04 Q1019 NOSIG RMK MT OBSC QFE689', 'UBBN 012100Z 00000KT 6000 OVC038 M01/M04 Q1020 NOSIG RMK MT OBSC QFE689', 'UBBN 012030Z VRB02KT 8000 OVC038 M01/M05 Q1020 NOSIG RMK MT OBSC QFE689', 'UBBN 012000Z 22004KT 8000 OVC036 M01/M05 Q1020 NOSIG RMK MT OBSC QFE690', 'UBBN 011930Z 23004KT 8000 BKN036 M01/M06 Q1020 NOSIG RMK MT OBSC QFE690', 'UBBN 011900Z 25006KT 8000 BKN036 M01/M05 Q1020 NOSIG RMK MT OBSC QFE690', 'UBBN 011830Z 25004KT 8000 BKN036 M01/M05 Q1021 NOSIG RMK MT OBSC QFE690', 'UBBN 011800Z 26002KT 8000 BKN036 M01/M06 Q1021 NOSIG RMK MT OBSC QFE690', 'UBBN 011730Z 27004KT 8000 BKN036 M00/M05 Q1021 NOSIG RMK MT OBSC QFE690', 'UBBN 011700Z 27004KT 8000 BKN036 M00/M06 Q1021 NOSIG RMK MT OBSC QFE690', 'UBBN 011630Z 22004KT 8000 BKN036 M00/M06 Q1021 NOSIG RMK MT OBSC QFE690', 'UBBN 011600Z 22004KT 8000 BKN036 M01/M05 Q1021 NOSIG RMK MT OBSC QFE690', 'UBBN 011530Z 19004KT 7000 BKN030 M00/M06 Q1021 NOSIG RMK MT OBSC QFE690', 'UBBN 011500Z 22004KT 7000 BKN028 M00/M06 Q1021 NOSIG RMK MT OBSC QFE690', 'UBBN 011430Z 21004KT 7000 BKN025 M00/M06 Q1021 NOSIG RMK MT OBSC QFE690', 'UBBN 011400Z 22006KT 7000 BKN025 M00/M06 Q1021 NOSIG RMK MT OBSC QFE690', 'UBBN 011330Z 22006KT 7000 BKN025 01/M06 Q1021 NOSIG RMK MT OBSC QFE690', 'UBBN 011300Z 23006KT 7000 BKN023 00/M06 Q1021 NOSIG RMK MT OBSC QFE690', 'UBBN 011230Z 23006KT 7000 BKN023 00/M06 Q1021 NOSIG RMK MT OBSC QFE690', 'UBBN 011200Z 22008KT 7000 BKN023 00/M06 Q1021 NOSIG RMK MT OBSC QFE690', 'UBBN 011130Z 22008KT 7000 BKN018 01/M05 Q1021 NOSIG RMK MT OBSC QFE690', 'UBBN 011100Z 22008KT 7000 BKN018 01/M05 Q1021 NOSIG RMK MT OBSC QFE690', 'UBBN 011030Z 25008KT 7000 OVC018 M00/M05 Q1021 NOSIG RMK MT OBSC QFE691', 'UBBN 011000Z 24006KT 7000 OVC018 00/M04 Q1022 NOSIG RMK MT OBSC QFE691', 'UBBN 010930Z 28004KT 7000 OVC018 M00/M04 Q1022 NOSIG RMK MT OBSC QFE691', 'UBBN 010900Z VRB02KT 7000 OVC018 M00/M04 Q1023 NOSIG RMK MT OBSC QFE691', 'UBBN 010830Z VRB02KT 7000 OVC023 M01/M05 Q1023 NOSIG RMK MT OBSC QFE692', 'UBBN 010800Z 20004KT 6000 OVC013 M02/M05 Q1024 NOSIG RMK MT OBSC QFE692', 'UBBN 010730Z VRB02KT 6000 OVC013 M02/M06 Q1024 NOSIG RMK MT OBSC QFE692', 'UBBN 010700Z 24004KT 6000 OVC013 M02/M06 Q1024 NOSIG RMK MT OBSC QFE692', 'UBBN 010630Z 24006KT 6000 OVC013 M02/M06 Q1024 NOSIG RMK MT OBSC QFE692', 'UBBN 010600Z 25006KT 6000 OVC013 M03/M06 Q1024 NOSIG RMK MT OBSC QFE693', 'UBBN 010530Z 25008KT 6000 OVC013 M03/M06 Q1024 NOSIG RMK MT OBSC QFE693', 'UBBN 010500Z 23006KT 6000 OVC013 M02/M05 Q1024 NOSIG RMK MT OBSC QFE693', 'UBBN 010430Z 22004KT 6000 OVC040 M02/M04 Q1024 NOSIG RMK MT OBSC QFE693', 'UBBN 010400Z 22004KT 6000 OVC040 M02/M05 Q1024 NOSIG RMK MT OBSC QFE692', 'UBBN 010330Z 24004KT 6000 OVC046 M02/M05 Q1024 NOSIG RMK MT OBSC QFE692', 'UBBN 010300Z 30004KT 6000 OVC046 M02/M04 Q1024 NOSIG RMK MT OBSC QFE692', 'UBBN 010230Z 28004KT 6000 OVC046 M02/M04 Q1024 NOSIG RMK MT OBSC QFE692', 'UBBN 010200Z 29004KT 6000 OVC046 M02/M02 Q1024 NOSIG RMK MT OBSC QFE693', 'UBBN 010130Z VRB02KT 6000 OVC046 M02/M03 Q1024 NOSIG RMK MT OBSC QFE692', 'UBBN 010100Z 25002KT 6000 OVC046 M02/M03 Q1024 NOSIG RMK MT OBSC QFE693', 'UBBN 010030Z 32002KT 8000 OVC046 M02/M02 Q1024 NOSIG RMK MT OBSC QFE693', 'UBBN 010000Z 34004KT 8000 OVC046 M02/M03 Q1025 NOSIG RMK MT OBSC QFE693', 'UBBN 312330Z 27004KT 8000 OVC046 M01/M03 Q1025 NOSIG RMK MT OBSC QFE693', 'UBBN 312300Z 26004KT 8000 OVC046 M01/M04 Q1025 NOSIG RMK MT OBSC QFE693']","['2024-02-03 22:00:00', '2024-02-03 21:30:00', '2024-02-03 21:00:00', '2024-02-03 20:30:00', '2024-02-03 20:00:00', '2024-02-03 19:30:00', '2024-02-03 19:00:00', '2024-02-03 18:30:00', '2024-02-03 18:00:00', '2024-02-03 17:30:00', '2024-02-03 17:00:00', '2024-02-03 16:30:00', '2024-02-03 16:00:00', '2024-02-03 15:30:00', '2024-02-03 15:00:00', '2024-02-03 14:30:00', '2024-02-03 14:00:00', '2024-02-03 13:30:00', '2024-02-03 13:00:00', '2024-02-03 12:30:00', '2024-02-03 12:00:00', '2024-02-03 11:30:00', '2024-02-03 11:00:00', '2024-02-03 10:30:00', '2024-02-03 10:00:00', '2024-02-03 09:30:00', '2024-02-03 09:00:00', '2024-02-03 08:30:00', '2024-02-03 08:00:00', '2024-02-03 07:30:00', '2024-02-03 07:00:00', '2024-02-03 06:30:00', '2024-02-03 06:00:00', '2024-02-03 05:30:00', '2024-02-03 05:00:00', '2024-02-03 04:30:00', '2024-02-03 04:00:00', '2024-02-03 03:30:00', '2024-02-03 03:00:00', '2024-02-03 02:30:00', '2024-02-03 02:00:00', '2024-02-03 01:30:00', '2024-02-03 00:30:00', '2024-02-03 00:00:00', '2024-02-02 23:30:00', '2024-02-02 23:00:00', '2024-02-02 22:30:00', '2024-02-02 22:00:00', '2024-02-02 21:30:00', '2024-02-02 21:00:00', '2024-02-02 20:30:00', '2024-02-02 20:00:00', '2024-02-02 19:30:00', '2024-02-02 19:00:00', '2024-02-02 18:30:00', '2024-02-02 18:00:00', '2024-02-02 17:30:00', '2024-02-02 17:00:00', '2024-02-02 16:30:00', '2024-02-02 16:00:00', '2024-02-02 15:30:00', '2024-02-02 15:00:00', '2024-02-02 14:30:00', '2024-02-02 14:00:00', '2024-02-02 13:30:00', '2024-02-02 13:00:00', '2024-02-02 12:30:00', '2024-02-02 12:00:00', '2024-02-02 11:30:00', '2024-02-02 11:00:00', '2024-02-02 10:30:00', '2024-02-02 09:00:00', '2024-02-02 08:30:00', '2024-02-02 08:00:00', '2024-02-02 07:30:00', '2024-02-02 07:00:00', '2024-02-02 06:30:00', '2024-02-02 06:00:00', '2024-02-02 05:30:00', '2024-02-02 05:00:00', '2024-02-02 04:30:00', '2024-02-02 04:00:00', '2024-02-02 03:30:00', '2024-02-02 03:00:00', '2024-02-02 02:30:00', '2024-02-02 02:00:00', '2024-02-02 01:30:00', '2024-02-02 00:30:00', '2024-02-02 00:00:00', '2024-02-01 23:30:00', '2024-02-01 23:00:00', '2024-02-01 22:30:00', '2024-02-01 22:00:00', '2024-02-01 21:30:00', '2024-02-01 21:00:00', '2024-02-01 20:30:00', '2024-02-01 20:00:00', '2024-02-01 19:30:00', '2024-02-01 19:00:00', '2024-02-01 18:30:00', '2024-02-01 18:00:00', '2024-02-01 17:30:00', '2024-02-01 17:00:00', '2024-02-01 16:30:00', '2024-02-01 16:00:00', '2024-02-01 15:30:00', '2024-02-01 15:00:00', '2024-02-01 14:30:00', '2024-02-01 14:00:00', '2024-02-01 13:30:00', '2024-02-01 13:00:00', '2024-02-01 12:30:00', '2024-02-01 12:00:00', '2024-02-01 11:30:00', '2024-02-01 11:00:00', '2024-02-01 10:30:00', '2024-02-01 10:00:00', '2024-02-01 09:30:00', '2024-02-01 09:00:00', '2024-02-01 08:30:00', '2024-02-01 08:00:00', '2024-02-01 07:30:00', '2024-02-01 07:00:00', '2024-02-01 06:30:00', '2024-02-01 06:00:00', '2024-02-01 05:30:00', '2024-02-01 05:00:00', '2024-02-01 04:30:00', '2024-02-01 04:00:00', '2024-02-01 03:30:00', '2024-02-01 03:00:00', '2024-02-01 02:30:00', '2024-02-01 02:00:00', '2024-02-01 01:30:00', '2024-02-01 01:00:00', '2024-02-01 00:30:00', '2024-02-01 00:00:00', '2024-01-31 23:30:00', '2024-01-31 23:00:00']"
Azerbaijan, Qabala International Airport (GBB/UBBQ) ,"['UBBQ 032200Z 05005KT 9999 NSC 02/M03 Q1017 NOSIG', 'UBBQ 032100Z 27011KT 9999 NSC 03/M03 Q1017 NOSIG', 'UBBQ 032000Z 27016KT 9999 NSC 05/M02 Q1016 NOSIG', 'UBBQ 031900Z 27014KT 9999 NSC 05/M02 Q1016 NOSIG', 'UBBQ 031800Z 26012KT 9999 NSC 05/M02 Q1017 NOSIG', 'UBBQ 031700Z 27017KT 9999 NSC 07/M03 Q1016 NOSIG', 'UBBQ 031600Z 27020KT 9999 NSC 08/M03 Q1015 NOSIG', 'UBBQ 031500Z 28018KT 9999 SCT120 08/M03 Q1015 NOSIG', 'UBBQ 031400Z 26020G30KT 9999 SCT120 09/M03 Q1014 NOSIG', 'UBBQ 031300Z 29018G28KT 9999 SCT130 10/M03 Q1014 NOSIG', 'UBBQ 031200Z 29016G26KT 9999 SCT130 11/M03 Q1014 NOSIG', 'UBBQ 031100Z 28015G25KT 9999 SCT140 11/M01 Q1014 NOSIG', 'UBBQ 031000Z 31010KT 270V330 9999 NSC 09/00 Q1015 NOSIG', 'UBBQ 030900Z 27007KT 230V390 9999 NSC 08/00 Q1016 NOSIG', 'UBBQ 030800Z 25003KT 150V280 9999 NSC 05/02 Q1017 NOSIG', 'UBBQ 030700Z 33002KT 9000 NSC 04/00 Q1017 NOSIG', 'UBBQ 030600Z VRB02KT 6000 FEW140 01/M00 Q1017 NOSIG', 'UBBQ 030500Z 15003KT 5000 BR SCT140 M01/M02 Q1016 NOSIG', 'UBBQ 030400Z 13004KT 3000 BR SCT130 M03/M04 Q1016 NOSIG', 'UBBQ 030300Z 04002KT 2200 BR SCT120 M02/M04 Q1016 NOSIG', 'UBBQ 030200Z 00000KT 3000 BR SCT120 M02/M03 Q1016 NOSIG', 'UBBQ 030100Z 12003KT 5000 BR BKN130 M01/M02 Q1016 NOSIG', 'UBBQ 030000Z 12003KT 7000 BKN130 M01/M02 Q1016 NOSIG', 'UBBQ 022300Z 10005KT 9999 OVC130 M00/M02 Q1016 NOSIG', 'UBBQ 022200Z 11003KT 9999 OVC130 00/M01 Q1016 NOSIG', 'UBBQ 022100Z 12004KT 8000 OVC130 00/M01 Q1016 NOSIG', 'UBBQ 022000Z 14006KT 7000 SCT130 01/M01 Q1016 NOSIG', 'UBBQ 021900Z 14005KT 8000 SCT130 01/M01 Q1016 NOSIG', 'UBBQ 021800Z 13003KT 7000 SCT120 01/M01 Q1017 NOSIG', 'UBBQ 021700Z 08004KT 9000 NSC 01/M01 Q1016 NOSIG', 'UBBQ 021600Z 06004KT 9999 SCT130 01/M01 Q1016 NOSIG', 'UBBQ 021500Z 17004KT 9999 NSC 02/01 Q1016 NOSIG', 'UBBQ 021400Z 24004KT 9999 NSC 07/01 Q1015 NOSIG', 'UBBQ 021300Z 25006KT 9999 NSC 09/01 Q1015 NOSIG', 'UBBQ 021200Z 26007KT 9999 NSC 09/M00 Q1015 NOSIG', 'UBBQ 021100Z 28006KT 9999 NSC 08/M01 Q1015 NOSIG', 'UBBQ 021000Z 22003KT 9999 NSC 08/00 Q1016 NOSIG', 'UBBQ 020900Z 25003KT 9999 NSC 07/M00 Q1017 NOSIG', 'UBBQ 020800Z 00000KT 9999 NSC 05/M01 Q1018 NOSIG', 'UBBQ 020700Z 05002KT 9999 NSC 02/01 Q1018 NOSIG', 'UBBQ 020600Z 00000KT 5000 BR NSC M00/M01 Q1018 NOSIG', 'UBBQ 020500Z 00000KT 3000 BR NSC M04/M05 Q1018 NOSIG', 'UBBQ 020400Z 06002KT 3000 BR NSC M05/M06 Q1018 NOSIG', 'UBBQ 020300Z 01002KT 3000 BR NSC M05/M06 Q1018 NOSIG', 'UBBQ 020200Z 00000KT 1500 R16/1500 BR NSC M05/M06 Q1019 NOSIG', 'UBBQ 020100Z 00000KT 1500 R16/1500 BR NSC M05/M06 Q1019 NOSIG', 'UBBQ 020000Z 00000KT 2000 BR NSC M04/M05 Q1020 NOSIG', 'UBBQ 012300Z 00000KT 4500 BR NSC M03/M04 Q1020 NOSIG', 'UBBQ 012200Z 00000KT 2500 BR NSC M03/M04 Q1020 NOSIG', 'UBBQ 012100Z 00000KT 2200 BR NSC M03/M04 Q1021 NOSIG', 'UBBQ 012000Z 00000KT 3000 BR NSC M02/M03 Q1021 NOSIG', 'UBBQ 011900Z 05003KT 6000 NSC M02/M03 Q1022 NOSIG', 'UBBQ 011800Z 11002KT 6000 NSC M01/M02 Q1022 NOSIG', 'UBBQ 011700Z 14003KT 9999 NSC 01/M02 Q1022 NOSIG', 'UBBQ 011600Z 00000KT 9999 NSC 01/M01 Q1022 NOSIG', 'UBBQ 011500Z 26005KT 9999 NSC 02/M00 Q1022 NOSIG', 'UBBQ 011400Z 26005KT 9999 NSC 06/M00 Q1022 NOSIG', 'UBBQ 011300Z 24003KT 9999 NSC 07/M01 Q1022 NOSIG RMK MT OBSC', 'UBBQ 011200Z VRB02KT 9999 NSC 07/M00 Q1022 NOSIG RMK MT OBSC', 'UBBQ 011100Z 27004KT 9999 SCT023 07/M00 Q1023 NOSIG', 'UBBQ 011000Z 28004KT 9999 BKN023 06/M01 Q1024 NOSIG', 'UBBQ 010900Z 29006KT 9999 BKN022 07/00 Q1025 NOSIG', 'UBBQ 010800Z 28005KT 9999 SCT015 05/M01 Q1026 NOSIG RMK MT PT OBSC', 'UBBQ 010700Z 23002KT 9000 NSC 03/00 Q1026 NOSIG', 'UBBQ 010600Z 00000KT 6000 NSC 02/00 Q1027 NOSIG', 'UBBQ 010500Z 00000KT 4500 BR NSC M00/M02 Q1027 NOSIG', 'UBBQ 010400Z 31002KT 270V350 6000 SCT120 M01/M02 Q1027 NOSIG', 'UBBQ 010300Z 00000KT 4200 BR SCT120 M01/M02 Q1027 NOSIG', 'UBBQ 010200Z VRB02KT 6000 SCT100 01/M01 Q1027 NOSIG', 'UBBQ 010100Z 00000KT 6000 SCT027 01/00 Q1028 NOSIG', 'UBBQ 010000Z 00000KT 6000 SCT028 01/00 Q1028 NOSIG', 'UBBQ 312300Z 00000KT 6000 SCT027 01/M00 Q1028 NOSIG']","['2024-02-03 22:00:00', '2024-02-03 21:00:00', '2024-02-03 20:00:00', '2024-02-03 19:00:00', '2024-02-03 18:00:00', '2024-02-03 17:00:00', '2024-02-03 16:00:00', '2024-02-03 15:00:00', '2024-02-03 14:00:00', '2024-02-03 13:00:00', '2024-02-03 12:00:00', '2024-02-03 11:00:00', '2024-02-03 10:00:00', '2024-02-03 09:00:00', '2024-02-03 08:00:00', '2024-02-03 07:00:00', '2024-02-03 06:00:00', '2024-02-03 05:00:00', '2024-02-03 04:00:00', '2024-02-03 03:00:00', '2024-02-03 02:00:00', '2024-02-03 01:00:00', '2024-02-03 00:00:00', '2024-02-02 23:00:00', '2024-02-02 22:00:00', '2024-02-02 21:00:00', '2024-02-02 20:00:00', '2024-02-02 19:00:00', '2024-02-02 18:00:00', '2024-02-02 17:00:00', '2024-02-02 16:00:00', '2024-02-02 15:00:00', '2024-02-02 14:00:00', '2024-02-02 13:00:00', '2024-02-02 12:00:00', '2024-02-02 11:00:00', '2024-02-02 10:00:00', '2024-02-02 09:00:00', '2024-02-02 08:00:00', '2024-02-02 07:00:00', '2024-02-02 06:00:00', '2024-02-02 05:00:00', '2024-02-02 04:00:00', '2024-02-02 03:00:00', '2024-02-02 02:00:00', '2024-02-02 01:00:00', '2024-02-02 00:00:00', '2024-02-01 23:00:00', '2024-02-01 22:00:00', '2024-02-01 21:00:00', '2024-02-01 20:00:00', '2024-02-01 19:00:00', '2024-02-01 18:00:00', '2024-02-01 17:00:00', '2024-02-01 16:00:00', '2024-02-01 15:00:00', '2024-02-01 14:00:00', '2024-02-01 13:00:00', '2024-02-01 12:00:00', '2024-02-01 11:00:00', '2024-02-01 10:00:00', '2024-02-01 09:00:00', '2024-02-01 08:00:00', '2024-02-01 07:00:00', '2024-02-01 06:00:00', '2024-02-01 05:00:00', '2024-02-01 04:00:00', '2024-02-01 03:00:00', '2024-02-01 02:00:00', '2024-02-01 01:00:00', '2024-02-01 00:00:00', '2024-01-31 23:00:00']"
Azerbaijan, Zangilan International Airport (ZZE/UBBZ) ,"['UBBZ 032230Z AUTO 21012KT 9999 // NSC 05/M04 Q1019', 'UBBZ 032200Z AUTO 22010KT 9999 // NSC 05/M04 Q1019', 'UBBZ 032130Z AUTO 22010KT 9999 // NSC 06/M05 Q1019', 'UBBZ 032100Z AUTO 23008KT 9999 // NSC 06/M05 Q1020', 'UBBZ 032030Z AUTO 22010KT 9999 // NSC 06/M05 Q1020', 'UBBZ 032000Z AUTO 22012KT 9999 // NSC 05/M04 Q1020', 'UBBZ 031930Z AUTO 21012KT 9999 // NSC 06/M04 Q1020', 'UBBZ 031900Z AUTO 21012KT 9999 // NSC 06/M04 Q1020', 'UBBZ 031830Z AUTO 21008KT 9999 // NSC 06/M04 Q1020', 'UBBZ 031800Z AUTO 23008KT 190V280 9999 // NSC 05/M03 Q1020', 'UBBZ 031730Z AUTO 19012KT 9999 // NSC 05/M03 Q1020', 'UBBZ 031700Z AUTO 19016KT 9999 // NSC 07/M05 Q1019', 'UBBZ 031630Z AUTO 19014KT 9999 // NSC 07/M04 Q1019', 'UBBZ 031600Z AUTO 19014KT 9999 // NSC 07/M04 Q1019', 'UBBZ 031530Z AUTO 19016KT 9999 // NSC 07/M04 Q1018', 'UBBZ 031500Z AUTO 18018KT 9999 // NSC 08/M05 Q1018', 'UBBZ 031430Z AUTO 18018KT 9999 // NSC 08/M05 Q1018', 'UBBZ 031400Z 18018KT 9999 BKN100 08/M05 Q1017 NOSIG RMK MT PT OBSC', 'UBBZ 031330Z 18020KT 9999 BKN100 08/M04 Q1017 NOSIG RMK MT PT OBSC', 'UBBZ 031300Z 18020G32KT 9999 BKN100 08/M05 Q1017 NOSIG RMK MT PT OBSC', 'UBBZ 031230Z 18020KT 9999 BKN100 08/M04 Q1017 NOSIG RMK MT PT OBSC', 'UBBZ 031200Z 18020KT 9999 BKN100 09/M04 Q1017 NOSIG RMK MT PT OBSC', 'UBBZ 031130Z 18022KT 9999 SCT100 09/M03 Q1016 NOSIG RMK MT PT OBSC', 'UBBZ 031100Z 18024KT 9999 SCT100 09/M04 Q1017 NOSIG RMK MT PT OBSC', 'UBBZ 031030Z 18024KT 9999 SCT100 09/M04 Q1017 NOSIG RMK MT PT OBSC', 'UBBZ 031000Z 18024KT 9999 SCT100 08/M03 Q1017 NOSIG RMK MT PT OBSC', 'UBBZ 030930Z 18026KT 9999 SCT100 08/M04 Q1017 NOSIG RMK MT PT OBSC', 'UBBZ 030900Z 18024G34KT 9999 SCT100 08/M04 Q1017 NOSIG RMK MT PT OBSC', 'UBBZ 030830Z 18024KT 9999 SCT100 07/M04 Q1018 NOSIG RMK MT PT OBSC', 'UBBZ 030800Z 19024KT 9999 SCT100 06/M04 Q1018 NOSIG RMK MT PT OBSC', 'UBBZ 030730Z 18024KT 9999 SCT100 05/M04 Q1018 NOSIG RMK MT PT OBSC', 'UBBZ 030700Z 19020KT 9999 SCT100 05/M04 Q1019 NOSIG RMK MT PT OBSC', 'UBBZ 030630Z 19024KT 9999 SCT100 04/M04 Q1019 NOSIG RMK MT PT OBSC', 'UBBZ 030600Z 20018KT 9999 SCT100 03/M04 Q1019 NOSIG RMK MT PT OBSC', 'UBBZ 030530Z 21016KT 9999 SCT100 02/M05 Q1018 NOSIG RMK MT PT OBSC', 'UBBZ 030500Z 21018KT 9999 SCT100 02/M05 Q1018 NOSIG RMK MT PT OBSC', 'UBBZ 030430Z AUTO 20018KT 9999 // ///////// 02/M05 Q1018', 'UBBZ 030400Z AUTO 21016KT 9999 // ///////// 01/M06 Q1018', 'UBBZ 030330Z AUTO 21018KT 9999 // ///////// 01/M06 Q1018', 'UBBZ 030300Z AUTO 21018KT 9999 // ///////// 01/M06 Q1017', 'UBBZ 030230Z AUTO 20018KT 9999 // ///////// 02/M05 Q1017', 'UBBZ 030200Z AUTO 20018KT 9999 // ///////// 02/M05 Q1017', 'UBBZ 030130Z AUTO 20020KT 9999 // ///////// 02/M05 Q1017', 'UBBZ 030100Z AUTO 20018KT 9999 // ///////// 02/M05 Q1017', 'UBBZ 030030Z AUTO 21020KT 9999 // ///////// 02/M05 Q1017', 'UBBZ 030000Z AUTO 20020KT 9999 // ///////// 02/M05 Q1017', 'UBBZ 022330Z AUTO 20018KT 9999 // ///////// 02/M05 Q1017', 'UBBZ 022300Z AUTO 19018KT 9999 // ///////// 02/M05 Q1017', 'UBBZ 022230Z AUTO 20018KT 9999 // ///////// 02/M05 Q1017', 'UBBZ 022200Z AUTO 20018KT 9999 // ///////// 02/M05 Q1017', 'UBBZ 022130Z AUTO 19014KT 9999 // ///////// 03/M05 Q1017', 'UBBZ 022100Z AUTO 19014KT 9999 // ///////// 02/M05 Q1018', 'UBBZ 022030Z AUTO 19016KT 9999 // ///////// 02/M05 Q1018', 'UBBZ 022000Z AUTO 20014KT 170V230 9999 // ///////// 03/M05 Q1018', 'UBBZ 021930Z AUTO 20014KT 9999 // ///////// 02/M04 Q1018', 'UBBZ 021900Z AUTO 20014KT 9999 // ///////// 03/M05 Q1018', 'UBBZ 021830Z AUTO 20016KT 9999 // ///////// 03/M04 Q1018', 'UBBZ 021800Z AUTO 19018KT 9999 // ///////// 03/M04 Q1018', 'UBBZ 021730Z AUTO 19018KT 9999 // ///////// 03/M04 Q1018', 'UBBZ 021700Z AUTO 18018KT 9999 // ///////// 03/M04 Q1018', 'UBBZ 021630Z AUTO 18020KT 9999 // ///////// 03/M04 Q1018', 'UBBZ 021600Z AUTO 18018KT 9999 // ///////// 04/M04 Q1018', 'UBBZ 021530Z AUTO 18018KT 9999 // ///////// 03/M04 Q1017', 'UBBZ 021500Z AUTO 17018KT 9999 // ///////// 03/M04 Q1017', 'UBBZ 021430Z AUTO 18018KT 9999 // ///////// 04/M04 Q1017', 'UBBZ 021400Z 17018KT 9999 FEW100 05/M03 Q1016 NOSIG RMK MT PT OBSC', 'UBBZ 021330Z 18018KT 9999 FEW100 06/M03 Q1016 NOSIG RMK MT PT OBSC', 'UBBZ 021300Z 18018KT 9999 FEW100 06/M03 Q1016 NOSIG RMK MT PT OBSC', 'UBBZ 021230Z 18018KT 9999 FEW100 07/M02 Q1016 NOSIG RMK MT PT OBSC', 'UBBZ 021200Z 18018KT 9999 FEW100 07/M02 Q1016 NOSIG RMK MT PT OBSC', 'UBBZ 021130Z 18016KT 9999 FEW100 07/M02 Q1016 NOSIG RMK MT PT OBSC', 'UBBZ 020900Z 28004KT 9999 FEW100 05/M02 Q1018 NOSIG RMK MT PT OBSC', 'UBBZ 020830Z 27006KT 9999 FEW100 04/M02 Q1018 NOSIG RMK MT PT OBSC', 'UBBZ 020800Z 27006KT 9999 FEW100 03/M03 Q1019 NOSIG RMK MT PT OBSC', 'UBBZ 020730Z 25008KT 9999 SCT100 02/M03 Q1019 NOSIG RMK MT PT OBSC', 'UBBZ 020700Z 24008KT 9999 SCT100 02/M03 Q1020 NOSIG RMK MT PT OBSC', 'UBBZ 020630Z 24006KT 9999 SCT100 01/M03 Q1020 NOSIG RMK MT PT OBSC', 'UBBZ 020600Z 23006KT 9999 SCT100 01/M04 Q1020 NOSIG RMK MT PT OBSC', 'UBBZ 020530Z VRB02KT 9999 SCT100 M01/M04 Q1020 NOSIG RMK MT PT OBSC', 'UBBZ 020500Z VRB02KT 9999 SCT100 M02/M05 Q1020 NOSIG RMK MT PT OBSC', 'UBBZ 020430Z AUTO VRB02KT 9999 // ///////// M02/M04 Q1020', 'UBBZ 020400Z AUTO 00000KT 9999 // ///////// M03/M05 Q1020', 'UBBZ 020330Z AUTO 00000KT 9999 // ///////// M02/M05 Q1020', 'UBBZ 020300Z AUTO 25008KT 9999 // ///////// M03/M06 Q1019', 'UBBZ 020230Z AUTO 21004KT 150V260 9999 // ///////// M02/M04 Q1020', 'UBBZ 020200Z AUTO 00000KT 9999 // ///////// M01/M04 Q1020', 'UBBZ 020130Z AUTO 17002KT 140V200 9999 // ///////// M01/M04 Q1020', 'UBBZ 020100Z AUTO 25006KT 9999 // ///////// M01/M05 Q1020', 'UBBZ 020030Z AUTO 26008KT 9999 // ///////// M02/M05 Q1020', 'UBBZ 020000Z AUTO 26008KT 9999 // ///////// M02/M05 Q1020', 'UBBZ 012330Z AUTO 00000KT 9999 // ///////// M01/M04 Q1021', 'UBBZ 012300Z AUTO 00000KT 9999 // ///////// M01/M04 Q1021', 'UBBZ 012230Z AUTO 00000KT 9999 // ///////// M01/M04 Q1021', 'UBBZ 012200Z AUTO 00000KT 9999 // ///////// M01/M03 Q1021', 'UBBZ 012130Z AUTO 29002KT 260V330 9999 // ///////// M01/M02 Q1021', 'UBBZ 012100Z AUTO 27004KT 9999 // ///////// 00/M02 Q1022', 'UBBZ 012030Z AUTO 24004KT 9999 // ///////// 00/M02 Q1022', 'UBBZ 012000Z AUTO 22004KT 9999 // ///026/// 01/M02 Q1022', 'UBBZ 011930Z AUTO 21004KT 9999 // ///027/// 01/M01 Q1022', 'UBBZ 011900Z AUTO VRB02KT 9999 // ///028/// 02/M02 Q1023', 'UBBZ 011830Z AUTO 32004KT 9999 // ///029/// 02/M02 Q1023', 'UBBZ 011800Z AUTO 35004KT 9999 // ///031/// 02/M02 Q1023', 'UBBZ 011730Z AUTO 33004KT 9999 // ///////// 02/M02 Q1023', 'UBBZ 011700Z AUTO 35004KT 9999 // ///////// 02/M02 Q1023', 'UBBZ 011630Z AUTO 35004KT 9999 // ///////// 02/M02 Q1023', 'UBBZ 011600Z AUTO 36004KT 9999 // ///////// 02/M02 Q1023', 'UBBZ 011530Z AUTO 36006KT 9999 // ///////// 03/M01 Q1023', 'UBBZ 011500Z AUTO 01006KT 9999 // ///////// 03/M01 Q1023', 'UBBZ 011430Z AUTO 01004KT 9999 // ///////// 04/M01 Q1023', 'UBBZ 011400Z 03004KT 9999 FEW100 04/M01 Q1023 NOSIG RMK MT PT OBSC', 'UBBZ 011330Z 04006KT 9999 FEW100 05/M01 Q1023 NOSIG RMK MT PT OBSC', 'UBBZ 011300Z 04006KT 9999 FEW100 05/00 Q1023 NOSIG RMK MT PT OBSC', 'UBBZ 011230Z 03006KT 9999 SCT100 05/M01 Q1023 NOSIG RMK MT PT OBSC', 'UBBZ 011200Z 34004KT 9999 SCT100 06/M01 Q1023 NOSIG RMK MT PT OBSC', 'UBBZ 011130Z 31004KT 9999 SCT100 05/M02 Q1023 NOSIG RMK MT PT OBSC', 'UBBZ 011100Z 32002KT 9999 SCT100 05/M02 Q1023 NOSIG RMK MT PT OBSC', 'UBBZ 011030Z 00000KT 9999 SCT100 05/M01 Q1024 NOSIG RMK MT PT OBSC', 'UBBZ 011000Z 00000KT 9999 SCT100 05/M01 Q1024 NOSIG RMK MT PT OBSC', 'UBBZ 010930Z 00000KT 9999 SCT100 04/M01 Q1024 NOSIG RMK MT PT OBSC', 'UBBZ 010900Z 00000KT 9999 SCT100 03/M02 Q1025 NOSIG RMK MT PT OBSC', 'UBBZ 010830Z 00000KT 9999 SCT100 03/M01 Q1026 NOSIG RMK MT PT OBSC', 'UBBZ 010800Z 00000KT 9999 BKN085 02/M01 Q1026 NOSIG RMK MT OBSC', 'UBBZ 010730Z 00000KT 9999 BKN085 02/M01 Q1027 NOSIG RMK MT OBSC', 'UBBZ 010700Z VRB02KT 9999 BKN085 01/M01 Q1027 NOSIG RMK MT OBSC', 'UBBZ 010630Z 33002KT 9999 BKN085 M00/M02 Q1027 NOSIG RMK MT OBSC', 'UBBZ 010600Z 34004KT 9999 OVC050 M01/M03 Q1028 NOSIG RMK MT OBSC', 'UBBZ 010530Z 34004KT 9999 OVC050 M01/M04 Q1028 NOSIG RMK MT OBSC', 'UBBZ 010500Z 33006KT 9999 OVC050 M01/M04 Q1028 NOSIG RMK MT OBSC', 'UBBZ 010430Z AUTO 34006KT 4800 // ///027/// M01/M02 Q1028', 'UBBZ 010400Z AUTO 29002KT 260V340 6000 // ///028/// M01/M01 Q1028', 'UBBZ 010330Z AUTO 00000KT 6000 // ///028/// M00/M01 Q1028', 'UBBZ 010300Z AUTO 29002KT 270V350 4500 // ///028/// M00/M01 Q1028', 'UBBZ 010230Z AUTO 33002KT 6000 // ///011/// M00/M01 Q1028', 'UBBZ 010200Z AUTO 24004KT 7000 // ///009/// M00/M01 Q1028', 'UBBZ 010130Z AUTO 23004KT 6000 // ///009/// M01/M02 Q1028', 'UBBZ 010100Z AUTO 21002KT 4200 // ///009/// M00/M01 Q1028', 'UBBZ 010030Z AUTO 19002KT 6000 // ///009/// 00/M01 Q1028', 'UBBZ 010000Z AUTO 22002KT 6000 // ///008/// 00/M00 Q1029', 'UBBZ 312330Z AUTO 20002KT 140V310 5000 // ///008/// 00/M00 Q1029', 'UBBZ 312300Z AUTO 00000KT 5000 // ///007/// 01/M00 Q1029']","['2024-02-03 22:30:00', '2024-02-03 22:00:00', '2024-02-03 21:30:00', '2024-02-03 21:00:00', '2024-02-03 20:30:00', '2024-02-03 20:00:00', '2024-02-03 19:30:00', '2024-02-03 19:00:00', '2024-02-03 18:30:00', '2024-02-03 18:00:00', '2024-02-03 17:30:00', '2024-02-03 17:00:00', '2024-02-03 16:30:00', '2024-02-03 16:00:00', '2024-02-03 15:30:00', '2024-02-03 15:00:00', '2024-02-03 14:30:00', '2024-02-03 14:00:00', '2024-02-03 13:30:00', '2024-02-03 13:00:00', '2024-02-03 12:30:00', '2024-02-03 12:00:00', '2024-02-03 11:30:00', '2024-02-03 11:00:00', '2024-02-03 10:30:00', '2024-02-03 10:00:00', '2024-02-03 09:30:00', '2024-02-03 09:00:00', '2024-02-03 08:30:00', '2024-02-03 08:00:00', '2024-02-03 07:30:00', '2024-02-03 07:00:00', '2024-02-03 06:30:00', '2024-02-03 06:00:00', '2024-02-03 05:30:00', '2024-02-03 05:00:00', '2024-02-03 04:30:00', '2024-02-03 04:00:00', '2024-02-03 03:30:00', '2024-02-03 03:00:00', '2024-02-03 02:30:00', '2024-02-03 02:00:00', '2024-02-03 01:30:00', '2024-02-03 01:00:00', '2024-02-03 00:30:00', '2024-02-03 00:00:00', '2024-02-02 23:30:00', '2024-02-02 23:00:00', '2024-02-02 22:30:00', '2024-02-02 22:00:00', '2024-02-02 21:30:00', '2024-02-02 21:00:00', '2024-02-02 20:30:00', '2024-02-02 20:00:00', '2024-02-02 19:30:00', '2024-02-02 19:00:00', '2024-02-02 18:30:00', '2024-02-02 18:00:00', '2024-02-02 17:30:00', '2024-02-02 17:00:00', '2024-02-02 16:30:00', '2024-02-02 16:00:00', '2024-02-02 15:30:00', '2024-02-02 15:00:00', '2024-02-02 14:30:00', '2024-02-02 14:00:00', '2024-02-02 13:30:00', '2024-02-02 13:00:00', '2024-02-02 12:30:00', '2024-02-02 12:00:00', '2024-02-02 11:30:00', '2024-02-02 09:00:00', '2024-02-02 08:30:00', '2024-02-02 08:00:00', '2024-02-02 07:30:00', '2024-02-02 07:00:00', '2024-02-02 06:30:00', '2024-02-02 06:00:00', '2024-02-02 05:30:00', '2024-02-02 05:00:00', '2024-02-02 04:30:00', '2024-02-02 04:00:00', '2024-02-02 03:30:00', '2024-02-02 03:00:00', '2024-02-02 02:30:00', '2024-02-02 02:00:00', '2024-02-02 01:30:00', '2024-02-02 01:00:00', '2024-02-02 00:30:00', '2024-02-02 00:00:00', '2024-02-01 23:30:00', '2024-02-01 23:00:00', '2024-02-01 22:30:00', '2024-02-01 22:00:00', '2024-02-01 21:30:00', '2024-02-01 21:00:00', '2024-02-01 20:30:00', '2024-02-01 20:00:00', '2024-02-01 19:30:00', '2024-02-01 19:00:00', '2024-02-01 18:30:00', '2024-02-01 18:00:00', '2024-02-01 17:30:00', '2024-02-01 17:00:00', '2024-02-01 16:30:00', '2024-02-01 16:00:00', '2024-02-01 15:30:00', '2024-02-01 15:00:00', '2024-02-01 14:30:00', '2024-02-01 14:00:00', '2024-02-01 13:30:00', '2024-02-01 13:00:00', '2024-02-01 12:30:00', '2024-02-01 12:00:00', '2024-02-01 11:30:00', '2024-02-01 11:00:00', '2024-02-01 10:30:00', '2024-02-01 10:00:00', '2024-02-01 09:30:00', '2024-02-01 09:00:00', '2024-02-01 08:30:00', '2024-02-01 08:00:00', '2024-02-01 07:30:00', '2024-02-01 07:00:00', '2024-02-01 06:30:00', '2024-02-01 06:00:00', '2024-02-01 05:30:00', '2024-02-01 05:00:00', '2024-02-01 04:30:00', '2024-02-01 04:00:00', '2024-02-01 03:30:00', '2024-02-01 03:00:00', '2024-02-01 02:30:00', '2024-02-01 02:00:00', '2024-02-01 01:30:00', '2024-02-01 01:00:00', '2024-02-01 00:30:00', '2024-02-01 00:00:00', '2024-01-31 23:30:00', '2024-01-31 23:00:00']"
Bangladesh, Chittagong Shah Amanat International Airport (CGP/VGEG) ,"['VGEG 031700Z 02002KT 0200 FG SCT008 18/18 Q1017 NOSIG', 'VGEG 031600Z 29002KT 1600 BR SCT016 19/18 Q1017 NOSIG', 'VGEG 031500Z 20003KT 1600 BR SCT016 20/19 Q1017 NOSIG', 'VGEG 031400Z 00000KT 2300 BR NSC 21/20 Q1015 NOSIG', 'VGEG 031300Z 00000KT 2300 BR NSC 21/20 Q1015 NOSIG', 'VGEG 031200Z 00000KT 2000 BR NSC 22/21 Q1014 BECMG S/VIS 1800M OR LESS', 'VGEG 031100Z 25003KT 3500 HZ NSC 23/20 Q1014 TEMPO S/VIS 3000M OR LESS', 'VGEG 031000Z 21005KT 4000 HZ FEW025 25/18 Q1014 NOSIG', 'VGEG 030800Z 25006KT 3500 HZ FEW018 SCT100 26/20 Q1015 NOSIG', 'VGEG 030700Z 25006KT 3500 HZ FEW018 SCT100 26/20 Q1016 NOSIG', 'VGEG 030600Z 27008KT 3100 HZ SCT016 BKN100 25/20 Q1017 NOSIG', 'VGEG 030500Z 30008KT 3100 HZ SCT016 BKN100 24/19 Q1018 NOSIG', 'VGEG 030400Z 03005KT 3100 HZ FEW017 SCT100 22/19 Q1019 NOSIG', 'VGEG 030300Z 06005KT 1600 BR FEW017 SCT100 20/18 Q1018 BECMG S/VIS 2000M', 'VGEG 030200Z 04004KT 3100 HZ FEW017 20/18 Q1017 NOSIG', 'VGEG 030100Z 02002KT 1600 MIST FEW017 SCT100 18/17 Q1017 S/VIS 2000M OR MORE', 'VGEG 030000Z 00000KT 3200 HZ FEW017 18/17 Q1015 S/VIS 2000M OR LESS', 'VGEG 022300Z 00000KT 3100 HZ FEW017 16/15 Q1015 S/VIS 3000M OR LESS', 'VGEG 021700Z 00000KT 3100 HZ FEW017 SCT100 19/18 Q1016 S/VIS 3000M OR LESS', 'VGEG 021600Z 00000KT 3200 HZ FEW017 SCT100 19/17 Q1016 S/VIS 3000M OR LESS', 'VGEG 021500Z 18002KT 3200 HZ SCT016 BKN100 20/17 Q1015 NOSIG', 'VGEG 021400Z 18002KT 3200 HZ SCT016 BKN100 20/17 Q1015 NOSIG', 'VGEG 021300Z 17002KT 4000 HZ SCT018 BKN100 21/17 Q1015 NOSIG', 'VGEG 021100Z 18002KT 3500 HZ SCT018 BKN100 24/18 Q1014 NOSIG', 'VGEG 021000Z 26003KT 3500 HZ FEW018 SCT100 26/18 Q1014 NOSIG', 'VGEG 020900Z 26005KT 3500 HZ FEW018 SCT100 26/18 Q1014 NOSIG', 'VGEG 020800Z 35003KT 3500 HZ FEW018 SCT130 24/19 Q1014', 'VGEG 020700Z 03004KT 0600 FG SCT008 FEW028CB OVC090 20/19 Q1016 BECMG 0900 FG', 'VGEG 020600Z 00000KT 2200 BR SCT015 FEW028CB OVC090 20/19 Q1016 TEMPO P/VIS', 'VGEG 020500Z 00000KT 2000 RA/BR SCT009 FEW028CB OVC090 19/18 Q1017 BECMG S/VIS 2400M BR', 'VGEG 020400Z 25006KT 1000 RA/BR SCT009 FEW028CB OVC090 19/18 Q1018 TEMPO S/VIS 0600M OR LESS', 'VGEG 020300Z 11003KT 1800 BR SCT009 OVC100 19/17 Q1017 TEMPO 2000M RA/DZ', 'VGEG 020200Z 10003KT 1700 BR SCT016 BKN100 19/17 Q1016 TEMPO 2000M OR MORE', 'VGEG 020100Z 00000KT 2300 BR SCT018 BKN100 18/17 Q1015 BECMG 2000M OR LESS', 'VGEG 020000Z 00000KT 3100 HZ SCT018 BKN100 18/17 Q1014 TEMPO P/VIS', 'VGEG 012300Z 00000KT 3200 HZ SCT018 BKN100 18/16 Q1015 TEMPO P/VIS', 'VGEG 011800Z 00000KT 3300 HZ SCT018 BKN100 18/17 Q1016 NOSIG', 'VGEG 011700Z 00000KT 3300 HZ SCT018 BKN100 19/17 Q1016 TEMPO P/VIS', 'VGEG 011600Z 00000KT 3300 HZ SCT018 BKN100 19/17 Q1016 TEMPO P/VIS', 'VGEG 011500Z 00000KT 3400 HZ SCT018 BKN100 20/17 Q1016 NOSIG', 'VGEG 011400Z 28003KT 3200 HZ SCT018 BKN100 19/16 Q1017 NOSIG', 'VGEG 011300Z 29003KT 3200 HZ SCT018 BKN100 20/16 Q1015 NOSIG', 'VGEG 011200Z 34004KT 3100 HZ SCT018 BKN100 21/16 Q1015 NOSIG', 'VGEG 011100Z 28003KT 3100 HZ SCT018 BKN100 23/17 Q1015 NOSIG', 'VGEG 011000Z 25003KT 3200 HZ SCT018 BKN100 25/17 Q1014 NOSIG', 'VGEG 010900Z 29003KT 3200 HZ SCT018 BKN100 25/17 Q1014 NOSIG', 'VGEG 010800Z 13004KT 3800 HZ SCT018 BKN100 23/15 Q1014 NOSIG', 'VGEG 010700Z 17004KT 3200 HZ SCT015 BKN100 23/16 Q1016 NOSIG', 'VGEG 010600Z 05004KT 3200 HZ SCT015 BKN100 22/17 Q1017 TEMPO 3000M HZ OR LESS', 'VGEG 010500Z 03004KT 3500 HZ SCT015 BKN100 22/16 Q1018 TEMPO P/VIS', 'VGEG 010400Z 03006KT 3800 HZ SCT015 SCT130 22/16 Q1019 TEMPO P/VIS', 'VGEG 010300Z 03005KT 2800 HZ FEW018 20/16 Q1018 BECMG 3200HZ', 'VGEG 010200Z 05007KT 2000 BR FEW016 BKN100 18/16 Q1017 BECMG S/VIS 2800M', 'VGEG 010100Z 03004KT 1000 BR FEW016 16/15 Q1017 BECMG S/VIS 0800M OR LESS', 'VGEG 010000Z 05004KT 3100 HZ FEW018 16/15 Q1016 BECMG S/VIS 2500M OR LESS', 'VGEG 312300Z 03003KT 3100 HZ FEW018 17/15 Q1015 TEMPO POOR S/VIS']","['2024-02-03 17:00:00', '2024-02-03 16:00:00', '2024-02-03 15:00:00', '2024-02-03 14:00:00', '2024-02-03 13:00:00', '2024-02-03 12:00:00', '2024-02-03 11:00:00', '2024-02-03 10:00:00', '2024-02-03 08:00:00', '2024-02-03 07:00:00', '2024-02-03 06:00:00', '2024-02-03 05:00:00', '2024-02-03 04:00:00', '2024-02-03 03:00:00', '2024-02-03 02:00:00', '2024-02-03 01:00:00', '2024-02-03 00:00:00', '2024-02-02 23:00:00', '2024-02-02 17:00:00', '2024-02-02 16:00:00', '2024-02-02 15:00:00', '2024-02-02 14:00:00', '2024-02-02 13:00:00', '2024-02-02 11:00:00', '2024-02-02 10:00:00', '2024-02-02 09:00:00', '2024-02-02 08:00:00', '2024-02-02 07:00:00', '2024-02-02 06:00:00', '2024-02-02 05:00:00', '2024-02-02 04:00:00', '2024-02-02 03:00:00', '2024-02-02 02:00:00', '2024-02-02 01:00:00', '2024-02-02 00:00:00', '2024-02-01 23:00:00', '2024-02-01 18:00:00', '2024-02-01 17:00:00', '2024-02-01 16:00:00', '2024-02-01 15:00:00', '2024-02-01 14:00:00', '2024-02-01 13:00:00', '2024-02-01 12:00:00', '2024-02-01 11:00:00', '2024-02-01 10:00:00', '2024-02-01 09:00:00', '2024-02-01 08:00:00', '2024-02-01 07:00:00', '2024-02-01 06:00:00', '2024-02-01 05:00:00', '2024-02-01 04:00:00', '2024-02-01 03:00:00', '2024-02-01 02:00:00', '2024-02-01 01:00:00', '2024-02-01 00:00:00', '2024-01-31 23:00:00']"
Bangladesh, Dhaka Shahjalal International Airport (DAC/VGHS) ,"['VGHS 032200Z 00000KT 3500 HZ SCT100 16/10 Q1016 NOSIG', 'VGHS 032130Z 00000KT 3500 HZ SCT100 16/09 Q1016 NOSIG', 'VGHS 032100Z 00000KT 3500 HZ FEW015 SCT100 17/09 Q1016 NOSIG', 'VGHS 032030Z 00000KT 3500 HZ FEW015 SCT100 17/09 Q1016 NOSIG', 'VGHS 032000Z 00000KT 3500 HZ FEW015 SCT100 17/09 Q1016 NOSIG', 'VGHS 031930Z 00000KT 3500 HZ FEW015 SCT100 17/09 Q1017 NOSIG', 'VGHS 031830Z 00000KT 3500 HZ FEW015 SCT100 18/09 Q1017 NOSIG', 'VGHS 031800Z 00000KT 3500 HZ NSC 18/09 Q1017 NOSIG', 'VGHS 031700Z 00000KT 3500 HZ NSC 18/09 Q1017 NOSIG', 'VGHS 031630Z 00000KT 3500 HZ NSC 19/10 Q1017 NOSIG', 'VGHS 031600Z 00000KT 3500 HZ NSC 19/10 Q1017 NOSIG', 'VGHS 031500Z 00000KT 3500 HZ NSC 20/11 Q1017 NOSIG', 'VGHS 031400Z 00000KT 3500 HZ NSC 21/10 Q1016 NOSIG', 'VGHS 031300Z 27003KT 3500 HZ NSC 21/10 Q1015 NOSIG', 'VGHS 031230Z 00000KT 3500 HZ NSC 22/10 Q1015 NOSIG', 'VGHS 031130Z 27007KT 3500 HZ NSC 23/10 Q1014 NOSIG', 'VGHS 031100Z 26008KT 3500 HZ NSC 24/10 Q1014 NOSIG', 'VGHS 031030Z 25010KT 3500 HZ NSC 25/10 Q1014 NOSIG', 'VGHS 031000Z 24012KT 3500 HZ NSC 25/09 Q1014 NOSIG', 'VGHS 030930Z 23009KT 3500 HZ NSC 26/11 Q1013 NOSIG', 'VGHS 030900Z 23010KT 3500 HZ NSC 26/12 Q1014 NOSIG', 'VGHS 030800Z 26006KT 3500 HZ NSC 25/13 Q1014 NOSIG', 'VGHS 030730Z 24006KT 3500 HZ NSC 25/14 Q1015 NOSIG', 'VGHS 030700Z 25010KT 3500 HZ NSC 25/15 Q1016 NOSIG', 'VGHS 030630Z 27012KT 3500 HZ NSC 25/16 Q1016 NOSIG', 'VGHS 030600Z 22006KT 3500 HZ SCT100 24/16 Q1017 NOSIG', 'VGHS 030500Z 25005KT 2500 HZ SCT100 24/17 Q1018 BECMG S/VIS 3000M', 'VGHS 030430Z 20005KT 2100 HZ SCT100 23/17 Q1018 BECMG S/VIS 2500M', 'VGHS 030330Z 00000KT 1600 BR SCT012 BKN100 21/17 Q1018 BECMG S/VIS 2000M', 'VGHS 030230Z 00000KT 1000 BR SCT012 BKN100 17/16 Q1018 BECMG S/VIS 1500M', 'VGHS 030200Z 00000KT 0900 FG BKN006 17/16 Q1017 BECMG S/VIS 1000M', 'VGHS 030130Z 00000KT 0700 FG BKN005 17/16 Q1017 NOSIG', 'VGHS 030100Z 00000KT 0600 FG BKN005 17/16 Q1016 TEMPO S/VIS 0400M', 'VGHS 030030Z 00000KT 1000 BR FEW012 SCT100 18/15 Q1016 TEMPO S/VIS 0800M', 'VGHS 022330Z 00000KT 1200 BR FEW012 SCT100 18/15 Q1015 TEMPO S/VIS 1000M', 'VGHS 022230Z 26003KT 1800 BR FEW015 SCT100 18/15 Q1015 TEMPO S/VIS 1500M', 'VGHS 022200Z 00000KT 2000 BR FEW015 SCT100 19/16 Q1014 NOSIG', 'VGHS 022130Z 24003KT 2500 BR FEW015 SCT100 19/16 Q1014 NOSIG', 'VGHS 022100Z 22004KT 2500 BR FEW100 19/16 Q1014 NOSIG', 'VGHS 022030Z 26003KT 2500 BR FEW100 20/17 Q1014 NOSIG', 'VGHS 022000Z 00000KT 2500 BR FEW100 20/16 Q1015 NOSIG', 'VGHS 021900Z 24004KT 2500 BR FEW100 20/16 Q1015 NOSIG', 'VGHS 021830Z 22004KT 2800 HZ FEW100 21/17 Q1015 TEMPO S/VIS 2500M', 'VGHS 021800Z 25005KT 3200 HZ FEW100 21/16 Q1015 TEMPO S/VIS 2500M', 'VGHS 021730Z 19004KT 3200 HZ FEW100 21/16 Q1015 TEMPO S/VIS 2500M', 'VGHS 021700Z 24004KT 3200 HZ NSC 21/16 Q1015 NOSIG', 'VGHS 021600Z 22004KT 3200 HZ NSC 21/16 Q1015 NOSIG', 'VGHS 021530Z 23003KT 3200 HZ NSC 21/16 Q1015 NOSIG', 'VGHS 021430Z 25004KT 3200 HZ NSC 22/16 Q1015 NOSIG', 'VGHS 021400Z 24005KT 3200 HZ NSC 22/16 Q1015 NOSIG', 'VGHS 021330Z 25004KT 3200 HZ NSC 22/16 Q1014 NOSIG', 'VGHS 021300Z 24005KT 3500 HZ NSC 22/16 Q1014 NOSIG', 'VGHS 021200Z 23003KT 3200 HZ NSC 22/16 Q1013 NOSIG', 'VGHS 021130Z 24004KT 3500 HZ FEW100 23/16 Q1013 NOSIG', 'VGHS 021100Z 24006KT 3500 HZ FEW100 24/16 Q1013 NOSIG', 'VGHS 021030Z 25006KT 3500 HZ FEW100 25/16 Q1013 NOSIG', 'VGHS 021000Z 26007KT 3500 HZ FEW100 25/16 Q1013 NOSIG', 'VGHS 020930Z 25005KT 3500 HZ FEW100 26/17 Q1013 NOSIG', 'VGHS 020900Z 24004KT 3200 HZ SCT100 26/18 Q1013 BECMG S/VIS 3500M', 'VGHS 020800Z 25005KT 2500 HZ FEW015 SCT100 25/18 Q1014 BECMG S/VIS 3000M', 'VGHS 020700Z 24004KT 2400 HZ FEW015 SCT100 25/19 Q1015 BECMG S/VIS 2800M', 'VGHS 020630Z 24005KT 2300 HZ FEW015 SCT100 25/19 Q1016 BECMG S/VIS 2800M', 'VGHS 020600Z 25003KT 2000 BR FEW015 SCT100 24/19 Q1016 BECMG S/VIS 2500M', 'VGHS 020500Z 29005KT 1600 BR NSC 23/19 Q1017 BECMG S/VIS 2000M', 'VGHS 020430Z 31005KT 1200 BR NSC 22/18 Q1017 BECMG S/VIS 1500M', 'VGHS 020400Z 30004KT 0900 FG BKN008 21/19 Q1017 BECMG S/VIS 1200M', 'VGHS 020330Z 28005KT 0700 FG BKN008 20/18 Q1017 BECMG S/VIS 1000M', 'VGHS 020300Z 29004KT 0700 FG BKN008 19/18 Q1017 TEMPO S/VIS 1000M', 'VGHS 020230Z 00000KT 0800 FG BKN008 19/18 Q1016 TEMPO S/VIS 1000M', 'VGHS 020130Z 00000KT 1000 BR BKN010 18/16 Q1015 TEMPO S/VIS 0600M', 'VGHS 020100Z 28003KT 1600 BR FEW015 SCT100 19/16 Q1015 TEMPO S/VIS 1200M', 'VGHS 020030Z 00000KT 2500 BR FEW015 SCT100 18/15 Q1014 TEMPO S/VIS 2200M', 'VGHS 020000Z 00000KT 2500 BR FEW015 SCT100 18/15 Q1014 BECMG S/VIS 2800M', 'VGHS 012330Z 00000KT 2200 BR FEW015 SCT100 18/15 Q1014 TEMPO S/VIS 2000M', 'VGHS 012300Z 00000KT 1800 BR FEW015 SCT100 18/15 Q1014 TEMPO S/VIS 1600M', 'VGHS 012230Z 00000KT 2200 BR FEW015 SCT100 18/15 Q1014 TEMPO S/VIS 2000M', 'VGHS 012130Z 00000KT 1600 BR SCT012 BKN100 19/17 Q1015 TEMPO S/VIS 1400M', 'VGHS 012100Z 29003KT 1600 BR SCT012 BKN100 19/17 Q1015 TEMPO S/VIS 1400M', 'VGHS 012030Z 29004KT 2000 BR SCT012 BKN100 19/17 Q1015 TEMPO S/VIS 1800M', 'VGHS 012000Z 26004KT 2200 BR SCT012 BKN100 19/16 Q1015 NOSIG', 'VGHS 011900Z 26003KT 2200 BR SCT012 BKN100 20/17 Q1015 TEMPO S/VIS 1800M', 'VGHS 011830Z 26004KT 2200 BR SCT012 BKN100 20/17 Q1016 TEMPO S/VIS 1800M', 'VGHS 011800Z 26004KT 2200 BR SCT012 BKN100 20/17 Q1016 TEMPO S/VIS 1800M', 'VGHS 011730Z 27004KT 2200 BR SCT012 BKN100 20/17 Q1016 TEMPO S/VIS 1800M', 'VGHS 011700Z 00000KT 2200 BR SCT012 BKN100 20/17 Q1016 TEMPO S/VIS 1800M', 'VGHS 011600Z 30004KT 3200 HZ SCT012 BKN100 20/16 Q1016 NOSIG', 'VGHS 011530Z 00000KT 3200 HZ SCT012 BKN100 21/17 Q1016 BECMG S/VIS 3500M', 'VGHS 011500Z 00000KT 2500 BR SCT010 BKN100 21/17 Q1016 NOSIG', 'VGHS 011430Z 17003KT 2500 BR SCT010 BKN100 21/17 Q1015 NOSIG', 'VGHS 011400Z 26004KT 2500 DZ SCT010 BKN100 21/17 Q1016 NOSIG', 'VGHS 011300Z 21003KT 2200 DZ SCT010 BKN100 22/17 Q1015 NOSIG', 'VGHS 011230Z 13005KT 2200 HZ SCT012 BKN100 23/17 Q1015 NOSIG', 'VGHS 011200Z 00000KT 2200 HZ SCT012 BKN100 23/17 Q1015 NOSIG', 'VGHS 011100Z 00000KT 1800 HZ SCT012 BKN100 23/17 Q1015 NOSIG', 'VGHS 011030Z 23003KT 2000 HZ SCT012 BKN100 23/17 Q1014 NOSIG', 'VGHS 011000Z 21006KT 2000 HZ SCT012 BKN100 24/17 Q1015 NOSIG', 'VGHS 010930Z 21004KT 2000 HZ SCT012 BKN100 24/16 Q1014 NOSIG', 'VGHS 010830Z 13003KT 2000 HZ FEW012 SCT100 25/16 Q1015 NOSIG', 'VGHS 010800Z 16004KT 2000 HZ NSC 25/15 Q1015 NOSIG', 'VGHS 010730Z 13003KT 2000 HZ NSC 25/14 Q1015 NOSIG', 'VGHS 010700Z 14003KT 2000 HZ NSC 25/14 Q1016 BECMG S/VIS 3000M', 'VGHS 010630Z 15004KT 2000 HZ NSC 25/14 Q1017 BECMG S/VIS 3000M', 'VGHS 010530Z 10004KT 2000 HZ NSC 24/15 Q1017 BECMG S/VIS 2500M', 'VGHS 010500Z 14003KT 1800 HZ FEW100 22/17 Q1018 BECMG S/VIS 2500M', 'VGHS 010430Z 00000KT 1600 BR FEW100 21/17 Q1018 BECMG S/VIS 2000M', 'VGHS 010330Z 00000KT 1400 BR FEW100 20/16 Q1019 BECMG S/VIS 2000M', 'VGHS 010300Z 00000KT 1200 BR FEW100 19/15 Q1018 BECMG S/VIS 1500M', 'VGHS 010230Z 07003KT 1200 BR FEW100 19/15 Q1018 NOSIG', 'VGHS 010200Z 09003KT 1200 BR SCT010 BKN100 18/15 Q1018 TEMPO S/VIS 1000M', 'VGHS 010130Z 00000KT 1400 BR SCT010 BKN100 18/16 Q1017 TEMPO S/VIS 1200M', 'VGHS 010100Z 00000KT 1600 BR SCT010 BKN100 18/15 Q1017 TEMPO S/VIS 1200M', 'VGHS 010030Z 00000KT 1800 BR SCT010 BKN100 18/15 Q1016 TEMPO S/VIS 1600M', 'VGHS 010000Z 00000KT 2000 BR SCT010 BKN100 19/16 Q1016 TEMPO S/VIS 1600M', 'VGHS 312330Z 00000KT 2200 BR SCT010 BKN100 19/16 Q1016 TEMPO S/VIS 2000M', 'VGHS 312300Z 08003KT 2200 DZ SCT010 BKN100 19/17 Q1016 TEMPO S/VIS 2000M']","['2024-02-03 22:00:00', '2024-02-03 21:30:00', '2024-02-03 21:00:00', '2024-02-03 20:30:00', '2024-02-03 20:00:00', '2024-02-03 19:30:00', '2024-02-03 18:30:00', '2024-02-03 18:00:00', '2024-02-03 17:00:00', '2024-02-03 16:30:00', '2024-02-03 16:00:00', '2024-02-03 15:00:00', '2024-02-03 14:00:00', '2024-02-03 13:00:00', '2024-02-03 12:30:00', '2024-02-03 11:30:00', '2024-02-03 11:00:00', '2024-02-03 10:30:00', '2024-02-03 10:00:00', '2024-02-03 09:30:00', '2024-02-03 09:00:00', '2024-02-03 08:00:00', '2024-02-03 07:30:00', '2024-02-03 07:00:00', '2024-02-03 06:30:00', '2024-02-03 06:00:00', '2024-02-03 05:00:00', '2024-02-03 04:30:00', '2024-02-03 03:30:00', '2024-02-03 02:30:00', '2024-02-03 02:00:00', '2024-02-03 01:30:00', '2024-02-03 01:00:00', '2024-02-03 00:30:00', '2024-02-02 23:30:00', '2024-02-02 22:30:00', '2024-02-02 22:00:00', '2024-02-02 21:30:00', '2024-02-02 21:00:00', '2024-02-02 20:30:00', '2024-02-02 20:00:00', '2024-02-02 19:00:00', '2024-02-02 18:30:00', '2024-02-02 18:00:00', '2024-02-02 17:30:00', '2024-02-02 17:00:00', '2024-02-02 16:00:00', '2024-02-02 15:30:00', '2024-02-02 14:30:00', '2024-02-02 14:00:00', '2024-02-02 13:30:00', '2024-02-02 13:00:00', '2024-02-02 12:00:00', '2024-02-02 11:30:00', '2024-02-02 11:00:00', '2024-02-02 10:30:00', '2024-02-02 10:00:00', '2024-02-02 09:30:00', '2024-02-02 09:00:00', '2024-02-02 08:00:00', '2024-02-02 07:00:00', '2024-02-02 06:30:00', '2024-02-02 06:00:00', '2024-02-02 05:00:00', '2024-02-02 04:30:00', '2024-02-02 04:00:00', '2024-02-02 03:30:00', '2024-02-02 03:00:00', '2024-02-02 02:30:00', '2024-02-02 01:30:00', '2024-02-02 01:00:00', '2024-02-02 00:30:00', '2024-02-02 00:00:00', '2024-02-01 23:30:00', '2024-02-01 23:00:00', '2024-02-01 22:30:00', '2024-02-01 21:30:00', '2024-02-01 21:00:00', '2024-02-01 20:30:00', '2024-02-01 20:00:00', '2024-02-01 19:00:00', '2024-02-01 18:30:00', '2024-02-01 18:00:00', '2024-02-01 17:30:00', '2024-02-01 17:00:00', '2024-02-01 16:00:00', '2024-02-01 15:30:00', '2024-02-01 15:00:00', '2024-02-01 14:30:00', '2024-02-01 14:00:00', '2024-02-01 13:00:00', '2024-02-01 12:30:00', '2024-02-01 12:00:00', '2024-02-01 11:00:00', '2024-02-01 10:30:00', '2024-02-01 10:00:00', '2024-02-01 09:30:00', '2024-02-01 08:30:00', '2024-02-01 08:00:00', '2024-02-01 07:30:00', '2024-02-01 07:00:00', '2024-02-01 06:30:00', '2024-02-01 05:30:00', '2024-02-01 05:00:00', '2024-02-01 04:30:00', '2024-02-01 03:30:00', '2024-02-01 03:00:00', '2024-02-01 02:30:00', '2024-02-01 02:00:00', '2024-02-01 01:30:00', '2024-02-01 01:00:00', '2024-02-01 00:30:00', '2024-02-01 00:00:00', '2024-01-31 23:30:00', '2024-01-31 23:00:00']"
Barbados, Bridgetown Grantley Adams International Airport (BGI/TBPB) ,"['TBPB 032100Z 16009KT 9999 SCT018 28/23 Q1010 NOSIG', 'TBPB 032000Z 16011KT 9999 SCT018 28/23 Q1010 NOSIG', 'TBPB 031900Z 17010KT 9999 FEW020 29/23 Q1010 NOSIG', 'TBPB 031800Z 17012KT 9999 SCT020 29/23 Q1011 NOSIG', 'TBPB 031700Z 17011KT 9999 FEW020 29/23 Q1011 NOSIG', 'TBPB 031600Z 16011KT 9999 FEW020 29/23 Q1012 NOSIG', 'TBPB 031500Z 17011KT 9999 FEW020 29/24 Q1013 NOSIG', 'TBPB 031400Z 17011KT 9999 FEW020 29/24 Q1013 NOSIG', 'TBPB 031300Z 17011KT 9999 SCT020 28/23 Q1013 NOSIG', 'TBPB 031200Z 18009KT 9999 SCT020 27/23 Q1012 NOSIG', 'TBPB 031100Z 18009KT 9999 SCT020 26/23 Q1011 NOSIG', 'TBPB 031000Z 18009KT 9999 FEW020 26/22 Q1010 NOSIG', 'TBPB 030900Z 19010KT 9999 FEW020 26/23 Q1010 NOSIG', 'TBPB 030800Z 19010KT 9999 FEW020 26/23 Q1010 NOSIG', 'TBPB 030700Z 18009KT 9999 FEW020 26/23 Q1010 NOSIG', 'TBPB 030600Z 18008KT 9999 FEW020 26/23 Q1011 NOSIG', 'TBPB 030500Z 18009KT 9999 FEW020 26/23 Q1011 NOSIG', 'TBPB 030400Z 19008KT 9999 FEW020 26/23 Q1011 NOSIG', 'TBPB 030300Z 21007KT 9999 VCSH SCT018 26/23 Q1012 NOSIG', 'TBPB 030200Z 20007KT 9999 SCT020 26/23 Q1012 NOSIG', 'TBPB 030100Z 18008KT 9999 FEW020 26/23 Q1012 NOSIG', 'TBPB 030000Z 17010KT 9999 FEW022 26/23 Q1012 NOSIG', 'TBPB 022300Z 17008KT 9999 FEW022 26/23 Q1012 NOSIG', 'TBPB 022200Z 17008KT 9999 FEW022 27/23 Q1011 NOSIG', 'TBPB 022100Z 18009KT 9999 FEW022 28/23 Q1011 NOSIG', 'TBPB 022000Z 17009KT 9999 SCT022 29/24 Q1011 NOSIG', 'TBPB 021900Z 16010KT 9999 SCT022 29/24 Q1011 NOSIG', 'TBPB 021800Z 16011KT 9999 SCT022 29/24 Q1011 NOSIG', 'TBPB 021700Z 16013KT 9999 SCT022 29/24 Q1012 NOSIG', 'TBPB 021600Z 16012KT 9999 SCT022 30/24 Q1013 NOSIG', 'TBPB 021500Z 17012KT 9999 FEW024 29/24 Q1013 NOSIG', 'TBPB 021400Z 17013KT 9999 FEW024 29/23 Q1014 NOSIG', 'TBPB 021300Z 17013KT 9999 FEW024 28/23 Q1013 NOSIG', 'TBPB 021200Z 16013KT 9999 FEW024 27/23 Q1012 NOSIG', 'TBPB 021100Z 16008KT 9999 FEW020 26/23 Q1012 NOSIG', 'TBPB 021000Z 16010KT 9999 FEW020 26/23 Q1012 NOSIG', 'TBPB 020900Z 16010KT 9999 FEW020 26/23 Q1011 NOSIG', 'TBPB 020800Z 17009KT 9999 SCT020 26/23 Q1011 NOSIG', 'TBPB 020700Z 15010KT 9999 SCT020 26/23 Q1011 NOSIG', 'TBPB 020600Z 16010KT 9999 FEW020 26/23 Q1011 NOSIG', 'TBPB 020500Z 17009KT 9999 SCT020 26/23 Q1012 NOSIG', 'TBPB 020400Z 17009KT 9999 SCT020 26/23 Q1013 NOSIG', 'TBPB 020300Z 17011KT 9999 FEW020 26/23 Q1013 NOSIG', 'TBPB 020200Z 17010KT 9999 FEW020 27/23 Q1013 NOSIG', 'TBPB 020100Z 16012KT 9999 FEW020 27/24 Q1013 NOSIG', 'TBPB 020000Z 14010KT 9999 BKN020 27/24 Q1013 NOSIG', 'TBPB 012300Z 15011KT 9999 SCT020 27/24 Q1012 NOSIG', 'TBPB 012200Z 15011KT 9999 FEW020 27/24 Q1012 NOSIG', 'TBPB 012100Z 16012KT 9999 FEW020 28/24 Q1012 NOSIG', 'TBPB 012000Z 15011KT 9999 FEW020 29/24 Q1012 NOSIG', 'TBPB 011900Z 16012KT 9999 FEW020 29/24 Q1012 NOSIG', 'TBPB 011800Z 14009KT 9999 SCT020 30/24 Q1012 NOSIG', 'TBPB 011700Z 15011KT 9999 SCT020 29/24 Q1013 NOSIG', 'TBPB 011600Z 14013KT 9999 FEW020 29/25 Q1013 NOSIG', 'TBPB 011500Z 13013KT 9999 FEW020 29/24 Q1014 NOSIG', 'TBPB 011400Z 13013KT 9999 SCT020 28/24 Q1014 NOSIG', 'TBPB 011300Z 12014KT 9999 SCT020 28/24 Q1014 NOSIG', 'TBPB 011200Z 12014KT 9999 SCT020 27/24 Q1013 NOSIG', 'TBPB 011100Z 12012KT 9999 SCT020 26/24 Q1013 NOSIG', 'TBPB 011000Z 12012KT 9999 FEW022 26/24 Q1012 NOSIG', 'TBPB 010900Z 12010KT 9999 FEW026 26/23 Q1012 NOSIG', 'TBPB 010800Z 11010KT 9999 FEW024 26/24 Q1012 NOSIG', 'TBPB 010700Z 11010KT 9999 FEW024 26/23 Q1012 NOSIG', 'TBPB 010600Z 11011KT 9999 FEW022 26/24 Q1012 NOSIG', 'TBPB 010500Z 11010KT 9999 FEW022 26/24 Q1013 NOSIG', 'TBPB 010400Z 11010KT 9999 SCT022 26/24 Q1014 NOSIG', 'TBPB 010300Z 11009KT 9999 FEW022 26/24 Q1014 NOSIG', 'TBPB 010200Z 11010KT 9999 FEW022 27/24 Q1014 NOSIG', 'TBPB 010100Z 11009KT 9999 SCT022 27/24 Q1014 NOSIG', 'TBPB 010000Z 12009KT 9999 FEW022 27/24 Q1013 NOSIG', 'TBPB 312300Z 11009KT 9999 FEW020 27/24 Q1013 NOSIG']","['2024-02-03 21:00:00', '2024-02-03 20:00:00', '2024-02-03 19:00:00', '2024-02-03 18:00:00', '2024-02-03 17:00:00', '2024-02-03 16:00:00', '2024-02-03 15:00:00', '2024-02-03 14:00:00', '2024-02-03 13:00:00', '2024-02-03 12:00:00', '2024-02-03 11:00:00', '2024-02-03 10:00:00', '2024-02-03 09:00:00', '2024-02-03 08:00:00', '2024-02-03 07:00:00', '2024-02-03 06:00:00', '2024-02-03 05:00:00', '2024-02-03 04:00:00', '2024-02-03 03:00:00', '2024-02-03 02:00:00', '2024-02-03 01:00:00', '2024-02-03 00:00:00', '2024-02-02 23:00:00', '2024-02-02 22:00:00', '2024-02-02 21:00:00', '2024-02-02 20:00:00', '2024-02-02 19:00:00', '2024-02-02 18:00:00', '2024-02-02 17:00:00', '2024-02-02 16:00:00', '2024-02-02 15:00:00', '2024-02-02 14:00:00', '2024-02-02 13:00:00', '2024-02-02 12:00:00', '2024-02-02 11:00:00', '2024-02-02 10:00:00', '2024-02-02 09:00:00', '2024-02-02 08:00:00', '2024-02-02 07:00:00', '2024-02-02 06:00:00', '2024-02-02 05:00:00', '2024-02-02 04:00:00', '2024-02-02 03:00:00', '2024-02-02 02:00:00', '2024-02-02 01:00:00', '2024-02-02 00:00:00', '2024-02-01 23:00:00', '2024-02-01 22:00:00', '2024-02-01 21:00:00', '2024-02-01 20:00:00', '2024-02-01 19:00:00', '2024-02-01 18:00:00', '2024-02-01 17:00:00', '2024-02-01 16:00:00', '2024-02-01 15:00:00', '2024-02-01 14:00:00', '2024-02-01 13:00:00', '2024-02-01 12:00:00', '2024-02-01 11:00:00', '2024-02-01 10:00:00', '2024-02-01 09:00:00', '2024-02-01 08:00:00', '2024-02-01 07:00:00', '2024-02-01 06:00:00', '2024-02-01 05:00:00', '2024-02-01 04:00:00', '2024-02-01 03:00:00', '2024-02-01 02:00:00', '2024-02-01 01:00:00', '2024-02-01 00:00:00', '2024-01-31 23:00:00']"
Belarus, Brest Airport (BQT/UMBB) ,"['UMBB 031300Z 28009G14MPS 9000 OVC036CB 09/06 Q1005 NOSIG', 'UMBB 031200Z 27009G14MPS 9000 OVC021CB 08/07 Q1005 NOSIG', 'UMBB 031100Z 29007G12MPS 6000 -SHRA OVC017CB 08/07 Q1005 NOSIG', 'UMBB 031000Z 30008G13MPS 3600 -SHRA BR OVC009CB 07/07 Q1005 NOSIG', 'UMBB 030900Z 27008G13MPS 4300 -SHRA BR OVC009CB 07/06 Q1005 NOSIG', 'UMBB 030800Z 27008G13MPS 4100 -SHRA BR OVC010CB 07/06 Q1004 NOSIG', 'UMBB 030730Z 27007G12MPS 4800 -SHRA BR OVC010CB 06/05 Q1004 NOSIG', 'UMBB 030715Z 27007G12MPS 8000 OVC010CB 06/05 Q1004 NOSIG', 'UMBB 030600Z 26008G13MPS 4900 -SHRA BR OVC007CB 05/04 Q1004 NOSIG', 'UMBB 030500Z 25007G10MPS 3500 -SHRA BR OVC007CB 05/04 Q1004 NOSIG', 'UMBB 030400Z 25005G08MPS 3800 -SHRA BR OVC007CB 04/03 Q1005 NOSIG', 'UMBB 021300Z 29007G11MPS 9000 BKN036 05/M01 Q1019 NOSIG', 'UMBB 021200Z 30008G11MPS 8000 BKN035 04/M02 Q1019 NOSIG', 'UMBB 021130Z 30008G11MPS 8000 BKN033 04/M02 Q1019 NOSIG', 'UMBB 021100Z 29007G11MPS 8000 BKN033 04/M02 Q1019 NOSIG', 'UMBB 021030Z 30007G11MPS 8000 BKN035 03/M03 Q1019 NOSIG', 'UMBB 021000Z 29007G11MPS 8000 OVC035 03/M03 Q1019 NOSIG', 'UMBB 020930Z 30006G10MPS 8000 SCT036 03/M01 Q1019 NOSIG', 'UMBB 020900Z 28006G09MPS 8000 SCT043 03/M01 Q1019 NOSIG', 'UMBB 020830Z 28005G08MPS 8000 SCT046 02/M01 Q1019 NOSIG', 'UMBB 020800Z 27005G08MPS 8000 SCT046 02/M01 Q1019 NOSIG', 'UMBB 020730Z 27005G08MPS 8000 SCT045 01/M00 Q1019 NOSIG', 'UMBB 020700Z 27005G08MPS 8000 SCT045 01/M00 Q1018 NOSIG', 'UMBB 020600Z 27005G08MPS 8000 NSC 01/M01 Q1018 NOSIG', 'UMBB 020500Z 26005G08MPS 8000 NSC 01/M01 Q1018 NOSIG', 'UMBB 020400Z 26005G08MPS 8000 NSC 02/M01 Q1017 NOSIG', 'UMBB 011300Z 25005G08MPS 3900 -SHRA BR OVC010CB 03/02 Q1014 NOSIG', 'UMBB 011230Z 25005G08MPS 3700 -SHRA BR OVC010CB 03/01 Q1014 NOSIG', 'UMBB 011200Z 23005G08MPS 4900 -SHRA BR OVC011CB 03/01 Q1014 NOSIG', 'UMBB 011100Z 24005G08MPS 4200 -SHRA BR OVC012CB 03/01 Q1014 NOSIG', 'UMBB 011030Z 25006G09MPS 5000 -SHRA BR OVC013CB 03/01 Q1014 NOSIG', 'UMBB 010930Z 26005G08MPS 5000 BR OVC016CB 03/01 Q1015 NOSIG', 'UMBB 010900Z 24007G10MPS 5000 BR OVC016CB 03/01 Q1015 NOSIG', 'UMBB 010830Z 25006G09MPS 5000 BR OVC015CB 04/01 Q1015 NOSIG', 'UMBB 010800Z 24005G08MPS 6000 OVC017CB 04/01 Q1016 NOSIG', 'UMBB 010730Z 24004G07MPS 6000 OVC030CB 04/01 Q1016 NOSIG', 'UMBB 010700Z 26006G09MPS 6000 OVC023 04/01 Q1016 NOSIG', 'UMBB 010620Z 26006G09MPS 6000 OVC022 03/01 Q1017 NOSIG', 'UMBB 010500Z 22004MPS 5000 BR BKN029 03/01 Q1017 NOSIG', 'UMBB 010400Z 23004MPS 4300 BR BKN023 03/02 Q1018 NOSIG']","['2024-02-03 13:00:00', '2024-02-03 12:00:00', '2024-02-03 11:00:00', '2024-02-03 10:00:00', '2024-02-03 09:00:00', '2024-02-03 08:00:00', '2024-02-03 07:30:00', '2024-02-03 07:15:00', '2024-02-03 06:00:00', '2024-02-03 05:00:00', '2024-02-03 04:00:00', '2024-02-02 13:00:00', '2024-02-02 12:00:00', '2024-02-02 11:30:00', '2024-02-02 11:00:00', '2024-02-02 10:30:00', '2024-02-02 10:00:00', '2024-02-02 09:30:00', '2024-02-02 09:00:00', '2024-02-02 08:30:00', '2024-02-02 08:00:00', '2024-02-02 07:30:00', '2024-02-02 07:00:00', '2024-02-02 06:00:00', '2024-02-02 05:00:00', '2024-02-02 04:00:00', '2024-02-01 13:00:00', '2024-02-01 12:30:00', '2024-02-01 12:00:00', '2024-02-01 11:00:00', '2024-02-01 10:30:00', '2024-02-01 09:30:00', '2024-02-01 09:00:00', '2024-02-01 08:30:00', '2024-02-01 08:00:00', '2024-02-01 07:30:00', '2024-02-01 07:00:00', '2024-02-01 06:20:00', '2024-02-01 05:00:00', '2024-02-01 04:00:00']"
Belarus, Gomel Airport (GME/UMGG) ,"['UMGG 032200Z 27007G10MPS 9999 OVC022 03/02 Q0997 NOSIG', 'UMGG 032100Z 26009G12MPS 9999 OVC027CB 03/02 Q0997 NOSIG', 'UMGG 032000Z 26008G11MPS 9999 -SHRA OVC027CB 03/02 Q0997 NOSIG', 'UMGG 031900Z 26009G12MPS 9999 -SHRA OVC015CB 03/02 Q0997 NOSIG', 'UMGG 031800Z 26009G12MPS 9999 -SHRA SCT011 OVC031CB 03/03 Q0997 NOSIG', 'UMGG 031700Z 26006G09MPS 9999 -SHRA SCT012 OVC030CB 03/03 Q0997 NOSIG', 'UMGG 031630Z 26005G08MPS 9000 BKN007 OVC013CB 03/03 Q0997 NOSIG', 'UMGG 031600Z 26005G08MPS 8000 -SHRA BKN006 OVC014CB 03/03 Q0997 NOSIG RMK QBB180', 'UMGG 031530Z 25005G08MPS 6000 -SHRA BKN003 OVC013CB 03/03 Q0997 NOSIG RMK QBB110', 'UMGG 031500Z 25005G08MPS 5000 -SHRA BR BKN004 OVC013CB 03/03 Q0997 NOSIG RMK QBB130', 'UMGG 031430Z 25005G08MPS 5000 -SHRA BR BKN004 OVC017CB 02/02 Q0997 TEMPO 3000 RMK QBB130', 'UMGG 031400Z 26005G08MPS 3300 -SHRA BR BKN004 OVC017CB 02/02 Q0997 TEMPO 2300 RMK QBB130', 'UMGG 031330Z 25006G09MPS 4200 -SHRA BR BKN004 OVC014CB 02/02 Q0997 TEMPO 3000 RMK QBB120', 'UMGG 031300Z 25006G09MPS 8000 -SHRA BKN005 OVC016CB 02/02 Q0996 NOSIG RMK QBB150', 'UMGG 031230Z 25005G08MPS 7000 -SHRA OVC004CB 02/01 Q0996 NOSIG RMK QBB140', 'UMGG 031200Z 24005G08MPS 7000 -SHRA OVC004CB 02/01 Q0997 TEMPO 3000 RMK QBB140', 'UMGG 031130Z 24007MPS 3100 -SHRA BR OVC003CB 01/01 Q0997 TEMPO 2200 RMK QBB110', 'UMGG 031100Z 23005G08MPS 3500 -SHRA BR OVC004CB 01/01 Q0997 TEMPO 2500 BKN003CB', 'UMGG 031030Z 23006G09MPS 8000 -SHSNRA OVC005CB 01/01 Q0997 TEMPO 3000 BKN004CB', 'UMGG 031000Z 23006G09MPS 6000 -SHSNRA BKN005 OVC013CB 01/01 Q0997 TEMPO 3000 BKN004CB', 'UMGG 030930Z 22006G09MPS 5000 -SHSNRA BKN006 OVC014CB 01/00 Q0998 TEMPO 3000 BKN005CB', 'UMGG 030917Z 22006G09MPS 4100 -SHSNRA BKN005 OVC014CB 01/00 Q0998 RESHSNRA TEMPO 3000 BKN004CB RMK QBB160', 'UMGG 030830Z 22007G10MPS 4700 -SHSNRA BKN007 OVC015CB 01/00 Q0998 TEMPO 3000 BKN006CB', 'UMGG 030800Z 22007G10MPS 4800 -SHSNRA BKN007 OVC029CB 01/00 Q0999 TEMPO 3000 BKN006CB', 'UMGG 030730Z 21007G10MPS 7000 -SHSNRA BKN008 OVC017CB 00/M00 Q0999 TEMPO 3000 BKN007CB', 'UMGG 030700Z 21007G10MPS 6000 -SHSNRA BKN008 OVC016CB 00/M00 Q1000 TEMPO 3000 BKN007CB', 'UMGG 030630Z 21007G10MPS 7000 -SHSN BKN006 OVC013CB M00/M01 Q1000 TEMPO 3000 BKN005CB RMK QBB190', 'UMGG 030600Z 21006G09MPS 4200 -SHSN BLSN BKN005 OVC018CB M00/M01 Q1001 RESHSN TEMPO 3000 BKN004CB RMK QBB170', 'UMGG 030530Z 20005G08MPS 1800 SHSN BLSN OVC005CB M01/M01 Q1002 TEMPO 1300 BKN004CB RMK QBB150', 'UMGG 030500Z 20006MPS 1400 R28/1800 SHSN OVC006CB M01/M01 Q1003 TEMPO 1200 RMK QBB190', 'UMGG 030430Z 20006MPS 1300 R28/P2000 SHSN OVC006CB M01/M01 Q1004 TEMPO 1000 RMK QBB180', 'UMGG 030413Z 20006MPS 1300 R28/P2000 SHSN BKN005 OVC015CB M01/M01 Q1004 TEMPO 1000', 'UMGG 030330Z 20006MPS 1800 SHSN OVC008CB M01/M02 Q1006 TEMPO 1400', 'UMGG 030308Z 21007MPS 2600 -SHSN OVC009CB M01/M02 Q1006 TEMPO 2200', 'UMGG 030200Z 23005MPS 9999 SCT043 BKN100 M01/M03 Q1007 NOSIG', 'UMGG 030100Z 24006MPS CAVOK M01/M03 Q1009 NOSIG', 'UMGG 030000Z 25005G08MPS CAVOK M01/M04 Q1009 NOSIG', 'UMGG 022300Z 25006G09MPS CAVOK M02/M04 Q1010 NOSIG', 'UMGG 022200Z 26006G09MPS CAVOK M02/M04 Q1011 NOSIG', 'UMGG 022100Z 26006G09MPS CAVOK M01/M04 Q1011 NOSIG', 'UMGG 022030Z 26006G09MPS CAVOK M01/M05 Q1011 NOSIG', 'UMGG 022000Z 26005G08MPS CAVOK M01/M05 Q1011 NOSIG', 'UMGG 021930Z 26005G08MPS CAVOK M01/M05 Q1011 NOSIG', 'UMGG 021900Z 26006G09MPS CAVOK M01/M05 Q1012 NOSIG', 'UMGG 021830Z 26006G09MPS CAVOK M01/M05 Q1012 NOSIG', 'UMGG 021800Z 26005G08MPS CAVOK M01/M05 Q1012 NOSIG', 'UMGG 021700Z 25005G08MPS CAVOK M01/M04 Q1012 NOSIG', 'UMGG 021630Z 25007G10MPS CAVOK 00/M04 Q1012 NOSIG', 'UMGG 021600Z 25007G10MPS CAVOK 00/M04 Q1012 NOSIG', 'UMGG 021530Z 25005G08MPS CAVOK 01/M04 Q1012 NOSIG', 'UMGG 021500Z 25007G11MPS CAVOK 01/M04 Q1012 NOSIG', 'UMGG 021430Z 25007G11MPS CAVOK 02/M03 Q1012 NOSIG', 'UMGG 021400Z 26006G09MPS CAVOK 02/M03 Q1012 NOSIG', 'UMGG 021330Z 26006G10MPS CAVOK 02/M03 Q1012 NOSIG', 'UMGG 021300Z 27007G11MPS CAVOK 02/M03 Q1012 NOSIG', 'UMGG 021230Z 27009G13MPS CAVOK 02/M04 Q1012 NOSIG', 'UMGG 021200Z 28009G13MPS CAVOK 02/M04 Q1012 NOSIG', 'UMGG 021130Z 28008G12MPS 9999 FEW025 02/M03 Q1012 NOSIG', 'UMGG 021100Z 28008G12MPS 9999 FEW025 02/M03 Q1012 NOSIG', 'UMGG 021030Z 29008G12MPS 9999 FEW025 02/M03 Q1012 NOSIG', 'UMGG 021000Z 28009G13MPS 9999 FEW025 02/M03 Q1012 NOSIG', 'UMGG 020930Z 28009G13MPS 9999 SCT025 01/M03 Q1012 NOSIG', 'UMGG 020900Z 28007G11MPS 9999 SCT027 01/M03 Q1011 NOSIG', 'UMGG 020830Z 29008G12MPS 9999 SCT027 01/M03 Q1011 NOSIG', 'UMGG 020800Z 29007G11MPS 9999 BKN029 01/M03 Q1010 NOSIG', 'UMGG 020730Z 28007G11MPS 9999 BKN026 01/M03 Q1010 NOSIG', 'UMGG 020700Z 28007G11MPS 9999 BKN029 01/M03 Q1010 NOSIG', 'UMGG 020630Z 28006G10MPS 9999 BKN042 01/M02 Q1010 NOSIG', 'UMGG 020600Z 27006G10MPS 9999 BKN044CB 01/M02 Q1010 NOSIG', 'UMGG 020530Z 28007G11MPS 9999 BKN031CB 00/M02 Q1010 NOSIG', 'UMGG 020500Z 27008G12MPS 9999 BKN033CB 00/M02 Q1009 NOSIG', 'UMGG 020430Z 29008G12MPS 9999 BKN047CB 01/M01 Q1009 NOSIG', 'UMGG 020400Z 28009G13MPS 9999 BKN049CB 01/M01 Q1008 NOSIG', 'UMGG 020330Z 28009G13MPS 8000 -SHSNRA OVC047CB 02/00 Q1008 NOSIG', 'UMGG 020300Z 28009G13MPS 9999 OVC048CB 02/00 Q1008 NOSIG', 'UMGG 020200Z 26008G12MPS 9999 OVC025CB 02/00 Q1007 NOSIG', 'UMGG 020100Z 25008G12MPS 9999 OVC029 02/00 Q1007 NOSIG', 'UMGG 020000Z 25008G11MPS 9999 BKN026 01/M00 Q1007 NOSIG', 'UMGG 012300Z 24007G10MPS 9999 SCT018 BKN070 01/M01 Q1007 NOSIG', 'UMGG 012200Z 24006G09MPS 9999 SCT040 01/M01 Q1008 NOSIG', 'UMGG 012100Z 24006G09MPS 9999 BKN047 01/M00 Q1008 NOSIG', 'UMGG 012000Z 24006G09MPS 9999 OVC045 01/M00 Q1008 NOSIG', 'UMGG 011900Z 25006G09MPS 9999 SCT012 OVC033 02/M00 Q1008 NOSIG', 'UMGG 011800Z 25007G10MPS 9999 OVC013 02/M00 Q1009 NOSIG', 'UMGG 011700Z 25006G09MPS 9000 -SHRA OVC018CB 02/M01 Q1009 NOSIG', 'UMGG 011630Z 25006G09MPS 8000 -SHRA OVC020CB 02/M02 Q1009 NOSIG', 'UMGG 011600Z 25005G08MPS 9999 OVC022CB 02/M02 Q1009 NOSIG', 'UMGG 011530Z 25005G08MPS 9999 OVC024 02/M02 Q1009 NOSIG', 'UMGG 011500Z 25005G08MPS 9999 OVC023 02/M02 Q1009 NOSIG', 'UMGG 011430Z 26005G08MPS 9999 OVC022 02/M01 Q1009 NOSIG', 'UMGG 011400Z 26006G09MPS 9999 OVC022 02/M01 Q1010 NOSIG', 'UMGG 011330Z 26005G08MPS 9000 OVC021 02/M01 Q1010 NOSIG', 'UMGG 011300Z 25006MPS 9000 OVC021 02/M01 Q1010 NOSIG', 'UMGG 011230Z 25007MPS 8000 OVC019 02/00 Q1010 NOSIG', 'UMGG 011200Z 24005G08MPS 8000 OVC015 02/00 Q1011 NOSIG', 'UMGG 011130Z 23005G08MPS 7000 OVC014 02/01 Q1011 NOSIG', 'UMGG 011100Z 23005G08MPS 7000 OVC014 02/01 Q1011 NOSIG', 'UMGG 011030Z 23005G08MPS 7000 BKN012 OVC016CB 02/01 Q1012 NOSIG', 'UMGG 011000Z 23005G08MPS 7000 BKN011 OVC014CB 02/01 Q1013 NOSIG', 'UMGG 010930Z 23007MPS 7000 OVC011CB 02/01 Q1013 NOSIG', 'UMGG 010900Z 23007MPS 6000 BKN008 OVC014CB 02/01 Q1014 NOSIG', 'UMGG 010830Z 24007MPS 4500 -SHRA BR OVC005CB 02/01 Q1014 NOSIG RMK QBB150', 'UMGG 010800Z 24005G08MPS 3200 -SHRA BR OVC004CB 02/01 Q1014 TEMPO 2400 RMK QBB130', 'UMGG 010730Z 23005G08MPS 2500 -SHRA BR OVC004CB 02/01 Q1015 TEMPO 2000 RMK QBB130', 'UMGG 010700Z 23007MPS 4300 BR OVC005CB 02/01 Q1015 TEMPO 3000 RMK QBB160', 'UMGG 010630Z 23007MPS 3400 -SHRA BR OVC004CB 02/01 Q1015 TEMPO 2600 RMK QBB130', 'UMGG 010600Z 23007MPS 2900 -SHRA BR OVC004CB 02/01 Q1016 TEMPO 2300 RMK QBB130', 'UMGG 010530Z 23007MPS 3100 -SHRA BR OVC004CB 02/01 Q1016 TEMPO 2800 RMK QBB130', 'UMGG 010500Z 23007MPS 3500 BR OVC004 02/01 Q1016 NOSIG RMK QBB130', 'UMGG 010430Z 23007MPS 4300 BR OVC006 02/02 Q1017 NOSIG RMK QBB180', 'UMGG 010400Z 24007MPS 3400 BR OVC004 02/02 Q1017 TEMPO 3000 RMK QBB140', 'UMGG 010330Z 24007MPS 3500 BR OVC005 02/02 Q1017 TEMPO 3000 RMK QBB160', 'UMGG 010300Z 24007MPS 3600 BR OVC005 02/02 Q1018 TEMPO 3000 RMK QBB160', 'UMGG 010200Z 24007MPS 2600 BR OVC004 02/01 Q1018 TEMPO 1200 RMK QBB130', 'UMGG 010100Z 24007MPS 1100 R28/P2000 BR OVC002 02/01 Q1019 TEMPO 0900 FG RMK QBB060', 'UMGG 010033Z 24005G08MPS 1700 BR OVC003 02/00 Q1020 TEMPO 1200 RMK QBB100', 'UMGG 010000Z 24007MPS 4100 BR OVC005 02/00 Q1020 NOSIG RMK QBB150', 'UMGG 312300Z 25007MPS 6000 OVC009 02/M00 Q1021 NOSIG']","['2024-02-03 22:00:00', '2024-02-03 21:00:00', '2024-02-03 20:00:00', '2024-02-03 19:00:00', '2024-02-03 18:00:00', '2024-02-03 17:00:00', '2024-02-03 16:30:00', '2024-02-03 16:00:00', '2024-02-03 15:30:00', '2024-02-03 15:00:00', '2024-02-03 14:30:00', '2024-02-03 14:00:00', '2024-02-03 13:30:00', '2024-02-03 13:00:00', '2024-02-03 12:30:00', '2024-02-03 12:00:00', '2024-02-03 11:30:00', '2024-02-03 11:00:00', '2024-02-03 10:30:00', '2024-02-03 10:00:00', '2024-02-03 09:30:00', '2024-02-03 09:17:00', '2024-02-03 08:30:00', '2024-02-03 08:00:00', '2024-02-03 07:30:00', '2024-02-03 07:00:00', '2024-02-03 06:30:00', '2024-02-03 06:00:00', '2024-02-03 05:30:00', '2024-02-03 05:00:00', '2024-02-03 04:30:00', '2024-02-03 04:13:00', '2024-02-03 03:30:00', '2024-02-03 03:08:00', '2024-02-03 02:00:00', '2024-02-03 01:00:00', '2024-02-03 00:00:00', '2024-02-02 23:00:00', '2024-02-02 22:00:00', '2024-02-02 21:00:00', '2024-02-02 20:30:00', '2024-02-02 20:00:00', '2024-02-02 19:30:00', '2024-02-02 19:00:00', '2024-02-02 18:30:00', '2024-02-02 18:00:00', '2024-02-02 17:00:00', '2024-02-02 16:30:00', '2024-02-02 16:00:00', '2024-02-02 15:30:00', '2024-02-02 15:00:00', '2024-02-02 14:30:00', '2024-02-02 14:00:00', '2024-02-02 13:30:00', '2024-02-02 13:00:00', '2024-02-02 12:30:00', '2024-02-02 12:00:00', '2024-02-02 11:30:00', '2024-02-02 11:00:00', '2024-02-02 10:30:00', '2024-02-02 10:00:00', '2024-02-02 09:30:00', '2024-02-02 09:00:00', '2024-02-02 08:30:00', '2024-02-02 08:00:00', '2024-02-02 07:30:00', '2024-02-02 07:00:00', '2024-02-02 06:30:00', '2024-02-02 06:00:00', '2024-02-02 05:30:00', '2024-02-02 05:00:00', '2024-02-02 04:30:00', '2024-02-02 04:00:00', '2024-02-02 03:30:00', '2024-02-02 03:00:00', '2024-02-02 02:00:00', '2024-02-02 01:00:00', '2024-02-02 00:00:00', '2024-02-01 23:00:00', '2024-02-01 22:00:00', '2024-02-01 21:00:00', '2024-02-01 20:00:00', '2024-02-01 19:00:00', '2024-02-01 18:00:00', '2024-02-01 17:00:00', '2024-02-01 16:30:00', '2024-02-01 16:00:00', '2024-02-01 15:30:00', '2024-02-01 15:00:00', '2024-02-01 14:30:00', '2024-02-01 14:00:00', '2024-02-01 13:30:00', '2024-02-01 13:00:00', '2024-02-01 12:30:00', '2024-02-01 12:00:00', '2024-02-01 11:30:00', '2024-02-01 11:00:00', '2024-02-01 10:30:00', '2024-02-01 10:00:00', '2024-02-01 09:30:00', '2024-02-01 09:00:00', '2024-02-01 08:30:00', '2024-02-01 08:00:00', '2024-02-01 07:30:00', '2024-02-01 07:00:00', '2024-02-01 06:30:00', '2024-02-01 06:00:00', '2024-02-01 05:30:00', '2024-02-01 05:00:00', '2024-02-01 04:30:00', '2024-02-01 04:00:00', '2024-02-01 03:30:00', '2024-02-01 03:00:00', '2024-02-01 02:00:00', '2024-02-01 01:00:00', '2024-02-01 00:33:00', '2024-02-01 00:00:00', '2024-01-31 23:00:00']"
Belarus, Grodno Hrodna Airport (GNA/UMMG) ,"['UMMG 031300Z 29006G09MPS 9999 OVC024 08/05 Q1001 NOSIG', 'UMMG 031200Z 28009G13MPS 9999 OVC028 07/05 Q1000 NOSIG', 'UMMG 031100Z 28008G11MPS 9999 BKN013 OVC022 07/06 Q1001 NOSIG', 'UMMG 031040Z 28008G11MPS 9000 BKN011 OVC018 07/06 Q1000 NOSIG', 'UMMG 031000Z 28009G12MPS 6000 -DZ OVC009 07/06 Q1000 NOSIG', 'UMMG 030900Z 28008G11MPS 5000 -DZ BR OVC008 07/06 Q1000 NOSIG', 'UMMG 030800Z 26007G10MPS 4400 -DZ BR OVC007 06/05 Q1000 NOSIG', 'UMMG 030700Z 26007G10MPS 4900 -DZ BR OVC007 05/05 Q1000 NOSIG', 'UMMG 030600Z 26009G13MPS 6000 -DZ OVC007 05/05 Q1000 NOSIG', 'UMMG 030500Z 26010G13MPS 7000 -DZ OVC008 05/04 Q1000 NOSIG', 'UMMG 030400Z 25007G10MPS 5000 -DZ BR OVC008 05/04 Q1000 NOSIG', 'UMMG 030300Z 24008G11MPS 6000 -RA BKN008 OVC018 04/03 Q1001 NOSIG', 'UMMG 021300Z 28008G11MPS 9999 SCT030 BKN100 03/M02 Q1016 NOSIG', 'UMMG 021200Z 29010G15MPS 9999 BKN026 BKN100 04/M02 Q1016 NOSIG', 'UMMG 021149Z 29010G15MPS 9999 BKN026 03/M03 Q1016 NOSIG', 'UMMG 021122Z 27010G14MPS 9999 BKN026 03/M03 Q1016 NOSIG', 'UMMG 021000Z 28010G13MPS 9999 BKN026 03/M03 Q1017 NOSIG', 'UMMG 020930Z 28010G13MPS 9999 BKN024 02/M02 Q1017 NOSIG', 'UMMG 020900Z 28008G12MPS 9999 FEW013 SCT023 02/M02 Q1017 NOSIG', 'UMMG 020830Z 28008G11MPS 9999 SCT013 BKN023 01/M01 Q1017 NOSIG', 'UMMG 020800Z 28007G10MPS 9999 SCT013 BKN023 01/M01 Q1017 NOSIG', 'UMMG 020730Z 28008G12MPS 9999 BKN013 BKN020 01/M01 Q1016 NOSIG', 'UMMG 020700Z 28007G10MPS 9999 BKN013 BKN020 01/M01 Q1016 NOSIG', 'UMMG 020636Z 27007G10MPS 9999 BKN015 BKN020 01/M01 Q1016 NOSIG', 'UMMG 020600Z 27006G09MPS 9999 BKN017 01/M01 Q1016 NOSIG', 'UMMG 020500Z 28009G112MPS 9999 BKN016 01/M01 Q1015 NOSIG', 'UMMG 020400Z 28007G10MPS 9999 BKN013 01/M01 Q1015 NOSIG', 'UMMG 020300Z 28006G09MPS 9999 BKN015 01/M01 Q1015 NOSIG', 'UMMG 011430Z 24005G08MPS 9999 BKN024 03/01 Q1010 NOSIG', 'UMMG 011400Z 25004G07MPS 9999 BKN021 03/01 Q1010 NOSIG', 'UMMG 011330Z 25004G07MPS 9999 BKN018 03/01 Q1010 NOSIG', 'UMMG 011300Z 27007G10MPS 9999 BKN016 03/01 Q1010 NOSIG', 'UMMG 011230Z 26009G12MPS 9999 BKN014 02/01 Q1010 NOSIG', 'UMMG 011200Z 26007G10MPS 9999 OVC011CB 02/01 Q1010 NOSIG', 'UMMG 011130Z 25008G11MPS 6000 -SHRA OVC009CB 02/M00 Q1010 NOSIG', 'UMMG 011100Z 25008G11MPS 7000 -SHRA OVC009CB 02/M00 Q1010 NOSIG', 'UMMG 011030Z 25009G12MPS 6000 -SHRA OVC008CB 02/M00 Q1011 NOSIG', 'UMMG 010930Z 24006G09MPS 5000 -SHRA OVC009CB 02/M00 Q1011 NOSIG', 'UMMG 010900Z 24006G09MPS 6000 -SHRA OVC013CB 02/M00 Q1012 TEMPO 3000 BR BKN010', 'UMMG 010830Z 23005G08MPS 8000 -SHRA OVC016CB 02/M02 Q1012 TEMPO 3000 -SHRASN BKN010CB', 'UMMG 010800Z 24006G09MPS 9999 OVC017 02/M02 Q1012 NOSIG', 'UMMG 010730Z 25007G10MPS 9999 OVC018 02/M02 Q1013 NOSIG', 'UMMG 010700Z 25010G13MPS 9999 OVC019 02/M02 Q1013 NOSIG', 'UMMG 010630Z 24007G10MPS 9999 OVC019 02/M02 Q1013 NOSIG', 'UMMG 010600Z 25008G11MPS 9999 OVC019 02/M02 Q1013 NOSIG', 'UMMG 010500Z 23008G11MPS 9999 OVC018 02/M01 Q1015 NOSIG', 'UMMG 010400Z 20007G10MPS 9999 OVC018 02/M00 Q1016 NOSIG', 'UMMG 010300Z 21005G08MPS 9999 OVC017 02/00 Q1017 NOSIG']","['2024-02-03 13:00:00', '2024-02-03 12:00:00', '2024-02-03 11:00:00', '2024-02-03 10:40:00', '2024-02-03 10:00:00', '2024-02-03 09:00:00', '2024-02-03 08:00:00', '2024-02-03 07:00:00', '2024-02-03 06:00:00', '2024-02-03 05:00:00', '2024-02-03 04:00:00', '2024-02-03 03:00:00', '2024-02-02 13:00:00', '2024-02-02 12:00:00', '2024-02-02 11:49:00', '2024-02-02 11:22:00', '2024-02-02 10:00:00', '2024-02-02 09:30:00', '2024-02-02 09:00:00', '2024-02-02 08:30:00', '2024-02-02 08:00:00', '2024-02-02 07:30:00', '2024-02-02 07:00:00', '2024-02-02 06:36:00', '2024-02-02 06:00:00', '2024-02-02 05:00:00', '2024-02-02 04:00:00', '2024-02-02 03:00:00', '2024-02-01 14:30:00', '2024-02-01 14:00:00', '2024-02-01 13:30:00', '2024-02-01 13:00:00', '2024-02-01 12:30:00', '2024-02-01 12:00:00', '2024-02-01 11:30:00', '2024-02-01 11:00:00', '2024-02-01 10:30:00', '2024-02-01 09:30:00', '2024-02-01 09:00:00', '2024-02-01 08:30:00', '2024-02-01 08:00:00', '2024-02-01 07:30:00', '2024-02-01 07:00:00', '2024-02-01 06:30:00', '2024-02-01 06:00:00', '2024-02-01 05:00:00', '2024-02-01 04:00:00', '2024-02-01 03:00:00']"
Belarus, Minsk National Airport (MSQ/UMMS) ,"['UMMS 032200Z 28010MPS 9999 -RA BKN013 04/02 Q0997 NOSIG', 'UMMS 032137Z 29011G15MPS 9999 BKN014 04/02 Q0997 NOSIG', 'UMMS 032129Z 29010G14MPS 9999 BKN014 04/02 Q0997 NOSIG', 'UMMS 032059Z 28010G15MPS 9999 BKN015 04/02 Q0996 NOSIG', 'UMMS 032000Z 29010G14MPS 9999 SCT013 BKN026 04/02 Q0997 NOSIG', 'UMMS 031930Z 29010G14MPS 9999 SCT013 BKN029 04/02 Q0996 NOSIG', 'UMMS 031918Z 29011G15MPS 9999 SCT014 BKN029 04/02 Q0996 NOSIG', 'UMMS 031841Z 28010G14MPS 9999 BKN014 BKN026 04/02 Q0997 NOSIG', 'UMMS 031829Z 29009G12MPS 9999 BKN014 BKN026 04/02 Q0997 NOSIG', 'UMMS 031730Z 29009G12MPS 9999 BKN011 BKN025 04/03 Q0996 NOSIG', 'UMMS 031720Z 29009G13MPS 9999 BKN011 BKN031 04/03 Q0996 NOSIG', 'UMMS 031630Z 29010G13MPS 9999 BKN013 BKN023 04/03 Q0996 NOSIG', 'UMMS 031600Z 28009G12MPS 9999 BKN011 BKN027 04/04 Q0996 NOSIG', 'UMMS 031530Z 29008MPS 9999 BKN009 BKN019 04/04 Q0996 NOSIG', 'UMMS 031500Z 28008MPS 9999 BKN011 BKN028 04/03 Q0995 NOSIG', 'UMMS 031447Z 28007G10MPS 9999 BKN011 BKN028 04/03 Q0995 NOSIG', 'UMMS 031400Z 28006G09MPS 9999 BKN008 OVC018 04/04 Q0995 NOSIG', 'UMMS 031330Z 28004G08MPS 240V310 9999 BKN008 OVC018 04/04 Q0995 NOSIG', 'UMMS 031300Z 28007G10MPS 9999 BKN008 OVC015 04/04 Q0995 NOSIG', 'UMMS 031230Z 28006G09MPS 9999 BKN008 OVC015 04/04 Q0995 NOSIG', 'UMMS 031200Z 28006G09MPS 9999 BKN009 OVC015 04/04 Q0995 NOSIG', 'UMMS 031130Z 29008G12MPS 9999 BKN009 OVC016 04/04 Q0995 NOSIG', 'UMMS 031100Z 27007MPS 9999 BKN009 OVC016 04/04 Q0994 NOSIG', 'UMMS 031030Z 28006MPS 9999 BKN008 OVC016 04/04 Q0995 NOSIG', 'UMMS 031021Z 28007MPS 9999 BKN001 OVC021 04/04 Q0995 NOSIG RMK QBB050', 'UMMS 030930Z 28006G09MPS 9999 OVC009 04/04 Q0995 NOSIG', 'UMMS 030900Z 27005G08MPS 240V310 9999 OVC008 04/03 Q0995 NOSIG', 'UMMS 030830Z 27003G06MPS 240V300 9999 OVC008 03/03 Q0995 NOSIG', 'UMMS 030800Z 27005MPS 9999 OVC008 03/03 Q0995 NOSIG', 'UMMS 030730Z 26005MPS 9999 OVC008 02/02 Q0995 NOSIG', 'UMMS 030700Z 26003G06MPS 220V300 9999 OVC006 01/01 Q0995 NOSIG RMK QBB200', 'UMMS 030630Z 25003G06MPS 8000 -DZ OVC003 01/01 Q0995 NOSIG RMK QBB110', 'UMMS 030600Z 23004G07MPS 9000 OVC003 01/01 Q0995 NOSIG RMK QBB100', 'UMMS 030530Z 23004G08MPS 9999 BKN003 OVC012 00/00 Q0996 NOSIG RMK QBB100', 'UMMS 030500Z 23005G08MPS 9999 -SN BKN004 OVC012 00/00 Q0996 NOSIG RMK QBB120', 'UMMS 030450Z 23005G08MPS 8000 -SN BKN004 OVC012 00/00 Q0996 NOSIG RMK QBB120', 'UMMS 030428Z 23005G08MPS 2500 -SN BKN004 OVC012 00/00 Q0997 NOSIG RMK QBB120', 'UMMS 030354Z 22006G09MPS 190V260 1800 R13L/1800 SHSN BKN004 OVC012CB 00/00 Q0997 NOSIG RMK QBB120', 'UMMS 030322Z 22005G08MPS 190V250 1400 1300E R13L/P2000 R13R/1400 SHSN BKN003 OVC010CB 00/00 Q0998 NOSIG RMK QBB110', 'UMMS 030259Z 22006G09MPS 0750 0700N R13L/1600 R13R/0750 +SHSN BKN003 OVC012CB 00/00 Q0999 NOSIG RMK QBB110', 'UMMS 030222Z 21006G09MPS 0700 R13L/1800 R13R/0700 +SHSN BKN003 OVC011CB 00/00 Q1000 NOSIG RMK QBB100', 'UMMS 030155Z 21006G09MPS 0900 R13L/1900 R13R/1000 +SHSN BKN003 OVC011CB 00/00 Q1000 NOSIG RMK QBB100', 'UMMS 030127Z 21006MPS 1800 R13L/1800 R13R/1800 SN BKN003 OVC011 00/00 Q1002 NOSIG RMK QBB110', 'UMMS 030052Z 20003G06MPS 160V240 5000 -SN SCT003 OVC011 00/00 Q1003 NOSIG RMK QBB110', 'UMMS 030006Z 21005MPS 2600 R31R/1900 -SN SCT003 OVC011 M00/M00 Q1004 NOSIG RMK QBB110', 'UMMS 030001Z 21005MPS 3800 1800E R31R/1800 SN SCT003 OVC011 M00/M00 Q1004 NOSIG RMK QBB110', 'UMMS 022319Z 21004MPS 1400 1300S R31R/P2000 R31L/1300 SN SCT005 OVC011 M01/M01 Q1005 NOSIG RMK QBB160', 'UMMS 022259Z 21004MPS 3600 -SN SCT006 OVC011 M01/M01 Q1006 NOSIG RMK QBB180', 'UMMS 022200Z 22004MPS 9999 BKN011 M01/M02 Q1007 NOSIG', 'UMMS 022130Z 23003MPS 9999 BKN013 M01/M03 Q1008 NOSIG', 'UMMS 022124Z 22003MPS 9999 BKN014 M01/M03 Q1008 NOSIG', 'UMMS 022030Z 25004MPS 9999 SCT018 M01/M03 Q1009 NOSIG', 'UMMS 022000Z 26005MPS 9999 SCT024 M02/M04 Q1009 NOSIG', 'UMMS 021930Z 25004MPS 9999 SCT024 M02/M04 Q1010 NOSIG', 'UMMS 021900Z 25005MPS 9999 BKN024 M02/M04 Q1010 NOSIG', 'UMMS 021830Z 27006MPS CAVOK M01/M04 Q1011 NOSIG', 'UMMS 021800Z 27005MPS CAVOK M01/M04 Q1011 NOSIG', 'UMMS 021730Z 27005MPS CAVOK M00/M04 Q1011 NOSIG', 'UMMS 021700Z 28006G09MPS 9999 BKN026 M00/M04 Q1011 NOSIG', 'UMMS 021630Z 28006MPS 9999 BKN026 M00/M04 Q1011 NOSIG', 'UMMS 021600Z 29004G09MPS 9999 BKN027 00/M04 Q1011 NOSIG', 'UMMS 021530Z 28008G12MPS 9999 BKN027 01/M04 Q1011 NOSIG', 'UMMS 021500Z 28008G12MPS 9999 BKN027 01/M04 Q1011 NOSIG', 'UMMS 021430Z 28008G12MPS 9999 BKN027 01/M04 Q1011 NOSIG', 'UMMS 021400Z 28009G12MPS 9999 BKN027 01/M04 Q1011 NOSIG', 'UMMS 021330Z 28009G12MPS 9999 SCT031 01/M04 Q1011 NOSIG', 'UMMS 021300Z 29008G11MPS 9999 SCT028 01/M05 Q1011 NOSIG', 'UMMS 021230Z 29008G11MPS 9999 SCT028 01/M04 Q1012 NOSIG', 'UMMS 021200Z 29008G12MPS 250V310 9999 SCT028 01/M05 Q1012 NOSIG', 'UMMS 021130Z 29007G11MPS 9999 SCT028 01/M04 Q1012 NOSIG', 'UMMS 021100Z 28008G12MPS 9999 SCT025 01/M04 Q1012 NOSIG', 'UMMS 021030Z 29009G12MPS 9999 SCT025 01/M04 Q1012 NOSIG', 'UMMS 021000Z 29010G13MPS 9999 FEW017 01/M04 Q1012 NOSIG', 'UMMS 020930Z 28008G13MPS 9999 FEW017 01/M04 Q1012 NOSIG', 'UMMS 020900Z 28007G10MPS 9999 SCT017 00/M04 Q1012 NOSIG', 'UMMS 020830Z 29008G11MPS 9999 SCT017 00/M04 Q1012 NOSIG', 'UMMS 020800Z 29008MPS 9999 SCT017 M00/M03 Q1012 NOSIG', 'UMMS 020730Z 29008MPS 9999 SCT017 M00/M03 Q1012 NOSIG', 'UMMS 020700Z 29004G07MPS 250V320 9999 SCT019 M01/M04 Q1011 NOSIG', 'UMMS 020630Z 30007G10MPS 9999 SCT023 M01/M04 Q1011 NOSIG', 'UMMS 020600Z 30004G07MPS 9999 SCT023 M01/M04 Q1011 NOSIG', 'UMMS 020530Z 30008G11MPS 9999 SCT024 M01/M04 Q1010 NOSIG', 'UMMS 020500Z 31008G12MPS 9999 BKN026 M00/M04 Q1010 NOSIG', 'UMMS 020430Z 30009MPS 9999 BKN024 00/M03 Q1009 NOSIG', 'UMMS 020400Z 31008G11MPS 9999 BKN025 00/M03 Q1009 NOSIG', 'UMMS 020330Z 30008G12MPS 9999 BKN032 01/M03 Q1009 NOSIG', 'UMMS 020300Z 30008G11MPS 9999 BKN029 01/M03 Q1008 NOSIG', 'UMMS 020230Z 30009G12MPS 9999 BKN042 01/M03 Q1008 NOSIG', 'UMMS 020200Z 30006G10MPS 270V330 9999 BKN033 00/M03 Q1008 NOSIG', 'UMMS 020130Z 30010G14MPS 9999 BKN030 01/M03 Q1007 NOSIG', 'UMMS 020118Z 30011G14MPS 9999 BKN029 01/M03 Q1007 NOSIG', 'UMMS 020058Z 30010G15MPS 9999 BKN019 01/M03 Q1007 NOSIG', 'UMMS 020000Z 30008G12MPS 9999 -SNRA BKN019 01/M01 Q1006 RESHRA RESHSN NOSIG', 'UMMS 012345Z 30008G12MPS 1300 1100NE R31R/P2000 SHSNRA BKN018CB 01/M01 Q1006 NOSIG', 'UMMS 012300Z 29009G12MPS 7000 -SHRASN BKN016CB 01/M01 Q1005 NOSIG', 'UMMS 012230Z 28008G11MPS 9999 -RASN BKN016 01/M01 Q1005 RESHRA RESHSN NOSIG', 'UMMS 012220Z 28008G12MPS 6000 -SHRASN BKN016CB 01/M00 Q1005 NOSIG', 'UMMS 012130Z 28009G13MPS 9999 -RASN BKN015 01/M01 Q1005 NOSIG', 'UMMS 012102Z 27009G13MPS 9999 BKN017 02/M01 Q1004 NOSIG', 'UMMS 012030Z 26008MPS 9999 BKN017 02/M01 Q1004 WS R31R NOSIG', 'UMMS 012024Z 27005G09MPS 230V300 9999 BKN017 02/M00 Q1005 WS R31R NOSIG', 'UMMS 011930Z 26008G11MPS 9999 BKN038 02/M01 Q1005 NOSIG', 'UMMS 011900Z 26005G08MPS 9999 BKN020 01/M00 Q1005 NOSIG', 'UMMS 011830Z 25006G10MPS 9999 BKN017 01/M00 Q1005 NOSIG', 'UMMS 011800Z 25004G07MPS 9999 BKN018 01/M00 Q1006 NOSIG', 'UMMS 011730Z 25006G10MPS 9999 BKN020 01/M00 Q1006 NOSIG', 'UMMS 011700Z 25005G08MPS 220V280 9999 BKN026 01/M00 Q1006 NOSIG', 'UMMS 011630Z 25005G08MPS 9999 BKN023 01/M01 Q1006 NOSIG', 'UMMS 011600Z 26004G08MPS 220V300 9999 BKN037 02/M01 Q1007 NOSIG', 'UMMS 011530Z 26006MPS 9999 BKN037 01/M01 Q1007 NOSIG', 'UMMS 011514Z 26005G08MPS 9999 BKN036 01/00 Q1007 NOSIG', 'UMMS 011455Z 27006G09MPS 8000 2000S R31L/2000D SHRASN SCT007 BKN026CB 01/01 Q1007 NOSIG', 'UMMS 011409Z 25004G07MPS 220V280 6000 BKN013 01/01 Q1007 NOSIG', 'UMMS 011359Z 24005MPS 6000 SCT008 BKN019 01/01 Q1007 NOSIG', 'UMMS 011324Z 24004G07MPS 210V270 7000 -RASN BKN007 BKN019 01/01 Q1007 NOSIG', 'UMMS 011254Z 24004G07MPS 3500 R31R/1900 -SHRASN SCT005 BKN018CB 01/01 Q1007 NOSIG RMK QBB170', 'UMMS 011229Z 25004G07MPS 220V280 6000 1800E R31R/1900D SHRASN BKN010CB BKN033 01/01 Q1007 NOSIG', 'UMMS 011130Z 25004G07MPS 220V280 9999 BKN017 02/M01 Q1007 NOSIG', 'UMMS 011100Z 25005G09MPS 9999 BKN018 02/M01 Q1008 NOSIG', 'UMMS 011030Z 25006G09MPS 9999 BKN019 02/M01 Q1008 NOSIG', 'UMMS 011000Z 25006G09MPS 9999 BKN016 02/M01 Q1009 NOSIG', 'UMMS 010930Z 25005G10MPS 220V280 9999 BKN015 02/M01 Q1009 NOSIG', 'UMMS 010900Z 25005G09MPS 9999 BKN017 02/M01 Q1010 NOSIG', 'UMMS 010830Z 25006G11MPS 9999 BKN015 01/M00 Q1010 NOSIG', 'UMMS 010800Z 24007G10MPS 9999 BKN015 01/M01 Q1010 NOSIG', 'UMMS 010730Z 25005G08MPS 9999 BKN015 01/M01 Q1011 NOSIG', 'UMMS 010727Z 25005G08MPS 9999 BKN015 01/M01 Q1011 NOSIG', 'UMMS 010656Z 25006G09MPS 9999 BKN014 01/M01 Q1011 NOSIG', 'UMMS 010623Z 25007G10MPS 9999 BKN016 01/M02 Q1012 NOSIG', 'UMMS 010530Z 24007G11MPS 9999 BKN012 01/M00 Q1012 NOSIG', 'UMMS 010500Z 23005G08MPS 9999 BKN010 01/01 Q1013 NOSIG', 'UMMS 010430Z 25004MPS 9999 BKN019 01/01 Q1013 NOSIG', 'UMMS 010400Z 27007G10MPS 9999 BKN022 02/M00 Q1014 NOSIG', 'UMMS 010330Z 25005MPS 9999 FEW009 BKN022 01/01 Q1014 NOSIG', 'UMMS 010300Z 24002G06MPS 190V290 8000 SCT007 BKN018 01/01 Q1014 NOSIG', 'UMMS 010230Z 24004G07MPS 4800 BR OVC006 01/01 Q1015 NOSIG RMK QBB200', 'UMMS 010222Z 24004G07MPS 4300 BR OVC005 01/01 Q1015 NOSIG RMK QBB150', 'UMMS 010152Z 22002G05MPS 160V290 1800 0900E PRFG OVC001 01/01 Q1015 NOSIG RMK QBB050', 'UMMS 010122Z 22003G06MPS 0550 0450S R13L/2000 R13R/0900 FG VV001 01/01 Q1016 NOSIG RMK QBB040', 'UMMS 010042Z 23004MPS 0400 0350E R13L/1600N R13R/0800N FG VV001 01/01 Q1017 NOSIG RMK QBB040', 'UMMS 010022Z 23004MPS 0300 0250E R13L/1600 R13R/0800 -DZ FG VV001 01/01 Q1017 NOSIG RMK QBB040', 'UMMS 312352Z 23003MPS 0350 0250E R13L/2000 R13R/0900 -DZ FG VV001 01/01 Q1017 NOSIG RMK QBB040', 'UMMS 312311Z 23002G05MPS 180V290 0550 0300E R13L/P2000D R13R/1500N -RA PRFG OVC001 01/01 Q1018 NOSIG RMK QBB040']","['2024-02-03 22:00:00', '2024-02-03 21:37:00', '2024-02-03 21:29:00', '2024-02-03 20:59:00', '2024-02-03 20:00:00', '2024-02-03 19:30:00', '2024-02-03 19:18:00', '2024-02-03 18:41:00', '2024-02-03 18:29:00', '2024-02-03 17:30:00', '2024-02-03 17:20:00', '2024-02-03 16:30:00', '2024-02-03 16:00:00', '2024-02-03 15:30:00', '2024-02-03 15:00:00', '2024-02-03 14:47:00', '2024-02-03 14:00:00', '2024-02-03 13:30:00', '2024-02-03 13:00:00', '2024-02-03 12:30:00', '2024-02-03 12:00:00', '2024-02-03 11:30:00', '2024-02-03 11:00:00', '2024-02-03 10:30:00', '2024-02-03 10:21:00', '2024-02-03 09:30:00', '2024-02-03 09:00:00', '2024-02-03 08:30:00', '2024-02-03 08:00:00', '2024-02-03 07:30:00', '2024-02-03 07:00:00', '2024-02-03 06:30:00', '2024-02-03 06:00:00', '2024-02-03 05:30:00', '2024-02-03 05:00:00', '2024-02-03 04:50:00', '2024-02-03 04:28:00', '2024-02-03 03:54:00', '2024-02-03 03:22:00', '2024-02-03 02:59:00', '2024-02-03 02:22:00', '2024-02-03 01:55:00', '2024-02-03 01:27:00', '2024-02-03 00:52:00', '2024-02-03 00:06:00', '2024-02-03 00:01:00', '2024-02-02 23:19:00', '2024-02-02 22:59:00', '2024-02-02 22:00:00', '2024-02-02 21:30:00', '2024-02-02 21:24:00', '2024-02-02 20:30:00', '2024-02-02 20:00:00', '2024-02-02 19:30:00', '2024-02-02 19:00:00', '2024-02-02 18:30:00', '2024-02-02 18:00:00', '2024-02-02 17:30:00', '2024-02-02 17:00:00', '2024-02-02 16:30:00', '2024-02-02 16:00:00', '2024-02-02 15:30:00', '2024-02-02 15:00:00', '2024-02-02 14:30:00', '2024-02-02 14:00:00', '2024-02-02 13:30:00', '2024-02-02 13:00:00', '2024-02-02 12:30:00', '2024-02-02 12:00:00', '2024-02-02 11:30:00', '2024-02-02 11:00:00', '2024-02-02 10:30:00', '2024-02-02 10:00:00', '2024-02-02 09:30:00', '2024-02-02 09:00:00', '2024-02-02 08:30:00', '2024-02-02 08:00:00', '2024-02-02 07:30:00', '2024-02-02 07:00:00', '2024-02-02 06:30:00', '2024-02-02 06:00:00', '2024-02-02 05:30:00', '2024-02-02 05:00:00', '2024-02-02 04:30:00', '2024-02-02 04:00:00', '2024-02-02 03:30:00', '2024-02-02 03:00:00', '2024-02-02 02:30:00', '2024-02-02 02:00:00', '2024-02-02 01:30:00', '2024-02-02 01:18:00', '2024-02-02 00:58:00', '2024-02-02 00:00:00', '2024-02-01 23:45:00', '2024-02-01 23:00:00', '2024-02-01 22:30:00', '2024-02-01 22:20:00', '2024-02-01 21:30:00', '2024-02-01 21:02:00', '2024-02-01 20:30:00', '2024-02-01 20:24:00', '2024-02-01 19:30:00', '2024-02-01 19:00:00', '2024-02-01 18:30:00', '2024-02-01 18:00:00', '2024-02-01 17:30:00', '2024-02-01 17:00:00', '2024-02-01 16:30:00', '2024-02-01 16:00:00', '2024-02-01 15:30:00', '2024-02-01 15:14:00', '2024-02-01 14:55:00', '2024-02-01 14:09:00', '2024-02-01 13:59:00', '2024-02-01 13:24:00', '2024-02-01 12:54:00', '2024-02-01 12:29:00', '2024-02-01 11:30:00', '2024-02-01 11:00:00', '2024-02-01 10:30:00', '2024-02-01 10:00:00', '2024-02-01 09:30:00', '2024-02-01 09:00:00', '2024-02-01 08:30:00', '2024-02-01 08:00:00', '2024-02-01 07:30:00', '2024-02-01 07:27:00', '2024-02-01 06:56:00', '2024-02-01 06:23:00', '2024-02-01 05:30:00', '2024-02-01 05:00:00', '2024-02-01 04:30:00', '2024-02-01 04:00:00', '2024-02-01 03:30:00', '2024-02-01 03:00:00', '2024-02-01 02:30:00', '2024-02-01 02:22:00', '2024-02-01 01:52:00', '2024-02-01 01:22:00', '2024-02-01 00:42:00', '2024-02-01 00:22:00', '2024-01-31 23:52:00', '2024-01-31 23:11:00']"
Belarus, Mogilev Airport (MVQ/UMOO) ,"['UMOO 031300Z 26005MPS 8000 -DZ OVC007 03/02 Q0994 NOSIG', 'UMOO 031200Z 25006MPS 8000 -DZ OVC005 02/02 Q0994 NOSIG RMK QBB150', 'UMOO 031100Z 25005G08MPS 5000 -DZ BR OVC005 01/01 Q0994 NOSIG RMK QBB150', 'UMOO 031000Z 25005G08MPS 5000 -SNRA BR OVC005 01/00 Q0994 TEMPO 2000 SNRA RMK QBB150', 'UMOO 030900Z 23004MPS 3500 -SNRA BR OVC004 00/M01 Q0995 TEMPO 2000 SNRA RMK QBB120', 'UMOO 030800Z 22004MPS 2000 SNRA BR OVC004 M00/M00 Q0996 NOSIG RMK QBB120', 'UMOO 030700Z 20005G09MPS 1300 R31/1300 SNRA BR OVC003 M00/M01 Q0996 NOSIG RMK QBB090', 'UMOO 030600Z 19005G08MPS 1300 R31/1300 SNRA BR OVC003 M00/M01 Q0997 NOSIG RMK QBB090', 'UMOO 030500Z 19005G08MPS 2100 -SN BR OVC004 M00/M01 Q0998 NOSIG RMK QBB120', 'UMOO 030400Z 18006MPS 3300 -SN BR OVC006 M01/M02 Q1000 NOSIG RMK QBB180', 'UMOO 021300Z 27007G11MPS CAVOK 02/M05 Q1010 NOSIG', 'UMOO 021200Z 29008G12MPS CAVOK 02/M04 Q1011 NOSIG', 'UMOO 021100Z 28008G11MPS CAVOK 02/M03 Q1011 NOSIG', 'UMOO 021000Z 28008G11MPS CAVOK 01/M04 Q1011 NOSIG', 'UMOO 020900Z 28008G11MPS 9999 FEW016 00/M04 Q1011 NOSIG', 'UMOO 020800Z 28008G11MPS 9999 FEW016 M00/M04 Q1011 NOSIG', 'UMOO 020700Z 28007G10MPS 9999 FEW026 M01/M05 Q1010 NOSIG', 'UMOO 020600Z 28009G12MPS 9999 FEW030 M01/M04 Q1009 NOSIG', 'UMOO 020500Z 30009G12MPS 9999 SCT031 M00/M03 Q1008 NOSIG', 'UMOO 020400Z 28008G11MPS 9999 BKN029 00/M03 Q1007 NOSIG', 'UMOO 011300Z 25006G09MPS 9999 OVC021 02/M02 Q1007 NOSIG', 'UMOO 011200Z 25007G10MPS 9999 OVC022 02/M02 Q1008 NOSIG', 'UMOO 011100Z 24008G11MPS 9999 OVC019 02/M02 Q1009 NOSIG', 'UMOO 011000Z 25007G10MPS 9999 OVC018 01/M02 Q1009 NOSIG', 'UMOO 010900Z 25008G11MPS 9999 OVC019 01/M02 Q1010 NOSIG', 'UMOO 010800Z 23006G09MPS 9999 OVC017 02/M01 Q1011 NOSIG', 'UMOO 010700Z 24005G08MPS 8000 BKN017 02/M01 Q1012 NOSIG', 'UMOO 010600Z 25006G10MPS 8000 BKN017 02/M00 Q1012 NOSIG', 'UMOO 010500Z 24004MPS 4600 BR BKN009 OVC025 02/01 Q1013 NOSIG', 'UMOO 010430Z 22004MPS 3200 BR OVC007 01/01 Q1015 NOSIG', 'UMOO 010400Z 22004MPS 1900 BR OVC002 01/01 Q1015 NOSIG RMK QBB060']","['2024-02-03 13:00:00', '2024-02-03 12:00:00', '2024-02-03 11:00:00', '2024-02-03 10:00:00', '2024-02-03 09:00:00', '2024-02-03 08:00:00', '2024-02-03 07:00:00', '2024-02-03 06:00:00', '2024-02-03 05:00:00', '2024-02-03 04:00:00', '2024-02-02 13:00:00', '2024-02-02 12:00:00', '2024-02-02 11:00:00', '2024-02-02 10:00:00', '2024-02-02 09:00:00', '2024-02-02 08:00:00', '2024-02-02 07:00:00', '2024-02-02 06:00:00', '2024-02-02 05:00:00', '2024-02-02 04:00:00', '2024-02-01 13:00:00', '2024-02-01 12:00:00', '2024-02-01 11:00:00', '2024-02-01 10:00:00', '2024-02-01 09:00:00', '2024-02-01 08:00:00', '2024-02-01 07:00:00', '2024-02-01 06:00:00', '2024-02-01 05:00:00', '2024-02-01 04:30:00', '2024-02-01 04:00:00']"
Belarus, Vitebsk Vostochny Airport (VTB/UMII) ,"['UMII 031600Z 26005G08MPS 2900 -DZ BR OVC002 03/03 Q0990 TEMPO 2000 DZ RMK QBB060', 'UMII 031500Z 26004G07MPS 2800 -DZ BR OVC002 02/02 Q0990 TEMPO 2000 DZ RMK QBB060', 'UMII 031400Z 26005G08MPS 2400 -DZ BR OVC002 02/02 Q0990 TEMPO 1900 DZ RMK QBB060', 'UMII 031300Z 26005MPS 2800 -DZ BR OVC002 01/00 Q0990 TEMPO 2000 DZ RMK QBB060', 'UMII 031200Z 27005MPS 2800 -DZ BR OVC002 01/00 Q0990 TEMPO 2000 DZ RMK QBB070', 'UMII 031100Z 25004MPS 2600 -DZ BR OVC002 01/00 Q0990 TEMPO 2000 DZ RMK QBB060', 'UMII 031053Z 25004MPS 2600 -DZ BR OVC002 00/M00 Q0990 TEMPO 2000 DZ RMK QBB060', 'UMII 031000Z 24004MPS 3900 -SNRA OVC003 00/M00 Q0990 TEMPO 2000 SNRA OVC002 RMK QBB090', 'UMII 030943Z 22004MPS 3100 -SN OVC003 M00/M00 Q0990 TEMPO 2000 SN OVC002 RMK QBB090', 'UMII 030927Z 22004MPS 1800 SN OVC003 M00/M00 Q0991 TEMPO 1400 OVC002 RMK QBB090', 'UMII 030800Z 20004MPS 1100 R23/1100 SN OVC003 M00/M01 Q0991 TEMPO 0900 +SN OVC002 RMK QBB090', 'UMII 030700Z 19005G08MPS 0900 +SN VV003 M01/M01 Q0992 TEMPO 0700 BKN002 RMK QBB090', 'UMII 030617Z 18005G08MPS 1300 SN OVC004 M01/M02 Q0993 TEMPO 0900 +SN BKN003 RMK QBB120', 'UMII 030523Z 18006G09MPS 1200 R23/1200 SN BLSN OVC003 M02/M02 Q0995 TEMPO 0900 +SN BKN002 RMK QBB110', 'UMII 021300Z 27006G09MPS 9999 BKN026CB 00/M06 Q1006 TEMPO 2000 SHSNRA BKN005', 'UMII 021200Z 27006G09MPS 9999 BKN026 00/M05 Q1007 TEMPO 2000 SHSNRA BKN005 BKN012CB', 'UMII 021100Z 28008G13MPS 9999 SCT026 SCT100 00/M05 Q1007 TEMPO 2000 SHSNRA BKN005 BKN012CB', 'UMII 021000Z 28008G12MPS 9999 BKN023 M01/M05 Q1007 TEMPO BKN010', 'UMII 020900Z 28007G11MPS 9999 SCT020 M01/M05 Q1007 TEMPO BKN010', 'UMII 020800Z 28007G11MPS 9999 SCT020 M02/M05 Q1006 TEMPO BKN010', 'UMII 020700Z 26007G11MPS 9999 FEW020 M02/M05 Q1006 NOSIG', 'UMII 020600Z 28005G08MPS 9999 SCT020 M02/M05 Q1005 NOSIG', 'UMII 020500Z 30007G10MPS 9999 BKN021 M01/M04 Q1004 NOSIG', 'UMII 011300Z 23005G08MPS 1900 SNRA OVC007 00/M01 Q1003 TEMPO 1500 BKN005', 'UMII 011231Z 24007G10MPS 2200 -SNRA OVC011 01/M01 Q1003 TEMPO 1500 SNRA BKN005', 'UMII 011100Z 25009G12MPS 9999 OVC017 01/M03 Q1004 TEMPO 2000 SNRA BKN005', 'UMII 011000Z 25009G12MPS 9999 OVC017 01/M02 Q1005 TEMPO 2000 SNRA BKN005', 'UMII 010923Z 25009G12MPS 9999 OVC016 00/M02 Q1006 TEMPO 2000 SNRA BKN005', 'UMII 010800Z 24007G10MPS 9999 BKN013 M00/M02 Q1007 TEMPO 2000 SN BKN005', 'UMII 010731Z 24006G09MPS 9999 BKN014 M00/M03 Q1007 TEMPO 2000 SN BKN005', 'UMII 010600Z 24007G10MPS 9999 FEW006 OVC016 M00/M02 Q1009 TEMPO 2000 SN BKN005 RMK QBB200', 'UMII 010500Z 25005G08MPS 8000 BKN007 OVC014 01/M00 Q1010 TEMPO 2000 SNRA BKN005']","['2024-02-03 16:00:00', '2024-02-03 15:00:00', '2024-02-03 14:00:00', '2024-02-03 13:00:00', '2024-02-03 12:00:00', '2024-02-03 11:00:00', '2024-02-03 10:53:00', '2024-02-03 10:00:00', '2024-02-03 09:43:00', '2024-02-03 09:27:00', '2024-02-03 08:00:00', '2024-02-03 07:00:00', '2024-02-03 06:17:00', '2024-02-03 05:23:00', '2024-02-02 13:00:00', '2024-02-02 12:00:00', '2024-02-02 11:00:00', '2024-02-02 10:00:00', '2024-02-02 09:00:00', '2024-02-02 08:00:00', '2024-02-02 07:00:00', '2024-02-02 06:00:00', '2024-02-02 05:00:00', '2024-02-01 13:00:00', '2024-02-01 12:31:00', '2024-02-01 11:00:00', '2024-02-01 10:00:00', '2024-02-01 09:23:00', '2024-02-01 08:00:00', '2024-02-01 07:31:00', '2024-02-01 06:00:00', '2024-02-01 05:00:00']"
Belgium, Antwerp International Airport (ANR/EBAW) ,"['EBAW 032220Z AUTO 23010KT 7000 DZRA BKN006/// OVC007/// 10/09 Q1026', 'EBAW 032150Z 23009KT 9999 -RA BKN009 10/09 Q1026 TEMPO 4000 -RADZ', 'EBAW 032120Z 23010KT 9999 -RA BKN009 10/09 Q1026 TEMPO 4000 -RADZ', 'EBAW 032050Z 23009KT 9999 -RA BKN009 10/09 Q1026 TEMPO 4000 -RADZ', 'EBAW 032020Z 24008KT 8000 -RA BKN009 10/09 Q1027 TEMPO 4000 -RADZ', 'EBAW 031950Z 24009KT 9999 -RA BKN010 10/08 Q1026 TEMPO 4000 -RADZ BKN007', 'EBAW 031920Z 24010KT 210V270 9999 BKN010 11/08 Q1026 TEMPO 4000 -DZRA BKN007', 'EBAW 031850Z 24012KT 9999 BKN011 11/08 Q1026 TEMPO BKN009', 'EBAW 031820Z 23009KT 9999 BKN013 11/09 Q1026 NOSIG', 'EBAW 031750Z 23009KT 210V270 9999 BKN013 10/09 Q1026 NOSIG', 'EBAW 031720Z 23010KT 9999 -RA BKN012 11/08 Q1026 NOSIG', 'EBAW 031650Z 24009KT 9999 BKN010 11/09 Q1026 NOSIG', 'EBAW 031620Z 24009KT 9999 BKN010 11/09 Q1026 TEMPO SCT012 SCT018', 'EBAW 031550Z 24010KT 9999 BKN012 11/09 Q1027 NOSIG', 'EBAW 031520Z 25009KT 9999 BKN012 11/09 Q1027 BECMG FEW012 BKN018', 'EBAW 031450Z 25010KT 9999 BKN011 11/09 Q1027 NOSIG', 'EBAW 031420Z 25010KT 9999 BKN009 11/09 Q1026 NOSIG', 'EBAW 031350Z 25012KT 8000 -DZ BKN009 10/09 Q1027 NOSIG', 'EBAW 031320Z 25011KT 8000 -DZ BKN009 10/09 Q1027 NOSIG', 'EBAW 031250Z 25011KT 9999 BKN010 10/08 Q1027 NOSIG', 'EBAW 031220Z 25012KT 9999 BKN008 10/08 Q1027 NOSIG', 'EBAW 031150Z 25010KT 220V280 9999 BKN008 10/08 Q1027 NOSIG', 'EBAW 031120Z 24011KT 9999 BKN009 10/08 Q1027 NOSIG', 'EBAW 031050Z 24010KT 9999 BKN007 10/08 Q1028 NOSIG', 'EBAW 031020Z 25009KT 210V270 6000 -DZ BKN008 10/08 Q1028 TEMPO 2500 -DZRA', 'EBAW 030950Z 26009KT 8000 -DZ BKN009 10/08 Q1028 TEMPO 2500 -DZRA', 'EBAW 030920Z 26009KT 9999 BKN011 10/08 Q1028 TEMPO 2500 -DZRA BECMG BKN008', 'EBAW 030850Z 25008KT 9999 BKN013 10/08 Q1027 NOSIG', 'EBAW 030820Z 25011KT 9999 BKN013 10/08 Q1027 NOSIG', 'EBAW 030750Z 25010KT 9999 BKN013 10/08 Q1027 NOSIG', 'EBAW 030720Z 25009KT 9999 BKN013 10/08 Q1027 NOSIG', 'EBAW 030650Z 24010KT 9999 SCT025 BKN040 10/08 Q1027 NOSIG', 'EBAW 030620Z 24009KT 9999 FEW025 BKN040 10/08 Q1027 NOSIG', 'EBAW 030550Z 24010KT 9999 FEW015 BKN025 10/08 Q1027 NOSIG', 'EBAW 030520Z 23008KT 9999 FEW008 SCT035 10/08 Q1027 REDZ NOSIG', 'EBAW 030450Z AUTO 22010KT 9999 -DZ FEW009/// SCT010/// OVC037/// 10/08 Q1027', 'EBAW 030420Z AUTO 22011KT 9999 -DZ FEW011/// SCT016/// BKN019/// 10/08 Q1027', 'EBAW 030350Z AUTO 23010KT 9999 // OVC022/// 10/07 Q1027', 'EBAW 030320Z AUTO 22007KT 9999 // OVC025/// 10/07 Q1027', 'EBAW 030250Z AUTO 23008KT 9999 // OVC028/// 10/07 Q1027', 'EBAW 030220Z AUTO 23009KT 9999 // OVC030/// 10/07 Q1028', 'EBAW 030150Z AUTO 22008KT 9999 // OVC030/// 10/07 Q1028', 'EBAW 030120Z AUTO 23008KT 9999 // SCT018/// OVC021/// 10/08 Q1028', 'EBAW 030050Z AUTO 23008KT 9999 -DZ BKN016/// OVC018/// 10/08 Q1028', 'EBAW 030020Z AUTO 23008KT 9999 // BKN015/// OVC017/// 10/07 Q1028', 'EBAW 022350Z AUTO 24008KT 9999 // BKN013/// OVC015/// 10/07 Q1028', 'EBAW 022320Z AUTO 24009KT 9999 // BKN012/// OVC014/// 09/07 Q1028', 'EBAW 022250Z AUTO 24009KT 9999 // BKN009/// OVC011/// 09/07 Q1028', 'EBAW 022220Z 24012KT 9999 BKN009 09/07 Q1028 NOSIG', 'EBAW 022150Z 24013KT 9999 FEW009 BKN011 09/07 Q1028 NOSIG', 'EBAW 022120Z 25013KT 9999 FEW009 BKN011 09/07 Q1028 NOSIG', 'EBAW 022050Z 24012KT 9999 FEW009 BKN012 10/07 Q1029 NOSIG', 'EBAW 022020Z 25011KT 9999 FEW009 BKN012 10/07 Q1029 TEMPO BKN009', 'EBAW 021950Z 25013KT 9999 FEW009 BKN012 10/07 Q1028 TEMPO BKN009', 'EBAW 021920Z 24012KT 9999 FEW009 BKN012 10/07 Q1028 TEMPO BKN009', 'EBAW 021850Z 24012KT 9999 FEW009 BKN012 10/07 Q1028 TEMPO BKN009', 'EBAW 021820Z 24014KT 9999 FEW009 BKN012 10/07 Q1028 TEMPO BKN009', 'EBAW 021750Z 24013KT 210V270 9999 FEW009 BKN012 10/07 Q1028 TEMPO BKN009', 'EBAW 021720Z 23010KT 9999 SCT009 BKN012 10/08 Q1028 TEMPO BKN009', 'EBAW 021650Z 22008KT 9999 SCT009 BKN012 09/07 Q1028 TEMPO BKN009', 'EBAW 021620Z 22010KT 9999 SCT009 BKN012 09/07 Q1028 TEMPO BKN009', 'EBAW 021550Z 22011KT 9999 SCT009 BKN012 09/07 Q1028 TEMPO BKN009', 'EBAW 021520Z 21011KT 180V240 9999 SCT009 BKN012 09/07 Q1028 TEMPO BKN009', 'EBAW 021450Z 21008KT 9000 BKN009 09/07 Q1028 TEMPO BKN011', 'EBAW 021420Z 21009KT 9000 BKN009 09/07 Q1028 TEMPO BKN011', 'EBAW 021350Z 22009KT 8000 BKN007 09/07 Q1028 NOSIG', 'EBAW 021320Z 22010KT 190V250 8000 BKN007 08/06 Q1028 NOSIG', 'EBAW 021250Z 23011KT 9000 BKN007 08/06 Q1029 NOSIG', 'EBAW 021220Z 22010KT 9000 BKN007 08/06 Q1029 NOSIG', 'EBAW 021150Z 23011KT 190V270 9000 BKN007 08/06 Q1029 NOSIG', 'EBAW 021120Z 23011KT 9999 BKN007 08/06 Q1029 NOSIG', 'EBAW 021050Z 24011KT 210V270 9999 BKN007 07/05 Q1030 NOSIG', 'EBAW 021020Z 24012KT 200V260 9999 BKN007 07/05 Q1030 NOSIG', 'EBAW 020950Z 23009KT 190V250 9999 BKN008 06/04 Q1030 NOSIG', 'EBAW 020920Z 22007KT 9999 BKN009 06/04 Q1030 NOSIG', 'EBAW 020850Z 23008KT 190V270 9999 BKN010 06/04 Q1030 BECMG BKN008', 'EBAW 020820Z 23009KT 190V260 9999 BKN010 06/04 Q1030 BECMG BKN008', 'EBAW 020750Z 23007KT 190V250 9999 BKN011 05/03 Q1030 NOSIG', 'EBAW 020720Z 23007KT 9999 FEW011 05/03 Q1030 BECMG BKN010', 'EBAW 020650Z 23008KT CAVOK 04/02 Q1030 NOSIG', 'EBAW 020620Z 21006KT CAVOK 05/03 Q1030 NOSIG', 'EBAW 020550Z 22007KT CAVOK 05/03 Q1030 NOSIG', 'EBAW 020520Z AUTO 23007KT 9999 // VV/// 05/03 Q1030', 'EBAW 020450Z AUTO 21006KT 9999 // VV/// 05/02 Q1030', 'EBAW 020420Z AUTO 22006KT 190V250 9999 // VV/// 05/02 Q1030', 'EBAW 020350Z AUTO 22006KT CAVOK 05/02 Q1030', 'EBAW 020320Z AUTO 22007KT 190V250 CAVOK 05/02 Q1031', 'EBAW 020250Z AUTO 22007KT CAVOK 05/02 Q1031', 'EBAW 020220Z AUTO 23005KT CAVOK 05/02 Q1032', 'EBAW 020150Z AUTO 23007KT 200V260 CAVOK 05/02 Q1032', 'EBAW 020120Z AUTO 22007KT CAVOK 05/02 Q1032', 'EBAW 020050Z AUTO 23008KT CAVOK 05/02 Q1032', 'EBAW 020020Z AUTO 24008KT CAVOK 05/02 Q1032', 'EBAW 012350Z AUTO 25006KT CAVOK 05/03 Q1033', 'EBAW 012320Z AUTO 24007KT CAVOK 05/03 Q1033', 'EBAW 012250Z AUTO 23007KT CAVOK 05/03 Q1033', 'EBAW 012220Z AUTO 23007KT CAVOK 05/03 Q1033', 'EBAW 012150Z 24006KT CAVOK 05/03 Q1034 NOSIG', 'EBAW 012120Z 24004KT 210V270 CAVOK 05/03 Q1033 NOSIG', 'EBAW 012050Z 26006KT CAVOK 05/03 Q1034 NOSIG', 'EBAW 012020Z 26005KT CAVOK 05/03 Q1034 NOSIG', 'EBAW 011950Z 26006KT CAVOK 05/03 Q1034 NOSIG', 'EBAW 011920Z 27005KT CAVOK 05/02 Q1034 NOSIG', 'EBAW 011850Z 27004KT CAVOK 06/02 Q1034 NOSIG', 'EBAW 011820Z 27005KT CAVOK 06/02 Q1033 NOSIG', 'EBAW 011750Z 28007KT CAVOK 06/02 Q1034 NOSIG', 'EBAW 011720Z 29008KT CAVOK 07/02 Q1033 NOSIG', 'EBAW 011650Z 28006KT CAVOK 07/03 Q1033 NOSIG', 'EBAW 011620Z 27005KT CAVOK 08/02 Q1033 NOSIG', 'EBAW 011550Z 29008KT 9999 FEW025 08/02 Q1033 NOSIG', 'EBAW 011520Z 28008KT 9999 FEW025 08/03 Q1033 NOSIG', 'EBAW 011450Z 27008KT 9999 FEW025 09/03 Q1033 NOSIG', 'EBAW 011420Z 28008KT 9999 FEW025 09/03 Q1033 NOSIG', 'EBAW 011350Z 28007KT 260V320 9999 FEW025 09/03 Q1032 NOSIG', 'EBAW 011320Z 31007KT 9999 FEW027 09/02 Q1033 NOSIG', 'EBAW 011250Z 31008KT 9999 FEW027 09/02 Q1033 NOSIG', 'EBAW 011220Z 30008KT 270V330 9999 FEW025 09/02 Q1033 NOSIG', 'EBAW 011150Z 31008KT 9999 FEW024 09/03 Q1033 NOSIG', 'EBAW 011120Z 31009KT 9999 FEW020 08/03 Q1033 NOSIG', 'EBAW 011050Z 30007KT CAVOK 08/03 Q1033 NOSIG', 'EBAW 011020Z 27008KT CAVOK 07/03 Q1033 NOSIG', 'EBAW 010950Z 28007KT CAVOK 07/03 Q1032 NOSIG', 'EBAW 010920Z 28006KT CAVOK 07/03 Q1032 NOSIG', 'EBAW 010850Z 28005KT 250V310 CAVOK 07/03 Q1031 NOSIG', 'EBAW 010820Z 31005KT 260V320 CAVOK 07/02 Q1031 NOSIG', 'EBAW 010750Z 30004KT CAVOK 06/02 Q1031 NOSIG', 'EBAW 010720Z 31006KT CAVOK 06/02 Q1030 NOSIG', 'EBAW 010650Z 32007KT 9999 FEW035 07/02 Q1030 NOSIG', 'EBAW 010620Z 33006KT 9999 FEW035 07/02 Q1029 NOSIG', 'EBAW 010550Z 32006KT 9999 BKN035 07/02 Q1028 NOSIG', 'EBAW 010520Z 33008KT 9999 FEW030 BKN037 08/03 Q1028 NOSIG', 'EBAW 010450Z AUTO 31009KT 9999 // FEW014/// OVC038/// 08/06 Q1028', 'EBAW 010420Z AUTO 31013KT 9999 -RA BKN009/// OVC010/// 09/08 Q1027', 'EBAW 010350Z AUTO 28010KT 9999 // FEW009/// SCT010/// BKN012/// 10/08 Q1026', 'EBAW 010320Z AUTO 27009KT 9999 // FEW007/// BKN009/// OVC011/// 09/09 Q1026 REDZRA', 'EBAW 010250Z AUTO 26008KT 4100 DZRA BR BKN003/// OVC005/// 09/08 Q1026', 'EBAW 010220Z AUTO 24009KT 4900 DZRA BR SCT004/// BKN006/// OVC007/// 08/08 Q1026', 'EBAW 010150Z AUTO 24009KT 7000 DZRA BKN005/// BKN006/// OVC009/// 08/07 Q1026', 'EBAW 010120Z AUTO 23011KT 5000 DZRA SCT006/// BKN008/// OVC009/// 08/07 Q1026', 'EBAW 010050Z AUTO 23010KT 9999 -RA SCT011/// BKN014/// OVC016/// 08/07 Q1026', 'EBAW 010020Z AUTO 23011KT 9999 -RA OVC013/// 08/06 Q1026', 'EBAW 312350Z AUTO 23012KT 9999 -RA OVC014/// 09/05 Q1026', 'EBAW 312320Z AUTO 24013G23KT 9999 // OVC015/// 09/05 Q1026']","['2024-02-03 22:20:00', '2024-02-03 21:50:00', '2024-02-03 21:20:00', '2024-02-03 20:50:00', '2024-02-03 20:20:00', '2024-02-03 19:50:00', '2024-02-03 19:20:00', '2024-02-03 18:50:00', '2024-02-03 18:20:00', '2024-02-03 17:50:00', '2024-02-03 17:20:00', '2024-02-03 16:50:00', '2024-02-03 16:20:00', '2024-02-03 15:50:00', '2024-02-03 15:20:00', '2024-02-03 14:50:00', '2024-02-03 14:20:00', '2024-02-03 13:50:00', '2024-02-03 13:20:00', '2024-02-03 12:50:00', '2024-02-03 12:20:00', '2024-02-03 11:50:00', '2024-02-03 11:20:00', '2024-02-03 10:50:00', '2024-02-03 10:20:00', '2024-02-03 09:50:00', '2024-02-03 09:20:00', '2024-02-03 08:50:00', '2024-02-03 08:20:00', '2024-02-03 07:50:00', '2024-02-03 07:20:00', '2024-02-03 06:50:00', '2024-02-03 06:20:00', '2024-02-03 05:50:00', '2024-02-03 05:20:00', '2024-02-03 04:50:00', '2024-02-03 04:20:00', '2024-02-03 03:50:00', '2024-02-03 03:20:00', '2024-02-03 02:50:00', '2024-02-03 02:20:00', '2024-02-03 01:50:00', '2024-02-03 01:20:00', '2024-02-03 00:50:00', '2024-02-03 00:20:00', '2024-02-02 23:50:00', '2024-02-02 23:20:00', '2024-02-02 22:50:00', '2024-02-02 22:20:00', '2024-02-02 21:50:00', '2024-02-02 21:20:00', '2024-02-02 20:50:00', '2024-02-02 20:20:00', '2024-02-02 19:50:00', '2024-02-02 19:20:00', '2024-02-02 18:50:00', '2024-02-02 18:20:00', '2024-02-02 17:50:00', '2024-02-02 17:20:00', '2024-02-02 16:50:00', '2024-02-02 16:20:00', '2024-02-02 15:50:00', '2024-02-02 15:20:00', '2024-02-02 14:50:00', '2024-02-02 14:20:00', '2024-02-02 13:50:00', '2024-02-02 13:20:00', '2024-02-02 12:50:00', '2024-02-02 12:20:00', '2024-02-02 11:50:00', '2024-02-02 11:20:00', '2024-02-02 10:50:00', '2024-02-02 10:20:00', '2024-02-02 09:50:00', '2024-02-02 09:20:00', '2024-02-02 08:50:00', '2024-02-02 08:20:00', '2024-02-02 07:50:00', '2024-02-02 07:20:00', '2024-02-02 06:50:00', '2024-02-02 06:20:00', '2024-02-02 05:50:00', '2024-02-02 05:20:00', '2024-02-02 04:50:00', '2024-02-02 04:20:00', '2024-02-02 03:50:00', '2024-02-02 03:20:00', '2024-02-02 02:50:00', '2024-02-02 02:20:00', '2024-02-02 01:50:00', '2024-02-02 01:20:00', '2024-02-02 00:50:00', '2024-02-02 00:20:00', '2024-02-01 23:50:00', '2024-02-01 23:20:00', '2024-02-01 22:50:00', '2024-02-01 22:20:00', '2024-02-01 21:50:00', '2024-02-01 21:20:00', '2024-02-01 20:50:00', '2024-02-01 20:20:00', '2024-02-01 19:50:00', '2024-02-01 19:20:00', '2024-02-01 18:50:00', '2024-02-01 18:20:00', '2024-02-01 17:50:00', '2024-02-01 17:20:00', '2024-02-01 16:50:00', '2024-02-01 16:20:00', '2024-02-01 15:50:00', '2024-02-01 15:20:00', '2024-02-01 14:50:00', '2024-02-01 14:20:00', '2024-02-01 13:50:00', '2024-02-01 13:20:00', '2024-02-01 12:50:00', '2024-02-01 12:20:00', '2024-02-01 11:50:00', '2024-02-01 11:20:00', '2024-02-01 10:50:00', '2024-02-01 10:20:00', '2024-02-01 09:50:00', '2024-02-01 09:20:00', '2024-02-01 08:50:00', '2024-02-01 08:20:00', '2024-02-01 07:50:00', '2024-02-01 07:20:00', '2024-02-01 06:50:00', '2024-02-01 06:20:00', '2024-02-01 05:50:00', '2024-02-01 05:20:00', '2024-02-01 04:50:00', '2024-02-01 04:20:00', '2024-02-01 03:50:00', '2024-02-01 03:20:00', '2024-02-01 02:50:00', '2024-02-01 02:20:00', '2024-02-01 01:50:00', '2024-02-01 01:20:00', '2024-02-01 00:50:00', '2024-02-01 00:20:00', '2024-01-31 23:50:00', '2024-01-31 23:20:00']"
Belgium, Brussels Airport (BRU/EBBR) ,"['EBBR 032220Z 24012KT 6000 -RADZ BKN007 10/09 Q1026 TEMPO 4000 -RADZ', 'EBBR 032150Z 24013KT 7000 -RA BKN007 10/09 Q1026 NOSIG', 'EBBR 032120Z 24011KT 7000 -RA BKN007 10/09 Q1027 NOSIG', 'EBBR 032050Z 24012KT 9999 -RA BKN007 10/09 Q1027 NOSIG', 'EBBR 032020Z 25013KT 9999 -RA BKN008 10/09 Q1027 NOSIG', 'EBBR 031950Z 24013KT 9999 BKN008 10/09 Q1027 NOSIG', 'EBBR 031920Z 23014KT 9999 BKN009 10/09 Q1027 NOSIG', 'EBBR 031850Z 23012KT 9999 SCT009 10/09 Q1027 BECMG BKN009', 'EBBR 031820Z 24011KT 9000 BKN008 10/09 Q1027 NOSIG', 'EBBR 031750Z 24012KT 9999 BKN008 10/09 Q1027 NOSIG', 'EBBR 031720Z 25011KT 9999 FEW007 BKN009 10/09 Q1027 NOSIG', 'EBBR 031650Z 24011KT 9999 BKN007 BKN009 10/09 Q1027 RERADZ NOSIG', 'EBBR 031620Z 25010KT 5000 RADZ FEW005 BKN007 10/09 Q1027 NOSIG', 'EBBR 031550Z 25011KT 3500 RADZ SCT005 BKN007 10/09 Q1027 NOSIG', 'EBBR 031520Z 25010KT 3500 RADZ BKN006 10/09 Q1027 NOSIG', 'EBBR 031450Z 25010KT 3500 RADZ SCT005 BKN007 10/09 Q1027 NOSIG', 'EBBR 031420Z 25010KT 6000 -RADZ BKN007 10/09 Q1027 NOSIG', 'EBBR 031350Z 25010KT 7000 -RADZ FEW006 BKN009 10/09 Q1027 NOSIG', 'EBBR 031320Z 25011KT 220V280 9999 FEW007 BKN009 11/09 Q1027 NOSIG', 'EBBR 031250Z 26013KT 9999 BKN007 10/09 Q1027 NOSIG', 'EBBR 031220Z 25011KT 9999 BKN007 10/09 Q1027 NOSIG', 'EBBR 031150Z 25010KT 9999 FEW007 BKN009 10/09 Q1028 NOSIG', 'EBBR 031120Z 25010KT 9999 -RADZ SCT008 BKN010 10/09 Q1028 TEMPO 4000 DZ', 'EBBR 031050Z 24009KT 9999 -RA FEW007 BKN009 10/09 Q1028 REDZ TEMPO 4000 DZ', 'EBBR 031020Z 26011KT 7000 -DZ FEW007 BKN011 10/09 Q1029 TEMPO 4000 -DZ', 'EBBR 030950Z 26011KT 9999 BKN010 10/08 Q1028 TEMPO 4000 -DZ', 'EBBR 030920Z 24009KT 9999 FEW009 BKN011 10/09 Q1028 TEMPO 4000 -DZ', 'EBBR 030850Z 25009KT 9999 FEW008 BKN010 10/08 Q1028 TEMPO 4000 -DZ', 'EBBR 030820Z 25011KT 9999 BKN009 BKN011 10/08 Q1028 TEMPO 4000 -DZ', 'EBBR 030750Z 25011KT 9999 BKN009 BKN011 10/08 Q1028 NOSIG', 'EBBR 030720Z 24012KT 9999 FEW009 SCT011 BKN037 10/08 Q1027 NOSIG', 'EBBR 030650Z 23012KT 9999 FEW009 BKN038 10/08 Q1027 NOSIG', 'EBBR 030620Z 24010KT 9999 FEW009 BKN028 10/08 Q1027 NOSIG', 'EBBR 030550Z 23011KT 9999 FEW009 BKN037 10/08 Q1027 NOSIG', 'EBBR 030520Z 23011KT 9999 SCT010 BKN028 10/08 Q1027 TEMPO BKN009', 'EBBR 030450Z 24010KT 9999 SCT010 BKN024 10/08 Q1028 TEMPO BKN009', 'EBBR 030420Z 23011KT 9999 SCT009 BKN030 09/08 Q1028 TEMPO BKN009', 'EBBR 030350Z 23010KT 9999 BKN030 09/08 Q1028 NOSIG', 'EBBR 030320Z 23010KT 9999 BKN020 09/08 Q1028 NOSIG', 'EBBR 030250Z 23010KT 9999 SCT015 BKN020 09/08 Q1028 NOSIG', 'EBBR 030220Z 24009KT 9999 FEW010 BKN016 09/08 Q1028 NOSIG', 'EBBR 030150Z 24009KT 9999 SCT014 BKN018 09/08 Q1028 NOSIG', 'EBBR 030120Z 24009KT 9999 BKN012 BKN016 09/08 Q1028 NOSIG', 'EBBR 030050Z 25009KT 9999 BKN012 09/08 Q1028 NOSIG', 'EBBR 030020Z 24011KT 9999 SCT009 BKN012 09/08 Q1029 NOSIG', 'EBBR 022350Z 24011KT 9999 BKN009 09/08 Q1029 NOSIG', 'EBBR 022320Z 25011KT 9999 BKN008 09/08 Q1029 NOSIG', 'EBBR 022250Z 25012KT 9999 FEW008 BKN009 09/08 Q1029 NOSIG', 'EBBR 022220Z 26011KT 9999 FEW008 BKN009 09/07 Q1029 NOSIG', 'EBBR 022150Z 25012KT 9999 BKN010 09/07 Q1029 NOSIG', 'EBBR 022120Z 25014KT 9999 BKN010 09/07 Q1029 NOSIG', 'EBBR 022050Z 26014KT 9999 BKN010 09/08 Q1029 NOSIG', 'EBBR 022020Z 25012KT 9999 BKN010 09/08 Q1029 NOSIG', 'EBBR 021950Z 24013KT 9999 BKN009 09/08 Q1029 NOSIG', 'EBBR 021920Z 24015KT 9999 BKN009 09/08 Q1029 NOSIG', 'EBBR 021850Z 23016KT 8000 SCT005 BKN007 09/07 Q1028 NOSIG', 'EBBR 021820Z 24015KT 8000 BKN005 09/07 Q1028 NOSIG', 'EBBR 021750Z 24016KT 8000 BKN005 08/07 Q1028 NOSIG', 'EBBR 021720Z 23014KT 7000 BKN005 08/07 Q1028 NOSIG', 'EBBR 021650Z 23016KT 7000 BKN005 08/07 Q1028 NOSIG', 'EBBR 021620Z 23015KT 7000 BKN005 08/07 Q1028 NOSIG', 'EBBR 021550Z 24015KT 7000 BKN005 08/07 Q1028 NOSIG', 'EBBR 021520Z 23015KT 7000 BKN005 08/07 Q1028 NOSIG', 'EBBR 021450Z 23014KT 7000 BKN005 08/07 Q1028 NOSIG', 'EBBR 021420Z 23013KT 7000 BKN006 08/07 Q1029 NOSIG', 'EBBR 021350Z 23016KT 7000 BKN005 08/06 Q1029 NOSIG', 'EBBR 021320Z 23015KT 7000 BKN005 08/06 Q1029 NOSIG', 'EBBR 021250Z 23015KT 7000 BKN005 07/06 Q1029 NOSIG', 'EBBR 021220Z 23013KT 6000 FEW004 BKN005 07/06 Q1030 TEMPO 4000 BR BKN004', 'EBBR 021150Z 23013KT 6000 FEW004 BKN005 07/06 Q1030 TEMPO 4000 BR BKN004', 'EBBR 021120Z 24013KT 6000 BKN005 07/05 Q1030 TEMPO 4000 BR BKN004', 'EBBR 021050Z 24012KT 6000 BKN005 06/05 Q1030 NOSIG', 'EBBR 021020Z 24013KT 6000 BKN005 06/05 Q1030 NOSIG', 'EBBR 020950Z 24012KT 9000 BKN006 05/04 Q1031 NOSIG', 'EBBR 020920Z 24013KT 9999 BKN008 05/04 Q1030 NOSIG', 'EBBR 020850Z 24012KT 9999 BKN008 05/03 Q1030 NOSIG', 'EBBR 020820Z 24013KT 9999 SCT010 05/02 Q1030 BECMG BKN008', 'EBBR 020750Z 24011KT 9999 FEW008 05/02 Q1031 BECMG BKN008', 'EBBR 020720Z 23011KT CAVOK 05/02 Q1030 BECMG BKN008', 'EBBR 020650Z 23012KT CAVOK 05/02 Q1030 NOSIG', 'EBBR 020620Z 23012KT CAVOK 05/02 Q1030 NOSIG', 'EBBR 020550Z 23012KT CAVOK 05/02 Q1030 NOSIG', 'EBBR 020520Z 23011KT CAVOK 05/02 Q1030 NOSIG', 'EBBR 020450Z 23013KT CAVOK 05/02 Q1031 NOSIG', 'EBBR 020420Z 24010KT CAVOK 05/02 Q1031 NOSIG', 'EBBR 020350Z 24011KT CAVOK 05/02 Q1031 NOSIG', 'EBBR 020320Z 25010KT CAVOK 05/02 Q1031 NOSIG', 'EBBR 020250Z 24010KT CAVOK 05/01 Q1032 NOSIG', 'EBBR 020220Z 24008KT CAVOK 05/02 Q1032 NOSIG', 'EBBR 020150Z 24007KT CAVOK 05/02 Q1032 NOSIG', 'EBBR 020120Z 24008KT CAVOK 05/02 Q1032 NOSIG', 'EBBR 020050Z 23007KT CAVOK 05/02 Q1032 NOSIG', 'EBBR 020020Z 23006KT CAVOK 05/03 Q1033 NOSIG', 'EBBR 012350Z 22006KT CAVOK 05/03 Q1033 NOSIG', 'EBBR 012320Z 22005KT CAVOK 04/03 Q1033 NOSIG', 'EBBR 012250Z 23006KT CAVOK 05/03 Q1033 NOSIG', 'EBBR 012220Z 24005KT CAVOK 05/03 Q1034 NOSIG', 'EBBR 012150Z 22004KT CAVOK 04/03 Q1034 NOSIG', 'EBBR 012120Z 23004KT CAVOK 05/03 Q1034 NOSIG', 'EBBR 012050Z 25005KT CAVOK 04/02 Q1034 NOSIG', 'EBBR 012020Z 26006KT CAVOK 04/02 Q1034 NOSIG', 'EBBR 011950Z 25006KT CAVOK 04/01 Q1034 NOSIG', 'EBBR 011920Z 25004KT CAVOK 04/00 Q1033 NOSIG', 'EBBR 011850Z 23005KT CAVOK 04/01 Q1033 NOSIG', 'EBBR 011820Z 26004KT CAVOK 05/01 Q1034 NOSIG', 'EBBR 011750Z 25004KT CAVOK 04/01 Q1033 NOSIG', 'EBBR 011720Z 28003KT CAVOK 06/01 Q1033 NOSIG', 'EBBR 011650Z 29002KT CAVOK 06/01 Q1033 NOSIG', 'EBBR 011620Z 31004KT CAVOK 07/02 Q1033 NOSIG', 'EBBR 011550Z 31006KT 9999 FEW035 08/01 Q1033 NOSIG', 'EBBR 011520Z 32005KT 9999 FEW034 08/02 Q1033 NOSIG', 'EBBR 011450Z 32007KT 9999 FEW035 08/01 Q1033 NOSIG', 'EBBR 011420Z 31006KT 9999 FEW033 09/02 Q1033 NOSIG', 'EBBR 011350Z 30007KT 9999 FEW033 08/01 Q1032 NOSIG', 'EBBR 011320Z 30007KT 270V330 9999 FEW033 09/02 Q1033 NOSIG', 'EBBR 011250Z 31007KT 280V340 9999 FEW031 09/02 Q1033 NOSIG', 'EBBR 011220Z 32007KT 9999 FEW026 09/02 Q1033 NOSIG', 'EBBR 011150Z 31006KT 280V340 CAVOK 08/03 Q1033 NOSIG', 'EBBR 011120Z 31006KT 290V350 CAVOK 08/04 Q1033 NOSIG', 'EBBR 011050Z 32006KT CAVOK 08/03 Q1033 NOSIG', 'EBBR 011020Z 32007KT CAVOK 07/03 Q1033 NOSIG', 'EBBR 010950Z 32005KT 290V350 CAVOK 07/03 Q1032 NOSIG', 'EBBR 010920Z 30004KT CAVOK 07/03 Q1032 NOSIG', 'EBBR 010850Z 31003KT CAVOK 07/04 Q1032 NOSIG', 'EBBR 010820Z 32004KT CAVOK 06/04 Q1031 NOSIG', 'EBBR 010750Z 33005KT 9999 FEW033 06/03 Q1031 NOSIG', 'EBBR 010720Z 32006KT 9999 SCT036 06/03 Q1030 NOSIG', 'EBBR 010650Z 31006KT 9999 BKN036 07/03 Q1029 NOSIG', 'EBBR 010620Z 31006KT 9999 BKN042 08/05 Q1029 NOSIG', 'EBBR 010550Z 34009KT 9999 FEW013 BKN038 08/05 Q1028 NOSIG', 'EBBR 010520Z 31009KT 9999 SCT009 BKN035 09/09 Q1028 NOSIG', 'EBBR 010450Z 28006KT 9999 FEW005 BKN009 09/08 Q1027 NOSIG', 'EBBR 010420Z 27007KT 9999 FEW005 BKN009 09/08 Q1027 BECMG FEW030', 'EBBR 010350Z 25009KT 9000 -RADZ SCT004 BKN006 09/08 Q1027 TEMPO BKN004 BECMG FEW030', 'EBBR 010320Z 25009KT 7000 -RADZ BKN008 09/08 Q1026 TEMPO BKN004 BECMG FEW030', 'EBBR 010250Z 24011KT 7000 -RADZ BKN008 09/08 Q1026 TEMPO BKN004', 'EBBR 010220Z 24011KT 6000 -RADZ BKN008 08/08 Q1026 NOSIG', 'EBBR 010150Z 24013KT 6000 -RADZ BKN009 08/07 Q1026 TEMPO 4000 -RADZ', 'EBBR 010120Z 24013KT 6000 -RADZ BKN012 08/07 Q1026 TEMPO 4000 -RADZ SCT005 BKN007', 'EBBR 010050Z 24013KT 9000 -RADZ BKN014 08/06 Q1026 TEMPO 4000 -RADZ SCT005 BKN007', 'EBBR 010020Z 24014KT 9999 -RA BKN014 09/06 Q1026 TEMPO 4000 -RADZ SCT005 BKN007', 'EBBR 312350Z 23015KT 9999 BKN014 09/05 Q1027 TEMPO 4000 -RADZ SCT005 BKN007', 'EBBR 312320Z 23015KT 9999 BKN016 09/05 Q1027 BECMG BKN012']","['2024-02-03 22:20:00', '2024-02-03 21:50:00', '2024-02-03 21:20:00', '2024-02-03 20:50:00', '2024-02-03 20:20:00', '2024-02-03 19:50:00', '2024-02-03 19:20:00', '2024-02-03 18:50:00', '2024-02-03 18:20:00', '2024-02-03 17:50:00', '2024-02-03 17:20:00', '2024-02-03 16:50:00', '2024-02-03 16:20:00', '2024-02-03 15:50:00', '2024-02-03 15:20:00', '2024-02-03 14:50:00', '2024-02-03 14:20:00', '2024-02-03 13:50:00', '2024-02-03 13:20:00', '2024-02-03 12:50:00', '2024-02-03 12:20:00', '2024-02-03 11:50:00', '2024-02-03 11:20:00', '2024-02-03 10:50:00', '2024-02-03 10:20:00', '2024-02-03 09:50:00', '2024-02-03 09:20:00', '2024-02-03 08:50:00', '2024-02-03 08:20:00', '2024-02-03 07:50:00', '2024-02-03 07:20:00', '2024-02-03 06:50:00', '2024-02-03 06:20:00', '2024-02-03 05:50:00', '2024-02-03 05:20:00', '2024-02-03 04:50:00', '2024-02-03 04:20:00', '2024-02-03 03:50:00', '2024-02-03 03:20:00', '2024-02-03 02:50:00', '2024-02-03 02:20:00', '2024-02-03 01:50:00', '2024-02-03 01:20:00', '2024-02-03 00:50:00', '2024-02-03 00:20:00', '2024-02-02 23:50:00', '2024-02-02 23:20:00', '2024-02-02 22:50:00', '2024-02-02 22:20:00', '2024-02-02 21:50:00', '2024-02-02 21:20:00', '2024-02-02 20:50:00', '2024-02-02 20:20:00', '2024-02-02 19:50:00', '2024-02-02 19:20:00', '2024-02-02 18:50:00', '2024-02-02 18:20:00', '2024-02-02 17:50:00', '2024-02-02 17:20:00', '2024-02-02 16:50:00', '2024-02-02 16:20:00', '2024-02-02 15:50:00', '2024-02-02 15:20:00', '2024-02-02 14:50:00', '2024-02-02 14:20:00', '2024-02-02 13:50:00', '2024-02-02 13:20:00', '2024-02-02 12:50:00', '2024-02-02 12:20:00', '2024-02-02 11:50:00', '2024-02-02 11:20:00', '2024-02-02 10:50:00', '2024-02-02 10:20:00', '2024-02-02 09:50:00', '2024-02-02 09:20:00', '2024-02-02 08:50:00', '2024-02-02 08:20:00', '2024-02-02 07:50:00', '2024-02-02 07:20:00', '2024-02-02 06:50:00', '2024-02-02 06:20:00', '2024-02-02 05:50:00', '2024-02-02 05:20:00', '2024-02-02 04:50:00', '2024-02-02 04:20:00', '2024-02-02 03:50:00', '2024-02-02 03:20:00', '2024-02-02 02:50:00', '2024-02-02 02:20:00', '2024-02-02 01:50:00', '2024-02-02 01:20:00', '2024-02-02 00:50:00', '2024-02-02 00:20:00', '2024-02-01 23:50:00', '2024-02-01 23:20:00', '2024-02-01 22:50:00', '2024-02-01 22:20:00', '2024-02-01 21:50:00', '2024-02-01 21:20:00', '2024-02-01 20:50:00', '2024-02-01 20:20:00', '2024-02-01 19:50:00', '2024-02-01 19:20:00', '2024-02-01 18:50:00', '2024-02-01 18:20:00', '2024-02-01 17:50:00', '2024-02-01 17:20:00', '2024-02-01 16:50:00', '2024-02-01 16:20:00', '2024-02-01 15:50:00', '2024-02-01 15:20:00', '2024-02-01 14:50:00', '2024-02-01 14:20:00', '2024-02-01 13:50:00', '2024-02-01 13:20:00', '2024-02-01 12:50:00', '2024-02-01 12:20:00', '2024-02-01 11:50:00', '2024-02-01 11:20:00', '2024-02-01 10:50:00', '2024-02-01 10:20:00', '2024-02-01 09:50:00', '2024-02-01 09:20:00', '2024-02-01 08:50:00', '2024-02-01 08:20:00', '2024-02-01 07:50:00', '2024-02-01 07:20:00', '2024-02-01 06:50:00', '2024-02-01 06:20:00', '2024-02-01 05:50:00', '2024-02-01 05:20:00', '2024-02-01 04:50:00', '2024-02-01 04:20:00', '2024-02-01 03:50:00', '2024-02-01 03:20:00', '2024-02-01 02:50:00', '2024-02-01 02:20:00', '2024-02-01 01:50:00', '2024-02-01 01:20:00', '2024-02-01 00:50:00', '2024-02-01 00:20:00', '2024-01-31 23:50:00', '2024-01-31 23:20:00']"
Belgium, Brussels South Charleroi Airport (CRL/EBCI) ,"['EBCI 032220Z 23014KT 9999 BKN006 09/08 Q1027 TEMPO 2500 -DZ', 'EBCI 032150Z 24012KT 9999 BKN006 08/07 Q1028 TEMPO 2500 -DZ', 'EBCI 032120Z 24014KT 8000 BKN005 08/08 Q1028 TEMPO 2500 -DZ', 'EBCI 032050Z 25013KT 8000 BKN005 08/08 Q1028 TEMPO 2500 -DZ', 'EBCI 032020Z 24014KT 8000 BKN005 08/08 Q1028 TEMPO 2500 -DZ', 'EBCI 031950Z 24013KT 6000 -DZ BKN003 08/08 Q1028 TEMPO 2500 -DZ', 'EBCI 031920Z 25011KT 6000 -DZ SCT003 BKN004 08/08 Q1028 TEMPO 2500 -DZ', 'EBCI 031850Z 25010KT 6000 -DZ SCT003 BKN005 08/08 Q1028 TEMPO 2500 -DZ', 'EBCI 031820Z 25009KT 8000 BKN004 08/08 Q1028 TEMPO 2500 -DZ', 'EBCI 031750Z 25010KT 6000 -DZRA SCT004 BKN006 09/08 Q1028 TEMPO 2500 DZRA BR BKN004', 'EBCI 031720Z 25010KT 4000 DZRA BR SCT004 BKN006 09/08 Q1028 TEMPO 2500 DZRA BR BKN004', 'EBCI 031650Z 26009KT 230V290 6000 -DZ SCT003 BKN005 09/08 Q1028 TEMPO 2500 DZ BR BKN004', 'EBCI 031620Z 25011KT 7000 -DZ SCT003 BKN005 09/08 Q1028 TEMPO 2500 DZ BR BKN004', 'EBCI 031550Z 25009KT 6000 -DZ SCT003 BKN004 09/08 Q1028 TEMPO 2500 DZ BR BKN004', 'EBCI 031520Z 25010KT 6000 -DZ SCT003 BKN004 09/08 Q1028 TEMPO 2500 DZ BR BKN004', 'EBCI 031450Z 25012KT 3000 -DZ BR SCT003 BKN004 09/08 Q1028 TEMPO 2500 DZ BR BKN004', 'EBCI 031420Z 25014KT 3500 DZ BR SCT003 BKN004 09/08 Q1028 TEMPO 2500 DZ BR BKN004', 'EBCI 031350Z 25012KT 3000 DZ BR FEW003 BKN004 09/08 Q1028 TEMPO 2500 DZ BR BKN004', 'EBCI 031320Z 25014KT 7000 -DZ SCT005 BKN007 09/08 Q1028 TEMPO 3500 DZ BR BKN004', 'EBCI 031250Z 24015KT 9999 -DZ SCT006 BKN008 09/08 Q1028 TEMPO 3500 DZ BR BKN004', 'EBCI 031220Z 25013KT 6000 -DZ SCT004 BKN005 09/08 Q1028 TEMPO 2500 DZ BR BKN004', 'EBCI 031150Z 24014KT 6000 -DZ SCT004 BKN005 09/08 Q1028 TEMPO 2500 DZ BR BKN004', 'EBCI 031120Z 24013KT 4000 -DZ BR SCT004 BKN005 09/08 Q1029 TEMPO 2500 DZ BR BKN004', 'EBCI 031050Z 25012KT 4000 -DZ BR SCT004 BKN005 09/08 Q1029 TEMPO 2500 DZ BR BKN004', 'EBCI 031020Z 25012KT 5000 -DZ BR SCT004 BKN005 09/08 Q1029 TEMPO 2500 DZ BR BKN004', 'EBCI 030950Z 24013KT 9999 SCT005 BKN006 09/08 Q1029 NOSIG', 'EBCI 030920Z 24011KT 9999 SCT005 BKN006 09/07 Q1029 NOSIG', 'EBCI 030850Z 24012KT 9999 SCT005 BKN006 09/07 Q1029 NOSIG', 'EBCI 030820Z 24012KT 9999 SCT005 BKN006 08/07 Q1029 TEMPO 3500 -DZ BR', 'EBCI 030750Z 23012KT 9999 SCT005 BKN006 08/07 Q1028 TEMPO 3500 -DZ BR', 'EBCI 030720Z 23012KT 9999 SCT005 BKN006 08/07 Q1028 TEMPO 3500 -DZ BR', 'EBCI 030650Z 24012KT 9999 SCT005 BKN007 08/07 Q1028 TEMPO 3500 -DZ BR', 'EBCI 030620Z 24010KT 9999 SCT005 BKN007 08/07 Q1028 TEMPO 3500 -DZ BR', 'EBCI 030550Z 24010KT 9999 BKN004 08/07 Q1028 TEMPO 3000 -DZ', 'EBCI 030520Z 25009KT 9999 BKN004 08/08 Q1029 TEMPO 3000 -DZ', 'EBCI 030450Z 25010KT 2500 BR -DZ BKN004 08/07 Q1029 NOSIG', 'EBCI 030420Z 25010KT 2500 BR -DZ BKN004 08/07 Q1029 NOSIG', 'EBCI 030350Z 24012KT 2500 BR -DZ BKN004 08/07 Q1028 NOSIG', 'EBCI 030320Z 24013KT 2500 BR -DZ BKN004 08/07 Q1029 NOSIG', 'EBCI 030250Z 24012KT 2500 BR -DZ FEW002 BKN004 08/07 Q1029 TEMPO 1200', 'EBCI 030220Z 24011KT 2500 BR -DZ FEW002 BKN004 08/07 Q1029 TEMPO 1200', 'EBCI 030150Z 24011KT 2500 BR -DZ FEW002 BKN004 08/07 Q1029 TEMPO 1200', 'EBCI 030120Z 24012KT 2500 BR -DZ FEW002 BKN004 07/07 Q1029 TEMPO 1200', 'EBCI 030050Z 24010KT 2500 BR -DZ FEW002 BKN003 07/07 Q1029 TEMPO 1200', 'EBCI 030020Z 24011KT 2500 BR -DZ FEW002 BKN003 07/07 Q1030 TEMPO 1200', 'EBCI 022350Z 24012KT 2500 BR -DZ FEW002 BKN003 07/07 Q1030 TEMPO 1200', 'EBCI 022320Z 25011KT 4000 BR FEW002 BKN003 07/07 Q1030 TEMPO 1200', 'EBCI 022250Z 25013KT 4000 BR FEW002 BKN003 07/07 Q1030 TEMPO 1200', 'EBCI 022220Z 24012KT 2000 BR SCT002 BKN003 07/07 Q1030 TEMPO 1200', 'EBCI 022150Z 24012KT 2000 BR -DZ SCT002 BKN003 07/07 Q1030 TEMPO 1200', 'EBCI 022120Z 23013KT 2000 BR -DZ SCT002 BKN003 07/06 Q1030 TEMPO 1200', 'EBCI 022050Z 23014KT 2000 BR -DZ SCT002 BKN003 07/06 Q1030 TEMPO 1200', 'EBCI 022020Z 23014KT 2000 BR -DZ SCT002 BKN003 07/06 Q1030 TEMPO 1200', 'EBCI 021950Z 22015KT 2000 BR -DZ FEW002 BKN003 06/06 Q1030 TEMPO 1200', 'EBCI 021920Z 23017KT 2000 BR -DZ FEW002 BKN003 06/06 Q1030 TEMPO 1200', 'EBCI 021850Z 23018KT 2000 BR -DZ FEW002 BKN003 06/06 Q1030 TEMPO 1200', 'EBCI 021820Z 22016KT 2000 BR -DZ FEW002 BKN003 06/06 Q1030 TEMPO 1200', 'EBCI 021750Z 23016KT 2000 BR -DZ FEW002 BKN003 06/06 Q1030 TEMPO 1200', 'EBCI 021720Z 22016KT 1600 BR -DZ SCT002 BKN003 06/06 Q1030 TEMPO 1200', 'EBCI 021650Z 22016KT 1800 BR -DZ FEW002 BKN003 06/06 Q1030 TEMPO 1200', 'EBCI 021620Z 22015KT 1800 BR FEW002 BKN003 06/05 Q1030 TEMPO 1200', 'EBCI 021550Z 22016KT 1400 R24/P2000N BR SCT002 BKN003 05/05 Q1030 NOSIG', 'EBCI 021520Z 22017KT 1800 BR FEW002 BKN003 05/05 Q1030 TEMPO 1200', 'EBCI 021450Z 22018KT 1400 R24/P2000N BR SCT002 BKN003 05/05 Q1030 NOSIG', 'EBCI 021420Z 22017KT 1200 R24/P2000N BR FEW002 BKN003 05/05 Q1030 NOSIG', 'EBCI 021350Z 22017KT 1000 R24/1700U BR FEW002 BKN003 05/05 Q1030 NOSIG', 'EBCI 021320Z 22017KT 1300 R24/1900N BR FEW002 BKN003 05/04 Q1030 NOSIG', 'EBCI 021250Z 22015KT 1200 R24/P2000N BR FEW002 BKN003 05/04 Q1031 NOSIG', 'EBCI 021220Z 21015KT 1200 R24/1900N BR SCT002 BKN003 05/04 Q1031 NOSIG', 'EBCI 021150Z 22014KT 1000 R24/1800N BR BKN002 04/04 Q1031 NOSIG', 'EBCI 021120Z 22014KT 1300 R24/P2000N BR BKN002 04/04 Q1031 NOSIG', 'EBCI 021050Z 23013KT 2200 BR FEW002 BKN003 04/03 Q1032 TEMPO 1400 -DZ', 'EBCI 021020Z 24015KT 9000 BKN004 04/02 Q1032 TEMPO 2500 -DZ', 'EBCI 020950Z 24016KT 9999 BKN008 04/02 Q1031 TEMPO 2500 -DZ', 'EBCI 020920Z 23014KT 9999 FEW008 04/02 Q1031 TEMPO BKN008', 'EBCI 020850Z 23012KT 9999 FEW008 04/01 Q1031 TEMPO BKN008', 'EBCI 020820Z 22012KT 9999 FEW008 03/01 Q1031 TEMPO BKN008', 'EBCI 020750Z 22013KT CAVOK 03/00 Q1031 TEMPO BKN008', 'EBCI 020720Z 22014KT CAVOK 03/M00 Q1031 TEMPO BKN008', 'EBCI 020650Z 22012KT CAVOK 03/M01 Q1031 TEMPO BKN008', 'EBCI 020620Z 21011KT CAVOK 03/M01 Q1031 NOSIG', 'EBCI 020550Z 22011KT CAVOK 03/M00 Q1031 NOSIG', 'EBCI 020520Z 22011KT CAVOK 03/M00 Q1031 NOSIG', 'EBCI 020450Z 22010KT CAVOK 03/00 Q1031 NOSIG', 'EBCI 020420Z 21008KT CAVOK 03/01 Q1032 NOSIG', 'EBCI 020350Z 22007KT CAVOK 03/00 Q1032 NOSIG', 'EBCI 020320Z 23007KT CAVOK 03/01 Q1032 NOSIG', 'EBCI 020250Z 23009KT CAVOK 03/01 Q1032 NOSIG', 'EBCI 020220Z 24009KT CAVOK 03/01 Q1032 NOSIG', 'EBCI 020150Z 22008KT CAVOK 03/01 Q1032 NOSIG', 'EBCI 020120Z 22007KT CAVOK 03/01 Q1033 NOSIG', 'EBCI 020050Z 21005KT CAVOK 03/01 Q1033 NOSIG', 'EBCI 020020Z 21005KT CAVOK 02/01 Q1033 NOSIG', 'EBCI 012350Z 20006KT CAVOK 02/01 Q1033 NOSIG', 'EBCI 012320Z 19006KT CAVOK 02/00 Q1033 NOSIG', 'EBCI 012250Z 22005KT CAVOK 02/00 Q1034 NOSIG', 'EBCI 012220Z 23005KT CAVOK 03/00 Q1034 NOSIG', 'EBCI 012150Z 19005KT CAVOK 03/00 Q1034 NOSIG', 'EBCI 012120Z 24005KT CAVOK 03/00 Q1034 NOSIG', 'EBCI 012050Z 27003KT 230V320 CAVOK 03/M00 Q1034 NOSIG', 'EBCI 012020Z 26005KT CAVOK 03/M00 Q1034 NOSIG', 'EBCI 011950Z 25004KT CAVOK 04/00 Q1034 NOSIG', 'EBCI 011920Z 24005KT CAVOK 04/00 Q1034 NOSIG', 'EBCI 011850Z 26003KT CAVOK 04/M00 Q1034 NOSIG', 'EBCI 011820Z 25003KT CAVOK 05/M00 Q1034 NOSIG', 'EBCI 011750Z 26003KT 230V290 9999 FEW028 05/00 Q1033 NOSIG', 'EBCI 011720Z 26003KT 9999 FEW028 06/00 Q1033 NOSIG', 'EBCI 011650Z VRB02KT 9999 FEW028 06/M00 Q1033 NOSIG', 'EBCI 011620Z 31003KT 290V360 9999 FEW028 06/00 Q1033 NOSIG', 'EBCI 011550Z 32004KT 290V010 9999 FEW025 07/00 Q1033 NOSIG', 'EBCI 011520Z 31004KT 270V340 9999 FEW025 07/00 Q1033 NOSIG', 'EBCI 011450Z 31005KT 280V350 9999 FEW025 07/00 Q1033 NOSIG', 'EBCI 011420Z 31004KT 260V010 9999 FEW025 07/01 Q1032 NOSIG', 'EBCI 011350Z 28005KT 250V360 9999 FEW025 07/01 Q1032 NOSIG', 'EBCI 011320Z 29005KT 250V340 9999 FEW025 08/00 Q1032 NOSIG', 'EBCI 011250Z 32003KT 250V040 9999 FEW025 07/00 Q1032 NOSIG', 'EBCI 011220Z 30003KT 260V020 9999 FEW025 07/01 Q1032 NOSIG', 'EBCI 011150Z 31004KT 260V360 9999 FEW025 07/01 Q1033 NOSIG', 'EBCI 011120Z 35004KT 290V030 9999 FEW025 07/02 Q1033 NOSIG', 'EBCI 011050Z 36006KT 330V030 9999 FEW020 06/02 Q1033 NOSIG', 'EBCI 011020Z 34005KT 310V020 9999 FEW020 06/03 Q1033 NOSIG', 'EBCI 010950Z 33004KT 260V010 9999 FEW035 06/03 Q1032 NOSIG', 'EBCI 010920Z 34005KT 300V030 9999 FEW035 06/03 Q1032 NOSIG', 'EBCI 010850Z 35006KT 9999 FEW020 BKN035 06/03 Q1031 NOSIG', 'EBCI 010820Z 35006KT 9999 FEW020 BKN035 06/03 Q1031 NOSIG', 'EBCI 010750Z 35007KT 9999 FEW020 BKN035 06/03 Q1030 NOSIG', 'EBCI 010720Z 33006KT 300V360 9999 FEW010 BKN025 07/03 Q1030 NOSIG', 'EBCI 010650Z 31004KT 270V350 9999 SCT005 BKN008 08/07 Q1029 BECMG SCT020', 'EBCI 010620Z 31003KT 240V360 9999 SCT004 BKN007 08/08 Q1029 BECMG SCT020', 'EBCI 010550Z 32003KT 270V030 8000 -DZ SCT002 BKN003 08/08 Q1028 BECMG SCT020', 'EBCI 010520Z 25006KT 4500 -RADZ SCT003 BKN004 08/07 Q1028 BECMG 9999 NSW SCT020', 'EBCI 010450Z 25006KT 3700 -RADZ BKN004 08/07 Q1028 BECMG 9999 NSW SCT020', 'EBCI 010420Z 25009KT 5000 -RADZ BKN004 07/07 Q1027 TEMPO 3500 -DZRA', 'EBCI 010350Z 24011KT 5000 -RADZ BKN005 07/07 Q1027 TEMPO 3500 -DZRA', 'EBCI 010320Z 24011KT 5000 -RADZ BKN005 07/07 Q1027 TEMPO 3500 -DZRA BKN004', 'EBCI 010250Z 24012KT 6000 -RADZ BKN005 07/07 Q1027 TEMPO 3500 -DZRA BKN004', 'EBCI 010220Z 24012KT 6000 -RADZ BKN005 07/07 Q1027 TEMPO 3500 -DZRA BKN004', 'EBCI 010150Z 24013KT 6000 -RADZ BKN006 07/06 Q1027 TEMPO 3500 -DZRA BKN004', 'EBCI 010120Z 23013KT 7000 -RA BKN009 08/05 Q1027 TEMPO 3500 -RADZ', 'EBCI 010050Z 23014KT 9999 -RA BKN011 08/05 Q1027 BECMG BKN008', 'EBCI 010020Z 23014KT 9999 BKN011 08/05 Q1027 BECMG BKN008', 'EBCI 312350Z 23015KT 9999 BKN012 07/04 Q1028 BECMG BKN008', 'EBCI 312320Z 23015KT 9999 BKN015 07/04 Q1028 BECMG SCT008 BKN012']","['2024-02-03 22:20:00', '2024-02-03 21:50:00', '2024-02-03 21:20:00', '2024-02-03 20:50:00', '2024-02-03 20:20:00', '2024-02-03 19:50:00', '2024-02-03 19:20:00', '2024-02-03 18:50:00', '2024-02-03 18:20:00', '2024-02-03 17:50:00', '2024-02-03 17:20:00', '2024-02-03 16:50:00', '2024-02-03 16:20:00', '2024-02-03 15:50:00', '2024-02-03 15:20:00', '2024-02-03 14:50:00', '2024-02-03 14:20:00', '2024-02-03 13:50:00', '2024-02-03 13:20:00', '2024-02-03 12:50:00', '2024-02-03 12:20:00', '2024-02-03 11:50:00', '2024-02-03 11:20:00', '2024-02-03 10:50:00', '2024-02-03 10:20:00', '2024-02-03 09:50:00', '2024-02-03 09:20:00', '2024-02-03 08:50:00', '2024-02-03 08:20:00', '2024-02-03 07:50:00', '2024-02-03 07:20:00', '2024-02-03 06:50:00', '2024-02-03 06:20:00', '2024-02-03 05:50:00', '2024-02-03 05:20:00', '2024-02-03 04:50:00', '2024-02-03 04:20:00', '2024-02-03 03:50:00', '2024-02-03 03:20:00', '2024-02-03 02:50:00', '2024-02-03 02:20:00', '2024-02-03 01:50:00', '2024-02-03 01:20:00', '2024-02-03 00:50:00', '2024-02-03 00:20:00', '2024-02-02 23:50:00', '2024-02-02 23:20:00', '2024-02-02 22:50:00', '2024-02-02 22:20:00', '2024-02-02 21:50:00', '2024-02-02 21:20:00', '2024-02-02 20:50:00', '2024-02-02 20:20:00', '2024-02-02 19:50:00', '2024-02-02 19:20:00', '2024-02-02 18:50:00', '2024-02-02 18:20:00', '2024-02-02 17:50:00', '2024-02-02 17:20:00', '2024-02-02 16:50:00', '2024-02-02 16:20:00', '2024-02-02 15:50:00', '2024-02-02 15:20:00', '2024-02-02 14:50:00', '2024-02-02 14:20:00', '2024-02-02 13:50:00', '2024-02-02 13:20:00', '2024-02-02 12:50:00', '2024-02-02 12:20:00', '2024-02-02 11:50:00', '2024-02-02 11:20:00', '2024-02-02 10:50:00', '2024-02-02 10:20:00', '2024-02-02 09:50:00', '2024-02-02 09:20:00', '2024-02-02 08:50:00', '2024-02-02 08:20:00', '2024-02-02 07:50:00', '2024-02-02 07:20:00', '2024-02-02 06:50:00', '2024-02-02 06:20:00', '2024-02-02 05:50:00', '2024-02-02 05:20:00', '2024-02-02 04:50:00', '2024-02-02 04:20:00', '2024-02-02 03:50:00', '2024-02-02 03:20:00', '2024-02-02 02:50:00', '2024-02-02 02:20:00', '2024-02-02 01:50:00', '2024-02-02 01:20:00', '2024-02-02 00:50:00', '2024-02-02 00:20:00', '2024-02-01 23:50:00', '2024-02-01 23:20:00', '2024-02-01 22:50:00', '2024-02-01 22:20:00', '2024-02-01 21:50:00', '2024-02-01 21:20:00', '2024-02-01 20:50:00', '2024-02-01 20:20:00', '2024-02-01 19:50:00', '2024-02-01 19:20:00', '2024-02-01 18:50:00', '2024-02-01 18:20:00', '2024-02-01 17:50:00', '2024-02-01 17:20:00', '2024-02-01 16:50:00', '2024-02-01 16:20:00', '2024-02-01 15:50:00', '2024-02-01 15:20:00', '2024-02-01 14:50:00', '2024-02-01 14:20:00', '2024-02-01 13:50:00', '2024-02-01 13:20:00', '2024-02-01 12:50:00', '2024-02-01 12:20:00', '2024-02-01 11:50:00', '2024-02-01 11:20:00', '2024-02-01 10:50:00', '2024-02-01 10:20:00', '2024-02-01 09:50:00', '2024-02-01 09:20:00', '2024-02-01 08:50:00', '2024-02-01 08:20:00', '2024-02-01 07:50:00', '2024-02-01 07:20:00', '2024-02-01 06:50:00', '2024-02-01 06:20:00', '2024-02-01 05:50:00', '2024-02-01 05:20:00', '2024-02-01 04:50:00', '2024-02-01 04:20:00', '2024-02-01 03:50:00', '2024-02-01 03:20:00', '2024-02-01 02:50:00', '2024-02-01 02:20:00', '2024-02-01 01:50:00', '2024-02-01 01:20:00', '2024-02-01 00:50:00', '2024-02-01 00:20:00', '2024-01-31 23:50:00', '2024-01-31 23:20:00']"
Belgium, Liege Airport (LGG/EBLG) ,"['EBLG 032220Z 23013KT 6000 -DZRA SCT004 BKN006 09/08 Q1027 TEMPO 2500 DZRA BKN004', 'EBLG 032150Z 24014KT 5000 -DZRA SCT005 BKN007 09/08 Q1027 TEMPO 2500 DZRA BKN004', 'EBLG 032120Z 24014KT 4500 -DZRA FEW005 BKN007 09/08 Q1027 TEMPO 2500 DZRA BKN004', 'EBLG 032050Z 24013KT 9999 FEW005 BKN008 09/08 Q1027 TEMPO 3500 -DZRA BKN004', 'EBLG 032020Z 23012KT 9999 SCT004 BKN007 09/08 Q1027 TEMPO 3500 -DZRA BKN004', 'EBLG 031950Z 23013KT 9000 -DZ SCT004 BKN007 09/08 Q1027 TEMPO 3500 DZ BKN004', 'EBLG 031920Z 24014KT 9999 -DZ FEW004 BKN008 09/08 Q1027 TEMPO 3500 DZ BKN004', 'EBLG 031850Z 25012KT 9999 FEW004 BKN007 BKN025 09/08 Q1027 TEMPO 3500 DZ BKN004', 'EBLG 031820Z 24013KT 9999 -DZ SCT004 BKN006 09/08 Q1027 TEMPO 3500 DZ BKN004', 'EBLG 031750Z 24012KT 8000 -DZ SCT004 BKN005 09/08 Q1027 TEMPO 3500 DZ BKN004', 'EBLG 031720Z 24013KT 4500 -DZ FEW003 SCT004 BKN005 09/08 Q1027 TEMPO 8000 NSW BKN004', 'EBLG 031650Z 25013KT 9999 SCT004 BKN006 09/08 Q1027 REDZ TEMPO 3500 DZ BKN004', 'EBLG 031620Z 24013KT 3500 DZ SCT004 BKN005 09/08 Q1027 TEMPO 8000 -DZ', 'EBLG 031550Z 25012KT 9999 -DZ SCT005 BKN006 09/08 Q1027 TEMPO 4000 -DZ', 'EBLG 031520Z 24015KT 9000 SCT005 BKN006 09/08 Q1027 TEMPO 4000 -DZ', 'EBLG 031450Z 24013KT 7000 -DZ SCT005 BKN006 09/08 Q1027 TEMPO 4000 -DZ', 'EBLG 031420Z 24014KT 7000 -DZ SCT005 BKN006 09/08 Q1027 TEMPO 4000 -DZ', 'EBLG 031350Z 24015KT 9999 -DZ SCT006 BKN007 09/08 Q1027 TEMPO 4000 -DZ', 'EBLG 031320Z 25012KT 9999 -DZ SCT007 BKN008 09/08 Q1027 TEMPO 4000 -DZ', 'EBLG 031250Z 25013KT 9999 -DZ SCT007 BKN008 09/08 Q1027 TEMPO 4000 -DZ', 'EBLG 031220Z 24012KT 9999 -DZ SCT007 BKN008 09/08 Q1027 TEMPO 4000 -DZ', 'EBLG 031150Z 23012KT 9999 SCT007 BKN008 10/08 Q1028 TEMPO 4000 -DZ', 'EBLG 031120Z 24011KT 6000 -DZ SCT005 BKN006 09/08 Q1028 TEMPO 4000 -DZ', 'EBLG 031050Z 24014KT 9999 SCT006 BKN007 09/08 Q1029 TEMPO 4000 -DZ', 'EBLG 031020Z 25012KT 9999 SCT006 BKN007 09/08 Q1029 TEMPO 4000 -DZ', 'EBLG 030950Z 24012KT 3000 -DZ SCT005 BKN006 09/08 Q1028 TEMPO 8000 NSW', 'EBLG 030920Z 25012KT 9999 SCT006 BKN007 09/08 Q1028 NOSIG', 'EBLG 030850Z 24012KT 9999 SCT006 BKN007 09/08 Q1028 NOSIG', 'EBLG 030820Z 24010KT 220V280 9999 SCT006 BKN007 09/08 Q1028 NOSIG', 'EBLG 030750Z 23014KT 9999 BKN007 08/07 Q1028 NOSIG', 'EBLG 030720Z 23011KT 9999 FEW007 SCT001 BKN028 09/07 Q1028 TEMPO BKN007', 'EBLG 030650Z 23011KT 9999 FEW007 SCT023 BKN028 08/07 Q1028 TEMPO BKN007', 'EBLG 030620Z 23013KT 9999 FEW006 BKN022 08/07 Q1028 TEMPO 3000 DZ BKN005', 'EBLG 030550Z 23011KT 9999 FEW006 BKN020 08/07 Q1028 TEMPO 3000 DZ BKN005', 'EBLG 030520Z 23012KT 9999 FEW006 BKN020 08/07 Q1028 TEMPO 3000 DZ BKN004', 'EBLG 030450Z 24010KT 5000 -DZRA SCT003 BKN005 08/07 Q1028 TEMPO 3000 DZ BKN003', 'EBLG 030420Z 23010KT 3800 -DZRA SCT003 BKN005 08/07 Q1028 TEMPO 2500 DZ BKN003', 'EBLG 030350Z 23011KT 5000 -DZRA SCT003 BKN006 08/07 Q1028 TEMPO 2500 DZ BKN003', 'EBLG 030320Z 23011KT 5000 -DZRA SCT003 BKN005 08/07 Q1028 TEMPO 2500 DZ BKN003', 'EBLG 030250Z 23011KT 5000 -DZRA SCT003 BKN005 07/07 Q1028 TEMPO 2500 DZ BKN003', 'EBLG 030220Z 22012KT 4200 -DZRA SCT003 BKN005 07/07 Q1029 TEMPO 2500 DZ BKN003', 'EBLG 030150Z 23011KT 4200 -DZRA SCT003 BKN006 07/07 Q1029 TEMPO 2500 DZ BKN003', 'EBLG 030120Z 24011KT 7000 -DZRA SCT004 BKN006 07/07 Q1029 TEMPO 2500 DZ BKN003', 'EBLG 030050Z 25010KT 3100 DZRA SCT003 BKN005 07/07 Q1029 TEMPO 2500 DZ BKN003', 'EBLG 030020Z 25011KT 5000 -DZ FEW004 BKN005 07/07 Q1029 TEMPO 2500 DZ BKN003', 'EBLG 022350Z 24013KT 4000 -DZ SCT003 BKN004 07/07 Q1029 TEMPO 2500 DZ', 'EBLG 022320Z 24012KT 3500 -DZ FEW002 BKN003 07/07 Q1029 TEMPO 2500 DZ', 'EBLG 022250Z 23012KT 5000 -DZ FEW002 BKN004 07/07 Q1029 TEMPO 3000 DZ', 'EBLG 022220Z 23012KT 5000 -DZ SCT003 BKN004 07/06 Q1029 TEMPO 3000 DZ', 'EBLG 022150Z 23012KT 6000 -DZ SCT004 BKN005 07/06 Q1030 TEMPO 3500 DZ BKN004', 'EBLG 022120Z 24012KT 9999 -DZ SCT004 BKN005 07/06 Q1030 TEMPO 3500 DZ BKN004', 'EBLG 022050Z 24016KT 9999 -DZ SCT004 BKN005 07/06 Q1029 TEMPO BKN004', 'EBLG 022020Z 23015KT 9999 -DZ SCT005 BKN006 07/06 Q1029 TEMPO BKN004', 'EBLG 021950Z 22017KT 9999 -DZ FEW005 BKN006 07/06 Q1029 TEMPO BKN004', 'EBLG 021920Z 23015KT 9999 -DZ SCT005 BKN006 07/06 Q1029 TEMPO BKN004', 'EBLG 021850Z 23014KT 9999 SCT004 BKN006 06/05 Q1029 TEMPO BKN004', 'EBLG 021820Z 23015KT 9999 BKN006 06/05 Q1029 BECMG BKN004', 'EBLG 021750Z 23017KT 9999 SCT006 BKN007 06/05 Q1029 BECMG BKN004', 'EBLG 021720Z 22017KT 9999 BKN007 06/05 Q1029 BECMG BKN004', 'EBLG 021650Z 22017KT 9999 BKN008 06/04 Q1029 BECMG BKN004', 'EBLG 021620Z 23016KT 9999 BKN009 06/04 Q1029 BECMG BKN004', 'EBLG 021550Z 22016KT 9999 BKN009 06/04 Q1029 NOSIG', 'EBLG 021520Z 22017KT 9999 BKN009 06/04 Q1029 NOSIG', 'EBLG 021450Z 21016KT 9999 BKN009 07/04 Q1029 NOSIG', 'EBLG 021420Z 22017KT 9999 BKN008 07/04 Q1029 NOSIG', 'EBLG 021350Z 23017KT 9999 BKN008 07/05 Q1029 NOSIG', 'EBLG 021320Z 22016KT 9999 BKN008 07/05 Q1030 NOSIG', 'EBLG 021250Z 22015KT 9999 SCT007 BKN009 07/04 Q1030 NOSIG', 'EBLG 021220Z 23015KT 9999 SCT009 BKN011 07/04 Q1030 BECMG BKN008', 'EBLG 021150Z 24015KT 9999 BKN012 07/04 Q1031 NOSIG', 'EBLG 021120Z 24014KT 9999 BKN014 07/03 Q1031 NOSIG', 'EBLG 021050Z 24014KT 9999 BKN015 06/02 Q1031 TEMPO BKN012', 'EBLG 021020Z 23012KT 9999 SCT016 06/01 Q1031 NOSIG', 'EBLG 020950Z 22012KT 9999 FEW012 06/00 Q1031 NOSIG', 'EBLG 020920Z 21011KT CAVOK 05/M00 Q1031 NOSIG', 'EBLG 020850Z 21011KT CAVOK 05/M00 Q1031 NOSIG', 'EBLG 020820Z 21013KT CAVOK 04/M00 Q1031 NOSIG', 'EBLG 020750Z 20013KT CAVOK 04/M00 Q1031 NOSIG', 'EBLG 020720Z 20013KT CAVOK 03/M00 Q1031 NOSIG', 'EBLG 020650Z 21012KT CAVOK 03/M00 Q1031 NOSIG', 'EBLG 020620Z 20010KT CAVOK 03/00 Q1031 NOSIG', 'EBLG 020550Z 20009KT CAVOK 03/00 Q1031 NOSIG', 'EBLG 020520Z 20010KT CAVOK 04/01 Q1031 NOSIG', 'EBLG 020450Z 21010KT CAVOK 04/01 Q1031 NOSIG', 'EBLG 020420Z 22010KT CAVOK 04/01 Q1031 NOSIG', 'EBLG 020350Z 22011KT CAVOK 04/01 Q1031 NOSIG', 'EBLG 020320Z 22010KT CAVOK 04/01 Q1032 NOSIG', 'EBLG 020250Z 23010KT CAVOK 04/01 Q1032 NOSIG', 'EBLG 020220Z 22007KT CAVOK 04/01 Q1032 NOSIG', 'EBLG 020150Z 22008KT CAVOK 03/01 Q1032 NOSIG', 'EBLG 020120Z 23010KT CAVOK 04/01 Q1032 NOSIG', 'EBLG 020050Z 22007KT CAVOK 04/01 Q1033 NOSIG', 'EBLG 020020Z 21007KT CAVOK 03/01 Q1033 NOSIG', 'EBLG 012350Z 22007KT CAVOK 03/01 Q1033 NOSIG', 'EBLG 012320Z 22009KT CAVOK 04/01 Q1033 NOSIG', 'EBLG 012250Z 23007KT CAVOK 03/01 Q1033 NOSIG', 'EBLG 012220Z 21007KT CAVOK 03/00 Q1033 NOSIG', 'EBLG 012150Z 23008KT CAVOK 03/00 Q1034 NOSIG', 'EBLG 012120Z 24006KT CAVOK 03/00 Q1034 NOSIG', 'EBLG 012050Z 25005KT CAVOK 02/M01 Q1034 NOSIG', 'EBLG 012020Z 22006KT CAVOK 03/00 Q1033 NOSIG', 'EBLG 011950Z 24004KT CAVOK 03/M00 Q1033 NOSIG', 'EBLG 011920Z 25004KT CAVOK 03/M00 Q1033 NOSIG', 'EBLG 011850Z 26004KT CAVOK 03/M00 Q1033 NOSIG', 'EBLG 011820Z 24004KT 190V270 CAVOK 05/M00 Q1033 NOSIG', 'EBLG 011750Z 25003KT CAVOK 04/01 Q1033 NOSIG', 'EBLG 011720Z 26004KT CAVOK 05/01 Q1033 NOSIG', 'EBLG 011650Z 27004KT CAVOK 05/01 Q1033 NOSIG', 'EBLG 011620Z 28004KT CAVOK 05/01 Q1033 NOSIG', 'EBLG 011550Z 28005KT 9999 FEW027 07/01 Q1033 NOSIG', 'EBLG 011520Z 31005KT 270V340 9999 FEW027 07/01 Q1033 NOSIG', 'EBLG 011450Z 28007KT 9999 FEW027 08/02 Q1032 NOSIG', 'EBLG 011420Z 28007KT 9999 FEW027 07/01 Q1032 NOSIG', 'EBLG 011350Z 30006KT 260V330 9999 FEW027 08/01 Q1032 NOSIG', 'EBLG 011320Z 29006KT 260V350 9999 FEW025 08/03 Q1032 NOSIG', 'EBLG 011250Z 27007KT 240V300 9999 FEW024 08/02 Q1032 NOSIG', 'EBLG 011220Z 30006KT 9999 FEW022 07/03 Q1032 NOSIG', 'EBLG 011150Z 32007KT 9999 FEW018 07/02 Q1032 NOSIG', 'EBLG 011120Z 31006KT 280V350 9999 FEW015 07/02 Q1032 NOSIG', 'EBLG 011050Z 32005KT 290V360 9999 FEW009 07/02 Q1032 NOSIG', 'EBLG 011020Z 33006KT 290V360 9999 FEW009 06/03 Q1032 NOSIG', 'EBLG 010950Z 36005KT 320V020 9999 FEW009 06/04 Q1031 NOSIG', 'EBLG 010920Z 34005KT 9999 FEW010 06/04 Q1031 NOSIG', 'EBLG 010850Z 33006KT 9999 SCT010 06/05 Q1031 TEMPO BKN010', 'EBLG 010820Z 32005KT 9999 FEW015 06/05 Q1030 NOSIG', 'EBLG 010750Z 33007KT 300V360 9999 FEW015 SCT042 07/05 Q1030 NOSIG', 'EBLG 010720Z 32005KT 9999 FEW005 BKN042 07/06 Q1029 NOSIG', 'EBLG 010650Z 32007KT 9999 FEW003 BKN008 08/07 Q1029 BECMG SCT005 BKN020', 'EBLG 010620Z 29008KT 270V330 6000 -DZ BKN003 BKN005 08/07 Q1028 TEMPO 3000 DZ BECMG SCT005 BKN020', 'EBLG 010550Z 28007KT 9999 BKN003 BKN005 08/07 Q1028 BECMG SCT005 BKN020', 'EBLG 010520Z 27009KT 4600 -DZRA BKN003 BKN005 08/07 Q1027 TEMPO 2500 DZRA', 'EBLG 010450Z 26010KT 9000 -DZRA BKN004 BKN006 08/07 Q1027 TEMPO 2500 DZRA', 'EBLG 010420Z 26009KT 9000 -DZRA SCT004 BKN006 08/07 Q1027 TEMPO 2500 DZRA BKN003', 'EBLG 010350Z 24013KT 8000 -RA SCT004 BKN006 08/07 Q1026 TEMPO 2500 DZRA BKN003', 'EBLG 010320Z 24014KT 7000 -RA SCT005 BKN007 07/07 Q1026 TEMPO 2500 DZRA BKN003', 'EBLG 010250Z 23015KT 4600 RA FEW006 BKN009 07/06 Q1026 TEMPO 2500 RADZ', 'EBLG 010220Z 23013KT 4600 RA SCT008 BKN011 07/06 Q1026 TEMPO 2500 RA BKN008', 'EBLG 010150Z 23013KT 5000 RA BKN011 07/06 Q1026 TEMPO 4000 RA BKN008', 'EBLG 010120Z 23016KT 9999 -RA BKN012 08/05 Q1026 TEMPO 4000 RA BKN008', 'EBLG 010050Z 22015KT 9999 BKN014 08/05 Q1027 TEMPO 4000 RA BKN008', 'EBLG 010020Z 23017KT 9999 BKN015 08/04 Q1027 TEMPO 4000 RA BECMG BKN012', 'EBLG 312350Z 23016KT 9999 BKN015 07/04 Q1027 BECMG BKN012', 'EBLG 312320Z 23015KT 9999 BKN016 07/04 Q1027 BECMG BKN012']","['2024-02-03 22:20:00', '2024-02-03 21:50:00', '2024-02-03 21:20:00', '2024-02-03 20:50:00', '2024-02-03 20:20:00', '2024-02-03 19:50:00', '2024-02-03 19:20:00', '2024-02-03 18:50:00', '2024-02-03 18:20:00', '2024-02-03 17:50:00', '2024-02-03 17:20:00', '2024-02-03 16:50:00', '2024-02-03 16:20:00', '2024-02-03 15:50:00', '2024-02-03 15:20:00', '2024-02-03 14:50:00', '2024-02-03 14:20:00', '2024-02-03 13:50:00', '2024-02-03 13:20:00', '2024-02-03 12:50:00', '2024-02-03 12:20:00', '2024-02-03 11:50:00', '2024-02-03 11:20:00', '2024-02-03 10:50:00', '2024-02-03 10:20:00', '2024-02-03 09:50:00', '2024-02-03 09:20:00', '2024-02-03 08:50:00', '2024-02-03 08:20:00', '2024-02-03 07:50:00', '2024-02-03 07:20:00', '2024-02-03 06:50:00', '2024-02-03 06:20:00', '2024-02-03 05:50:00', '2024-02-03 05:20:00', '2024-02-03 04:50:00', '2024-02-03 04:20:00', '2024-02-03 03:50:00', '2024-02-03 03:20:00', '2024-02-03 02:50:00', '2024-02-03 02:20:00', '2024-02-03 01:50:00', '2024-02-03 01:20:00', '2024-02-03 00:50:00', '2024-02-03 00:20:00', '2024-02-02 23:50:00', '2024-02-02 23:20:00', '2024-02-02 22:50:00', '2024-02-02 22:20:00', '2024-02-02 21:50:00', '2024-02-02 21:20:00', '2024-02-02 20:50:00', '2024-02-02 20:20:00', '2024-02-02 19:50:00', '2024-02-02 19:20:00', '2024-02-02 18:50:00', '2024-02-02 18:20:00', '2024-02-02 17:50:00', '2024-02-02 17:20:00', '2024-02-02 16:50:00', '2024-02-02 16:20:00', '2024-02-02 15:50:00', '2024-02-02 15:20:00', '2024-02-02 14:50:00', '2024-02-02 14:20:00', '2024-02-02 13:50:00', '2024-02-02 13:20:00', '2024-02-02 12:50:00', '2024-02-02 12:20:00', '2024-02-02 11:50:00', '2024-02-02 11:20:00', '2024-02-02 10:50:00', '2024-02-02 10:20:00', '2024-02-02 09:50:00', '2024-02-02 09:20:00', '2024-02-02 08:50:00', '2024-02-02 08:20:00', '2024-02-02 07:50:00', '2024-02-02 07:20:00', '2024-02-02 06:50:00', '2024-02-02 06:20:00', '2024-02-02 05:50:00', '2024-02-02 05:20:00', '2024-02-02 04:50:00', '2024-02-02 04:20:00', '2024-02-02 03:50:00', '2024-02-02 03:20:00', '2024-02-02 02:50:00', '2024-02-02 02:20:00', '2024-02-02 01:50:00', '2024-02-02 01:20:00', '2024-02-02 00:50:00', '2024-02-02 00:20:00', '2024-02-01 23:50:00', '2024-02-01 23:20:00', '2024-02-01 22:50:00', '2024-02-01 22:20:00', '2024-02-01 21:50:00', '2024-02-01 21:20:00', '2024-02-01 20:50:00', '2024-02-01 20:20:00', '2024-02-01 19:50:00', '2024-02-01 19:20:00', '2024-02-01 18:50:00', '2024-02-01 18:20:00', '2024-02-01 17:50:00', '2024-02-01 17:20:00', '2024-02-01 16:50:00', '2024-02-01 16:20:00', '2024-02-01 15:50:00', '2024-02-01 15:20:00', '2024-02-01 14:50:00', '2024-02-01 14:20:00', '2024-02-01 13:50:00', '2024-02-01 13:20:00', '2024-02-01 12:50:00', '2024-02-01 12:20:00', '2024-02-01 11:50:00', '2024-02-01 11:20:00', '2024-02-01 10:50:00', '2024-02-01 10:20:00', '2024-02-01 09:50:00', '2024-02-01 09:20:00', '2024-02-01 08:50:00', '2024-02-01 08:20:00', '2024-02-01 07:50:00', '2024-02-01 07:20:00', '2024-02-01 06:50:00', '2024-02-01 06:20:00', '2024-02-01 05:50:00', '2024-02-01 05:20:00', '2024-02-01 04:50:00', '2024-02-01 04:20:00', '2024-02-01 03:50:00', '2024-02-01 03:20:00', '2024-02-01 02:50:00', '2024-02-01 02:20:00', '2024-02-01 01:50:00', '2024-02-01 01:20:00', '2024-02-01 00:50:00', '2024-02-01 00:20:00', '2024-01-31 23:50:00', '2024-01-31 23:20:00']"
Belgium, Ostend Bruges International Airport (OST/EBOS) ,"['EBOS 032220Z AUTO 23013KT 9999 // VV/// 11/09 Q1026', 'EBOS 032150Z AUTO 23012KT 9999 // VV/// 11/09 Q1026', 'EBOS 032120Z AUTO 24012KT 9999 // VV/// 11/09 Q1027', 'EBOS 032050Z AUTO 24011KT 9999 // VV/// 11/09 Q1027', 'EBOS 032020Z AUTO 24012KT 9999 // VV/// 11/09 Q1027', 'EBOS 031950Z AUTO 23012KT 9999 // VV/// 11/09 Q1027', 'EBOS 031920Z AUTO 23011KT 9999 // VV/// 11/09 Q1027', 'EBOS 031850Z AUTO 24012KT 9999 // VV/// 11/09 Q1027', 'EBOS 031820Z 23010KT 9000 FEW022 11/09 Q1027 NOSIG', 'EBOS 031750Z 23010KT 9000 FEW022 SCT030 11/09 Q1027 NOSIG', 'EBOS 031720Z 24014KT 9000 FEW022 BKN030 11/09 Q1027 NOSIG', 'EBOS 031650Z 25016KT 9000 SCT022 BKN030 10/09 Q1027 NOSIG', 'EBOS 031620Z 25015KT 9000 SCT023 BKN028 10/09 Q1027 NOSIG', 'EBOS 031550Z 25013KT 9999 BKN026 10/09 Q1027 NOSIG', 'EBOS 031520Z 25016KT 9999 FEW015 11/09 Q1027 NOSIG', 'EBOS 031450Z 25016KT 9999 FEW015 10/09 Q1027 NOSIG', 'EBOS 031420Z 25016KT 9999 FEW015 10/08 Q1028 NOSIG', 'EBOS 031350Z 26016KT 9999 BKN015 10/08 Q1028 NOSIG', 'EBOS 031320Z 25013KT 9999 BKN016 10/08 Q1028 NOSIG', 'EBOS 031250Z 25014KT 9999 BKN015 10/08 Q1028 NOSIG', 'EBOS 031220Z 25015KT 9999 BKN015 11/08 Q1028 NOSIG', 'EBOS 031150Z 25016KT 9999 BKN015 11/09 Q1028 NOSIG', 'EBOS 031120Z 25015KT 9999 BKN013 11/09 Q1028 NOSIG', 'EBOS 031050Z 25015KT 9999 BKN014 11/09 Q1028 NOSIG', 'EBOS 031020Z 25013KT 9999 BKN013 11/09 Q1028 NOSIG', 'EBOS 030950Z 25013KT 9999 BKN013 10/08 Q1028 NOSIG', 'EBOS 030920Z 25011KT 9999 BKN011 10/08 Q1028 NOSIG', 'EBOS 030850Z 26012KT 9999 BKN011 10/08 Q1028 NOSIG', 'EBOS 030820Z 25012KT 9999 BKN011 10/08 Q1028 NOSIG', 'EBOS 030750Z 26013KT 9999 BKN011 10/08 Q1028 NOSIG', 'EBOS 030720Z 25014KT 9999 BKN012 10/08 Q1028 NOSIG', 'EBOS 030650Z 24013KT 9999 BKN014 10/08 Q1028 NOSIG', 'EBOS 030620Z AUTO 24014KT 9999 R26///// // VV/// 10/08 Q1027', 'EBOS 030550Z AUTO 24012KT 9999 R26///// // VV/// 10/08 Q1027', 'EBOS 030520Z AUTO 24011KT 9999 R26///// // VV/// 10/08 Q1028', 'EBOS 030450Z AUTO 24010KT 9999 R26///// // VV/// 10/08 Q1028', 'EBOS 030420Z AUTO 24011KT 9999 R26///// // VV/// 10/08 Q1028', 'EBOS 030350Z AUTO 24011KT 9999 R26///// // VV/// 11/08 Q1028', 'EBOS 030320Z AUTO 23010KT 9999 R26///// // VV/// 10/08 Q1028', 'EBOS 030250Z AUTO 24014KT 9999 R26///// // VV/// 11/08 Q1028', 'EBOS 030220Z AUTO 24014KT 9999 R26///// // VV/// 10/08 Q1028', 'EBOS 030150Z AUTO 24016G26KT 9999 R26///// // VV/// 10/08 Q1028', 'EBOS 030120Z AUTO 24015KT 9999 R26///// // VV/// 10/08 Q1028', 'EBOS 030050Z AUTO 25015KT 9999 R26///// // VV/// 10/08 Q1028', 'EBOS 030020Z AUTO 25014KT 9999 R26///// // VV/// 10/08 Q1029', 'EBOS 022350Z AUTO 25015KT 9999 R26///// // VV/// 10/08 Q1029', 'EBOS 022320Z AUTO 25015KT 9999 R26///// // VV/// 10/08 Q1029', 'EBOS 022250Z AUTO 25014KT 9999 R26///// // VV/// 10/08 Q1029', 'EBOS 022220Z AUTO 25015KT 9999 R26///// // VV/// 10/08 Q1029', 'EBOS 022150Z AUTO 25014KT 9999 R26///// // VV/// 10/08 Q1029', 'EBOS 022120Z AUTO 25015KT 9999 R26///// // VV/// 10/08 Q1029', 'EBOS 022050Z AUTO 24014KT 9999 R26///// // VV/// 10/08 Q1029', 'EBOS 022020Z AUTO 25013KT 9999 R26///// // VV/// 09/08 Q1029', 'EBOS 021950Z AUTO 24017KT 9999 R26///// // VV/// 10/08 Q1029', 'EBOS 021920Z AUTO 24019KT 9999 R26///// // VV/// 09/08 Q1029', 'EBOS 021850Z AUTO 24015KT 9999 R26///// // VV/// 09/08 Q1029', 'EBOS 021820Z 24013KT 9999 BKN006 09/08 Q1029 NOSIG', 'EBOS 021750Z 24013KT 9999 BKN007 09/08 Q1028 NOSIG', 'EBOS 021720Z 24016G26KT 9999 BKN007 09/08 Q1028 TEMPO SCT007', 'EBOS 021650Z 24013KT 9999 BKN008 09/08 Q1028 TEMPO SCT008', 'EBOS 021620Z 24016KT 9999 SCT007 09/08 Q1028 TEMPO BKN008', 'EBOS 021550Z 24019KT 9999 SCT007 09/08 Q1028 TEMPO BKN008', 'EBOS 021520Z 24018G32KT 9999 BKN007 10/08 Q1028 TEMPO SCT008', 'EBOS 021450Z 25019KT 9999 SCT009 10/08 Q1028 TEMPO 25016G26KT BKN009', 'EBOS 021420Z 25019KT 9999 SCT009 11/09 Q1028 TEMPO 25016G26KT BKN009', 'EBOS 021350Z 25018KT 9999 SCT009 11/09 Q1028 TEMPO 25016G26KT BKN009', 'EBOS 021320Z 25018KT 9999 SCT009 11/09 Q1028 TEMPO 25016G26KT BKN009', 'EBOS 021250Z 25019KT 9999 SCT009 11/09 Q1029 TEMPO 24016G26KT BKN009', 'EBOS 021220Z 24018KT 9999 BKN008 11/09 Q1029 TEMPO 24015G25KT', 'EBOS 021150Z 25019G29KT 9999 SCT008 11/08 Q1029 BECMG BKN008', 'EBOS 021120Z 25016G26KT 9999 SCT008 10/08 Q1029 TEMPO 4000 DZ BKN004', 'EBOS 021050Z 24019KT 9999 BKN007 10/08 Q1030 TEMPO 4000 DZ BKN004', 'EBOS 021020Z 24015KT 9999 BKN007 10/08 Q1030 TEMPO 4000 DZ BKN004', 'EBOS 020950Z 24015KT 9999 BKN006 09/08 Q1030 TEMPO 4000 DZ BKN004', 'EBOS 020920Z 25015KT 9999 BKN006 09/07 Q1030 TEMPO 4000 DZ BKN004', 'EBOS 020850Z 24016KT 9999 BKN006 09/07 Q1030 TEMPO 4500 DZ BKN004', 'EBOS 020820Z 24014KT 9999 BKN007 08/07 Q1030 TEMPO 4500 DZ BKN004', 'EBOS 020750Z 21006KT 9999 SCT011 04/04 Q1030 BECMG BKN011', 'EBOS 020720Z 22007KT CAVOK 04/03 Q1030 NOSIG', 'EBOS 020650Z 21005KT CAVOK 04/03 Q1030 NOSIG', 'EBOS 020620Z AUTO 21007KT 9999 R26///// // VV/// 04/03 Q1030', 'EBOS 020550Z AUTO 21008KT 9999 R26///// // VV/// 04/03 Q1030', 'EBOS 020520Z AUTO 21009KT 9999 R26///// // VV/// 04/03 Q1030', 'EBOS 020450Z AUTO 21008KT 9999 R26///// // VV/// 04/03 Q1031', 'EBOS 020420Z AUTO 20008KT 9999 R26///// // VV/// 03/02 Q1031', 'EBOS 020350Z AUTO 23008KT 9999 R26///// // VV/// 03/02 Q1031', 'EBOS 020320Z AUTO 21008KT 9999 R26///// // VV/// 04/03 Q1031', 'EBOS 020250Z AUTO 22008KT 9999 R26///// // VV/// 04/03 Q1032', 'EBOS 020220Z AUTO 22009KT 9999 R26///// // VV/// 04/03 Q1032', 'EBOS 020150Z AUTO 21009KT 9999 R26///// // VV/// 04/03 Q1032', 'EBOS 020120Z AUTO 22010KT 9999 R26///// // VV/// 05/03 Q1032', 'EBOS 020050Z AUTO 22010KT 9999 R26///// // VV/// 05/03 Q1033', 'EBOS 020020Z AUTO 23010KT 9999 R26///// // VV/// 05/03 Q1033', 'EBOS 012350Z AUTO 23010KT 9999 R26///// // VV/// 05/03 Q1033', 'EBOS 012320Z AUTO 23010KT 9999 R26///// // VV/// 05/03 Q1034', 'EBOS 012250Z AUTO 22010KT 9999 R26///// // VV/// 05/03 Q1034', 'EBOS 012220Z AUTO 22007KT 9999 R26///// // VV/// 05/03 Q1034', 'EBOS 012150Z AUTO 21006KT 9999 R26///// // VV/// 04/03 Q1034', 'EBOS 012120Z AUTO 21006KT 9999 R26///// // VV/// 04/03 Q1034', 'EBOS 012050Z AUTO 22007KT 9999 R26///// // VV/// 04/03 Q1034', 'EBOS 012020Z AUTO 22006KT 9999 R26///// // VV/// 04/03 Q1034', 'EBOS 011950Z AUTO 21005KT 9999 R26///// // VV/// 03/02 Q1034', 'EBOS 011920Z AUTO 21006KT 9999 R26///// // VV/// 04/03 Q1034', 'EBOS 011850Z AUTO 23004KT 9999 R26///// // VV/// 04/03 Q1034', 'EBOS 011820Z 23005KT CAVOK 05/03 Q1034 NOSIG', 'EBOS 011750Z 22004KT CAVOK 05/03 Q1034 NOSIG', 'EBOS 011720Z 21004KT CAVOK 05/03 Q1034 NOSIG', 'EBOS 011650Z 26006KT CAVOK 05/03 Q1034 NOSIG', 'EBOS 011620Z 29006KT CAVOK 06/03 Q1034 NOSIG', 'EBOS 011550Z 29009KT 9999 FEW015 07/03 Q1034 NOSIG', 'EBOS 011520Z 29008KT 9999 FEW015 07/04 Q1034 NOSIG', 'EBOS 011450Z 29008KT 9999 FEW015 07/04 Q1034 NOSIG', 'EBOS 011420Z 29009KT CAVOK 08/04 Q1034 NOSIG', 'EBOS 011350Z 30009KT CAVOK 07/04 Q1034 NOSIG', 'EBOS 011320Z 29007KT CAVOK 08/04 Q1034 NOSIG', 'EBOS 011250Z 30007KT CAVOK 08/03 Q1034 NOSIG', 'EBOS 011220Z 31008KT CAVOK 08/04 Q1034 NOSIG', 'EBOS 011150Z 30007KT CAVOK 08/04 Q1034 NOSIG', 'EBOS 011120Z 32006KT CAVOK 08/04 Q1034 NOSIG', 'EBOS 011050Z 31007KT CAVOK 08/04 Q1034 NOSIG', 'EBOS 011020Z 31006KT CAVOK 08/04 Q1033 NOSIG', 'EBOS 010950Z 32007KT CAVOK 07/03 Q1033 NOSIG', 'EBOS 010920Z 32008KT CAVOK 07/04 Q1033 NOSIG', 'EBOS 010850Z 32008KT CAVOK 07/03 Q1033 NOSIG', 'EBOS 010820Z 33009KT CAVOK 07/03 Q1032 NOSIG', 'EBOS 010750Z 33008KT 9999 FEW042 07/03 Q1032 NOSIG', 'EBOS 010720Z 32009KT 9999 FEW042 07/04 Q1031 NOSIG', 'EBOS 010650Z 33009KT 9999 BKN042 07/04 Q1031 NOSIG', 'EBOS 010620Z AUTO 32007KT 9999 R26///// // VV/// 07/05 Q1030', 'EBOS 010550Z AUTO 33007KT 9999 R26///// // VV/// 08/05 Q1030', 'EBOS 010520Z AUTO 35007KT 9999 R26///// // VV/// 08/04 Q1029', 'EBOS 010450Z AUTO 35010KT 9999 R26///// // VV/// 08/04 Q1029', 'EBOS 010420Z AUTO 34013KT 9999 R26///// // VV/// 08/05 Q1028', 'EBOS 010350Z AUTO 28011KT 9999 R26///// // VV/// 09/08 Q1028', 'EBOS 010320Z AUTO 27012KT 9999 R26///// // VV/// 09/08 Q1027', 'EBOS 010250Z AUTO 27014KT 8000 R26///// // VV/// 09/08 Q1027', 'EBOS 010220Z AUTO 26015KT 9000 R26///// // VV/// 09/08 Q1027', 'EBOS 010150Z AUTO 26019KT 9000 R26///// // VV/// 09/09 Q1027', 'EBOS 010120Z AUTO 26020KT 4000 R26///// // VV/// 09/09 Q1026', 'EBOS 010050Z AUTO 25020KT 5000 R26///// // VV/// 09/09 Q1026', 'EBOS 010020Z AUTO 26018KT 9999 R26///// // VV/// 10/09 Q1026', 'EBOS 312350Z AUTO 25018KT 9000 R26///// // VV/// 10/09 Q1026', 'EBOS 312320Z AUTO 25019KT 9999 R26///// // VV/// 10/09 Q1026']","['2024-02-03 22:20:00', '2024-02-03 21:50:00', '2024-02-03 21:20:00', '2024-02-03 20:50:00', '2024-02-03 20:20:00', '2024-02-03 19:50:00', '2024-02-03 19:20:00', '2024-02-03 18:50:00', '2024-02-03 18:20:00', '2024-02-03 17:50:00', '2024-02-03 17:20:00', '2024-02-03 16:50:00', '2024-02-03 16:20:00', '2024-02-03 15:50:00', '2024-02-03 15:20:00', '2024-02-03 14:50:00', '2024-02-03 14:20:00', '2024-02-03 13:50:00', '2024-02-03 13:20:00', '2024-02-03 12:50:00', '2024-02-03 12:20:00', '2024-02-03 11:50:00', '2024-02-03 11:20:00', '2024-02-03 10:50:00', '2024-02-03 10:20:00', '2024-02-03 09:50:00', '2024-02-03 09:20:00', '2024-02-03 08:50:00', '2024-02-03 08:20:00', '2024-02-03 07:50:00', '2024-02-03 07:20:00', '2024-02-03 06:50:00', '2024-02-03 06:20:00', '2024-02-03 05:50:00', '2024-02-03 05:20:00', '2024-02-03 04:50:00', '2024-02-03 04:20:00', '2024-02-03 03:50:00', '2024-02-03 03:20:00', '2024-02-03 02:50:00', '2024-02-03 02:20:00', '2024-02-03 01:50:00', '2024-02-03 01:20:00', '2024-02-03 00:50:00', '2024-02-03 00:20:00', '2024-02-02 23:50:00', '2024-02-02 23:20:00', '2024-02-02 22:50:00', '2024-02-02 22:20:00', '2024-02-02 21:50:00', '2024-02-02 21:20:00', '2024-02-02 20:50:00', '2024-02-02 20:20:00', '2024-02-02 19:50:00', '2024-02-02 19:20:00', '2024-02-02 18:50:00', '2024-02-02 18:20:00', '2024-02-02 17:50:00', '2024-02-02 17:20:00', '2024-02-02 16:50:00', '2024-02-02 16:20:00', '2024-02-02 15:50:00', '2024-02-02 15:20:00', '2024-02-02 14:50:00', '2024-02-02 14:20:00', '2024-02-02 13:50:00', '2024-02-02 13:20:00', '2024-02-02 12:50:00', '2024-02-02 12:20:00', '2024-02-02 11:50:00', '2024-02-02 11:20:00', '2024-02-02 10:50:00', '2024-02-02 10:20:00', '2024-02-02 09:50:00', '2024-02-02 09:20:00', '2024-02-02 08:50:00', '2024-02-02 08:20:00', '2024-02-02 07:50:00', '2024-02-02 07:20:00', '2024-02-02 06:50:00', '2024-02-02 06:20:00', '2024-02-02 05:50:00', '2024-02-02 05:20:00', '2024-02-02 04:50:00', '2024-02-02 04:20:00', '2024-02-02 03:50:00', '2024-02-02 03:20:00', '2024-02-02 02:50:00', '2024-02-02 02:20:00', '2024-02-02 01:50:00', '2024-02-02 01:20:00', '2024-02-02 00:50:00', '2024-02-02 00:20:00', '2024-02-01 23:50:00', '2024-02-01 23:20:00', '2024-02-01 22:50:00', '2024-02-01 22:20:00', '2024-02-01 21:50:00', '2024-02-01 21:20:00', '2024-02-01 20:50:00', '2024-02-01 20:20:00', '2024-02-01 19:50:00', '2024-02-01 19:20:00', '2024-02-01 18:50:00', '2024-02-01 18:20:00', '2024-02-01 17:50:00', '2024-02-01 17:20:00', '2024-02-01 16:50:00', '2024-02-01 16:20:00', '2024-02-01 15:50:00', '2024-02-01 15:20:00', '2024-02-01 14:50:00', '2024-02-01 14:20:00', '2024-02-01 13:50:00', '2024-02-01 13:20:00', '2024-02-01 12:50:00', '2024-02-01 12:20:00', '2024-02-01 11:50:00', '2024-02-01 11:20:00', '2024-02-01 10:50:00', '2024-02-01 10:20:00', '2024-02-01 09:50:00', '2024-02-01 09:20:00', '2024-02-01 08:50:00', '2024-02-01 08:20:00', '2024-02-01 07:50:00', '2024-02-01 07:20:00', '2024-02-01 06:50:00', '2024-02-01 06:20:00', '2024-02-01 05:50:00', '2024-02-01 05:20:00', '2024-02-01 04:50:00', '2024-02-01 04:20:00', '2024-02-01 03:50:00', '2024-02-01 03:20:00', '2024-02-01 02:50:00', '2024-02-01 02:20:00', '2024-02-01 01:50:00', '2024-02-01 01:20:00', '2024-02-01 00:50:00', '2024-02-01 00:20:00', '2024-01-31 23:50:00', '2024-01-31 23:20:00']"
Belize, Belize City Philip S. W. Goldson International Airport (BZE/MZBZ) ,"['MZBZ 032300Z 12004KT 9999 FEW018 BKN023 27/23 A2964 Q1003 NOSIG', 'MZBZ 032200Z 14004KT 9999 BKN025 27/23 A2963 Q1003 NOSIG', 'MZBZ 032100Z 15005KT 9999 BKN025 27/23 A2964 Q1003 NOSIG', 'MZBZ 032000Z 13007KT 9999 BKN022 28/23 A2966 Q1004 NOSIG', 'MZBZ 031900Z 13007KT 9999 SCT024 BKN035 27/23 A2970 Q1005 NOSIG', 'MZBZ 031800Z 15008KT 9999 BKN024 28/23 A2974 Q1007 NOSIG', 'MZBZ 031700Z 15010KT 9999 SCT023 28/23 A2977 Q1008 NOSIG', 'MZBZ 031600Z 15007KT 9999 FEW022 BKN045 27/22 A2979 Q1009 NOSIG', 'MZBZ 031500Z 14007KT 9999 FEW020 BKN045 26/22 A2980 Q1009 NOSIG', 'MZBZ 031400Z 13006KT 9999 FEW021 SCT045 26/22 A2979 Q1009 NOSIG', 'MZBZ 031300Z 13003KT 9999 FEW020 SCT045 24/21 A2979 Q1008 NOSIG', 'MZBZ 031200Z 14003KT 9999 FEW020 24/21 A2979 Q1008 NOSIG', 'MZBZ 031100Z 14004KT CAVOK 24/21 A2978 Q1008 NOSIG', 'MZBZ 030100Z 13003KT 9999 FEW018 24/21 A2987 Q1011 NOSIG', 'MZBZ 030000Z 12003KT 9999 FEW018 25/20 A2986 Q1011 NOSIG', 'MZBZ 022300Z 16004KT 9999 FEW019 26/22 A2986 Q1011 NOSIG', 'MZBZ 022200Z 16003KT 9999 FEW019 SCT025 26/22 A2986 Q1011 NOSIG', 'MZBZ 022100Z 15004KT 9999 FEW026 A2986 Q1011 NOSIG', 'MZBZ 022000Z 14005KT 9999 SCT026 26/22 A2987 Q1011 NOSIG', 'MZBZ 021900Z 14006KT 9999 BKN025 BKN048 26/21 A2991 Q1012 NOSIG', 'MZBZ 021800Z 16004KT 9999 FEW016 BKN025 BKN048 26/21 A2994 Q1014 NOSIG', 'MZBZ 021700Z 16003KT 9999 BKN024 BKN045 24/22 A2996 Q1014 NOSIG', 'MZBZ 021600Z 16004KT 9999 FEW022 BKN040 25/22 A2998 Q1015 NOSIG', 'MZBZ 021500Z 00000KT 9999 BKN022 24/22 A2999 Q1015 NOSIG', 'MZBZ 021400Z 00000KT 9999 SCT020 22/21 A2998 Q1015 NOSIG', 'MZBZ 021300Z 00000KT 9999 FEW019 20/20 A2995 Q1014 NOSIG', 'MZBZ 021200Z 19002KT 9999 FEW019 19/19 A2994 Q1014 NOSIG', 'MZBZ 021100Z 23002KT 9999 FEW018 19/19 A2995 Q1014 NOSIG', 'MZBZ 020000Z 08005KT 9999 FEW023 25/20 A3002 Q1016 NOSIG', 'MZBZ 012300Z 07007KT 9999 FEW024 26/20 A3001 Q1016 NOSIG', 'MZBZ 012200Z 06008KT 9999 FEW024 27/19 A3001 Q1016 NOSIG', 'MZBZ 012100Z 07006KT 9999 SCT022 SCT045 27/18 A3002 Q1016 NOSIG', 'MZBZ 012000Z 06006KT 9999 SCT024 27/19 A3002 Q1016 NOSIG', 'MZBZ 011900Z 07005KT 9999 FEW022 27/19 A3005 Q1017 NOSIG', 'MZBZ 011800Z 05005KT 9999 FEW022 27/16 A3008 Q1018 NOSIG', 'MZBZ 011700Z 33004KT 9999 FEW020 SCT045 26/18 A3011 Q1019 NOSIG', 'MZBZ 011600Z 32004KT 9999 FEW020 SCT045 25/18 A3013 Q1020 NOSIG', 'MZBZ 011500Z 33004KT 9999 FEW020 23/19 A3013 Q1020 NOSIG', 'MZBZ 011400Z VRB02KT 9999 FEW020 21/18 A3010 Q1019 NOSIG', 'MZBZ 011300Z 32004KT 9999 FEW018 19/18 A3010 Q1019 NOSIG', 'MZBZ 011200Z VRB02KT 9999 FEW018 21/19 A3010 Q1019 NOSIG', 'MZBZ 011100Z VRB02KT 9999 FEW018 BKN048 21/20 A3008 Q1018 NOSIG', 'MZBZ 010000Z 05005KT 9999 FEW017 BKN045 25/18 A3007 Q1018 NOSIG']","['2024-02-03 23:00:00', '2024-02-03 22:00:00', '2024-02-03 21:00:00', '2024-02-03 20:00:00', '2024-02-03 19:00:00', '2024-02-03 18:00:00', '2024-02-03 17:00:00', '2024-02-03 16:00:00', '2024-02-03 15:00:00', '2024-02-03 14:00:00', '2024-02-03 13:00:00', '2024-02-03 12:00:00', '2024-02-03 11:00:00', '2024-02-03 01:00:00', '2024-02-03 00:00:00', '2024-02-02 23:00:00', '2024-02-02 22:00:00', '2024-02-02 21:00:00', '2024-02-02 20:00:00', '2024-02-02 19:00:00', '2024-02-02 18:00:00', '2024-02-02 17:00:00', '2024-02-02 16:00:00', '2024-02-02 15:00:00', '2024-02-02 14:00:00', '2024-02-02 13:00:00', '2024-02-02 12:00:00', '2024-02-02 11:00:00', '2024-02-02 00:00:00', '2024-02-01 23:00:00', '2024-02-01 22:00:00', '2024-02-01 21:00:00', '2024-02-01 20:00:00', '2024-02-01 19:00:00', '2024-02-01 18:00:00', '2024-02-01 17:00:00', '2024-02-01 16:00:00', '2024-02-01 15:00:00', '2024-02-01 14:00:00', '2024-02-01 13:00:00', '2024-02-01 12:00:00', '2024-02-01 11:00:00', '2024-02-01 00:00:00']"
Benin, Cotonou Cadjehoun Airport (COO/DBBB) ,"['DBBB 032200Z 14006KT 2200 DU NSC 29/21 Q1012 NOSIG', 'DBBB 032100Z VRB03KT 2200 DU NSC 29/20 Q1012 NOSIG', 'DBBB 031900Z 11005KT 2200 DU NSC 30/16 Q1009 NOSIG', 'DBBB 031800Z 12005KT 090V160 2200 DU NSC 30/16 Q1008 NOSIG', 'DBBB 031700Z 14007KT 2200 DU NSC 31/15 Q1008 NOSIG', 'DBBB 031600Z 14007KT 2200 DU NSC 33/11 Q1008 NOSIG', 'DBBB 031500Z 16007KT 130V190 2200 DU NSC 33/13 Q1008 NOSIG', 'DBBB 031400Z 04005KT 350V070 2200 DU NSC 34/09 Q1009 NOSIG', 'DBBB 031300Z 03005KT 330V070 2200 DU NSC 33/10 Q1010 NOSIG', 'DBBB 031200Z 04007KT 340V070 2200 DU NSC 32/12 Q1011 NOSIG', 'DBBB 031100Z 03008KT 350V060 2500 DU NSC 31/16 Q1012 NOSIG', 'DBBB 031000Z 02007KT 340V050 2500 DU SCT012 29/22 Q1012 NOSIG', 'DBBB 030900Z 02007KT 350V050 2500 DU SCT008 27/25 Q1012 NOSIG', 'DBBB 030800Z 36005KT 330V030 2500 DU FEW008 26/19 Q1012 NOSIG', 'DBBB 030700Z 01005KT 340V040 2200 BR SCT006 26/22 Q1011 NOSIG', 'DBBB 030600Z 01004KT 2200 BR SCT006 27/26 Q1011 NOSIG', 'DBBB 030500Z VRB02KT 6000 FEW010 27/26 Q1010 BECMG 3500 BR', 'DBBB 030400Z VRB03KT 6000 FEW010 27/26 Q1010 BECMG 3500 BR', 'DBBB 030300Z VRB02KT 6000 FEW010 27/26 Q1010 BECMG 3500 BR', 'DBBB 030100Z 30002KT 6000 FEW012 28/26 Q1011 NOSIG', 'DBBB 030000Z 24003KT 6000 FEW012 28/26 Q1011 NOSIG', 'DBBB 022300Z 20005KT 6000 FEW012 29/27 Q1011 NOSIG', 'DBBB 022200Z 19004KT 6000 FEW012 29/27 Q1011 NOSIG', 'DBBB 022000Z 20004KT 6000 FEW012 29/26 Q1010 NOSIG', 'DBBB 021900Z 20006KT 6000 FEW012 29/27 Q1009 NOSIG', 'DBBB 021800Z 21007KT 6000 FEW012 29/26 Q1008 NOSIG', 'DBBB 021700Z 19006KT 6000 FEW012 31/26 Q1008 NOSIG', 'DBBB 021600Z 19007KT 6000 FEW012 31/26 Q1008 NOSIG', 'DBBB 021500Z 19007KT 170V230 6000 FEW012 32/26 Q1009 NOSIG', 'DBBB 021400Z 23008KT 4000 HZ SCT010 32/26 Q1009 BECMG 6000 NSW', 'DBBB 021300Z 21009KT 4000 HZ SCT010 31/26 Q1010 NOSIG', 'DBBB 021200Z VRB03KT 3500 HZ SCT010 FEW020CB 33/26 Q1011 NOSIG', 'DBBB 021100Z 26007KT 230V310 3500 HZ SCT010 32/25 Q1013 BECMG 6000 NSW', 'DBBB 021000Z 29006KT 240V330 3200 HZ SCT010 31/26 Q1013 NOSIG', 'DBBB 020900Z 33005KT 290V360 3200 BR SCT008 30/26 Q1013 NOSIG', 'DBBB 020800Z 35004KT 310V050 3200 BR SCT008 28/27 Q1013 TEMPO 2200 BR', 'DBBB 020700Z VRB03KT 3500 BR SCT011 28/27 Q1013 NOSIG', 'DBBB 020400Z 25004KT 230V290 6000 SCT012 29/27 Q1012 NOSIG', 'DBBB 020300Z 24007KT 6000 FEW012 29/27 Q1012 NOSIG', 'DBBB 020200Z 24009KT 6000 SCT012 29/26 Q1012 NOSIG', 'DBBB 020000Z 23008KT 6000 SCT012 29/27 Q1013 NOSIG', 'DBBB 012300Z 22008KT 6000 FEW012 29/27 Q1013 NOSIG', 'DBBB 012200Z 21009KT 4500 HZ NSC 29/27 Q1013 NOSIG', 'DBBB 012000Z 22008KT 3500 HZ NSC 29/27 Q1012 NOSIG', 'DBBB 011900Z 21008KT 3500 HZ NSC 29/27 Q1012 NOSIG', 'DBBB 011800Z 20009KT 3600 HZ NSC 30/26 Q1011 NOSIG', 'DBBB 011700Z 20008KT 3800 HZ NSC 30/26 Q1010 NOSIG', 'DBBB 011600Z 19007KT 3800 HZ NSC 31/26 Q1010 NOSIG', 'DBBB 011500Z 20009KT 3800 HZ NSC 32/26 Q1010 NOSIG', 'DBBB 011400Z 20010KT 3800 HZ NSC 32/25 Q1011 NOSIG', 'DBBB 011300Z 20011KT 3500 HZ SCT013 33/25 Q1012 NOSIG', 'DBBB 011200Z 25006KT 210V280 3500 HZ SCT013 33/25 Q1013 NOSIG', 'DBBB 011100Z 23006KT 180V320 3200 BR SCT006 32/25 Q1014 NOSIG', 'DBBB 011000Z VRB02KT 2800 BR SCT006 30/26 Q1014 NOSIG', 'DBBB 010900Z 35004KT 320V030 2800 BR SCT006 29/27 Q1015 NOSIG', 'DBBB 010800Z 02003KT 2800 BR SCT006 28/26 Q1015 NOSIG', 'DBBB 010700Z 36004KT 320V040 2600 BR SCT006 28/26 Q1014 NOSIG', 'DBBB 010600Z 01003KT 3500 DU NSC 28/26 Q1013 NOSIG', 'DBBB 010500Z 25005KT 3500 DU NSC 28/26 Q1013 NOSIG', 'DBBB 010400Z 25005KT 3500 DU NSC 28/26 Q1012 NOSIG', 'DBBB 010300Z 24008KT 3500 DU NSC 28/26 Q1012 NOSIG', 'DBBB 010200Z 23008KT 3500 DU NSC 28/27 Q1013 NOSIG', 'DBBB 010100Z 21008KT 3500 DU NSC 29/27 Q1013 NOSIG', 'DBBB 010000Z 20005KT 3500 DU NSC 29/27 Q1013 NOSIG']","['2024-02-03 22:00:00', '2024-02-03 21:00:00', '2024-02-03 19:00:00', '2024-02-03 18:00:00', '2024-02-03 17:00:00', '2024-02-03 16:00:00', '2024-02-03 15:00:00', '2024-02-03 14:00:00', '2024-02-03 13:00:00', '2024-02-03 12:00:00', '2024-02-03 11:00:00', '2024-02-03 10:00:00', '2024-02-03 09:00:00', '2024-02-03 08:00:00', '2024-02-03 07:00:00', '2024-02-03 06:00:00', '2024-02-03 05:00:00', '2024-02-03 04:00:00', '2024-02-03 03:00:00', '2024-02-03 01:00:00', '2024-02-03 00:00:00', '2024-02-02 23:00:00', '2024-02-02 22:00:00', '2024-02-02 20:00:00', '2024-02-02 19:00:00', '2024-02-02 18:00:00', '2024-02-02 17:00:00', '2024-02-02 16:00:00', '2024-02-02 15:00:00', '2024-02-02 14:00:00', '2024-02-02 13:00:00', '2024-02-02 12:00:00', '2024-02-02 11:00:00', '2024-02-02 10:00:00', '2024-02-02 09:00:00', '2024-02-02 08:00:00', '2024-02-02 07:00:00', '2024-02-02 04:00:00', '2024-02-02 03:00:00', '2024-02-02 02:00:00', '2024-02-02 00:00:00', '2024-02-01 23:00:00', '2024-02-01 22:00:00', '2024-02-01 20:00:00', '2024-02-01 19:00:00', '2024-02-01 18:00:00', '2024-02-01 17:00:00', '2024-02-01 16:00:00', '2024-02-01 15:00:00', '2024-02-01 14:00:00', '2024-02-01 13:00:00', '2024-02-01 12:00:00', '2024-02-01 11:00:00', '2024-02-01 10:00:00', '2024-02-01 09:00:00', '2024-02-01 08:00:00', '2024-02-01 07:00:00', '2024-02-01 06:00:00', '2024-02-01 05:00:00', '2024-02-01 04:00:00', '2024-02-01 03:00:00', '2024-02-01 02:00:00', '2024-02-01 01:00:00', '2024-02-01 00:00:00']"
Bermuda, Bermuda L.F. Wade International Airport (BDA/TXKF) ,"['TXKF 032255Z 34015KT 9999 FEW028 16/11 Q1003 \x03', 'TXKF 032159Z 31018G28KT 9999 VCSH SCT029 16/11 Q1002 \x03', 'TXKF 032055Z 28022KT 9999 VCSH BKN037 17/11 Q1001 \x03', 'TXKF 031955Z 29017KT 9999 VCSH BKN031 17/13 Q1001 \x03', 'TXKF 031858Z 30019KT 9999 VCSH SCT029 BKN070 17/12 Q1001 \x03', 'TXKF 031755Z 31020G30KT 9999 VCSH FEW016 SCT022 BKN075 18/13 Q1001 \x03', 'TXKF 031655Z 29019KT 9999 VCSH FEW010CB FEW021 SCT079 BKN098 17/14 Q1002 \x03', 'TXKF 031625Z 26018KT 9999 VCTS SCT025CB BKN056 OVC095 18/14 Q1002 \x03', 'TXKF 031555Z 24013KT 9999 FEW034 SCT053 BKN080 19/14 Q1002 \x03', 'TXKF 031455Z 26013KT 9999 FEW030 SCT052 BKN075 BKN200 19/15 Q1003 \x03', 'TXKF 031355Z 29013KT 9999 VCSH FEW030 SCT080 BKN160 BKN300 17/14 Q1004 \x03', 'TXKF 031255Z 26014KT 9999 FEW029 SCT160 BKN180 BKN200 18/16 Q1004 \x03', 'TXKF 031155Z 23006KT 9999 VCSH SCT025 BKN140 BKN300 17/16 Q1004 \x03', 'TXKF 031055Z 23011KT 9999 VCSH FEW012 FEW040 BKN068 OVC140 17/15 Q1004 \x03', 'TXKF 030955Z 25013KT 9999 VCSH FEW012 SCT033 BKN060 OVC160 16/15 Q1004 \x03', 'TXKF 030855Z 25013KT 9999 -SHRA SCT018 BKN030 BKN070 OVC160 17/16 Q1004 \x03', 'TXKF 030755Z 25011KT 9999 VCSH FEW013 SCT033 BKN069 OVC200 17/15 Q1005 \x03', 'TXKF 030655Z 23015KT 9999 -SHRA SCT008 BKN019 BKN044 OVC200 18/14 Q1005 \x03', 'TXKF 030555Z 23013KT 9999 SCT033 BKN210 BKN240 18/13 Q1006 \x03', 'TXKF 030455Z 23013KT 9999 FEW032 BKN180 OVC230 18/13 Q1006 \x03', 'TXKF 030355Z 23011KT 9999 FEW032 BKN200 OVC240 17/13 Q1007 \x03', 'TXKF 030255Z 23009KT 9999 FEW032 BKN200 OVC240 17/13 Q1008 \x03', 'TXKF 030155Z 23007KT 9999 FEW031 BKN220 BKN250 17/13 Q1009 \x03', 'TXKF 030055Z 26010KT 9999 FEW028 BKN220 OVC250 17/13 Q1009 \x03', 'TXKF 022355Z 27009KT 9999 FEW028 BKN230 BKN250 17/12 Q1010 \x03', 'TXKF 022255Z 28009KT 9999 FEW034 BKN230 BKN250 17/12 Q1010 \x03', 'TXKF 022155Z 29008KT 9999 FEW034 BKN300 17/12 Q1010 \x03', 'TXKF 022055Z 29009KT 9999 FEW035 OVC300 18/12 Q1009 \x03', 'TXKF 021955Z 31011KT 9999 FEW032 OVC300 18/12 Q1009 \x03', 'TXKF 021855Z 32011KT 9999 FEW032 BKN300 19/12 Q1009 \x03', 'TXKF 021755Z 34011KT 310V010 9999 FEW034 BKN300 19/12 Q1009 \x03', 'TXKF 021655Z 34011KT 9999 SCT033 SCT300 19/13 Q1010 \x03', 'TXKF 021555Z 36010KT 320V020 9999 VCSH SCT030 19/13 Q1011 \x03', 'TXKF 021455Z 01012KT 9999 VCSH FEW025 FEW060 18/14 Q1011 \x03', 'TXKF 021429Z 35012KT 9999 VCSH FEW024 SCT036 BKN050 18/13 Q1012 \x03', 'TXKF 021355Z 34011KT 9999 -SHRA FEW011 FEW024 BKN038 BKN056 18/14 Q1011 \x03', 'TXKF 021255Z 35013KT 9999 VCSH FEW016 FEW034 SCT047 17/13 Q1011 \x03', 'TXKF 021155Z 35011KT 9999 VCSH SCT034 BKN047 17/12 Q1011 \x03', 'TXKF 021055Z 35011KT 310V040 9999 VCSH FEW016 SCT030 BKN053 17/13 Q1010 \x03', 'TXKF 020955Z 35013KT 9999 SCT037 BKN047 17/09 Q1009 \x03', 'TXKF 020855Z 36014KT 330V030 9999 BKN040 17/10 Q1008 \x03', 'TXKF 020755Z 01015KT 9999 SCT040 17/10 Q1008 \x03', 'TXKF 020655Z 36015KT 9999 SCT037 17/10 Q1008 \x03', 'TXKF 020555Z 36016KT 9999 SCT033 SCT053 17/11 Q1008 \x03', 'TXKF 020455Z 01016KT 9999 SCT033 SCT053 17/12 Q1008 \x03', 'TXKF 020355Z 02017KT 9999 VCSH SCT033 SCT053 17/12 Q1009 \x03', 'TXKF 020255Z 01019G29KT 9999 VCSH FEW030 SCT055 SCT140 17/12 Q1009 \x03', 'TXKF 020155Z 02020G30KT 9999 -SHRA BKN020 BKN040 OVC130 17/13 Q1008 \x03', 'TXKF 020055Z 03021G31KT 9999 SCT023 BKN080 OVC120 17/13 Q1006 \x03', 'TXKF 012355Z 03022G33KT 9999 SCT025 BKN100 BKN130 16/13 Q1005 \x03', 'TXKF 012255Z 04022G33KT 9999 FEW023 SCT070 BKN110 17/13 Q1004 \x03', 'TXKF 012155Z 03031G43KT 9000 -RADZ BR SCT021 BKN054 OVC068 16/12 Q1003 \x03', 'TXKF 012055Z 03030G44KT 9000 -DZ BR SCT021 BKN033 OVC067 Q1002 \x03', 'TXKF 012012Z 03035G49KT 9999 BKN017 BKN028 OVC053 16/13 Q1001 \x03', 'TXKF 011955Z 03032G45KT 9000 -DZ BR BKN014 BKN029 OVC054 16/14 Q1001 \x03', 'TXKF 011902Z 04030G42KT 9999 BKN013 BKN028 OVC070 16/15 Q1000 \x03', 'TXKF 011855Z 04031G44KT 9999 BKN015 BKN036 OVC068 16/14 Q0999 \x03', 'TXKF 011755Z 06027G38KT 4000 -RA BR BKN009 OVC028 16/15 Q0999 \x03', 'TXKF 011714Z 07028G38KT 2500 -RA BR BKN011 OVC025 16/16 Q0998 \x03', 'TXKF 011655Z 08023G33KT 2900 R12///// RA BR BKN010 OVC029 16/16 Q0998 \x03', 'TXKF 011620Z 11015G27KT 2000 R12///// RA BR BKN007 OVC017 16/16 Q0999 \x03', 'TXKF 011555Z 08015KT 5000 R12///// -RA BR BKN008 OVC029 17/16 Q1000 \x03', 'TXKF 011522Z 05020G30KT 5000 R12///// -RA BR BKN009 OVC026 16/15 Q1000 \x03', 'TXKF 011455Z 07023KT 9999 R12///// SCT009 BKN027 OVC038 16/15 Q1001 \x03', 'TXKF 011401Z 09022G32KT 5000 -RA BR BKN009 BKN027 OVC051 16/16 Q1001 \x03', 'TXKF 011355Z 09022KT 2300 RA BR BKN009 OVC023 Q1002 \x03', 'TXKF 011315Z 12016G26KT 5000 RA BKN011 BKN025 OVC070 16/16 Q1002 \x03', 'TXKF 011257Z 09019KT 1400 R12/P2000N +RA BKN007 OVC029 16/15 Q1002 \x03', 'TXKF 011226Z 10019KT 8000 -RA BKN009 BKN025 OVC071 16/15 Q1003 \x03', 'TXKF 011155Z 12017KT 7000 -RA SCT009 BKN035 OVC078 16/15 Q1003 \x03', 'TXKF 011126Z 13014KT 090V150 4000 RA BKN008 OVC030 16/16 Q1004 \x03', 'TXKF 011055Z 07006KT 050V140 6000 -RA SCT011 BKN033 OVC068 15/14 Q1004 \x03', 'TXKF 011028Z 11010KT 5000 RA FEW008 SCT026 BKN037 OVC070 15/15 Q1005 \x03', 'TXKF 010955Z 12012KT 8000 -RA SCT011 BKN045 OVC080 16/15 Q1005 \x03', 'TXKF 010855Z 16009KT 8000 -RA SCT012 BKN043 OVC080 16/15 Q1005 \x03', 'TXKF 010755Z 12009KT 6000 -RA SCT008 SCT017 BKN050 OVC085 15/14 Q1006 \x03', 'TXKF 010720Z 14014G24KT 4800 RA SCT013TCU BKN040 BKN070 OVC110 15/14 Q1006 \x03', 'TXKF 010655Z 13014KT 9000 -RA SCT013TCU SCT033 BKN070 OVC120 16/14 Q1007 \x03', 'TXKF 010555Z 15012KT 9999 -RA FEW008 SCT023 BKN073 OVC090 16/14 Q1008 \x03', 'TXKF 010523Z 15016KT 9999 -RA FEW008 SCT025 BKN050 OVC070 15/15 Q1008 \x03', 'TXKF 010455Z 14023G35KT 2000 RA SCT012 BKN030 OVC080 15/14 Q1009 \x03', 'TXKF 010355Z 14018KT 9999 -SHRA SCT030 BKN080 BKN160 BKN300 17/12 Q1009 \x03', 'TXKF 010255Z 11012KT 9999 VCSH SCT013 BKN030 BKN043 OVC090 15/13 Q1011 \x03', 'TXKF 010155Z 15016KT 9999 VCSH FEW020 SCT037 BKN075 BKN170 16/12 Q1012 \x03', 'TXKF 010055Z 14015KT 9999 VCSH FEW037 SCT053 BKN077 16/12 Q1013 \x03', 'TXKF 312355Z 14010KT 9999 VCSH FEW020 BKN035 OVC045 16/11 Q1013 \x03']","['2024-02-03 22:55:00', '2024-02-03 21:59:00', '2024-02-03 20:55:00', '2024-02-03 19:55:00', '2024-02-03 18:58:00', '2024-02-03 17:55:00', '2024-02-03 16:55:00', '2024-02-03 16:25:00', '2024-02-03 15:55:00', '2024-02-03 14:55:00', '2024-02-03 13:55:00', '2024-02-03 12:55:00', '2024-02-03 11:55:00', '2024-02-03 10:55:00', '2024-02-03 09:55:00', '2024-02-03 08:55:00', '2024-02-03 07:55:00', '2024-02-03 06:55:00', '2024-02-03 05:55:00', '2024-02-03 04:55:00', '2024-02-03 03:55:00', '2024-02-03 02:55:00', '2024-02-03 01:55:00', '2024-02-03 00:55:00', '2024-02-02 23:55:00', '2024-02-02 22:55:00', '2024-02-02 21:55:00', '2024-02-02 20:55:00', '2024-02-02 19:55:00', '2024-02-02 18:55:00', '2024-02-02 17:55:00', '2024-02-02 16:55:00', '2024-02-02 15:55:00', '2024-02-02 14:55:00', '2024-02-02 14:29:00', '2024-02-02 13:55:00', '2024-02-02 12:55:00', '2024-02-02 11:55:00', '2024-02-02 10:55:00', '2024-02-02 09:55:00', '2024-02-02 08:55:00', '2024-02-02 07:55:00', '2024-02-02 06:55:00', '2024-02-02 05:55:00', '2024-02-02 04:55:00', '2024-02-02 03:55:00', '2024-02-02 02:55:00', '2024-02-02 01:55:00', '2024-02-02 00:55:00', '2024-02-01 23:55:00', '2024-02-01 22:55:00', '2024-02-01 21:55:00', '2024-02-01 20:55:00', '2024-02-01 20:12:00', '2024-02-01 19:55:00', '2024-02-01 19:02:00', '2024-02-01 18:55:00', '2024-02-01 17:55:00', '2024-02-01 17:14:00', '2024-02-01 16:55:00', '2024-02-01 16:20:00', '2024-02-01 15:55:00', '2024-02-01 15:22:00', '2024-02-01 14:55:00', '2024-02-01 14:01:00', '2024-02-01 13:55:00', '2024-02-01 13:15:00', '2024-02-01 12:57:00', '2024-02-01 12:26:00', '2024-02-01 11:55:00', '2024-02-01 11:26:00', '2024-02-01 10:55:00', '2024-02-01 10:28:00', '2024-02-01 09:55:00', '2024-02-01 08:55:00', '2024-02-01 07:55:00', '2024-02-01 07:20:00', '2024-02-01 06:55:00', '2024-02-01 05:55:00', '2024-02-01 05:23:00', '2024-02-01 04:55:00', '2024-02-01 03:55:00', '2024-02-01 02:55:00', '2024-02-01 01:55:00', '2024-02-01 00:55:00', '2024-01-31 23:55:00']"
Bolivia, Cobija Capitan Anibal Arab Airport (CIJ/SLCO) ,"['SLCO 031700Z 11004KT 9999 SCT023 FEW025CB 32/26 Q1011', 'SLCO 031600Z 30003KT 9999 BKN020 32/25 Q1012', 'SLCO 031500Z 00000KT 9999 BKN017 31/26 Q1013', 'SLCO 031400Z 03003KT 9999 BKN017 30/26 Q1013', 'SLCO 031300Z 03003KT 9999 FEW015 28/25 Q1013', 'SLCO 031200Z 18003KT 9999 SCT015 26/25 Q1013', 'SLCO 022300Z 28003KT 9999 FEW020 SCT200 30/25 Q1008', 'SLCO 022200Z 25003KT 9999 FEW020 BKN200 31/25 Q1008', 'SLCO 022100Z 26004KT 9999 FEW017 FEW020CB BKN200 31/25 Q1008', 'SLCO 022000Z 17003KT 8000 TS VCSH SCT017 FEW020CB BKN200 29/25 Q1010', 'SLCO 021900Z 19010KT 6000 TS VCSH BKN017 FEW020CB BKN200 30/26 Q1011', 'SLCO 021800Z 19006KT 5000 VCSH BKN017 FEW020CB BKN200 30/26 Q1011', 'SLCO 021700Z 34003KT 9999 SCT017 FEW020CB BKN200 32/26 Q1012', 'SLCO 021600Z 30004KT 9999 BKN015 BKN200 32/25 Q1014', 'SLCO 021500Z 25003KT 9999 SCT013 BKN200 31/26 Q1014', 'SLCO 021400Z 30003KT 9999 FEW012 BKN200 29/26 Q1015', 'SLCO 021300Z 27003KT 9999 FEW003 SCT080 OVC200 26/25 Q1015', 'SLCO 021200Z 00000KT 9999 FEW002 BKN080 OVC200 25/24 Q1015', 'SLCO 021100Z 00000KT 9999 FEW010 FEW020CB BKN080 OVC200 24/24 Q1014', 'SLCO 021000Z 00000KT 8000 BKN080 24/24 Q1013', 'SLCO 012300Z 01003KT 9999 FEW023 SCT080 BKN200 30/24 Q1009', 'SLCO 012200Z 01006KT 9999 FEW023 FEW025CB SCT090 BKN200 31/25 Q1009', 'SLCO 012100Z 04003KT 9999 FEW023 FEW025CB SCT200 32/24 Q1010', 'SLCO 012000Z 36005KT 9999 FEW023 FEW025CB SCT090 32/25 Q1010', 'SLCO 011900Z 36010KT 9999 FEW020 BON090 32/25 Q1011', 'SLCO 011800Z 02004KT 9999 FEW017 BKN100 32/25 Q1012', 'SLCO 011700Z 02005KT 9999 BKN090 32/25 Q1013', 'SLCO 011600Z 32003KT 9999 FEW013 BKN090 BKN200 32/25 Q1014', 'SLCO 011500Z 22006KT 9999 SCT090 BKN200 31/24 Q1014', 'SLCO 011400Z 30005KT 9999 SCT080 BKN200 29/24 Q1014', 'SLCO 011300Z 30005KT 9999 FEW005 SCT080 BKN200 27/24 Q1014', 'SLCO 011200Z 28003KT 9999 FEW003 BKN080 BKN200 24/23 Q1013', 'SLCO 011100Z 00000KT 9999 FEW003 SCT080 BKN200 23/23 Q1013 A2992 METAR SLRI 011100Z 00000KT 9999 BKN004 BKN070 25/24 Q1013', 'SLCO 011000Z 30003KT 9999 SCT080 23/23 Q1013']","['2024-02-03 17:00:00', '2024-02-03 16:00:00', '2024-02-03 15:00:00', '2024-02-03 14:00:00', '2024-02-03 13:00:00', '2024-02-03 12:00:00', '2024-02-02 23:00:00', '2024-02-02 22:00:00', '2024-02-02 21:00:00', '2024-02-02 20:00:00', '2024-02-02 19:00:00', '2024-02-02 18:00:00', '2024-02-02 17:00:00', '2024-02-02 16:00:00', '2024-02-02 15:00:00', '2024-02-02 14:00:00', '2024-02-02 13:00:00', '2024-02-02 12:00:00', '2024-02-02 11:00:00', '2024-02-02 10:00:00', '2024-02-01 23:00:00', '2024-02-01 22:00:00', '2024-02-01 21:00:00', '2024-02-01 20:00:00', '2024-02-01 19:00:00', '2024-02-01 18:00:00', '2024-02-01 17:00:00', '2024-02-01 16:00:00', '2024-02-01 15:00:00', '2024-02-01 14:00:00', '2024-02-01 13:00:00', '2024-02-01 12:00:00', '2024-02-01 11:00:00', '2024-02-01 10:00:00']"
Bolivia, Cochabamba Jorge Wilstermann International Airport (CBB/SLCB) ,"['SLCB 032200Z 12010KT 060V190 9999 FEW033 25/06 Q1023', 'SLCB 032100Z 14012KT 070V190 9999 FEW033 FEW036TCU 25/08 Q1023', 'SLCB 032000Z 14010KT 060V210 9999 FEW033 26/08 Q1024', 'SLCB 031900Z 12009KT 060V210 9999 SCT033 27/07 Q1025', 'SLCB 031800Z 13009KT 080V190 9999 SCT033 26/08 Q1026', 'SLCB 031700Z 10005KT 9999 SCT030 25/08 Q1027', 'SLCB 031600Z 10004KT 9999 SCT030 24/09 Q1028', 'SLCB 031500Z 10003KT 9999 SCT030 22/11 Q1029', 'SLCB 031400Z 35003KT 9999 SCT030 19/12 Q1030', 'SLCB 031300Z 26004KT 9999 FEW030 20/13 Q1030', 'SLCB 031200Z 00000KT 9999 FEW030 SCT070 19/13 Q1030', 'SLCB 031100Z 00000KT 9999 FEW030 SCT070 16/13 Q1029', 'SLCB 031000Z 00000KT 9999 FEW030 BKN070 14/12 Q1028', 'SLCB 030900Z 00000KT 9999 FEW030 BKN070 14/12 Q1028', 'SLCB 030800Z 31004KT 9999 FEW030 BKN070 15/12 Q1027', 'SLCB 030700Z 10010KT 060V170 9999 FEW030 BKN070 15/11 Q1027', 'SLCB 030500Z 28003KT 9999 FEW030 BKN080 17/13 Q1028', 'SLCB 030400Z 21003KT 9999 FEW030 BKN080 17/13 Q1028', 'SLCB 030300Z 06004KT 9999 FEW030 BKN080 17/13 Q1029', 'SLCB 030200Z 19004KT 9999 FEW030 SCT200 15/14 Q1028', 'SLCB 030100Z 00000KT 9999 FEW030 SCT200 17/11 Q1027', 'SLCB 030000Z 16008KT 120V200 8000 VCSH FEW030 FEW033CB BKN070 17/12 Q1026', 'SLCB 022300Z 24003KT 9999 FEW030 FEW033CB 18/11 Q1025', 'SLCB 022200Z 24004KT 9999 FEW030 21/10 Q1025', 'SLCB 022100Z 22004KT 9999 FEW030 FEW033CB BKN070 21/10 Q1026', 'SLCB 022000Z 00000KT 8000 VCSH SCT030 FEW033CB BKN070 19/10 Q1026', 'SLCB 021918Z 07008KT 360V150 9000 VCSH SCT030 FEW033CB BKN070 18/13 Q1027', 'SLCB 021830Z 12008G22KT 080V250 9999 SCT030 FEW033CB BKN070 20/10 Q1027', 'SLCB 021800Z 21004KT 9999 -RA SCT030 FEW033CB BKN070 22/11 Q1027', 'SLCB 021700Z 28003KT 9999 SCT030 SCT070 22/11 Q1028', 'SLCB 021600Z 10004KT 9999 SCT027 SCT070 20/11 Q1030', 'SLCB 021500Z 20004KT 9999 SCT027 SCT070 21/11 Q1031', 'SLCB 021400Z 31003KT 9999 SCT027 SCT070 18/13 Q1032', 'SLCB 021300Z 00000KT 9999 SCT027 BKN070 17/13 Q1032', 'SLCB 021200Z 23003KT 9999 SCT027 BKN070 16/13 Q1032', 'SLCB 021100Z 00000KT 9999 FEW008 SCT027 BKN070 15/14 Q1031', 'SLCB 021000Z 29005KT 260V010 9999 FEW007 SCT027 BKN070 14/14 Q1030', 'SLCB 020900Z 35003KT 9999 FEW010 SCT027 OVC070 14/14 Q1030', 'SLCB 020800Z 15008KT 020V180 8000 -RA SCT027 OVC070 14/13 Q1029', 'SLCB 020700Z 28004KT 9999 SCT027 OVC070 16/13 Q1029', 'SLCB 020600Z 32010KT 280V020 9999 SCT027 OVC070 15/13 Q1029', 'SLCB 020500Z 29006KT 200V340 8000 VCSH SCT027 OVC070 16/13 Q1030', 'SLCB 020400Z 12006KT 080V220 8000 -RA SCT027 FEW030CB OVC070 17/12 Q1030', 'SLCB 020300Z 12014KT 080V220 9999 FEW027 BKN070 19/11 Q1030', 'SLCB 020200Z 12010G20KT 060V190 9999 FEW027 BKN070 19/11 Q1029', 'SLCB 020100Z 10010G20KT 060V190 9999 FEW027 BKN070 20/11 Q1028', 'SLCB 020000Z 10010KT 060V190 9999 FEW027 FEW030CB SCT070 BKN200 20/10 Q1027', 'SLCB 012300Z 11005KT 060V160 9999 FEW027 FEW030CB SCT070 22/11 Q1026', 'SLCB 012200Z 14006KT 090V200 9999 SCT025 FEW030CB SCT070 24/11 Q1025', 'SLCB 012100Z 28003KT 9999 SCT025 FEW030CB 25/11 Q1025', 'SLCB 012000Z 24006KT 190V290 9999 SCT025 24/11 Q1026', 'SLCB 011900Z 24004KT 9999 SCT025 SCT070 23/11 Q1027', 'SLCB 011800Z 30005KT 250V360 9999 SCT025 SCT070 23/12 Q1029', 'SLCB 011700Z 27005KT 200V360 9999 SCT025 BKN070 21/12 Q1030', 'SLCB 011600Z 31004KT 260V360 9999 SCT023 BKN070 20/12 Q1032', 'SLCB 011500Z 30005KT 9999 SCT020 BKN070 17/13 Q1032', 'SLCB 011400Z 31006KT 260V010 9999 SCT010 SCT023 OVC070 15/14 Q1033', 'SLCB 011300Z 30009KT 250V350 6000 -RA SCT008 BKN023 OVC070 14/14 Q1032', 'SLCB 011200Z 30006KT 250V360 5000 -RA BR SCT008 BKN023 OVC070 14/14 Q1032', 'SLCB 011100Z 30004KT 4000 -RA BR SCT008 BKN023 OVC070 15/14 Q1030', 'SLCB 011042Z 28003KT 5000 -RA BR SCT008 BKN023 OVC070 15/15 Q1030', 'SLCB 011000Z 30003KT 9000 -RA FEW012 SCT023 OVC070 15/15 Q1029', 'SLCB 010900Z 34004KT 8000 -RA SCT025 OVC070 15/14 Q1028', 'SLCB 010800Z 32006KT 7000 -RA SCT027 OVC070 16/13 Q1028', 'SLCB 010700Z 31003KT 9000 -RA SCT030 FEW033CB BKN070 OVC200 17/13 Q1027', 'SLCB 010600Z 30008KT 270V360 9999 FEW030 FEW033CB BKN070 BKN200 18/13 Q1027', 'SLCB 010500Z 00000KT V9999 FEW030 FEW033CB BKN070 20/11 Q1027', 'SLCB 010400Z 06008KT 360V090 9999 FEW030 FEW033CB BKN070 20/12 Q1028', 'SLCB 010300Z 13005KT 9999 FEW033 SCT070 BKN200 20/11 Q1028', 'SLCB 010200Z 15003KT 9999 FEW033 SCT070 BKN200 20/11 Q1028', 'SLCB 010100Z 00000KT 9999 FEW033 SCT200 20/10 Q1026', 'SLCB 010000Z 22003KT 9999 FEW033 21/09 Q1025']","['2024-02-03 22:00:00', '2024-02-03 21:00:00', '2024-02-03 20:00:00', '2024-02-03 19:00:00', '2024-02-03 18:00:00', '2024-02-03 17:00:00', '2024-02-03 16:00:00', '2024-02-03 15:00:00', '2024-02-03 14:00:00', '2024-02-03 13:00:00', '2024-02-03 12:00:00', '2024-02-03 11:00:00', '2024-02-03 10:00:00', '2024-02-03 09:00:00', '2024-02-03 08:00:00', '2024-02-03 07:00:00', '2024-02-03 05:00:00', '2024-02-03 04:00:00', '2024-02-03 03:00:00', '2024-02-03 02:00:00', '2024-02-03 01:00:00', '2024-02-03 00:00:00', '2024-02-02 23:00:00', '2024-02-02 22:00:00', '2024-02-02 21:00:00', '2024-02-02 20:00:00', '2024-02-02 19:18:00', '2024-02-02 18:30:00', '2024-02-02 18:00:00', '2024-02-02 17:00:00', '2024-02-02 16:00:00', '2024-02-02 15:00:00', '2024-02-02 14:00:00', '2024-02-02 13:00:00', '2024-02-02 12:00:00', '2024-02-02 11:00:00', '2024-02-02 10:00:00', '2024-02-02 09:00:00', '2024-02-02 08:00:00', '2024-02-02 07:00:00', '2024-02-02 06:00:00', '2024-02-02 05:00:00', '2024-02-02 04:00:00', '2024-02-02 03:00:00', '2024-02-02 02:00:00', '2024-02-02 01:00:00', '2024-02-02 00:00:00', '2024-02-01 23:00:00', '2024-02-01 22:00:00', '2024-02-01 21:00:00', '2024-02-01 20:00:00', '2024-02-01 19:00:00', '2024-02-01 18:00:00', '2024-02-01 17:00:00', '2024-02-01 16:00:00', '2024-02-01 15:00:00', '2024-02-01 14:00:00', '2024-02-01 13:00:00', '2024-02-01 12:00:00', '2024-02-01 11:00:00', '2024-02-01 10:42:00', '2024-02-01 10:00:00', '2024-02-01 09:00:00', '2024-02-01 08:00:00', '2024-02-01 07:00:00', '2024-02-01 06:00:00', '2024-02-01 05:00:00', '2024-02-01 04:00:00', '2024-02-01 03:00:00', '2024-02-01 02:00:00', '2024-02-01 01:00:00', '2024-02-01 00:00:00']"
Bolivia, La Paz El Alto International Airport (LPB/SLLP) ,"['SLLP 032200Z 10012KT 080V170 9999 FEW017 15/02 Q1036', 'SLLP 032100Z 14013KT 060V170 9999 SCT017 16/00 Q1036', 'SLLP 032000Z 11011KT 050V140 9999 SCT017 16/01 Q1037', 'SLLP 031900Z 15011KT 100V230 9999 SCT017 FEW020CB 15/00 Q1038', 'SLLP 031800Z 13010KT 070V170 9999 FEW017 FEW020CB 15/02 Q1039', 'SLLP 031700Z 13011KT 100V180 9999 FEW017 14/02 Q1040', 'SLLP 031600Z 12012KT 080V170 9999 SCT017 12/02 Q1041', 'SLLP 031500Z 09012KT 070V150 9999 SCT015 11/04 Q1041', 'SLLP 031400Z 12010KT 9999 FEW006 SCT015 11/03 Q1041', 'SLLP 031300Z 13007KT 6000 FEW004 SCT012 09/05 Q1042', 'SLLP 031200Z 11006KT 9999 4000E VCFG FEW002 08/06 Q1041', 'SLLP 031100Z 09007KT 9999 4000E VCFG FEW002 07/05 Q1040', 'SLLP 031000Z 11008KT 9999 4000E VCFG FEW002 SCT010 06/06 Q1040', 'SLLP 030900Z 13009KT 9999 4000E VCFG FEW002 SCT010 06/06 Q1039', 'SLLP 030800Z 11008KT 9999 4000E VCFG FEW002 SCT010 07/06 Q1039', 'SLLP 030700Z 12007KT 9999 4000E VCFG FEW002 SCT010 07/06 Q1039', 'SLLP 030600Z 11006KT 9999 4000E VCFG FEW002 SCT010 07/06 Q1040', 'SLLP 030500Z 11006KT 9999 4000E VCFG FEW002 SCT010 06/06 Q1040', 'SLLP 030400Z 09004KT 9999 FEW004 06/05 Q1041', 'SLLP 030300Z 07004KT 9999 FEW004 SCT200 08/05 Q1041', 'SLLP 030200Z 34005KT 9999 FEW004 FEW017CB SCT070 BKN200 07/05 Q1041', 'SLLP 030115Z VRB02KT 9999 FEW006 FEW017CB SCT070 BKN200 07/05 Q1041', 'SLLP 030028Z 21010KT 8000 -TSRA SCT013 FEW017CB BKN070 BKN200 09/06 Q1040', 'SLLP 022300Z 26011KT 9999 SCT015 FEW017CB BKN200 10/07 Q1038', 'SLLP 022236Z 25010G20KT 9999 SCT017 FEW020CB BKN200 11/07 Q1038', 'SLLP 022200Z 17005KT 9999 FEW017 FEW020CB SCT070 BKN200 13/04 Q1037', 'SLLP 022100Z 13006KT 9999 SCT017 FEW020CB SCT200 14/04 Q1038', 'SLLP 022000Z 07007KT 9999 SCT017 FEW020CB SCT200 14/05 Q1038', 'SLLP 021900Z 12009KT 9999 SCT017 FEW020CB BKN200 14/06 Q1039', 'SLLP 021800Z 09009KT 9999 SCT015 FEW017CB BKN200 13/05 Q1040', 'SLLP 021700Z 12011KT 9999 FEW006 SCT015 FEW017CB BKN200 12/07 Q1041', 'SLLP 021600Z 11010KT 6000 FEW004 SCT015 FEW017CB BKN200 09/06 Q1042', 'SLLP 021500Z 11011KT 8000 4000E -RA VCFG FEW002 SCT015 FEW017CB BKN070 08/07 Q1043', 'SLLP 021438Z 12010KT 6000 -RA FEW004 SCT015 FEW017CB BKN070 08/07 Q1043', 'SLLP 021400Z 07009KT 6000 FEW004 SCT013 FEW017CB BKN070 09/06 Q1043', 'SLLP 021300Z 12008KT 4000E -RA VCFG FEW002 SCT012 BKN070 08/07 Q1043', 'SLLP 021200Z 11007KT 9999 4000E -RA VCFG FEW002 SCT010 BKN070 07/06 Q1042', 'SLLP 021100Z 11005KT 9999 4000E VCFG FEW002 SCT010 BKN200 07/06 Q1041', 'SLLP 021000Z 09005KT 9999 4000E VCFG FEW002 SCT010 BKN200 07/06 Q1040', 'SLLP 020900Z 09006KT 9999 4000E VCFG FEW002 FEW017CB SCT070 BKN200 07/06 Q1040', 'SLLP 020800Z 09008KT 9999 4000E VCFG FEW002 FEW017CB SCT070 BKN200 07/07 Q1040', 'SLLP 020700Z 08005KT 9999 FEW013 FEW017CB SCT070 BKN200 07/06 Q1040', 'SLLP 020600Z 10006KT 9999 FEW015 FEW017CB SCT070 BKN200 08/04 Q1041', 'SLLP 020500Z 10005KT 9999 FEW015 FEW017CB SCT070 BKN200 09/05 Q1042', 'SLLP 020400Z 13005KT 9999 FEW015 FEW017CB SCT070 BKN200 09/05 Q1042', 'SLLP 020300Z VRB02KT 9999 FEW015 BKN200 09/06 Q1042', 'SLLP 020200Z 31005KT 9999 FEW015 FEW017CB BKN200 09/05 Q1041', 'SLLP 020100Z 30007KT 9999 SCT015 FEW017CB SCT070 BKN200 10/06 Q1041', 'SLLP 020000Z 14009KT 8000 -TSRA SCT015 FEW017CB SCT070 BKN200 11/06 Q1040', 'SLLP 012300Z 11008KT 9999 SCT015 FEW017CB SCT070 BKN200 12/05 Q1039', 'SLLP 012200Z 11008KT 9999 VCTS SCT017 FEW020CB SCT070 BKN200 14/02 Q1038', 'SLLP 012141Z 11007KT 9999 VCTS SCT017 FEW020CB SCT070 BKN200 14/03 Q1038', 'SLLP 012100Z 11008KT 9999 SCT017 FEW020CB SCT200 16/04 Q1038', 'SLLP 012000Z 04009KT 9999 FEW017 FEW020CB 16/04 Q1038', 'SLLP 011900Z 07011KT 9999 FEW017 FEW020CB 15/04 Q1039', 'SLLP 011800Z 04012KT 9999 SCT017 FEW020CB 15/04 Q1040', 'SLLP 011700Z 05010KT 9999 SCT017 14/04 Q1041', 'SLLP 011600Z 05006KT 9999 SCT017 13/04 Q1042', 'SLLP 011500Z 06006KT 9999 SCT015 SCT070 11/05 Q1043', 'SLLP 011400Z 07008KT 9999 FEW006 SCT015 BKN070 09/05 Q1043', 'SLLP 011300Z 08008KT 6000 FEW004 SCT013 BKN070 08/05 Q1042', 'SLLP 011200Z 06007KT 6000 FEW004 SCT013 BKN070 08/04 Q1042', 'SLLP 011100Z 05009KT 9999 4000E VCFG FEW002 SCT012 BKN070 07/06 Q1041', 'SLLP 011000Z 06007KT 9999 4000E VCFG FEW002 SCT010 BKN070 07/05 Q1040', 'SLLP 010900Z 10006KT 9999 4000E VCFG FEW002 SCT010 FEW017CB BKN070 06/05 Q1040', 'SLLP 010800Z 08004KT 9999 4000E VCFG FEW002 FEW017CB SCT070 BKN200 06/05 Q1040', 'SLLP 010700Z 09005KT 9999 4000E VCFG FEW002 FEW017CB SCT200 06/05 Q1040', 'SLLP 010600Z 07007KT 9999 4000E VCFG FEW002 SCT012 BKN200 06/06 Q1040', 'SLLP 010500Z 04005KT 9999 FEW004 FEW017CB BKN200 06/05 Q1040', 'SLLP 010400Z 04007KT 9999 FEW013 FEW017CB BKN200 08/04 Q1041', 'SLLP 010300Z 08006KT 9999 FEW007 BKN200 08/06 Q1041', 'SLLP 010200Z 05005KT 9999 FEW015 SCT070 BKN200 08/06 Q1040', 'SLLP 010100Z 03005KT 9999 FEW015 FEW017CB BKN200 09/06 Q1040', 'SLLP 010000Z 30005KT 9999 FEW015 FEW017CB BKN200 10/08 Q103']","['2024-02-03 22:00:00', '2024-02-03 21:00:00', '2024-02-03 20:00:00', '2024-02-03 19:00:00', '2024-02-03 18:00:00', '2024-02-03 17:00:00', '2024-02-03 16:00:00', '2024-02-03 15:00:00', '2024-02-03 14:00:00', '2024-02-03 13:00:00', '2024-02-03 12:00:00', '2024-02-03 11:00:00', '2024-02-03 10:00:00', '2024-02-03 09:00:00', '2024-02-03 08:00:00', '2024-02-03 07:00:00', '2024-02-03 06:00:00', '2024-02-03 05:00:00', '2024-02-03 04:00:00', '2024-02-03 03:00:00', '2024-02-03 02:00:00', '2024-02-03 01:15:00', '2024-02-03 00:28:00', '2024-02-02 23:00:00', '2024-02-02 22:36:00', '2024-02-02 22:00:00', '2024-02-02 21:00:00', '2024-02-02 20:00:00', '2024-02-02 19:00:00', '2024-02-02 18:00:00', '2024-02-02 17:00:00', '2024-02-02 16:00:00', '2024-02-02 15:00:00', '2024-02-02 14:38:00', '2024-02-02 14:00:00', '2024-02-02 13:00:00', '2024-02-02 12:00:00', '2024-02-02 11:00:00', '2024-02-02 10:00:00', '2024-02-02 09:00:00', '2024-02-02 08:00:00', '2024-02-02 07:00:00', '2024-02-02 06:00:00', '2024-02-02 05:00:00', '2024-02-02 04:00:00', '2024-02-02 03:00:00', '2024-02-02 02:00:00', '2024-02-02 01:00:00', '2024-02-02 00:00:00', '2024-02-01 23:00:00', '2024-02-01 22:00:00', '2024-02-01 21:41:00', '2024-02-01 21:00:00', '2024-02-01 20:00:00', '2024-02-01 19:00:00', '2024-02-01 18:00:00', '2024-02-01 17:00:00', '2024-02-01 16:00:00', '2024-02-01 15:00:00', '2024-02-01 14:00:00', '2024-02-01 13:00:00', '2024-02-01 12:00:00', '2024-02-01 11:00:00', '2024-02-01 10:00:00', '2024-02-01 09:00:00', '2024-02-01 08:00:00', '2024-02-01 07:00:00', '2024-02-01 06:00:00', '2024-02-01 05:00:00', '2024-02-01 04:00:00', '2024-02-01 03:00:00', '2024-02-01 02:00:00', '2024-02-01 01:00:00', '2024-02-01 00:00:00']"
Bolivia, Oruro Juan Mendoza Airport (ORU/SLOR) ,"['SLOR 032200Z 10010KT 9999 FEW020 17/07 Q1034', 'SLOR 032100Z 09010KT 9999 SCT023 19/07 Q1034', 'SLOR 032000Z 11008KT 9999 SCT023 20/08 Q1034', 'SLOR 031900Z 12006KT 9999 SCT023 20/08 Q1035', 'SLOR 031800Z 14008KT 9999 SCT023 19/08 Q1036', 'SLOR 031700Z 09005KT 9999 SCT023 18/07 Q1037', 'SLOR 031600Z 10006KT 9999 SCT020 17/07 Q1038', 'SLOR 031500Z 14007KT 100V180 9999 SCT020 16/07 Q1038', 'SLOR 031400Z 10008KT 9999 SCT017 15/07 Q1038', 'SLOR 031300Z VRB02KT 9999 FEW017 13/06 Q1039', 'SLOR 031200Z 00000KT 9999 FEW015 12/06 Q1038', 'SLOR 031100Z 00000KT 9999 FEW013 11/08 Q1038', 'SLOR 030000Z 00000KT 9999 FEW013 10/07 Q1036', 'SLOR 022300Z 08006KT 9999 SCT015 FEW017CB 11/07 Q1036', 'SLOR 022200Z 12012KT 9999 VCTS SCT015 FEW017CB SCT070 10/07 Q1036', 'SLOR 022100Z 14006KT 9999 -TSRA SCT017 FEW020CB BKN070 10/08 Q1036', 'SLOR 022000Z 12008KT 9999 VCTS SCT020 FEW023CB 18/07 Q1035', 'SLOR 021900Z 11007KT 9999 SCT023 FEW025CB 19/07 Q1035', 'SLOR 021800Z 10010KT 9999 SCT020 18/06 Q1037', 'SLOR 021700Z 09010KT 9999 SCT020 18/06 Q1038', 'SLOR 021600Z 12010KT 9999 SCT020 17/07 Q1039', 'SLOR 021500Z 09011KT 9999 SCT017 15/07 Q1040', 'SLOR 021400Z 09010KT 9999 SCT017 FEW020CB SCT070 13/06 Q1040', 'SLOR 021300Z 09011KT 9999 SCT017 13/07 Q1039', 'SLOR 021200Z 10008KT 9999 FEW015 SCT070 10/06 Q1039', 'SLOR 020100Z 08008KT 9999 FEW013 FEW017CB SCT070 12/06 Q1037', 'SLOR 020000Z 11010KT 9999 FEW015 FEW017CB SCT070 14/06 Q1036', 'SLOR 012300Z 09009KT 9999 FEW017 FEW020CB SCT070 15/07 Q1036', 'SLOR 012200Z 08011KT 9999 FEW020 FEW023CB SCT200 17/08 Q1035', 'SLOR 012100Z 10010KT 070V130 9999 FEW023 FEW025CB SCT200 18/08 Q1035', 'SLOR 012000Z 09012KT 9999 SCT023 FEW025CB 19/09 Q1036', 'SLOR 011900Z 09011KT 9999 SCT023 FEW025CB 20/08 Q1036', 'SLOR 011800Z 09011KT 9999 FEW020 17/08 Q1037', 'SLOR 011700Z 09012G22KT 9999 FEW020 SCT070 17/09 Q1038 METAR SLET 011700Z 33008KT 9999 FEW020 FEW030CB SCT200 34/23 Q1012', 'SLOR 011600Z 10012G22KT 9999 FEW017 SCT070 14/06 Q1039', 'SLOR 011500Z 11011KT 9999 FEW017 SCT070 14/06 Q1039', 'SLOR 011400Z 10011KT 9999 FEW017 SCT070 14/07 Q1039', 'SLOR 011300Z 10010KT 9999 FEW017 FEW020CB SCT070 12/07 Q1039', 'SLOR 011200Z 06008KT 9999 SCT015 BKN070 13/06 Q1038', 'SLOR 010100Z 08008KT 9999 FEW015 SCT200 12/08 Q1036']","['2024-02-03 22:00:00', '2024-02-03 21:00:00', '2024-02-03 20:00:00', '2024-02-03 19:00:00', '2024-02-03 18:00:00', '2024-02-03 17:00:00', '2024-02-03 16:00:00', '2024-02-03 15:00:00', '2024-02-03 14:00:00', '2024-02-03 13:00:00', '2024-02-03 12:00:00', '2024-02-03 11:00:00', '2024-02-03 00:00:00', '2024-02-02 23:00:00', '2024-02-02 22:00:00', '2024-02-02 21:00:00', '2024-02-02 20:00:00', '2024-02-02 19:00:00', '2024-02-02 18:00:00', '2024-02-02 17:00:00', '2024-02-02 16:00:00', '2024-02-02 15:00:00', '2024-02-02 14:00:00', '2024-02-02 13:00:00', '2024-02-02 12:00:00', '2024-02-02 01:00:00', '2024-02-02 00:00:00', '2024-02-01 23:00:00', '2024-02-01 22:00:00', '2024-02-01 21:00:00', '2024-02-01 20:00:00', '2024-02-01 19:00:00', '2024-02-01 18:00:00', '2024-02-01 17:00:00', '2024-02-01 16:00:00', '2024-02-01 15:00:00', '2024-02-01 14:00:00', '2024-02-01 13:00:00', '2024-02-01 12:00:00', '2024-02-01 01:00:00']"
Bolivia, Potosi Captain Nicolas Rojas Airport (POI/SLPO) ,"['SLPO 022200Z 09010KT 9999 SCT023 12/05 Q1043', 'SLPO 022100Z 06010KT 9999 SCT023 14/08 Q1041', 'SLPO 021900Z 06010KT 9999 FEW012 SCT020 BKN070 14/04 Q1043', 'SLPO 021800Z 06010KT 9999 FEW010 SCT017 BKN070 14/04 Q1044', 'SLPO 021700Z 06010KT 9999 FEW012 SCT017 BKN070 13/04 Q1045', 'SLPO 021600Z 06008KT 9999 FEW010 SCT015 BKN070 11/04 Q1045', 'SLPO 021500Z 06005KT 9999 FEW008 SCT015 BKN070 09/04 Q1045', 'SLPO 021400Z 36005KT 9999 FEW010 SCT015 BKN070 07/04 Q1045', 'SLPO 021300Z 36003KT 9999 FEW010 SCT015 BKN070 06/04 Q1046', 'SLPO 021200Z 00000KT 9999 FEW010 SCT015 BKN070 06/04 Q1045', 'SLPO 012200Z 06012KT 9999 FEW010 SCT015 BKN070 10/06 Q1043', 'SLPO 012100Z 09008KT 9999 FEW010 SCT017 BKN070 14/07 Q1042', 'SLPO 012000Z 06010KT 8000 -RA FEW008 SCT015 OVC070 10/06 Q1043', 'SLPO 011900Z 06008KT 9999 -RA FEW010 SCT015 BKN070 12/07 Q1043', 'SLPO 011800Z 09003KT 9999 FEW010 SCT015 BKN070 12/07 Q1044', 'SLPO 011700Z 06005KT 9999 FEW008 SCT015 BKN070 10/06 Q1045', 'SLPO 011600Z 06010KT 9999 FEW008 SCT015 BKN070 09/06 Q1045', 'SLPO 011500Z 06008KT 9999 FEW010 SCT015 OVC070 09/06 Q1045', 'SLPO 011400Z 06005KT 9999 FEW008 SCT012 OVC070 07/05 Q1046', 'SLPO 011300Z 36005KT 9999 FEW008 SCT012 BKN070 10/06 Q1045', 'SLPO 011200Z 00000KT 9999 FEW008 SCT012 BKN070 08/06 Q1045']","['2024-02-02 22:00:00', '2024-02-02 21:00:00', '2024-02-02 19:00:00', '2024-02-02 18:00:00', '2024-02-02 17:00:00', '2024-02-02 16:00:00', '2024-02-02 15:00:00', '2024-02-02 14:00:00', '2024-02-02 13:00:00', '2024-02-02 12:00:00', '2024-02-01 22:00:00', '2024-02-01 21:00:00', '2024-02-01 20:00:00', '2024-02-01 19:00:00', '2024-02-01 18:00:00', '2024-02-01 17:00:00', '2024-02-01 16:00:00', '2024-02-01 15:00:00', '2024-02-01 14:00:00', '2024-02-01 13:00:00', '2024-02-01 12:00:00']"
Bolivia, Riberalta Airport (RIB/SLRI) ,"['SLRI 032200Z 03004KT 9999 FEW023CB BKN200 32/24 Q1006', 'SLRI 032100Z 00000KT 9999 FEW017 FEW023CB BKN200 34/24 Q1006', 'SLRI 032000Z 33006KT 9999 FEW017 FEW023CB BKN200 34/24 Q1006', 'SLRI 031900Z 32005KT 9999 SCT017 FEW023CB SCT200 33/24 Q1008', 'SLRI 031800Z 33004KT 9999 SCT017 FEW023CB 32/24 Q1010', 'SLRI 031700Z 00000KT 9999 BKN017 FEW020CB 32/25 Q1012', 'SLRI 031600Z 00000KT 9999 SCT017 31/24 Q1013', 'SLRI 031500Z 00000KT 9999 SCT017 31/25 Q1013', 'SLRI 031400Z 09004KT 9999 SCT015 29/25 Q1013', 'SLRI 031300Z 09004KT 9999 SCT008 26/24 Q1013', 'SLRI 031200Z 00000KT 5000 BR BKN004 BKN200 24/24 Q1013', 'SLRI 031100Z 00000KT 5000 BR BKN004 BKN200 24/23 Q1012', 'SLRI 031000Z 00000KT 2000 BR NSC 24/24 Q1011', 'SLRI 022200Z 00000KT 9999 FEW015 FEW023CB BKN200 30/25 Q1009', 'SLRI 022100Z 00000KT 9999 SCT015 FEW023CB BKN200 29/25 Q1010', 'SLRI 022000Z 27004KT 9999 SCT008 FEW023CB BKN200 28/25 Q1010', 'SLRI 021900Z 00000KT 8000 -RA SCT008 SCT015 FEW023CB BKN070 25/25 Q1011', 'SLRI 021800Z 00000KT 5000 -RA SCT008 BKN015 FEW023CB OVC070 25/24 Q1013', 'SLRI 021700Z 00000KT 7000 VCSH SCT008 BKN015 FEW023CB BKN070 25/25 Q1014', 'SLRI 021600Z 33006KT 8000 VCSH SCT008 BKN015 FEW023CB BKN070 26/25 Q1014', 'SLRI 021500Z 36004KT 8000 VCSH SCT008 BKN015 BKN070 26/25 Q1015', 'SLRI 021400Z 35006KT 9999 SCT008 BKN015 BKN070 27/25 Q1015', 'SLRI 021300Z 00000KT 9999 SCT004 SCT015 BKN070 26/25 Q1015', 'SLRI 021200Z 00000KT 9999 BKN004 BKN070 25/24 Q1014', 'SLRI 021100Z 00000KT 9999 BKN004 BKN070 25/24 Q1014', 'SLRI 021000Z 00000KT 9999 BKN004 BKN070 25/24 Q1013', 'SLRI 012200Z 35004KT 8000 VCSH SCT017 FEW023CB SCT080 BKN200 30/24 Q1009', 'SLRI 012100Z 33005KT 6000 VCSH SCT017 FEW023CB BKN080 BKN200 32/24 Q1010', 'SLRI 012000Z 00000KT 8000 VCSH FEW017 FEW023CB SCT080 BKN200 31/24 Q1010', 'SLRI 011900Z 00000KT 9999 SCT015 BKN080 31/24 Q1012', 'SLRI 011800Z 34005KT 9999 SCT015 BKN080 30/24 Q1013', 'SLRI 011700Z 33004KT 9999 SCT015 BKN080 28/24 Q1014', 'SLRI 011600Z 32004KT 9999 SCT015 BKN080 28/24 Q1015', 'SLRI 011500Z 00000KT 9999 SCT015 BKN080 27/23 Q1015', 'SLRI 011400Z 30004KT 9999 SCT010 BKN080 26/24 Q1015', 'SLRI 011300Z 27004KT 9999 SCT008 BKN070 25/24 Q1015', 'SLRI 011200Z 30004KT 9999 SCT004 BKN070 25/23 Q1014', 'SLRI 011100Z 00000KT 9999 BKN004 BKN070 25/24 Q1013', 'SLRI 011000Z 00000KT 9999 BKN004 FEW020CB BKN070 24/24 Q1013']","['2024-02-03 22:00:00', '2024-02-03 21:00:00', '2024-02-03 20:00:00', '2024-02-03 19:00:00', '2024-02-03 18:00:00', '2024-02-03 17:00:00', '2024-02-03 16:00:00', '2024-02-03 15:00:00', '2024-02-03 14:00:00', '2024-02-03 13:00:00', '2024-02-03 12:00:00', '2024-02-03 11:00:00', '2024-02-03 10:00:00', '2024-02-02 22:00:00', '2024-02-02 21:00:00', '2024-02-02 20:00:00', '2024-02-02 19:00:00', '2024-02-02 18:00:00', '2024-02-02 17:00:00', '2024-02-02 16:00:00', '2024-02-02 15:00:00', '2024-02-02 14:00:00', '2024-02-02 13:00:00', '2024-02-02 12:00:00', '2024-02-02 11:00:00', '2024-02-02 10:00:00', '2024-02-01 22:00:00', '2024-02-01 21:00:00', '2024-02-01 20:00:00', '2024-02-01 19:00:00', '2024-02-01 18:00:00', '2024-02-01 17:00:00', '2024-02-01 16:00:00', '2024-02-01 15:00:00', '2024-02-01 14:00:00', '2024-02-01 13:00:00', '2024-02-01 12:00:00', '2024-02-01 11:00:00', '2024-02-01 10:00:00']"
Bolivia, Rurrenabaque Airport (RBQ/SLRQ) ,"['SLRQ 022000Z 00000KT 9999 FEW023 35/24 Q1007', 'SLRQ 021900Z 00000KT 9999 FEW020 36/22 Q1008', 'SLRQ 021800Z 00000KT 9999 FEW020 35/23 Q1009', 'SLRQ 021700Z 16005KT 9999 NSC 33/23 Q1010', 'SLRQ 021600Z 23007KT 9999 NSC 32/22 Q1011', 'SLRQ 021500Z 25003KT 9999 FEW080 SCT200 31/22 Q1012', 'SLRQ 021400Z 26005KT 9999 SCT080 SCT200 29/21 Q1012', 'SLRQ 021300Z 29003KT 9999 SCT080 BKN200 27/22 Q1013', 'SLRQ 021200Z 28008KT 9999 FEW012 SCT080 BKN200 24/21 Q1013', 'SLRQ 021100Z 24012G22KT 9999 FEW012 BKN080 OVC200 24/21 Q1013', 'SLRQ 012000Z 02003KT 9999 FEW023 SCT200 33/25 Q1007', 'SLRQ 011900Z 08004KT 9999 SCT020 SCT200 33/27 Q1008', 'SLRQ 011800Z 33003KT 9999 SCT017 SCT200 33/27 Q1009', 'SLRQ 011700Z 36004KT 9999 SCT017 BKN200 32/26 Q1010', 'SLRQ 011600Z 31004KT 9999 BKN017 BKN200 30/27 Q1011', 'SLRQ 011500Z 32005KT 9999 BKN015 SCT200 29/26 Q1012', 'SLRQ 011400Z 00000KT 9999 BKN012 28/25 Q1012', 'SLRQ 011300Z 00000KT 9999 BKN010 26/25 Q1011', 'SLRQ 011200Z 31004KT 9999 BKN006 26/25 Q1011']","['2024-02-02 20:00:00', '2024-02-02 19:00:00', '2024-02-02 18:00:00', '2024-02-02 17:00:00', '2024-02-02 16:00:00', '2024-02-02 15:00:00', '2024-02-02 14:00:00', '2024-02-02 13:00:00', '2024-02-02 12:00:00', '2024-02-02 11:00:00', '2024-02-01 20:00:00', '2024-02-01 19:00:00', '2024-02-01 18:00:00', '2024-02-01 17:00:00', '2024-02-01 16:00:00', '2024-02-01 15:00:00', '2024-02-01 14:00:00', '2024-02-01 13:00:00', '2024-02-01 12:00:00']"
Bolivia, Santa Cruz Viru Viru International Airport (VVI/SLVR) ,"['SLVR 032200Z 01008KT 9999 FEW023 34/21 Q1008', 'SLVR 032100Z 36009KT 9999 FEW023 FEW030CB 36/20 Q1008', 'SLVR 032000Z 35008KT 9999 FEW023 FEW030CB 37/20 Q1008', 'SLVR 031900Z 36007KT 9999 SCT023 37/21 Q1010', 'SLVR 031800Z 01008KT 9999 SCT023 36/21 Q1010', 'SLVR 031700Z 36006KT 9999 SCT023 35/22 Q1012', 'SLVR 031600Z 01004KT 9999 SCT023 35/23 Q1013', 'SLVR 031500Z 33007KT 9999 FEW020 33/24 Q1013', 'SLVR 031400Z 35005KT 9999 NSC 32/24 Q1014', 'SLVR 031300Z 03004KT 9999 NSC 29/24 Q1014', 'SLVR 031200Z 05003KT 9999 NSC 26/23 Q1014', 'SLVR 031100Z 06003KT 9999 NSC 24/22 Q1013', 'SLVR 031000Z 32003KT 9999 FEW070 SCT200 24/22 Q1012', 'SLVR 030900Z VRB02KT 9999 FEW070 SCT200 23/22 Q1011', 'SLVR 030800Z 28003KT 9999 FEW070 SCT200 23/22 Q1011', 'SLVR 030700Z 27003KT 9999 FEW070 SCT200 23/22 Q1011', 'SLVR 030600Z VRB02KT 9999 FEW070 SCT200 24/22 Q1011', 'SLVR 030500Z VRB02KT 9999 FEW023 FEW030CB SCT070 25/22 Q1012', 'SLVR 030400Z 10013G24KT 9999 SCT023 FEW030CB BKN070 27/25 Q1013', 'SLVR 030300Z 36003KT 9999 FEW023 FEW030CB SCT070 28/25 Q1012', 'SLVR 030200Z 32005KT 9999 FEW023 FEW030CB SCT200 28/25 Q1012', 'SLVR 030100Z 28003KT 9999 FEW023 FEW030CB SCT200 29/25 Q1011', 'SLVR 030000Z VRB02KT 9999 FEW070 29/25 Q1010', 'SLVR 022300Z 34008KT 9999 FEW023 30/24 Q1009', 'SLVR 022200Z 34012KT 9999 FEW027 SCT200 31/21 Q1009', 'SLVR 022100Z 35014G25KT 9999 VCSH FEW025 FEW030CB 30/21 Q1009', 'SLVR 022000Z 36006KT 9999 FEW027 37/21 Q1009', 'SLVR 021900Z 36005KT 9999 FEW027 37/21 Q1010', 'SLVR 021800Z VRB02KT 9999 FEW027 37/21 Q1011', 'SLVR 021700Z VRB02KT 9999 FEW027 35/22 Q1013', 'SLVR 021600Z 17004KT 9999 FEW027 34/23 Q1014', 'SLVR 021500Z VRB02KT 9999 FEW025 33/24 Q1015', 'SLVR 021400Z VRB02KT 9999 FEW023 32/24 Q1015', 'SLVR 021300Z VRB02KT 9999 FEW090 29/24 Q1015', 'SLVR 021200Z VRB02KT 9999 FEW080 26/23 Q1015', 'SLVR 021100Z VRB02KT 9999 FEW080 23/22 Q1015', 'SLVR 021000Z VRB02KT 9999 FEW080 22/22 Q1013', 'SLVR 020900Z VRB02KT 9999 SCT080 23/23 Q1013', 'SLVR 020800Z VRB02KT 9999 SCT080 BKN200 23/23 Q1013', 'SLVR 020700Z 25004KT 9999 FEW006 SCT080 BKN200 23/22 Q1013', 'SLVR 020600Z 25004KT 9999 FEW006 SCT080 BKN200 23/22 Q1014', 'SLVR 020500Z VRB02KT 9999 SCT007 SCT080 BKN200 23/22 Q1015', 'SLVR 020400Z VRB02KT 9999 FEW080 BKN200 23/23 Q1016', 'SLVR 020300Z VRB02KT 9999 FEW007 SCT080 BKN200 23/23 Q1016', 'SLVR 020200Z 11004KT 9999 FEW080 BKN200 23/23 Q1015', 'SLVR 020100Z VRB02KT 9999 NSC 23/23 Q1013', 'SLVR 020000Z 28004KT 9999 FEW070 SCT200 24/22 Q1012', 'SLVR 012300Z 24005KT 9999 FEW013 BKN070 24/22 Q1011', 'SLVR 012200Z VRB02KT 9999 FEW013 SCT020 BKN070 24/22 Q1012', 'SLVR 012100Z 35005KT 8000 -RA BKN017 BKN070 23/22 Q1012', 'SLVR 012000Z 28006KT 8000 -TSRA BKN017 FEW030CB BKN070 23/22 Q1011', 'SLVR 011925Z 23007KT 8000 -TSRA FEW013 BKN017 FEW030CB BKN070 23/22 Q1011', 'SLVR 011834Z 19018G32KT 1200 TSRA BKN017 FEW030CB OVC070 23/22 Q1013', 'SLVR 011815Z 18020G32KT 3000 -SHRA BKN017 FEW030CB BKN070 26/23 Q1012', 'SLVR 011749Z 16015G26KT 5000 SA VCSH BKN023 FEW030CB BKN200 29/24 Q1012', 'SLVR 011700Z 33008KT 9999 FEW023 FEW030CB SCT200 35/24 Q1012', 'SLVR 011600Z 34009KT 9999 FEW020 FEW030CB 35/24 Q1012', 'SLVR 011500Z 32009KT 9999 FEW020 34/24 Q1013', 'SLVR 011400Z 35010KT 9999 FEW017 33/24 Q1014', 'SLVR 011300Z 34010KT 9999 FEW080 31/24 Q1014', 'SLVR 011200Z 33007KT 9999 FEW080 29/24 Q1014', 'SLVR 011100Z 33007KT 9999 NSC 27/24 Q1012', 'SLVR 011000Z 35003KT 9999 FEW080 25/23 Q1012', 'SLVR 010900Z 33005KT 9999 NSC 25/23 Q1011', 'SLVR 010800Z 32006KT 9999 NSC 26/23 Q1011', 'SLVR 010700Z 32008KT 9999 NSC 26/24 Q1010', 'SLVR 010600Z 32007KT 9999 NSC 26/24 Q1011', 'SLVR 010500Z 33008KT 9999 NSC 26/24 Q1012', 'SLVR 010400Z 33006KT 9999 NSC 26/24 Q1013', 'SLVR 010300Z 35005KT 9999 NSC 27/24 Q1013', 'SLVR 010200Z 35006KT 9999 NSC 28/24 Q1012', 'SLVR 010100Z 01005KT 9999 NSC 28/24 Q1011', 'SLVR 010000Z 36004KT 9999 NSC 29/23 Q1010']","['2024-02-03 22:00:00', '2024-02-03 21:00:00', '2024-02-03 20:00:00', '2024-02-03 19:00:00', '2024-02-03 18:00:00', '2024-02-03 17:00:00', '2024-02-03 16:00:00', '2024-02-03 15:00:00', '2024-02-03 14:00:00', '2024-02-03 13:00:00', '2024-02-03 12:00:00', '2024-02-03 11:00:00', '2024-02-03 10:00:00', '2024-02-03 09:00:00', '2024-02-03 08:00:00', '2024-02-03 07:00:00', '2024-02-03 06:00:00', '2024-02-03 05:00:00', '2024-02-03 04:00:00', '2024-02-03 03:00:00', '2024-02-03 02:00:00', '2024-02-03 01:00:00', '2024-02-03 00:00:00', '2024-02-02 23:00:00', '2024-02-02 22:00:00', '2024-02-02 21:00:00', '2024-02-02 20:00:00', '2024-02-02 19:00:00', '2024-02-02 18:00:00', '2024-02-02 17:00:00', '2024-02-02 16:00:00', '2024-02-02 15:00:00', '2024-02-02 14:00:00', '2024-02-02 13:00:00', '2024-02-02 12:00:00', '2024-02-02 11:00:00', '2024-02-02 10:00:00', '2024-02-02 09:00:00', '2024-02-02 08:00:00', '2024-02-02 07:00:00', '2024-02-02 06:00:00', '2024-02-02 05:00:00', '2024-02-02 04:00:00', '2024-02-02 03:00:00', '2024-02-02 02:00:00', '2024-02-02 01:00:00', '2024-02-02 00:00:00', '2024-02-01 23:00:00', '2024-02-01 22:00:00', '2024-02-01 21:00:00', '2024-02-01 20:00:00', '2024-02-01 19:25:00', '2024-02-01 18:34:00', '2024-02-01 18:15:00', '2024-02-01 17:49:00', '2024-02-01 17:00:00', '2024-02-01 16:00:00', '2024-02-01 15:00:00', '2024-02-01 14:00:00', '2024-02-01 13:00:00', '2024-02-01 12:00:00', '2024-02-01 11:00:00', '2024-02-01 10:00:00', '2024-02-01 09:00:00', '2024-02-01 08:00:00', '2024-02-01 07:00:00', '2024-02-01 06:00:00', '2024-02-01 05:00:00', '2024-02-01 04:00:00', '2024-02-01 03:00:00', '2024-02-01 02:00:00', '2024-02-01 01:00:00', '2024-02-01 00:00:00']"
Bolivia, Santa Cruz El Trompillo Airport (SRZ/SLET) ,"['SLET 011746Z 17018G30KT 6000 -TSRA BKN020 FEW030CB BKN200 28/21 Q1013', 'SLET 011716Z 35007KT 8000 VCTSSH SCT020 FEW030CB BKN200 34/23 Q1011']","['2024-02-01 17:46:00', '2024-02-01 17:16:00']"
Bolivia, Tarija Airport (TJA/SLTJ) ,"['SLTJ 032200Z 12006KT 9999 FEW030 27/12 Q1020', 'SLTJ 032100Z 12006KT 9999 FEW030 29/10 Q1019', 'SLTJ 032000Z 00000KT 9999 FEW030 29/09 Q1019', 'SLTJ 031900Z 00000KT 9999 NSC 30/11 Q1020', 'SLTJ 031800Z 00000KT 9999 NSC 30/12 Q1021', 'SLTJ 031700Z 00000KT 9999 NSC 29/12 Q1022', 'SLTJ 031600Z 00000KT 9999 NSC 28/12 Q1023', 'SLTJ 031500Z 00000KT 9999 NSC 25/13 Q1024', 'SLTJ 031400Z 00000KT 9999 NSC 24/14 Q1024', 'SLTJ 031300Z 00000KT 9999 NSC 22/14 Q1024', 'SLTJ 031200Z 00000KT 9999 NSC 19/15 Q1024', 'SLTJ 030200Z 00000KT 9999 FEW030 SCT200 20/14 Q1024', 'SLTJ 030100Z 00000KT 9999 FEW030 SCT200 21/14 Q1023', 'SLTJ 030000Z 12005KT 9999 FEW030 SCT200 23/14 Q1022', 'SLTJ 022300Z 12008KT 9999 FEW030 FEW035CB SCT200 25/13 Q1021', 'SLTJ 022200Z 12006KT 9999 FEW030 27/13 Q1020', 'SLTJ 022100Z 12005KT 9999 SCT030 27/13 Q1020', 'SLTJ 022000Z 12008KT 9999 SCT030 27/11 Q1021', 'SLTJ 021900Z 14008KT 9999 FEW030 29/13 Q1021', 'SLTJ 021800Z 18003KT 9999 FEW030 28/12 Q1022', 'SLTJ 021700Z 00000KT 9999 FEW030 SCT070 26/13 Q1023', 'SLTJ 021600Z 00000KT 9999 FEW030 SCT070 25/13 Q1025', 'SLTJ 021500Z 00000KT 9999 FEW030 SCT070 23/14 Q1026', 'SLTJ 021400Z 00000KT 9999 FEW030 SCT070 22/15 Q1026', 'SLTJ 021300Z 00000KT 9999 FEW030 SCT070 20/16 Q1027', 'SLTJ 021200Z 00000KT 9999 FEW030 BKN070 17/15 Q1027', 'SLTJ 021100Z 00000KT 9999 FEW020 BKN070 16/15 Q1027', 'SLTJ 021000Z 00000KT 9000 FEW007 SCT020 BKN070 16/16 Q1027', 'SLTJ 020200Z 34005KT 9999 FEW030 SCT200 19/15 Q1026', 'SLTJ 020100Z 32003KT 9999 FEW030 SCT200 20/15 Q1025', 'SLTJ 020000Z 32003KT 9999 FEW030 SCT200 21/16 Q1024', 'SLTJ 012300Z 32005KT 9999 FEW030 SCT200 22/16 Q1023', 'SLTJ 012200Z 32006KT 9999 FEW030 FEW035CB SCT200 23/16 Q1023', 'SLTJ 012100Z 22006KT 9999 FEW030 FEW035CB SCT070 BKN200 23/15 Q1023', 'SLTJ 012030Z 27004KT 9999 FEW030 FEW035CB BKN070 BKN200 23/16 Q1022', 'SLTJ 012000Z 24010KT 9000 TS SCT030 FEW035CB BKN070 BKN200 22/17 Q1023', 'SLTJ 011935Z 14010KT 9000 -TSRA SCT030 FEW035CB BKN070 BKN200 23/17 Q1023', 'SLTJ 011900Z 10005KT 9999 -RA SCT030 FEW035CB SCT070 BKN200 26/15 Q1022', 'SLTJ 011800Z 12004KT 9999 FEW030 FEW035CB SCT200 29/12 Q1022', 'SLTJ 011700Z 00000KT 9999 FEW030 SCT200 27/13 Q1023', 'SLTJ 011600Z 00000KT 9999 FEW030 SCT200 26/14 Q1025', 'SLTJ 011500Z 00000KT 9999 FEW030 SCT200 24/14 Q1026', 'SLTJ 011400Z 00000KT 9999 FEW030 SCT070 22/16 Q1026', 'SLTJ 011300Z 00000KT 9999 FEW030 FEW035CB BKN070 19/17 Q1026', 'SLTJ 011200Z 00000KT 9999 FEW030 FEW035CB BKN070 19/17 Q1026', 'SLTJ 011100Z 00000KT 9999 FEW030 FEW035CB BKN070 18/16 Q1026', 'SLTJ 011000Z 00000KT 9999 FEW030 FEW035CB BKN070 17/16 Q1025', 'SLTJ 010200Z 06004KT 9999 FEW030 BKN070 BKN200 20/18 Q1024', 'SLTJ 010100Z 18004KT 9999 FEW030 BKN070 BKN200 20/17 Q1023', 'SLTJ 010000Z 18004KT 9999 FEW030 SCT070 BKN200 21/16 Q1023']","['2024-02-03 22:00:00', '2024-02-03 21:00:00', '2024-02-03 20:00:00', '2024-02-03 19:00:00', '2024-02-03 18:00:00', '2024-02-03 17:00:00', '2024-02-03 16:00:00', '2024-02-03 15:00:00', '2024-02-03 14:00:00', '2024-02-03 13:00:00', '2024-02-03 12:00:00', '2024-02-03 02:00:00', '2024-02-03 01:00:00', '2024-02-03 00:00:00', '2024-02-02 23:00:00', '2024-02-02 22:00:00', '2024-02-02 21:00:00', '2024-02-02 20:00:00', '2024-02-02 19:00:00', '2024-02-02 18:00:00', '2024-02-02 17:00:00', '2024-02-02 16:00:00', '2024-02-02 15:00:00', '2024-02-02 14:00:00', '2024-02-02 13:00:00', '2024-02-02 12:00:00', '2024-02-02 11:00:00', '2024-02-02 10:00:00', '2024-02-02 02:00:00', '2024-02-02 01:00:00', '2024-02-02 00:00:00', '2024-02-01 23:00:00', '2024-02-01 22:00:00', '2024-02-01 21:00:00', '2024-02-01 20:30:00', '2024-02-01 20:00:00', '2024-02-01 19:35:00', '2024-02-01 19:00:00', '2024-02-01 18:00:00', '2024-02-01 17:00:00', '2024-02-01 16:00:00', '2024-02-01 15:00:00', '2024-02-01 14:00:00', '2024-02-01 13:00:00', '2024-02-01 12:00:00', '2024-02-01 11:00:00', '2024-02-01 10:00:00', '2024-02-01 02:00:00', '2024-02-01 01:00:00', '2024-02-01 00:00:00']"
Bolivia, Trinidad Teniente Jorge Henrich Arauz Airport (TDD/SLTR) ,"['SLTR 032200Z 00000KT 9999 FEW017 BKN200 30/26 Q1007', 'SLTR 032100Z 00000KT 9999 FEW017 FEW020CB BKN200 31/25 Q1007', 'SLTR 032000Z 05004KT 9999 FEW017 FEW020CB BKN200 32/25 Q1008', 'SLTR 031900Z 03003KT 9999 FEW017 FEW020CB SCT200 31/25 Q1009', 'SLTR 031800Z 29003KT 9999 FEW017 FEW020CB SCT200 29/25 Q1010', 'SLTR 031700Z 13004KT 8000 VCSH FEW015 FEW020CB BKN070 27/26 Q1011', 'SLTR 031600Z 02005KT 7000 -TSRA SCT008 FEW020CB BKN070 24/23 Q1011', 'SLTR 031508Z 09004KT 5000 -TSRA SCT008 FEW020CB OVC070 23/22 Q1014', 'SLTR 031500Z 12012KT 0500 +TSRA BKN008 FEW020CB OVC070 23/22 Q1015', 'SLTR 031437Z 10013G25KT 0500 +TSRA BKN008 FEW020CB OVC070 25/24 Q1014', 'SLTR 031400Z VRB02KT 7000 VCSH FEW017 FEW020CB 30/25 Q1013', 'SLTR 031300Z 29005KT 9999 FEW017 30/26 Q1012', 'SLTR 031200Z 31003KT 9999 FEW017 28/26 Q1012', 'SLTR 031100Z 00000KT 9999 FEW017 26/26 Q1011', 'SLTR 031000Z 00000KT 9999 FEW017 26/26 Q1010', 'SLTR 022300Z 03003KT 9999 FEW017 SCT200 32/26 Q1008', 'SLTR 022200Z VRB02KT 9999 FEW017 33/25 Q1008', 'SLTR 022100Z 09003KT 9999 FEW017 FEW020CB 33/25 Q1008', 'SLTR 022000Z 16003KT 9999 FEW017 33/25 Q1009', 'SLTR 021900Z 06004KT 9999 FEW017 33/25 Q1010', 'SLTR 021800Z VRB02KT 9999 FEW017 33/25 Q1011', 'SLTR 021700Z VRB02KT 9999 FEW015 32/25 Q1012', 'SLTR 021600Z 24004KT 9999 FEW015 SCT200 32/25 Q1013', 'SLTR 021500Z VRB02KT 9999 FEW015 BKN200 31/25 Q1014', 'SLTR 021400Z VRB02KT 9999 FEW015 BKN200 29/25 Q1014', 'SLTR 021300Z 23003KT 9999 FEW012 SCT080 BKN200 28/25 Q1014', 'SLTR 021200Z 19004KT 9999 SCT080 BKN200 26/24 Q1014', 'SLTR 021100Z 22004KT 9999 SCT070 BKN200 25/24 Q1013', 'SLTR 021026Z 20004KT 9999 FEW004 SCT070 BKN200 25/25 Q1013', 'SLTR 012300Z 32003KT 9999 FEW020 SCT200 33/26 Q1008', 'SLTR 012200Z 28003KT 9999 FEW020 SCT200 35/26 Q1008', 'SLTR 012100Z 32004KT 9999 FEW020 SCT200 35/25 Q1007', 'SLTR 012000Z 31006KT 9999 FEW020 SCT200 35/25 Q1008', 'SLTR 011900Z 28004KT 9999 FEW020 SCT200 35/25 Q1009', 'SLTR 011800Z 32004KT 9999 FEW017 SCT200 34/25 Q1010', 'SLTR 011700Z 32005KT 9999 SCT017 34/26 Q1011', 'SLTR 011600Z 31007KT 9999 SCT017 33/26 Q1012', 'SLTR 011500Z 29005KT 9999 FEW017 SCT200 32/26 Q1014', 'SLTR 011400Z 29006KT 9999 FEW015 SCT200 30/26 Q1014', 'SLTR 011300Z 29007KT 9999 FEW012 SCT200 29/26 Q1013', 'SLTR 011200Z 30009KT 9999 FEW008 SCT200 27/25 Q1012', 'SLTR 011100Z 31008KT 9999 FEW005 SCT200 26/25 Q1012', 'SLTR 011000Z 32005KT 9999 FEW017 26/25 Q1011', 'SLTR 010000Z 00000KT 9999 FEW017 SCT200 31/26 Q1008']","['2024-02-03 22:00:00', '2024-02-03 21:00:00', '2024-02-03 20:00:00', '2024-02-03 19:00:00', '2024-02-03 18:00:00', '2024-02-03 17:00:00', '2024-02-03 16:00:00', '2024-02-03 15:08:00', '2024-02-03 15:00:00', '2024-02-03 14:37:00', '2024-02-03 14:00:00', '2024-02-03 13:00:00', '2024-02-03 12:00:00', '2024-02-03 11:00:00', '2024-02-03 10:00:00', '2024-02-02 23:00:00', '2024-02-02 22:00:00', '2024-02-02 21:00:00', '2024-02-02 20:00:00', '2024-02-02 19:00:00', '2024-02-02 18:00:00', '2024-02-02 17:00:00', '2024-02-02 16:00:00', '2024-02-02 15:00:00', '2024-02-02 14:00:00', '2024-02-02 13:00:00', '2024-02-02 12:00:00', '2024-02-02 11:00:00', '2024-02-02 10:26:00', '2024-02-01 23:00:00', '2024-02-01 22:00:00', '2024-02-01 21:00:00', '2024-02-01 20:00:00', '2024-02-01 19:00:00', '2024-02-01 18:00:00', '2024-02-01 17:00:00', '2024-02-01 16:00:00', '2024-02-01 15:00:00', '2024-02-01 14:00:00', '2024-02-01 13:00:00', '2024-02-01 12:00:00', '2024-02-01 11:00:00', '2024-02-01 10:00:00', '2024-02-01 00:00:00']"
Bosnia-and-herzegovina, Banja Luka International Airport (BNX/LQBK) ,"['LQBK 032300Z VRB02KT CAVOK 03/03 Q1024 NOSIG', 'LQBK 032230Z 16003KR CAVOK 03/03 Q1024 NOSIG', 'LQBK 032200Z VRB02KT CAVOK 04/03 Q1024 NOSIG', 'LQBK 032130Z 36003KT CAVOK 03/03 Q1024 NOSIG', 'LQBK 032100Z VRB02KT CAVOK 04/03 Q1024 NOSIG', 'LQBK 032030Z VRB02KT CAVOK 04/03 Q1024 NOSIG', 'LQBK 032000Z VRB02KT CAVOK 04/03 Q1024 NOSIG', 'LQBK 031930Z VRB02KT CAVOK 05/04 Q1024 NOSIG', 'LQBK 031900Z VRB02KT CAVOK 05/04 Q1023 NOSIG', 'LQBK 031830Z 17002KT CAVOK 06/04 Q1023 NOSIG', 'LQBK 031800Z 00000KT CAVOK 06/04 Q1023 NOSIG', 'LQBK 031730Z VRB01KT CAVOK 06/04 Q1023 NOSIG', 'LQBK 031700Z VRB01KT CAVOK 08/04 Q1023 NOSIG', 'LQBK 031630Z 32002KT CAVOK 09/04 Q1023 NOSIG', 'LQBK 031600Z VRB01KT CAVOK 10/05 Q1023 NOSIG', 'LQBK 031530Z 00000KT CAVOK 12/03 Q1022 NOSIG', 'LQBK 031500Z 04003KT CAVOK 14/02 Q1023 NOSIG', 'LQBK 031430Z 03004KT CAVOK 15/02 Q1023 NOSIG', 'LQBK 031400Z 01004KT CAVOK 16/02 Q1023 NOSIG', 'LQBK 031330Z 02004KT 330V070 CAVOK 16/02 Q1023 NOSIG', 'LQBK 031300Z 03004KT 340V060 CAVOK 16/02 Q1023 NOSIG', 'LQBK 031230Z 36002KT CAVOK 17/02 Q1023 NOSIG', 'LQBK 031200Z VRB03KT CAVOK 16/01 Q1024 NOSIG', 'LQBK 031130Z 05003KT 360V090 CAVOK 15/01 Q1024 NOSIG', 'LQBK 031100Z 07003KT 020V140 CAVOK 14/01 Q1024 NOSIG', 'LQBK 031030Z VRB02KT CAVOK 14/02 Q1024 NOSIG', 'LQBK 031000Z VRB02KT CAVOK 13/02 Q1025 NOSIG', 'LQBK 030930Z 05003KT 360V170 CAVOK 10/01 Q1025 NOSIG', 'LQBK 030900Z VRB02KT CAVOK 09/02 Q1025 NOSIG', 'LQBK 030830Z VRB01KT CAVOK 07/02 Q1025 NOSIG', 'LQBK 030800Z VRB01KT CAVOK 05/02 Q1024 NOSIG', 'LQBK 030730Z 17004KT CAVOK 03/02 Q1024 NOSIG', 'LQBK 030700Z 14003KT CAVOK 01/01 Q1024 NOSIG', 'LQBK 030630Z VRB02KT CAVOK M01/M01 Q1024 NOSIG', 'LQBK 030600Z 33003KT CAVOK M01/M01 Q1024 NOSIG', 'LQBK 030530Z 34003KT CAVOK M01/M01 Q1024 NOSIG', 'LQBK 030500Z VRB01KT CAVOK M00/M00 Q1024 NOSIG', 'LQBK 030430Z 15002KT CAVOK M00/M00 Q1024 NOSIG', 'LQBK 030400Z 10002KT CAVOK 01/01 Q1024 NOSIG', 'LQBK 030330Z 30002KT CAVOK 02/01 Q1024 NOSIG', 'LQBK 030300Z 13005KT CAVOK 05/00 Q1025 NOSIG', 'LQBK 030230Z 14005KT CAVOK 04/01 Q1025 NOSIG', 'LQBK 030200Z 15003KT CAVOK 03/01 Q1025 NOSIG', 'LQBK 030130Z 15005KT CAVOK 03/01 Q1026 NOSIG', 'LQBK 030100Z 13004KT CAVOK 04/02 Q1026 NOSIG', 'LQBK 030030Z 16005KT CAVOK 05/02 Q1026 NOSIG', 'LQBK 030000Z 16007KT CAVOK 05/02 Q1027 NOSIG', 'LQBK 022330Z 16006KT CAVOK 06/02 Q1027 NOSIG', 'LQBK 022300Z 16004KT CAVOK 05/02 Q1027 NOSIG', 'LQBK 022230Z 16004KT CAVOK 04/02 Q1028 NOSIG', 'LQBK 022200Z 16004KT CAVOK 05/02 Q1028 NOSIG', 'LQBK 022130Z 16002KT CAVOK 04/03 Q1028 NOSIG', 'LQBK 022100Z 17002KT CAVOK 04/03 Q1028 NOSIG', 'LQBK 022030Z 16002KT CAVOK 04/02 Q1029 NOSIG', 'LQBK 022000Z 15003KT CAVOK 05/02 Q1029 NOSIG', 'LQBK 021930Z 17003KT CAVOK 05/02 Q1029 NOSIG', 'LQBK 021900Z 16005KT CAVOK 05/01 Q1029 NOSIG', 'LQBK 021830Z 17004KT CAVOK 05/02 Q1029 NOSIG', 'LQBK 021800Z VRB02KT CAVOK 04/02 Q1029 NOSIG', 'LQBK 021730Z VRB02KT CAVOK 04/02 Q1030 NOSIG', 'LQBK 021700Z VRB02KT CAVOK 04/00 Q1030 NOSIG', 'LQBK 021630Z 19002KT CAVOK 05/02 Q1030 NOSIG', 'LQBK 021600Z 17002KT CAVOK 07/01 Q1030 NOSIG', 'LQBK 021530Z 16003KT CAVOK 09/00 Q1029 NOSIG', 'LQBK 021500Z VRB02KT CAVOK 10/M00 Q1030 NOSIG', 'LQBK 021430Z VRB02KT CAVOK 10/M00 Q1030 NOSIG', 'LQBK 021400Z VRB02KT CAVOK 11/M00 Q1030 NOSIG', 'LQBK 021330Z VRB02KT CAVOK 10/M00 Q1030 NOSIG', 'LQBK 021300Z VRB03KT CAVOK 10/M00 Q1030 NOSIG', 'LQBK 021230Z 01004KT 330V060 CAVOK 10/M00 Q1031 NOSIG', 'LQBK 021200Z 02003KT 300V060 CAVOK 10/00 Q1031 NOSIG', 'LQBK 021130Z VRB02KT CAVOK 09/M00 Q1031 NOSIG', 'LQBK 021100Z 06005KT 030V120 9999 FEW035 09/M01 Q1031 NOSIG', 'LQBK 021030Z VRB03KT 9999 FEW027 SCT047 10/M00 Q1031 NOSIG', 'LQBK 021000Z 04003KT 240V080 9999 FEW025 SCT047 08/04 Q1032 NOSIG', 'LQBK 020930Z 36004KT 9999 FEW027 BKN047 07/04 Q1031 NOSIG', 'LQBK 020900Z VRB02KT 6000 FEW045 06/04 Q1031 NOSIG', 'LQBK 020830Z VRB02KT 6000 NSC 06/03 Q1031 NOSIG', 'LQBK 020800Z 16003KT 8000 NSC 04/03 Q1031 NOSIG', 'LQBK 020730Z 16004KT 8000 NSC 03/02 Q1031 NOSIG', 'LQBK 020700Z VRB02KT 9999 FEW020 M00/M00 Q1021 NOSIG', 'LQBK 020630Z VRB02KT 9999 FEW017 01/01 Q1030 NOSIG', 'LQBK 020600Z 17004KT 150V320 CAVOK 01/01 Q1030 NOSIG', 'LQBK 020530Z 16002KT CAVOK 01/00 Q1030 NOSIG', 'LQBK 020500Z 17002KT CAVOK 02/01 Q1030 NOSIG', 'LQBK 020430Z 17003KT 9999 SCT040 03/02 Q1030 NOSIG', 'LQBK 020400Z 1605KT 9999 BKN049 03/02 Q1030 NOSIG', 'LQBK 020330Z 17004KT 9999 BKN047 03/02 Q1030 NOSIG', 'LQBK 020300Z VRB02KT 9999 BKN047 02/02 Q1030 NOSIG', 'LQBK 020230Z VRB02KT 9999 BKN047 02/02 Q1030 NOSIG', 'LQBK 020200Z VRB02KT 9999 BKN047 02/02 Q1029 NOSIG', 'LQBK 020130Z VRB02KT CAVOK 02/01 Q1029 NOSIG', 'LQBK 020100Z VRB04KT CAVOK 03/02 Q1029 NOSIG', 'LQBK 020030Z VRB01KT CAVOK 03/02 Q1029 NOSIG', 'LQBK 020000Z VRB03KT CAVOK 03/02 Q1029 NOSIG', 'LQBK 012330Z VRB01KT 9999 SCT045 04/02 Q1029 NOSIG', 'LQBK 012300Z 21003KT 9999 SCT048 03/02 Q1029 NOSIG', 'LQBK 012230Z VRB01KT CAVOK 04/02 Q1029 NOSIG', 'LQBK 012200Z 17007KT CAVOK 03/02 Q1028 NOSIG', 'LQBK 012130Z 15002KT 9999 -RA SCT047 03/02 Q1028 NOSIG', 'LQBK 012100Z VRB01KT 9999 -RA FEW020 SCT040 03/02 Q1028 NOSIG', 'LQBK 012030Z VRB01KT 9999 FEW047 03/02 Q1028 NOSIG', 'LQBK 012000Z 16002KT 120V190 9999 -RA SCT047 03/02 Q1027 NOSIG', 'LQBK 011930Z 16003KT 110V220 CAVOK 03/02 Q1027 NOSIG', 'LQBK 011900Z VRB01KT CAVOK 03/01 Q1027 NOSIG', 'LQBK 011830Z 18003KT CAVOK 03/01 Q1026 NOSIG', 'LQBK 011800Z 17002KT CAVOK 03/01 Q1026 NOSIG', 'LQBK 011730Z 13002KT CAVOK 03/01 Q1026 NOSIG', 'LQBK 011700Z 09002KT CAVOK 04/01 Q1026 NOSIG', 'LQBK 011630Z 22002KT CAVOK 05/01 Q1026 NOSIG', 'LQBK 011600Z 30003KT CAVOK 06/01 Q1025 NOSIG', 'LQBK 011530Z 36002KT CAVOK 07/01 Q1025 NOSIG', 'LQBK 011500Z 03003KT CAVOK 08/01 Q1025 NOSIG', 'LQBK 011430Z 36003KT CAVOK 09/00 Q1025 NOSIG', 'LQBK 011400Z 34005KT CAVOK 09/M01 Q1025 NOSIG', 'LQBK 011330Z 36009KT CAVOK 10/M02 Q1026 NOSIG', 'LQBK 011300Z 11003KT CAVOK 12/M06 Q1025 NOSIG', 'LQBK 011230Z 11003KT CAVOK 12/M06 Q1026 NOSIG', 'LQBK 011200Z 15003KT CAVOK 11/M05 Q1026 NOSIG', 'LQBK 011130Z 12003KT CAVOK 10/M04 Q1026 NOSIG', 'LQBK 011100Z 16003KT CAVOK 08/M02 Q1027 NOSIG', 'LQBK 011030Z VRB02KT 8000 NSC 06/M01 Q1028 NOSIG', 'LQBK 011000Z VRB01KT 8000 NSC 04/M00 Q1028 NOSIG', 'LQBK 010930Z 34003KT 8000 NSC 03/00 Q1028 NOSIG', 'LQBK 010900Z 35002KT 7000 NSC 03/M00 Q1028 NOSIG', 'LQBK 010830Z 16004KT 7000 NSC 01/M01 Q1028 NOSIG', 'LQBK 010800Z 17005KT 7000 NSC M01/M01 Q1028 NOSIG', 'LQBK 010730Z 16005KT 6000 NSC M02/M03 Q1029 NOSIG', 'LQBK 010700Z 16003KT 6000 NSC M03/M03 Q1029 NOSIG', 'LQBK 010630Z 35002KT 6000 NSC M04/M04 Q1029 NOSIG', 'LQBK 010600Z 33004KT 7000 NSC M05/M05 Q1029 NOSIG', 'LQBK 010530Z VRB01KT 7000 NSC M04/M04 Q1029 NOSIG', 'LQBK 010500Z 17004KT CAVOK M04/M04 Q1029 NOSIG', 'LQBK 010430Z VRB01KT CAVOK M04/M04 Q1029 NOSIG', 'LQBK 010400Z 16003KT CAVOK M03/M03 Q1029 NOSIG', 'LQBK 010330Z 16006KT CAVOK M03/M03 Q1030 NOSIG', 'LQBK 010300Z 17003KT CAVOK M04/M04 Q1030 NOSIG', 'LQBK 010230Z 17005KT CAVOK M04/M04 Q1030 NOSIG', 'LQBK 010200Z 34002KT CAVOK M03/M03 Q1031 NOSIG', 'LQBK 010130Z VRB01KT CAVOK M03/M03 Q1031 NOSIG', 'LQBK 010100Z 16008KT CAVOK M02/M02 Q1031 NOSIG', 'LQBK 010030Z 16005KT CAVOK M02/M02 Q1031 NOSIG', 'LQBK 010000Z 16006KT CAVOK M02/M02 Q1031 NOSIG']","['2024-02-03 23:00:00', '2024-02-03 22:30:00', '2024-02-03 22:00:00', '2024-02-03 21:30:00', '2024-02-03 21:00:00', '2024-02-03 20:30:00', '2024-02-03 20:00:00', '2024-02-03 19:30:00', '2024-02-03 19:00:00', '2024-02-03 18:30:00', '2024-02-03 18:00:00', '2024-02-03 17:30:00', '2024-02-03 17:00:00', '2024-02-03 16:30:00', '2024-02-03 16:00:00', '2024-02-03 15:30:00', '2024-02-03 15:00:00', '2024-02-03 14:30:00', '2024-02-03 14:00:00', '2024-02-03 13:30:00', '2024-02-03 13:00:00', '2024-02-03 12:30:00', '2024-02-03 12:00:00', '2024-02-03 11:30:00', '2024-02-03 11:00:00', '2024-02-03 10:30:00', '2024-02-03 10:00:00', '2024-02-03 09:30:00', '2024-02-03 09:00:00', '2024-02-03 08:30:00', '2024-02-03 08:00:00', '2024-02-03 07:30:00', '2024-02-03 07:00:00', '2024-02-03 06:30:00', '2024-02-03 06:00:00', '2024-02-03 05:30:00', '2024-02-03 05:00:00', '2024-02-03 04:30:00', '2024-02-03 04:00:00', '2024-02-03 03:30:00', '2024-02-03 03:00:00', '2024-02-03 02:30:00', '2024-02-03 02:00:00', '2024-02-03 01:30:00', '2024-02-03 01:00:00', '2024-02-03 00:30:00', '2024-02-03 00:00:00', '2024-02-02 23:30:00', '2024-02-02 23:00:00', '2024-02-02 22:30:00', '2024-02-02 22:00:00', '2024-02-02 21:30:00', '2024-02-02 21:00:00', '2024-02-02 20:30:00', '2024-02-02 20:00:00', '2024-02-02 19:30:00', '2024-02-02 19:00:00', '2024-02-02 18:30:00', '2024-02-02 18:00:00', '2024-02-02 17:30:00', '2024-02-02 17:00:00', '2024-02-02 16:30:00', '2024-02-02 16:00:00', '2024-02-02 15:30:00', '2024-02-02 15:00:00', '2024-02-02 14:30:00', '2024-02-02 14:00:00', '2024-02-02 13:30:00', '2024-02-02 13:00:00', '2024-02-02 12:30:00', '2024-02-02 12:00:00', '2024-02-02 11:30:00', '2024-02-02 11:00:00', '2024-02-02 10:30:00', '2024-02-02 10:00:00', '2024-02-02 09:30:00', '2024-02-02 09:00:00', '2024-02-02 08:30:00', '2024-02-02 08:00:00', '2024-02-02 07:30:00', '2024-02-02 07:00:00', '2024-02-02 06:30:00', '2024-02-02 06:00:00', '2024-02-02 05:30:00', '2024-02-02 05:00:00', '2024-02-02 04:30:00', '2024-02-02 04:00:00', '2024-02-02 03:30:00', '2024-02-02 03:00:00', '2024-02-02 02:30:00', '2024-02-02 02:00:00', '2024-02-02 01:30:00', '2024-02-02 01:00:00', '2024-02-02 00:30:00', '2024-02-02 00:00:00', '2024-02-01 23:30:00', '2024-02-01 23:00:00', '2024-02-01 22:30:00', '2024-02-01 22:00:00', '2024-02-01 21:30:00', '2024-02-01 21:00:00', '2024-02-01 20:30:00', '2024-02-01 20:00:00', '2024-02-01 19:30:00', '2024-02-01 19:00:00', '2024-02-01 18:30:00', '2024-02-01 18:00:00', '2024-02-01 17:30:00', '2024-02-01 17:00:00', '2024-02-01 16:30:00', '2024-02-01 16:00:00', '2024-02-01 15:30:00', '2024-02-01 15:00:00', '2024-02-01 14:30:00', '2024-02-01 14:00:00', '2024-02-01 13:30:00', '2024-02-01 13:00:00', '2024-02-01 12:30:00', '2024-02-01 12:00:00', '2024-02-01 11:30:00', '2024-02-01 11:00:00', '2024-02-01 10:30:00', '2024-02-01 10:00:00', '2024-02-01 09:30:00', '2024-02-01 09:00:00', '2024-02-01 08:30:00', '2024-02-01 08:00:00', '2024-02-01 07:30:00', '2024-02-01 07:00:00', '2024-02-01 06:30:00', '2024-02-01 06:00:00', '2024-02-01 05:30:00', '2024-02-01 05:00:00', '2024-02-01 04:30:00', '2024-02-01 04:00:00', '2024-02-01 03:30:00', '2024-02-01 03:00:00', '2024-02-01 02:30:00', '2024-02-01 02:00:00', '2024-02-01 01:30:00', '2024-02-01 01:00:00', '2024-02-01 00:30:00', '2024-02-01 00:00:00']"
Bosnia-and-herzegovina, Mostar International Airport (OMO/LQMO) ,"['LQMO 032300Z VRB02KT CAVOK 03/01 Q1025', 'LQMO 032230Z VRB01KT CAVOK 03/01 Q1025', 'LQMO 032200Z VRB01KT CAVOK 03/00 Q1024', 'LQMO 032130Z VRB01KT CAVOK 04/01 Q1024', 'LQMO 032100Z 20003KT CAVOK 05/02 Q1024', 'LQMO 032030Z 13003KT CAVOK 04/00 Q1024', 'LQMO 032000Z VRB01KT CAVOK 06/01 Q1024', 'LQMO 031930Z VRB02KT CAVOK 06/01 Q1024', 'LQMO 031900Z 16003KT 130V240 CAVOK 08/01 Q1024', 'LQMO 031830Z 11003KT 090V190 CAVOK 07/01 Q1024', 'LQMO 031800Z 13003KT 110V170 CAVOK 08/02 Q1024', 'LQMO 031730Z 11003KT CAVOK 09/01 Q1023', 'LQMO 031700Z 11004KT CAVOK 10/01 Q1023', 'LQMO 031630Z 13005KT CAVOK 11/00 Q1023', 'LQMO 031600Z 17003KT 130V220 CAVOK 14/01 Q1023', 'LQMO 031530Z 17003KT 130V210 CAVOK 15/M01 Q1023', 'LQMO 031500Z 14003KT CAVOK 16/M01 Q1023', 'LQMO 031430Z 15003KT 120V180 CAVOK 16/M02 Q1023', 'LQMO 031400Z VRB02KT CAVOK 18/M01 Q1023', 'LQMO 031330Z VRB01KT CAVOK 17/M02 Q1023', 'LQMO 031300Z VRB02KT 9999 FEW060 17/M02 Q1023', 'LQMO 031230Z 13003KT 100V190 9999 FEW055 15/M03 Q1024', 'LQMO 031200Z 12003KT 050V150 9999 FEW055 15/M02 Q1024', 'LQMO 031130Z VRB02KT 9999 FEW055 14/M04 Q1025', 'LQMO 031100Z VRB02KT 9999 FEW060 13/M04 Q1025', 'LQMO 031000Z VRB01KT 9999 FEW060 11/M03 Q1026', 'LQMO 030930Z 20003KT 120V240 CAVOK 10/M03 Q1026', 'LQMO 030900Z VRB02KT CAVOK 09/M03 Q1026', 'LQMO 030830Z 15003KT 120V190 CAVOK 07/M03 Q1026', 'LQMO 030800Z VRB02KT CAVOK 06/M03 Q1026', 'LQMO 030730Z VRB02KT 9999 FEW060 03/M02 Q1026', 'LQMO 030700Z VRB01KT 9999 FEW060 00/M04 Q1026', 'LQMO 030630Z VRB02KT 9999 FEW060 M01/M05 Q1026', 'LQMO 030600Z VRB01KT 9999 FEW060 M01/M05 Q1026', 'LQMO 030530Z VRB01KT 9999 FEW065 M01/M04 Q1026', 'LQMO 030500Z 17002KT 9999 FEW070 00/M04 Q1026', 'LQMO 030430Z VRB02KT 9999 SCT070 01/M04 Q1026', 'LQMO 030400Z VRB02KT 9999 SCT070 01/M04 Q1026', 'LQMO 030330Z 26004KT 240V300 9999 SCT070 03/M04 Q1026', 'LQMO 030300Z 10003KT 9999 SCT065 03/M04 Q1026', 'LQMO 030230Z VRB01KT 9999 SCT070 04/M03 Q1026', 'LQMO 030200Z VRB02KT 9999 SCT070 04/M05 Q1027', 'LQMO 030130Z 09003KT 080V150 9999 SCT070 03/M04 Q1027', 'LQMO 030100Z 30004KT 260V350 9999 SCT070 05/M04 Q1027', 'LQMO 030030Z VRB02KT 9999 SCT075 05/M05 Q1026', 'LQMO 030000Z 12003KT 100V170 9999 SCT075 06/M05 Q1027', 'LQMO 022330Z VRB03KT 9999 FEW080 06/M05 Q1027', 'LQMO 022300Z 19003KT 150V230 9999 FEW080 07/M05 Q1027', 'LQMO 022230Z VRB02KT CAVOK 07/M06 Q1027', 'LQMO 022200Z 35005KT CAVOK 08/M06 Q1027', 'LQMO 022130Z 34005KT 310V040 CAVOK 09/M07 Q1027', 'LQMO 022100Z 01007KT CAVOK 09/M07 Q1027', 'LQMO 022030Z 36013KT CAVOK 11/M07 Q1027', 'LQMO 022000Z 02008KT 360V060 CAVOK 11/M07 Q1027', 'LQMO 021930Z 03008KT 360V060 CAVOK 11/M07 Q1027', 'LQMO 021900Z 35011KT 320V020 CAVOK 11/M06 Q1026', 'LQMO 021830Z 32014KT 290V350 CAVOK 11/M06 Q1026', 'LQMO 021800Z 33013KT CAVOK 11/M04 Q1026', 'LQMO 021730Z 34018G28KT CAVOK 11/M04 Q1026', 'LQMO 021700Z 34020G32KT 310V010 CAVOK 12/M05 Q1026', 'LQMO 021630Z 35023KT CAVOK 11/M04 Q1025', 'LQMO 021600Z 36023KT 9999 FEW045 12/M05 Q1025', 'LQMO 021530Z 36020KT 330V030 9999 FEW045 13/M04 Q1025', 'LQMO 021500Z 02023KT 9999 FEW045 13/M05 Q1025', 'LQMO 021430Z 02020KT 9999 FEW045 14/M06 Q1025', 'LQMO 021400Z 03015KT 9999 FEW045 14/M05 Q1025', 'LQMO 021330Z 03020KT 9999 FEW045 14/M05 Q1025', 'LQMO 021300Z 01016G32KT 9999 FEW045 15/M05 Q1025', 'LQMO 021230Z 03020G31KT 9999 FEW050 15/M05 Q1025', 'LQMO 021200Z 36018KT 9999 FEW050 15/M04 Q1026', 'LQMO 021130Z 01014G26KT 330V060 9999 FEW045 14/M04 Q1026', 'LQMO 021100Z 34017KT 9999 FEW045 14/M04 Q1026', 'LQMO 021030Z 01016G32KT 310V060 9999 FEW045 14/M04 Q1026', 'LQMO 021000Z 36017KT 330V030 9999 FEW045 14/M03 Q1026', 'LQMO 020930Z 01018KT 9999 FEW045 13/M03 Q1027', 'LQMO 020900Z 01014G25KT 320V060 9999 FEW045 13/M02 Q1027', 'LQMO 020830Z 36013G23KT 320V080 9999 FEW040 13/M03 Q1026', 'LQMO 020800Z 35010G20KT 310V020 9999 FEW040 12/M03 Q1026', 'LQMO 020730Z VRB09G20KT 9999 FEW040 12/M03 Q1027', 'LQMO 020700Z 01010KT 280V050 9999 FEW045 12/M03 Q1027', 'LQMO 020630Z 33012G23KT 300V030 9999 FEW045 11/M03 Q1026', 'LQMO 020600Z 32015KT CAVOK 11/M02 Q1026', 'LQMO 020530Z 34019G29KT 310V020 CAVOK 10/M01 Q1026', 'LQMO 020500Z /////KT CAVOK 11/M01 Q1025', 'LQMO 020430Z /////KT CAVOK 08/00 Q1025', 'LQMO 020400Z /////KT CAVOK 01/M03 Q1025', 'LQMO 020330Z /////KT CAVOK 01/M03 Q1025', 'LQMO 020300Z /////KT CAVOK 00/M03 Q1024', 'LQMO 020230Z /////KT CAVOK 00/M02 Q1025', 'LQMO 020200Z /////KT CAVOK 00/M02 Q1024', 'LQMO 020130Z VRB02KT CAVOK M00/M03 Q1024', 'LQMO 020100Z VRB02KT CAVOK 01/M02 Q1025', 'LQMO 020030Z 03003KT 330V060 CAVOK 01/M02 Q1024', 'LQMO 020000Z 19003KT 090V240 CAVOK 01/M02 Q1024', 'LQMO 012330Z VRB02KT CAVOK 01/M02 Q1025', 'LQMO 012300Z VRB01KT CAVOK 01/M02 Q1025', 'LQMO 012230Z 14004KT CAVOK 01/M03 Q1025', 'LQMO 012200Z VRB02KT CAVOK 01/M03 Q1024', 'LQMO 012130Z VRB02KT CAVOK 02/M01 Q1024', 'LQMO 012100Z VRB02KT CAVOK 02/M03 Q1024', 'LQMO 012030Z VRB02KT CAVOK 02/M03 Q1024', 'LQMO 012000Z 13003KT CAVOK 02/M03 Q1024', 'LQMO 011930Z VRB02KT CAVOK 04/M02 Q1024', 'LQMO 011900Z 35003KT 280V010 CAVOK 04/M03 Q1024', 'LQMO 011830Z 12004KT CAVOK 04/M03 Q1024', 'LQMO 011800Z 16005KT CAVOK 07/M03 Q1024', 'LQMO 011730Z 13004KT CAVOK 07/M03 Q1024', 'LQMO 011700Z 10003KT 080V140 CAVOK 08/M03 Q1024', 'LQMO 011630Z 10003KT CAVOK 09/M05 Q1024', 'LQMO 011600Z 13004KT CAVOK 11/M05 Q1023', 'LQMO 011530Z 17003KT 110V200 CAVOK 13/M06 Q1024', 'LQMO 011500Z 13002KT CAVOK 14/M08 Q1024', 'LQMO 011430Z VRB02KT CAVOK 14/M09 Q1024', 'LQMO 011400Z VRB02KT CAVOK 15/M08 Q1024', 'LQMO 011330Z VRB01KT CAVOK 15/M09 Q1024', 'LQMO 011300Z VRB02KT CAVOK 14/M09 Q1024', 'LQMO 011230Z VRB02KT CAVOK 14/M07 Q1025', 'LQMO 011200Z VRB03KT CAVOK 13/M08 Q1025', 'LQMO 011130Z VRB02KT CAVOK 11/M08 Q1026', 'LQMO 011100Z VRB02KT CAVOK 10/M07 Q1026', 'LQMO 011030Z VRB02KT CAVOK 10/M07 Q1027', 'LQMO 011000Z VRB02KT CAVOK 09/M05 Q1028', 'LQMO 010930Z VRB02KT CAVOK 07/M05 Q1028', 'LQMO 010900Z VRB02KT CAVOK 04/M04 Q1028', 'LQMO 010830Z VRB02KT CAVOK 03/M04 Q1028', 'LQMO 010800Z VRB01KT 9999 4900SE NSC 01/M03 Q1028', 'LQMO 010730Z 35002KT 9999 4900SE NSC M02/M04 Q1028', 'LQMO 010700Z VRB02KT CAVOK M04/M06 Q1028', 'LQMO 010630Z 36003KT 320V030 CAVOK M05/M07 Q1028', 'LQMO 010600Z VRB02KT CAVOK M05/M07 Q1028', 'LQMO 010530Z 35004KT CAVOK M05/M07 Q1028', 'LQMO 010500Z VRB01KT CAVOK M05/M06 Q1028', 'LQMO 010430Z 34002KT CAVOK M04/M05 Q1028', 'LQMO 010400Z 13003KT CAVOK M04/M06 Q1028', 'LQMO 010330Z 33003KT CAVOK M03/M05 Q1028', 'LQMO 010300Z 13004KT CAVOK M04/M06 Q1028', 'LQMO 010230Z VRB01KT CAVOK M03/M05 Q1028', 'LQMO 010200Z 33002KT CAVOK M02/M04 Q1029', 'LQMO 010130Z VRB02KT CAVOK M04/M07 Q1029', 'LQMO 010100Z VRB02KT CAVOK M03/M05 Q1029', 'LQMO 010030Z VRB01KT CAVOK M03/M06 Q1029', 'LQMO 010000Z VRB01KT CAVOK M02/M04 Q1029']","['2024-02-03 23:00:00', '2024-02-03 22:30:00', '2024-02-03 22:00:00', '2024-02-03 21:30:00', '2024-02-03 21:00:00', '2024-02-03 20:30:00', '2024-02-03 20:00:00', '2024-02-03 19:30:00', '2024-02-03 19:00:00', '2024-02-03 18:30:00', '2024-02-03 18:00:00', '2024-02-03 17:30:00', '2024-02-03 17:00:00', '2024-02-03 16:30:00', '2024-02-03 16:00:00', '2024-02-03 15:30:00', '2024-02-03 15:00:00', '2024-02-03 14:30:00', '2024-02-03 14:00:00', '2024-02-03 13:30:00', '2024-02-03 13:00:00', '2024-02-03 12:30:00', '2024-02-03 12:00:00', '2024-02-03 11:30:00', '2024-02-03 11:00:00', '2024-02-03 10:00:00', '2024-02-03 09:30:00', '2024-02-03 09:00:00', '2024-02-03 08:30:00', '2024-02-03 08:00:00', '2024-02-03 07:30:00', '2024-02-03 07:00:00', '2024-02-03 06:30:00', '2024-02-03 06:00:00', '2024-02-03 05:30:00', '2024-02-03 05:00:00', '2024-02-03 04:30:00', '2024-02-03 04:00:00', '2024-02-03 03:30:00', '2024-02-03 03:00:00', '2024-02-03 02:30:00', '2024-02-03 02:00:00', '2024-02-03 01:30:00', '2024-02-03 01:00:00', '2024-02-03 00:30:00', '2024-02-03 00:00:00', '2024-02-02 23:30:00', '2024-02-02 23:00:00', '2024-02-02 22:30:00', '2024-02-02 22:00:00', '2024-02-02 21:30:00', '2024-02-02 21:00:00', '2024-02-02 20:30:00', '2024-02-02 20:00:00', '2024-02-02 19:30:00', '2024-02-02 19:00:00', '2024-02-02 18:30:00', '2024-02-02 18:00:00', '2024-02-02 17:30:00', '2024-02-02 17:00:00', '2024-02-02 16:30:00', '2024-02-02 16:00:00', '2024-02-02 15:30:00', '2024-02-02 15:00:00', '2024-02-02 14:30:00', '2024-02-02 14:00:00', '2024-02-02 13:30:00', '2024-02-02 13:00:00', '2024-02-02 12:30:00', '2024-02-02 12:00:00', '2024-02-02 11:30:00', '2024-02-02 11:00:00', '2024-02-02 10:30:00', '2024-02-02 10:00:00', '2024-02-02 09:30:00', '2024-02-02 09:00:00', '2024-02-02 08:30:00', '2024-02-02 08:00:00', '2024-02-02 07:30:00', '2024-02-02 07:00:00', '2024-02-02 06:30:00', '2024-02-02 06:00:00', '2024-02-02 05:30:00', '2024-02-02 05:00:00', '2024-02-02 04:30:00', '2024-02-02 04:00:00', '2024-02-02 03:30:00', '2024-02-02 03:00:00', '2024-02-02 02:30:00', '2024-02-02 02:00:00', '2024-02-02 01:30:00', '2024-02-02 01:00:00', '2024-02-02 00:30:00', '2024-02-02 00:00:00', '2024-02-01 23:30:00', '2024-02-01 23:00:00', '2024-02-01 22:30:00', '2024-02-01 22:00:00', '2024-02-01 21:30:00', '2024-02-01 21:00:00', '2024-02-01 20:30:00', '2024-02-01 20:00:00', '2024-02-01 19:30:00', '2024-02-01 19:00:00', '2024-02-01 18:30:00', '2024-02-01 18:00:00', '2024-02-01 17:30:00', '2024-02-01 17:00:00', '2024-02-01 16:30:00', '2024-02-01 16:00:00', '2024-02-01 15:30:00', '2024-02-01 15:00:00', '2024-02-01 14:30:00', '2024-02-01 14:00:00', '2024-02-01 13:30:00', '2024-02-01 13:00:00', '2024-02-01 12:30:00', '2024-02-01 12:00:00', '2024-02-01 11:30:00', '2024-02-01 11:00:00', '2024-02-01 10:30:00', '2024-02-01 10:00:00', '2024-02-01 09:30:00', '2024-02-01 09:00:00', '2024-02-01 08:30:00', '2024-02-01 08:00:00', '2024-02-01 07:30:00', '2024-02-01 07:00:00', '2024-02-01 06:30:00', '2024-02-01 06:00:00', '2024-02-01 05:30:00', '2024-02-01 05:00:00', '2024-02-01 04:30:00', '2024-02-01 04:00:00', '2024-02-01 03:30:00', '2024-02-01 03:00:00', '2024-02-01 02:30:00', '2024-02-01 02:00:00', '2024-02-01 01:30:00', '2024-02-01 01:00:00', '2024-02-01 00:30:00', '2024-02-01 00:00:00']"
Bosnia-and-herzegovina, Sarajevo International Airport (SJJ/LQSA) ,"['LQSA 032300Z 23001KT 8000 NSC M00/M00 Q1025', 'LQSA 032230Z 14003KT CAVOK M00/M01 Q1025', 'LQSA 032200Z VRB01KT CAVOK 00/M00 Q1025', 'LQSA 032130Z VRB01KT CAVOK M00/M01 Q1025 NOSIG', 'LQSA 032100Z VRB01KT CAVOK M00/M01 Q1025 NOSIG', 'LQSA 032030Z VRB01KT CAVOK 01/M00 Q1025 NOSIG', 'LQSA 032000Z VRB01KT CAVOK 01/M01 Q1025 NOSIG', 'LQSA 031930Z VRB01KT CAVOK 01/M01 Q1025 NOSIG', 'LQSA 031900Z VRB01KT CAVOK 02/00 Q1024 NOSIG', 'LQSA 031830Z VRB01KT CAVOK 02/M00 Q1023 NOSIG', 'LQSA 031800Z VRB02KT CAVOK 03/01 Q1023 NOSIG', 'LQSA 031730Z VRB02KT CAVOK 04/00 Q1023 NOSIG', 'LQSA 031700Z VRB01KT CAVOK 05/00 Q1023 NOSIG', 'LQSA 031630Z 15004KT CAVOK 06/00 Q1023 NOSIG', 'LQSA 031600Z 15003KT CAVOK 08/00 Q1023 NOSIG', 'LQSA 031530Z VRB02KT CAVOK 10/M00 Q1023 NOSIG', 'LQSA 031500Z 22003KT CAVOK 12/00 Q1023 NOSIG', 'LQSA 031430Z 23002KT CAVOK 13/00 Q1023 NOSIG', 'LQSA 031400Z VRB01KT CAVOK 13/M01 Q1023 NOSIG', 'LQSA 031330Z VRB02KT CAVOK 13/M01 Q1023 NOSIG', 'LQSA 031300Z VRB02KT CAVOK 12/M00 Q1023 NOSIG', 'LQSA 031230Z VRB02KT CAVOK 11/M01 Q1024 NOSIG', 'LQSA 031200Z VRB02KT CAVOK 11/M01 Q1024 NOSIG', 'LQSA 031130Z VRB02KT CAVOK 09/M02 Q1025 NOSIG', 'LQSA 031100Z VRB02KT CAVOK 08/M02 Q1025 NOSIG', 'LQSA 031030Z VRB02KT CAVOK 07/M02 Q1025 NOSIG', 'LQSA 031000Z VRB01KT CAVOK 05/M01 Q1026 NOSIG', 'LQSA 030930Z VRB01KT 8000 NSC 03/M02 Q1026 NOSIG', 'LQSA 030900Z VRB01KT 8000 NSC 02/M01 Q1026 NOSIG', 'LQSA 030830Z VRB01KT 8000 FEW070 01/M02 Q1026 NOSIG', 'LQSA 030800Z VRB01KT 8000 SCT070 00/M02 Q1026 TEMPO 4000 BR', 'LQSA 030730Z VRB01KT 8000 NSC M01/M01 Q1026 TEMPO 3000 BR', 'LQSA 030700Z 00000KT 7000 NSC M02/M02 Q1026 TEMPO 3000 BR', 'LQSA 030630Z VRB01KT 7000 SCT060 M02/M02 Q1026 BECMG 3000 BR', 'LQSA 030600Z VRB01KT 9999 SCT055 M02/M02 Q1026 NOSIG', 'LQSA 030530Z VRB01KT 9999 SCT050 M02/M02 Q1026 NOSIG', 'LQSA 030500Z VRB01KT 9999 SCT045 M01/M02 Q1026 NOSIG', 'LQSA 030430Z 31002KT 9999 BKN045 M01/M02 Q1027 NOSIG', 'LQSA 030400Z VRB01KT 9999 BKN040 M00/M01 Q1026', 'LQSA 030330Z 00000KT 9999 BKN045 M00/M02 Q1026', 'LQSA 030300Z 24001KT 9999 BKN050 M01/M01 Q1027', 'LQSA 030230Z VRB01KT 9999 BKN050 M01/M02 Q1026', 'LQSA 030200Z 33001KT 9999 BKN055 M01/M02 Q1027', 'LQSA 030130Z 33001KT 9999 BKN055 M01/M02 Q1027', 'LQSA 030100Z VRB02KT 9999 BKN055 M01/M02 Q1027', 'LQSA 030030Z 33003KT 9999 BKN055 M02/M03 Q1027', 'LQSA 030000Z VRB01KT 9999 BKN055 M01/M02 Q1027', 'LQSA 022330Z VRB02KT 9999 BKN055 M01/M02 Q1028', 'LQSA 022300Z 14003KT 9999 BKN055 M02/M02 Q1028', 'LQSA 022230Z VRB01KT 9999 SCT060 M02/M03 Q1028', 'LQSA 022200Z 00000KT 9999 SCT065 M02/M03 Q1028', 'LQSA 022130Z VRB01KT CAVOK M02/M03 Q1028 NOSIG', 'LQSA 022100Z VRB01KT CAVOK M02/M03 Q1028 NOSIG', 'LQSA 022030Z 12003KT CAVOK M02/M03 Q1028 NOSIG', 'LQSA 022000Z VRB01KT CAVOK M02/M03 Q1029 NOSIG', 'LQSA 021930Z VRB01KT CAVOK M01/M03 Q1029 NOSIG', 'LQSA 021900Z 15002KT CAVOK M01/M03 Q1028 NOSIG', 'LQSA 021830Z 12003KT 090V150 CAVOK M01/M03 Q1029 NOSIG', 'LQSA 021800Z VRB02KT CAVOK M00/M03 Q1029 NOSIG', 'LQSA 021730Z VRB02KT CAVOK 01/M02 Q1029 NOSIG', 'LQSA 021700Z VRB02KT CAVOK 02/M02 Q1029 NOSIG', 'LQSA 021630Z 29002KT CAVOK 04/M03 Q1028 NOSIG', 'LQSA 021600Z 32003KT 280V040 9999 FEW045 05/M03 Q1028 NOSIG', 'LQSA 021530Z 34004KT 300V040 9999 FEW045 06/M03 Q1028 NOSIG', 'LQSA 021500Z 35005KT 320V070 9999 SCT050 07/M04 Q1028 NOSIG', 'LQSA 021430Z 34007KT 300V030 9999 SCT050 07/M03 Q1028 NOSIG', 'LQSA 021400Z 32009KT 9999 BKN050 08/M02 Q1028 NOSIG', 'LQSA 021330Z 32008KT 9999 BKN050 08/M02 Q1028 NOSIG', 'LQSA 021300Z 33006KT 270V020 9999 BKN050 08/M02 Q1028 NOSIG', 'LQSA 021230Z 36008KT 330V050 9999 BKN045 08/M03 Q1028 NOSIG', 'LQSA 021200Z 32003KT 260V030 9999 BKN045 07/M01 Q1029 NOSIG', 'LQSA 021130Z 32004KT 270V030 9999 BKN045 07/M00 Q1029 NOSIG', 'LQSA 021100Z 29003KT 200V010 9999 BKN045 07/M01 Q1029 NOSIG', 'LQSA 021030Z VRB01KT 8000 BKN040 06/M00 Q1029 NOSIG', 'LQSA 021000Z VRB01KT 8000 BKN040 05/M00 Q1029 NOSIG', 'LQSA 020930Z VRB02KT 6000 SCT040 04/M01 Q1029 NOSIG', 'LQSA 020900Z VRB01KT 6000 SCT040 03/M01 Q1029 NOSIG', 'LQSA 020830Z VRB01KT 6000 FEW035 SCT045 02/M01 Q1029 NOSIG', 'LQSA 020800Z VRB01KT 6000 BKN040 01/M02 Q1029 NOSIG', 'LQSA 020730Z VRB02KT 8000 BKN040 01/M01 Q1029 NOSIG', 'LQSA 020700Z VRB02KT 8000 BKN040 00/M01 Q1029 NOSIG', 'LQSA 020630Z 30003KT 9999 BKN045 00/M01 Q1029 NOSIG', 'LQSA 020600Z 00000KT 9999 BKN040 M00/M02 Q1029 NOSIG', 'LQSA 020530Z 12003KT 080V140 8000 FEW033 BKN040 00/M02 Q1028 NOSIG', 'LQSA 020500Z VRB02KT 8000 SCT030 BKN040 00/M01 Q1029 NOSIG', 'LQSA 020430Z VRB01KT 8000 BKN030 00/M02 Q1028', 'LQSA 020400Z VRB03KT 6000 SCT030 BKN040 00/M01 Q1028', 'LQSA 020330Z VRB02KT 6000 SCT030 BKN040 00/M02 Q1028', 'LQSA 020300Z 29002KT 8000 SCT030 BKN040 00/M02 Q1028', 'LQSA 020230Z VRB01KT 8000 SCT030 BKN040 00/M02 Q1028', 'LQSA 020200Z VRB02KT 8000 FEW030 BKN040 00/M02 Q1028', 'LQSA 020130Z 19003KT 130V210 8000 BKN040 00/M02 Q1028', 'LQSA 020100Z 23002KT 8000 BKN045 M00/M01 Q1028', 'LQSA 020030Z 00000KT 8000 BKN045 M00/M02 Q1027', 'LQSA 020000Z 00000KT 8000 BKN045 M00/M02 Q1027', 'LQSA 012330Z 19001KT 8000 SCT045 BKN055 M00/M02 Q1027', 'LQSA 012300Z VRB01KT 8000 SCT045 BKN055 M00/M02 Q1027', 'LQSA 012230Z VRB01KT 8000 SCT040 BKN060 M01/M02 Q1027', 'LQSA 012200Z VRB01KT 9999 SCT040 M01/M03 Q1026', 'LQSA 012130Z VRB02KT CAVOK M01/M03 Q1026 NOSIG', 'LQSA 012100Z 22002KT CAVOK M01/M03 Q1026 NOSIG', 'LQSA 012030Z 12004KT CAVOK M01/M03 Q1025 NOSIG', 'LQSA 012000Z VRB02KT CAVOK M01/M03 Q1026 NOSIG', 'LQSA 011930Z 22003KT 190V250 CAVOK M01/M03 Q1025 NOSIG', 'LQSA 011900Z VRB02KT CAVOK M01/M03 Q1025 NOSIG', 'LQSA 011830Z VRB01KT CAVOK M01/M03 Q1025 NOSIG', 'LQSA 011800Z 00000KT CAVOK 00/M04 Q1025 NOSIG', 'LQSA 011730Z VRB02KT CAVOK 01/M04 Q1025 NOSIG', 'LQSA 011700Z VRB02KT CAVOK 02/M05 Q1025 NOSIG', 'LQSA 011630Z 16003KT CAVOK 02/M05 Q1024 NOSIG', 'LQSA 011600Z VRB02KT CAVOK 03/M05 Q1024 NOSIG', 'LQSA 011530Z 22001KT CAVOK 05/M05 Q1024 NOSIG', 'LQSA 011500Z VRB01KT CAVOK 08/M06 Q1024 NOSIG', 'LQSA 011430Z VRB02KT CAVOK 08/M07 Q1024 NOSIG', 'LQSA 011400Z VRB02KT CAVOK 09/M08 Q1024 NOSIG', 'LQSA 011330Z VRB02KT CAVOK 08/M09 Q1025 NOSIG', 'LQSA 011300Z VRB02KT CAVOK 07/M10 Q1025 NOSIG', 'LQSA 011230Z VRB01KT CAVOK 07/M09 Q1025 NOSIG', 'LQSA 011200Z VRB01KT CAVOK 05/M08 Q1026 NOSIG', 'LQSA 011130Z VRB01KT CAVOK 04/M07 Q1026 NOSIG', 'LQSA 011100Z VRB02KT CAVOK 04/M06 Q1027 NOSIG', 'LQSA 011030Z VRB02KT CAVOK 02/M06 Q1027 NOSIG', 'LQSA 011000Z VRB01KT CAVOK 01/M05 Q1028 NOSIG', 'LQSA 010930Z VRB01KT CAVOK 00/M06 Q1028 NOSIG', 'LQSA 010900Z VRB01KT CAVOK M01/M05 Q1029 NOSIG', 'LQSA 010830Z VRB02KT CAVOK M03/M05 Q1029 NOSIG', 'LQSA 010800Z VRB01KT CAVOK M05/M06 Q1029 NOSIG', 'LQSA 010730Z 00000KT CAVOK M06/M06 Q1029 NOSIG', 'LQSA 010700Z VRB01KT CAVOK M07/M08 Q1029 NOSIG', 'LQSA 010630Z 30002KT CAVOK M07/M08 Q1029 NOSIG', 'LQSA 010600Z VRB01KT CAVOK M08/M08 Q1029 NOSIG', 'LQSA 010530Z VRB02KT CAVOK M07/M08 Q1029 NOSIG', 'LQSA 010500Z VRB01KT CAVOK M07/M07 Q1029 NOSIG', 'LQSA 010430Z 13002KT CAVOK M07/M08 Q1029 NOSIG', 'LQSA 010400Z VRB01KT CAVOK M07/M08 Q1030', 'LQSA 010330Z VRB01KT CAVOK M06/M07 Q1030', 'LQSA 010300Z 00000KT CAVOK M06/M07 Q1030', 'LQSA 010230Z 00000KT CAVOK M06/M07 Q1030', 'LQSA 010200Z VRB01KT CAVOK M05/M06 Q1030', 'LQSA 010130Z VRB02KT CAVOK M05/M06 Q1031', 'LQSA 010100Z VRB01KT CAVOK M05/M06 Q1031', 'LQSA 010030Z 13003KT 120V180 CAVOK M05/M07 Q1031', 'LQSA 010000Z VRB01KT 8000 NSC M05/M07 Q1031']","['2024-02-03 23:00:00', '2024-02-03 22:30:00', '2024-02-03 22:00:00', '2024-02-03 21:30:00', '2024-02-03 21:00:00', '2024-02-03 20:30:00', '2024-02-03 20:00:00', '2024-02-03 19:30:00', '2024-02-03 19:00:00', '2024-02-03 18:30:00', '2024-02-03 18:00:00', '2024-02-03 17:30:00', '2024-02-03 17:00:00', '2024-02-03 16:30:00', '2024-02-03 16:00:00', '2024-02-03 15:30:00', '2024-02-03 15:00:00', '2024-02-03 14:30:00', '2024-02-03 14:00:00', '2024-02-03 13:30:00', '2024-02-03 13:00:00', '2024-02-03 12:30:00', '2024-02-03 12:00:00', '2024-02-03 11:30:00', '2024-02-03 11:00:00', '2024-02-03 10:30:00', '2024-02-03 10:00:00', '2024-02-03 09:30:00', '2024-02-03 09:00:00', '2024-02-03 08:30:00', '2024-02-03 08:00:00', '2024-02-03 07:30:00', '2024-02-03 07:00:00', '2024-02-03 06:30:00', '2024-02-03 06:00:00', '2024-02-03 05:30:00', '2024-02-03 05:00:00', '2024-02-03 04:30:00', '2024-02-03 04:00:00', '2024-02-03 03:30:00', '2024-02-03 03:00:00', '2024-02-03 02:30:00', '2024-02-03 02:00:00', '2024-02-03 01:30:00', '2024-02-03 01:00:00', '2024-02-03 00:30:00', '2024-02-03 00:00:00', '2024-02-02 23:30:00', '2024-02-02 23:00:00', '2024-02-02 22:30:00', '2024-02-02 22:00:00', '2024-02-02 21:30:00', '2024-02-02 21:00:00', '2024-02-02 20:30:00', '2024-02-02 20:00:00', '2024-02-02 19:30:00', '2024-02-02 19:00:00', '2024-02-02 18:30:00', '2024-02-02 18:00:00', '2024-02-02 17:30:00', '2024-02-02 17:00:00', '2024-02-02 16:30:00', '2024-02-02 16:00:00', '2024-02-02 15:30:00', '2024-02-02 15:00:00', '2024-02-02 14:30:00', '2024-02-02 14:00:00', '2024-02-02 13:30:00', '2024-02-02 13:00:00', '2024-02-02 12:30:00', '2024-02-02 12:00:00', '2024-02-02 11:30:00', '2024-02-02 11:00:00', '2024-02-02 10:30:00', '2024-02-02 10:00:00', '2024-02-02 09:30:00', '2024-02-02 09:00:00', '2024-02-02 08:30:00', '2024-02-02 08:00:00', '2024-02-02 07:30:00', '2024-02-02 07:00:00', '2024-02-02 06:30:00', '2024-02-02 06:00:00', '2024-02-02 05:30:00', '2024-02-02 05:00:00', '2024-02-02 04:30:00', '2024-02-02 04:00:00', '2024-02-02 03:30:00', '2024-02-02 03:00:00', '2024-02-02 02:30:00', '2024-02-02 02:00:00', '2024-02-02 01:30:00', '2024-02-02 01:00:00', '2024-02-02 00:30:00', '2024-02-02 00:00:00', '2024-02-01 23:30:00', '2024-02-01 23:00:00', '2024-02-01 22:30:00', '2024-02-01 22:00:00', '2024-02-01 21:30:00', '2024-02-01 21:00:00', '2024-02-01 20:30:00', '2024-02-01 20:00:00', '2024-02-01 19:30:00', '2024-02-01 19:00:00', '2024-02-01 18:30:00', '2024-02-01 18:00:00', '2024-02-01 17:30:00', '2024-02-01 17:00:00', '2024-02-01 16:30:00', '2024-02-01 16:00:00', '2024-02-01 15:30:00', '2024-02-01 15:00:00', '2024-02-01 14:30:00', '2024-02-01 14:00:00', '2024-02-01 13:30:00', '2024-02-01 13:00:00', '2024-02-01 12:30:00', '2024-02-01 12:00:00', '2024-02-01 11:30:00', '2024-02-01 11:00:00', '2024-02-01 10:30:00', '2024-02-01 10:00:00', '2024-02-01 09:30:00', '2024-02-01 09:00:00', '2024-02-01 08:30:00', '2024-02-01 08:00:00', '2024-02-01 07:30:00', '2024-02-01 07:00:00', '2024-02-01 06:30:00', '2024-02-01 06:00:00', '2024-02-01 05:30:00', '2024-02-01 05:00:00', '2024-02-01 04:30:00', '2024-02-01 04:00:00', '2024-02-01 03:30:00', '2024-02-01 03:00:00', '2024-02-01 02:30:00', '2024-02-01 02:00:00', '2024-02-01 01:30:00', '2024-02-01 01:00:00', '2024-02-01 00:30:00', '2024-02-01 00:00:00']"
Bosnia-and-herzegovina, Tuzla International Airport (TZL/LQTZ) ,"['LQTZ 032300Z 17003KT CAVOK M00/M00 Q1024', 'LQTZ 032230Z VRB01KT CAVOK 00/00 Q1024', 'LQTZ 032200Z VRB01KT CAVOK 00/00 Q1024', 'LQTZ 032130Z VRB01KT CAVOK 01/01 Q1024', 'LQTZ 032100Z VRB02KT CAVOK 02/02 Q1024', 'LQTZ 032030Z VRB01KT CAVOK 02/01 Q1024', 'LQTZ 032000Z VRB01KT CAVOK 02/02 Q1024', 'LQTZ 031930Z VRB02KT CAVOK 03/02 Q1023', 'LQTZ 031900Z VRB01KT CAVOK 03/01 Q1024', 'LQTZ 031830Z VRB01KT CAVOK 05/01 Q1023', 'LQTZ 031800Z 29003KT 270V330 CAVOK 05/01 Q1023', 'LQTZ 031730Z 33003KT 290V350 CAVOK 06/01 Q1023', 'LQTZ 031700Z 31003KT 290V350 CAVOK 07/01 Q1023', 'LQTZ 031630Z 00000KT CAVOK 10/00 Q1022', 'LQTZ 031600Z VRB02KT CAVOK 14/00 Q1022', 'LQTZ 031530Z VRB02KT CAVOK 16/M00 Q1022', 'LQTZ 031500Z 30004KT 260V330 CAVOK 16/00 Q1022', 'LQTZ 031430Z 30004KT 280V340 CAVOK 17/00 Q1022', 'LQTZ 031400Z 30005KT 260V350 CAVOK 17/00 Q1022', 'LQTZ 031330Z 30004KT 240V330 CAVOK 17/01 Q1022', 'LQTZ 031300Z 30006KT 270V330 CAVOK 17/00 Q1022', 'LQTZ 031230Z 27007KT CAVOK 15/M01 Q1023', 'LQTZ 031200Z 28007KT 230V320 CAVOK 15/01 Q1023', 'LQTZ 031130Z 27005KT 220V310 CAVOK 14/M00 Q1024', 'LQTZ 031100Z 24003KT 190V300 CAVOK 13/M00 Q1024', 'LQTZ 031030Z VRB01KT CAVOK 11/01 Q1024', 'LQTZ 031000Z VRB02KT CAVOK 10/00 Q1025', 'LQTZ 030930Z VRB01KT CAVOK 08/01 Q1025', 'LQTZ 030900Z VRB02KT CAVOK 07/01 Q1024', 'LQTZ 030830Z VRB01KT CAVOK 06/00 Q1024', 'LQTZ 030800Z VRB01KT CAVOK 04/04 Q1024', 'LQTZ 030730Z VRB02KT CAVOK 02/02 Q1024', 'LQTZ 030700Z VRB01KT CAVOK M00/M00 Q1024', 'LQTZ 030630Z VRB01KT CAVOK M01/M01 Q1024', 'LQTZ 030600Z VRB02KT CAVOK M01/M01 Q1024', 'LQTZ 030530Z VRB01KT 9999 FEW040 M00/M00 Q1024', 'LQTZ 030500Z VRB02KT 9999 FEW040 M00/M00 Q1024', 'LQTZ 030430Z VRB01KT 9999 SCT040 00/00 Q1025', 'LQTZ 030400Z 00000KT 9999 SCT040 00/00 Q1025', 'LQTZ 030330Z 10004KT 9999 SCT040 00/00 Q1025', 'LQTZ 030300Z 10003KT 9999 SCT040 00/00 Q1025', 'LQTZ 030230Z VRB01KT 9999 SCT040 00/00 Q1026', 'LQTZ 030200Z 32003KT 9999 SCT040 00/00 Q1026', 'LQTZ 030130Z VRB01KT 9999 SCT040 00/00 Q1026', 'LQTZ 030100Z VRB02KT 9999 SCT040 00/00 Q1026', 'LQTZ 030030Z VRB01KT 9999 SCT040 M00/M00 Q1026', 'LQTZ 030000Z VRB02KT 9999 SCT040 M00/M00 Q1027', 'LQTZ 022330Z 00000KT 9999 SCT040 M00/M00 Q1027', 'LQTZ 022300Z VRB01KT 9999 SCT040 M01/M01 Q1027', 'LQTZ 022230Z VRB02KT 9999 FEW040 M01/M01 Q1028', 'LQTZ 022200Z VRB02KT CAVOK M01/M01 Q1028', 'LQTZ 022130Z VRB01KT CAVOK M02/M02 Q1028', 'LQTZ 022100Z VRB01KT CAVOK M02/M02 Q1028', 'LQTZ 022030Z VRB02KT CAVOK M01/M01 Q1028', 'LQTZ 022000Z VRB02KT CAVOK M01/M01 Q1029', 'LQTZ 021930Z VRB01KT CAVOK M00/M00 Q1029', 'LQTZ 021900Z VRB02KT CAVOK M00/M00 Q1029', 'LQTZ 021830Z VRB02KT CAVOK M00/M00 Q1029', 'LQTZ 021800Z VRB02KT CAVOK 01/M00 Q1029', 'LQTZ 021730Z VRB01KT CAVOK 02/M01 Q1029', 'LQTZ 021700Z 04003KT CAVOK 02/M02 Q1029', 'LQTZ 021630Z 32003KT CAVOK 06/M03 Q1029', 'LQTZ 021600Z 31005KT CAVOK 07/M03 Q1029', 'LQTZ 021530Z 30007KT 9999 FEW040 08/M02 Q1029', 'LQTZ 021500Z 29008KT 9999 FEW040 09/M02 Q1029', 'LQTZ 021430Z 30009KT 9999 FEW040 09/M02 Q1029', 'LQTZ 021400Z 30008KT 9999 FEW040 09/M02 Q1029', 'LQTZ 021330Z 30011KT 9999 FEW040 10/M01 Q1029', 'LQTZ 021300Z 32010KT 270V340 9999 SCT045 10/M01 Q1029', 'LQTZ 021230Z 32009KT 290V350 9999 BKN045 09/M01 Q1029', 'LQTZ 021200Z 33008KT 300V020 9999 SCT045 09/M01 Q1030', 'LQTZ 021130Z VRB05KT 9999 SCT045 08/M02 Q1030', 'LQTZ 021100Z 27008KT 240V300 9999 FEW030 SCT045 08/00 Q1030', 'LQTZ 021030Z 29008KT 8000 FEW030 SCT045 07/06 Q1030', 'LQTZ 021000Z VRB02KT 1600 R09/1200N BR SCT003 05/05 Q1030', 'LQTZ 020930Z 26003KT 0500 R09/0600U FG SCT001 03/03 Q1030', 'LQTZ 020830Z VRB01KT 0100 R09/0100N FZFG BKN001 M00/M00 Q1030', 'LQTZ 020800Z VRB02KT 0500 R09/0225D FZFG BKN002 00/00 Q1030', 'LQTZ 020730Z VRB02KT 0800 R09/0900U FZFG SCT002 00/00 Q1030', 'LQTZ 020700Z VRB01KT 0400 R09/0800N FZFG BKN002 M01/M01 Q1030', 'LQTZ 020630Z VRB01KT 0050 R09/0100N FZFG BKN001 M01/M01 Q1029', 'LQTZ 020600Z VRB01KT 0200 R09/0450D FZFG BKN002 M01/M01 Q1029', 'LQTZ 020530Z VRB02KT 2500 BR NSC 01/01 Q1029', 'LQTZ 020500Z VRB02KT 2500 BR NSC 01/01 Q1029', 'LQTZ 020430Z VRB02KT 2000 BR BKN003 01/01 Q1029', 'LQTZ 020400Z VRB02KT 1500 BR BKN003 01/01 Q1029', 'LQTZ 020330Z VRB01KT 2000 BR NSC 01/01 Q1029', 'LQTZ 020300Z VRB02KT 2000 BR NSC 01/01 Q1029', 'LQTZ 020230Z VRB02KT 3000 BR NSC 02/02 Q1028', 'LQTZ 020200Z VRB02KT 3000 BR NSC 01/01 Q1028', 'LQTZ 020130Z VRB02KT 5000 BR NSC 02/02 Q1028', 'LQTZ 020100Z 35005KT 5000 BR NSC 03/03 Q1028', 'LQTZ 020030Z VRB02KT 5000 BR NSC 02/02 Q1028', 'LQTZ 020000Z VRB01KT 5000 BR NSC 02/02 Q1028', 'LQTZ 012330Z VRB02KT 6000 NSC 02/02 Q1028', 'LQTZ 012300Z VRB01KT 6000 NSC 03/M02 Q1028', 'LQTZ 012230Z VRB01KT 6000 NSC 03/M02 Q1028', 'LQTZ 012200Z VRB02KT 6000 NSC 03/M03 Q1027', 'LQTZ 012130Z 32004KT 6000 NSC 03/M03 Q1027', 'LQTZ 012100Z VRB01KT 6000 NSC 03/M04 Q1027', 'LQTZ 012030Z VRB01KT 6000 NSC 03/M03 Q1027', 'LQTZ 012000Z VRB02KT 6000 NSC 02/M04 Q1026', 'LQTZ 011930Z VRB02KT 6000 NSC 01/M04 Q1026', 'LQTZ 011900Z VRB01KT 6000 NSC 02/M05 Q1025', 'LQTZ 011830Z VRB02KT 6000 NSC 02/M04 Q1025', 'LQTZ 011800Z VRB02KT CAVOK 02/M05 Q1025', 'LQTZ 011730Z VRB02KT CAVOK 04/M05 Q1025', 'LQTZ 011700Z VRB01KT CAVOK 04/M05 Q1025', 'LQTZ 011630Z 09003KT CAVOK 05/M07 Q1024', 'LQTZ 011600Z 02002KT CAVOK 09/M10 Q1024', 'LQTZ 011530Z VRB01KT CAVOK 10/M10 Q1024', 'LQTZ 011500Z VRB02KT CAVOK 11/M10 Q1024', 'LQTZ 011430Z 31003KT CAVOK 12/M08 Q1024', 'LQTZ 011400Z VRB01KT CAVOK 12/M09 Q1024', 'LQTZ 011330Z VRB02KT CAVOK 11/M07 Q1024', 'LQTZ 011300Z VRB02KT CAVOK 12/M07 Q1025', 'LQTZ 011230Z VRB01KT CAVOK 10/M09 Q1025', 'LQTZ 011200Z VRB01KT CAVOK 09/M05 Q1026', 'LQTZ 011130Z VRB02KT CAVOK 08/M04 Q1026', 'LQTZ 011100Z VRB02KT 9000 NSC 07/M04 Q1027', 'LQTZ 011030Z 22004KT 170V310 8000 NSC 05/M03 Q1027', 'LQTZ 011000Z VRB01KT 8000 NSC 04/M04 Q1028', 'LQTZ 010930Z VRB3KT 6000 NSC 03/M01 Q1028', 'LQTZ 010900Z 13003KT 6000 NSC 01/01 Q1028', 'LQTZ 010830Z VRB01KT 3000 BR NSC M01/M01 Q1028', 'LQTZ 010800Z VRB01KT 3000 BR NSC M02/M02 Q1028', 'LQTZ 010730Z VRB02KT 3000 BR NSC M04/M04 Q1028', 'LQTZ 010700Z VRB02KT 3000 BR NSC M05/M05 Q1028', 'LQTZ 010630Z VRB01KT 6000 NSC M07/M07 Q1028', 'LQTZ 010600Z 08003KT 7000 NSC M06/M06 Q1028', 'LQTZ 010530Z VRB02KT 6000 NSC M07/M07 Q1029', 'LQTZ 010500Z VRB02KT 7000 NSC M06/M06 Q1029', 'LQTZ 010430Z VRB01KT 7000 NSC M06/M06 Q1029', 'LQTZ 010400Z VRB01KT 7000 NSC M06/M06 Q1029', 'LQTZ 010330Z VRB01KT 8000 NSC M06/M06 Q1030', 'LQTZ 010300Z VRB01KT 8000 NSC M05/M05 Q1030', 'LQTZ 010230Z VRB02KT 6000 NSC M05/M05 Q1030', 'LQTZ 010200Z VRB02KT 8000 NSC M05/M05 Q1030', 'LQTZ 010130Z VRB02KT 8000 NSC M04/M04 Q1030', 'LQTZ 010100Z VRB02KT 8000 NSC M04/M04 Q1031', 'LQTZ 010030Z VRB01KT CAVOK M05/M05 Q1031', 'LQTZ 010000Z VRB01KT CAVOK M05/M05 Q1031']","['2024-02-03 23:00:00', '2024-02-03 22:30:00', '2024-02-03 22:00:00', '2024-02-03 21:30:00', '2024-02-03 21:00:00', '2024-02-03 20:30:00', '2024-02-03 20:00:00', '2024-02-03 19:30:00', '2024-02-03 19:00:00', '2024-02-03 18:30:00', '2024-02-03 18:00:00', '2024-02-03 17:30:00', '2024-02-03 17:00:00', '2024-02-03 16:30:00', '2024-02-03 16:00:00', '2024-02-03 15:30:00', '2024-02-03 15:00:00', '2024-02-03 14:30:00', '2024-02-03 14:00:00', '2024-02-03 13:30:00', '2024-02-03 13:00:00', '2024-02-03 12:30:00', '2024-02-03 12:00:00', '2024-02-03 11:30:00', '2024-02-03 11:00:00', '2024-02-03 10:30:00', '2024-02-03 10:00:00', '2024-02-03 09:30:00', '2024-02-03 09:00:00', '2024-02-03 08:30:00', '2024-02-03 08:00:00', '2024-02-03 07:30:00', '2024-02-03 07:00:00', '2024-02-03 06:30:00', '2024-02-03 06:00:00', '2024-02-03 05:30:00', '2024-02-03 05:00:00', '2024-02-03 04:30:00', '2024-02-03 04:00:00', '2024-02-03 03:30:00', '2024-02-03 03:00:00', '2024-02-03 02:30:00', '2024-02-03 02:00:00', '2024-02-03 01:30:00', '2024-02-03 01:00:00', '2024-02-03 00:30:00', '2024-02-03 00:00:00', '2024-02-02 23:30:00', '2024-02-02 23:00:00', '2024-02-02 22:30:00', '2024-02-02 22:00:00', '2024-02-02 21:30:00', '2024-02-02 21:00:00', '2024-02-02 20:30:00', '2024-02-02 20:00:00', '2024-02-02 19:30:00', '2024-02-02 19:00:00', '2024-02-02 18:30:00', '2024-02-02 18:00:00', '2024-02-02 17:30:00', '2024-02-02 17:00:00', '2024-02-02 16:30:00', '2024-02-02 16:00:00', '2024-02-02 15:30:00', '2024-02-02 15:00:00', '2024-02-02 14:30:00', '2024-02-02 14:00:00', '2024-02-02 13:30:00', '2024-02-02 13:00:00', '2024-02-02 12:30:00', '2024-02-02 12:00:00', '2024-02-02 11:30:00', '2024-02-02 11:00:00', '2024-02-02 10:30:00', '2024-02-02 10:00:00', '2024-02-02 09:30:00', '2024-02-02 08:30:00', '2024-02-02 08:00:00', '2024-02-02 07:30:00', '2024-02-02 07:00:00', '2024-02-02 06:30:00', '2024-02-02 06:00:00', '2024-02-02 05:30:00', '2024-02-02 05:00:00', '2024-02-02 04:30:00', '2024-02-02 04:00:00', '2024-02-02 03:30:00', '2024-02-02 03:00:00', '2024-02-02 02:30:00', '2024-02-02 02:00:00', '2024-02-02 01:30:00', '2024-02-02 01:00:00', '2024-02-02 00:30:00', '2024-02-02 00:00:00', '2024-02-01 23:30:00', '2024-02-01 23:00:00', '2024-02-01 22:30:00', '2024-02-01 22:00:00', '2024-02-01 21:30:00', '2024-02-01 21:00:00', '2024-02-01 20:30:00', '2024-02-01 20:00:00', '2024-02-01 19:30:00', '2024-02-01 19:00:00', '2024-02-01 18:30:00', '2024-02-01 18:00:00', '2024-02-01 17:30:00', '2024-02-01 17:00:00', '2024-02-01 16:30:00', '2024-02-01 16:00:00', '2024-02-01 15:30:00', '2024-02-01 15:00:00', '2024-02-01 14:30:00', '2024-02-01 14:00:00', '2024-02-01 13:30:00', '2024-02-01 13:00:00', '2024-02-01 12:30:00', '2024-02-01 12:00:00', '2024-02-01 11:30:00', '2024-02-01 11:00:00', '2024-02-01 10:30:00', '2024-02-01 10:00:00', '2024-02-01 09:30:00', '2024-02-01 09:00:00', '2024-02-01 08:30:00', '2024-02-01 08:00:00', '2024-02-01 07:30:00', '2024-02-01 07:00:00', '2024-02-01 06:30:00', '2024-02-01 06:00:00', '2024-02-01 05:30:00', '2024-02-01 05:00:00', '2024-02-01 04:30:00', '2024-02-01 04:00:00', '2024-02-01 03:30:00', '2024-02-01 03:00:00', '2024-02-01 02:30:00', '2024-02-01 02:00:00', '2024-02-01 01:30:00', '2024-02-01 01:00:00', '2024-02-01 00:30:00', '2024-02-01 00:00:00']"
Botswana, Gaborone Sir Seretse Khama International Airport (GBE/FBSK) ,"['FBSK 032300Z /////KT CAVOK 25/17 Q1017 NOSIG', 'FBSK 032200Z /////KT 9999 -RA BKN065 24/18 Q1018 NOSIG', 'FBSK 032100Z /////KT CAVOK 26/14 Q1017 NOSIG', 'FBSK 032000Z /////KT CAVOK 26/13 Q1016 NOSIG', 'FBSK 031900Z /////KT CAVOK 26/12 Q1015 NOSIG', 'FBSK 031800Z /////KT CAVOK 28/12 Q1015 NOSIG', 'FBSK 031700Z /////KT 9999 FEW030 FEW035TCU 31/11 Q1014 NOSIG', 'FBSK 031600Z /////KT 9999 FEW030 FEW035TCU 33/12 Q1014 NOSIG', 'FBSK 031500Z /////KT 9999 BKN030 FEW035TCU 34/12 Q1014 NOSIG', 'FBSK 031400Z /////KT 9999 BKN030 FEW035TCU 33/12 Q1015 NOSIG', 'FBSK 031300Z /////KT 9999 BKN030 FEW035TCU 34/13 Q1016 NOSIG', 'FBSK 031200Z /////KT 9999 FEW030 32/13 Q1017 NOSIG', 'FBSK 031100Z /////KT 9999 FEW030 31/13 Q1018 NOSIG', 'FBSK 031000Z /////KT 9999 FEW030 30/14 Q1019 NOSIG', 'FBSK 030900Z /////KT CAVOK 28/14 Q1020 NOSIG', 'FBSK 030800Z /////KT CAVOK 26/14 Q1020 NOSIG', 'FBSK 030700Z /////KT CAVOK 25/15 Q1020 NOSIG', 'FBSK 030600Z /////KT CAVOK 23/15 Q1020 NOSIG', 'FBSK 030500Z /////KT CAVOK 20/16 Q1020 NOSIG', 'FBSK 030400Z /////KT CAVOK 18/15 Q1020 NOSIG', 'FBSK 030300Z /////KT CAVOK 19/15 Q1019 NOSIG', 'FBSK 030200Z /////KT CAVOK 19/15 Q1019 NOSIG', 'FBSK 030100Z /////KT CAVOK 20/15 Q1019 NOSIG', 'FBSK 030000Z /////KT CAVOK 21/15 Q1019 NOSIG', 'FBSK 022300Z /////KT CAVOK 22/14 Q1019 NOSIG', 'FBSK 022200Z /////KT CAVOK 22/14 Q1019 NOSIG', 'FBSK 022100Z /////KT CAVOK 23/13 Q1019 NOSIG', 'FBSK 022000Z /////KT 9999 24/12 Q1019 NOSIG', 'FBSK 021900Z /////KT CAVOK 25/12 Q1018 NOSIG', 'FBSK 021800Z /////KT CAVOK 26/11 Q1018 NOSIG', 'FBSK 021700Z /////KT 9999 FEW030 29/10 Q1018 NOSIG', 'FBSK 021600Z /////KT 9999 SCT030 FEW035TCU 31/10 Q1018 NOSIG', 'FBSK 021500Z /////KT 9999 SCT030 FEW035TCU 31/12 Q1018 NOSIG', 'FBSK 021400Z /////KT 9999 SCT030 FEW035TCU 31/12 Q1019 NOSIG', 'FBSK 021300Z /////KT 9999 SCT030 FEW035CB 31/12 Q1020 NOSIG', 'FBSK 021200Z /////KT 9999 SCT030 31/12 Q1021 NOSIG', 'FBSK 021100Z /////KT 9999 SCT025 30/14 Q1022 NOSIG', 'FBSK 021000Z /////KT 9999 FEW025 28/14 Q1023 NOSIG', 'FBSK 020900Z /////KT 9999 FEW025 26/15 Q1024 NOSIG', 'FBSK 020800Z /////KT 9999 FEW025 26/15 Q1024 NOSIG', 'FBSK 020700Z /////KT 9999 FEW030 24/15 Q1024 NOSIG', 'FBSK 020600Z /////KT CAVOK 22/15 Q1024 NOSIG', 'FBSK 020500Z /////KT CAVOK 20/14 Q1024 NOSIG', 'FBSK 020400Z /////KT CAVOK 18/14 Q1023 NOSIG', 'FBSK 020300Z /////KT CAVOK 19/14 Q1023 NOSIG', 'FBSK 020200Z /////KT CAVOK 20/14 Q1023 NOSIG', 'FBSK 020000Z /////KT CAVOK 21/16 Q1023 NOSIG', 'FBSK 012300Z /////KT CAVOK 22/16 Q1023 NOSIG', 'FBSK 012200Z /////KT CAVOK 23/16 Q1022 NOSIG', 'FBSK 012100Z /////KT CAVOK 23/16 Q1022 NOSIG', 'FBSK 012000Z /////KT CAVOK 24/15 Q1022 NOSIG', 'FBSK 011900Z /////KT CAVOK 25/14 Q1021 NOSIG', 'FBSK 011800Z /////KT CAVOK 26/14 Q1021 NOSIG', 'FBSK 011700Z /////KT 9999 FEW030 29/13 Q1020 NOSIG', 'FBSK 011600Z /////KT 9999 SCT030 30/14 Q1020 NOSIG', 'FBSK 011500Z /////KT 9999 SCT030 FEW035TCU 31/13 Q1021 NOSIG', 'FBSK 011400Z /////KT 9999 SCT030 FEW035TCU 31/14 Q1021 NOSIG', 'FBSK 011300Z /////KT 9999 SCT030 FEW035TCU 30/14 Q1022 NOSIG', 'FBSK 011200Z /////KT 9999 BKN030 30/14 Q1023 NOSIG', 'FBSK 011100Z /////KT 9999 BKN025 29/15 Q1024 NOSIG', 'FBSK 011000Z /////KT 9999 SCT025 28/16 Q1024 NOSIG', 'FBSK 010900Z /////KT 9999 SCT025 26/16 Q1025 NOSIG', 'FBSK 010800Z /////KT 9999 FEW025 25/16 Q1025 NOSIG', 'FBSK 010700Z /////KT 9999 FEW025 23/16 Q1025 NOSIG', 'FBSK 010600Z /////KT CAVOK 22/15 Q1025 NOSIG', 'FBSK 010500Z /////KT CAVOK 20/15 Q1025 NOSIG', 'FBSK 010400Z /////KT CAVOK 18/14 Q1024 NOSIG', 'FBSK 010300Z /////KT CAVOK 19/14 Q1024 NOSIG', 'FBSK 010200Z /////KT CAVOK 20/15 Q1023 NOSIG', 'FBSK 010100Z /////KT CAVOK 21/15 Q1023 NOSIG', 'FBSK 010000Z /////KT CAVOK 21/14 Q1023 NOSIG']","['2024-02-03 23:00:00', '2024-02-03 22:00:00', '2024-02-03 21:00:00', '2024-02-03 20:00:00', '2024-02-03 19:00:00', '2024-02-03 18:00:00', '2024-02-03 17:00:00', '2024-02-03 16:00:00', '2024-02-03 15:00:00', '2024-02-03 14:00:00', '2024-02-03 13:00:00', '2024-02-03 12:00:00', '2024-02-03 11:00:00', '2024-02-03 10:00:00', '2024-02-03 09:00:00', '2024-02-03 08:00:00', '2024-02-03 07:00:00', '2024-02-03 06:00:00', '2024-02-03 05:00:00', '2024-02-03 04:00:00', '2024-02-03 03:00:00', '2024-02-03 02:00:00', '2024-02-03 01:00:00', '2024-02-03 00:00:00', '2024-02-02 23:00:00', '2024-02-02 22:00:00', '2024-02-02 21:00:00', '2024-02-02 20:00:00', '2024-02-02 19:00:00', '2024-02-02 18:00:00', '2024-02-02 17:00:00', '2024-02-02 16:00:00', '2024-02-02 15:00:00', '2024-02-02 14:00:00', '2024-02-02 13:00:00', '2024-02-02 12:00:00', '2024-02-02 11:00:00', '2024-02-02 10:00:00', '2024-02-02 09:00:00', '2024-02-02 08:00:00', '2024-02-02 07:00:00', '2024-02-02 06:00:00', '2024-02-02 05:00:00', '2024-02-02 04:00:00', '2024-02-02 03:00:00', '2024-02-02 02:00:00', '2024-02-02 00:00:00', '2024-02-01 23:00:00', '2024-02-01 22:00:00', '2024-02-01 21:00:00', '2024-02-01 20:00:00', '2024-02-01 19:00:00', '2024-02-01 18:00:00', '2024-02-01 17:00:00', '2024-02-01 16:00:00', '2024-02-01 15:00:00', '2024-02-01 14:00:00', '2024-02-01 13:00:00', '2024-02-01 12:00:00', '2024-02-01 11:00:00', '2024-02-01 10:00:00', '2024-02-01 09:00:00', '2024-02-01 08:00:00', '2024-02-01 07:00:00', '2024-02-01 06:00:00', '2024-02-01 05:00:00', '2024-02-01 04:00:00', '2024-02-01 03:00:00', '2024-02-01 02:00:00', '2024-02-01 01:00:00', '2024-02-01 00:00:00']"
Botswana, Kasane Airport (BBK/FBKE) ,"['FBKE 031800Z VRB01KT 9999 SCT030 26/18 Q1014', 'FBKE 031700Z 36002KT 9999 SCT030 28/18 Q1013', 'FBKE 031600Z 16003KT 120V210 9999 SCT030 31/15 Q1013', 'FBKE 031500Z 02003KT 310V110 9999 BKN030 31/15 Q1014', 'FBKE 031400Z 35006KT 290V060 9999 BKN030 FEW035CB 32/16 Q1014', 'FBKE 031300Z VRB04KT 9999 BKN030 FEW035CB 31/17 Q1015', 'FBKE 031200Z 32005KT 250V010 9999 BKN030 30/17 Q1016', 'FBKE 031100Z 03006KT 300V090 9999 SCT030 FEW035TCU 31/18 Q1017', 'FBKE 031000Z 34007KT 300V030 9999 SCT030 FEW035TCU 30/17 Q1018', 'FBKE 030900Z 04008KT 340V080 9999 SCT030 29/18 Q1018', 'FBKE 030800Z 07009KT 040V100 9999 FEW025 28/19 Q1019', 'FBKE 030700Z 09008KT 060V130 CAVOK 26/19 Q1019', 'FBKE 030600Z 09009KT CAVOK 22/18 Q1018', 'FBKE 030500Z 11008KT CAVOK 21/19 Q1018', 'FBKE 030400Z 11006KT CAVOK 20/19 Q1018', 'FBKE 030300Z 10004KT CAVOK 19/19 Q1017', 'FBKE 021800Z 36004KT 9999 FEW035CB BKN070 24/19 Q1016', 'FBKE 021700Z 11007KT 9999 FEW035CB BKN070 27/15 Q1015', 'FBKE 021600Z 18004KT 140V210 9999 FEW030 FEW035CB BKN070 27/17 Q1015', 'FBKE 021500Z 21005KT 9999 SCT030 FEW035CB SCT070 26/19 Q1015', 'FBKE 021400Z 23009KT 9999 BKN030 FEW035CB 28/18 Q1016', 'FBKE 021300Z VRB04KT 9999 SCT030 32/16 Q1017', 'FBKE 021200Z 09007KT 050V130 9999 SCT030 31/17 Q1018', 'FBKE 021100Z 11005KT 050V160 9999 FEW030 30/17 Q1019', 'FBKE 021000Z 06006KT 030V120 9999 FEW030 30/18 Q1020', 'FBKE 020900Z 07009KT 030V100 CAVOK 29/18 Q1020', 'FBKE 020800Z 06012KT CAVOK 27/18 Q1021', 'FBKE 020700Z 07013KT CAVOK 25/18 Q1021', 'FBKE 020600Z 10012KT CAVOK 23/19 Q1021', 'FBKE 020500Z 11009KT CAVOK 21/19 Q1020', 'FBKE 020400Z 11008KT CAVOK 20/19 Q1020', 'FBKE 020300Z 02003KT CAVOK 21/19 Q1020', 'FBKE 011800Z 09003KT 9999 TS SCT025 FEW035CB 23/20 Q1019', 'FBKE 011600Z 08003KT 050V120 9999 TS SCT025 FEW035CB 26/18 Q1017', 'FBKE 011500Z 03008KT 9999 TS BKN025 FEW035CB 26/20 Q1018', 'FBKE 011400Z VRB03KT 9999 BKN025 FEW035CB 28/19 Q1018', 'FBKE 011300Z 05013KT 9999 BKN025 FEW030TCU 25/22 Q1019', 'FBKE 011200Z 32005KT 290V350 9999 BKN030 FEW035TCU 28/18 Q1020', 'FBKE 011100Z VRB05KT 9999 SCT030 29/18 Q1021', 'FBKE 011000Z 05007KT 360V100 9999 SCT030 28/19 Q1021', 'FBKE 010900Z 08011KT 050V110 9999 SCT030 29/19 Q1022', 'FBKE 010800Z 07012KT 040V100 CAVOK 27/19 Q1022', 'FBKE 010700Z 09015KT CAVOK 26/19 Q1022', 'FBKE 010600Z 08012G22KT CAVOK 24/18 Q1022', 'FBKE 010500Z 10008KT CAVOK 22/18 Q1021', 'FBKE 010400Z 11008KT CAVOK 21/17 Q1020', 'FBKE 010300Z 11009KT CAVOK 22/18 Q1020']","['2024-02-03 18:00:00', '2024-02-03 17:00:00', '2024-02-03 16:00:00', '2024-02-03 15:00:00', '2024-02-03 14:00:00', '2024-02-03 13:00:00', '2024-02-03 12:00:00', '2024-02-03 11:00:00', '2024-02-03 10:00:00', '2024-02-03 09:00:00', '2024-02-03 08:00:00', '2024-02-03 07:00:00', '2024-02-03 06:00:00', '2024-02-03 05:00:00', '2024-02-03 04:00:00', '2024-02-03 03:00:00', '2024-02-02 18:00:00', '2024-02-02 17:00:00', '2024-02-02 16:00:00', '2024-02-02 15:00:00', '2024-02-02 14:00:00', '2024-02-02 13:00:00', '2024-02-02 12:00:00', '2024-02-02 11:00:00', '2024-02-02 10:00:00', '2024-02-02 09:00:00', '2024-02-02 08:00:00', '2024-02-02 07:00:00', '2024-02-02 06:00:00', '2024-02-02 05:00:00', '2024-02-02 04:00:00', '2024-02-02 03:00:00', '2024-02-01 18:00:00', '2024-02-01 16:00:00', '2024-02-01 15:00:00', '2024-02-01 14:00:00', '2024-02-01 13:00:00', '2024-02-01 12:00:00', '2024-02-01 11:00:00', '2024-02-01 10:00:00', '2024-02-01 09:00:00', '2024-02-01 08:00:00', '2024-02-01 07:00:00', '2024-02-01 06:00:00', '2024-02-01 05:00:00', '2024-02-01 04:00:00', '2024-02-01 03:00:00']"
Botswana, Maun Airport (MUB/FBMN) ,"['FBMN 032300Z VRB02KT CAVOK 22/16 Q1016', 'FBMN 032200Z VRB01KT CAVOK 23/16 Q1017', 'FBMN 032100Z 02003KT CAVOK 25/16 Q1016', 'FBMN 032000Z 14002KT CAVOK 25/17 Q1015', 'FBMN 031800Z VRB01KT CAVOK 28/15 Q1014', 'FBMN 031700Z 36003KT 330V090 9999 FEW030 31/15 Q1013', 'FBMN 031600Z 35005KT 280V040 9999 32/15 Q1013', 'FBMN 031500Z 36005KT 290V070 9999 FEW030 33/15 Q1013', 'FBMN 031400Z 04004KT 9999 FEW030 FEW035CB 34/14 Q1014', 'FBMN 031300Z 05006KT 320V110 9999 SCT030 FEW035CB 33/14 Q1014', 'FBMN 031200Z 35004KT 9999 BKN030 FEW030CB 32/14 Q1016', 'FBMN 031100Z 01008KT 320V050 9999 SCT030 FEW035TCU 31/17 Q1016', 'FBMN 031000Z 01009KT 9999 SCT030 FEW035TCU 31/18 Q1017', 'FBMN 030900Z 04007KT 340V090 CAVOK 30/18 Q1018', 'FBMN 030800Z 06007KT CAVOK 28/18 Q1018', 'FBMN 030700Z 07009KT CAVOK 25/17 Q1018', 'FBMN 030600Z 08009KT CAVOK 22/16 Q1018', 'FBMN 030500Z 12006KT CAVOK 20/18 Q1018', 'FBMN 030400Z 08007KT CAVOK 20/14 Q1017', 'FBMN 030300Z 07008KT CAVOK 20/14 Q1017', 'FBMN 030200Z 05004KT CAVOK 20/14 Q1017', 'FBMN 030100Z 05004KT CAVOK 24/13 Q1017', 'FBMN 030000Z 09011KT CAVOK 24/13 Q1017', 'FBMN 022300Z 09006KT CAVOK 24/13 Q1017', 'FBMN 022200Z 11005KT CAVOK 24/14 Q1017', 'FBMN 022100Z 11007KT CAVOK 25/14 Q1017', 'FBMN 022000Z 11004KT 9999 FEW025 FEW030CB 26/15 Q1017', 'FBMN 021900Z 10005KT 9999 FEW025 FEW030CB 27/16 Q1016', 'FBMN 021800Z 09005KT 9999 FEW025 FEW030CB 29/15 Q1015', 'FBMN 021700Z 09008KT 9999 SCT030 FEW035CB 31/16 Q1014', 'FBMN 021600Z 13006KT 100V180 9999 SCT030 FEW035CB 32/15 Q1014', 'FBMN 021500Z VRB03KT 9999 SCT030 FEW035CB 33/16 Q1015', 'FBMN 021400Z 13005KT 100V190 9999 SCT030 FEW035CB 32/17 Q1016', 'FBMN 021300Z VRB03KT 9999 SCT030 FEW035CB 33/17 Q1016', 'FBMN 021200Z 03005KT 310V110 9999 SCT030 FEW035TCU 32/19 Q1018', 'FBMN 021100Z VRB02KT 9999 SCT030 31/19 Q1019', 'FBMN 021000Z 04007KT 340V080 9999 FEW030 30/19 Q1020', 'FBMN 020900Z 05009KT 360V080 9999 FEW030 29/18 Q1020', 'FBMN 020800Z 05011KT 020V080 CAVOK 27/18 Q1021', 'FBMN 020700Z 07013KT CAVOK 25/20 Q1021', 'FBMN 020500Z 11006KT CAVOK 21/20 Q1021', 'FBMN 020400Z 10008KT CAVOK 22/20 Q1020', 'FBMN 020300Z 10007KT CAVOK 22/20 Q1020', 'FBMN 020200Z 11009KT CAVOK 23/19 Q1019', 'FBMN 020100Z 10007KT CAVOK 23/19 Q1020', 'FBMN 020000Z 11009KT CAVOK 24/19 Q1020', 'FBMN 012300Z 10010KT CAVOK 24/22 Q1020', 'FBMN 012200Z 11007KT 080V140 CAVOK 25/23 Q1020', 'FBMN 012100Z 13004KT CAVOK 25/24 Q1020', 'FBMN 012000Z 10003KT CAVOK 25/24 Q1019', 'FBMN 011900Z 08004KT CAVOK 25/25 Q1019', 'FBMN 011800Z 00000KT 9999 FEW030 FEW035CB 25/25 Q1018', 'FBMN 011700Z 06003KT 9999 FEW030 FEW035CB 26/22 Q1018', 'FBMN 011500Z 13009KT 110V180 9999 BKN030 FEW035CB 27/13 Q1017 RERA', 'FBMN 011400Z 01004KT 270V080 9999 SCT030 FEW035CB 32/18 Q1018', 'FBMN 011300Z 36004KT 290V070 9999 SCT030 FEW035CB 32/17 Q1018', 'FBMN 011200Z 35005KT 300V050 9999 SCT030 FEW035CB 32/19 Q1020', 'FBMN 011100Z 03008KT 290V070 9999 SCT030 FEW035TCU 30/19 Q1020', 'FBMN 011000Z 07010KT 020V100 9999 SCT025 Q1021', 'FBMN 010800Z 06010KT CAVOK 27/19 Q1021', 'FBMN 010600Z 08013KT CAVOK 24/18 Q1021', 'FBMN 010500Z 10010KT CAVOK 22/17 Q1021', 'FBMN 010400Z 10010KT CAVOK 22/17 Q1020', 'FBMN 010300Z 10008KT CAVOK 22/17 Q1020', 'FBMN 010200Z 10010KT CAVOK 23/17 Q1020', 'FBMN 010100Z 10010KT CAVOK 24/17 Q1019', 'FBMN 010000Z 11009KT CAVOK 24/17 Q1020']","['2024-02-03 23:00:00', '2024-02-03 22:00:00', '2024-02-03 21:00:00', '2024-02-03 20:00:00', '2024-02-03 18:00:00', '2024-02-03 17:00:00', '2024-02-03 16:00:00', '2024-02-03 15:00:00', '2024-02-03 14:00:00', '2024-02-03 13:00:00', '2024-02-03 12:00:00', '2024-02-03 11:00:00', '2024-02-03 10:00:00', '2024-02-03 09:00:00', '2024-02-03 08:00:00', '2024-02-03 07:00:00', '2024-02-03 06:00:00', '2024-02-03 05:00:00', '2024-02-03 04:00:00', '2024-02-03 03:00:00', '2024-02-03 02:00:00', '2024-02-03 01:00:00', '2024-02-03 00:00:00', '2024-02-02 23:00:00', '2024-02-02 22:00:00', '2024-02-02 21:00:00', '2024-02-02 20:00:00', '2024-02-02 19:00:00', '2024-02-02 18:00:00', '2024-02-02 17:00:00', '2024-02-02 16:00:00', '2024-02-02 15:00:00', '2024-02-02 14:00:00', '2024-02-02 13:00:00', '2024-02-02 12:00:00', '2024-02-02 11:00:00', '2024-02-02 10:00:00', '2024-02-02 09:00:00', '2024-02-02 08:00:00', '2024-02-02 07:00:00', '2024-02-02 05:00:00', '2024-02-02 04:00:00', '2024-02-02 03:00:00', '2024-02-02 02:00:00', '2024-02-02 01:00:00', '2024-02-02 00:00:00', '2024-02-01 23:00:00', '2024-02-01 22:00:00', '2024-02-01 21:00:00', '2024-02-01 20:00:00', '2024-02-01 19:00:00', '2024-02-01 18:00:00', '2024-02-01 17:00:00', '2024-02-01 15:00:00', '2024-02-01 14:00:00', '2024-02-01 13:00:00', '2024-02-01 12:00:00', '2024-02-01 11:00:00', '2024-02-01 10:00:00', '2024-02-01 08:00:00', '2024-02-01 06:00:00', '2024-02-01 05:00:00', '2024-02-01 04:00:00', '2024-02-01 03:00:00', '2024-02-01 02:00:00', '2024-02-01 01:00:00', '2024-02-01 00:00:00']"
Brazil, Alta Floresta Airport (AFL/SBAT) ,"['SBAT 032000Z 03003KT 9999 SCT025 SCT090 33/23 Q1009', 'SBAT 031900Z 02003KT 9999 SCT025 SCT090 32/23 Q1010', 'SBAT 031800Z 07004KT 9999 SCT025 SCT080 33/25 Q1011', 'SBAT 031700Z 13003KT 9999 SCT025 BKN080 32/25 Q1012', 'SBAT 031600Z 10005KT 9999 FEW025 BKN080 31/24 Q1013', 'SBAT 031500Z 07002KT CAVOK 30/24 Q1014', 'SBAT 031400Z 07003KT CAVOK 28/23 Q1015', 'SBAT 031300Z 06002KT CAVOK 27/23 Q1015', 'SBAT 031200Z 35003KT CAVOK 25/22 Q1015', 'SBAT 022100Z 05004KT 9999 FEW020 30/23 Q1011', 'SBAT 022000Z 03003KT 9999 FEW020 30/23 Q1011', 'SBAT 021900Z 05003KT 9999 FEW020 31/24 Q1011', 'SBAT 021800Z 02005KT 9999 FEW020 30/24 Q1012', 'SBAT 021700Z 03003KT 9999 FEW020 29/23 Q1013', 'SBAT 021600Z 09003KT 9999 FEW020 29/22 Q1014', 'SBAT 021500Z 14004KT 9999 FEW020 28/23 Q1015', 'SBAT 021400Z 16004KT 9999 FEW015 26/23 Q1016', 'SBAT 021300Z 16006KT 8000 SCT015 BKN100 25/23 Q1016', 'SBAT 021200Z 16004KT 5000 BR SCT012 BKN100 23/23 Q1016', 'SBAT 012000Z 32006KT 9999 FEW035 FEW048TCU SCT100 32/25 Q1010', 'SBAT 011900Z 31006KT 9999 SCT035 FEW048TCU 33/24 Q1009', 'SBAT 011800Z 29007KT 9999 BKN035 32/25 Q1010', 'SBAT 011700Z 29002KT 9999 SCT032 33/26 Q1011', 'SBAT 011600Z 35002KT 9999 BKN032 33/25 Q1013', 'SBAT 011500Z 35002KT 9999 SCT030 32/25 Q1015', 'SBAT 011400Z 13002KT 9999 FEW020 31/25 Q1015', 'SBAT 011300Z 24001KT 9999 FEW015 SCT080 29/24 Q1015', 'SBAT 011200Z 35001KT 9999 SCT011 25/24 Q1015']","['2024-02-03 20:00:00', '2024-02-03 19:00:00', '2024-02-03 18:00:00', '2024-02-03 17:00:00', '2024-02-03 16:00:00', '2024-02-03 15:00:00', '2024-02-03 14:00:00', '2024-02-03 13:00:00', '2024-02-03 12:00:00', '2024-02-02 21:00:00', '2024-02-02 20:00:00', '2024-02-02 19:00:00', '2024-02-02 18:00:00', '2024-02-02 17:00:00', '2024-02-02 16:00:00', '2024-02-02 15:00:00', '2024-02-02 14:00:00', '2024-02-02 13:00:00', '2024-02-02 12:00:00', '2024-02-01 20:00:00', '2024-02-01 19:00:00', '2024-02-01 18:00:00', '2024-02-01 17:00:00', '2024-02-01 16:00:00', '2024-02-01 15:00:00', '2024-02-01 14:00:00', '2024-02-01 13:00:00', '2024-02-01 12:00:00']"
Brazil, Altamira Airport (ATM/SBHT) ,"['SBHT 032100Z 10002KT 9999 FEW030 SCT100 29/25 Q1009', 'SBHT 032000Z 11004KT 9999 SCT030 31/23 Q1009', 'SBHT 031900Z 10005KT 9999 BKN030 33/24 Q1010', 'SBHT 031800Z 10007KT 9999 BKN030 33/24 Q1010', 'SBHT 031700Z 11005KT 9999 BKN030 31/24 Q1011', 'SBHT 031600Z 10007KT 9999 SCT030 32/24 Q1012', 'SBHT 031500Z 09008KT 9999 SCT030 31/24 Q1013', 'SBHT 031400Z 09007KT 9999 SCT020 30/23 Q1013', 'SBHT 031300Z 09005KT 9999 SCT020 28/22 Q1013', 'SBHT 031200Z 07003KT 9999 BKN015 27/23 Q1013', 'SBHT 031100Z 03002KT 9999 SCT010 24/23 Q1012', 'SBHT 031000Z 00000KT 9999 SCT010 23/22 Q1011', 'SBHT 022100Z 23002KT 9999 BKN020 SCT100 28/24 Q1011', 'SBHT 022000Z 00000KT 9999 BKN018 BKN090 28/25 Q1011', 'SBHT 021900Z 25002KT 9999 BKN018 BKN090 28/24 Q1011', 'SBHT 021800Z 25003KT 9999 BKN015 BKN090 27/24 Q1012', 'SBHT 021700Z 00000KT 9999 SCT015 OVC090 27/23 Q1013', 'SBHT 021600Z 08002KT 9999 SCT015 BKN100 26/25 Q1014', 'SBHT 021500Z 13002KT 9999 FEW015 SCT090 25/24 Q1014', 'SBHT 021400Z 00000KT 9999 SCT011 OVC080 24/24 Q1015', 'SBHT 021300Z 00000KT 5000 -RA BR BKN010 OVC080 24/23 Q1015', 'SBHT 021200Z 13003KT 2000 -RA BR BKN010 OVC080 23/23 Q1015', 'SBHT 021100Z 12005KT 4000 -RA BR BKN010 OVC080 23/23 Q1014', 'SBHT 021000Z 00000KT 1000 -RA BR BKN010 OVC080 24/23 Q1013', 'SBHT 012100Z 09004KT 9999 TS SCT025 FEW030CB 27/25 Q1009', 'SBHT 012000Z 00000KT 9999 SCT025 31/27 Q1008', 'SBHT 011900Z 32002KT 9999 SCT025 28/26 Q1008', 'SBHT 011800Z 13002KT 9999 BKN025 32/25 Q1009', 'SBHT 011700Z 07007KT 9999 BKN025 32/26 Q1010', 'SBHT 011600Z 09009KT 9999 BKN023 31/25 Q1012', 'SBHT 011500Z 07011KT 9999 BKN023 SCT100 29/25 Q1013', 'SBHT 011400Z 09005KT 9999 BKN020 BKN100 29/25 Q1014', 'SBHT 011300Z 09003KT 9999 BKN020 BKN100 28/25 Q1013', 'SBHT 011200Z 09007KT 9999 BKN020 BKN100 28/27 Q1013', 'SBHT 011100Z 09003KT 9999 BKN015 BKN100 25/25 Q1013', 'SBHT 011000Z 00000KT 9999 FEW010 BKN080 25/25 Q1012']","['2024-02-03 21:00:00', '2024-02-03 20:00:00', '2024-02-03 19:00:00', '2024-02-03 18:00:00', '2024-02-03 17:00:00', '2024-02-03 16:00:00', '2024-02-03 15:00:00', '2024-02-03 14:00:00', '2024-02-03 13:00:00', '2024-02-03 12:00:00', '2024-02-03 11:00:00', '2024-02-03 10:00:00', '2024-02-02 21:00:00', '2024-02-02 20:00:00', '2024-02-02 19:00:00', '2024-02-02 18:00:00', '2024-02-02 17:00:00', '2024-02-02 16:00:00', '2024-02-02 15:00:00', '2024-02-02 14:00:00', '2024-02-02 13:00:00', '2024-02-02 12:00:00', '2024-02-02 11:00:00', '2024-02-02 10:00:00', '2024-02-01 21:00:00', '2024-02-01 20:00:00', '2024-02-01 19:00:00', '2024-02-01 18:00:00', '2024-02-01 17:00:00', '2024-02-01 16:00:00', '2024-02-01 15:00:00', '2024-02-01 14:00:00', '2024-02-01 13:00:00', '2024-02-01 12:00:00', '2024-02-01 11:00:00', '2024-02-01 10:00:00']"
Brazil, Anapolis Airport (APS/SBAN) ,"['SBAN 032300Z 09004KT 6000 TSRA SCT030 FEW035CB BKN090 20/19 Q1020', 'SBAN 032200Z 08006KT 5000 -TSRA SCT030 FEW035CB BKN090 21/19 Q1019', 'SBAN 032100Z 07007KT 8000 -TSRA SCT030 FEW035CB BKN090 22/19 Q1019', 'SBAN 032000Z 10007KT 9999 TS VCSH SCT030 FEW035CB BKN090 25/20 Q1018', 'SBAN 031900Z 06004KT 9999 VCSH SCT030 FEW035TCU BKN090 23/18 Q1018', 'SBAN 031800Z 08011KT 7000 -RA BKN025 FEW030TCU BKN090 24/20 Q1019', 'SBAN 031700Z 06008KT 9999 BKN025 FEW030TCU BKN090 26/19 Q1020', 'SBAN 031600Z 07009KT 9999 BKN025 BKN090 25/19 Q1021', 'SBAN 031500Z 06010KT 9999 SCT020 BKN090 25/19 Q1021', 'SBAN 031400Z 07012KT 9999 SCT015 BKN080 24/19 Q1022', 'SBAN 031300Z 07012KT 9999 SCT010 BKN080 23/19 Q1021', 'SBAN 031200Z 08008KT 4000 BR SCT004 BKN080 20/20 Q1021', 'SBAN 031100Z 11007KT 3000 BR BKN003 BKN080 19/19 Q1020', 'SBAN 031000Z 11006KT 0500 R06L/1100 R24R/P2000 FG BKN002 19/19 Q1020', 'SBAN 030900Z 13008KT 0100 R24R/P2000 R06L/P2000 FG BKN002 19/19 Q1020', 'SBAN 030800Z 14005KT 9999 SCT004 BKN100 18/17 Q1021', 'SBAN 030700Z 12004KT 9999 SCT004 BKN100 18/17 Q1021', 'SBAN 030600Z 15006KT 9999 FEW020 BKN100 18/18 Q1019', 'SBAN 030500Z 13005KT 9999 FEW030 BKN100 19/18 Q1021', 'SBAN 030400Z 12006KT 9999 FEW030 BKN100 19/18 Q1021', 'SBAN 030300Z 14005KT 9999 FEW020 BKN100 19/18 Q1021', 'SBAN 030200Z 12006KT 9999 FEW015 BKN100 19/18 Q1022', 'SBAN 030100Z 11008KT 9999 FEW015 BKN100 19/18 Q1021', 'SBAN 030000Z 11007KT 9999 -RA VCTS SCT008 SCT030 FEW035CB BKN080 18/17 Q1020', 'SBAN 022300Z 08006KT 8000 -RA VCTS SCT008 SCT030 FEW035CB BKN080 18/18 Q1021 RETS', 'SBAN 022200Z 07003KT 2000 -TSRA FEW015 SCT030 FEW035CB 17/17 Q1020 RERA', 'SBAN 022100Z 16009KT 3000 TSRA FEW006 FEW035CB 17/17 Q1019 RERA', 'SBAN 022000Z VRB03KT 1200 R24R/0800D R06L/P2000D +TSRA SCT015 FEW040CB 19/18 Q1020 RERA', 'SBAN 021900Z 14008KT 9999 TS FEW040 FEW045CB SCT100 22/18 Q1018', 'SBAN 021800Z 08012KT 050V110 5000 2000S -TSRA SCT030 FEW035CB SCT070 25/19 Q1018', 'SBAN 021700Z 04007KT 9999 VCSH SCT035 FEW040TCU SCT070 26/19 Q1019', 'SBAN 021600Z 04007KT 9999 SCT030 FEW035TCU SCT070 26/19 Q1020', 'SBAN 021500Z 01003KT 9999 SCT025 FEW030TCU 26/20 Q1021', 'SBAN 021400Z 36005KT 9999 FEW015 SCT020 FEW030TCU 24/20 Q1022', 'SBAN 021300Z 06009KT 9999 VCSH FEW006 SCT035 FEW040TCU 23/19 Q1022', 'SBAN 021200Z 07008KT 9999 FEW005 21/19 Q1022', 'SBAN 021100Z 09008KT 5000 BR BCFG FEW001 BKN003 19/19 Q1021', 'SBAN 021000Z 11008KT 9999 3000S BCFG FEW002 SCT100 18/18 Q1021', 'SBAN 020900Z 11007KT 0600 R06L/M0050 R24R/M0050 FG BKN002 SCT100 18/18 Q1020', 'SBAN 020800Z 11010KT 0500 R06L/M0050 R24R/M0050 FG BKN002 18/18 Q1020', 'SBAN 020700Z 12005KT 9999 FEW030 BKN100 18/17 Q1020', 'SBAN 020600Z 13007KT 9999 FEW030 BKN100 18/17 Q1020', 'SBAN 020500Z 02002KT 9999 SCT030 BKN100 18/18 Q1021', 'SBAN 020400Z 01002KT 9999 SCT030 BKN100 18/18 Q1021', 'SBAN 020300Z 23003KT 9999 SCT030 BKN100 19/18 Q1021', 'SBAN 020200Z 00000KT 9999 SCT030 BKN100 18/18 Q1021', 'SBAN 020100Z 30001KT 9999 VCTS SCT030 FEW035CB BKN100 18/18 Q1021', 'SBAN 020000Z 32001KT 9999 VCTS FEW025 FEW030CB BKN100 19/18 Q1020', 'SBAN 012300Z 01003KT 9999 VCTS FEW025 FEW030CB BKN100 18/17 Q1019', 'SBAN 012200Z 15008KT 9999 FEW025 FEW030TCU BKN100 19/17 Q1019', 'SBAN 012100Z 11010KT 5000 BR BKN002 SCT025 FEW030TCU BKN100 20/20 Q1019 RETS', 'SBAN 012000Z 12003KT 9999 TS VCSH SCT025 FEW030CB BKN100 20/20 Q1017 RESHRA', 'SBAN 011900Z 30003KT 6000 2000S SHRA TS FEW005 SCT025 FEW030CB BKN080 18/18 Q1018 RERA', 'SBAN 011807Z 35004KT 7000 2000NE TSRA SCT005 BKN025 FEW030CB 18/18 Q1019', 'SBAN 011700Z 20007KT 9999 SHRA BKN025 FEW030TCU 27/18 Q1018', 'SBAN 011600Z 03002KT 9999 VCSH BKN020 FEW025TCU 27/19 Q1020', 'SBAN 011500Z 01005KT 9999 BKN020 26/19 Q1021', 'SBAN 011400Z 03005KT 9999 SCT015 25/20 Q1021', 'SBAN 011300Z 04009KT 9999 FEW013 24/20 Q1021', 'SBAN 011200Z 08008KT 9999 SCT005 21/20 Q1021', 'SBAN 011100Z 08009KT 6000 BKN003 19/19 Q1021', 'SBAN 011000Z 09006KT 0100 R06L/M0050 FG VV002 19/19 Q1020', 'SBAN 010900Z 09006KT 9999 FEW010 18/18 Q1019', 'SBAN 010800Z 08006KT CAVOK 18/18 Q1019', 'SBAN 010700Z 08004KT CAVOK 19/19 Q1019', 'SBAN 010600Z 06003KT CAVOK 18/18 Q1019', 'SBAN 010500Z 07006KT CAVOK 18/18 Q1018', 'SBAN 010400Z 09006KT 9999 FEW015 18/18 Q1020', 'SBAN 010300Z 08005KT 6000 SCT002 18/18 Q1020', 'SBAN 010200Z 10007KT 5000 BR BKN002 18/18 Q1021', 'SBAN 010100Z 08009KT 9999 FEW045 BKN080 19/18 Q1021', 'SBAN 010000Z 10005KT 060V130 9000 VCTS FEW003 FEW020CB BKN080 19/18 Q1019']","['2024-02-03 23:00:00', '2024-02-03 22:00:00', '2024-02-03 21:00:00', '2024-02-03 20:00:00', '2024-02-03 19:00:00', '2024-02-03 18:00:00', '2024-02-03 17:00:00', '2024-02-03 16:00:00', '2024-02-03 15:00:00', '2024-02-03 14:00:00', '2024-02-03 13:00:00', '2024-02-03 12:00:00', '2024-02-03 11:00:00', '2024-02-03 10:00:00', '2024-02-03 09:00:00', '2024-02-03 08:00:00', '2024-02-03 07:00:00', '2024-02-03 06:00:00', '2024-02-03 05:00:00', '2024-02-03 04:00:00', '2024-02-03 03:00:00', '2024-02-03 02:00:00', '2024-02-03 01:00:00', '2024-02-03 00:00:00', '2024-02-02 23:00:00', '2024-02-02 22:00:00', '2024-02-02 21:00:00', '2024-02-02 20:00:00', '2024-02-02 19:00:00', '2024-02-02 18:00:00', '2024-02-02 17:00:00', '2024-02-02 16:00:00', '2024-02-02 15:00:00', '2024-02-02 14:00:00', '2024-02-02 13:00:00', '2024-02-02 12:00:00', '2024-02-02 11:00:00', '2024-02-02 10:00:00', '2024-02-02 09:00:00', '2024-02-02 08:00:00', '2024-02-02 07:00:00', '2024-02-02 06:00:00', '2024-02-02 05:00:00', '2024-02-02 04:00:00', '2024-02-02 03:00:00', '2024-02-02 02:00:00', '2024-02-02 01:00:00', '2024-02-02 00:00:00', '2024-02-01 23:00:00', '2024-02-01 22:00:00', '2024-02-01 21:00:00', '2024-02-01 20:00:00', '2024-02-01 19:00:00', '2024-02-01 18:07:00', '2024-02-01 17:00:00', '2024-02-01 16:00:00', '2024-02-01 15:00:00', '2024-02-01 14:00:00', '2024-02-01 13:00:00', '2024-02-01 12:00:00', '2024-02-01 11:00:00', '2024-02-01 10:00:00', '2024-02-01 09:00:00', '2024-02-01 08:00:00', '2024-02-01 07:00:00', '2024-02-01 06:00:00', '2024-02-01 05:00:00', '2024-02-01 04:00:00', '2024-02-01 03:00:00', '2024-02-01 02:00:00', '2024-02-01 01:00:00', '2024-02-01 00:00:00']"
Brazil, Aracaju Santa Maria Airport (AJU/SBAR) ,"['SBAR 032300Z 15008KT 9999 FEW020 28/23 Q1014', 'SBAR 032200Z 16007KT 9999 FEW022 SCT090 28/23 Q1014', 'SBAR 032100Z 16008KT 130V190 9999 FEW022 28/23 Q1013', 'SBAR 032000Z 14009KT 110V170 9999 FEW026 29/23 Q1013', 'SBAR 031900Z 13010KT 110V170 9999 FEW024 29/23 Q1013', 'SBAR 031800Z 15009KT 100V190 9999 FEW024 30/23 Q1013', 'SBAR 031700Z 13010KT 090V170 9999 SCT024 30/23 Q1013', 'SBAR 031600Z 14009KT 080V170 9999 FEW030 31/23 Q1014', 'SBAR 031500Z 10010KT 080V150 9999 SCT025 30/23 Q1015', 'SBAR 031400Z 11010KT 070V160 9999 SCT025 30/23 Q1015', 'SBAR 031300Z 11009KT 070V140 9999 FEW025 30/23 Q1015', 'SBAR 031200Z 10010KT 9999 FEW025 30/23 Q1015', 'SBAR 031100Z 12008KT 9999 SCT023 29/23 Q1015', 'SBAR 031000Z 11007KT 9999 FEW020 28/22 Q1015', 'SBAR 030900Z 11006KT 9999 FEW020 27/23 Q1014', 'SBAR 030800Z 11008KT 9999 FEW020 27/23 Q1014', 'SBAR 030700Z 13007KT 9999 FEW020 27/23 Q1014', 'SBAR 030600Z 11010KT 9999 FEW020 28/22 Q1013', 'SBAR 030500Z 12009KT 9999 FEW020 28/23 Q1013', 'SBAR 030400Z 11008KT 9999 FEW020 28/24 Q1014', 'SBAR 030300Z 11009KT 9999 FEW020 28/24 Q1014', 'SBAR 030200Z 10009KT 9999 FEW020 28/24 Q1014', 'SBAR 030100Z 10008KT 9999 FEW020 28/24 Q1014', 'SBAR 030000Z 09007KT 9999 FEW020 27/23 Q1014', 'SBAR 022300Z 10008KT 9999 FEW025 28/23 Q1014', 'SBAR 022200Z 10010KT 9999 SCT025 28/24 Q1013', 'SBAR 022100Z 10010KT 9999 FEW030 29/23 Q1012', 'SBAR 022000Z 10012KT 9999 FEW030 29/23 Q1012', 'SBAR 021900Z 09011KT 9999 FEW030 30/23 Q1012', 'SBAR 021800Z 09013KT 9999 FEW030 30/23 Q1012', 'SBAR 021700Z 08014KT 090V150 9999 VCSH FEW030 30/23 Q1013', 'SBAR 021600Z 09012KT 9999 VCSH SCT030 FEW035TCU SCT070 31/24 Q1013', 'SBAR 021500Z 08011KT 040V110 9999 VCSH SCT030 FEW035TCU BKN037 30/24 Q1014', 'SBAR 021400Z 08010KT 050V130 9999 SCT030 FEW035TCU 30/23 Q1014', 'SBAR 021300Z 07009KT 9999 FEW030 FEW035TCU 30/23 Q1014', 'SBAR 021200Z 07007KT 040V100 9999 FEW030 30/23 Q1015', 'SBAR 021100Z 06006KT 010V100 9999 FEW022 29/24 Q1014', 'SBAR 021000Z VRB02KT 9999 FEW022 27/24 Q1014', 'SBAR 020900Z 30002KT 9999 FEW020 24/23 Q1013', 'SBAR 020800Z 02004KT CAVOK 25/22 Q1013', 'SBAR 020700Z 06004KT CAVOK 26/22 Q1012', 'SBAR 020600Z 07005KT CAVOK 26/23 Q1012', 'SBAR 020500Z 08006KT CAVOK 27/23 Q1012', 'SBAR 020400Z 08006KT CAVOK 27/23 Q1013', 'SBAR 020300Z 08008KT 9999 FEW018 BKN080 27/23 Q1013', 'SBAR 020200Z 08007KT 9999 FEW016 BKN080 27/23 Q1013', 'SBAR 020100Z 10010KT 9999 FEW016 BKN080 27/25 Q1014', 'SBAR 020000Z 10010KT 9999 FEW017 BKN070 28/24 Q1014', 'SBAR 012300Z 08005KT 9999 SCT030 BKN070 27/24 Q1013', 'SBAR 012200Z 08009KT 9999 SCT025 FEW026TCU BKN070 26/24 Q1012', 'SBAR 012133Z 09012KT 9999 FEW008 SCT025 FEW026TCU BKN070 26/23 Q1012', 'SBAR 012100Z 11017KT 2000 -RA BR SCT006 FEW027TCU BKN070 26/25 Q1013', 'SBAR 012036Z 10018KT 0500 -RA SCT008 FEW027TCU BKN070 27/25 Q1013', 'SBAR 012000Z 16005KT 9999 VCSH FEW025 FEW027TCU BKN070 28/25 Q1012', 'SBAR 011900Z 15006KT 120V180 9999 -RA FEW020 FEW023TCU BKN050 BKN100 28/25 Q1012', 'SBAR 011827Z 13006KT 100V160 9999 FEW013 BKN060 BKN100 28/25 Q1013', 'SBAR 011800Z 09006KT 060V130 4000 -RA BR FEW010 SCT025 BKN040 26/25 Q1013', 'SBAR 011737Z 10010KT 4000 -RA BR FEW006 SCT018 BKN040 26/25 Q1013', 'SBAR 011700Z 08015KT 1200 -RA BKN007 FEW020TCU BKN070 27/25 Q1013', 'SBAR 011600Z 15011KT 120V190 9999 VCSH BKN018 BKN080 31/25 Q1013', 'SBAR 011500Z 16009KT 110V190 9999 SCT020 BKN100 30/25 Q1014', 'SBAR 011400Z 16009KT 110V190 9999 SCT017 31/25 Q1014', 'SBAR 011300Z 15010KT 110V180 9999 SCT020 30/25 Q1014', 'SBAR 011200Z 15009KT 110V180 9999 SCT020 30/24 Q1014', 'SBAR 011100Z 15007KT 110V190 9999 SCT025 29/25 Q1014', 'SBAR 011000Z 22004KT 9999 FEW021 27/25 Q1014', 'SBAR 010900Z 22004KT 9999 SCT017 26/24 Q1013', 'SBAR 010800Z 21003KT 9999 SCT017 25/24 Q1013', 'SBAR 010700Z 22003KT 9999 FEW019 26/24 Q1012', 'SBAR 010600Z 14003KT 9999 FEW019 27/24 Q1012', 'SBAR 010500Z 16002KT 9999 FEW017 25/23 Q1012', 'SBAR 010400Z 11003KT 9999 FEW017 26/24 Q1013', 'SBAR 010300Z 08004KT 9999 FEW017 27/24 Q1013', 'SBAR 010200Z 10008KT 9999 FEW017 28/24 Q1013', 'SBAR 010100Z 10007KT CAVOK 27/24 Q1014']","['2024-02-03 23:00:00', '2024-02-03 22:00:00', '2024-02-03 21:00:00', '2024-02-03 20:00:00', '2024-02-03 19:00:00', '2024-02-03 18:00:00', '2024-02-03 17:00:00', '2024-02-03 16:00:00', '2024-02-03 15:00:00', '2024-02-03 14:00:00', '2024-02-03 13:00:00', '2024-02-03 12:00:00', '2024-02-03 11:00:00', '2024-02-03 10:00:00', '2024-02-03 09:00:00', '2024-02-03 08:00:00', '2024-02-03 07:00:00', '2024-02-03 06:00:00', '2024-02-03 05:00:00', '2024-02-03 04:00:00', '2024-02-03 03:00:00', '2024-02-03 02:00:00', '2024-02-03 01:00:00', '2024-02-03 00:00:00', '2024-02-02 23:00:00', '2024-02-02 22:00:00', '2024-02-02 21:00:00', '2024-02-02 20:00:00', '2024-02-02 19:00:00', '2024-02-02 18:00:00', '2024-02-02 17:00:00', '2024-02-02 16:00:00', '2024-02-02 15:00:00', '2024-02-02 14:00:00', '2024-02-02 13:00:00', '2024-02-02 12:00:00', '2024-02-02 11:00:00', '2024-02-02 10:00:00', '2024-02-02 09:00:00', '2024-02-02 08:00:00', '2024-02-02 07:00:00', '2024-02-02 06:00:00', '2024-02-02 05:00:00', '2024-02-02 04:00:00', '2024-02-02 03:00:00', '2024-02-02 02:00:00', '2024-02-02 01:00:00', '2024-02-02 00:00:00', '2024-02-01 23:00:00', '2024-02-01 22:00:00', '2024-02-01 21:33:00', '2024-02-01 21:00:00', '2024-02-01 20:36:00', '2024-02-01 20:00:00', '2024-02-01 19:00:00', '2024-02-01 18:27:00', '2024-02-01 18:00:00', '2024-02-01 17:37:00', '2024-02-01 17:00:00', '2024-02-01 16:00:00', '2024-02-01 15:00:00', '2024-02-01 14:00:00', '2024-02-01 13:00:00', '2024-02-01 12:00:00', '2024-02-01 11:00:00', '2024-02-01 10:00:00', '2024-02-01 09:00:00', '2024-02-01 08:00:00', '2024-02-01 07:00:00', '2024-02-01 06:00:00', '2024-02-01 05:00:00', '2024-02-01 04:00:00', '2024-02-01 03:00:00', '2024-02-01 02:00:00', '2024-02-01 01:00:00']"
Brazil, Aracatuba Airport (ARU/SBAU) ,"['SBAU 032100Z 01014KT 8000 3000S -TSRA SCT035 FEW045CB BKN080 21/19 Q1014', 'SBAU 032000Z 12006KT 9999 FEW035 BKN080 29/20 Q1013', 'SBAU 031900Z 12008KT 9999 FEW035 BKN080 30/20 Q1014', 'SBAU 031800Z 10008KT 9999 FEW035 BKN080 29/19 Q1015', 'SBAU 031700Z 12006KT 9999 FEW030 BKN070 29/19 Q1016', 'SBAU 022300Z 08008KT 9999 SCT040 23/19 Q1014', 'SBAU 022200Z 04010KT 9999 SCT040 FEW045TCU 25/18 Q1013', 'SBAU 022100Z 06010KT 9999 SCT040 FEW045TCU 26/19 Q1013', 'SBAU 021400Z 10012KT CAVOK 28/19 Q1017', 'SBAU 021300Z 10014KT CAVOK 26/19 Q1018', 'SBAU 011900Z 14012KT 9999 FEW035 33/17 Q1013', 'SBAU 011800Z 12010KT 9999 FEW035 31/18 Q1014']","['2024-02-03 21:00:00', '2024-02-03 20:00:00', '2024-02-03 19:00:00', '2024-02-03 18:00:00', '2024-02-03 17:00:00', '2024-02-02 23:00:00', '2024-02-02 22:00:00', '2024-02-02 21:00:00', '2024-02-02 14:00:00', '2024-02-02 13:00:00', '2024-02-01 19:00:00', '2024-02-01 18:00:00']"
Brunei, Brunei International Airport (BWN/WBSB) ,"['WBSB 032330Z 12001KT 9999 FEW004 FEW015CB BKN140 26/26 Q1013 NOSIG', 'WBSB 032300Z 15003KT 9999 FEW004 BKN140 25/25 Q1013 NOSIG', 'WBSB 032230Z 19004KT 9000 -SHRA FEW004 SCT012 BKN140 26/26 Q1013 TEMPO 8000 -SHRA', 'WBSB 032200Z 16003KT 9999 FEW005 BKN140 26/26 Q1013 TEMPO 8000 -SHRA', 'WBSB 032130Z 16003KT 9999 FEW005 BKN140 26/26 Q1012 TEMPO 8000 -SHRA', 'WBSB 032100Z 15003KT 9999 FEW005 BKN140 26/26 Q1012 NOSIG', 'WBSB 032030Z 13001KT 9999 FEW005 BKN140 26/26 Q1011 NOSIG', 'WBSB 032000Z 14002KT 9999 FEW005 BKN140 26/26 Q1011 NOSIG', 'WBSB 031930Z 19003KT 9999 FEW005 SCT012 BKN140 26/26 Q1011 NOSIG', 'WBSB 031900Z 16002KT 9999 -RA FEW005 SCT012 BKN150 26/26 Q1011 NOSIG', 'WBSB 031830Z 17001KT 9999 -RA FEW005 SCT012 BKN150 26/26 Q1012 NOSIG', 'WBSB 031800Z 15002KT 9000 -RA FEW005 SCT012 BKN150 26/26 Q1012 NOSIG', 'WBSB 031730Z 14001KT 9999 -SHRA FEW005 SCT012 BKN140 26/26 Q1012 NOSIG', 'WBSB 031700Z 15002KT 9999 -SHRA FEW005 SCT018 BKN140 26/26 Q1012 NOSIG', 'WBSB 031630Z 07001KT 9999 FEW005 SCT018 BKN140 26/26 Q1012 NOSIG', 'WBSB 031600Z 13003KT 9999 FEW005 FEW015CB SCT018 BKN140 26/26 Q1013 NOSIG', 'WBSB 031530Z 06002KT 9999 FEW005 FEW015CB SCT018 BKN140 26/26 Q1012 NOSIG', 'WBSB 031500Z 05003KT 9999 FEW005 BKN140 26/26 Q1012 NOSIG', 'WBSB 031430Z 11002KT 9999 FEW005 BKN140 26/26 Q1012 NOSIG', 'WBSB 031400Z 05003KT 9999 -SHRA FEW014 BKN140 26/26 Q1012 NOSIG', 'WBSB 031330Z 03003KT 9999 -SHRA SCT014 BKN140 28/26 Q1012 NOSIG', 'WBSB 031300Z 06003KT 9999 FEW014 BKN140 28/26 Q1012 NOSIG', 'WBSB 031230Z 04003KT 9999 FEW014 BKN140 28/26 Q1012 NOSIG', 'WBSB 031200Z 04007KT 9999 SCT014 BKN140 28/26 Q1012 NOSIG', 'WBSB 031130Z 04006KT 9999 SCT014 BKN140 28/26 Q1012 NOSIG', 'WBSB 031100Z 03009KT 9999 SCT014 BKN140 28/26 Q1011 NOSIG', 'WBSB 031030Z 02008KT 9999 SCT014 FEW015CB BKN140 28/27 Q1011 NOSIG', 'WBSB 031000Z 02007KT 9999 SCT014 FEW015CB BKN140 28/26 Q1011 NOSIG', 'WBSB 030930Z 01011KT 9999 SCT015 FEW016CB SCT140 BKN280 28/27 Q1010 NOSIG', 'WBSB 030900Z 01008KT 9999 SCT015 FEW016CB SCT140 BKN280 28/27 Q1010 RETS NOSIG', 'WBSB 030830Z 01009KT 9999 SCT015 FEW016CB SCT140 BKN280 28/27 Q1010 RETS NOSIG', 'WBSB 030800Z 02010KT 9999 TS SCT015 FEW016CB BKN300 28/27 Q1010 NOSIG', 'WBSB 030730Z 02009KT 9999 TS SCT015 FEW016CB BKN300 29/27 Q1010 NOSIG', 'WBSB 030700Z 36010KT 9999 SCT015 FEW016CB BKN300 29/27 Q1010 NOSIG', 'WBSB 030630Z 35009KT 9999 SCT015 FEW016CB BKN300 31/28 Q1011 NOSIG', 'WBSB 030600Z 34007KT 9999 SCT015 FEW016CB BKN300 31/28 Q1011 NOSIG', 'WBSB 030530Z 36007KT 9999 SCT015 FEW016CB BKN300 31/27 Q1011 NOSIG', 'WBSB 030500Z 33006KT 9999 FEW015 FEW016CB BKN300 30/27 Q1012 NOSIG', 'WBSB 030430Z 33006KT 9999 -SHRA SCT015 BKN300 29/27 Q1012 NOSIG', 'WBSB 030400Z 33008KT 9999 SCT015 BKN300 30/27 Q1013 NOSIG', 'WBSB 030330Z 30002KT 9999 SCT015 BKN300 31/28 Q1013 NOSIG', 'WBSB 030300Z 31004KT 9999 SCT014 SCT140 BKN300 29/27 Q1014 NOSIG', 'WBSB 030230Z 27002KT 9999 SCT014 SCT140 BKN300 29/26 Q1014 NOSIG', 'WBSB 030200Z 17002KT 9999 SCT014 SCT140 BKN300 29/27 Q1015 NOSIG', 'WBSB 030130Z 24003KT 9999 SCT014 BKN140 28/27 Q1015 NOSIG', 'WBSB 030100Z 20003KT 9000 FEW004 SCT014 BKN140 28/27 Q1014 NOSIG', 'WBSB 030030Z 15002KT 9000 FEW004 SCT014 BKN140 27/26 Q1014 NOSIG', 'WBSB 030000Z 06001KT 9000 FEW004 SCT014 BKN140 26/26 Q1014 NOSIG', 'WBSB 022330Z 35002KT 9000 FEW004 SCT014 BKN140 26/26 Q1013 NOSIG', 'WBSB 022300Z 18001KT 9999 FEW004 BKN140 26/26 Q1013 NOSIG', 'WBSB 022230Z 15002KT 9999 FEW004 SCT140 BKN280 25/25 Q1013 NOSIG', 'WBSB 022200Z 16002KT 9999 FEW004 SCT140 BKN280 25/25 Q1012 NOSIG', 'WBSB 022130Z 13003KT 9999 FEW004 SCT140 BKN280 25/25 Q1012 NOSIG', 'WBSB 022100Z 11002KT 9999 FEW004 SCT014 BKN140 25/25 Q1012 NOSIG', 'WBSB 022030Z 05004KT 9999 -SHRA FEW004 SCT014 BKN140 25/25 Q1011 NOSIG', 'WBSB 022000Z 08002KT 9000 -SHRA FEW004 SCT020 BKN140 26/26 Q1011 NOSIG', 'WBSB 021930Z 02004KT 7000 -SHRA FEW004 SCT020 BKN140 26/26 Q1011 NOSIG', 'WBSB 021900Z 04004KT 7000 -SHRA FEW015 FEW016CB SCT020 BKN140 26/26 Q1012 NOSIG', 'WBSB 021830Z 05003KT 5000 -SHRA FEW015 FEW016CB SCT020 BKN140 27/27 Q1012 NOSIG', 'WBSB 021800Z 36006KT 9999 SCT015 FEW016CB BKN140 27/27 Q1012 NOSIG', 'WBSB 021720Z 35006KT 9999 SCT015 FEW016CB SCT140 BKN280 27/27 Q1012 NOSIG', 'WBSB 021700Z 36005KT 9999 SCT015 FEW016CB SCT140 BKN280 28/27 Q1013 NOSIG', 'WBSB 021630Z 01005KT 9999 SCT015 FEW016CB SCT140 BKN280 28/27 Q1013 NOSIG', 'WBSB 021600Z 35006KT 9999 SCT015 FEW016CB SCT140 BKN280 28/27 Q1013 NOSIG', 'WBSB 021530Z 35006KT 9999 SCT015 FEW016CB SCT140 BKN280 27/27 Q1013 NOSIG', 'WBSB 021500Z 35006KT 9999 SCT015 FEW016CB SCT140 BKN280 27/27 Q1013 NOSIG', 'WBSB 021430Z 35005KT 9999 SCT015 FEW016CB SCT140 BKN300 27/27 Q1013 NOSIG', 'WBSB 021400Z 36006KT 9999 SCT015 FEW016CB SCT140 BKN300 28/27 Q1013 NOSIG', 'WBSB 021330Z 36005KT 9999 SCT015 FEW016CB SCT140 BKN300 28/27 Q1013 NOSIG', 'WBSB 021300Z 35004KT 9999 FEW015 FEW016CB BKN140 27/27 Q1013 NOSIG', 'WBSB 021230Z 35003KT 9999 FEW015 FEW016CB SCT140 BKN300 27/26 Q1013 NOSIG', 'WBSB 021200Z 36004KT 9999 FEW015 FEW016CB SCT140 BKN300 27/26 Q1012 NOSIG', 'WBSB 021130Z 01004KT 9999 FEW015 FEW016CB BKN300 28/26 Q1012 NOSIG', 'WBSB 021100Z 36005KT 9999 FEW015 FEW016CB BKN300 28/26 Q1011 NOSIG', 'WBSB 021030Z 36006KT 9999 FEW015 FEW016CB BKN300 28/26 Q1011 NOSIG', 'WBSB 021000Z 35008KT 9999 FEW015 FEW016CB BKN300 29/26 Q1011 NOSIG', 'WBSB 020930Z 36009KT 9999 FEW015 FEW016CB BKN300 29/26 Q1010 NOSIG', 'WBSB 020900Z 36007KT 9999 FEW015 FEW016CB BKN300 30/26 Q1010 NOSIG', 'WBSB 020830Z 36009KT 9999 FEW015 FEW016CB BKN300 30/26 Q1010 NOSIG', 'WBSB 020800Z 34009KT 9999 FEW015 FEW016CB BKN300 30/26 Q1010 NOSIG', 'WBSB 020730Z 35008KT 9999 FEW015 FEW016CB BKN300 30/27 Q1010 NOSIG', 'WBSB 020700Z 35008KT 9999 FEW015 FEW016CB BKN300 31/26 Q1010 NOSIG', 'WBSB 020630Z 36007KT 9999 SCT015 FEW016CB BKN300 31/26 Q1010 NOSIG', 'WBSB 020600Z 02004KT 9999 SCT015 FEW016CB SCT140 BKN300 31/27 Q1011 NOSIG', 'WBSB 020530Z 35006KT 9999 SCT015 FEW016CB SCT140 BKN300 30/26 Q1011 NOSIG', 'WBSB 020500Z 02006KT 9999 SCT015 FEW016CB SCT140 BKN300 30/27 Q1012 NOSIG', 'WBSB 020430Z 03004KT 9999 SCT015 SCT140 BKN300 31/26 Q1013 NOSIG', 'WBSB 020400Z 01004KT 9999 SCT015 SCT140 BKN300 30/27 Q1013 NOSIG', 'WBSB 020330Z 04003KT 9999 SCT015 SCT140 BKN300 29/26 Q1014 NOSIG', 'WBSB 020300Z 36003KT 9999 SCT015 SCT140 BKN300 29/26 Q1014 NOSIG', 'WBSB 020230Z 08001KT 9999 SCT015 SCT140 BKN300 29/26 Q1014 NOSIG', 'WBSB 020200Z 04003KT 9999 FEW015 BKN140 27/25 Q1014 NOSIG', 'WBSB 020130Z 12002KT 9999 FEW015 BKN140 27/25 Q1014 NOSIG', 'WBSB 020100Z 05003KT 8000 -RA FEW003 SCT014 BKN150 25/25 Q1014 TEMPO 7000 -SHRA', 'WBSB 020030Z 09001KT 8000 -RA FEW003 SCT014 BKN150 25/25 Q1014 TEMPO 7000 -SHRA', 'WBSB 020000Z 07002KT 8000 -RA FEW003 SCT014 BKN150 25/25 Q1014 TEMPO 7000 -SHRA', 'WBSB 012330Z 04002KT 9000 FEW003 SCT014 BKN140 25/25 Q1013 NOSIG', 'WBSB 012300Z 36002KT 9999 FEW003 SCT014 BKN140 25/25 Q1013 NOSIG', 'WBSB 012230Z 11001KT 9999 FEW003 SCT014 BKN140 25/25 Q1013 NOSIG', 'WBSB 012200Z 01003KT 8000 -RA FEW004 SCT014 BKN150 25/25 Q1013 NOSIG', 'WBSB 012130Z 26002KT 6000 -RA FEW004 SCT014 BKN150 25/25 Q1013 NOSIG', 'WBSB 012100Z 15001KT 6000 -RA FEW004 SCT014 BKN150 25/25 Q1013 NOSIG', 'WBSB 012030Z 10002KT 8000 -RA FEW004 SCT014 BKN150 25/25 Q1013 NOSIG', 'WBSB 012000Z 14002KT 9999 -RA FEW004 SCT014 BKN150 25/25 Q1012 NOSIG', 'WBSB 011930Z 07002KT 9999 -RA FEW004 SCT014 FEW015CB BKN150 25/25 Q1012 NOSIG', 'WBSB 011900Z 06004KT 9999 -RA FEW004 SCT014 FEW015CB BKN150 25/25 Q1012 NOSIG', 'WBSB 011830Z 06004KT 8000 -RA FEW004 SCT014 FEW015CB BKN150 26/26 Q1012 NOSIG', 'WBSB 011800Z 05005KT 8000 -RA FEW004 SCT014 FEW015CB BKN150 27/26 Q1012 NOSIG', 'WBSB 011730Z 36008KT 7000 -RA FEW004 SCT014 FEW015CB BKN150 27/27 Q1013 NOSIG', 'WBSB 011700Z 01009KT 6000 -SHRA FEW004 SCT014 FEW015CB BKN140 27/27 Q1013 NOSIG', 'WBSB 011630Z 36009KT 8000 -SHRA SCT014 BKN140 28/27 Q1013 NOSIG', 'WBSB 011600Z 35008KT 8000 -SHRA SCT014 BKN140 27/27 Q1013 NOSIG', 'WBSB 011530Z 35007KT 8000 -SHRA SCT014 BKN140 28/27 Q1014 NOSIG', 'WBSB 011500Z 35007KT 9999 SCT014 BKN140 27/27 Q1014 NOSIG', 'WBSB 011430Z 35006KT 9999 SCT014 BKN140 28/27 Q1014 NOSIG', 'WBSB 011400Z 35006KT 9999 SCT014 BKN140 28/27 Q1014 NOSIG', 'WBSB 011330Z 35005KT 9999 SCT014 BKN140 28/27 Q1014 NOSIG', 'WBSB 011300Z 01005KT 9999 SCT014 BKN140 28/27 Q1014 NOSIG', 'WBSB 011230Z 01006KT 9999 SCT014 FEW015CB BKN140 28/27 Q1013 NOSIG', 'WBSB 011200Z 36005KT 9999 SCT014 FEW015CB BKN140 28/27 Q1013 NOSIG', 'WBSB 011130Z 35004KT 9999 SCT014 FEW015CB BKN140 28/27 Q1013 NOSIG', 'WBSB 011100Z 35005KT 9999 SCT014 FEW015CB BKN140 28/27 Q1012 NOSIG', 'WBSB 011030Z 36007KT 9999 SCT014 BKN140 28/27 Q1012 NOSIG', 'WBSB 011000Z 36007KT 9999 SCT014 FEW015CB BKN140 28/27 Q1011 NOSIG', 'WBSB 010930Z 35008KT 9000 SCT014 FEW015CB SCT140 BKN280 28/27 Q1011 NOSIG', 'WBSB 010900Z 35008KT 9000 SCT015 FEW016CB BKN280 28/27 Q1011 TEMPO 8000 -SHRA', 'WBSB 010830Z 35009KT 9000 FEW015 FEW016CB BKN300 29/27 Q1011 TEMPO 8000 -SHRA', 'WBSB 010800Z 36009KT 9999 FEW015 FEW016CB BKN300 30/27 Q1010 NOSIG', 'WBSB 010730Z 34010KT 9999 FEW015 FEW016CB BKN300 30/27 Q1010 NOSIG', 'WBSB 010700Z 34011KT 9999 FEW015 BKN300 31/27 Q1010 NOSIG', 'WBSB 010630Z 35010KT 9999 SCT015 BKN300 31/27 Q1011 NOSIG', 'WBSB 010600Z 33010KT 9999 SCT015 BKN300 31/27 Q1011 NOSIG', 'WBSB 010530Z 35008KT 9999 SCT015 BKN300 31/28 Q1012 NOSIG', 'WBSB 010500Z 32008KT 9999 SCT015 BKN300 31/27 Q1012 NOSIG', 'WBSB 010430Z 31009KT 9999 SCT015 BKN300 30/28 Q1013 NOSIG', 'WBSB 010400Z 33008KT 9999 SCT015 BKN300 31/28 Q1013 NOSIG', 'WBSB 010330Z 29002KT 9999 SCT014 BKN300 32/27 Q1013 NOSIG', 'WBSB 010300Z 15004KT 9999 SCT015 BKN300 31/27 Q1014 NOSIG', 'WBSB 010230Z 16003KT 9999 SCT014 BKN300 31/28 Q1014 NOSIG', 'WBSB 010200Z 10003KT 9999 SCT014 BKN300 31/27 Q1014 NOSIG', 'WBSB 010130Z 11003KT 9999 SCT014 BKN300 29/27 Q1014 NOSIG', 'WBSB 010100Z 05002KT 9999 SCT014 BKN300 29/28 Q1014 NOSIG', 'WBSB 010030Z 02004KT 9999 FEW006 SCT140 BKN300 28/27 Q1014 NOSIG']","['2024-02-03 23:30:00', '2024-02-03 23:00:00', '2024-02-03 22:30:00', '2024-02-03 22:00:00', '2024-02-03 21:30:00', '2024-02-03 21:00:00', '2024-02-03 20:30:00', '2024-02-03 20:00:00', '2024-02-03 19:30:00', '2024-02-03 19:00:00', '2024-02-03 18:30:00', '2024-02-03 18:00:00', '2024-02-03 17:30:00', '2024-02-03 17:00:00', '2024-02-03 16:30:00', '2024-02-03 16:00:00', '2024-02-03 15:30:00', '2024-02-03 15:00:00', '2024-02-03 14:30:00', '2024-02-03 14:00:00', '2024-02-03 13:30:00', '2024-02-03 13:00:00', '2024-02-03 12:30:00', '2024-02-03 12:00:00', '2024-02-03 11:30:00', '2024-02-03 11:00:00', '2024-02-03 10:30:00', '2024-02-03 10:00:00', '2024-02-03 09:30:00', '2024-02-03 09:00:00', '2024-02-03 08:30:00', '2024-02-03 08:00:00', '2024-02-03 07:30:00', '2024-02-03 07:00:00', '2024-02-03 06:30:00', '2024-02-03 06:00:00', '2024-02-03 05:30:00', '2024-02-03 05:00:00', '2024-02-03 04:30:00', '2024-02-03 04:00:00', '2024-02-03 03:30:00', '2024-02-03 03:00:00', '2024-02-03 02:30:00', '2024-02-03 02:00:00', '2024-02-03 01:30:00', '2024-02-03 01:00:00', '2024-02-03 00:30:00', '2024-02-03 00:00:00', '2024-02-02 23:30:00', '2024-02-02 23:00:00', '2024-02-02 22:30:00', '2024-02-02 22:00:00', '2024-02-02 21:30:00', '2024-02-02 21:00:00', '2024-02-02 20:30:00', '2024-02-02 20:00:00', '2024-02-02 19:30:00', '2024-02-02 19:00:00', '2024-02-02 18:30:00', '2024-02-02 18:00:00', '2024-02-02 17:20:00', '2024-02-02 17:00:00', '2024-02-02 16:30:00', '2024-02-02 16:00:00', '2024-02-02 15:30:00', '2024-02-02 15:00:00', '2024-02-02 14:30:00', '2024-02-02 14:00:00', '2024-02-02 13:30:00', '2024-02-02 13:00:00', '2024-02-02 12:30:00', '2024-02-02 12:00:00', '2024-02-02 11:30:00', '2024-02-02 11:00:00', '2024-02-02 10:30:00', '2024-02-02 10:00:00', '2024-02-02 09:30:00', '2024-02-02 09:00:00', '2024-02-02 08:30:00', '2024-02-02 08:00:00', '2024-02-02 07:30:00', '2024-02-02 07:00:00', '2024-02-02 06:30:00', '2024-02-02 06:00:00', '2024-02-02 05:30:00', '2024-02-02 05:00:00', '2024-02-02 04:30:00', '2024-02-02 04:00:00', '2024-02-02 03:30:00', '2024-02-02 03:00:00', '2024-02-02 02:30:00', '2024-02-02 02:00:00', '2024-02-02 01:30:00', '2024-02-02 01:00:00', '2024-02-02 00:30:00', '2024-02-02 00:00:00', '2024-02-01 23:30:00', '2024-02-01 23:00:00', '2024-02-01 22:30:00', '2024-02-01 22:00:00', '2024-02-01 21:30:00', '2024-02-01 21:00:00', '2024-02-01 20:30:00', '2024-02-01 20:00:00', '2024-02-01 19:30:00', '2024-02-01 19:00:00', '2024-02-01 18:30:00', '2024-02-01 18:00:00', '2024-02-01 17:30:00', '2024-02-01 17:00:00', '2024-02-01 16:30:00', '2024-02-01 16:00:00', '2024-02-01 15:30:00', '2024-02-01 15:00:00', '2024-02-01 14:30:00', '2024-02-01 14:00:00', '2024-02-01 13:30:00', '2024-02-01 13:00:00', '2024-02-01 12:30:00', '2024-02-01 12:00:00', '2024-02-01 11:30:00', '2024-02-01 11:00:00', '2024-02-01 10:30:00', '2024-02-01 10:00:00', '2024-02-01 09:30:00', '2024-02-01 09:00:00', '2024-02-01 08:30:00', '2024-02-01 08:00:00', '2024-02-01 07:30:00', '2024-02-01 07:00:00', '2024-02-01 06:30:00', '2024-02-01 06:00:00', '2024-02-01 05:30:00', '2024-02-01 05:00:00', '2024-02-01 04:30:00', '2024-02-01 04:00:00', '2024-02-01 03:30:00', '2024-02-01 03:00:00', '2024-02-01 02:30:00', '2024-02-01 02:00:00', '2024-02-01 01:30:00', '2024-02-01 01:00:00', '2024-02-01 00:30:00']"
Bulgaria, Burgas Airport (BOJ/LBBG) ,"['LBBG 040000Z AUTO 24007KT 9999 NCD 03/M01 Q1019 NOSIG', 'LBBG 032330Z AUTO 25006KT 9999 NCD 03/M02 Q1019 NOSIG', 'LBBG 032300Z AUTO 26007KT 9999 NCD 03/M01 Q1019 NOSIG', 'LBBG 032230Z AUTO 26007KT 9999 NCD 03/M01 Q1019 NOSIG', 'LBBG 032200Z AUTO 26006KT 9999 NCD 03/M02 Q1019 NOSIG', 'LBBG 032130Z AUTO 27004KT 9999 NCD 04/M01 Q1019 NOSIG', 'LBBG 032100Z AUTO 27006KT 9999 NCD 03/M01 Q1019 NOSIG', 'LBBG 032030Z AUTO 26007KT 9999 NCD 04/M01 Q1020 NOSIG', 'LBBG 032000Z AUTO 26007KT 9999 NCD 04/M01 Q1020 NOSIG', 'LBBG 031930Z AUTO 27007KT 9999 NCD 04/M01 Q1020 NOSIG', 'LBBG 031900Z AUTO 27007KT 9999 NCD 04/M01 Q1020 NOSIG', 'LBBG 031830Z AUTO 25005KT 9999 NSC 06/M01 Q1020 NOSIG', 'LBBG 031800Z AUTO 23007KT 9999 NSC 06/M00 Q1020 NOSIG', 'LBBG 031730Z AUTO 28003KT 9999 NSC 06/M00 Q1020 NOSIG', 'LBBG 031700Z AUTO 28004KT 240V330 9999 NSC 06/M00 Q1020 NOSIG', 'LBBG 031630Z 26006KT 230V320 9999 FEW049 06/00 Q1020 NOSIG', 'LBBG 031600Z 24011KT 9999 FEW049 07/00 Q1019 NOSIG', 'LBBG 031530Z 25008KT 9999 FEW045 08/01 Q1020 NOSIG', 'LBBG 031500Z 25011KT 9999 FEW045 09/01 Q1019 NOSIG', 'LBBG 031430Z 25012KT 9999 SCT045 10/00 Q1019 NOSIG', 'LBBG 031400Z 26015KT 9999 SCT045 10/M00 Q1020 NOSIG', 'LBBG 031330Z 27015KT 9999 SCT045 11/00 Q1020 NOSIG', 'LBBG 031300Z 25018KT 9999 SCT042 11/M00 Q1020 NOSIG', 'LBBG 031230Z 26016KT 9999 BKN042 11/00 Q1021 NOSIG', 'LBBG 031200Z 25017KT 9999 SCT042 11/M00 Q1021 NOSIG', 'LBBG 031130Z 25017KT 9999 SCT042 10/M00 Q1021 NOSIG', 'LBBG 031100Z 23014KT 180V270 9999 SCT036 10/00 Q1022 NOSIG', 'LBBG 031030Z 24013KT 9999 FEW045 09/01 Q1022 NOSIG', 'LBBG 031000Z 25012KT 9999 FEW045 08/01 Q1023 NOSIG', 'LBBG 030930Z 25009KT 9999 FEW036 08/02 Q1024 NOSIG', 'LBBG 030900Z 24010KT 9999 FEW036 SCT045 06/02 Q1024 NOSIG', 'LBBG 030830Z 25009KT 9000 SCT042 05/02 Q1025 NOSIG', 'LBBG 030800Z 25011KT 9000 SCT045 04/01 Q1025 NOSIG', 'LBBG 030730Z 25007KT 9000 FEW045 03/01 Q1025 NOSIG', 'LBBG 030700Z 25006KT 9000 FEW045 01/M01 Q1024 NOSIG', 'LBBG 030630Z 25008KT 9000 FEW049 00/M01 Q1024 NOSIG', 'LBBG 030600Z 23004KT CAVOK M00/M02 Q1025 NOSIG', 'LBBG 030530Z 26007KT 250V310 CAVOK M01/M03 Q1024 NOSIG', 'LBBG 030500Z AUTO 23010KT 9999 NCD M01/M02 Q1025 NOSIG', 'LBBG 030430Z AUTO 24008KT 9999 NCD M01/M02 Q1025 NOSIG', 'LBBG 030400Z AUTO 23006KT 9999 NCD M02/M03 Q1025 NOSIG', 'LBBG 030330Z AUTO 26006KT 9999 NCD M02/M03 Q1025 NOSIG', 'LBBG 030300Z AUTO 25004KT 9999 NSC M01/M03 Q1025 NOSIG', 'LBBG 030230Z AUTO 24003KT 190V260 9999 NCD M01/M02 Q1025 NOSIG', 'LBBG 030200Z AUTO 23007KT 9999 NCD M01/M02 Q1025 NOSIG', 'LBBG 030130Z AUTO 23010KT 9999 NCD 00/M02 Q1025 NOSIG', 'LBBG 030100Z AUTO 23009KT 9999 NCD 01/M02 Q1026 NOSIG', 'LBBG 030030Z AUTO 24008KT 9999 NCD 01/M03 Q1025 NOSIG', 'LBBG 030000Z AUTO 24008KT 9999 NSC 01/M02 Q1026 NOSIG', 'LBBG 022330Z AUTO 24006KT 9999 NSC 01/M02 Q1026 NOSIG', 'LBBG 022300Z AUTO 21004KT 9999 NSC 02/M01 Q1026 NOSIG', 'LBBG 022230Z AUTO 26004KT 9999 NSC 03/M01 Q1026 NOSIG', 'LBBG 022200Z AUTO 27005KT 9999 NSC 03/M01 Q1026 NOSIG', 'LBBG 022130Z AUTO 27005KT 9999 NSC 03/M01 Q1026 NOSIG', 'LBBG 022100Z AUTO 25005KT 9999 NSC 03/M01 Q1026 NOSIG', 'LBBG 022030Z AUTO 22007KT 9999 NSC 03/M01 Q1026 NOSIG', 'LBBG 022000Z AUTO 27003KT 220V360 9999 NSC 05/M02 Q1026 NOSIG', 'LBBG 021930Z AUTO 33004KT 280V030 9999 NSC 06/M02 Q1026 NOSIG', 'LBBG 021900Z AUTO 34008KT 310V010 9999 NSC 07/M02 Q1026 NOSIG', 'LBBG 021830Z AUTO 33009KT 300V360 9999 NSC 06/M02 Q1026 NOSIG', 'LBBG 021800Z AUTO 29005KT 230V010 9999 NSC 06/M02 Q1026 NOSIG', 'LBBG 021730Z AUTO 29005KT 9999 NSC 06/M01 Q1026 NOSIG', 'LBBG 021700Z AUTO 30006KT 9999 NSC 06/M01 Q1026 NOSIG', 'LBBG 021630Z 35002KT 9999 BKN042 05/M01 Q1025 NOSIG', 'LBBG 021600Z 33003KT 9999 BKN045 06/M01 Q1025 NOSIG', 'LBBG 021530Z 03006KT 9999 BKN045 06/M01 Q1025 NOSIG', 'LBBG 021500Z 02008KT 9999 -RA BKN049 06/M00 Q1025 NOSIG', 'LBBG 021430Z 03005KT 9999 -RA SCT049 07/M01 Q1024 NOSIG', 'LBBG 021400Z 03005KT 9999 -RA BKN045 07/M00 Q1024 NOSIG', 'LBBG 021330Z 03009KT 9999 -RA BKN049 07/01 Q1024 NOSIG', 'LBBG 021300Z 02011KT 9999 SCT049 08/M01 Q1023 NOSIG', 'LBBG 021230Z 02011KT 9999 SCT049 08/M02 Q1023 NOSIG', 'LBBG 021200Z 01011KT 9999 SCT049 08/M00 Q1023 NOSIG', 'LBBG 021130Z 36009KT 9999 SCT049 08/M00 Q1023 NOSIG', 'LBBG 021100Z 36010KT 9999 FEW049 08/M01 Q1023 NOSIG', 'LBBG 021030Z 01012KT 9999 FEW049 08/M01 Q1023 NOSIG', 'LBBG 021000Z 01012KT 9999 FEW049 08/M00 Q1023 NOSIG', 'LBBG 020930Z 36012KT 9999 SCT049 08/00 Q1023 NOSIG', 'LBBG 020900Z 36012KT 9999 FEW049 08/01 Q1023 NOSIG', 'LBBG 020830Z 34008KT 280V020 9999 FEW049 07/00 Q1023 NOSIG', 'LBBG 020800Z VRB03KT 9999 FEW049 05/M00 Q1023 NOSIG', 'LBBG 020730Z 20006KT 9999 FEW049 04/M01 Q1022 NOSIG', 'LBBG 020700Z 22007KT 9999 FEW045 02/M02 Q1022 NOSIG', 'LBBG 020630Z 23009KT 9999 FEW045 00/M03 Q1022 NOSIG', 'LBBG 020600Z 23009KT 9999 FEW039 00/M04 Q1021 NOSIG', 'LBBG 020530Z 23011KT 9999 FEW039 M00/M04 Q1021 NOSIG', 'LBBG 020500Z AUTO 22010KT 9999 NSC M00/M04 Q1021 NOSIG', 'LBBG 020430Z AUTO 22006KT 9999 NSC M01/M05 Q1021 NOSIG', 'LBBG 020400Z AUTO 25010KT 9999 NSC 00/M04 Q1020 NOSIG', 'LBBG 020330Z AUTO 25011KT 9999 NSC 00/M04 Q1020 NOSIG', 'LBBG 020300Z AUTO 26009KT 9999 NSC M00/M04 Q1020 NOSIG', 'LBBG 020230Z AUTO 26007KT 9999 NCD M00/M04 Q1020 NOSIG', 'LBBG 020200Z AUTO 24010KT 9999 NCD M00/M04 Q1020 NOSIG', 'LBBG 020130Z AUTO 24008KT 9999 NCD M00/M04 Q1020 NOSIG', 'LBBG 020100Z AUTO 26008KT 9999 NCD M00/M04 Q1020 NOSIG', 'LBBG 020030Z AUTO 26008KT 9999 NCD 00/M04 Q1021 NOSIG', 'LBBG 020000Z AUTO 25008KT 9999 NCD M00/M04 Q1021 NOSIG', 'LBBG 012330Z AUTO 25009KT 9999 NCD 00/M04 Q1021 NOSIG', 'LBBG 012300Z AUTO 26009KT 9999 NCD 00/M04 Q1021 NOSIG', 'LBBG 012230Z AUTO 24008KT 9999 NCD 00/M04 Q1021 NOSIG', 'LBBG 012200Z AUTO 24010KT 9999 NCD 00/M04 Q1021 NOSIG', 'LBBG 012130Z AUTO 24005KT 9999 NCD M00/M05 Q1021 NOSIG', 'LBBG 012100Z AUTO 25007KT 9999 NCD M00/M04 Q1021 NOSIG', 'LBBG 012030Z AUTO 26006KT 9999 NCD M01/M03 Q1022 NOSIG', 'LBBG 012000Z AUTO VRB01KT 9999 NCD 00/M02 Q1022 NOSIG', 'LBBG 011930Z AUTO VRB02KT 9999 NCD 00/M01 Q1022 NOSIG', 'LBBG 011900Z AUTO 28002KT 9999 NCD 01/00 Q1022 NOSIG', 'LBBG 011830Z AUTO VRB02KT 9999 NCD 01/M00 Q1022 NOSIG', 'LBBG 011800Z AUTO 08003KT 9999 NCD 01/M01 Q1022 NOSIG', 'LBBG 011730Z AUTO VRB02KT 9999 NCD 03/01 Q1023 NOSIG', 'LBBG 011700Z AUTO VRB01KT 9999 NCD 03/01 Q1023 NOSIG', 'LBBG 011630Z 16006KT CAVOK 02/01 Q1023 NOSIG', 'LBBG 011600Z 15007KT CAVOK 03/M00 Q1023 NOSIG', 'LBBG 011530Z 19006KT 150V210 CAVOK 06/M03 Q1023 BECMG 13010KT', 'LBBG 011500Z 23006KT CAVOK 07/M03 Q1023 NOSIG', 'LBBG 011430Z 23007KT CAVOK 09/M03 Q1023 NOSIG', 'LBBG 011400Z 27007KT CAVOK 09/M01 Q1024 NOSIG', 'LBBG 011330Z 27008KT CAVOK 09/M01 Q1024 NOSIG', 'LBBG 011300Z 26008KT CAVOK 09/M01 Q1024 NOSIG', 'LBBG 011230Z 27010KT CAVOK 09/M02 Q1024 NOSIG', 'LBBG 011200Z 27009KT CAVOK 08/M02 Q1025 NOSIG', 'LBBG 011130Z 26009KT 230V290 CAVOK 08/M01 Q1025 NOSIG', 'LBBG 011100Z 27010KT 230V290 CAVOK 07/M02 Q1026 NOSIG', 'LBBG 011030Z 26010KT 230V290 CAVOK 07/M01 Q1026 NOSIG', 'LBBG 011000Z 27010KT CAVOK 06/M01 Q1027 NOSIG', 'LBBG 010930Z 25008KT CAVOK 05/M00 Q1028 NOSIG', 'LBBG 010900Z 24008KT CAVOK 04/M00 Q1028 NOSIG', 'LBBG 010830Z 24007KT CAVOK 03/M00 Q1028 NOSIG', 'LBBG 010800Z 25007KT CAVOK 02/M00 Q1029 NOSIG', 'LBBG 010730Z 24008KT CAVOK M00/M02 Q1029 NOSIG', 'LBBG 010700Z 22009KT CAVOK M02/M03 Q1029 NOSIG', 'LBBG 010630Z 21005KT 9000 NSC M03/M04 Q1029 TEMPO 5000 BR', 'LBBG 010600Z 24003KT 200V270 9000 NSC M04/M04 Q1029 TEMPO 5000 BR', 'LBBG 010530Z 27003KT 8000 NSC M04/M05 Q1029 TEMPO 5000 BR', 'LBBG 010500Z AUTO 27003KT 8000 NCD M05/M05 Q1030 TEMPO 5000 BR', 'LBBG 010430Z AUTO 28002KT 9000 NCD M04/M05 Q1029 TEMPO 5000 BR', 'LBBG 010400Z AUTO 24003KT 9000 NCD M04/M05 Q1030 TEMPO 5000 BR', 'LBBG 010330Z AUTO 23005KT 9999 NCD M04/M05 Q1030 TEMPO 5000 BR', 'LBBG 010300Z AUTO 21004KT 170V230 9999 NCD M04/M05 Q1030 NOSIG', 'LBBG 010230Z AUTO 22005KT 9999 NCD M04/M05 Q1030 NOSIG', 'LBBG 010200Z AUTO 21005KT 9999 NCD M02/M04 Q1030 NOSIG', 'LBBG 010130Z AUTO 19005KT 9999 NCD M03/M05 Q1030 NOSIG', 'LBBG 010100Z AUTO 20005KT 9999 NCD M03/M05 Q1031 NOSIG', 'LBBG 010030Z AUTO 20005KT 160V250 9999 NCD M03/M04 Q1031 NOSIG']","['2024-02-04 00:00:00', '2024-02-03 23:30:00', '2024-02-03 23:00:00', '2024-02-03 22:30:00', '2024-02-03 22:00:00', '2024-02-03 21:30:00', '2024-02-03 21:00:00', '2024-02-03 20:30:00', '2024-02-03 20:00:00', '2024-02-03 19:30:00', '2024-02-03 19:00:00', '2024-02-03 18:30:00', '2024-02-03 18:00:00', '2024-02-03 17:30:00', '2024-02-03 17:00:00', '2024-02-03 16:30:00', '2024-02-03 16:00:00', '2024-02-03 15:30:00', '2024-02-03 15:00:00', '2024-02-03 14:30:00', '2024-02-03 14:00:00', '2024-02-03 13:30:00', '2024-02-03 13:00:00', '2024-02-03 12:30:00', '2024-02-03 12:00:00', '2024-02-03 11:30:00', '2024-02-03 11:00:00', '2024-02-03 10:30:00', '2024-02-03 10:00:00', '2024-02-03 09:30:00', '2024-02-03 09:00:00', '2024-02-03 08:30:00', '2024-02-03 08:00:00', '2024-02-03 07:30:00', '2024-02-03 07:00:00', '2024-02-03 06:30:00', '2024-02-03 06:00:00', '2024-02-03 05:30:00', '2024-02-03 05:00:00', '2024-02-03 04:30:00', '2024-02-03 04:00:00', '2024-02-03 03:30:00', '2024-02-03 03:00:00', '2024-02-03 02:30:00', '2024-02-03 02:00:00', '2024-02-03 01:30:00', '2024-02-03 01:00:00', '2024-02-03 00:30:00', '2024-02-03 00:00:00', '2024-02-02 23:30:00', '2024-02-02 23:00:00', '2024-02-02 22:30:00', '2024-02-02 22:00:00', '2024-02-02 21:30:00', '2024-02-02 21:00:00', '2024-02-02 20:30:00', '2024-02-02 20:00:00', '2024-02-02 19:30:00', '2024-02-02 19:00:00', '2024-02-02 18:30:00', '2024-02-02 18:00:00', '2024-02-02 17:30:00', '2024-02-02 17:00:00', '2024-02-02 16:30:00', '2024-02-02 16:00:00', '2024-02-02 15:30:00', '2024-02-02 15:00:00', '2024-02-02 14:30:00', '2024-02-02 14:00:00', '2024-02-02 13:30:00', '2024-02-02 13:00:00', '2024-02-02 12:30:00', '2024-02-02 12:00:00', '2024-02-02 11:30:00', '2024-02-02 11:00:00', '2024-02-02 10:30:00', '2024-02-02 10:00:00', '2024-02-02 09:30:00', '2024-02-02 09:00:00', '2024-02-02 08:30:00', '2024-02-02 08:00:00', '2024-02-02 07:30:00', '2024-02-02 07:00:00', '2024-02-02 06:30:00', '2024-02-02 06:00:00', '2024-02-02 05:30:00', '2024-02-02 05:00:00', '2024-02-02 04:30:00', '2024-02-02 04:00:00', '2024-02-02 03:30:00', '2024-02-02 03:00:00', '2024-02-02 02:30:00', '2024-02-02 02:00:00', '2024-02-02 01:30:00', '2024-02-02 01:00:00', '2024-02-02 00:30:00', '2024-02-02 00:00:00', '2024-02-01 23:30:00', '2024-02-01 23:00:00', '2024-02-01 22:30:00', '2024-02-01 22:00:00', '2024-02-01 21:30:00', '2024-02-01 21:00:00', '2024-02-01 20:30:00', '2024-02-01 20:00:00', '2024-02-01 19:30:00', '2024-02-01 19:00:00', '2024-02-01 18:30:00', '2024-02-01 18:00:00', '2024-02-01 17:30:00', '2024-02-01 17:00:00', '2024-02-01 16:30:00', '2024-02-01 16:00:00', '2024-02-01 15:30:00', '2024-02-01 15:00:00', '2024-02-01 14:30:00', '2024-02-01 14:00:00', '2024-02-01 13:30:00', '2024-02-01 13:00:00', '2024-02-01 12:30:00', '2024-02-01 12:00:00', '2024-02-01 11:30:00', '2024-02-01 11:00:00', '2024-02-01 10:30:00', '2024-02-01 10:00:00', '2024-02-01 09:30:00', '2024-02-01 09:00:00', '2024-02-01 08:30:00', '2024-02-01 08:00:00', '2024-02-01 07:30:00', '2024-02-01 07:00:00', '2024-02-01 06:30:00', '2024-02-01 06:00:00', '2024-02-01 05:30:00', '2024-02-01 05:00:00', '2024-02-01 04:30:00', '2024-02-01 04:00:00', '2024-02-01 03:30:00', '2024-02-01 03:00:00', '2024-02-01 02:30:00', '2024-02-01 02:00:00', '2024-02-01 01:30:00', '2024-02-01 01:00:00', '2024-02-01 00:30:00']"
Bulgaria, Gorna Oryahovitsa Airport (GOZ/LBGO) ,"['LBGO 040000Z AUTO VRB02KT 9999 FEW039/// M00/M01 Q1020', 'LBGO 032330Z AUTO 07003KT 030V100 9999 SCT038/// 01/M00 Q1020', 'LBGO 032300Z AUTO 08004KT 050V110 9999 NCD 02/00 Q1020', 'LBGO 032230Z AUTO 10007KT 9999 FEW097/// 01/M00 Q1020', 'LBGO 032200Z AUTO VRB03KT 9999 NCD 04/00 Q1020', 'LBGO 032130Z AUTO 26007KT 9999 NCD 07/02 Q1020', 'LBGO 032100Z AUTO 27007KT 9999 NCD 06/02 Q1020', 'LBGO 032030Z AUTO 26005KT 9999 NCD 06/02 Q1020', 'LBGO 032000Z AUTO 28009KT 9999 NCD 06/02 Q1020 NOSIG', 'LBGO 031930Z AUTO 28005KT 9999 NCD 06/02 Q1020 NOSIG', 'LBGO 031900Z AUTO 28008KT 9999 NCD 06/01 Q1020 NOSIG', 'LBGO 031830Z AUTO 27008KT 9999 FEW054/// 06/02 Q1019 NOSIG', 'LBGO 031800Z AUTO 28004KT 260V320 9999 FEW053/// 02/01 Q1019 NOSIG', 'LBGO 031730Z AUTO 08003KT 040V100 9999 NCD 04/01 Q1019 NOSIG', 'LBGO 031700Z AUTO 08003KT 9999 NCD 05/01 Q1019 NOSIG', 'LBGO 031630Z AUTO VRB02KT 9999 FEW071/// 05/01 Q1019 NOSIG', 'LBGO 031600Z AUTO 26006KT 9999 NCD 08/01 Q1019 NOSIG', 'LBGO 031530Z AUTO 28004KT 9999 SCT051/// SCT058/// 08/01 Q1019 NOSIG', 'LBGO 031500Z AUTO VRB02KT 9999 BKN049/// 09/02 Q1019 NOSIG', 'LBGO 031430Z AUTO 24004KT 190V270 9999 FEW054/// 10/01 Q1019 NOSIG', 'LBGO 031400Z AUTO 27010KT 9999 FEW059/// 12/01 Q1019 NOSIG', 'LBGO 031330Z AUTO 27013KT 230V290 9999 FEW049/// 12/01 Q1019 NOSIG', 'LBGO 031300Z AUTO 28012KT 9999 SCT082/// 12/01 Q1020 NOSIG', 'LBGO 031230Z AUTO 27014KT 9999 OVC079/// 11/01 Q1020 NOSIG', 'LBGO 031200Z AUTO 27016KT 9999 BKN082/// 10/M00 Q1020 NOSIG', 'LBGO 031130Z AUTO 26014KT 9999 SCT080/// 10/01 Q1021 NOSIG', 'LBGO 031100Z AUTO 25010KT 9999 OVC045/// 09/00 Q1021 NOSIG', 'LBGO 031030Z AUTO 25013KT 9999 OVC044/// 08/M00 Q1022 NOSIG', 'LBGO 031000Z AUTO 25013KT 9999 OVC045/// 08/00 Q1023 NOSIG', 'LBGO 030930Z AUTO 25010KT 9999 OVC044/// 07/00 Q1023 NOSIG', 'LBGO 030900Z AUTO 22006KT 190V250 9999 OVC043/// 07/M00 Q1023 NOSIG', 'LBGO 030830Z AUTO 22005KT 190V250 9999 OVC045/// 06/01 Q1023 NOSIG', 'LBGO 030800Z AUTO 23003KT 190V270 9999 OVC045/// 02/02 Q1024 NOSIG', 'LBGO 030730Z AUTO VRB02KT 7000 BKN043/// 00/00 Q1024 NOSIG', 'LBGO 030700Z AUTO 09003KT 060V120 4500 -FZRA BR BKN046/// M01/M01 Q1024 NOSIG', 'LBGO 030630Z AUTO 08002KT 3600 BR NCD M02/M02 Q1024 TEMPO 1200 BR', 'LBGO 030600Z AUTO 08003KT 0650 0300SW R27/P2000N FZFG NCD M04/M04 Q1024 TEMPO 1200 BR', 'LBGO 030530Z AUTO 10003KT 0350 0300SW R27/0450D FZFG FEW003/// M04/M04 Q1024 TEMPO 0800 FZFG', 'LBGO 030500Z AUTO 10003KT 070V130 2500 0650W R27/2000U BR SCT003/// M04/M04 Q1024 TEMPO 0800 FZFG', 'LBGO 030430Z AUTO 10003KT 0450 R27/0650U FZFG SCT003/// M03/M04 Q1024 NOSIG', 'LBGO 030400Z AUTO 08004KT 0300 R27/0550N FZFG VV001 M03/M03 Q1024 NOSIG', 'LBGO 030330Z AUTO 10004KT 0450 0400SW R27/0500N FZFG VV001 M03/M03 Q1025', 'LBGO 030300Z AUTO 09004KT 0300 R27/0450N FZFG VV001 M03/M03 Q1025', 'LBGO 030230Z AUTO 09004KT 0350 R27/0450D FZFG VV001 M03/M03 Q1025', 'LBGO 030200Z AUTO 11002KT 0450 0400E R27/0450N FZFG VV001 M02/M02 Q1025', 'LBGO 030130Z AUTO 00000KT 0500 0400W R27/0650N FG VV001 M02/M02 Q1026', 'LBGO 030100Z AUTO 00000KT 0650 0600W R27/0800N FG FEW003/// SCT037/// OVC070/// M02/M02 Q1026', 'LBGO 030030Z AUTO 00000KT 0400 R27/0400N FG VV001 M02/M02 Q1026', 'LBGO 030000Z AUTO 00000KT 0250 R27/0400N FZFG VV001 M01/M01 Q1026', 'LBGO 022330Z AUTO 00000KT 0250 R27/0350N FG VV001 M01/M01 Q1026', 'LBGO 022300Z AUTO VRB02KT 0250 0200W R27/0400N FG VV001 M01/M01 Q1026', 'LBGO 022230Z AUTO 06001KT 0400 0350W R27/0450N FG VV001 M01/M01 Q1027', 'LBGO 022200Z AUTO VRB01KT 0450 R27/0550N FG BKN004/// OVC027/// 00/00 Q1027', 'LBGO 022130Z AUTO 10004KT 0450 0400W R27/0600N FG VV001 00/00 Q1027', 'LBGO 022100Z AUTO 11004KT 0400 0350SW R27/0550N FG VV001 01/01 Q1027', 'LBGO 022030Z AUTO 00000KT 0350 R27/0500N FG VV001 01/01 Q1027', 'LBGO 022000Z AUTO 00000KT 0400 R27/0450N FG VV001 01/01 Q1027 NOSIG', 'LBGO 021930Z AUTO 00000KT 0300 0250SW R27/0350N FG SCT004/// OVC087/// 01/01 Q1027 NOSIG', 'LBGO 021900Z AUTO 00000KT 0450 0300W R27/0450D FG VV001 01/01 Q1027 TEMPO 0800 BCFG', 'LBGO 021830Z AUTO 00000KT 0600 0550W R27/0650D FG FEW003/// BKN059/// OVC088/// 01/01 Q1027 TEMPO 0600 FG', 'LBGO 021800Z AUTO VRB02KT 0900 0500W R27/P2000N FG OVC051/// 01/01 Q1027 TEMPO 0500 FG', 'LBGO 021730Z AUTO 00000KT 0350 0300W R27/0400N FG SCT003/// BKN009/// OVC087/// 01/01 Q1027 TEMPO 0500 FG', 'LBGO 021700Z AUTO 00000KT 0450 0300W R27/0500N FG SCT009/// BKN057/// OVC090/// 01/01 Q1027 TEMPO 0800 BCFG', 'LBGO 021630Z AUTO 00000KT 0550 0450W R27/0500D FG BKN057/// OVC086/// 02/02 Q1027 TEMPO 0800 BCFG', 'LBGO 021600Z AUTO 00000KT 0650 0550W R27/0600D -SHRA FG OVC058/// 02/02 Q1026 TEMPO 1200 RA BR', 'LBGO 021530Z AUTO VRB01KT 2000 -SHRA BR FEW009/// BKN056/// OVC073/// 03/03 Q1026 TEMPO 1200 RA BR', 'LBGO 021500Z AUTO 23003KT 1800 -SHRA BR FEW008/// OVC055/// 03/03 Q1026 TEMPO 1500 RA BR', 'LBGO 021430Z AUTO 00000KT 1000 0650SW R27/1300U -SHRA BR BKN006/// OVC012/// 03/03 Q1025 TEMPO 1200 RA BR', 'LBGO 021400Z AUTO 05002KT 3000 1200E R27/1800D -RA BR OVC007/// 04/03 Q1025 TEMPO 1500 RA BR', 'LBGO 021330Z AUTO 36003KT 320V030 2600 -RA BR SCT007/// OVC011/// 04/03 Q1025 TEMPO 2000 RA BR', 'LBGO 021300Z AUTO 18003KT 140V220 3100 RA FEW002/// OVC009/// 04/03 Q1025 TEMPO 1500 RA BR', 'LBGO 021230Z AUTO 16003KT 2400 1100W R27/P2000N -RA BR FEW011/// BKN014/// OVC019/// 03/03 Q1024 TEMPO 1200 RA BR', 'LBGO 021200Z AUTO 02004KT 340V070 4100 RA SCT009/// BKN015/// OVC017/// 04/03 Q1024 TEMPO 1200 RA BR', 'LBGO 021130Z AUTO 31005KT 280V010 2600 -RA BR SCT003/// BKN011/// OVC014/// 04/03 Q1024 TEMPO 1200 DZ', 'LBGO 021100Z AUTO 25003KT 170V320 3100 // SCT012/// OVC015/// 04/04 Q1024 TEMPO 1200 DZ', 'LBGO 021030Z AUTO 00000KT 1300 1200W R27/1800D -RA BR FEW012/// BKN014/// OVC016/// 03/03 Q1024 TEMPO 3000 RA', 'LBGO 021000Z AUTO 10003KT 050V200 2300 BR FEW010/// OVC017/// 02/02 Q1024 TEMPO 3000 RA', 'LBGO 020930Z AUTO 10005KT 4100 -SHRA BR OVC019/// 03/02 Q1024 TEMPO RA', 'LBGO 020900Z AUTO 08004KT 4500 -RA SCT018/// OVC021/// 05/04 Q1024 TEMPO RA', 'LBGO 020830Z AUTO 26008KT 5000 -RA FEW015/// OVC019/// 05/04 Q1024 TEMPO 5000 RA', 'LBGO 020800Z AUTO 28008KT 6000 -RA OVC016/// 05/04 Q1024 TEMPO 5000 RA', 'LBGO 020730Z AUTO 28007KT 9000 -RA OVC020/// 05/03 Q1023 TEMPO RA', 'LBGO 020700Z AUTO 11005KT 080V160 9999 -RA OVC024/// 05/03 Q1023 TEMPO RA', 'LBGO 020630Z AUTO VRB02KT 9999 BKN027/// OVC033/// M00/M02 Q1023 NOSIG', 'LBGO 020600Z AUTO VRB02KT 9999 SCT031/// BKN039/// OVC046/// M01/M02 Q1023 NOSIG', 'LBGO 020530Z AUTO 00000KT 9999 SCT042/// OVC055/// M01/M02 Q1022 NOSIG', 'LBGO 020500Z AUTO 00000KT 9999 OVC039/// M02/M03 Q1022 NOSIG', 'LBGO 020430Z AUTO VRB01KT 9999 SCT035/// OVC040/// M02/M03 Q1022 NOSIG', 'LBGO 020400Z AUTO 23003KT 9999 FEW041/// OVC200/// M03/M04 Q1022 NOSIG', 'LBGO 020330Z AUTO 00000KT 9999 FEW044/// OVC200/// M03/M04 Q1022', 'LBGO 020300Z AUTO 06002KT 9999 FEW079/// BKN230/// M04/M05 Q1021', 'LBGO 020230Z AUTO 09003KT 9999 NCD M04/M05 Q1021', 'LBGO 020200Z AUTO 08004KT 9999 BKN230/// M04/M05 Q1021', 'LBGO 020130Z AUTO 24003KT 9999 BKN240/// M03/M04 Q1021', 'LBGO 020100Z AUTO VRB01KT 9999 BKN220/// M03/M04 Q1021', 'LBGO 020030Z AUTO 06003KT 040V130 9999 OVC210/// M03/M04 Q1021', 'LBGO 020000Z AUTO 10004KT 9999 OVC220/// M04/M05 Q1021', 'LBGO 012330Z AUTO VRB03KT 9999 BKN220/// M04/M05 Q1021', 'LBGO 012300Z AUTO 13003KT 100V210 9999 NCD M04/M05 Q1022', 'LBGO 012230Z AUTO VRB01KT 9999 NCD M04/M05 Q1021', 'LBGO 012200Z AUTO 00000KT 9999 NCD M03/M04 Q1021', 'LBGO 012130Z AUTO 00000KT 9999 NCD M03/M03 Q1021', 'LBGO 012100Z AUTO 00000KT 9999 NCD M03/M04 Q1021', 'LBGO 012030Z AUTO 08003KT 9999 NCD M02/M04 Q1021', 'LBGO 012000Z AUTO 08003KT 9999 NCD M03/M05 Q1022 NOSIG', 'LBGO 011930Z AUTO 00000KT 9999 NCD M02/M04 Q1022 NOSIG', 'LBGO 011900Z AUTO VRB02KT 9999 NCD M02/M04 Q1022 NOSIG', 'LBGO 011830Z AUTO 00000KT 9999 NCD M01/M04 Q1022 NOSIG', 'LBGO 011800Z AUTO 00000KT 9999 NCD M01/M03 Q1022 NOSIG', 'LBGO 011730Z AUTO 25004KT 9999 NCD M00/M02 Q1022 NOSIG', 'LBGO 011700Z AUTO 00000KT 9999 NCD M01/M04 Q1022 NOSIG', 'LBGO 011630Z AUTO 25002KT 9999 NCD 02/M03 Q1022 NOSIG', 'LBGO 011600Z AUTO 00000KT 9999 NCD 03/M04 Q1022 NOSIG', 'LBGO 011530Z AUTO 13003KT 9999 NCD 07/M05 Q1022 NOSIG', 'LBGO 011500Z AUTO 14003KT 9999 NCD 10/M05 Q1022 NOSIG', 'LBGO 011430Z AUTO 13003KT 9999 NCD 10/M05 Q1022 NOSIG', 'LBGO 011400Z AUTO 11003KT 080V140 9999 NCD 11/M04 Q1023 NOSIG', 'LBGO 011330Z AUTO 12004KT 090V180 9999 NCD 11/M04 Q1023 NOSIG', 'LBGO 011300Z AUTO VRB03KT 9999 NCD 11/M05 Q1023 NOSIG', 'LBGO 011230Z AUTO VRB02KT 9999 NCD 10/M05 Q1023 NOSIG', 'LBGO 011200Z AUTO VRB03KT 9999 NCD 09/M04 Q1024 NOSIG', 'LBGO 011130Z AUTO VRB02KT 9999 NCD 09/M03 Q1025 NOSIG', 'LBGO 011100Z AUTO VRB02KT 9999 NCD 07/M06 Q1025 NOSIG', 'LBGO 011030Z AUTO 12003KT 070V170 9999 NCD 07/M07 Q1026 NOSIG', 'LBGO 011000Z AUTO 11003KT 070V140 9999 NCD 05/M05 Q1026 NOSIG', 'LBGO 010930Z AUTO 09003KT 040V140 9999 NCD 03/M04 Q1027 NOSIG', 'LBGO 010900Z AUTO VRB02KT 9999 NCD 02/M04 Q1027 NOSIG', 'LBGO 010830Z AUTO 10004KT 060V140 9999 NCD 01/M03 Q1027 NOSIG', 'LBGO 010800Z AUTO VRB02KT 9999 NCD M01/M04 Q1028 NOSIG', 'LBGO 010730Z AUTO VRB01KT 9999 NCD M02/M04 Q1028 NOSIG', 'LBGO 010700Z AUTO VRB02KT 9999 NCD M04/M05 Q1028 NOSIG', 'LBGO 010630Z AUTO 00000KT 9999 NCD M06/M07 Q1028 NOSIG', 'LBGO 010600Z AUTO 00000KT 9999 NCD M07/M08 Q1029 NOSIG', 'LBGO 010530Z AUTO 13001KT 9999 NCD M08/M09 Q1029 NOSIG', 'LBGO 010500Z AUTO 00000KT 9999 NCD M08/M08 Q1029 NOSIG', 'LBGO 010430Z AUTO 00000KT 9999 NCD M07/M08 Q1029 TEMPO 3000 BR', 'LBGO 010400Z AUTO 00000KT 9000 NCD M07/M08 Q1029 TEMPO 1200 BR', 'LBGO 010330Z AUTO 00000KT 9999 NCD M07/M08 Q1029', 'LBGO 010300Z AUTO 00000KT 9999 NCD M07/M07 Q1029', 'LBGO 010230Z AUTO 00000KT 9999 NCD M07/M07 Q1029', 'LBGO 010200Z AUTO 00000KT 9999 NCD M07/M08 Q1030', 'LBGO 010130Z AUTO 14001KT 9999 NCD M06/M07 Q1030', 'LBGO 010100Z AUTO 00000KT 9000 NCD M06/M07 Q1030', 'LBGO 010030Z AUTO 00000KT 9999 NCD M06/M07 Q1030']","['2024-02-04 00:00:00', '2024-02-03 23:30:00', '2024-02-03 23:00:00', '2024-02-03 22:30:00', '2024-02-03 22:00:00', '2024-02-03 21:30:00', '2024-02-03 21:00:00', '2024-02-03 20:30:00', '2024-02-03 20:00:00', '2024-02-03 19:30:00', '2024-02-03 19:00:00', '2024-02-03 18:30:00', '2024-02-03 18:00:00', '2024-02-03 17:30:00', '2024-02-03 17:00:00', '2024-02-03 16:30:00', '2024-02-03 16:00:00', '2024-02-03 15:30:00', '2024-02-03 15:00:00', '2024-02-03 14:30:00', '2024-02-03 14:00:00', '2024-02-03 13:30:00', '2024-02-03 13:00:00', '2024-02-03 12:30:00', '2024-02-03 12:00:00', '2024-02-03 11:30:00', '2024-02-03 11:00:00', '2024-02-03 10:30:00', '2024-02-03 10:00:00', '2024-02-03 09:30:00', '2024-02-03 09:00:00', '2024-02-03 08:30:00', '2024-02-03 08:00:00', '2024-02-03 07:30:00', '2024-02-03 07:00:00', '2024-02-03 06:30:00', '2024-02-03 06:00:00', '2024-02-03 05:30:00', '2024-02-03 05:00:00', '2024-02-03 04:30:00', '2024-02-03 04:00:00', '2024-02-03 03:30:00', '2024-02-03 03:00:00', '2024-02-03 02:30:00', '2024-02-03 02:00:00', '2024-02-03 01:30:00', '2024-02-03 01:00:00', '2024-02-03 00:30:00', '2024-02-03 00:00:00', '2024-02-02 23:30:00', '2024-02-02 23:00:00', '2024-02-02 22:30:00', '2024-02-02 22:00:00', '2024-02-02 21:30:00', '2024-02-02 21:00:00', '2024-02-02 20:30:00', '2024-02-02 20:00:00', '2024-02-02 19:30:00', '2024-02-02 19:00:00', '2024-02-02 18:30:00', '2024-02-02 18:00:00', '2024-02-02 17:30:00', '2024-02-02 17:00:00', '2024-02-02 16:30:00', '2024-02-02 16:00:00', '2024-02-02 15:30:00', '2024-02-02 15:00:00', '2024-02-02 14:30:00', '2024-02-02 14:00:00', '2024-02-02 13:30:00', '2024-02-02 13:00:00', '2024-02-02 12:30:00', '2024-02-02 12:00:00', '2024-02-02 11:30:00', '2024-02-02 11:00:00', '2024-02-02 10:30:00', '2024-02-02 10:00:00', '2024-02-02 09:30:00', '2024-02-02 09:00:00', '2024-02-02 08:30:00', '2024-02-02 08:00:00', '2024-02-02 07:30:00', '2024-02-02 07:00:00', '2024-02-02 06:30:00', '2024-02-02 06:00:00', '2024-02-02 05:30:00', '2024-02-02 05:00:00', '2024-02-02 04:30:00', '2024-02-02 04:00:00', '2024-02-02 03:30:00', '2024-02-02 03:00:00', '2024-02-02 02:30:00', '2024-02-02 02:00:00', '2024-02-02 01:30:00', '2024-02-02 01:00:00', '2024-02-02 00:30:00', '2024-02-02 00:00:00', '2024-02-01 23:30:00', '2024-02-01 23:00:00', '2024-02-01 22:30:00', '2024-02-01 22:00:00', '2024-02-01 21:30:00', '2024-02-01 21:00:00', '2024-02-01 20:30:00', '2024-02-01 20:00:00', '2024-02-01 19:30:00', '2024-02-01 19:00:00', '2024-02-01 18:30:00', '2024-02-01 18:00:00', '2024-02-01 17:30:00', '2024-02-01 17:00:00', '2024-02-01 16:30:00', '2024-02-01 16:00:00', '2024-02-01 15:30:00', '2024-02-01 15:00:00', '2024-02-01 14:30:00', '2024-02-01 14:00:00', '2024-02-01 13:30:00', '2024-02-01 13:00:00', '2024-02-01 12:30:00', '2024-02-01 12:00:00', '2024-02-01 11:30:00', '2024-02-01 11:00:00', '2024-02-01 10:30:00', '2024-02-01 10:00:00', '2024-02-01 09:30:00', '2024-02-01 09:00:00', '2024-02-01 08:30:00', '2024-02-01 08:00:00', '2024-02-01 07:30:00', '2024-02-01 07:00:00', '2024-02-01 06:30:00', '2024-02-01 06:00:00', '2024-02-01 05:30:00', '2024-02-01 05:00:00', '2024-02-01 04:30:00', '2024-02-01 04:00:00', '2024-02-01 03:30:00', '2024-02-01 03:00:00', '2024-02-01 02:30:00', '2024-02-01 02:00:00', '2024-02-01 01:30:00', '2024-02-01 01:00:00', '2024-02-01 00:30:00']"
Bulgaria, Jambol Bezmer Air Base (JAM/LBIA) ,"['LBIA 032300Z 24008KT 9999 FEW100 02/M02 Q1020', 'LBIA 032200Z 22004KT 9999 FEW100 01/M03 Q1020', 'LBIA 032100Z 12004KT 9999 FEW100 01/M02 Q1020', 'LBIA 032000Z 24004KT 9999 FEW050 SCT100 05/M01 Q1020', 'LBIA 031900Z 29004KT 9999 FEW100 05/M01 Q1020', 'LBIA 031800Z 26004KT 9999 SCT100 06/M01 Q1020', 'LBIA 031700Z 20002KT 9999 BKN060 06/M02 Q1020', 'LBIA 031600Z 24004KT 9999 SCT050 BKN100 09/M03 Q1020', 'LBIA 031500Z 24008KT 9999 FEW050 SCT100 10/M03 Q1020', 'LBIA 031400Z 24010KT 9999 FEW050 SCT100 10/M03 Q1020', 'LBIA 031300Z 24008KT 9999 SCT040 BKN100 10/M01 Q1021', 'LBIA 031200Z 27008KT 9999 BKN050 10/M01 Q1021', 'LBIA 031100Z 22008KT 9999 FEW040 09/00 Q1022', 'LBIA 031000Z 23006KT 9999 FEW040 07/02 Q1023', 'LBIA 030900Z 27002KT 6000 FEW040 SCT100 05/03 Q1024', 'LBIA 030800Z 27002KT 5000 BR FEW050 SCT100 03/02 Q1024', 'LBIA 030700Z 00000KT 4000 BR FEW050 BKN100 M01/M01 Q1024', 'LBIA 030600Z 22002KT 4500 BR FEW050 BKN100 M01/M01 Q1024', 'LBIA 030500Z 00000KT 4500 BR OVC040 M01/M01 Q1024', 'LBIA 030400Z 30004KT 8000 OVC050 00/00 Q1025', 'LBIA 030300Z 28004KT 8000 BKN050 OVC100 01/01 Q1025', 'LBIA 030200Z 30004KT 9999 BKN050 OVC100 01/01 Q1025', 'LBIA 030100Z 23004KT 9999 BKN050 OVC100 01/00 Q1025', 'LBIA 022400Z 26004KT 9999 BKN050 OVC100 02/01 Q1025', 'LBIA 022300Z 26004KT 9999 BKN050 OVC100 02/01 Q1026', 'LBIA 022200Z 31004KT 9999 BKN050 OVC100 02/01 Q1026', 'LBIA 022100Z 30004KT 9999 BKN050 OVC100 02/01 Q1026', 'LBIA 022000Z 27004KT 9999 BKN050 OVC100 02/01 Q1026', 'LBIA 021900Z 01004KT 9999 BKN050 OVC100 03/00 Q1026', 'LBIA 021800Z 10004KT 9999 OVC030 04/01 Q1026', 'LBIA 021700Z 06004KT 8000 OVC030 04/01 Q1026', 'LBIA 021600Z 19004KT 8000 OVC030 03/02 Q1025', 'LBIA 021500Z 09004KT 8000 SCT020 OVC030 04/02 Q1024 REDZ', 'LBIA 021400Z 07004KT 8000 -DZ BKN014 OVC030 03/02 Q1024', 'LBIA 021300Z 08004KT 4500 -DZ BKN014 OVC027 03/02 Q1023', 'LBIA 021200Z 04004KT 4500 -DZ BKN014 OVC027 03/01 Q1023', 'LBIA 021100Z 33004KT 4500 -DZ BKN014 OVC027 03/M01 Q1023', 'LBIA 021000Z 30004KT 9999 -DZ BKN034 OVC100 02/M01 Q1023', 'LBIA 020900Z 35002KT 9999 BKN040 OVC100 01/M03 Q1023', 'LBIA 020800Z 00000KT 9999 SCT040 BKN100 OVC200 00/M03 Q1022', 'LBIA 020700Z 07002KT 9999 SCT040 BKN100 BKN200 M02/M05 Q1022', 'LBIA 020600Z 20004KT 9999 SCT100 BKN200 M04/M06 Q1022', 'LBIA 020500Z 00000KT 9999 SCT200 M04/M06 Q1021', 'LBIA 020400Z 05004KT 9999 BKN200 M04/M06 Q1020', 'LBIA 020300Z 34004KT 9999 SKC M03/M06 Q1020', 'LBIA 020200Z 00000KT 9999 SKC M04/M06 Q1020', 'LBIA 012400Z 00000KT 9999 SKC M04/M07 Q1021', 'LBIA 012300Z 00000KT 9999 SKC M04/M07 Q1021', 'LBIA 012200Z 00000KT 9999 SKC M03/M07 Q1021', 'LBIA 012100Z 00000KT 9999 SKC M03/M07 Q1021', 'LBIA 012000Z 00000KT 9999 SKC M01/M07 Q1022', 'LBIA 011900Z 16004KT 9999 SKC M00/M06 Q1022', 'LBIA 011800Z 16004KT 9999 SKC M00/M06 Q1022', 'LBIA 011700Z 27004KT 9999 SKC 02/M06 Q1022', 'LBIA 011600Z 25006KT 9999 SKC 06/M07 Q1022', 'LBIA 011500Z 23006KT 9999 SKC 08/M06 Q1023', 'LBIA 011400Z 24008KT 9999 SKC 09/M07 Q1023', 'LBIA 011300Z 23008KT 9999 SKC 09/M06 Q1024', 'LBIA 011200Z 27006KT 9999 SKC 08/M03 Q1025', 'LBIA 011100Z 26004KT 9999 SKC 06/M02 Q1026', 'LBIA 011000Z 27006KT 9999 SKC 04/M01 Q1027', 'LBIA 010900Z 26004KT 9999 SKC 01/M02 Q1028', 'LBIA 010800Z 00000KT 9999 SKC M01/M02 Q1029', 'LBIA 010700Z 00000KT 9999 SKC M04/M05 Q1029', 'LBIA 010600Z 10004KT 6000 SKC M06/M07 Q1029', 'LBIA 010500Z 08004KT 8000 SKC M06/M07 Q1029', 'LBIA 010400Z 00000KT 9999 SKC M03/M06 Q1032', 'LBIA 010300Z 00000KT 9999 SKC M03/M06 Q1032', 'LBIA 010200Z 00000KT 9999 SKC M03/M06 Q1032', 'LBIA 010100Z 00000KT 9999 SKC M03/M06 Q1032']","['2024-02-03 23:00:00', '2024-02-03 22:00:00', '2024-02-03 21:00:00', '2024-02-03 20:00:00', '2024-02-03 19:00:00', '2024-02-03 18:00:00', '2024-02-03 17:00:00', '2024-02-03 16:00:00', '2024-02-03 15:00:00', '2024-02-03 14:00:00', '2024-02-03 13:00:00', '2024-02-03 12:00:00', '2024-02-03 11:00:00', '2024-02-03 10:00:00', '2024-02-03 09:00:00', '2024-02-03 08:00:00', '2024-02-03 07:00:00', '2024-02-03 06:00:00', '2024-02-03 05:00:00', '2024-02-03 04:00:00', '2024-02-03 03:00:00', '2024-02-03 02:00:00', '2024-02-03 01:00:00', '2024-02-03 00:00:00', '2024-02-02 23:00:00', '2024-02-02 22:00:00', '2024-02-02 21:00:00', '2024-02-02 20:00:00', '2024-02-02 19:00:00', '2024-02-02 18:00:00', '2024-02-02 17:00:00', '2024-02-02 16:00:00', '2024-02-02 15:00:00', '2024-02-02 14:00:00', '2024-02-02 13:00:00', '2024-02-02 12:00:00', '2024-02-02 11:00:00', '2024-02-02 10:00:00', '2024-02-02 09:00:00', '2024-02-02 08:00:00', '2024-02-02 07:00:00', '2024-02-02 06:00:00', '2024-02-02 05:00:00', '2024-02-02 04:00:00', '2024-02-02 03:00:00', '2024-02-02 02:00:00', '2024-02-02 00:00:00', '2024-02-01 23:00:00', '2024-02-01 22:00:00', '2024-02-01 21:00:00', '2024-02-01 20:00:00', '2024-02-01 19:00:00', '2024-02-01 18:00:00', '2024-02-01 17:00:00', '2024-02-01 16:00:00', '2024-02-01 15:00:00', '2024-02-01 14:00:00', '2024-02-01 13:00:00', '2024-02-01 12:00:00', '2024-02-01 11:00:00', '2024-02-01 10:00:00', '2024-02-01 09:00:00', '2024-02-01 08:00:00', '2024-02-01 07:00:00', '2024-02-01 06:00:00', '2024-02-01 05:00:00', '2024-02-01 04:00:00', '2024-02-01 03:00:00', '2024-02-01 02:00:00', '2024-02-01 01:00:00']"
Bulgaria, Plovdiv Airport (PDV/LBPD) ,"['LBPD 040000Z AUTO 28010KT 9999 NCD 10/00 Q1019', 'LBPD 032330Z AUTO 27016KT 9999 NCD 11/01 Q1019', 'LBPD 032300Z AUTO 27015KT 9999 NCD 11/00 Q1019', 'LBPD 032230Z AUTO 27015KT 9999 NCD 11/00 Q1020', 'LBPD 032200Z AUTO 27018KT 9999 NCD 11/M00 Q1020', 'LBPD 032130Z AUTO 27019KT 9999 NCD 11/M00 Q1020', 'LBPD 032100Z AUTO 27014KT 9999 NCD 10/M01 Q1020', 'LBPD 032030Z AUTO 27013KT 9999 NCD 11/M01 Q1020', 'LBPD 032000Z AUTO 28015KT 9999 NCD 10/M00 Q1020 NOSIG', 'LBPD 031930Z AUTO 29015KT 9999 NCD 09/M01 Q1020 NOSIG', 'LBPD 031900Z AUTO 29013KT 9999 NCD 09/M00 Q1020 NOSIG', 'LBPD 031830Z AUTO 29012KT 9999 NCD 09/M01 Q1020 NOSIG', 'LBPD 031800Z AUTO 29012KT 9999 NCD 09/M01 Q1020 NOSIG', 'LBPD 031730Z AUTO 30010KT 9999 BKN065/// 09/M01 Q1020 NOSIG', 'LBPD 031700Z AUTO 29008KT 9999 BKN067/// 09/M01 Q1020 NOSIG', 'LBPD 031630Z AUTO 29008KT 9999 OVC069/// 09/M01 Q1020 NOSIG', 'LBPD 031600Z AUTO 31003KT 280V340 9999 OVC068/// 10/M02 Q1020 NOSIG', 'LBPD 031530Z AUTO 31007KT 9999 OVC068/// 10/M01 Q1019 NOSIG', 'LBPD 031500Z AUTO 30011KT 9999 OVC066/// 11/M01 Q1019 NOSIG', 'LBPD 031430Z AUTO 30010KT 9999 OVC063/// 12/M01 Q1020 NOSIG', 'LBPD 031400Z AUTO 28012KT 9999 BKN065/// 12/M01 Q1020 NOSIG', 'LBPD 031330Z AUTO 29011KT 9999 BKN077/// 11/M03 Q1020 NOSIG', 'LBPD 031300Z AUTO 29017KT 9999 BKN078/// 11/M03 Q1020 NOSIG', 'LBPD 031230Z AUTO 29017KT 9999 FEW075/// OVC088/// 11/M03 Q1021 NOSIG', 'LBPD 031200Z AUTO 29019KT 9999 SCT073/// OVC092/// 11/M03 Q1021 NOSIG', 'LBPD 031130Z AUTO 28016KT 9999 SCT063/// BKN073/// OVC120/// 11/M03 Q1022 NOSIG', 'LBPD 031100Z AUTO 28019KT 9999 FEW060/// OVC070/// 10/M03 Q1022 NOSIG', 'LBPD 031030Z AUTO 28019KT 9999 NCD 10/M04 Q1023 NOSIG', 'LBPD 031000Z AUTO 30012KT 9999 NCD 09/M03 Q1023 NOSIG', 'LBPD 030930Z AUTO 30012KT 9999 NCD 09/M02 Q1024 NOSIG', 'LBPD 030900Z AUTO 30014KT 9999 NCD 08/M03 Q1024 NOSIG', 'LBPD 030830Z AUTO 30014KT 9999 NCD 08/M03 Q1024 NOSIG', 'LBPD 030800Z AUTO 29013KT 9999 NCD 07/M03 Q1024 NOSIG', 'LBPD 030730Z AUTO 28009KT 9999 NCD 06/M02 Q1024 NOSIG', 'LBPD 030700Z AUTO 28006KT 9999 NCD 05/M02 Q1025 NOSIG', 'LBPD 030630Z AUTO 27005KT 9999 NCD 02/M03 Q1024 NOSIG', 'LBPD 030600Z AUTO 24003KT 9999 NCD M01/M04 Q1024 NOSIG', 'LBPD 030530Z AUTO 25005KT 9999 NCD 01/M03 Q1025 NOSIG', 'LBPD 030500Z AUTO 28007KT 9999 NCD 01/M04 Q1025 NOSIG', 'LBPD 030430Z AUTO 28009KT 9999 NCD 02/M03 Q1025 NOSIG', 'LBPD 030400Z AUTO 28009KT 9999 NCD 03/M02 Q1025 NOSIG', 'LBPD 030330Z AUTO 28009KT 9999 FEW066/// 01/M02 Q1025', 'LBPD 030300Z AUTO 30008KT 9999 NCD 00/M03 Q1025', 'LBPD 030230Z AUTO 31007KT 9999 NCD 01/M01 Q1025', 'LBPD 030200Z AUTO 33008KT 9999 BKN071/// 03/M01 Q1025', 'LBPD 030130Z AUTO 33005KT 9999 BKN071/// 04/M01 Q1025', 'LBPD 030100Z AUTO 31007KT 9999 FEW055/// OVC071/// 05/M01 Q1025', 'LBPD 030030Z AUTO 29007KT 9999 BKN057/// OVC065/// 06/M01 Q1025', 'LBPD 030000Z AUTO 28009KT 9999 SCT057/// OVC065/// 06/M01 Q1025', 'LBPD 022330Z AUTO 28006KT 9999 OVC065/// 06/M00 Q1026', 'LBPD 022300Z AUTO 29003KT 240V020 9999 OVC060/// 05/M00 Q1026', 'LBPD 022230Z AUTO VRB02KT 9999 BKN062/// OVC078/// 06/M00 Q1026', 'LBPD 022200Z AUTO VRB02KT 9999 OVC059/// 05/M00 Q1026', 'LBPD 022130Z AUTO 29007KT 9999 OVC061/// 06/M00 Q1026', 'LBPD 022100Z AUTO 34005KT 9999 BKN062/// OVC071/// 06/M01 Q1026', 'LBPD 022030Z AUTO 30008KT 9999 FEW057/// BKN070/// OVC080/// 06/M01 Q1026', 'LBPD 022000Z AUTO 29011KT 9999 SCT063/// SCT073/// OVC083/// 07/M01 Q1026 NOSIG', 'LBPD 021930Z AUTO 29011KT 9999 FEW062/// OVC084/// 07/M01 Q1026 NOSIG', 'LBPD 021900Z AUTO 28011KT 9999 SCT056/// OVC086/// 07/M01 Q1026 NOSIG', 'LBPD 021830Z AUTO 28013KT 9999 FEW057/// OVC085/// 07/M01 Q1026 NOSIG', 'LBPD 021800Z AUTO 28013KT 9999 BKN058/// OVC082/// 07/M01 Q1026 NOSIG', 'LBPD 021730Z AUTO 28014KT 9999 OVC057/// 07/M01 Q1026 NOSIG', 'LBPD 021700Z AUTO 28014KT 9999 FEW057/// OVC086/// 08/M01 Q1025 NOSIG', 'LBPD 021630Z AUTO 27017KT 9999 FEW061/// OVC085/// 08/M01 Q1025 NOSIG', 'LBPD 021600Z AUTO 28017KT 9999 BKN061/// BKN072/// OVC084/// 08/M01 Q1025 NOSIG', 'LBPD 021530Z AUTO 28016KT 9999 FEW053/// OVC069/// 08/M01 Q1024 NOSIG', 'LBPD 021500Z AUTO 28016KT 9999 OVC070/// 08/M01 Q1024 NOSIG', 'LBPD 021430Z AUTO 29017KT 9999 OVC066/// 09/M01 Q1024 NOSIG', 'LBPD 021400Z AUTO 29020KT 9999 OVC068/// 09/M01 Q1023 NOSIG', 'LBPD 021330Z AUTO 29019KT 9999 FEW077/// 10/M01 Q1023 NOSIG', 'LBPD 021300Z AUTO 29021KT 9999 OVC077/// 11/M01 Q1023 NOSIG', 'LBPD 021230Z AUTO 27018KT 9999 FEW052/// BKN072/// 11/M01 Q1023 NOSIG', 'LBPD 021200Z AUTO 27020KT 9999 FEW048/// SCT067/// OVC077/// 11/M00 Q1023 NOSIG', 'LBPD 021130Z AUTO 28017KT 9999 FEW044/// OVC075/// 10/M00 Q1023 NOSIG', 'LBPD 021100Z AUTO 28019KT 9999 OVC063/// 09/00 Q1023 NOSIG', 'LBPD 021030Z AUTO 28020KT 9999 OVC070/// 09/00 Q1023 NOSIG', 'LBPD 021000Z AUTO 28019KT 9999 OVC066/// 09/00 Q1023 NOSIG', 'LBPD 020930Z AUTO 27022KT 9999 OVC065/// 09/00 Q1023 NOSIG', 'LBPD 020900Z AUTO 28023KT 9999 FEW044/// BKN066/// OVC077/// 09/01 Q1023 NOSIG', 'LBPD 020830Z AUTO 28023KT 9999 FEW054/// SCT062/// OVC075/// 09/01 Q1023 NOSIG', 'LBPD 020800Z AUTO 28020KT 9999 FEW057/// OVC087/// 09/01 Q1022 TEMPO RA', 'LBPD 020730Z AUTO 29020KT 9999 OVC074/// 09/M00 Q1022 TEMPO RA', 'LBPD 020700Z AUTO 28020KT 9999 BKN071/// 09/M01 Q1022 NOSIG', 'LBPD 020630Z AUTO 28019KT 9999 OVC073/// 09/M01 Q1021 NOSIG', 'LBPD 020600Z AUTO 27019G29KT 9999 BKN068/// OVC084/// 09/M01 Q1021 NOSIG', 'LBPD 020530Z AUTO 27021KT 9999 BKN066/// OVC091/// 09/M01 Q1021 NOSIG', 'LBPD 020500Z AUTO 27018KT 9999 SCT058/// BKN079/// BKN093/// 09/M02 Q1020 NOSIG', 'LBPD 020430Z AUTO 28018KT 9999 FEW077/// SCT089/// BKN190/// 09/M02 Q1020 NOSIG', 'LBPD 020400Z AUTO 28014KT 9999 FEW092/// BKN240/// 09/M02 Q1020 NOSIG', 'LBPD 020330Z AUTO 28012KT 9999 BKN250/// 06/M01 Q1020', 'LBPD 020300Z AUTO 31004KT 270V070 9999 OVC240/// 00/M06 Q1020', 'LBPD 020230Z AUTO VRB02KT 9999 BKN240/// 01/M05 Q1020', 'LBPD 020200Z AUTO 00000KT 9999 BKN250/// M02/M05 Q1020', 'LBPD 020130Z AUTO VRB02KT 9999 BKN210/// 00/M05 Q1020', 'LBPD 020100Z AUTO VRB05KT 9999 FEW200/// M01/M05 Q1021', 'LBPD 020030Z AUTO VRB02KT 9999 SCT200/// M02/M05 Q1021', 'LBPD 020000Z AUTO 21003KT 9999 BKN220/// BKN250/// M03/M06 Q1021', 'LBPD 012330Z AUTO 22005KT 9999 NCD M03/M06 Q1021', 'LBPD 012300Z AUTO 02003KT 340V040 9999 NCD M02/M05 Q1021', 'LBPD 012230Z AUTO 10003KT 9999 NCD M01/M06 Q1021', 'LBPD 012200Z AUTO 00000KT 9999 FEW170/// 00/M06 Q1022', 'LBPD 012130Z AUTO VRB01KT 9999 NCD 00/M07 Q1022', 'LBPD 012100Z AUTO 30004KT 9999 NCD M02/M06 Q1022', 'LBPD 012030Z AUTO 25005KT 9999 NCD M03/M07 Q1022', 'LBPD 012000Z AUTO 26005KT 9999 NCD M01/M07 Q1022 NOSIG', 'LBPD 011930Z AUTO 24003KT 9999 NCD 00/M08 Q1022 NOSIG', 'LBPD 011900Z AUTO 00000KT 9999 NCD M00/M07 Q1022 NOSIG', 'LBPD 011830Z AUTO 00000KT 9999 NCD 01/M07 Q1022 NOSIG', 'LBPD 011800Z AUTO 28003KT 240V320 9999 NCD M01/M07 Q1023 NOSIG', 'LBPD 011730Z AUTO 25004KT 9999 NCD 00/M07 Q1023 NOSIG', 'LBPD 011700Z AUTO 24003KT 170V280 9999 NCD 04/M06 Q1022 NOSIG', 'LBPD 011630Z AUTO 17004KT 9999 NCD 03/M06 Q1022 NOSIG', 'LBPD 011600Z AUTO 19004KT 9999 NCD 01/M07 Q1022 NOSIG', 'LBPD 011530Z AUTO 06001KT 9999 NCD 05/M06 Q1023 NOSIG', 'LBPD 011500Z AUTO 05002KT 9999 NCD 09/M08 Q1023 NOSIG', 'LBPD 011430Z AUTO 00000KT 9999 NCD 09/M08 Q1023 NOSIG', 'LBPD 011400Z AUTO VRB02KT 9999 NCD 10/M08 Q1023 NOSIG', 'LBPD 011330Z AUTO VRB02KT 9999 NCD 09/M08 Q1023 NOSIG', 'LBPD 011300Z AUTO 10003KT 030V160 9999 NCD 09/M07 Q1024 NOSIG', 'LBPD 011230Z AUTO VRB03KT 9999 NCD 09/M08 Q1024 NOSIG', 'LBPD 011200Z AUTO 36003KT 290V080 9999 NCD 08/M08 Q1025 NOSIG', 'LBPD 011130Z AUTO 03003KT 290V080 9999 NCD 08/M08 Q1025 NOSIG', 'LBPD 011100Z AUTO VRB02KT 9999 NCD 07/M07 Q1026 NOSIG', 'LBPD 011030Z AUTO VRB02KT 9999 NCD 06/M06 Q1026 NOSIG', 'LBPD 011000Z AUTO VRB02KT 9999 NCD 05/M06 Q1027 NOSIG', 'LBPD 010930Z AUTO 03003KT 300V090 9999 NCD 04/M06 Q1028 NOSIG', 'LBPD 010900Z AUTO VRB02KT 9999 NCD 03/M05 Q1028 NOSIG', 'LBPD 010830Z AUTO 35003KT 320V020 9999 NCD 01/M05 Q1028 NOSIG', 'LBPD 010800Z AUTO VRB02KT 9999 NCD 00/M05 Q1028 NOSIG', 'LBPD 010730Z AUTO 00000KT 9999 NCD M02/M06 Q1029 NOSIG', 'LBPD 010700Z AUTO 33003KT 290V350 9999 NCD M03/M07 Q1029 NOSIG', 'LBPD 010630Z AUTO 00000KT 9999 NCD M04/M07 Q1029 NOSIG', 'LBPD 010600Z AUTO 00000KT 9999 NCD M05/M07 Q1029 NOSIG', 'LBPD 010530Z AUTO 31003KT 9999 NCD M06/M10 Q1029 NOSIG', 'LBPD 010500Z AUTO 00000KT 9999 NCD M04/M09 Q1029 NOSIG', 'LBPD 010430Z AUTO 27002KT 9999 NCD M04/M09 Q1029 NOSIG', 'LBPD 010400Z AUTO 28003KT 9999 NCD M05/M09 Q1029 NOSIG', 'LBPD 010330Z AUTO 29003KT 9999 NCD M07/M10 Q1029', 'LBPD 010300Z AUTO 00000KT 9999 NCD M07/M10 Q1029', 'LBPD 010230Z AUTO 16003KT 9999 NCD M06/M09 Q1029', 'LBPD 010200Z AUTO VRB01KT 9999 NCD M04/M08 Q1030', 'LBPD 010130Z AUTO 30003KT 9999 NCD M03/M08 Q1030', 'LBPD 010100Z AUTO 28003KT 9999 NCD M03/M07 Q1030', 'LBPD 010030Z AUTO 27005KT 9999 NCD M04/M08 Q1031']","['2024-02-04 00:00:00', '2024-02-03 23:30:00', '2024-02-03 23:00:00', '2024-02-03 22:30:00', '2024-02-03 22:00:00', '2024-02-03 21:30:00', '2024-02-03 21:00:00', '2024-02-03 20:30:00', '2024-02-03 20:00:00', '2024-02-03 19:30:00', '2024-02-03 19:00:00', '2024-02-03 18:30:00', '2024-02-03 18:00:00', '2024-02-03 17:30:00', '2024-02-03 17:00:00', '2024-02-03 16:30:00', '2024-02-03 16:00:00', '2024-02-03 15:30:00', '2024-02-03 15:00:00', '2024-02-03 14:30:00', '2024-02-03 14:00:00', '2024-02-03 13:30:00', '2024-02-03 13:00:00', '2024-02-03 12:30:00', '2024-02-03 12:00:00', '2024-02-03 11:30:00', '2024-02-03 11:00:00', '2024-02-03 10:30:00', '2024-02-03 10:00:00', '2024-02-03 09:30:00', '2024-02-03 09:00:00', '2024-02-03 08:30:00', '2024-02-03 08:00:00', '2024-02-03 07:30:00', '2024-02-03 07:00:00', '2024-02-03 06:30:00', '2024-02-03 06:00:00', '2024-02-03 05:30:00', '2024-02-03 05:00:00', '2024-02-03 04:30:00', '2024-02-03 04:00:00', '2024-02-03 03:30:00', '2024-02-03 03:00:00', '2024-02-03 02:30:00', '2024-02-03 02:00:00', '2024-02-03 01:30:00', '2024-02-03 01:00:00', '2024-02-03 00:30:00', '2024-02-03 00:00:00', '2024-02-02 23:30:00', '2024-02-02 23:00:00', '2024-02-02 22:30:00', '2024-02-02 22:00:00', '2024-02-02 21:30:00', '2024-02-02 21:00:00', '2024-02-02 20:30:00', '2024-02-02 20:00:00', '2024-02-02 19:30:00', '2024-02-02 19:00:00', '2024-02-02 18:30:00', '2024-02-02 18:00:00', '2024-02-02 17:30:00', '2024-02-02 17:00:00', '2024-02-02 16:30:00', '2024-02-02 16:00:00', '2024-02-02 15:30:00', '2024-02-02 15:00:00', '2024-02-02 14:30:00', '2024-02-02 14:00:00', '2024-02-02 13:30:00', '2024-02-02 13:00:00', '2024-02-02 12:30:00', '2024-02-02 12:00:00', '2024-02-02 11:30:00', '2024-02-02 11:00:00', '2024-02-02 10:30:00', '2024-02-02 10:00:00', '2024-02-02 09:30:00', '2024-02-02 09:00:00', '2024-02-02 08:30:00', '2024-02-02 08:00:00', '2024-02-02 07:30:00', '2024-02-02 07:00:00', '2024-02-02 06:30:00', '2024-02-02 06:00:00', '2024-02-02 05:30:00', '2024-02-02 05:00:00', '2024-02-02 04:30:00', '2024-02-02 04:00:00', '2024-02-02 03:30:00', '2024-02-02 03:00:00', '2024-02-02 02:30:00', '2024-02-02 02:00:00', '2024-02-02 01:30:00', '2024-02-02 01:00:00', '2024-02-02 00:30:00', '2024-02-02 00:00:00', '2024-02-01 23:30:00', '2024-02-01 23:00:00', '2024-02-01 22:30:00', '2024-02-01 22:00:00', '2024-02-01 21:30:00', '2024-02-01 21:00:00', '2024-02-01 20:30:00', '2024-02-01 20:00:00', '2024-02-01 19:30:00', '2024-02-01 19:00:00', '2024-02-01 18:30:00', '2024-02-01 18:00:00', '2024-02-01 17:30:00', '2024-02-01 17:00:00', '2024-02-01 16:30:00', '2024-02-01 16:00:00', '2024-02-01 15:30:00', '2024-02-01 15:00:00', '2024-02-01 14:30:00', '2024-02-01 14:00:00', '2024-02-01 13:30:00', '2024-02-01 13:00:00', '2024-02-01 12:30:00', '2024-02-01 12:00:00', '2024-02-01 11:30:00', '2024-02-01 11:00:00', '2024-02-01 10:30:00', '2024-02-01 10:00:00', '2024-02-01 09:30:00', '2024-02-01 09:00:00', '2024-02-01 08:30:00', '2024-02-01 08:00:00', '2024-02-01 07:30:00', '2024-02-01 07:00:00', '2024-02-01 06:30:00', '2024-02-01 06:00:00', '2024-02-01 05:30:00', '2024-02-01 05:00:00', '2024-02-01 04:30:00', '2024-02-01 04:00:00', '2024-02-01 03:30:00', '2024-02-01 03:00:00', '2024-02-01 02:30:00', '2024-02-01 02:00:00', '2024-02-01 01:30:00', '2024-02-01 01:00:00', '2024-02-01 00:30:00']"
Bulgaria, Sofia Airport (SOF/LBSF) ,"['LBSF 040000Z AUTO 34006KT 9999 FEW034/// BKN085/// 01/M02 Q1021 NOSIG', 'LBSF 032330Z AUTO 34004KT 320V030 9999 NCD 00/M03 Q1021 NOSIG', 'LBSF 032300Z AUTO VRB01KT 9999 NCD M00/M03 Q1021 NOSIG', 'LBSF 032230Z AUTO VRB02KT 9999 NCD M01/M03 Q1022 NOSIG', 'LBSF 032200Z AUTO VRB01KT 9999 NCD M01/M03 Q1022 NOSIG', 'LBSF 032130Z AUTO VRB01KT 9999 NCD M01/M03 Q1022 NOSIG', 'LBSF 032100Z AUTO 00000KT 9999 NCD M01/M03 Q1022 NOSIG', 'LBSF 032030Z AUTO 08003KT 040V100 9999 NCD 00/M03 Q1022 NOSIG', 'LBSF 032000Z AUTO 00000KT 9999 NCD 01/M02 Q1022 NOSIG', 'LBSF 031930Z AUTO VRB02KT 9999 NCD 03/M02 Q1022 NOSIG', 'LBSF 031900Z AUTO 32005KT 9999 NCD 04/M02 Q1022 NOSIG', 'LBSF 031830Z AUTO 31006KT 290V350 9999 NCD 04/M02 Q1021 NOSIG', 'LBSF 031800Z AUTO 30009KT 9999 NSC 05/M02 Q1021 NOSIG', 'LBSF 031730Z AUTO 32007KT 9999 NCD 05/M02 Q1021 NOSIG', 'LBSF 031700Z AUTO 29009KT 9999 NCD 07/M02 Q1021 NOSIG', 'LBSF 031630Z AUTO 28011KT 9999 NCD 08/M02 Q1021 NOSIG', 'LBSF 031600Z AUTO 28013KT 9999 NCD 08/M01 Q1020 NOSIG', 'LBSF 031530Z 28011KT CAVOK 08/M01 Q1020 NOSIG', 'LBSF 031500Z 27010KT 9999 SCT045 09/M02 Q1021 NOSIG', 'LBSF 031430Z 28009KT 250V310 9999 SCT043 09/M01 Q1021 NOSIG', 'LBSF 031400Z 35004KT 300V030 9999 SCT043 08/M01 Q1021 NOSIG', 'LBSF 031330Z 32007KT 290V360 9999 BKN055 08/M01 Q1021 NOSIG', 'LBSF 031300Z 32006KT 290V360 9999 OVC056 07/M02 Q1021 NOSIG', 'LBSF 031230Z 32006KT 280V350 9999 BKN058 07/M03 Q1021 NOSIG', 'LBSF 031200Z 30007KT 270V330 9999 SCT050 OVC057 07/M03 Q1022 NOSIG', 'LBSF 031130Z 29011KT 260V320 9999 FEW050 OVC062 06/M03 Q1023 NOSIG', 'LBSF 031100Z 29012KT 9999 OVC053 06/M04 Q1023 NOSIG', 'LBSF 031030Z 29011KT 9999 OVC046 06/M03 Q1023 NOSIG', 'LBSF 031000Z 29011KT 260V320 9999 BKN047 OVC053 06/M03 Q1024 NOSIG', 'LBSF 030930Z 29011KT 9999 BKN050 OVC067 05/M04 Q1024 NOSIG', 'LBSF 030900Z 28011KT 250V310 9999 OVC068 05/M05 Q1024 NOSIG', 'LBSF 030830Z 28014KT 9999 BKN057 04/M05 Q1024 NOSIG', 'LBSF 030800Z 31007KT 280V340 9999 BKN061 04/M02 Q1024 NOSIG', 'LBSF 030730Z 31007KT 9999 SCT034 02/M02 Q1025 NOSIG', 'LBSF 030700Z VRB02KT 9999 FEW033 00/M03 Q1024 NOSIG', 'LBSF 030630Z 00000KT 9999 SCT033 M01/M03 Q1024 NOSIG', 'LBSF 030600Z VRB02KT 9999 BKN033 M02/M04 Q1024 NOSIG', 'LBSF 030530Z 36004KT 9999 OVC033 M01/M03 Q1024 NOSIG', 'LBSF 030500Z VRB02KT 9999 BKN034 M02/M04 Q1024 NOSIG', 'LBSF 030430Z VRB01KT 9999 OVC035 M02/M04 Q1024 NOSIG', 'LBSF 030400Z AUTO VRB02KT 9999 OVC036/// M02/M04 Q1024 NOSIG', 'LBSF 030330Z AUTO 00000KT 9999 BKN037/// M03/M04 Q1024 NOSIG', 'LBSF 030300Z AUTO VRB02KT 9999 OVC039/// M03/M05 Q1025 NOSIG', 'LBSF 030230Z AUTO 10003KT 030V140 9999 FEW039/// M04/M06 Q1025 NOSIG', 'LBSF 030200Z AUTO 36003KT 9999 NCD M02/M04 Q1025 NOSIG', 'LBSF 030130Z AUTO 34003KT 300V010 9999 NCD M01/M04 Q1025 NOSIG', 'LBSF 030100Z AUTO 31004KT 270V350 9999 NCD M00/M04 Q1025 NOSIG', 'LBSF 030030Z AUTO 29006KT 9999 FEW050/// 01/M04 Q1026 NOSIG', 'LBSF 030000Z AUTO 28006KT 9999 NCD 01/M04 Q1026 NOSIG', 'LBSF 022330Z AUTO 28007KT 9999 NCD 01/M03 Q1026 NOSIG', 'LBSF 022300Z AUTO 28008KT 9999 NCD 01/M03 Q1026 NOSIG', 'LBSF 022230Z AUTO 27008KT 9999 FEW062/// 01/M03 Q1026 NOSIG', 'LBSF 022200Z AUTO 27009KT 9999 SCT060/// 01/M03 Q1026 NOSIG', 'LBSF 022130Z AUTO 27011KT 9999 BKN060/// 02/M03 Q1026 NOSIG', 'LBSF 022100Z AUTO 27008KT 9999 OVC060/// 03/M03 Q1026 NOSIG', 'LBSF 022030Z AUTO 27008KT 9999 FEW041/// OVC058/// 03/M03 Q1026 NOSIG', 'LBSF 022000Z AUTO 27008KT 9999 OVC059/// 03/M03 Q1027 NOSIG', 'LBSF 021930Z AUTO 27009KT 9999 FEW041/// OVC060/// 03/M03 Q1026 NOSIG', 'LBSF 021900Z AUTO 28009KT 9999 OVC061/// 03/M02 Q1026 NOSIG', 'LBSF 021830Z AUTO 27008KT 9999 FEW041/// OVC063/// 03/M02 Q1026 NOSIG', 'LBSF 021800Z AUTO 27008KT 9999 FEW041/// OVC061/// 03/M02 Q1026 NOSIG', 'LBSF 021730Z AUTO 27007KT 9999 OVC062/// 02/M01 Q1026 NOSIG', 'LBSF 021700Z AUTO 26006KT 9999 SCT042/// OVC064/// 02/M01 Q1026 NOSIG', 'LBSF 021630Z AUTO 26007KT 9999 FEW042/// OVC049/// 03/M01 Q1026 NOSIG', 'LBSF 021600Z AUTO 28006KT 9999 BKN038/// OVC050/// 03/M01 Q1025 NOSIG', 'LBSF 021530Z 27007KT 9999 OVC036 03/M01 Q1025 NOSIG', 'LBSF 021500Z 28008KT 9999 -RA OVC035 03/M01 Q1025 NOSIG', 'LBSF 021430Z 28008KT 9999 OVC033 03/M01 Q1025 NOSIG', 'LBSF 021400Z 28009KT 9999 -RA OVC033 04/M01 Q1025 TEMPO RA', 'LBSF 021330Z 28009KT 9999 -RA BKN035 OVC040 03/M01 Q1025 TEMPO RA', 'LBSF 021300Z 28009KT 9999 -RA OVC037 04/M01 Q1025 NOSIG', 'LBSF 021230Z 28012KT 9999 OVC040 04/M02 Q1025 NOSIG', 'LBSF 021200Z 28012KT 9999 OVC043 04/M02 Q1025 NOSIG', 'LBSF 021130Z 29014KT 9999 FEW030 OVC045 04/M02 Q1025 NOSIG', 'LBSF 021100Z 29014KT 9999 BKN032 OVC055 05/M02 Q1024 NOSIG', 'LBSF 021030Z 29015KT 9999 FEW033 BKN055 06/M02 Q1024 NOSIG', 'LBSF 021000Z 29015KT 9999 FEW032 BKN051 05/M02 Q1024 NOSIG', 'LBSF 020930Z 29015KT 9999 FEW029 SCT035 BKN052 05/M02 Q1025 NOSIG', 'LBSF 020900Z 27014KT 9999 FEW025 BKN043 05/M01 Q1024 NOSIG', 'LBSF 020830Z 28014KT 9999 FEW035 BKN040 04/M00 Q1024 NOSIG', 'LBSF 020800Z 27015KT 9999 SCT027 BKN031 03/M00 Q1024 NOSIG', 'LBSF 020730Z 27013KT 9999 FEW016 SCT023 BKN027 03/M00 Q1024 NOSIG', 'LBSF 020700Z 27016KT 9999 FEW015 BKN035 OVC040 03/M00 Q1024 NOSIG', 'LBSF 020630Z 28013KT 9999 OVC015 03/M00 Q1024 NOSIG', 'LBSF 020600Z 28014KT 9999 FEW017 BKN035 OVC045 03/M01 Q1023 NOSIG', 'LBSF 020530Z 28016KT 9999 FEW019 SCT041 OVC052 03/M01 Q1023 NOSIG', 'LBSF 020500Z 28019KT 9999 FEW020 OVC046 03/M01 Q1023 NOSIG', 'LBSF 020430Z 28017KT 9999 FEW025 BKN050 OVC076 04/M02 Q1022 NOSIG', 'LBSF 020400Z AUTO 30008KT 9999 OVC052/// 03/M05 Q1022 NOSIG', 'LBSF 020330Z AUTO 31008KT 9999 BKN053/// OVC074/// 04/M06 Q1022 NOSIG', 'LBSF 020300Z AUTO 28012KT 9999 SCT033/// BKN057/// OVC073/// 05/M06 Q1022 NOSIG', 'LBSF 020230Z AUTO 30006KT 9999 OVC074/// 04/M07 Q1022 NOSIG', 'LBSF 020200Z AUTO VRB02KT 9999 OVC071/// M02/M04 Q1022 NOSIG', 'LBSF 020130Z AUTO VRB02KT 9000 OVC076/// M01/M05 Q1022 NOSIG', 'LBSF 020100Z AUTO 06003KT 8000 FEW054/// BKN068/// M03/M05 Q1022 NOSIG', 'LBSF 020030Z AUTO VRB02KT 8000 BKN076/// M03/M06 Q1022 NOSIG', 'LBSF 020000Z AUTO VRB02KT 8000 NSC M02/M05 Q1022 NOSIG', 'LBSF 012330Z AUTO 22001KT 7000 SCT070/// M02/M06 Q1022 TEMPO 4000 BR', 'LBSF 012300Z AUTO 22003KT 8000 BKN072/// M02/M05 Q1022 NOSIG', 'LBSF 012230Z AUTO 19003KT 8000 FEW067/// M02/M05 Q1022 NOSIG', 'LBSF 012200Z AUTO 15003KT 050V190 8000 NSC M02/M05 Q1023 NOSIG', 'LBSF 012130Z AUTO 10004KT 8000 NSC M02/M05 Q1023 NOSIG', 'LBSF 012100Z AUTO 09004KT 8000 NSC M01/M05 Q1023 NOSIG', 'LBSF 012030Z AUTO 00000KT 9999 NCD M01/M05 Q1023 NOSIG', 'LBSF 012000Z AUTO 05004KT 9999 FEW012/// 01/M06 Q1023 NOSIG', 'LBSF 011930Z AUTO 10005KT 080V140 9000 FEW064/// M01/M06 Q1023 NOSIG', 'LBSF 011900Z AUTO 28003KT 9999 OVC064/// 01/M06 Q1023 NOSIG', 'LBSF 011830Z AUTO VRB01KT 9999 BKN064/// 01/M06 Q1023 NOSIG', 'LBSF 011800Z AUTO 36003KT 9999 NCD 02/M06 Q1023 NOSIG', 'LBSF 011730Z AUTO 28004KT 250V340 9999 NCD 02/M06 Q1023 NOSIG', 'LBSF 011700Z AUTO 25005KT 9999 NCD 03/M07 Q1023 NOSIG', 'LBSF 011630Z AUTO 26006KT 9999 NCD 04/M07 Q1022 NOSIG', 'LBSF 011600Z AUTO 26005KT 9999 NSC 06/M07 Q1022 NOSIG', 'LBSF 011530Z 29007KT CAVOK 08/M09 Q1022 NOSIG', 'LBSF 011500Z 29006KT 270V330 CAVOK 09/M08 Q1022 NOSIG', 'LBSF 011430Z 28008KT CAVOK 10/M10 Q1023 NOSIG', 'LBSF 011400Z VRB01KT CAVOK 11/M13 Q1023 NOSIG', 'LBSF 011330Z 14004KT 100V200 CAVOK 09/M08 Q1023 NOSIG', 'LBSF 011300Z VRB02KT CAVOK 08/M07 Q1023 NOSIG', 'LBSF 011230Z VRB02KT CAVOK 08/M07 Q1024 NOSIG', 'LBSF 011200Z VRB02KT CAVOK 07/M08 Q1024 NOSIG', 'LBSF 011130Z 35003KT 290V050 CAVOK 06/M07 Q1025 NOSIG', 'LBSF 011100Z VRB02KT CAVOK 04/M07 Q1025 NOSIG', 'LBSF 011030Z VRB01KT CAVOK 03/M07 Q1026 NOSIG', 'LBSF 011000Z VRB01KT CAVOK 02/M07 Q1027 NOSIG', 'LBSF 010930Z 00000KT CAVOK 01/M07 Q1027 NOSIG', 'LBSF 010900Z VRB02KT CAVOK M00/M07 Q1027 NOSIG', 'LBSF 010830Z VRB02KT CAVOK M02/M07 Q1027 NOSIG', 'LBSF 010800Z VRB03KT CAVOK M03/M08 Q1028 NOSIG', 'LBSF 010730Z 12003KT CAVOK M04/M08 Q1028 NOSIG', 'LBSF 010700Z 13003KT 8000 NSC M06/M09 Q1028 TEMPO 5000 BR', 'LBSF 010630Z 00000KT 8000 NSC M07/M08 Q1028 TEMPO 5000 BR', 'LBSF 010600Z 06002KT 8000 NSC M08/M10 Q1028 TEMPO 5000 BR', 'LBSF 010530Z 10002KT 8000 NSC M09/M10 Q1028 TEMPO 5000 BR', 'LBSF 010500Z 00000KT CAVOK M08/M09 Q1028 TEMPO 5000 BR', 'LBSF 010430Z 08004KT CAVOK M08/M10 Q1028 TEMPO 5000 BR', 'LBSF 010400Z AUTO 10003KT 9999 NCD M08/M09 Q1028 TEMPO 5000 BR', 'LBSF 010330Z AUTO 14003KT 9999 NCD M07/M09 Q1029 TEMPO 5000 BR', 'LBSF 010300Z AUTO 14002KT 9999 NCD M08/M09 Q1029 TEMPO 5000 BR', 'LBSF 010230Z AUTO 08002KT 9999 NCD M09/M10 Q1029 TEMPO 5000 BR', 'LBSF 010200Z AUTO 12002KT 9999 NCD M08/M09 Q1029 TEMPO 5000 BR', 'LBSF 010130Z AUTO 10002KT 9999 NCD M07/M09 Q1029 TEMPO 5000 BR', 'LBSF 010100Z AUTO VRB02KT 9999 NCD M06/M08 Q1029 TEMPO 5000 BR', 'LBSF 010030Z AUTO 12002KT 9000 NCD M06/M09 Q1029 TEMPO 5000 BR']","['2024-02-04 00:00:00', '2024-02-03 23:30:00', '2024-02-03 23:00:00', '2024-02-03 22:30:00', '2024-02-03 22:00:00', '2024-02-03 21:30:00', '2024-02-03 21:00:00', '2024-02-03 20:30:00', '2024-02-03 20:00:00', '2024-02-03 19:30:00', '2024-02-03 19:00:00', '2024-02-03 18:30:00', '2024-02-03 18:00:00', '2024-02-03 17:30:00', '2024-02-03 17:00:00', '2024-02-03 16:30:00', '2024-02-03 16:00:00', '2024-02-03 15:30:00', '2024-02-03 15:00:00', '2024-02-03 14:30:00', '2024-02-03 14:00:00', '2024-02-03 13:30:00', '2024-02-03 13:00:00', '2024-02-03 12:30:00', '2024-02-03 12:00:00', '2024-02-03 11:30:00', '2024-02-03 11:00:00', '2024-02-03 10:30:00', '2024-02-03 10:00:00', '2024-02-03 09:30:00', '2024-02-03 09:00:00', '2024-02-03 08:30:00', '2024-02-03 08:00:00', '2024-02-03 07:30:00', '2024-02-03 07:00:00', '2024-02-03 06:30:00', '2024-02-03 06:00:00', '2024-02-03 05:30:00', '2024-02-03 05:00:00', '2024-02-03 04:30:00', '2024-02-03 04:00:00', '2024-02-03 03:30:00', '2024-02-03 03:00:00', '2024-02-03 02:30:00', '2024-02-03 02:00:00', '2024-02-03 01:30:00', '2024-02-03 01:00:00', '2024-02-03 00:30:00', '2024-02-03 00:00:00', '2024-02-02 23:30:00', '2024-02-02 23:00:00', '2024-02-02 22:30:00', '2024-02-02 22:00:00', '2024-02-02 21:30:00', '2024-02-02 21:00:00', '2024-02-02 20:30:00', '2024-02-02 20:00:00', '2024-02-02 19:30:00', '2024-02-02 19:00:00', '2024-02-02 18:30:00', '2024-02-02 18:00:00', '2024-02-02 17:30:00', '2024-02-02 17:00:00', '2024-02-02 16:30:00', '2024-02-02 16:00:00', '2024-02-02 15:30:00', '2024-02-02 15:00:00', '2024-02-02 14:30:00', '2024-02-02 14:00:00', '2024-02-02 13:30:00', '2024-02-02 13:00:00', '2024-02-02 12:30:00', '2024-02-02 12:00:00', '2024-02-02 11:30:00', '2024-02-02 11:00:00', '2024-02-02 10:30:00', '2024-02-02 10:00:00', '2024-02-02 09:30:00', '2024-02-02 09:00:00', '2024-02-02 08:30:00', '2024-02-02 08:00:00', '2024-02-02 07:30:00', '2024-02-02 07:00:00', '2024-02-02 06:30:00', '2024-02-02 06:00:00', '2024-02-02 05:30:00', '2024-02-02 05:00:00', '2024-02-02 04:30:00', '2024-02-02 04:00:00', '2024-02-02 03:30:00', '2024-02-02 03:00:00', '2024-02-02 02:30:00', '2024-02-02 02:00:00', '2024-02-02 01:30:00', '2024-02-02 01:00:00', '2024-02-02 00:30:00', '2024-02-02 00:00:00', '2024-02-01 23:30:00', '2024-02-01 23:00:00', '2024-02-01 22:30:00', '2024-02-01 22:00:00', '2024-02-01 21:30:00', '2024-02-01 21:00:00', '2024-02-01 20:30:00', '2024-02-01 20:00:00', '2024-02-01 19:30:00', '2024-02-01 19:00:00', '2024-02-01 18:30:00', '2024-02-01 18:00:00', '2024-02-01 17:30:00', '2024-02-01 17:00:00', '2024-02-01 16:30:00', '2024-02-01 16:00:00', '2024-02-01 15:30:00', '2024-02-01 15:00:00', '2024-02-01 14:30:00', '2024-02-01 14:00:00', '2024-02-01 13:30:00', '2024-02-01 13:00:00', '2024-02-01 12:30:00', '2024-02-01 12:00:00', '2024-02-01 11:30:00', '2024-02-01 11:00:00', '2024-02-01 10:30:00', '2024-02-01 10:00:00', '2024-02-01 09:30:00', '2024-02-01 09:00:00', '2024-02-01 08:30:00', '2024-02-01 08:00:00', '2024-02-01 07:30:00', '2024-02-01 07:00:00', '2024-02-01 06:30:00', '2024-02-01 06:00:00', '2024-02-01 05:30:00', '2024-02-01 05:00:00', '2024-02-01 04:30:00', '2024-02-01 04:00:00', '2024-02-01 03:30:00', '2024-02-01 03:00:00', '2024-02-01 02:30:00', '2024-02-01 02:00:00', '2024-02-01 01:30:00', '2024-02-01 01:00:00', '2024-02-01 00:30:00']"
Bulgaria, Varna Airport (VAR/LBWN) ,"['LBWN 040000Z AUTO 28012KT 9999 NSC 05/01 Q1018 NOSIG', 'LBWN 032330Z AUTO 29011KT 9999 NSC 04/01 Q1018 NOSIG', 'LBWN 032300Z AUTO 28009KT 9999 NCD 04/01 Q1018 NOSIG', 'LBWN 032230Z AUTO 28006KT 9999 NCD 01/M01 Q1018 NOSIG', 'LBWN 032200Z AUTO VRB02KT 9999 NCD 01/M01 Q1018 NOSIG', 'LBWN 032130Z AUTO VRB01KT 9999 NCD 01/M01 Q1018 NOSIG', 'LBWN 032100Z AUTO 00000KT 9999 NCD 02/M01 Q1018 NOSIG', 'LBWN 032030Z AUTO VRB02KT 9999 NCD 02/M01 Q1018 NOSIG', 'LBWN 032000Z AUTO 29004KT 9999 NCD 03/M01 Q1018 NOSIG', 'LBWN 031930Z AUTO 29004KT 9999 NCD 04/M01 Q1018 NOSIG', 'LBWN 031900Z AUTO 31005KT 9999 NCD 03/M01 Q1018 NOSIG', 'LBWN 031830Z AUTO 32005KT 9999 NCD 04/M01 Q1018 NOSIG', 'LBWN 031800Z AUTO 00000KT 9999 NCD 04/M01 Q1018 NOSIG', 'LBWN 031730Z AUTO 31006KT 9999 NCD 04/M01 Q1018 NOSIG', 'LBWN 031700Z AUTO 31006KT 9999 NCD 05/M01 Q1018 NOSIG', 'LBWN 031630Z 31005KT CAVOK 05/M01 Q1018 NOSIG', 'LBWN 031600Z 31005KT CAVOK 06/M01 Q1018 NOSIG', 'LBWN 031530Z 27008KT CAVOK 07/M01 Q1018 NOSIG', 'LBWN 031500Z 27012KT CAVOK 09/M01 Q1018 NOSIG', 'LBWN 031430Z 27016KT CAVOK 10/M01 Q1018 NOSIG', 'LBWN 031400Z 27015KT CAVOK 10/M00 Q1018 NOSIG', 'LBWN 031330Z 28017KT 9999 FEW048 10/M01 Q1018 NOSIG', 'LBWN 031300Z 26016KT 230V290 9999 SCT047 10/M01 Q1019 NOSIG', 'LBWN 031230Z 26015KT 9999 SCT046 09/M02 Q1019 NOSIG', 'LBWN 031200Z 26018KT 9999 SCT046 10/M02 Q1019 NOSIG', 'LBWN 031130Z 27019KT 9999 SCT046 10/M02 Q1020 NOSIG', 'LBWN 031100Z 28018KT 9999 BKN044 09/M01 Q1020 NOSIG', 'LBWN 031030Z 26018KT 9999 BKN041 08/M01 Q1021 NOSIG', 'LBWN 031000Z 24016KT 9999 SCT037 09/M01 Q1021 NOSIG', 'LBWN 030930Z 24014KT 9999 SCT034 08/00 Q1022 NOSIG', 'LBWN 030900Z 25012KT 9999 FEW040 07/00 Q1023 NOSIG', 'LBWN 030830Z 24011KT CAVOK 06/00 Q1023 NOSIG', 'LBWN 030800Z 24007KT CAVOK 04/01 Q1023 NOSIG', 'LBWN 030730Z 28003KT 220V320 7000 NSC 03/01 Q1023 NOSIG', 'LBWN 030700Z VRB02KT 8000 NSC 01/M00 Q1023 NOSIG', 'LBWN 030630Z 35002KT 8000 NSC M01/M02 Q1023 NOSIG', 'LBWN 030600Z VRB02KT 6000 NSC M02/M02 Q1023 TEMPO 4000 BR', 'LBWN 030530Z VRB01KT 6000 NSC M02/M02 Q1023 TEMPO 4000 BR', 'LBWN 030500Z AUTO 00000KT 8000 NCD M01/M02 Q1023 TEMPO 5000 BR', 'LBWN 030430Z AUTO 00000KT 9999 NCD M02/M03 Q1024 NOSIG', 'LBWN 030400Z AUTO VRB02KT 9999 NCD M01/M03 Q1024 NOSIG', 'LBWN 030330Z AUTO VRB01KT 9999 NSC M01/M02 Q1024 NOSIG', 'LBWN 030300Z AUTO VRB01KT 9999 NCD M01/M03 Q1024 NOSIG', 'LBWN 030230Z AUTO 00000KT 9999 NCD M02/M03 Q1024 NOSIG', 'LBWN 030200Z AUTO VRB01KT 9999 NCD M01/M02 Q1024 NOSIG', 'LBWN 030130Z AUTO 00000KT 9999 NSC M00/M02 Q1024 NOSIG', 'LBWN 030100Z AUTO VRB02KT 9999 NCD M01/M02 Q1025 NOSIG', 'LBWN 030030Z AUTO 24004KT 9999 NCD M01/M03 Q1025 NOSIG', 'LBWN 030000Z AUTO VRB02KT 9999 NSC M00/M02 Q1025 NOSIG', 'LBWN 022330Z AUTO 25003KT 9999 NCD M01/M02 Q1025 NOSIG', 'LBWN 022300Z AUTO 00000KT 9999 NSC 00/M02 Q1025 NOSIG', 'LBWN 022230Z AUTO VRB01KT 9999 NCD 01/M02 Q1025 NOSIG', 'LBWN 022200Z AUTO 27003KT 240V350 9999 NSC 01/M02 Q1025 NOSIG', 'LBWN 022130Z AUTO VRB02KT 9999 NCD 01/M02 Q1026 NOSIG', 'LBWN 022100Z AUTO 25005KT 9999 NSC 02/M02 Q1026 NOSIG', 'LBWN 022030Z AUTO VRB01KT 9999 NSC 03/M01 Q1026 NOSIG', 'LBWN 022000Z AUTO 30003KT 270V350 9999 NSC 03/M02 Q1026 NOSIG', 'LBWN 021930Z AUTO 27004KT 230V360 9999 NSC 02/M02 Q1025 NOSIG', 'LBWN 021900Z AUTO 35003KT 250V030 9999 NSC 04/M01 Q1025 NOSIG', 'LBWN 021830Z AUTO 30007KT 9999 NSC 04/M01 Q1025 NOSIG', 'LBWN 021800Z AUTO 28008KT 9999 NSC 04/M01 Q1025 NOSIG', 'LBWN 021730Z AUTO 30007KT 270V330 9999 NSC 04/M01 Q1025 NOSIG', 'LBWN 021700Z AUTO 32007KT 9999 NSC 04/M01 Q1025 NOSIG', 'LBWN 021630Z 34006KT CAVOK 04/M00 Q1025 NOSIG', 'LBWN 021600Z 33007KT CAVOK 05/M01 Q1025 NOSIG', 'LBWN 021530Z 28004KT CAVOK 05/M01 Q1024 NOSIG', 'LBWN 021500Z 26004KT CAVOK 05/M00 Q1024 NOSIG', 'LBWN 021430Z VRB02KT CAVOK 05/M00 Q1024 NOSIG', 'LBWN 021400Z 25004KT 210V290 CAVOK 05/M01 Q1023 NOSIG', 'LBWN 021330Z 27004KT 240V300 CAVOK 05/M01 Q1023 NOSIG', 'LBWN 021300Z 27005KT 250V310 CAVOK 06/M01 Q1023 NOSIG', 'LBWN 021230Z 28005KT 250V310 CAVOK 06/M01 Q1023 NOSIG', 'LBWN 021200Z 30006KT CAVOK 06/M01 Q1023 NOSIG', 'LBWN 021130Z 28005KT 250V310 CAVOK 06/M01 Q1023 NOSIG', 'LBWN 021100Z 33005KT 310V020 CAVOK 06/M01 Q1023 NOSIG', 'LBWN 021030Z 28006KT CAVOK 06/M01 Q1023 NOSIG', 'LBWN 021000Z 30005KT 260V320 CAVOK 06/M01 Q1023 NOSIG', 'LBWN 020930Z VRB02KT CAVOK 06/M01 Q1023 NOSIG', 'LBWN 020900Z VRB02KT 9999 FEW049 05/M02 Q1023 NOSIG', 'LBWN 020830Z 27004KT 230V290 9999 FEW049 05/M02 Q1023 NOSIG', 'LBWN 020800Z 31006KT 300V360 CAVOK 05/M02 Q1023 NOSIG', 'LBWN 020730Z 28008KT CAVOK 05/M02 Q1022 NOSIG', 'LBWN 020700Z VRB06KT CAVOK 04/M02 Q1022 NOSIG', 'LBWN 020630Z 30007KT 230V020 CAVOK 04/M03 Q1022 NOSIG', 'LBWN 020600Z 26008KT CAVOK 04/M03 Q1021 NOSIG', 'LBWN 020530Z 27003KT 220V300 CAVOK 03/M03 Q1020 NOSIG', 'LBWN 020500Z AUTO 24003KT 190V290 9999 NSC 04/M04 Q1020 NOSIG', 'LBWN 020430Z AUTO VRB03KT 9999 NSC 03/M03 Q1020 NOSIG', 'LBWN 020400Z AUTO 26006KT 9999 NSC 03/M03 Q1020 NOSIG', 'LBWN 020330Z AUTO 27006KT 9999 NSC 03/M04 Q1019 NOSIG', 'LBWN 020300Z AUTO 28005KT 250V310 9999 NSC 01/M05 Q1020 NOSIG', 'LBWN 020230Z AUTO 27006KT 220V320 9999 NSC 02/M04 Q1019 NOSIG', 'LBWN 020200Z AUTO VRB02KT 9999 NCD M00/M04 Q1019 NOSIG', 'LBWN 020130Z AUTO 28004KT 250V320 9999 NSC M01/M04 Q1019 NOSIG', 'LBWN 020100Z AUTO VRB02KT 9999 NCD M02/M04 Q1019 NOSIG', 'LBWN 020030Z AUTO 24005KT 9999 NSC M01/M04 Q1020 NOSIG', 'LBWN 020000Z AUTO 23002KT 9999 NSC M02/M04 Q1020 NOSIG', 'LBWN 012330Z AUTO VRB02KT 9999 NCD M02/M04 Q1020 NOSIG', 'LBWN 012300Z AUTO VRB01KT 9999 NCD M01/M05 Q1020 NOSIG', 'LBWN 012230Z AUTO VRB01KT 9999 NCD M01/M04 Q1020 NOSIG', 'LBWN 012200Z AUTO VRB02KT 9999 NCD M01/M04 Q1020 NOSIG', 'LBWN 012130Z AUTO VRB02KT 9999 NCD M01/M04 Q1020 NOSIG', 'LBWN 012100Z AUTO 01003KT 9999 NCD M00/M04 Q1020 NOSIG', 'LBWN 012030Z AUTO 34003KT 9999 NCD 00/M04 Q1020 NOSIG', 'LBWN 012000Z AUTO 35003KT 9999 NCD M00/M04 Q1021 NOSIG', 'LBWN 011930Z AUTO 03003KT 9999 NCD 00/M04 Q1021 NOSIG', 'LBWN 011900Z AUTO 01004KT 9999 NCD M00/M04 Q1021 NOSIG', 'LBWN 011830Z AUTO 35003KT 310V020 9999 NCD 01/M04 Q1021 NOSIG', 'LBWN 011800Z AUTO 01004KT 9999 NCD 02/M04 Q1021 NOSIG', 'LBWN 011730Z AUTO 01005KT 9999 NCD 02/M04 Q1021 NOSIG', 'LBWN 011700Z AUTO 04003KT 9999 NCD 03/M04 Q1022 NOSIG', 'LBWN 011630Z 05004KT CAVOK 05/M03 Q1022 NOSIG', 'LBWN 011600Z 07005KT CAVOK 04/M02 Q1022 NOSIG', 'LBWN 011530Z 10006KT CAVOK 05/M02 Q1022 NOSIG', 'LBWN 011500Z 11005KT CAVOK 09/M03 Q1022 NOSIG', 'LBWN 011430Z 22005KT 190V250 CAVOK 10/M06 Q1022 BECMG 13010KT', 'LBWN 011400Z 23006KT 200V260 CAVOK 10/M06 Q1023 BECMG 13010KT', 'LBWN 011330Z 24006KT CAVOK 10/M06 Q1023 BECMG 13010KT', 'LBWN 011300Z 24006KT 210V270 CAVOK 10/M07 Q1023 BECMG 13010KT', 'LBWN 011230Z 26008KT 210V280 CAVOK 10/M11 Q1023 BECMG 13010KT', 'LBWN 011200Z 26006KT 220V290 CAVOK 09/M12 Q1024 BECMG 13010KT', 'LBWN 011130Z 25006KT 160V270 CAVOK 09/M09 Q1024 NOSIG', 'LBWN 011100Z 25005KT 180V280 CAVOK 09/M07 Q1025 NOSIG', 'LBWN 011030Z 23006KT 180V260 CAVOK 07/M04 Q1025 NOSIG', 'LBWN 011000Z 24006KT CAVOK 06/M03 Q1026 NOSIG', 'LBWN 010930Z 25006KT 210V320 CAVOK 04/M03 Q1027 NOSIG', 'LBWN 010900Z 26004KT 230V300 CAVOK 04/M02 Q1027 NOSIG', 'LBWN 010830Z 26003KT 220V300 CAVOK 02/M02 Q1027 NOSIG', 'LBWN 010800Z 30003KT 260V330 6000 NSC 01/M02 Q1028 BECMG 5000 BR', 'LBWN 010730Z VRB02KT 3000 BR NSC M01/M03 Q1028 BECMG 4000 BR', 'LBWN 010700Z 00000KT 3100 BR NSC M03/M04 Q1028 TEMPO 1500 BR', 'LBWN 010630Z VRB02KT 2900 BR NSC M04/M05 Q1028 TEMPO 1200 BR', 'LBWN 010600Z VRB02KT 4700 BR NSC M05/M06 Q1028 TEMPO 1200 BR', 'LBWN 010530Z 27003KT 2600 BR NSC M05/M06 Q1028 TEMPO 0800 FZFG', 'LBWN 010500Z AUTO 30003KT 6000 NCD M06/M07 Q1029 TEMPO 1200 BR', 'LBWN 010430Z AUTO 27002KT 4400 BR NCD M05/M05 Q1029 TEMPO 1200 BR', 'LBWN 010400Z AUTO 29002KT 2900 BR NCD M04/M05 Q1029 TEMPO 0800 BCFG', 'LBWN 010330Z AUTO 00000KT 5000 BR NCD M04/M05 Q1029 TEMPO 2000 BR', 'LBWN 010300Z AUTO 29002KT 4800 BR NCD M04/M04 Q1029 NOSIG', 'LBWN 010230Z AUTO 26002KT 9999 NCD M04/M04 Q1029 NOSIG', 'LBWN 010200Z AUTO VRB02KT 9999 NCD M04/M05 Q1029 NOSIG', 'LBWN 010130Z AUTO VRB02KT 8000 NCD M04/M05 Q1030 NOSIG', 'LBWN 010100Z AUTO 28003KT 9999 NCD M04/M05 Q1030 NOSIG', 'LBWN 010030Z AUTO 30002KT 9999 NCD M04/M05 Q1030 NOSIG']","['2024-02-04 00:00:00', '2024-02-03 23:30:00', '2024-02-03 23:00:00', '2024-02-03 22:30:00', '2024-02-03 22:00:00', '2024-02-03 21:30:00', '2024-02-03 21:00:00', '2024-02-03 20:30:00', '2024-02-03 20:00:00', '2024-02-03 19:30:00', '2024-02-03 19:00:00', '2024-02-03 18:30:00', '2024-02-03 18:00:00', '2024-02-03 17:30:00', '2024-02-03 17:00:00', '2024-02-03 16:30:00', '2024-02-03 16:00:00', '2024-02-03 15:30:00', '2024-02-03 15:00:00', '2024-02-03 14:30:00', '2024-02-03 14:00:00', '2024-02-03 13:30:00', '2024-02-03 13:00:00', '2024-02-03 12:30:00', '2024-02-03 12:00:00', '2024-02-03 11:30:00', '2024-02-03 11:00:00', '2024-02-03 10:30:00', '2024-02-03 10:00:00', '2024-02-03 09:30:00', '2024-02-03 09:00:00', '2024-02-03 08:30:00', '2024-02-03 08:00:00', '2024-02-03 07:30:00', '2024-02-03 07:00:00', '2024-02-03 06:30:00', '2024-02-03 06:00:00', '2024-02-03 05:30:00', '2024-02-03 05:00:00', '2024-02-03 04:30:00', '2024-02-03 04:00:00', '2024-02-03 03:30:00', '2024-02-03 03:00:00', '2024-02-03 02:30:00', '2024-02-03 02:00:00', '2024-02-03 01:30:00', '2024-02-03 01:00:00', '2024-02-03 00:30:00', '2024-02-03 00:00:00', '2024-02-02 23:30:00', '2024-02-02 23:00:00', '2024-02-02 22:30:00', '2024-02-02 22:00:00', '2024-02-02 21:30:00', '2024-02-02 21:00:00', '2024-02-02 20:30:00', '2024-02-02 20:00:00', '2024-02-02 19:30:00', '2024-02-02 19:00:00', '2024-02-02 18:30:00', '2024-02-02 18:00:00', '2024-02-02 17:30:00', '2024-02-02 17:00:00', '2024-02-02 16:30:00', '2024-02-02 16:00:00', '2024-02-02 15:30:00', '2024-02-02 15:00:00', '2024-02-02 14:30:00', '2024-02-02 14:00:00', '2024-02-02 13:30:00', '2024-02-02 13:00:00', '2024-02-02 12:30:00', '2024-02-02 12:00:00', '2024-02-02 11:30:00', '2024-02-02 11:00:00', '2024-02-02 10:30:00', '2024-02-02 10:00:00', '2024-02-02 09:30:00', '2024-02-02 09:00:00', '2024-02-02 08:30:00', '2024-02-02 08:00:00', '2024-02-02 07:30:00', '2024-02-02 07:00:00', '2024-02-02 06:30:00', '2024-02-02 06:00:00', '2024-02-02 05:30:00', '2024-02-02 05:00:00', '2024-02-02 04:30:00', '2024-02-02 04:00:00', '2024-02-02 03:30:00', '2024-02-02 03:00:00', '2024-02-02 02:30:00', '2024-02-02 02:00:00', '2024-02-02 01:30:00', '2024-02-02 01:00:00', '2024-02-02 00:30:00', '2024-02-02 00:00:00', '2024-02-01 23:30:00', '2024-02-01 23:00:00', '2024-02-01 22:30:00', '2024-02-01 22:00:00', '2024-02-01 21:30:00', '2024-02-01 21:00:00', '2024-02-01 20:30:00', '2024-02-01 20:00:00', '2024-02-01 19:30:00', '2024-02-01 19:00:00', '2024-02-01 18:30:00', '2024-02-01 18:00:00', '2024-02-01 17:30:00', '2024-02-01 17:00:00', '2024-02-01 16:30:00', '2024-02-01 16:00:00', '2024-02-01 15:30:00', '2024-02-01 15:00:00', '2024-02-01 14:30:00', '2024-02-01 14:00:00', '2024-02-01 13:30:00', '2024-02-01 13:00:00', '2024-02-01 12:30:00', '2024-02-01 12:00:00', '2024-02-01 11:30:00', '2024-02-01 11:00:00', '2024-02-01 10:30:00', '2024-02-01 10:00:00', '2024-02-01 09:30:00', '2024-02-01 09:00:00', '2024-02-01 08:30:00', '2024-02-01 08:00:00', '2024-02-01 07:30:00', '2024-02-01 07:00:00', '2024-02-01 06:30:00', '2024-02-01 06:00:00', '2024-02-01 05:30:00', '2024-02-01 05:00:00', '2024-02-01 04:30:00', '2024-02-01 04:00:00', '2024-02-01 03:30:00', '2024-02-01 03:00:00', '2024-02-01 02:30:00', '2024-02-01 02:00:00', '2024-02-01 01:30:00', '2024-02-01 01:00:00', '2024-02-01 00:30:00']"
Burkina-faso, Ouagadougou Airport (OUA/DFFD) ,"['DFFD 032300Z 04008KT 8000 NSC 24/M03 Q1016 NOSIG', 'DFFD 032200Z 04009KT 4000 DU NSC 25/M03 Q1016 BECMG 6000 NSW', 'DFFD 032100Z 03008KT 4000 DU NSC 25/M01 Q1015 BECMG 6000 NSW', 'DFFD 032000Z 04007KT 4000 DU NSC 26/M01 Q1015 NOSIG', 'DFFD 031900Z 03007KT 4000 DU NSC 27/M01 Q1014 NOSIG', 'DFFD 031800Z 04010KT 4000 DU NSC 29/M02 Q1013 NOSIG', 'DFFD 031700Z 02009KT 350V060 4000 DU NSC 31/M01 Q1012 NOSIG', 'DFFD 031600Z 03010KT 4000 DU NSC 32/M01 Q1012 NOSIG', 'DFFD 031500Z 06009KT 360V110 4000 DU NSC 31/M01 Q1012 NOSIG', 'DFFD 031400Z 06011KT 030V090 4000 DU NSC 31/M01 Q1013 NOSIG', 'DFFD 031300Z 06011KT 010V130 6000 NSC 30/00 Q1014 NOSIG', 'DFFD 031200Z 10011KT 6000 NSC 29/00 Q1015 NOSIG', 'DFFD 031100Z 09012KT 060V120 6000 NSC 27/00 Q1016 NOSIG', 'DFFD 031000Z 08013KT 050V110 4000 DU NSC 26/00 Q1016 BECMG 6000 NSW', 'DFFD 030900Z 04011KT 020V080 4000 DU NSC 24/01 Q1016 NOSIG', 'DFFD 030800Z 04007KT 6000 NSC 22/01 Q1015 TEMPO 4000 DU', 'DFFD 030700Z 06006KT 6000 NSC 21/00 Q1015 TEMPO 4000 DU', 'DFFD 030600Z 06006KT 8000 NSC 20/00 Q1014 TEMPO 4000 DU', 'DFFD 030400Z 05005KT CAVOK 21/00 Q1013 NOSIG', 'DFFD 030300Z 06009KT CAVOK 23/M01 Q1013 NOSIG', 'DFFD 030200Z 05008KT CAVOK 24/M01 Q1014 NOSIG', 'DFFD 030100Z 05010KT CAVOK 24/M01 Q1015 NOSIG', 'DFFD 030000Z 04008KT CAVOK 24/00 Q1015 NOSIG', 'DFFD 022300Z 02007KT 8000 NSC 24/00 Q1016 NOSIG', 'DFFD 022200Z 03007KT 8000 NSC 25/M01 Q1016 NOSIG', 'DFFD 022100Z 04006KT 6000 NSC 26/04 Q1016 NOSIG', 'DFFD 021900Z 02008KT 4000 DU NSC 29/01 Q1014 NOSIG', 'DFFD 021800Z 02008KT 4000 DU NSC 30/00 Q1013 NOSIG', 'DFFD 021700Z 02010KT 3500 DU NSC 32/M01 Q1013 NOSIG', 'DFFD 021600Z 02011KT 3500 DU NSC 32/00 Q1013 NOSIG', 'DFFD 021500Z 06012KT 3500 DU NSC 32/00 Q1013 NOSIG', 'DFFD 021400Z 06011KT 3500 DU NSC 31/01 Q1014 NOSIG', 'DFFD 021300Z 07011KT 020V100 3500 DU NSC 31/01 Q1015 NOSIG', 'DFFD 021200Z 09012KT 030V110 3500 DU NSC 31/01 Q1016 NOSIG', 'DFFD 021100Z 08014KT 040V110 3500 DU NSC 29/02 Q1017 NOSIG', 'DFFD 021000Z 08015KT 3500 DU NSC 27/01 Q1018 NOSIG', 'DFFD 020800Z 06010KT 4000 DU NSC 23/01 Q1017 NOSIG', 'DFFD 020700Z 04006KT 6000 NSC 20/02 Q1017 TEMPO 4000 DU', 'DFFD 020600Z 05005KT 6000 NSC 20/02 Q1017 TEMPO 2500 DU', 'DFFD 020500Z 04004KT 8000 NSC 20/03 Q1016 TEMPO 2500 DU', 'DFFD 020400Z 06003KT 8000 NSC 21/02 Q1016 NOSIG', 'DFFD 020300Z 05006KT 8000 NSC 23/02 Q1016 NOSIG', 'DFFD 020200Z 05008KT 8000 NSC 24/01 Q1017 NOSIG', 'DFFD 020100Z 04006KT 8000 NSC 23/03 Q1017 NOSIG', 'DFFD 020000Z 03007KT 8000 NSC 24/04 Q1017 NOSIG', 'DFFD 012300Z 03004KT 8000 NSC 23/04 Q1018 NOSIG', 'DFFD 012200Z 04005KT 8000 NSC 24/04 Q1017 NOSIG', 'DFFD 012100Z 02005KT 6000 NSC 25/03 Q1017 NOSIG', 'DFFD 012000Z 03006KT 6000 NSC 26/04 Q1016 NOSIG', 'DFFD 011900Z 03006KT 4000 DU NSC 27/04 Q1015 BECMG 6000 NSW', 'DFFD 011800Z 02007KT 3500 DU NSC 30/03 Q1015 NOSIG', 'DFFD 011700Z 01009KT 4000 DU NSC 32/03 Q1014 NOSIG', 'DFFD 011600Z 03009KT 360V080 4000 DU NSC 32/03 Q1014 NOSIG', 'DFFD 011500Z 04010KT 010V080 4000 DU NSC 33/04 Q1014 NOSIG', 'DFFD 011400Z 04009KT 4000 DU NSC 32/03 Q1015 NOSIG', 'DFFD 011300Z 05010KT 020V090 4000 DU NSC 32/04 Q1016 NOSIG', 'DFFD 011200Z 04011KT 020V080 4000 DU NSC 30/03 Q1017 NOSIG', 'DFFD 011100Z 05012KT 4000 DU NSC 29/04 Q1018 NOSIG', 'DFFD 011000Z 04012KT 3500 DU NSC 27/03 Q1019 NOSIG', 'DFFD 010900Z 04011KT 3500 DU NSC 25/03 Q1019 NOSIG', 'DFFD 010800Z 04008KT 2500 DU NSC 23/03 Q1018 NOSIG', 'DFFD 010700Z 05005KT 4000 DU NSC 20/04 Q1017 TEMPO 2500', 'DFFD 010600Z 04004KT 6000 NSC 20/03 Q1017 NOSIG', 'DFFD 010400Z 05005KT 6000 NSC 21/02 Q1016 NOSIG', 'DFFD 010300Z 05006KT 6000 NSC 22/02 Q1016 NOSIG', 'DFFD 010200Z 06006KT 6000 NSC 24/02 Q1016 NOSIG']","['2024-02-03 23:00:00', '2024-02-03 22:00:00', '2024-02-03 21:00:00', '2024-02-03 20:00:00', '2024-02-03 19:00:00', '2024-02-03 18:00:00', '2024-02-03 17:00:00', '2024-02-03 16:00:00', '2024-02-03 15:00:00', '2024-02-03 14:00:00', '2024-02-03 13:00:00', '2024-02-03 12:00:00', '2024-02-03 11:00:00', '2024-02-03 10:00:00', '2024-02-03 09:00:00', '2024-02-03 08:00:00', '2024-02-03 07:00:00', '2024-02-03 06:00:00', '2024-02-03 04:00:00', '2024-02-03 03:00:00', '2024-02-03 02:00:00', '2024-02-03 01:00:00', '2024-02-03 00:00:00', '2024-02-02 23:00:00', '2024-02-02 22:00:00', '2024-02-02 21:00:00', '2024-02-02 19:00:00', '2024-02-02 18:00:00', '2024-02-02 17:00:00', '2024-02-02 16:00:00', '2024-02-02 15:00:00', '2024-02-02 14:00:00', '2024-02-02 13:00:00', '2024-02-02 12:00:00', '2024-02-02 11:00:00', '2024-02-02 10:00:00', '2024-02-02 08:00:00', '2024-02-02 07:00:00', '2024-02-02 06:00:00', '2024-02-02 05:00:00', '2024-02-02 04:00:00', '2024-02-02 03:00:00', '2024-02-02 02:00:00', '2024-02-02 01:00:00', '2024-02-02 00:00:00', '2024-02-01 23:00:00', '2024-02-01 22:00:00', '2024-02-01 21:00:00', '2024-02-01 20:00:00', '2024-02-01 19:00:00', '2024-02-01 18:00:00', '2024-02-01 17:00:00', '2024-02-01 16:00:00', '2024-02-01 15:00:00', '2024-02-01 14:00:00', '2024-02-01 13:00:00', '2024-02-01 12:00:00', '2024-02-01 11:00:00', '2024-02-01 10:00:00', '2024-02-01 09:00:00', '2024-02-01 08:00:00', '2024-02-01 07:00:00', '2024-02-01 06:00:00', '2024-02-01 04:00:00', '2024-02-01 03:00:00', '2024-02-01 02:00:00']"
Burundi, Bujumbura International Airport (BJM/HBBA) ,"['HBBA 032000Z 36006KT 9999 SCT025 BKN100 23/22 Q1016 NOSIG', 'HBBA 031900Z 36005KT 9999 SCT025 BKN100 23/21 Q1015 NOSIG', 'HBBA 031700Z 06004KT 9999 SCT025 BKN100 23/21 Q1013 NOSIG', 'HBBA 031500Z 18002KT 9000 FEW030 BKN10024/21 Q1012 NOSIG', 'HBBA 031300Z 18008KT 9000 TS FEW025 FEW030CB30/20 Q1011', 'HBBA 031200Z 19004KT 9999 FEW025TCU31/20 Q1011 NOSIG', 'HBBA 031000Z 18004KT 9999 FEW020TCU BKN100 30/20 Q1014 NOSIG', 'HBBA 030800Z 09002KT 9999 FEW020TCU BKN100 27/20 Q1016 NOSIG', 'HBBA 030700Z 09002KT 9999 FEW20 BKN100 26/21 Q1016 NOSIG', 'HBBA 030600Z 09002KT 9999 FEW020 BKN100 23/21 Q1017 NOSIG', 'HBBA 030500Z 00000KT 9999 FEW025 BKN100 23/20 Q1016 NOSIG', 'HBBA 030400Z 00000KT 9000 FEW025 BKN100 22/20 Q1015 NOSIG', 'HBBA 021800Z 09002KT 9999 FEW030 25/20 Q1013 NOSIG', 'HBBA 021400Z 18010KT 9999 SCT030 30/18 Q1012', 'HBBA 021300Z 18004KT 9999 SCT030 30/17 Q1013', 'HBBA 021000Z 18002KT 9999 FEW030TCU 29/19 Q1017 NOSIG', 'HBBA 020800Z 27008KT 9999 SCT030TCU 29/19 Q1017 NOSIG', 'HBBA 020700Z 18002KT 9999 FEW030 26/20 Q1019 NOSIG', 'HBBA 020600Z 09002KT 9000 SCT025 24/20 Q1019 NOSIG', 'HBBA 020500Z 00000KT 9999 SCT025 BKN100 22/20 Q1018 NOSIG', 'HBBA 020400Z 36002KT 9999 SCT025 BKN100 22/19 Q1018 NOSIG', 'HBBA 020300Z 04002KT 9999 SCT025 OVC090 22/20 Q1018 NOSIG', 'HBBA 012000Z 00000KT 9999 FEW030 SCT100 22/21 Q1018 NOSIG', 'HBBA 011800Z 09002KT 9999 FEW030 BKN100 22/20 Q1017 NOSIG', 'HBBA 011700Z 00000KT 9999 FEW030 OVC100 23/20 Q1016 NOSIG', 'HBBA 011600Z 09004KT 9000 FEW030 OVC100 23/21 Q1016 NOSIG', 'HBBA 011500Z 09005KT 9000 SCT020 BKN100 24/20 Q1015', 'HBBA 011400Z 27006KT 7000 SCT020 BKN100 24/19 Q1015', 'HBBA 011200Z 16004KT 9999 TS FEW025 FEW030CB BKN100 29/19 Q1016', 'HBBA 011100Z 18002KT 9999 FEW025TCU SCT100 30/21 Q1016 NOSIG', 'HBBA 011000Z 18004KT 9999 FEW025TCU SCT100 30/20 Q1017 NOSIG', 'HBBA 010900Z 18002KT 9999 FEW025TCU BKN100 28/21 Q1018 NOSIG', 'HBBA 010800Z 18002KT 9000 FEW020 BKN100 25/21 Q1019 NOSIG', 'HBBA 010700Z 09002KT 9999 FEW025 BKN100 25/20 Q1019 NISIG', 'HBBA 010600Z 09002KT 9000SCT BKN100 23/21 Q1018 NOSIG', 'HBBA 010500Z 00000KT 9000 SCT025 BKN10022/20 Q1017 NOSIG', 'HBBA 010400Z 36002KT 9000 SCT025 BKN10021/20 Q1017 NOSIG', 'HBBA 010300Z 36004KT CAVOK 21/20 Q1017 NOSING']","['2024-02-03 20:00:00', '2024-02-03 19:00:00', '2024-02-03 17:00:00', '2024-02-03 15:00:00', '2024-02-03 13:00:00', '2024-02-03 12:00:00', '2024-02-03 10:00:00', '2024-02-03 08:00:00', '2024-02-03 07:00:00', '2024-02-03 06:00:00', '2024-02-03 05:00:00', '2024-02-03 04:00:00', '2024-02-02 18:00:00', '2024-02-02 14:00:00', '2024-02-02 13:00:00', '2024-02-02 10:00:00', '2024-02-02 08:00:00', '2024-02-02 07:00:00', '2024-02-02 06:00:00', '2024-02-02 05:00:00', '2024-02-02 04:00:00', '2024-02-02 03:00:00', '2024-02-01 20:00:00', '2024-02-01 18:00:00', '2024-02-01 17:00:00', '2024-02-01 16:00:00', '2024-02-01 15:00:00', '2024-02-01 14:00:00', '2024-02-01 12:00:00', '2024-02-01 11:00:00', '2024-02-01 10:00:00', '2024-02-01 09:00:00', '2024-02-01 08:00:00', '2024-02-01 07:00:00', '2024-02-01 06:00:00', '2024-02-01 05:00:00', '2024-02-01 04:00:00', '2024-02-01 03:00:00']"
Cambodia, Phnom Penh International Airport (PNH/VDPP) ,"['VDPP 032330Z 16006KT 9000 FEW017 26/23 Q1013', 'VDPP 032300Z 17007KT 9000 FEW017 26/23 Q1013', 'VDPP 032230Z 16005KT 9000 FEW017 26/23 Q1013', 'VDPP 032200Z 16006KT 9000 FEW017 26/24 Q1013', 'VDPP 032130Z 16007KT 9000 FEW017 26/24 Q1012', 'VDPP 032100Z 16006KT 9000 FEW017 26/24 Q1012', 'VDPP 032030Z 15006KT 9000 FEW017 26/24 Q1012', 'VDPP 032000Z 16007KT 9000 FEW017 26/25 Q1012', 'VDPP 031930Z 16008KT 9000 FEW017 26/25 Q1012', 'VDPP 031900Z 16007KT 9000 FEW017 26/25 Q1013', 'VDPP 031830Z 15007KT 9000 FEW017 26/25 Q1013', 'VDPP 031800Z 18005KT 9000 NSC 26/25 Q1013', 'VDPP 031730Z 19005KT 9000 NSC 27/25 Q1013', 'VDPP 031700Z 18005KT 9000 NSC 27/25 Q1013', 'VDPP 031630Z 19007KT 9000 NSC 27/25 Q1013', 'VDPP 031600Z 18005KT 9000 NSC 27/25 Q1013', 'VDPP 031530Z 19005KT 9000 NSC 28/24 Q1012', 'VDPP 031500Z 18005KT 9000 NSC 28/24 Q1012', 'VDPP 031430Z 18005KT 9000 NSC 28/24 Q1012', 'VDPP 031400Z 17003KT 9000 NSC 28/24 Q1012', 'VDPP 031330Z 17004KT 9000 NSC 29/24 Q1012', 'VDPP 031300Z 15004KT 9000 NSC 29/24 Q1011', 'VDPP 031230Z 15005KT 9000 NSC 30/24 Q1011', 'VDPP 031200Z 14006KT 9000 NSC 30/24 Q1011', 'VDPP 031130Z 16006KT 9000 FEW017 30/23 Q1010', 'VDPP 031100Z 16007KT 9999 FEW017 31/23 Q1010', 'VDPP 031030Z 16007KT 130V200 9999 FEW017 32/22 Q1010', 'VDPP 031000Z 16004KT 110V200 9999 FEW017 33/22 Q1010', 'VDPP 030930Z 15004KT 120V200 9999 FEW017 34/22 Q1010', 'VDPP 030900Z 19004KT 130V240 9999 FEW017 34/22 Q1010', 'VDPP 030830Z 18005KT 090V220 9999 SCT017 34/22 Q1010', 'VDPP 030800Z 15004KT 130V190 9999 SCT017 33/21 Q1010', 'VDPP 030730Z VRB03KT 9999 SCT017 33/22 Q1010', 'VDPP 030700Z VRB05KT 9999 SCT017 33/22 Q1011', 'VDPP 030630Z VRB03KT 9999 SCT017 33/23 Q1011', 'VDPP 030600Z VRB03KT 9999 SCT017 33/23 Q1012', 'VDPP 030530Z VRB03KT 9999 SCT017 32/23 Q1013', 'VDPP 030500Z 22005KT 130V240 9999 SCT017 31/23 Q1013', 'VDPP 030430Z 13004KT 100V220 9999 SCT017 32/23 Q1014', 'VDPP 030400Z 18005KT 100V210 9999 SCT017 30/23 Q1015', 'VDPP 030330Z 18007KT 150V210 9999 SCT017 29/23 Q1015', 'VDPP 030300Z 17007KT 140V200 9999 SCT017 29/24 Q1015', 'VDPP 030230Z 16008KT 9999 FEW017 29/24 Q1015', 'VDPP 030200Z 17007KT 9999 FEW017 28/24 Q1015', 'VDPP 030130Z 18007KT 9999 FEW017 27/24 Q1015', 'VDPP 030100Z 17007KT 9999 FEW017 27/24 Q1014', 'VDPP 030030Z 16005KT 9999 FEW017 26/24 Q1014', 'VDPP 030000Z 16005KT 9999 FEW017 25/24 Q1014', 'VDPP 022330Z 16006KT 130V190 9999 FEW017 25/24 Q1013', 'VDPP 022300Z 16005KT 9999 FEW017 25/24 Q1013', 'VDPP 022230Z 15006KT 9999 FEW017 25/24 Q1013', 'VDPP 022200Z 15007KT 9000 NSC 26/24 Q1013', 'VDPP 022130Z 15008KT 9000 NSC 26/23 Q1012', 'VDPP 022100Z 15006KT 9000 NSC 26/23 Q1012', 'VDPP 022030Z 16008KT 9000 NSC 26/25 Q1012', 'VDPP 022000Z 16006KT 9000 NSC 27/25 Q1012', 'VDPP 021930Z 16006KT 9000 NSC 27/25 Q1012', 'VDPP 021900Z 15005KT 9000 NSC 27/25 Q1012', 'VDPP 021800Z 18004KT 9000 NSC 26/25 Q1012', 'VDPP 021730Z 18003KT 9000 NSC 27/25 Q1013', 'VDPP 021700Z 19004KT 9000 NSC 27/25 Q1012', 'VDPP 021630Z 18004KT 9000 NSC 27/25 Q1012', 'VDPP 021600Z 18005KT 9000 NSC 27/25 Q1012', 'VDPP 021530Z 18005KT 9000 NSC 28/25 Q1012', 'VDPP 021500Z 19005KT 9000 NSC 28/25 Q1012', 'VDPP 021430Z 19004KT 9000 NSC 28/25 Q1012', 'VDPP 021400Z 16005KT 9000 NSC 29/25 Q1012', 'VDPP 021330Z 16005KT 9000 NSC 29/25 Q1012', 'VDPP 021300Z VRB03KT 9000 NSC 29/25 Q1012', 'VDPP 021230Z 16004KT 130V210 9000 NSC 30/25 Q1011', 'VDPP 021200Z 14003KT 9000 NSC 30/24 Q1011', 'VDPP 021130Z 13004KT 9000 NSC 31/24 Q1010', 'VDPP 021100Z 13004KT CAVOK 31/23 Q1010', 'VDPP 021030Z 12004KT 090V170 CAVOK 33/23 Q1010', 'VDPP 021000Z 13005KT 090V160 9999 FEW017 34/23 Q1010', 'VDPP 020930Z 12004KT 090V160 9999 FEW017 34/23 Q1010', 'VDPP 020900Z 10006G17KT 060V130 9999 SCT017 33/23 Q1010', 'VDPP 020830Z 13005KT 090V170 9999 SCT017 35/23 Q1010', 'VDPP 020800Z VRB03KT 9999 SCT017 34/23 Q1010', 'VDPP 020730Z VRB02KT 9999 SCT017 35/22 Q1010', 'VDPP 020700Z VRB01KT 9999 SCT017 34/23 Q1011', 'VDPP 020630Z VRB03KT 9999 SCT017 34/23 Q1011', 'VDPP 020600Z 18005KT 130V270 9999 SCT017 33/24 Q1012', 'VDPP 020530Z VRB02KT 9999 SCT017 32/24 Q1013', 'VDPP 020500Z 18004KT 100V240 9999 SCT017 30/24 Q1013', 'VDPP 020430Z VRB03KT 9999 SCT017 31/24 Q1014', 'VDPP 020400Z 20006KT 150V270 9999 SCT017 30/24 Q1014', 'VDPP 020330Z 19005KT 130V250 9999 SCT017 29/24 Q1015', 'VDPP 020300Z 19006KT 100V220 9999 SCT017 28/24 Q1015', 'VDPP 020230Z 17005KT 140V220 9999 FEW017 28/24 Q1015', 'VDPP 020200Z 16006KT 140V200 9999 FEW017 27/24 Q1014', 'VDPP 020130Z 17005KT 140V270 9999 FEW017 27/24 Q1014', 'VDPP 020100Z 16006KT 9000 NSC 27/25 Q1014', 'VDPP 020030Z 18006KT 9000 NSC 26/24 Q1013', 'VDPP 020000Z 18004KT 130V230 9000 NSC 25/25 Q1013', 'VDPP 012330Z 16006KT 9999 FEW017 25/24 Q1013', 'VDPP 012300Z 16005KT 130V190 9999 FEW017 25/24 Q1013', 'VDPP 012230Z 15005KT 9999 FEW017 25/25 Q1012', 'VDPP 012200Z 15006KT 9999 FEW017 26/24 Q1012', 'VDPP 012130Z 15004KT 9999 FEW017 26/24 Q1012', 'VDPP 012030Z 15003KT 9999 FEW017 26/24 Q1012', 'VDPP 011930Z 15002KT 9999 FEW017 26/24 Q1012', 'VDPP 011900Z 15003KT 9999 FEW017 26/24 Q1012', 'VDPP 011830Z 19001KT 9999 FEW017 27/24 Q1012', 'VDPP 011800Z VRB03KT 9999 FEW017 27/24 Q1012', 'VDPP 011730Z VRB03KT 9999 FEW017 27/24 Q1013', 'VDPP 011700Z 21004KT 9999 FEW017 27/24 Q1013', 'VDPP 011630Z 21005KT 9999 FEW017 27/24 Q1013', 'VDPP 011600Z 21006KT 9999 FEW017 27/24 Q1013', 'VDPP 011530Z 20005KT 9999 FEW017 28/24 Q1013', 'VDPP 011500Z 19006KT 9999 FEW017 28/24 Q1013', 'VDPP 011430Z 16005KT 9999 FEW017 28/24 Q1013', 'VDPP 011400Z 16005KT 9999 FEW017 28/24 Q1013', 'VDPP 011330Z 16005KT 9999 FEW017 29/24 Q1013', 'VDPP 011300Z 16006KT 9999 FEW017 29/24 Q1012', 'VDPP 011230Z 16004KT 9999 FEW017 29/24 Q1012', 'VDPP 011200Z 16004KT 9999 FEW017 30/23 Q1012', 'VDPP 011130Z 14005KT 9999 FEW017 31/23 Q1012', 'VDPP 011100Z 16006KT 130V240 9999 FEW017 33/22 Q1011', 'VDPP 011030Z VRB06KT 9999 FEW017 33/22 Q1011', 'VDPP 011000Z 17005KT 120V220 9999 FEW017 33/22 Q1011', 'VDPP 010930Z 16005KT 130V190 9999 FEW017 34/21 Q1011', 'VDPP 010900Z 19005KT 150V240 9999 FEW017 34/21 Q1011', 'VDPP 010830Z 16005KT 110V180 9999 FEW017 34/21 Q1011', 'VDPP 010800Z 12004KT 020V190 9999 FEW017 35/21 Q1011', 'VDPP 010730Z VRB03KT 9999 FEW017 33/21 Q1012', 'VDPP 010700Z 20004KT 110V280 9999 SCT017 33/22 Q1012', 'VDPP 010630Z 15005KT 090V230 9999 SCT017 32/22 Q1013', 'VDPP 010600Z 17005KT 090V230 9999 SCT017 33/22 Q1013', 'VDPP 010530Z 16005KT 110V210 9999 FEW017 32/22 Q1014', 'VDPP 010500Z 15007KT 110V200 9999 FEW017 32/21 Q1014', 'VDPP 010430Z 18008KT 140V230 9999 FEW017 32/23 Q1015', 'VDPP 010400Z 17008G19KT 110V210 9999 FEW017 32/22 Q1015', 'VDPP 010330Z 15006KT 110V220 9999 FEW017 30/23 Q1016', 'VDPP 010300Z 19009KT 150V220 9999 FEW017 29/23 Q1016', 'VDPP 010230Z 17009KT 140V210 CAVOK 29/23 Q1016', 'VDPP 010200Z 18009KT CAVOK 28/23 Q1016', 'VDPP 010130Z 20008KT 170V230 9999 FEW017 27/23 Q1016', 'VDPP 010100Z 19008KT 9999 FEW017 26/23 Q1015', 'VDPP 010030Z 19006KT 9999 FEW017 25/23 Q1015']","['2024-02-03 23:30:00', '2024-02-03 23:00:00', '2024-02-03 22:30:00', '2024-02-03 22:00:00', '2024-02-03 21:30:00', '2024-02-03 21:00:00', '2024-02-03 20:30:00', '2024-02-03 20:00:00', '2024-02-03 19:30:00', '2024-02-03 19:00:00', '2024-02-03 18:30:00', '2024-02-03 18:00:00', '2024-02-03 17:30:00', '2024-02-03 17:00:00', '2024-02-03 16:30:00', '2024-02-03 16:00:00', '2024-02-03 15:30:00', '2024-02-03 15:00:00', '2024-02-03 14:30:00', '2024-02-03 14:00:00', '2024-02-03 13:30:00', '2024-02-03 13:00:00', '2024-02-03 12:30:00', '2024-02-03 12:00:00', '2024-02-03 11:30:00', '2024-02-03 11:00:00', '2024-02-03 10:30:00', '2024-02-03 10:00:00', '2024-02-03 09:30:00', '2024-02-03 09:00:00', '2024-02-03 08:30:00', '2024-02-03 08:00:00', '2024-02-03 07:30:00', '2024-02-03 07:00:00', '2024-02-03 06:30:00', '2024-02-03 06:00:00', '2024-02-03 05:30:00', '2024-02-03 05:00:00', '2024-02-03 04:30:00', '2024-02-03 04:00:00', '2024-02-03 03:30:00', '2024-02-03 03:00:00', '2024-02-03 02:30:00', '2024-02-03 02:00:00', '2024-02-03 01:30:00', '2024-02-03 01:00:00', '2024-02-03 00:30:00', '2024-02-03 00:00:00', '2024-02-02 23:30:00', '2024-02-02 23:00:00', '2024-02-02 22:30:00', '2024-02-02 22:00:00', '2024-02-02 21:30:00', '2024-02-02 21:00:00', '2024-02-02 20:30:00', '2024-02-02 20:00:00', '2024-02-02 19:30:00', '2024-02-02 19:00:00', '2024-02-02 18:00:00', '2024-02-02 17:30:00', '2024-02-02 17:00:00', '2024-02-02 16:30:00', '2024-02-02 16:00:00', '2024-02-02 15:30:00', '2024-02-02 15:00:00', '2024-02-02 14:30:00', '2024-02-02 14:00:00', '2024-02-02 13:30:00', '2024-02-02 13:00:00', '2024-02-02 12:30:00', '2024-02-02 12:00:00', '2024-02-02 11:30:00', '2024-02-02 11:00:00', '2024-02-02 10:30:00', '2024-02-02 10:00:00', '2024-02-02 09:30:00', '2024-02-02 09:00:00', '2024-02-02 08:30:00', '2024-02-02 08:00:00', '2024-02-02 07:30:00', '2024-02-02 07:00:00', '2024-02-02 06:30:00', '2024-02-02 06:00:00', '2024-02-02 05:30:00', '2024-02-02 05:00:00', '2024-02-02 04:30:00', '2024-02-02 04:00:00', '2024-02-02 03:30:00', '2024-02-02 03:00:00', '2024-02-02 02:30:00', '2024-02-02 02:00:00', '2024-02-02 01:30:00', '2024-02-02 01:00:00', '2024-02-02 00:30:00', '2024-02-02 00:00:00', '2024-02-01 23:30:00', '2024-02-01 23:00:00', '2024-02-01 22:30:00', '2024-02-01 22:00:00', '2024-02-01 21:30:00', '2024-02-01 20:30:00', '2024-02-01 19:30:00', '2024-02-01 19:00:00', '2024-02-01 18:30:00', '2024-02-01 18:00:00', '2024-02-01 17:30:00', '2024-02-01 17:00:00', '2024-02-01 16:30:00', '2024-02-01 16:00:00', '2024-02-01 15:30:00', '2024-02-01 15:00:00', '2024-02-01 14:30:00', '2024-02-01 14:00:00', '2024-02-01 13:30:00', '2024-02-01 13:00:00', '2024-02-01 12:30:00', '2024-02-01 12:00:00', '2024-02-01 11:30:00', '2024-02-01 11:00:00', '2024-02-01 10:30:00', '2024-02-01 10:00:00', '2024-02-01 09:30:00', '2024-02-01 09:00:00', '2024-02-01 08:30:00', '2024-02-01 08:00:00', '2024-02-01 07:30:00', '2024-02-01 07:00:00', '2024-02-01 06:30:00', '2024-02-01 06:00:00', '2024-02-01 05:30:00', '2024-02-01 05:00:00', '2024-02-01 04:30:00', '2024-02-01 04:00:00', '2024-02-01 03:30:00', '2024-02-01 03:00:00', '2024-02-01 02:30:00', '2024-02-01 02:00:00', '2024-02-01 01:30:00', '2024-02-01 01:00:00', '2024-02-01 00:30:00']"
