country,airport,METARs,UTC/Time
Eswatini, Manzini King Mswati III International Airport (SHO/FDSK) ,"['FDSK 081800Z 18004KT 140V210 9999 BKN030 25/20 Q1019 NOSIG', 'FDSK 081700Z 17004KT 9999 BKN035 FEW040CB 25/20 Q1018 NOSIG', 'FDSK 081600Z 14003KT 9999 BKN035 FEW040CB 26/19 Q1018 TEMPO 7000 -TSRA', 'FDSK 081500Z 13004KT 090V160 9999 BKN035 27/19 Q1017 NOSIG', 'FDSK 081400Z 12008KT 9999 BKN035 27/19 Q1016 NOSIG', 'FDSK 081300Z 13008KT 9999 BKN035 27/19 Q1017 NOSIG', 'FDSK 081200Z 16005KT 120V200 9999 BKN035 28/19 Q1017 NOSIG', 'FDSK 081100Z 14006KT 110V180 9999 BKN030 28/19 Q1018 NOSIG', 'FDSK 081000Z 17005KT 130V210 9999 BKN030 27/19 Q1018 NOSIG', 'FDSK 080900Z 17005KT 110V260 9999 BKN030 27/19 Q1019 NOSIG', 'FDSK 080800Z 22004KT 180V280 9999 SCT025 BKN030 26/19 Q1019 NOSIG', 'FDSK 080700Z 17006KT 9999 SCT025 BKN030 25/19 Q1019 NOSIG', 'FDSK 080600Z 17007KT 9999 BKN030 25/19 Q1019 NOSIG', 'FDSK 080500Z 20006KT 9999 -DZ FEW020 BKN030 24/19 Q1018 NOSIG', 'FDSK 080400Z 17006KT 9999 BKN025 24/19 Q1018 NOSIG', 'FDSK 080300Z 20008KT 9999 BKN020 24/19 Q1017 NOSIG', 'FDSK 071900Z 07003KT CAVOK 27/21 Q1013 NOSIG', 'FDSK 071800Z 08003KT CAVOK 28/21 Q1011 NOSIG', 'FDSK 071700Z 06006KT CAVOK 30/21 Q1010 NOSIG', 'FDSK 071600Z 05007KT CAVOK 33/21 Q1008 NOSIG', 'FDSK 071500Z 04010KT 9999 FEW045 34/21 Q1008 NOSIG', 'FDSK 071400Z 04011KT 9999 FEW040 35/20 Q1008 NOSIG', 'FDSK 071300Z 01009KT 9999 FEW040 35/20 Q1008 NOSIG', 'FDSK 071200Z 02008KT 9999 FEW035 34/20 Q1009 NOSIG', 'FDSK 071100Z 36008KT 9999 FEW035 33/20 Q1010 NOSIG', 'FDSK 071000Z 01010KT CAVOK 32/20 Q1011 NOSIG', 'FDSK 070900Z 36010KT CAVOK 30/20 Q1012 NOSIG', 'FDSK 070800Z 02008KT 9999 FEW030 29/20 Q1012 NOSIG', 'FDSK 070700Z 01008KT 9999 SCT025 27/19 Q1013 NOSIG', 'FDSK 070600Z 02008KT 9999 SCT018 26/19 Q1014 NOSIG', 'FDSK 070500Z 02009KT 9999 FEW010 SCT025 24/20 Q1014 NOSIG', 'FDSK 070400Z 01006KT 9999 SCT015 BKN025 23/20 Q1014 NOSIG', 'FDSK 070300Z 35005KT 9000 SCT015 BKN025 23/20 Q1014 NOSIG', 'FDSK 061800Z 05007KT CAVOK 25/20 Q1014 NOSIG', 'FDSK 061700Z 08010KT 9999 FEW035 26/20 Q1013 NOSIG', 'FDSK 061600Z 08010KT 040V100 9999 FEW040 28/20 Q1012 NOSIG', 'FDSK 061500Z 12007KT 070V170 9999 FEW045 32/17 Q1011 NOSIG', 'FDSK 061400Z 18006KT 100V270 9999 FEW045 32/16 Q1012 NOSIG', 'FDSK 061300Z VRB06KT 9999 SCT045 32/16 Q1012 NOSIG', 'FDSK 060800Z 04004KT 360V070 9999 BKN030 28/20 Q1016 NOSIG', 'FDSK 060700Z 02003KT 9999 BKN025 26/20 Q1016 NOSIG', 'FDSK 060600Z 24003KT 9999 BKN015 25/21 Q1016 NOSIG', 'FDSK 060400Z VRB02KT 2000 BR SCT003 BKN008 22/21 Q1015 BECMG 7000 SCT015 BKN030']","['2024-02-08 17:59:00', '2024-02-08 17:00:00', '2024-02-08 16:00:00', '2024-02-08 15:00:00', '2024-02-08 14:00:00', '2024-02-08 13:00:00', '2024-02-08 12:00:00', '2024-02-08 11:00:00', '2024-02-08 09:59:00', '2024-02-08 09:00:00', '2024-02-08 07:59:00', '2024-02-08 06:59:00', '2024-02-08 05:59:00', '2024-02-08 05:00:00', '2024-02-08 04:00:00', '2024-02-08 03:00:00', '2024-02-07 19:00:00', '2024-02-07 18:00:00', '2024-02-07 17:00:00', '2024-02-07 16:00:00', '2024-02-07 15:00:00', '2024-02-07 13:59:00', '2024-02-07 13:00:00', '2024-02-07 12:00:00', '2024-02-07 11:00:00', '2024-02-07 10:00:00', '2024-02-07 09:00:00', '2024-02-07 07:59:00', '2024-02-07 07:00:00', '2024-02-07 05:59:00', '2024-02-07 05:00:00', '2024-02-07 04:00:00', '2024-02-07 03:00:00', '2024-02-06 17:59:00', '2024-02-06 16:59:00', '2024-02-06 16:00:00', '2024-02-06 15:00:00', '2024-02-06 13:59:00', '2024-02-06 13:00:00', '2024-02-06 07:59:00', '2024-02-06 07:00:00', '2024-02-06 06:00:00', '2024-02-06 04:00:00']"
Eswatini, Manzini Matsapha Airport (MTS/FDMS) ,"['FDMS 081500Z 00000KT 9999 TS FEW025 BKN035 FEW040CB 23/20 Q1018 TEMPO 6000 TSRA', 'FDMS 081400Z VRB02KT 9999 TS BKN035 FEW040CB 24/20 Q1018 TEMPO 8000 -TSRA SCT020 BKN025 FEW035CB', 'FDMS 081200Z VRB02KT 9999 BKN035 25/20 Q1018 NOSIG', 'FDMS 081100Z 00000KT 9999 BKN035 25/20 Q1019 NOSIG', 'FDMS 081000Z VRB02KT 9999 BKN035 25/20 Q1019 NOSIG', 'FDMS 080900Z 14004KT 9999 BKN035 25/20 Q1020 NOSIG', 'FDMS 080600Z VRB02KT 9999 FEW010 SCT020 BKN035 22/19 Q1020 NOSIG', 'FDMS 071500Z 09003KT 9999 FEW040CB 33/23 Q1010 NOSIG', 'FDMS 071400Z 09008KT 9999 FEW040TCU 34/24 Q1010 NOSIG', 'FDMS 071300Z 08008KT 9999 FEW040TCU 34/25 Q1010 NOSIG', 'FDMS 071200Z 09008KT 9999 FEW040TCU 33/24 Q1010 NOSIG', 'FDMS 071100Z 02004KT 9999 FEW040TCU 32/24 Q1011 NOSIG', 'FDMS 071000Z 09005KT 9999 FEW035 31/23 Q1012 NOSIG', 'FDMS 070900Z 08005KT 9999 FEW035 29/22 Q1013 NOSIG', 'FDMS 070800Z VRB02KT 9999 FEW035 27/22 Q1013 NOSIG', 'FDMS 070700Z 00000KT 9999 FEW020 26/21 Q1013 NOSIG', 'FDMS 070600Z 00000KT 9999 FEW020 SCT030 24/21 Q1014 NOSIG', 'FDMS 061500Z 16005KT 9999 FEW040TCU 30/19 Q1013 NOSIG', 'FDMS 061400Z 17007KT 9999 FEW040TCU 30/19 Q1013 NOSIG', 'FDMS 060800Z 04003KT 9999 SCT035 26/18 Q1016 NOSIG', 'FDMS 060700Z VRB02KT 9999 FEW030 24/18 Q1017 NOSIG']","['2024-02-08 15:00:00', '2024-02-08 14:00:00', '2024-02-08 12:00:00', '2024-02-08 11:00:00', '2024-02-08 10:00:00', '2024-02-08 09:00:00', '2024-02-08 06:00:00', '2024-02-07 15:00:00', '2024-02-07 14:00:00', '2024-02-07 13:00:00', '2024-02-07 12:00:00', '2024-02-07 11:00:00', '2024-02-07 10:00:00', '2024-02-07 09:00:00', '2024-02-07 08:00:00', '2024-02-07 07:00:00', '2024-02-07 06:00:00', '2024-02-06 15:00:00', '2024-02-06 14:00:00', '2024-02-06 08:00:00', '2024-02-06 07:00:00']"
Ethiopia, Addis Ababa Bole Airport (ADD/HAAB) ,"['HAAB 081800Z 08010KT 9999 FEW027 19/09 Q1028 NOSIG', 'HAAB 081800Z 08010KT 9999 FEW027 19/09 Q1028 NOSIG', 'HAAB 081700Z 08010KT 9999 FEW027 19/09 Q1028 NOSIG', 'HAAB 081700Z 08010KT 9999 FEW027 19/09 Q1028 NOSIG', 'HAAB 081600Z 13008KT 9999 FEW027 22/08 Q1026 NOSIG', 'HAAB 081600Z 13008KT 9999 FEW027 22/08 Q1026 NOSIG', 'HAAB 081500Z 16006KT 9999 SCT027 24/07 Q1026 NOSIG', 'HAAB 081500Z 16006KT 9999 SCT027 24/07 Q1026 NOSIG', 'HAAB 081400Z 15006KT 9999 SCT027 25/07 Q1026 NOSIG', 'HAAB 081300Z 20006KT 9999 SCT027 24/07 Q1026 NOSIG', 'HAAB 070100Z 08006KT 9999 FEW030 14/09Q1029 NO', 'HAAB 070000Z 08008KT 9999 FEW030 14/08Q1029 NOSIG', 'HAAB 062300Z 08006KT 9999 FEW030 14/09 Q1030 NOSIG', 'HAAB 062200Z 06006KT 9999 FEW030 15/08 Q1030 NOSIG', 'HAAB 062100Z 10011KT 9999 FEW030 16/08 Q1031 NOSIG', 'HAAB 061900Z 08010KT 9999 FEW030 17/08 Q1031 NOSIG', 'HAAB 061800Z 07008KT 9999 FEW030 18/08 Q1030 NOSIG', 'HAAB 061700Z 08012KT 9999 FEW030 218/08 Q1029 NOSIG', 'HAAB 061600Z 08012KT 9999 FEW030 20/07 Q1028 NOSIG', 'HAAB 061500Z 10010KT 9999 FEW030 23/05 Q1027 NOSIG', 'HAAB 061400Z 11010KT 9999 FEW030 25/05 Q1026 NOSIG', 'HAAB 061300Z 13009KT 9999 FEW030 25/05 Q1027 NOSIG', 'HAAB 061200Z 11009KT 9999 FEW030 25/06 Q1027 NOSIG', 'HAAB 061100Z 11007KT 9999 FEW027 24/05 Q1028 NOSIG', 'HAAB 061000Z 060010KT 9999 FEW027 24/04 Q1029 NOSIG', 'HAAB 060700Z 07008KT 9999 SCT026 18/08 Q1032 NOSIG', 'HAAB 060600Z 07004KT 9999 FEW026 17/10 Q1031 NOSIG', 'HAAB 060600Z 07004KT 9999 FEW026 17/10 Q1031 NOSIG', 'HAAB 060500Z 08004KT 9999 FEW026 15/10 Q1031 NOSIG', 'HAAB 060400Z 08004KT 9999 FEW026 13/09 Q1030 NOSIG', 'HAAB 060300Z 06004KT 9999 FEW025 13/10 Q1030 NOSIG', 'HAAB 060300Z 06004KT 9999 FEW025 13/10 Q1030 NOSIG', 'HAAB 060000Z 06010KT 9999 FEW025 15/10 Q1030 NOSIG', 'HAAB 052100Z 05004KT 9999 FEW025 15/10 Q1031 NOSIG']","['2024-02-08 18:00:00', '2024-02-08 17:57:00', '2024-02-08 17:00:00', '2024-02-08 16:55:00', '2024-02-08 16:00:00', '2024-02-08 15:54:00', '2024-02-08 15:00:00', '2024-02-08 14:58:00', '2024-02-08 14:00:00', '2024-02-08 13:00:00', '2024-02-07 01:00:00', '2024-02-07 00:00:00', '2024-02-06 23:00:00', '2024-02-06 22:00:00', '2024-02-06 21:00:00', '2024-02-06 19:00:00', '2024-02-06 18:00:00', '2024-02-06 17:00:00', '2024-02-06 16:00:00', '2024-02-06 15:00:00', '2024-02-06 14:00:00', '2024-02-06 13:00:00', '2024-02-06 12:00:00', '2024-02-06 11:00:00', '2024-02-06 10:00:00', '2024-02-06 07:00:00', '2024-02-06 06:00:00', '2024-02-06 05:58:00', '2024-02-06 05:00:00', '2024-02-06 04:00:00', '2024-02-06 03:00:00', '2024-02-06 02:56:00', '2024-02-06 00:00:00', '2024-02-05 21:00:00']"
Falkland-islands-malvinas, Mount Pleasant Airport (MPN/EGYP) ,"['EGYP 081950Z 24022KT 9999 FEW029 BKN065 14/05 Q1001', 'EGYP 081850Z 24019KT 9999 SCT025 SCT040 BKN075 12/05 Q1000 TEMPO SCT024', 'EGYP 081820Z 22020KT 9999 FEW023 SCT026 BKN049 12/05 Q1000 TEMPO SCT024', 'EGYP 081750Z 24021KT 9999 SCT029 BKN052 13/05 Q1000 NOSIG', 'EGYP 081720Z 24022KT 9999 SCT029 BKN050 13/06 Q0999 TEMPO 7000 SHRA SCT024', 'EGYP 081650Z 25023KT 9999 VCSH FEW024 BKN042 12/05 Q0999 TEMPO 7000 SHRA SCT024', 'EGYP 081620Z 24021KT 9999 SCT030 SCT045 BKN070 13/05 Q0998 TEMPO 7000 SHRA SCT024', 'EGYP 081550Z 26021KT 9999 FEW024 SCT030 BKN040 13/06 Q0998 TEMPO 7000 SHRA SCT022', 'EGYP 081520Z 26024KT 9999 FEW023 BKN032 12/06 Q0998 TEMPO 7000 SHRA SCT020', 'EGYP 081450Z 25023KT 9999 VCSH FEW021 BKN042 12/07 Q0997 TEMPO 7000 SHRA SCT020', 'EGYP 081420Z 25025KT 9999 VCSH SCT022 BKN041 11/06 Q0997 TEMPO 7000 SHRA', 'EGYP 081350Z 26023KT 9999 -SHRA FEW020 SCT023 BKN039 11/06 Q0996 TEMPO 7000 SHRA SCT014', 'EGYP 081320Z 24015KT 9999 -SHRA FEW007 FEW012TCU SCT017 BKN030 10/08 Q0996 TEMPO 6000 SHRA SCT012', 'EGYP 081250Z 26023KT 9999 VCSH BKN018 BKN040 09/07 Q0996 TEMPO 7000 SHRA SCT014', 'EGYP 081220Z 26018KT 9999 FEW017 SCT020 BKN031 10/07 Q0995 TEMPO 7000 SHRA SCT014', 'EGYP 081150Z 27020KT 9999 FEW015 SCT018 BKN030 10/07 Q0995 TEMPO 7000 SHRA SCT014', 'EGYP 081120Z 27019KT 9999 FEW017 SCT020 BKN029 09/07 Q0995 TEMPO 7000 SHRA SCT014', 'EGYP 081050Z 28015KT 9999 FEW018 BKN027 08/06 Q0995 TEMPO 6000 SHRA SCT014', 'EGYP 081020Z 28014KT 9999 BKN020 08/05 Q0995 TEMPO 6000 SHRA SCT014', 'EGYP 080950Z 27016KT 9999 BKN020 08/05 Q0994', 'EGYP 080850Z 27021KT 9999 FEW020 SCT030 BKN070 07/05 Q0993', 'EGYP 080750Z 27018KT 9999 FEW018 SCT030 BKN070 07/05 Q0992', 'EGYP 080650Z 26019KT 9999 -SHRA SCT018 07/05 Q0992', 'EGYP 080550Z 25025KT 9999 FEW014 BKN030 07/05 Q0991', 'EGYP 080450Z 26023KT 9999 -SHRA SCT012 BKN018 07/06 Q0990', 'EGYP 080350Z AUTO 25025G35KT 9999 // OVC010/// 08/06 Q0989', 'EGYP 080250Z 24029KT 6000 SHRA BKN009 08/07 Q0987', 'EGYP 080150Z 24028G40KT 6000 SHRA FEW007 SCT010 08/07 Q0985', 'EGYP 080050Z 27018KT 7000 SHRA FEW007 SCT024 BKN045 09/08 Q0983', 'EGYP 072350Z 28013KT 9999 FEW025 08/07 Q0981', 'EGYP 072250Z 27012KT 9999 FEW025 BKN060 10/08 Q0981 RESHRA', 'EGYP 072150Z 27021KT 9999 VCSH FEW018 SCT028CB BKN061 09/07 Q0980 TEMPO 7000 SHRA SCT020TCU', 'EGYP 072120Z 31016KT 9999 -SHRA FEW018 BKN060 OVC100 12/05 Q0980 TEMPO 7000 SHRA BKN020', 'EGYP 072050Z 31016KT 9999 -SHRA FEW018 SCT045CB BKN070 12/06 Q0980 TEMPO 7000 SHRA', 'EGYP 072020Z 32020KT 9999 FEW032CB SCT058 14/04 Q0980 TEMPO 7000 SHRA BKN020', 'EGYP 071950Z 33023G35KT 9999 VCSH FEW032CB SCT058 14/04 Q0980 TEMPO 7000 SHRA', 'EGYP 071920Z 32023KT 9999 -SHRA FEW020 FEW040TCU SCT070 15/04 Q0980 TEMPO 7000 SHRA', 'EGYP 071850Z 32027KT 9999 FEW040 16/02 Q0980 TEMPO 7000 SHRA BKN020', 'EGYP 071820Z 33028KT 9999 FEW043 16/04 Q0980 TEMPO 7000 SHRA', 'EGYP 071750Z 33027KT 9999 FEW042TCU 17/04 Q0981 NOSIG', 'EGYP 071720Z 31028KT 9999 FEW040 16/04 Q0981 NOSIG', 'EGYP 071650Z 30026KT 9999 FEW042 17/06 Q0982 NOSIG', 'EGYP 071620Z 30027KT 9999 FEW040 17/06 Q0982 NOSIG', 'EGYP 071550Z 30026KT 9999 FEW038 18/05 Q0982 NOSIG', 'EGYP 071520Z 31028KT 9999 FEW035 17/06 Q0982 NOSIG', 'EGYP 071450Z 30024KT 9999 FEW031 18/09 Q0981 NOSIG', 'EGYP 071420Z 30026KT 9999 FEW019 17/11 Q0982 NOSIG', 'EGYP 071350Z 31026KT 9999 FEW016 16/12 Q0981 NOSIG', 'EGYP 071320Z 34027KT 9000 -SHRA FEW009 SCT075 BKN150 14/12 Q0982 NOSIG', 'EGYP 071220Z 36030KT 9999 6000N -SHRA FEW012 SCT055CB BKN130 15/10 Q0982 TEMPO SCT013', 'EGYP 071150Z 36028G40KT 9999 VCSH FEW021 SCT130 16/10 Q0983 TEMPO 7000 SHRA', 'EGYP 071120Z 01024KT 9999 FEW024 SCT085 15/09 Q0983 TEMPO 7000 SHRA', 'EGYP 071050Z 01016KT 9999 -SHRA FEW030 SCT160 15/09 Q0985 TEMPO 36018G28KT 7000 SHRA', 'EGYP 071020Z 01020KT 9999 FEW030 13/09 Q0985 TEMPO 7000 SHRA', 'EGYP 070950Z 36023KT 9999 FEW017 SCT100 13/09 Q0986', 'EGYP 070850Z 34024KT 9999 FEW020 15/08 Q0986', 'EGYP 070750Z 34022KT 9999 FEW015 13/09 Q0988', 'EGYP 070650Z 34024KT CAVOK 13/09 Q0989', 'EGYP 070550Z 32019KT CAVOK 15/07 Q0988', 'EGYP 070450Z 31014KT 9999 FEW009 BKN180 14/09 Q0990', 'EGYP 070350Z 35026KT 9999 FEW008 BKN170 13/11 Q0989', 'EGYP 070250Z 36020KT 9999 SCT007 BKN180 13/11 Q0990', 'EGYP 070150Z 04012KT 5000 -DZ SCT004 BKN006 12/11 Q0993', 'EGYP 070050Z 04019KT 4000 2000N -DZ FEW002 BKN003 12/11 Q0993', 'EGYP 062350Z 02023KT 3000 2000N -DZ BKN002 12/12 Q0995', 'EGYP 062250Z 02023KT 9999 FEW004 SCT120 BKN250 13/11 Q0997', 'EGYP 062150Z 01022KT 9999 FEW020 BKN120 15/09 Q0998', 'EGYP 062050Z 01027KT CAVOK 18/09 Q0999', 'EGYP 061950Z 01030KT CAVOK 19/10 Q1000', 'EGYP 061850Z 36029KT CAVOK 20/09 Q1000 NOSIG', 'EGYP 061750Z 35024KT CAVOK 20/08 Q1001', 'EGYP 061720Z 35030G40KT CAVOK 20/09 Q1002 NOSIG', 'EGYP 061650Z 36028KT CAVOK 20/10 Q1002 NOSIG', 'EGYP 061620Z 36032KT CAVOK 20/11 Q1002 NOSIG', 'EGYP 061550Z 36029KT CAVOK 20/10 Q1002 NOSIG', 'EGYP 061520Z 01027KT CAVOK 19/10 Q1003 NOSIG', 'EGYP 061450Z 01028KT CAVOK 18/11 Q1004 NOSIG', 'EGYP 061420Z 01031KT CAVOK 16/09 Q1005 NOSIG', 'EGYP 061350Z 36027KT CAVOK 16/08 Q1005 NOSIG', 'EGYP 061320Z 01023KT CAVOK 16/07 Q1006 NOSIG', 'EGYP 061250Z 03021KT CAVOK 15/04 Q1006 NOSIG', 'EGYP 061220Z 04021KT CAVOK 15/05 Q1007 NOSIG', 'EGYP 061150Z 03026KT CAVOK 15/03 Q1007 NOSIG', 'EGYP 061120Z 02020KT CAVOK 15/02 Q1008 NOSIG', 'EGYP 061050Z 02018KT CAVOK 12/05 Q1008 NOSIG', 'EGYP 061020Z 05011KT CAVOK 11/04 Q1009 NOSIG', 'EGYP 060950Z 36017KT CAVOK 11/04 Q1009', 'EGYP 060850Z 35020KT CAVOK 11/01 Q1008', 'EGYP 060750Z 36013KT CAVOK 11/00 Q1009', 'EGYP 060650Z 34016KT 9999 SKC 15/M02 Q1009 NOSIG', 'EGYP 060620Z 34016KT 9999 SKC 14/M02 Q1009 NOSIG', 'EGYP 060550Z 34018KT 9999 SKC 15/M01 Q1009 NOSIG', 'EGYP 060520Z 34018KT 9999 SKC 14/M00 Q1009 NOSIG', 'EGYP 060450Z 34019KT 9999 SKC 14/00 Q1009', 'EGYP 060350Z 34015KT CAVOK 14/01 Q1009', 'EGYP 060250Z 32014KT CAVOK 14/M00 Q1009', 'EGYP 060220Z 35009KT CAVOK 12/03 Q1009 NOSIG', 'EGYP 060150Z 32013KT CAVOK 12/03 Q1008 NOSIG', 'EGYP 060120Z 31013KT CAVOK 13/03 Q1008 NOSIG', 'EGYP 060050Z 29009KT CAVOK 11/03 Q1008 NOSIG', 'EGYP 060020Z 34005KT CAVOK 12/04 Q1007 NOSIG', 'EGYP 052350Z 31008KT CAVOK 13/02 Q1007 NOSIG', 'EGYP 052320Z 29008KT CAVOK 15/02 Q1006 NOSIG', 'EGYP 052250Z 29009KT CAVOK 16/02 Q1006', 'EGYP 052150Z 26017KT CAVOK 18/00 Q1005', 'EGYP 052050Z 27022G32KT CAVOK 19/01 Q1004 NOSIG']","['2024-02-08 19:50:00', '2024-02-08 18:50:00', '2024-02-08 18:20:00', '2024-02-08 17:50:00', '2024-02-08 17:20:00', '2024-02-08 16:50:00', '2024-02-08 16:20:00', '2024-02-08 15:50:00', '2024-02-08 15:20:00', '2024-02-08 14:50:00', '2024-02-08 14:20:00', '2024-02-08 13:50:00', '2024-02-08 13:20:00', '2024-02-08 12:50:00', '2024-02-08 12:20:00', '2024-02-08 11:50:00', '2024-02-08 11:20:00', '2024-02-08 10:50:00', '2024-02-08 10:20:00', '2024-02-08 09:50:00', '2024-02-08 08:50:00', '2024-02-08 07:50:00', '2024-02-08 06:50:00', '2024-02-08 05:50:00', '2024-02-08 04:50:00', '2024-02-08 03:50:00', '2024-02-08 02:50:00', '2024-02-08 01:50:00', '2024-02-08 00:50:00', '2024-02-07 23:50:00', '2024-02-07 22:50:00', '2024-02-07 21:50:00', '2024-02-07 21:20:00', '2024-02-07 20:50:00', '2024-02-07 20:20:00', '2024-02-07 19:50:00', '2024-02-07 19:20:00', '2024-02-07 18:50:00', '2024-02-07 18:20:00', '2024-02-07 17:50:00', '2024-02-07 17:20:00', '2024-02-07 16:50:00', '2024-02-07 16:20:00', '2024-02-07 15:50:00', '2024-02-07 15:20:00', '2024-02-07 14:50:00', '2024-02-07 14:20:00', '2024-02-07 13:50:00', '2024-02-07 13:20:00', '2024-02-07 12:20:00', '2024-02-07 11:50:00', '2024-02-07 11:20:00', '2024-02-07 10:50:00', '2024-02-07 10:20:00', '2024-02-07 09:50:00', '2024-02-07 08:50:00', '2024-02-07 07:50:00', '2024-02-07 06:50:00', '2024-02-07 05:50:00', '2024-02-07 04:50:00', '2024-02-07 03:50:00', '2024-02-07 02:50:00', '2024-02-07 01:50:00', '2024-02-07 00:50:00', '2024-02-06 23:50:00', '2024-02-06 22:50:00', '2024-02-06 21:50:00', '2024-02-06 20:50:00', '2024-02-06 19:50:00', '2024-02-06 18:50:00', '2024-02-06 17:50:00', '2024-02-06 17:20:00', '2024-02-06 16:50:00', '2024-02-06 16:20:00', '2024-02-06 15:50:00', '2024-02-06 15:20:00', '2024-02-06 14:50:00', '2024-02-06 14:20:00', '2024-02-06 13:50:00', '2024-02-06 13:20:00', '2024-02-06 12:50:00', '2024-02-06 12:20:00', '2024-02-06 11:50:00', '2024-02-06 11:20:00', '2024-02-06 10:50:00', '2024-02-06 10:20:00', '2024-02-06 09:50:00', '2024-02-06 08:50:00', '2024-02-06 07:50:00', '2024-02-06 06:50:00', '2024-02-06 06:20:00', '2024-02-06 05:50:00', '2024-02-06 05:20:00', '2024-02-06 04:50:00', '2024-02-06 03:50:00', '2024-02-06 02:50:00', '2024-02-06 02:20:00', '2024-02-06 01:50:00', '2024-02-06 01:20:00', '2024-02-06 00:50:00', '2024-02-06 00:20:00', '2024-02-05 23:50:00', '2024-02-05 23:20:00', '2024-02-05 22:50:00', '2024-02-05 21:50:00', '2024-02-05 20:50:00']"
Faroe-islands, Vagar Airport (FAE/EKVG) ,"['EKVG 082020Z AUTO 35004KT 310V030 9999 SCT032/// M03/M05 Q1000 RMK BKN023/// WIND SKEID 07005KT 030V100', 'EKVG 081950Z AUTO 32004KT 290V010 9999 SCT026/// BKN033/// M03/M05 Q1000 RMK FEW028/// SCT038/// WIND SKEID 09005KT', 'EKVG 081920Z AUTO 30002KT 9999 OVC030/// M02/M04 Q1000 RMK FEW017/// WIND SKEID 07003KT', 'EKVG 081850Z AUTO VRB02KT 6000 -SN FEW019/// SCT053/// M02/M05 Q1000 RMK FEW011/// WIND SKEID 01012KT 350V080', 'EKVG 081820Z AUTO 36007KT 3100 -SN FEW016/// FEW026/// BKN063/// M02/M03 Q1000 RMK BKN012/// WIND SKEID 03012KT', 'EKVG 081750Z AUTO 34004KT 310V010 9999 FEW083/// M03/M06 Q1000 RMK SCT024/// WIND SKEID 01010KT 330V060', 'EKVG 081720Z AUTO 35006KT 9999 FEW040/// M03/M05 Q1001 RMK FEW018/// BKN071/// WIND SKEID 01012KT', 'EKVG 081650Z AUTO 35005KT 290V020 1000 R12/P1500U R30/P1500U -SN OVC017/// M02/M03 Q1001 RMK SCT010/// BKN062/// WIND SKEID 01011KT', 'EKVG 081620Z AUTO 01005KT 9999 SCT069/// M02/M05 Q1001 RMK FEW017/// BKN070/// WIND SKEID 02011KT', 'EKVG 081550Z AUTO 35005KT 9999 NCD M03/M06 Q1001 RMK NCD WIND SKEID 36009KT', 'EKVG 081520Z AUTO 36008KT 9999 NCD M02/M07 Q1002 RMK FEW046/// WIND SKEID 02011KT', 'EKVG 081450Z AUTO 02003KT 9999 NCD M02/M07 Q1002 RMK BKN034/// WIND SKEID 04010KT', 'EKVG 081420Z AUTO 03002KT 9999 NCD M02/M08 Q1002 RMK NCD WIND SKEID 04007KT', 'EKVG 081350Z AUTO 02005KT 9999 NCD M02/M07 Q1003 RMK NCD WIND SKEID 04006KT', 'EKVG 081320Z AUTO VRB01KT 9999 NCD M02/M07 Q1003 RMK FEW067/// WIND SKEID 03005KT 010V070', 'EKVG 081250Z AUTO 29003KT 9999 FEW071/// M03/M06 Q1003 RMK FEW066/// WIND SKEID 08005KT 020V130', 'EKVG 081220Z AUTO VRB01KT 9999 FEW073/// M02/M06 Q1003 RMK BKN058/// WIND SKEID 07006KT 030V140', 'EKVG 081150Z AUTO 34003KT 9999 NCD M03/M06 Q1003 RMK BKN073/// WIND SKEID 04008KT', 'EKVG 081120Z AUTO 27004KT 230V360 9999 NCD M04/M06 Q1003 RMK OVC066/// WIND SKEID 05005KT 030V100', 'EKVG 081050Z AUTO 33002KT 9999 FEW010/// SCT082/// M03/M04 Q1003 RMK SCT012/// OVC056/// WIND SKEID 03005KT 340V090', 'EKVG 081020Z AUTO 03011KT 2300 R12/P1500D R30/0800D -SN BKN019/// M02/M03 Q1003 RMK FEW014/// FEW026/// BKN053/// WIND SKEID 04010KT', 'EKVG 080950Z AUTO VRB02KT 9999 -SN BKN014/// M02/M04 Q1003 RMK BKN028/// OVC063/// WIND SKEID 04008KT', 'EKVG 080920Z AUTO 35003KT 5000 -SN BKN013/// M02/M04 Q1003 RMK BKN035/// WIND SKEID 02009KT 350V060', 'EKVG 080850Z AUTO 35002KT 9999 FEW050/// M05/M07 Q1003 RMK NCD WIND SKEID 19003KT', 'EKVG 080820Z AUTO 00000KT 9999 -SN BKN022/// BKN048/// M02/M04 Q1003 RMK FEW016/// BKN062/// WIND SKEID 03006KT', 'EKVG 080750Z AUTO 36004KT 320V070 9999 SCT036/// M02/M05 Q1003 RMK SCT019/// BKN035/// WIND SKEID 02005KT 350V070', 'EKVG 080720Z AUTO 33009KT 290V350 9999 FEW027/// M03/M05 Q1002 RMK FEW082/// WIND SKEID 01011KT', 'EKVG 080650Z AUTO 02009KT 340V040 9999 -SN FEW007/// BKN015/// BKN062/// M02/M04 Q1002 RMK SCT002/// WIND SKEID 03009KT', 'EKVG 080620Z AUTO 33011KT 2400 -SN SCT038/// BKN068/// M02/M03 Q1003 RMK BKN010/// WIND SKEID 01007KT 330V050', 'EKVG 080550Z AUTO 36007KT 300V020 0800 R12/P1500U R30/P1500U SN OVC015/// M02/M02 Q1003 RMK VV007 WIND SKEID 36008KT', 'EKVG 080520Z AUTO 35008KT 9999 FEW032/// M01/M04 Q1003 RMK BKN023/// WIND SKEID 34012KT', 'EKVG 080450Z AUTO 35010KT 9999 -SN BKN033/// M01/M05 Q1003 RMK BKN027/// WIND SKEID 35015KT', 'EKVG 080420Z AUTO 02011KT 9999 -SN BKN013/// M01/M05 Q1003 RMK FEW029/// BKN046/// WIND SKEID 36015KT', 'EKVG 080350Z AUTO 03009KT 8000 -SN BKN022/// M01/M04 Q1003 RMK BKN023/// BKN043/// WIND SKEID 35018KT', 'EKVG 080320Z AUTO 36009KT 4800 -SN BKN017/// BKN067/// M01/M03 Q1003 RMK FEW009/// BKN032/// WIND SKEID 01013KT', 'EKVG 080250Z AUTO 01007KT 9999 FEW011/// SCT039/// SCT050/// M02/M05 Q1003 RMK SCT015/// WIND SKEID 01014KT 330V030', 'EKVG 080220Z AUTO 02014KT 9999 -SN FEW007/// FEW028/// BKN043/// BKN083/// M01/M04 Q1003 RMK BKN018/// WIND SKEID 36015G29KT 320V030', 'EKVG 080150Z AUTO 02009KT 1500 -SN VV006 M01/M03 Q1003 RMK SCT010/// WIND SKEID 36016G29KT 330V050', 'EKVG 080120Z AUTO 35011KT 6000 -SN FEW021/// BKN033/// M01/M04 Q1003 RMK BKN015/// OVC034/// WIND SKEID 36012G23KT 330V050', 'EKVG 080050Z AUTO 36009KT 9999 SCT028/// M01/M05 Q1003 RMK SCT015/// BKN022/// WIND SKEID 35017G28KT 320V020', 'EKVG 080020Z AUTO 01009KT 9999 SCT012/// M01/M05 Q1003 RMK BKN023/// WIND SKEID 35024G35KT', 'EKVG 072350Z AUTO 33007KT 290V020 5000 -SN OVC016/// M01/M02 Q1003 RMK BKN009/// WIND SKEID 34018G38KT 290V010', 'EKVG 072320Z AUTO 35010KT 2000 -SN BKN016/// BKN063/// M01/M02 Q1003 RMK OVC010/// WIND SKEID 33008G18KT 270V360', 'EKVG 072250Z AUTO 33013KT 9999 -SN FEW023/// SCT032/// M01/M03 Q1003 RMK FEW015/// BKN021/// WIND SKEID 34016KT', 'EKVG 072220Z AUTO 35014KT 9999 FEW002/// M00/M03 Q1003 RMK FEW011/// SCT021/// SCT039/// WIND SKEID 34018KT', 'EKVG 072150Z AUTO 34011KT 260V360 9999 -SN FEW003/// BKN010/// BKN049/// 00/M03 Q1003 RMK OVC011/// WIND SKEID 35023KT', 'EKVG 072120Z AUTO 01008KT 1700 -SN BKN011/// M01/M03 Q1003 RMK BKN029/// WIND SKEID 30014KT', 'EKVG 072050Z AUTO 33015KT 9999 BKN018/// M01/M04 Q1003 RMK BKN019/// WIND SKEID 33015KT', 'EKVG 072020Z AUTO 32010KT 9999 BKN023/// M01/M05 Q1003 RMK FEW017/// SCT024/// SCT061/// WIND SKEID 34012G23KT 300V010', 'EKVG 071950Z AUTO 32017KT 9999 FEW025/// OVC036/// 00/M03 Q1003 RMK FEW014/// BKN033/// WIND SKEID 34015KT 300V020', 'EKVG 071920Z AUTO 33015KT 9999 BKN048/// 01/M05 Q1003 RMK BKN040/// WIND SKEID 32018G33KT', 'EKVG 071850Z AUTO 34012KT 9999 BKN044/// 01/M07 Q1003 RMK BKN040/// WIND SKEID 32012G23KT 290V360', 'EKVG 071820Z AUTO 34013KT 9999 BKN043/// 01/M07 Q1003 RMK BKN042/// WIND SKEID 34013G23KT 290V010', 'EKVG 071750Z AUTO 35019KT 9999 -FZDZ OVC042/// 01/M05 Q1003 RMK BKN037/// WIND SKEID 34023G38KT 300V010', 'EKVG 071720Z AUTO 35016KT 9999 -SN OVC040/// 01/M05 Q1003 REFZDZ RMK BKN040/// WIND SKEID 35022G38KT', 'EKVG 071650Z AUTO 35016KT 9999 OVC043/// 01/M04 Q1003 RMK BKN037/// WIND SKEID 35026G37KT', 'EKVG 071620Z AUTO 36013KT 9999 FEW007/// BKN035/// 01/M03 Q1003 RMK OVC025/// WIND SKEID 35028KT', 'EKVG 071550Z AUTO 27001KT 5000 -SN OVC009/// M00/M01 Q1003 RMK BKN009/// OVC026/// WIND SKEID 35014KT 320V030', 'EKVG 071520Z AUTO 01010KT 340V050 1000 R12/P1500D R30/P1500D -SN SCT007/// BKN012/// BKN120/// M00/M02 Q1003 RMK SCT012/// BKN032/// WIND SKEID 35020KT', 'EKVG 071450Z AUTO 31005KT 9999 -SN BKN015/// BKN045/// M01/M03 Q1002 RMK FEW001/// BKN017/// WIND SKEID 34011KT 310V020', 'EKVG 071420Z AUTO 36012KT 9999 -SN BKN036/// BKN066/// BKN140/// 00/M02 Q1003 RMK FEW009/// BKN025/// WIND SKEID 35020KT', 'EKVG 071350Z AUTO 32007KT 9999 FEW015/// 00/M04 Q1002 RMK FEW029/// FEW034/// WIND SKEID 33013G26KT 290V010', 'EKVG 071320Z AUTO 36007G21KT 9999 FEW038/// 02/M03 Q1002 RMK FEW038/// WIND SKEID 34017KT', 'EKVG 071250Z AUTO VRB01KT 9999 FEW041/// 01/M05 Q1002 RMK FEW039/// WIND SKEID 35015KT', 'EKVG 071220Z AUTO 33005KT 9999 FEW043/// SCT067/// M00/M04 Q1002 RMK FEW041/// WIND SKEID 34007KT 310V020', 'EKVG 071150Z AUTO VRB05KT 9999 -SN BKN021/// M00/M03 Q1002 RMK BKN015/// WIND SKEID 34007KT 310V020', 'EKVG 071120Z AUTO 33007KT //// FEW020/// BKN040/// 01/M04 Q1002 RMK NCD WIND SKEID 34011KT', 'EKVG 071050Z AUTO 33012KT 9999 FEW018/// SCT045/// M00/M03 Q1002 RMK NCD WIND SKEID 34014KT', 'EKVG 071020Z AUTO 32015KT 8000 -SN SCT011/// BKN030/// BKN066/// M01/M03 Q1002 RMK BKN015/// WIND SKEID 33019G30KT', 'EKVG 070950Z AUTO 33015KT 1300 R12/P1500N R30/P1500U -SN OVC015/// M01/M03 Q1002 RMK OVC012/// WIND SKEID 34016KT', 'EKVG 070920Z AUTO 34008KT 3200 -SN BKN012/// BKN160/// M00/M02 Q1002 RMK BKN015/// WIND SKEID 34018G29KT', 'EKVG 070850Z AUTO 34009KT 9999 -SN FEW010/// SCT015/// BKN061/// BKN093/// M01/M03 Q1001 RMK SCT014/// SCT062/// BKN095/// WIND SKEID 34019KT', 'EKVG 070820Z AUTO 33013KT 1000 R12/P1500U R30/P1500N -SN OVC012/// M01/M02 Q1002 RMK VV007 WIND SKEID 34018KT', 'EKVG 070750Z AUTO 34013KT 2300 -SN BKN010/// M00/M02 Q1001 RMK OVC010/// WIND SKEID 35027KT', 'EKVG 070720Z AUTO 33015KT 9999 -SN OVC009/// M00/M02 Q1001 RMK SCT007/// BKN054/// BKN130/// WIND SKEID 33023G33KT', 'EKVG 070650Z AUTO 32021KT 9999 -SN BKN015/// BKN160/// 01/M02 Q1001 RMK BKN012/// WIND SKEID 33032G46KT', 'EKVG 070620Z AUTO 32018KT 7000 -SN BKN026/// 01/M02 Q1001 RMK BKN020/// WIND SKEID 32022KT', 'EKVG 070550Z AUTO 32021KT 9999 -SN BKN036/// 01/M05 Q1000 RMK BKN037/// WIND SKEID 33024G35KT', 'EKVG 070520Z AUTO 33019KT 9999 -SN BKN038/// 01/M05 Q1001 RMK BKN039/// WIND SKEID 33026G39KT', 'EKVG 070450Z AUTO 31016KT 9999 -SN BKN034/// 01/M05 Q1001 RMK FEW017/// BKN037/// WIND SKEID 32026G38KT', 'EKVG 070420Z AUTO 32018KT 9999 BKN032/// 00/M07 Q1001 RMK FEW034/// WIND SKEID 32023G34KT', 'EKVG 070350Z AUTO 31015KT 9999 BKN030/// M00/M05 Q1002 RMK SCT026/// WIND SKEID 32024G37KT', 'EKVG 070320Z AUTO 33016G28KT 9000 -SN FEW014/// BKN031/// 00/M05 Q1002 RMK BKN025/// WIND SKEID 32019G38KT', 'EKVG 070250Z AUTO 29014KT 7000 -SN BKN025/// M01/M04 Q1002 RMK FEW002/// BKN018/// BKN042/// WIND SKEID 32022G32KT', 'EKVG 070220Z AUTO 31011KT 9999 FEW030/// M01/M06 Q1002 RMK FEW024/// SCT031/// WIND SKEID 31021G34KT', 'EKVG 070150Z AUTO 32018KT 9999 FEW028/// M01/M05 Q1002 RMK BKN026/// WIND SKEID 33018G29KT', 'EKVG 070120Z AUTO 33009KT 300V020 9999 -SN OVC014/// M01/M04 Q1002 RMK OVC020/// WIND SKEID 32014G26KT 280V350', 'EKVG 070050Z AUTO 31010KT 290V350 9999 -SN BKN028/// M01/M06 Q1002 RMK SCT029/// BKN066/// WIND SKEID 30017KT', 'EKVG 070020Z AUTO 31011KT 9999 SCT031/// SCT037/// M01/M08 Q1002 RMK FEW035/// WIND SKEID 32014KT', 'EKVG 062350Z AUTO 32010KT 9999 -SN SCT044/// BKN140/// M01/M08 Q1002 RMK SCT033/// BKN044/// BKN130/// WIND SKEID 31014KT', 'EKVG 062320Z AUTO 32010KT 9999 FEW047/// BKN140/// M01/M09 Q1002 RMK BKN045/// WIND SKEID 31011G22KT', 'EKVG 062250Z AUTO 33011KT 9999 SCT047/// M01/M10 Q1002 RMK BKN048/// WIND SKEID 31010KT', 'EKVG 062220Z AUTO 30009KT 9999 FEW033/// BKN060/// M02/M07 Q1002 RMK BKN047/// WIND SKEID 31015KT', 'EKVG 062150Z AUTO 31012KT 9999 BKN037/// M02/M07 Q1002 RMK FEW029/// FEW043/// BKN058/// WIND SKEID 32016KT', 'EKVG 062120Z AUTO 35006KT 9999 FEW025/// BKN037/// BKN041/// M04/M08 Q1002 RMK SCT032/// WIND SKEID 32013KT', 'EKVG 062050Z AUTO 31011KT 9999 -SN OVC030/// M02/M07 Q1002 REFZRASN RMK BKN016/// BKN054/// WIND SKEID 33017KT', 'EKVG 062020Z AUTO 31009KT 9999 -FZRASN BKN029/// M02/M07 Q1002 RMK FEW019/// BKN032/// BKN049/// WIND SKEID 31014KT', 'EKVG 061950Z AUTO 30009KT 260V320 9999 -SN BKN034/// M02/M08 Q1002 REFZRA RMK SCT033/// WIND SKEID 32016KT', 'EKVG 061920Z AUTO 28006KT 240V310 9999 -FZRA FEW011/// BKN034/// M04/M05 Q1002 RMK BKN034/// WIND SKEID 30007KT 270V340', 'EKVG 061850Z AUTO 31010KT 1600 -SN BKN033/// M03/M05 Q1002 RMK BKN013/// BKN030/// OVC046/// WIND SKEID 30011G23KT', 'EKVG 061820Z AUTO 29005KT 9999 FEW043/// M03/M08 Q1002 RMK BKN041/// WIND SKEID 29006KT 240V320', 'EKVG 061750Z AUTO 31015KT 9999 FEW047/// M02/M07 Q1002 RMK FEW070/// WIND SKEID 32013G23KT 290V010', 'EKVG 061720Z AUTO 30002KT 9999 SCT050/// M04/M05 Q1002 RMK BKN037/// WIND SKEID 30022G40KT', 'EKVG 061650Z AUTO 02003KT 9999 -SN SCT007/// BKN070/// M04/M04 Q1002 RMK FEW009/// FEW022/// SCT082/// WIND SKEID 29010KT', 'EKVG 061620Z AUTO 35003KT 5000 -SN FEW010/// SCT016/// OVC035/// M02/M04 Q1002 RMK SCT004/// OVC017/// WIND SKEID 29017G31KT', 'EKVG 061550Z AUTO 30007KT 1800 -SN BKN015/// M03/M04 Q1002 RMK FEW009/// OVC018/// WIND SKEID 29011KT', 'EKVG 061520Z AUTO 32004KT 9999 NCD M02/M05 Q1002 RMK BKN042/// WIND SKEID 30011G27KT', 'EKVG 061450Z AUTO 33007KT 9999 -SN BKN026/// M03/M05 Q1002 RMK SCT015/// SCT046/// WIND SKEID 31005KT 280V350', 'EKVG 061420Z AUTO 34009KT 9999 -SN FEW041/// BKN050/// M02/M05 Q1002 RMK OVC020/// WIND SKEID 34010KT', 'EKVG 061350Z AUTO 35009KT 9999 -SN BKN038/// M01/M05 Q1001 RMK BKN033/// WIND SKEID 35016KT', 'EKVG 061320Z AUTO 35004KT 9999 FEW036/// M01/M07 Q1001 RMK NCD WIND SKEID 35009KT 310V020', 'EKVG 061250Z AUTO 35009KT 9999 FEW037/// M01/M08 Q1001 RMK SCT170/// WIND SKEID 35014KT', 'EKVG 061220Z AUTO 36006KT 9999 FEW130/// M01/M07 Q1001 RMK FEW130/// SCT170/// WIND SKEID 35016KT', 'EKVG 061150Z AUTO 02008KT 9999 SCT020/// BKN130/// M01/M07 Q1000 RMK FEW012/// SCT037/// BKN130/// WIND SKEID 36007G17KT 280V070', 'EKVG 061120Z AUTO 36013KT 9999 -SN BKN031/// M01/M06 Q1000 RMK OVC039/// WIND SKEID 35020KT', 'EKVG 061050Z AUTO 01010KT 9999 BKN034/// M01/M07 Q1000 RMK BKN041/// BKN140/// WIND SKEID 36015G31KT 280V040', 'EKVG 061020Z AUTO 02010KT 9999 FEW035/// M01/M08 Q0999 RMK FEW036/// BKN140/// WIND SKEID 02015G28KT 340V070', 'EKVG 060950Z AUTO 01014KT 9999 FEW033/// BKN130/// M01/M08 Q0999 RMK FEW036/// BKN130/// WIND SKEID 01020G34KT 310V050', 'EKVG 060920Z AUTO 01017KT 9999 -SN BKN032/// BKN140/// M01/M07 Q0998 RMK BKN035/// OVC140/// WIND SKEID 35029G42KT', 'EKVG 060850Z AUTO 01015KT 9999 -SN OVC034/// M01/M07 Q0998 RMK BKN041/// BKN140/// WIND SKEID 36025G37KT', 'EKVG 060820Z AUTO 01018KT 9999 -SN BKN033/// M01/M06 Q0997 RMK OVC025/// WIND SKEID 01021G34KT', 'EKVG 060750Z AUTO 36020KT 9999 -SN BKN040/// BKN120/// M01/M06 Q0997 RMK OVC035/// WIND SKEID 36019G32KT 330V060', 'EKVG 060720Z AUTO 36013KT 9999 -SN BKN041/// OVC110/// M01/M06 Q0996 RMK FEW021/// BKN031/// BKN120/// WIND SKEID 02019G31KT 320V090', 'EKVG 060650Z AUTO 01014G26KT 9999 -SN BKN033/// BKN120/// M01/M06 Q0995 RMK SCT024/// BKN100/// WIND SKEID 01019G38KT 330V060', 'EKVG 060620Z AUTO 02018KT 9999 -SN FEW032/// BKN100/// M01/M05 Q0994 RMK FEW020/// BKN098/// WIND SKEID 01020G34KT 320V050', 'EKVG 060550Z AUTO 04020KT 9999 -SN OVC096/// M01/M05 Q0992 RMK FEW025/// BKN095/// WIND SKEID 03023KT', 'EKVG 060520Z AUTO 03020KT 9999 BKN092/// M01/M05 Q0992 RMK FEW041/// BKN083/// WIND SKEID 02024G37KT', 'EKVG 060450Z AUTO 03018KT 9999 -SN BKN094/// M00/M05 Q0992 RMK FEW028/// OVC076/// WIND SKEID 03023G33KT', 'EKVG 060420Z AUTO 04021KT 9999 -SN FEW086/// BKN130/// M01/M05 Q0991 RMK FEW017/// BKN023/// OVC130/// WIND SKEID 03022G34KT', 'EKVG 060350Z AUTO 04022KT 6000 -SN BKN023/// M01/M04 Q0991 RMK OVC011/// WIND SKEID 03025KT', 'EKVG 060320Z AUTO 04021KT 1000 R12/P1500N R30/P1500N -SN OVC019/// M02/M03 Q0991 RMK OVC011/// WIND SKEID 03021G31KT', 'EKVG 060250Z AUTO 05015KT 1800 -SN OVC021/// M01/M03 Q0990 RMK OVC016/// WIND SKEID 03016KT', 'EKVG 060220Z AUTO 05015KT 2700 -SN OVC017/// M01/M03 Q0990 RMK OVC019/// WIND SKEID 03015KT', 'EKVG 060150Z AUTO 07017G28KT 1300 R12/P1500N R30/P1500N -SN OVC018/// M01/M02 Q0990 RMK OVC019/// WIND SKEID 06026G36KT', 'EKVG 060120Z AUTO 08025G39KT 0550 R12/P1500N R30/P1500N SN OVC017/// M01/M03 Q0990 RMK OVC019/// WIND SKEID 07034G49KT', 'EKVG 060050Z AUTO 08022G35KT 0650 R12/P1500N R30/P1500N SN OVC013/// M01/M03 Q0989 RMK OVC013/// WIND SKEID 07037G49KT', 'EKVG 060020Z AUTO 08021G35KT 0800 R12/P1500D R30/P1500N SN OVC012/// M01/M02 Q0990 RMK OVC012/// WIND SKEID 07035G46KT', 'EKVG 052350Z AUTO 08018G28KT 2600 -SN OVC016/// M00/M03 Q0990 RMK OVC018/// WIND SKEID 07030G40KT', 'EKVG 052320Z AUTO 08018KT 1500 -SN OVC016/// M00/M03 Q0990 RMK OVC015/// WIND SKEID 08027G39KT', 'EKVG 052250Z AUTO 09017KT 030V120 1100 R12/P1500N R30/P1500N -SN OVC016/// M01/M02 Q0991 RMK OVC014/// WIND SKEID 09024KT', 'EKVG 052220Z AUTO 09017G28KT 030V110 1300 R12/P1500N R30/P1500N -SN OVC014/// M01/M02 Q0991 RMK OVC016/// WIND SKEID 10024KT', 'EKVG 052150Z AUTO 10020G31KT 0800 R12/P1500N R30/P1500N SN OVC013/// M01/M01 Q0991 RMK OVC012/// WIND SKEID 11034G44KT', 'EKVG 052120Z AUTO 10020G32KT 1400 R12/P1500N R30/P1500N -SN OVC018/// M00/M02 Q0992 RMK OVC011/// WIND SKEID 11036G46KT', 'EKVG 052050Z AUTO 10025KT 2200 -SN OVC017/// M00/M02 Q0992 RMK OVC014/// WIND SKEID 11039KT']","['2024-02-08 20:20:00', '2024-02-08 19:50:00', '2024-02-08 19:20:00', '2024-02-08 18:50:00', '2024-02-08 18:20:00', '2024-02-08 17:50:00', '2024-02-08 17:20:00', '2024-02-08 16:50:00', '2024-02-08 16:20:00', '2024-02-08 15:50:00', '2024-02-08 15:20:00', '2024-02-08 14:50:00', '2024-02-08 14:20:00', '2024-02-08 13:50:00', '2024-02-08 13:20:00', '2024-02-08 12:50:00', '2024-02-08 12:20:00', '2024-02-08 11:50:00', '2024-02-08 11:20:00', '2024-02-08 10:50:00', '2024-02-08 10:20:00', '2024-02-08 09:50:00', '2024-02-08 09:20:00', '2024-02-08 08:50:00', '2024-02-08 08:20:00', '2024-02-08 07:50:00', '2024-02-08 07:20:00', '2024-02-08 06:50:00', '2024-02-08 06:20:00', '2024-02-08 05:50:00', '2024-02-08 05:20:00', '2024-02-08 04:50:00', '2024-02-08 04:20:00', '2024-02-08 03:50:00', '2024-02-08 03:20:00', '2024-02-08 02:50:00', '2024-02-08 02:20:00', '2024-02-08 01:50:00', '2024-02-08 01:20:00', '2024-02-08 00:50:00', '2024-02-08 00:20:00', '2024-02-07 23:50:00', '2024-02-07 23:20:00', '2024-02-07 22:50:00', '2024-02-07 22:20:00', '2024-02-07 21:50:00', '2024-02-07 21:20:00', '2024-02-07 20:50:00', '2024-02-07 20:20:00', '2024-02-07 19:50:00', '2024-02-07 19:20:00', '2024-02-07 18:50:00', '2024-02-07 18:20:00', '2024-02-07 17:50:00', '2024-02-07 17:20:00', '2024-02-07 16:50:00', '2024-02-07 16:20:00', '2024-02-07 15:50:00', '2024-02-07 15:20:00', '2024-02-07 14:50:00', '2024-02-07 14:20:00', '2024-02-07 13:50:00', '2024-02-07 13:20:00', '2024-02-07 12:50:00', '2024-02-07 12:20:00', '2024-02-07 11:50:00', '2024-02-07 11:20:00', '2024-02-07 10:50:00', '2024-02-07 10:20:00', '2024-02-07 09:50:00', '2024-02-07 09:20:00', '2024-02-07 08:50:00', '2024-02-07 08:20:00', '2024-02-07 07:50:00', '2024-02-07 07:20:00', '2024-02-07 06:50:00', '2024-02-07 06:20:00', '2024-02-07 05:50:00', '2024-02-07 05:20:00', '2024-02-07 04:50:00', '2024-02-07 04:20:00', '2024-02-07 03:50:00', '2024-02-07 03:20:00', '2024-02-07 02:50:00', '2024-02-07 02:20:00', '2024-02-07 01:50:00', '2024-02-07 01:20:00', '2024-02-07 00:50:00', '2024-02-07 00:20:00', '2024-02-06 23:50:00', '2024-02-06 23:20:00', '2024-02-06 22:50:00', '2024-02-06 22:20:00', '2024-02-06 21:50:00', '2024-02-06 21:20:00', '2024-02-06 20:50:00', '2024-02-06 20:20:00', '2024-02-06 19:50:00', '2024-02-06 19:20:00', '2024-02-06 18:50:00', '2024-02-06 18:20:00', '2024-02-06 17:50:00', '2024-02-06 17:20:00', '2024-02-06 16:50:00', '2024-02-06 16:20:00', '2024-02-06 15:50:00', '2024-02-06 15:20:00', '2024-02-06 14:50:00', '2024-02-06 14:20:00', '2024-02-06 13:50:00', '2024-02-06 13:20:00', '2024-02-06 12:50:00', '2024-02-06 12:20:00', '2024-02-06 11:50:00', '2024-02-06 11:20:00', '2024-02-06 10:50:00', '2024-02-06 10:20:00', '2024-02-06 09:50:00', '2024-02-06 09:20:00', '2024-02-06 08:50:00', '2024-02-06 08:20:00', '2024-02-06 07:50:00', '2024-02-06 07:20:00', '2024-02-06 06:50:00', '2024-02-06 06:20:00', '2024-02-06 05:50:00', '2024-02-06 05:20:00', '2024-02-06 04:50:00', '2024-02-06 04:20:00', '2024-02-06 03:50:00', '2024-02-06 03:20:00', '2024-02-06 02:50:00', '2024-02-06 02:20:00', '2024-02-06 01:50:00', '2024-02-06 01:20:00', '2024-02-06 00:50:00', '2024-02-06 00:20:00', '2024-02-05 23:50:00', '2024-02-05 23:20:00', '2024-02-05 22:50:00', '2024-02-05 22:20:00', '2024-02-05 21:50:00', '2024-02-05 21:20:00', '2024-02-05 20:50:00']"
Fiji, Kandavu Airport (KDV/NFKD) ,"['NFKD 072100Z 13007KT 9999 FEW028 SCT048 29/23 Q1005', 'NFKD 052100Z 14007KT 9999 -SHRA FEW024 SCT044 BKN110 28/25 Q1006']","['2024-02-07 21:00:00', '2024-02-05 21:00:00']"
Fiji, Labasa Airport (LBS/NFNL) ,"['NFNL 082000Z 27010KT 9999 -SHRA SCT022TCU BKN045 BKN100 26/24 Q1005', 'NFNL 081900Z 00000KT 9999 SCT024 25/24 Q1005', 'NFNL 080500Z 00000KT 9999 FEW015CB SCT024 BKN045 27/25 Q1003', 'NFNL 080400Z 06007KT 9999 VCSH FEW018CB SCT024 BKN045 29/26 Q1002', 'NFNL 080300Z 35014KT 9999 SCT025TCU BKN045 30/25 Q1002', 'NFNL 080200Z 33015KT 9999 SCT026TCU 31/26 Q1003', 'NFNL 080100Z 30010KT 9999 SCT026 31/25 Q1003', 'NFNL 080000Z 05009KT 9999 -SHRA SCT024 BKN045 29/26 Q1004', 'NFNL 072300Z 00000KT 9999 SCT028 30/25 Q1004', 'NFNL 072200Z 00000KT 9999 FEW030 31/25 Q1004', 'NFNL 072100Z 00000KT 9999 FEW030 29/24 Q1004', 'NFNL 072000Z 00000KT 9999 FEW028 28/25 Q1004', 'NFNL 071900Z 00000KT 9999 FEW028 25/24 Q1004', 'NFNL 070300Z 13008KT 9999 FEW025TCU SCT110 26/24 Q1003', 'NFNL 070200Z 14008KT 9999 SCT025 SCT045 OVC100 26/25 Q1003 RERA', 'NFNL 070100Z 17003KT 8000 RA FEW015CB SCT022 OVC100 25/24 Q1003', 'NFNL 070025Z 19007KT 3000 +RA FEW015CB SCT025TCU OVC100 25/24 Q1004', 'NFNL 070000Z 12007KT 9999 -SHRA SCT025TCU BKN045 BKN100 26/25 Q1004', 'NFNL 062300Z 30006KT 9999 -SHRA SCT025TCU BKN045 BKN100 29/25 Q1004', 'NFNL 062200Z 05006KT 9999 SCT025TCU SCT045 30/25 Q1004', 'NFNL 062100Z 00000KT 9999 SCT026 SCT048 30/25 Q1004', 'NFNL 062000Z 12003KT 9999 SCT026 SCT048 27/25 Q1004', 'NFNL 061900Z 00000KT 9999 SCT028 25/24 Q1005', 'NFNL 060400Z 12009KT 9999 -RA SCT024TCU SCT045 BKN110 26/25 Q1003', 'NFNL 060300Z 09005KT 9999 -RA SCT024TCU SCT045 BKN110 26/25 Q1003', 'NFNL 060200Z 30007KT 3000 +RA SCT024TCU SCT045 BKN100 26/25 Q1003', 'NFNL 060105Z 28012KT 8000 SHRA SCT024TCU SCT046 BKN290 27/26 Q1003', 'NFNL 060100Z 30009KT 9999 -SHRA SCT026TCU SCT047 BKN290 28/26 Q1003', 'NFNL 060000Z 00000KT 9999 SCT028 SCT300 33/25 Q1004', 'NFNL 052300Z 00000KT 9999 SCT028 SCT300 32/24 Q1005', 'NFNL 052200Z 00000KT 9999 FEW030 SCT300 32/25 Q1005', 'NFNL 052100Z 00000KT 9999 FEW030 SCT300 29/24 Q1005']","['2024-02-08 20:00:00', '2024-02-08 19:00:00', '2024-02-08 05:00:00', '2024-02-08 04:00:00', '2024-02-08 02:59:00', '2024-02-08 02:00:00', '2024-02-08 01:00:00', '2024-02-08 00:00:00', '2024-02-07 23:00:00', '2024-02-07 21:59:00', '2024-02-07 21:00:00', '2024-02-07 20:00:00', '2024-02-07 19:00:00', '2024-02-07 03:00:00', '2024-02-07 01:57:00', '2024-02-07 01:00:00', '2024-02-07 00:25:00', '2024-02-07 00:00:00', '2024-02-06 23:00:00', '2024-02-06 22:00:00', '2024-02-06 21:00:00', '2024-02-06 20:00:00', '2024-02-06 19:00:00', '2024-02-06 04:00:00', '2024-02-06 03:00:00', '2024-02-06 02:00:00', '2024-02-06 01:05:00', '2024-02-06 01:00:00', '2024-02-06 00:00:00', '2024-02-05 23:00:00', '2024-02-05 22:00:00', '2024-02-05 21:00:00']"
Finland, Enontekio Airport (ENF/EFET) ,"['EFET 082020Z AUTO 17005KT 140V200 9999 -SN OVC012 M19/M21 Q1001', 'EFET 081950Z AUTO 16004KT 9999 -SN OVC008 M19/M21 Q1000', 'EFET 081920Z AUTO 18004KT 130V210 9999 -SHSN BKN008 M20/M22 Q1000', 'EFET 081850Z AUTO 18003KT 150V210 9999 SCT009 BKN027 M20/M23 Q1000', 'EFET 081820Z AUTO 18005KT 150V210 9999 FEW025 M20/M23 Q1000', 'EFET 081750Z AUTO 17005KT 9999 FEW017 BKN034 M20/M22 Q1000', 'EFET 081720Z 18005KT 150V210 9999 -SN BKN043 M20/M22 Q0999', 'EFET 081650Z 18005KT 140V200 9999 -SN BKN043 M19/M22 Q0999', 'EFET 081620Z 17004KT 140V220 9999 -SN OVC042 M19/M21 Q0999', 'EFET 081550Z 17005KT 130V200 9999 -SN BKN041 M19/M21 Q0999', 'EFET 081520Z 17005KT 140V200 9999 -SN BKN020 BKN041 M18/M21 Q0998', 'EFET 081450Z 17005KT 140V200 9999 -SN BKN020 BKN041 M18/M21 Q0998', 'EFET 081420Z 16005KT 130V190 9999 -SN OVC030 M18/M20 Q0998', 'EFET 081350Z 18005KT 120V210 6000 -SN SCT013 BKN041 M18/M20 Q0998', 'EFET 081320Z 18006KT 150V210 9999 FEW013 OVC033 M18/M20 Q0998', 'EFET 081250Z 17007KT 9999 FEW026 SCT034 BKN049 M18/M20 Q0997', 'EFET 081220Z AUTO 17006KT 140V200 9999 -SN SCT038 M18/M20 Q0997', 'EFET 081150Z AUTO 17007KT 9999 -SN BKN033 M18/M20 Q0997', 'EFET 081120Z AUTO 17006KT 140V200 9999 -SN FEW022 M18/M20 Q0997', 'EFET 081050Z AUTO 16006KT 140V210 9999 -SN OVC033 M18/M20 Q0997', 'EFET 081020Z AUTO 16005KT 140V200 3000 -SN OVC027 M18/M20 Q0997', 'EFET 080950Z AUTO 16005KT 130V190 5000 -SN OVC025 M18/M20 Q0997', 'EFET 080920Z AUTO 16005KT 100V200 9999 -SN OVC043 M18/M20 Q0997', 'EFET 080850Z AUTO 15007KT 9999 -SN OVC030 M18/M20 Q0997', 'EFET 080820Z AUTO 14005KT 110V170 9999 -SN OVC021 M18/M20 Q0997', 'EFET 080750Z AUTO 16004KT 110V200 7000 -SN OVC021 M18/M20 Q0996', 'EFET 080720Z AUTO VRB02KT 7000 -SN OVC022 M20/M22 Q0996', 'EFET 080650Z AUTO 04003KT 6000 -SN OVC021 M20/M22 Q0996', 'EFET 080620Z AUTO 05003KT 9999 -SN OVC014 M20/M22 Q0996', 'EFET 080550Z AUTO 02004KT 9999 -SN OVC017 M20/M22 Q0995', 'EFET 080520Z AUTO 04003KT 9999 -SN FEW017 OVC023 M20/M22 Q0995', 'EFET 080450Z AUTO VRB02KT 9999 -SHSN OVC016 M20/M22 Q0995', 'EFET 080420Z AUTO 14004KT 110V180 9999 -SHSN OVC021 M19/M21 Q0995', 'EFET 080350Z AUTO 15003KT 120V190 9999 -SHSN BKN021 OVC034 M19/M21 Q0995', 'EFET 080320Z AUTO 15005KT 120V180 9999 -SN OVC026 M19/M21 Q0995', 'EFET 080250Z AUTO 15004KT 120V190 9999 -SN OVC023 M19/M21 Q0995', 'EFET 080220Z AUTO 15004KT 110V170 9999 -SN OVC019 M19/M21 Q0995', 'EFET 080150Z AUTO 15006KT 120V190 9999 -SN OVC021 M19/M21 Q0995', 'EFET 080120Z AUTO 15006KT 9999 -SN OVC022 M19/M21 Q0995', 'EFET 080050Z AUTO 15005KT 9999 -SN OVC023 M19/M21 Q0994', 'EFET 080020Z AUTO 15006KT 9999 -SN OVC021 M19/M21 Q0994', 'EFET 072350Z AUTO 15003KT 110V180 9999 -SN OVC009 M18/M20 Q0994', 'EFET 072320Z AUTO 12003KT 090V170 9999 -SN OVC007 M18/M20 Q0994', 'EFET 072250Z AUTO 16007KT 130V190 9999 -SN OVC007 M18/M20 Q0994', 'EFET 072220Z AUTO 16006KT 130V190 9999 -SN OVC008 M18/M20 Q0994', 'EFET 072150Z AUTO 16006KT 130V200 9999 -SN OVC008 M18/M20 Q0993', 'EFET 072120Z AUTO 16005KT 130V200 9999 -SN OVC008 M17/M19 Q0993', 'EFET 072050Z AUTO 16005KT 9999 -SN OVC008 M17/M19 Q0993', 'EFET 072020Z AUTO 17005KT 140V210 9999 -SN OVC008 M17/M19 Q0993', 'EFET 071950Z AUTO 17006KT 140V200 9999 -SN OVC008 M17/M19 Q0993', 'EFET 071920Z AUTO 17006KT 130V210 8000 -SN OVC008 M16/M18 Q0993', 'EFET 071850Z AUTO 19007KT 150V210 7000 -SN OVC007 M16/M18 Q0992', 'EFET 071820Z AUTO 19009KT 7000 -SN OVC007 M16/M18 Q0992', 'EFET 071750Z AUTO 19009KT 6000 -SN OVC007 M16/M18 Q0992', 'EFET 071720Z AUTO 19011KT 150V210 4200 -SN OVC007 M16/M18 Q0992', 'EFET 071650Z AUTO 18008KT 150V210 7000 -SN OVC008 M16/M18 Q0992', 'EFET 071620Z AUTO 18006KT 140V210 5000 -SN OVC010 M16/M18 Q0992', 'EFET 071550Z AUTO 20006KT 160V220 9000 -SN OVC011 M16/M18 Q0992', 'EFET 071520Z 20007KT 6000 -SN OVC009 M16/M18 Q0992', 'EFET 071450Z 19007KT 160V220 6000 -SN OVC009 M16/M18 Q0991', 'EFET 071420Z 19010KT 150V220 9999 -SHSN OVC010 M16/M18 Q0991', 'EFET 071350Z 19007KT 150V230 9999 -SHSN OVC010 M16/M18 Q0991', 'EFET 071320Z 17005KT 140V210 9999 OVC011 M17/M19 Q0991', 'EFET 071250Z 19006KT 150V210 9999 OVC011 M17/M19 Q0991', 'EFET 071220Z AUTO 19005KT 150V220 9999 -SHSN OVC011 M17/M19 Q0991', 'EFET 071150Z AUTO 18007KT 150V210 9999 -SHSN OVC011 M17/M19 Q0991', 'EFET 071120Z AUTO 19007KT 150V210 9999 -SHSN OVC010 M17/M19 Q0990', 'EFET 071050Z AUTO 18007KT 150V210 9999 -SHSN OVC010 M17/M19 Q0990', 'EFET 071020Z AUTO 19007KT 150V210 5000 -SHSN OVC010 M17/M19 Q0991', 'EFET 070950Z AUTO 18007KT 140V210 9999 -SHSN OVC009 M18/M20 Q0990', 'EFET 070920Z AUTO 19006KT 9999 -SN OVC006 M18/M20 Q0990', 'EFET 070850Z AUTO 12003KT 070V210 9999 -SN OVC004 M22/M24 Q0990', 'EFET 070820Z AUTO VRB02KT 9999 -SN OVC005 M22/M25 Q0990', 'EFET 070750Z AUTO 12003KT 090V170 9999 -SHSN OVC004 M23/M25 Q0990', 'EFET 070720Z AUTO VRB01KT 9999 -SHSN OVC003 M24/M26 Q0990', 'EFET 070650Z AUTO VRB02KT 9999 OVC003 M24/M27 Q0989', 'EFET 070620Z AUTO 32003KT 280V340 9999 OVC003 M25/M28 Q0989', 'EFET 070550Z AUTO 11004KT 9999 OVC004 M25/M28 Q0989', 'EFET 070520Z AUTO 05003KT 030V100 9999 OVC004 M25/M28 Q0989', 'EFET 070450Z AUTO 03003KT 010V070 9999 OVC004 M26/M29 Q0989', 'EFET 070420Z AUTO 07004KT 9999 OVC004 M27/M30 Q0989', 'EFET 070350Z AUTO VRB02KT 9999 OVC004 M27/M30 Q0989', 'EFET 070320Z AUTO 04004KT 9999 OVC003 M27/M30 Q0989', 'EFET 070250Z AUTO 33003KT 9999 OVC003 M28/M31 Q0989', 'EFET 070220Z AUTO VRB03KT 9999 OVC004 M28/M31 Q0989', 'EFET 070150Z AUTO 12005KT 9999 OVC004 M28/M31 Q0989', 'EFET 070120Z AUTO 34003KT 310V010 9999 OVC003 M28/M31 Q0989', 'EFET 070050Z AUTO VRB02KT 9999 OVC003 M27/M29 Q0989', 'EFET 070020Z AUTO VRB01KT 9999 OVC003 M27/M30 Q0989', 'EFET 062350Z AUTO VRB02KT 9999 OVC003 M26/M28 Q0989', 'EFET 062320Z AUTO 31003KT 9999 OVC003 M26/M29 Q0990', 'EFET 062250Z AUTO 30003KT 270V330 9999 OVC002 M26/M29 Q0990', 'EFET 062220Z AUTO 22003KT 9999 OVC002 M25/M28 Q0990', 'EFET 062150Z AUTO VRB02KT 9999 OVC001 M26/M28 Q0990', 'EFET 062120Z AUTO 29002KT 9999 OVC001 M25/M28 Q0990', 'EFET 062050Z AUTO 28002KT 1200 R03/1500U BCFG OVC002 M25/M27 Q0990', 'EFET 062020Z AUTO VRB01KT 5000 VV004 M25/M28 Q0990', 'EFET 061950Z AUTO 28003KT 1400 R03/1700N BCFG OVC003 M25/M28 Q0990', 'EFET 061920Z AUTO VRB02KT 0700 R03/0800N FZFG VV003 M25/M27 Q0991', 'EFET 061850Z AUTO 30003KT 260V320 4500 BR OVC002 M25/M27 Q0991', 'EFET 061820Z AUTO 29002KT 1900 BCFG OVC002 M24/M27 Q0991', 'EFET 061750Z AUTO 23002KT 0600 R03/0800 FZFG VV004 M24/M27 Q0991', 'EFET 061720Z AUTO 22002KT 0750 R03/0900D FZFG VV003 M24/M26 Q0991', 'EFET 061650Z AUTO VRB01KT 0550 R03/0500 FZFG VV002 M24/M26 Q0992', 'EFET 061620Z AUTO VRB01KT 0650 R03/0900D FZFG VV004 M25/M27 Q0992', 'EFET 061550Z AUTO VRB01KT 1100 R03/1800D BCFG OVC002 M24/M27 Q0992', 'EFET 061520Z AUTO VRB01KT 0900 R03/1000U FZFG OVC001 M24/M27 Q0992', 'EFET 061450Z AUTO VRB01KT 9999 OVC001 M24/M26 Q0993', 'EFET 061420Z AUTO VRB02KT 2500 BR OVC001 M24/M26 Q0993', 'EFET 061350Z AUTO 27003KT 240V340 1300 R03/P2000D BR VV003 M25/M27 Q0993', 'EFET 061320Z AUTO 22004KT 9999 OVC003 M24/M27 Q0993', 'EFET 061250Z AUTO 21003KT 9999 OVC004 M24/M26 Q0994', 'EFET 061220Z AUTO VRB02KT 9999 SCT005 M24/M26 Q0994', 'EFET 061150Z AUTO 23003KT 9999 FEW004 M24/M27 Q0994', 'EFET 061120Z AUTO 22002KT CAVOK M23/M26 Q0994', 'EFET 061050Z AUTO VRB01KT 9999 FEW002 M23/M26 Q0995', 'EFET 061020Z AUTO 23002KT 9999 BKN002 M24/M26 Q0995', 'EFET 060950Z AUTO 21001KT 3800 BR OVC003 M24/M26 Q0995', 'EFET 060920Z AUTO 22001KT 9999 OVC002 M24/M26 Q0996', 'EFET 060850Z AUTO 24002KT 1800 BCFG OVC002 M24/M26 Q0996', 'EFET 060820Z AUTO 28002KT 9000 OVC002 M23/M26 Q0996', 'EFET 060750Z AUTO 22002KT 0500 R03/0600N FZFG VV003 M23/M26 Q0996', 'EFET 060720Z AUTO 22002KT 0500 R03/0600N FZFG VV003 M23/M26 Q0996', 'EFET 060650Z AUTO 23002KT 0600 R03/0700N FZFG VV003 M24/M26 Q0997', 'EFET 060620Z AUTO 17002KT 1300 R03/P2000D BCFG VV002 M24/M26 Q0997', 'EFET 060550Z AUTO VRB02KT 9999 OVC002 M23/M25 Q0997', 'EFET 060520Z AUTO 21002KT 9999 OVC002 M23/M26 Q0997', 'EFET 060450Z AUTO VRB01KT 9999 OVC003 M24/M27 Q0998', 'EFET 060420Z AUTO VRB01KT 9999 OVC002 M24/M27 Q0998', 'EFET 060350Z AUTO VRB02KT 9999 -SHSN OVC003 M25/M27 Q0998', 'EFET 060320Z AUTO 27002KT 9999 -SHSN OVC003 M24/M26 Q0998', 'EFET 060250Z AUTO VRB01KT 9999 OVC003 M26/M28 Q0999', 'EFET 060220Z AUTO VRB01KT 9999 -SHSN OVC003 M25/M28 Q0999', 'EFET 060150Z AUTO 07003KT 020V120 9999 OVC003 M26/M28 Q0999', 'EFET 060120Z AUTO 03001KT 9999 -SHSN OVC003 M24/M26 Q0999', 'EFET 060050Z AUTO 01003KT 9999 OVC002 M24/M27 Q0999', 'EFET 060020Z AUTO 04005KT 9999 -SN OVC003 M22/M24 Q0999', 'EFET 052350Z AUTO 04004KT 9999 SCT006 M25/M27 Q0999', 'EFET 052320Z AUTO 10003KT CAVOK M25/M28 Q0999', 'EFET 052250Z AUTO VRB01KT CAVOK M26/M28 Q0999', 'EFET 052220Z AUTO VRB02KT CAVOK M23/M24 Q0999', 'EFET 052150Z AUTO 02005KT CAVOK M20/M22 Q0999', 'EFET 052120Z AUTO 03005KT CAVOK M21/M23 Q0999', 'EFET 052050Z AUTO 02005KT CAVOK M19/M21 Q0999']","['2024-02-08 20:20:00', '2024-02-08 19:50:00', '2024-02-08 19:20:00', '2024-02-08 18:50:00', '2024-02-08 18:20:00', '2024-02-08 17:50:00', '2024-02-08 17:20:00', '2024-02-08 16:50:00', '2024-02-08 16:20:00', '2024-02-08 15:50:00', '2024-02-08 15:20:00', '2024-02-08 14:50:00', '2024-02-08 14:20:00', '2024-02-08 13:50:00', '2024-02-08 13:20:00', '2024-02-08 12:50:00', '2024-02-08 12:20:00', '2024-02-08 11:50:00', '2024-02-08 11:20:00', '2024-02-08 10:50:00', '2024-02-08 10:20:00', '2024-02-08 09:50:00', '2024-02-08 09:20:00', '2024-02-08 08:50:00', '2024-02-08 08:20:00', '2024-02-08 07:50:00', '2024-02-08 07:20:00', '2024-02-08 06:50:00', '2024-02-08 06:20:00', '2024-02-08 05:50:00', '2024-02-08 05:20:00', '2024-02-08 04:50:00', '2024-02-08 04:20:00', '2024-02-08 03:50:00', '2024-02-08 03:20:00', '2024-02-08 02:50:00', '2024-02-08 02:20:00', '2024-02-08 01:50:00', '2024-02-08 01:20:00', '2024-02-08 00:50:00', '2024-02-08 00:20:00', '2024-02-07 23:50:00', '2024-02-07 23:20:00', '2024-02-07 22:50:00', '2024-02-07 22:20:00', '2024-02-07 21:50:00', '2024-02-07 21:20:00', '2024-02-07 20:50:00', '2024-02-07 20:20:00', '2024-02-07 19:50:00', '2024-02-07 19:20:00', '2024-02-07 18:50:00', '2024-02-07 18:20:00', '2024-02-07 17:50:00', '2024-02-07 17:20:00', '2024-02-07 16:50:00', '2024-02-07 16:20:00', '2024-02-07 15:50:00', '2024-02-07 15:20:00', '2024-02-07 14:50:00', '2024-02-07 14:20:00', '2024-02-07 13:50:00', '2024-02-07 13:20:00', '2024-02-07 12:50:00', '2024-02-07 12:20:00', '2024-02-07 11:50:00', '2024-02-07 11:20:00', '2024-02-07 10:50:00', '2024-02-07 10:20:00', '2024-02-07 09:50:00', '2024-02-07 09:20:00', '2024-02-07 08:50:00', '2024-02-07 08:20:00', '2024-02-07 07:50:00', '2024-02-07 07:20:00', '2024-02-07 06:50:00', '2024-02-07 06:20:00', '2024-02-07 05:50:00', '2024-02-07 05:20:00', '2024-02-07 04:50:00', '2024-02-07 04:20:00', '2024-02-07 03:50:00', '2024-02-07 03:20:00', '2024-02-07 02:50:00', '2024-02-07 02:20:00', '2024-02-07 01:50:00', '2024-02-07 01:20:00', '2024-02-07 00:50:00', '2024-02-07 00:20:00', '2024-02-06 23:50:00', '2024-02-06 23:20:00', '2024-02-06 22:50:00', '2024-02-06 22:20:00', '2024-02-06 21:50:00', '2024-02-06 21:20:00', '2024-02-06 20:50:00', '2024-02-06 20:20:00', '2024-02-06 19:50:00', '2024-02-06 19:20:00', '2024-02-06 18:50:00', '2024-02-06 18:20:00', '2024-02-06 17:50:00', '2024-02-06 17:20:00', '2024-02-06 16:50:00', '2024-02-06 16:20:00', '2024-02-06 15:50:00', '2024-02-06 15:20:00', '2024-02-06 14:50:00', '2024-02-06 14:20:00', '2024-02-06 13:50:00', '2024-02-06 13:20:00', '2024-02-06 12:50:00', '2024-02-06 12:20:00', '2024-02-06 11:50:00', '2024-02-06 11:20:00', '2024-02-06 10:50:00', '2024-02-06 10:20:00', '2024-02-06 09:50:00', '2024-02-06 09:20:00', '2024-02-06 08:50:00', '2024-02-06 08:20:00', '2024-02-06 07:50:00', '2024-02-06 07:20:00', '2024-02-06 06:50:00', '2024-02-06 06:20:00', '2024-02-06 05:50:00', '2024-02-06 05:20:00', '2024-02-06 04:50:00', '2024-02-06 04:20:00', '2024-02-06 03:50:00', '2024-02-06 03:20:00', '2024-02-06 02:50:00', '2024-02-06 02:20:00', '2024-02-06 01:50:00', '2024-02-06 01:20:00', '2024-02-06 00:50:00', '2024-02-06 00:20:00', '2024-02-05 23:50:00', '2024-02-05 23:20:00', '2024-02-05 22:50:00', '2024-02-05 22:20:00', '2024-02-05 21:50:00', '2024-02-05 21:20:00', '2024-02-05 20:50:00']"
Finland, Helsinki Vantaa Airport (HEL/EFHK) ,"['EFHK 082020Z 05008KT 9999 BKN011 M16/M19 Q1006 TEMPO FEW010', 'EFHK 081950Z 05006KT 9999 FEW009 BKN010 M16/M18 Q1005 TEMPO FEW010', 'EFHK 081920Z 05006KT 9999 -SN FEW011 BKN048 M15/M18 Q1005 NOSIG', 'EFHK 081850Z 05007KT 9999 -SN FEW011 BKN048 M14/M17 Q1005 NOSIG', 'EFHK 081820Z 05006KT 9999 -SN FEW011 BKN049 M14/M17 Q1004 NOSIG', 'EFHK 081750Z 05007KT 9999 -SN FEW010 BKN048 M14/M17 Q1004 NOSIG', 'EFHK 081720Z 05006KT 9999 -SN FEW010 BKN049 M14/M17 Q1004 TEMPO BKN009', 'EFHK 081650Z 06007KT 9999 -SN SCT010 BKN049 M14/M16 Q1004 TEMPO BKN009', 'EFHK 081620Z 06008KT 9999 -SN BKN009 BKN049 M13/M16 Q1004 TEMPO SCT009', 'EFHK 081550Z 06008KT 9999 -SN BKN009 BKN049 M13/M15 Q1004 TEMPO SCT010', 'EFHK 081520Z 06007KT 9999 -SN SCT013 BKN049 M13/M16 Q1003 TEMPO BKN009', 'EFHK 081450Z 07006KT 9999 -SN FEW013 BKN049 M13/M15 Q1003 NOSIG', 'EFHK 081420Z 05007KT 9999 BKN049 M13/M16 Q1003 NOSIG', 'EFHK 081350Z 05008KT 9999 BKN048 M13/M15 Q1003 NOSIG', 'EFHK 081320Z 05006KT 9999 BKN048 M12/M15 Q1003 NOSIG', 'EFHK 081250Z 05007KT 9999 BKN046 M13/M15 Q1003 NOSIG', 'EFHK 081220Z 05007KT 9999 BKN044 M13/M16 Q1002 NOSIG', 'EFHK 081150Z 07007KT 9999 BKN045 M13/M15 Q1002 NOSIG', 'EFHK 081120Z 05008KT 9999 FEW045 M13/M15 Q1002 NOSIG', 'EFHK 081050Z 07008KT 9999 -SN SCT040 M13/M16 Q1002 NOSIG', 'EFHK 081020Z 05007KT 9999 -SN FEW030 M14/M16 Q1002 NOSIG', 'EFHK 080950Z 05007KT 9999 -SN FEW030 M15/M16 Q1001 NOSIG', 'EFHK 080920Z 05006KT 9999 -SN FEW020 M15/M16 Q1001 NOSIG', 'EFHK 080850Z 04007KT 9999 -SN FEW020 M16/M18 Q1001 NOSIG', 'EFHK 080820Z 04005KT 9999 -SN BKN018 M16/M18 Q1001 NOSIG', 'EFHK 080750Z 04006KT 9999 -SN BKN017 M17/M19 Q1001 NOSIG', 'EFHK 080720Z 02003KT 330V060 9999 -SN SCT013 BKN018 M17/M19 Q1001 TEMPO BKN012', 'EFHK 080650Z 36004KT 330V030 9999 -SN SCT013 BKN017 M17/M19 Q1001 TEMPO 3000 BKN012', 'EFHK 080620Z 02003KT 9999 -SN FEW013 BKN043 M18/M20 Q1000 NOSIG', 'EFHK 080550Z 36003KT 340V040 9999 -SN BKN040 M19/M21 Q1000 NOSIG', 'EFHK 080520Z 36004KT 9999 FEW020 BKN040 M21/M22 Q1000 NOSIG', 'EFHK 080450Z 36004KT 9999 SCT040 M23/M25 Q0999 NOSIG', 'EFHK 080420Z 33004KT 9999 FEW040 M23/M25 Q0999 NOSIG', 'EFHK 080350Z 32003KT CAVOK M21/M23 Q0999 NOSIG', 'EFHK 080320Z 01004KT CAVOK M20/M22 Q0999 NOSIG', 'EFHK 080250Z 36003KT CAVOK M20/M22 Q0999 NOSIG', 'EFHK 080220Z 36002KT CAVOK M21/M23 Q0999 NOSIG', 'EFHK 080150Z 36002KT CAVOK M20/M21 Q0999 NOSIG', 'EFHK 080120Z 36004KT CAVOK M22/M23 Q0998 NOSIG', 'EFHK 080050Z 35003KT 9999 FEW010 M22/M23 Q0998 NOSIG', 'EFHK 080020Z 34003KT 9999 FEW010 M21/M22 Q0998 NOSIG', 'EFHK 072350Z 36003KT 330V050 9999 -SN FEW010 M20/M22 Q0998 NOSIG', 'EFHK 072320Z 36002KT 9999 -SN FEW010 M19/M21 Q0997 NOSIG', 'EFHK 072250Z 01004KT 9999 -SN FEW010 M19/M21 Q0997 NOSIG', 'EFHK 072220Z 35003KT 9999 -SN FEW019 M20/M21 Q0997 NOSIG', 'EFHK 072150Z 34004KT 9999 -SN FEW019 M18/M20 Q0997 NOSIG', 'EFHK 072120Z 33004KT 9999 -SN BKN019 M18/M20 Q0997 NOSIG', 'EFHK 072050Z 31004KT 9999 -SN FEW008 BKN019 M18/M20 Q0996 NOSIG', 'EFHK 072020Z 32003KT 9999 -SN FEW008 BKN019 M18/M20 Q0996 NOSIG', 'EFHK 071950Z 35003KT 9999 -SN BKN019 M17/M18 Q0996 NOSIG', 'EFHK 071920Z 34003KT 9999 -SN BKN019 M16/M18 Q0996 NOSIG', 'EFHK 071850Z 33003KT 9999 -SN BKN020 M16/M18 Q0996 NOSIG', 'EFHK 071820Z 34004KT 330V040 9999 -SN BKN019 M18/M19 Q0996 NOSIG', 'EFHK 071750Z 33003KT 9999 FEW020 FEW035 M18/M19 Q0996 NOSIG', 'EFHK 071720Z 33004KT 9999 FEW010 M19/M20 Q0995 NOSIG', 'EFHK 071650Z 32005KT 9999 FEW010 M18/M19 Q0995 NOSIG', 'EFHK 071620Z 31004KT 9999 FEW030 M16/M18 Q0995 NOSIG', 'EFHK 071550Z 33005KT 9999 SCT045 M16/M17 Q0995 NOSIG', 'EFHK 071520Z 34005KT 9999 FEW018 M15/M17 Q0994 NOSIG', 'EFHK 071450Z 34003KT 9999 FEW035 M14/M16 Q0994 NOSIG', 'EFHK 071420Z 01005KT 9999 FEW035 M13/M16 Q0994 NOSIG', 'EFHK 071350Z 01005KT 9999 FEW035 M13/M15 Q0994 NOSIG', 'EFHK 071320Z 04005KT 9999 FEW035 M13/M15 Q0993 NOSIG', 'EFHK 071250Z 03005KT 9999 FEW040 M13/M16 Q0993 NOSIG', 'EFHK 071220Z 35005KT 9999 FEW035 M12/M16 Q0993 NOSIG', 'EFHK 071150Z 36006KT 9999 FEW035 M12/M16 Q0993 NOSIG', 'EFHK 071120Z 02008KT 9999 FEW007 M12/M16 Q0993 NOSIG', 'EFHK 071050Z 03008KT 9999 FEW010 M12/M15 Q0992 NOSIG', 'EFHK 071020Z 01008KT 350V050 9999 -SN FEW009 M12/M15 Q0992 NOSIG', 'EFHK 070950Z 04008KT 9999 -SN FEW009 SCT040 M11/M14 Q0992 NOSIG', 'EFHK 070920Z 03008KT 9999 -SN FEW011 OVC038 M11/M14 Q0992 TEMPO BKN012', 'EFHK 070850Z 05008KT 7000 -SN FEW011 OVC037 M11/M13 Q0992 BECMG 9999 BKN012', 'EFHK 070820Z 05009KT 6000 -SN FEW010 OVC038 M11/M13 Q0992 BECMG 9999', 'EFHK 070750Z 05008KT 7000 -SN FEW010 BKN035 M11/M12 Q0991 BECMG 9999', 'EFHK 070720Z 05008KT 9000 -SN FEW010 BKN035 M11/M13 Q0991 NOSIG', 'EFHK 070650Z 04011KT 9000 -SN FEW009 BKN030 M10/M12 Q0991 NOSIG', 'EFHK 070620Z 04011KT 9999 -SN SCT009 BKN035 M10/M12 Q0991 TEMPO BKN009', 'EFHK 070550Z 04011KT 9999 -SN FEW009 BKN035 M10/M12 Q0991 TEMPO 7000 BKN010', 'EFHK 070520Z 05011KT 9999 FEW010 BKN035 M10/M11 Q0991 TEMPO 7000', 'EFHK 070450Z 06010KT 8000 -SN FEW025 BKN030 M09/M11 Q0990 TEMPO 7000', 'EFHK 070420Z 05012KT 8000 -SN FEW020 BKN027 M09/M11 Q0991 NOSIG', 'EFHK 070350Z 05011KT 7000 -SN FEW020 BKN025 M09/M11 Q0991 TEMPO 9999', 'EFHK 070320Z 05010KT 8000 -SN FEW015 BKN022 M09/M10 Q0991 TEMPO 7000', 'EFHK 070250Z 05011KT 9999 -SN FEW015 BKN020 M09/M10 Q0991 TEMPO 7000', 'EFHK 070220Z 05012KT 9999 -SN FEW015 BKN020 M09/M10 Q0991 NOSIG', 'EFHK 070150Z 04011KT 9999 -SN BKN020 M09/M10 Q0991 NOSIG', 'EFHK 070120Z 05011KT 9999 -SN BKN019 M09/M10 Q0991 NOSIG', 'EFHK 070050Z 04009KT 7000 -SN FEW018 BKN020 M09/M10 Q0992 TEMPO 9999', 'EFHK 070020Z 05010KT 9999 -SN BKN026 M09/M11 Q0992 TEMPO 7000', 'EFHK 062350Z 04009KT 9999 -SN FEW022 BKN030 M09/M11 Q0992 TEMPO 7000', 'EFHK 062320Z 05009KT 4000 -SN FEW028 BKN036 M09/M10 Q0993 TEMPO 9999', 'EFHK 062250Z 06009KT 9999 -SN BKN035 M09/M10 Q0993 TEMPO 7000', 'EFHK 062220Z 05009KT 9999 -SN BKN035 M09/M10 Q0993 TEMPO 7000', 'EFHK 062150Z 06008KT 8000 -SN BKN034 M08/M10 Q0994 TEMPO 7000', 'EFHK 062120Z 06008KT 8000 -SN FEW023 BKN033 M08/M09 Q0994 TEMPO 7000', 'EFHK 062050Z 06007KT 6000 -SN BKN031 M08/M09 Q0995 TEMPO 9999', 'EFHK 062020Z 07004KT 6000 -SN BKN029 M08/M10 Q0995 TEMPO 4000', 'EFHK 061950Z 08005KT 5000 -SN BKN029 M08/M09 Q0995 TEMPO 4000', 'EFHK 061920Z 08006KT 7000 -SN BKN028 M08/M10 Q0996 TEMPO 4000', 'EFHK 061850Z 08006KT 9999 -SN BKN030 M08/M10 Q0996 NOSIG', 'EFHK 061820Z 10006KT 9999 -SN FEW010 BKN034 M08/M09 Q0996 NOSIG', 'EFHK 061750Z 08006KT 9999 -SN FEW028 BKN036 M08/M09 Q0996 NOSIG', 'EFHK 061720Z VRB04KT 9999 FEW027 BKN037 M08/M09 Q0996 NOSIG', 'EFHK 061650Z 09004KT 060V120 9999 -SN FEW012 BKN038 M08/M09 Q0996 NOSIG', 'EFHK 061620Z 10003KT 050V120 9999 -SN FEW012 BKN039 M07/M08 Q0996 NOSIG', 'EFHK 061550Z 08004KT 060V120 9999 -SN FEW010 SCT022 BKN040 M07/M08 Q0997 NOSIG', 'EFHK 061520Z 07003KT 060V130 9999 -SN FEW012 SCT028 BKN040 M07/M08 Q0997 NOSIG', 'EFHK 061450Z 09003KT 040V150 9999 -SN FEW015 BKN028 BKN040 M06/M08 Q0997 NOSIG', 'EFHK 061420Z 08003KT 9999 BKN028 BKN040 M06/M08 Q0997 NOSIG', 'EFHK 061350Z 09003KT 9999 -SN FEW020 BKN028 M06/M08 Q0997 NOSIG', 'EFHK 061320Z VRB02KT 9999 -SN FEW018 BKN028 M06/M08 Q0997 NOSIG', 'EFHK 061250Z VRB01KT 9999 -SN FEW010 SCT018 BKN030 M06/M07 Q0997 NOSIG', 'EFHK 061220Z 00000KT 2500 -SN SCT010 BKN030 M05/M07 Q0997 TEMPO 8000 BKN013', 'EFHK 061150Z VRB01KT 9000 -SN FEW010 SCT020 BKN028 M05/M07 Q0997 TEMPO 5000 BKN013', 'EFHK 061120Z VRB02KT 9000 -SN BKN022 BKN028 M06/M07 Q0997 TEMPO 7000', 'EFHK 061050Z 32002KT 2800 -SN SCT015 BKN030 M06/M07 Q0997 BECMG 9999', 'EFHK 061020Z 00000KT 9999 -SN SCT014 BKN025 M05/M08 Q0997 NOSIG', 'EFHK 060950Z 00000KT 9999 -SN FEW016 BKN025 M05/M08 Q0997 NOSIG', 'EFHK 060920Z 33002KT 9999 -SN FEW015 BKN025 M06/M09 Q0997 NOSIG', 'EFHK 060850Z 34003KT 9999 -SN FEW018 BKN024 M06/M08 Q0997 NOSIG', 'EFHK 060820Z VRB02KT 9999 -SN FEW017 BKN023 M06/M08 Q0997 NOSIG', 'EFHK 060750Z 35003KT 320V020 9999 SCT016 BKN025 M06/M08 Q0996 NOSIG', 'EFHK 060720Z 35005KT 9999 SCT017 BKN023 M06/M09 Q0996 NOSIG', 'EFHK 060650Z 34007KT 9999 -SN SCT019 BKN025 M06/M09 Q0996 NOSIG', 'EFHK 060620Z 33005KT 9999 -SN BKN020 BKN025 M06/M09 Q0996 NOSIG', 'EFHK 060550Z 34004KT 9999 -SN BKN020 M06/M08 Q0996 NOSIG', 'EFHK 060520Z 35004KT 9999 -SN BKN019 M06/M08 Q0995 NOSIG', 'EFHK 060450Z 02005KT 350V050 9999 BKN020 M06/M08 Q0995 NOSIG', 'EFHK 060420Z 35006KT 310V040 9999 -SN BKN020 M05/M08 Q0995 NOSIG', 'EFHK 060350Z 34007KT 9999 -SN BKN019 M05/M08 Q0995 NOSIG', 'EFHK 060320Z 33008KT 9999 -SN BKN019 M05/M08 Q0995 NOSIG', 'EFHK 060250Z 33010KT 9999 -SN BKN018 M05/M08 Q0995 NOSIG', 'EFHK 060220Z 33008KT 9999 BKN019 M05/M08 Q0994 NOSIG', 'EFHK 060150Z 32012KT 9999 BKN019 M05/M08 Q0994 NOSIG', 'EFHK 060120Z 33011KT 9999 -SN BKN019 M05/M08 Q0994 NOSIG', 'EFHK 060050Z 32010KT 9999 -SN BKN020 M05/M08 Q0994 NOSIG', 'EFHK 060020Z 33009KT 9999 -SN BKN021 M04/M08 Q0994 NOSIG', 'EFHK 052350Z 34010KT 9999 -SN BKN020 M04/M08 Q0993 NOSIG', 'EFHK 052320Z 33006KT 9999 -SN SCT018 BKN021 M04/M07 Q0993 NOSIG', 'EFHK 052250Z 34009KT 9999 -SN SCT017 BKN028 M04/M07 Q0993 NOSIG', 'EFHK 052220Z 34009KT 9999 BKN017 BKN028 M04/M07 Q0992 NOSIG', 'EFHK 052150Z 35011KT 9999 -SN BKN014 BKN030 M04/M07 Q0992 TEMPO SCT015 BKN030', 'EFHK 052120Z 35011KT 9999 -SN BKN012 M03/M06 Q0991 NOSIG', 'EFHK 052050Z 31009KT 9999 -SN BKN014 M03/M05 Q0991 NOSIG']","['2024-02-08 20:20:00', '2024-02-08 19:50:00', '2024-02-08 19:20:00', '2024-02-08 18:50:00', '2024-02-08 18:20:00', '2024-02-08 17:50:00', '2024-02-08 17:20:00', '2024-02-08 16:50:00', '2024-02-08 16:20:00', '2024-02-08 15:50:00', '2024-02-08 15:20:00', '2024-02-08 14:50:00', '2024-02-08 14:20:00', '2024-02-08 13:50:00', '2024-02-08 13:20:00', '2024-02-08 12:50:00', '2024-02-08 12:20:00', '2024-02-08 11:50:00', '2024-02-08 11:20:00', '2024-02-08 10:50:00', '2024-02-08 10:20:00', '2024-02-08 09:50:00', '2024-02-08 09:20:00', '2024-02-08 08:50:00', '2024-02-08 08:20:00', '2024-02-08 07:50:00', '2024-02-08 07:20:00', '2024-02-08 06:50:00', '2024-02-08 06:20:00', '2024-02-08 05:50:00', '2024-02-08 05:20:00', '2024-02-08 04:50:00', '2024-02-08 04:20:00', '2024-02-08 03:50:00', '2024-02-08 03:20:00', '2024-02-08 02:50:00', '2024-02-08 02:20:00', '2024-02-08 01:50:00', '2024-02-08 01:20:00', '2024-02-08 00:50:00', '2024-02-08 00:20:00', '2024-02-07 23:50:00', '2024-02-07 23:20:00', '2024-02-07 22:50:00', '2024-02-07 22:20:00', '2024-02-07 21:50:00', '2024-02-07 21:20:00', '2024-02-07 20:50:00', '2024-02-07 20:20:00', '2024-02-07 19:50:00', '2024-02-07 19:20:00', '2024-02-07 18:50:00', '2024-02-07 18:20:00', '2024-02-07 17:50:00', '2024-02-07 17:20:00', '2024-02-07 16:50:00', '2024-02-07 16:20:00', '2024-02-07 15:50:00', '2024-02-07 15:20:00', '2024-02-07 14:50:00', '2024-02-07 14:20:00', '2024-02-07 13:50:00', '2024-02-07 13:20:00', '2024-02-07 12:50:00', '2024-02-07 12:20:00', '2024-02-07 11:50:00', '2024-02-07 11:20:00', '2024-02-07 10:50:00', '2024-02-07 10:20:00', '2024-02-07 09:50:00', '2024-02-07 09:20:00', '2024-02-07 08:50:00', '2024-02-07 08:20:00', '2024-02-07 07:50:00', '2024-02-07 07:20:00', '2024-02-07 06:50:00', '2024-02-07 06:20:00', '2024-02-07 05:50:00', '2024-02-07 05:20:00', '2024-02-07 04:50:00', '2024-02-07 04:20:00', '2024-02-07 03:50:00', '2024-02-07 03:20:00', '2024-02-07 02:50:00', '2024-02-07 02:20:00', '2024-02-07 01:50:00', '2024-02-07 01:20:00', '2024-02-07 00:50:00', '2024-02-07 00:20:00', '2024-02-06 23:50:00', '2024-02-06 23:20:00', '2024-02-06 22:50:00', '2024-02-06 22:20:00', '2024-02-06 21:50:00', '2024-02-06 21:20:00', '2024-02-06 20:50:00', '2024-02-06 20:20:00', '2024-02-06 19:50:00', '2024-02-06 19:20:00', '2024-02-06 18:50:00', '2024-02-06 18:20:00', '2024-02-06 17:50:00', '2024-02-06 17:20:00', '2024-02-06 16:50:00', '2024-02-06 16:20:00', '2024-02-06 15:50:00', '2024-02-06 15:20:00', '2024-02-06 14:50:00', '2024-02-06 14:20:00', '2024-02-06 13:50:00', '2024-02-06 13:20:00', '2024-02-06 12:50:00', '2024-02-06 12:20:00', '2024-02-06 11:50:00', '2024-02-06 11:20:00', '2024-02-06 10:50:00', '2024-02-06 10:20:00', '2024-02-06 09:50:00', '2024-02-06 09:20:00', '2024-02-06 08:50:00', '2024-02-06 08:20:00', '2024-02-06 07:50:00', '2024-02-06 07:20:00', '2024-02-06 06:50:00', '2024-02-06 06:20:00', '2024-02-06 05:50:00', '2024-02-06 05:20:00', '2024-02-06 04:50:00', '2024-02-06 04:20:00', '2024-02-06 03:50:00', '2024-02-06 03:20:00', '2024-02-06 02:50:00', '2024-02-06 02:20:00', '2024-02-06 01:50:00', '2024-02-06 01:20:00', '2024-02-06 00:50:00', '2024-02-06 00:20:00', '2024-02-05 23:50:00', '2024-02-05 23:20:00', '2024-02-05 22:50:00', '2024-02-05 22:20:00', '2024-02-05 21:50:00', '2024-02-05 21:20:00', '2024-02-05 20:50:00']"
Finland, Ivalo Airport (IVL/EFIV) ,"['EFIV 082020Z 26006KT CAVOK M22/M25 Q1005', 'EFIV 081950Z AUTO 25008KT 9999 -SHSN NCD M24/M26 Q1005', 'EFIV 081920Z AUTO 25004KT 9999 -SN NCD M24/M26 Q1005', 'EFIV 081850Z AUTO VRB01KT CAVOK M24/M27 Q1004', 'EFIV 081820Z AUTO 26003KT 220V280 CAVOK M22/M25 Q1004', 'EFIV 081750Z AUTO 27003KT CAVOK M22/M24 Q1004', 'EFIV 081720Z VRB01KT CAVOK M22/M24 Q1004', 'EFIV 081650Z 25006KT CAVOK M22/M24 Q1004', 'EFIV 081620Z 24006KT 9999 FEW010 M21/M23 Q1004', 'EFIV 081550Z 25006KT 9999 FEW010 M20/M23 Q1004', 'EFIV 081520Z AUTO 25006KT 9999 -SHSN NCD M21/M23 Q1003', 'EFIV 081450Z AUTO 24007KT CAVOK M21/M24 Q1003', 'EFIV 081420Z AUTO 24005KT 9999 -SHSN NCD M20/M22 Q1003', 'EFIV 081350Z 23005KT 200V260 9999 FEW011 M20/M22 Q1003', 'EFIV 081320Z 20006KT 170V230 9999 FEW011 M19/M22 Q1003', 'EFIV 081250Z 20005KT 9999 -SN BKN011 M19/M21 Q1002', 'EFIV 081220Z 22004KT 190V250 9999 -SN BKN011 M19/M22 Q1002', 'EFIV 081150Z 22004KT 9999 -SN BKN012 M20/M23 Q1002', 'EFIV 081120Z 21005KT 170V230 9999 -SN BKN015 M19/M22 Q1002', 'EFIV 081050Z 21006KT 9999 -SN BKN014 M18/M21 Q1002', 'EFIV 081020Z AUTO 19007KT 150V210 9999 OVC014 M18/M21 Q1002', 'EFIV 080950Z AUTO 20006KT 9999 OVC013 M18/M21 Q1002', 'EFIV 080920Z AUTO 18006KT 140V210 9999 -SN OVC013 M20/M22 Q1002', 'EFIV 080850Z AUTO VRB01KT 8000 -SHSN OVC012 M20/M23 Q1001', 'EFIV 080820Z AUTO VRB02KT 9999 -SN BKN013 OVC026 M20/M23 Q1001', 'EFIV 080750Z 22002KT 7000 -SN SCT013 BKN027 M20/M23 Q1001', 'EFIV 080720Z 23005KT 7000 -SN SCT011 BKN027 M21/M23 Q1001', 'EFIV 080650Z 23004KT 8000 -SN FEW011 OVC029 M21/M24 Q1000', 'EFIV 080620Z VRB02KT 8000 -SN OVC029 M21/M24 Q1000', 'EFIV 080550Z VRB02KT 8000 -SN OVC030 M22/M24 Q1000', 'EFIV 080520Z AUTO 27003KT 9999 -SHSN SCT032 M21/M24 Q1000', 'EFIV 080450Z AUTO 22004KT CAVOK M21/M23 Q1000', 'EFIV 080420Z AUTO 27003KT 9999 -SHSN FEW033 M21/M24 Q1000', 'EFIV 080350Z AUTO 26002KT 9999 -SN OVC033 M22/M25 Q1000', 'EFIV 080320Z AUTO 28002KT 9999 -SHSN OVC032 M23/M26 Q1000', 'EFIV 080250Z AUTO 25003KT 9999 -SHSN BKN034 M23/M26 Q1000', 'EFIV 080220Z AUTO 25005KT 9999 -SN NSC M24/M27 Q1000', 'EFIV 080150Z AUTO 25004KT 9999 -SN OVC048 M23/M26 Q0999', 'EFIV 080120Z AUTO 22006KT 9999 OVC048 M23/M26 Q0999', 'EFIV 080050Z AUTO 25003KT 9999 -SHSN BKN045 M25/M27 Q0999', 'EFIV 080020Z AUTO 25004KT 9999 -SN NSC M26/M29 Q0999', 'EFIV 072350Z AUTO 24004KT CAVOK M25/M27 Q0999', 'EFIV 072320Z AUTO 28003KT 250V320 CAVOK M25/M28 Q0998', 'EFIV 072250Z AUTO 23003KT 9999 -SHSN NCD M27/M29 Q0998', 'EFIV 072220Z AUTO VRB02KT CAVOK M27/M30 Q0998', 'EFIV 072150Z AUTO 24005KT 9999 -SHSN NCD M24/M26 Q0998', 'EFIV 072120Z AUTO VRB02KT CAVOK M25/M28 Q0998', 'EFIV 072050Z 19004KT 9999 FEW012 SCT032 M21/M24 Q0998', 'EFIV 072020Z 21003KT 160V240 9999 FEW028 M20/M23 Q0998', 'EFIV 071950Z AUTO 24002KT 9999 -SHSN OVC034 M21/M23 Q0997', 'EFIV 071920Z AUTO VRB02KT 6000 -SHSN BKN035 M23/M26 Q0997', 'EFIV 071850Z AUTO 22002KT 9999 -SN FEW021 M22/M24 Q0997', 'EFIV 071820Z AUTO 00000KT 9999 -SN OVC029 M21/M24 Q0997', 'EFIV 071750Z AUTO VRB01KT 9999 -SN OVC029 M22/M25 Q0997', 'EFIV 071720Z AUTO 20003KT 9999 -SN OVC028 M21/M23 Q0997', 'EFIV 071650Z 28001KT 9999 -SN OVC029 M22/M24 Q0997', 'EFIV 071620Z VRB02KT 9999 -SN OVC028 M22/M24 Q0996', 'EFIV 071550Z VRB01KT 9999 -SHSN OVC028 M22/M25 Q0996', 'EFIV 071520Z AUTO VRB01KT 9999 -SHSN BKN028 M21/M23 Q0996', 'EFIV 071450Z AUTO VRB01KT 9999 -SHSN SCT028 M22/M24 Q0996', 'EFIV 071420Z AUTO 16005KT 9999 FEW028 M20/M22 Q0996', 'EFIV 071350Z AUTO 16006KT 9999 -SHSN NCD M19/M22 Q0995', 'EFIV 071320Z AUTO 17004KT 9999 -SN SCT022 M18/M21 Q0995', 'EFIV 071250Z AUTO 12003KT 9999 -SHSN OVC022 M17/M20 Q0995', 'EFIV 071220Z AUTO 12002KT 9999 -SN OVC022 M18/M20 Q0995', 'EFIV 071150Z 11002KT 9999 -SN BKN023 M18/M20 Q0995', 'EFIV 071120Z VRB02KT 9999 -SN BKN023 M18/M21 Q0995', 'EFIV 071050Z 19003KT 160V220 9999 -SHSN BKN022 M17/M20 Q0994', 'EFIV 071020Z AUTO VRB02KT 9999 -SN OVC019 M17/M20 Q0994', 'EFIV 070950Z AUTO 17003KT 140V200 9999 -SN OVC018 M17/M20 Q0994', 'EFIV 070920Z AUTO 16003KT 9999 -SHSN OVC017 M18/M20 Q0994', 'EFIV 070850Z AUTO VRB01KT 9999 -SHSN OVC012 M18/M20 Q0994', 'EFIV 070820Z AUTO 24003KT 9999 -SHSN OVC011 M18/M21 Q0993', 'EFIV 070750Z AUTO 24005KT 9999 -SHSN OVC011 M18/M21 Q0993', 'EFIV 070720Z 23004KT 9999 -SN OVC011 M18/M21 Q0993', 'EFIV 070650Z 24003KT 9999 -SN OVC011 M19/M21 Q0993', 'EFIV 070620Z 25005KT 9999 -SN OVC011 M20/M22 Q0993', 'EFIV 070550Z AUTO 24004KT 9000 -SN BKN013 M20/M23 Q0992', 'EFIV 070520Z AUTO 24006KT 9999 -SN SCT013 M20/M23 Q0992', 'EFIV 070450Z AUTO 23007KT 9999 -SN FEW010 M20/M23 Q0992', 'EFIV 070420Z AUTO 22007KT 9000 -SN OVC011 M20/M22 Q0992', 'EFIV 070350Z AUTO 23006KT 9999 -SN OVC012 M19/M22 Q0992', 'EFIV 070320Z AUTO 23008KT 9999 -SN OVC010 M19/M22 Q0992', 'EFIV 070250Z AUTO 23005KT 9999 -SN OVC009 M19/M22 Q0992', 'EFIV 070220Z AUTO 24006KT 9999 -SN SCT010 M19/M22 Q0992', 'EFIV 070150Z AUTO 23006KT 9000 -SN FEW010 M19/M22 Q0992', 'EFIV 070120Z AUTO 23007KT 4700 -SN FEW010 M20/M22 Q0992', 'EFIV 070050Z AUTO 23008KT 3200 -SN FEW003 M20/M22 Q0992', 'EFIV 070020Z AUTO 23007KT 3900 -SN FEW009 M20/M23 Q0992', 'EFIV 062350Z AUTO 22008KT 5000 -SN FEW009 M20/M23 Q0992', 'EFIV 062320Z AUTO 22008KT 3900 -SN FEW002 SCT009 M20/M23 Q0992', 'EFIV 062250Z AUTO 22008KT 2800 -SN SCT003 M21/M23 Q0992', 'EFIV 062220Z AUTO 22008KT 3600 -SN FEW002 M21/M24 Q0992', 'EFIV 062150Z AUTO 22007KT 6000 -SN BKN008 M22/M24 Q0992', 'EFIV 062120Z AUTO 22007KT 6000 -SN NCD M22/M24 Q0991', 'EFIV 062050Z 22007KT 170V230 5000 BR NSC M21/M24 Q0992', 'EFIV 062020Z 22010KT 4700 BR FEW044 M21/M24 Q0992', 'EFIV 061950Z AUTO 22008KT 6000 -SN NCD M22/M24 Q0992', 'EFIV 061920Z AUTO 22008KT 8000 -SN NCD M22/M25 Q0992', 'EFIV 061850Z AUTO 23009KT 6000 -SN NCD M22/M24 Q0992', 'EFIV 061820Z AUTO 23009KT 9999 -SN NCD M22/M24 Q0992', 'EFIV 061750Z AUTO 22009KT 9999 -SHSN NCD M22/M24 Q0992', 'EFIV 061720Z AUTO 23010KT 9999 -SN NCD M21/M24 Q0992', 'EFIV 061650Z 22008KT CAVOK M21/M24 Q0992', 'EFIV 061620Z 22008KT CAVOK M21/M24 Q0993', 'EFIV 061550Z 23009KT CAVOK M21/M24 Q0993', 'EFIV 061520Z 23010KT CAVOK M21/M23 Q0993', 'EFIV 061450Z 23010KT CAVOK M21/M23 Q0993', 'EFIV 061420Z 23009KT CAVOK M21/M23 Q0993', 'EFIV 061350Z 23008KT CAVOK M21/M23 Q0994', 'EFIV 061320Z 23009KT CAVOK M20/M23 Q0994', 'EFIV 061250Z 23008KT CAVOK M20/M23 Q0994', 'EFIV 061220Z 22007KT CAVOK M20/M23 Q0994', 'EFIV 061150Z 22007KT CAVOK M20/M23 Q0995', 'EFIV 061120Z 23008KT CAVOK M21/M23 Q0995', 'EFIV 061050Z 23005KT CAVOK M21/M23 Q0995', 'EFIV 061020Z AUTO 22007KT CAVOK M21/M24 Q0995', 'EFIV 060950Z AUTO 23005KT 9999 -SHSN FEW008 M22/M24 Q0996', 'EFIV 060920Z AUTO 24004KT 9999 -SN OVC007 M22/M24 Q0996', 'EFIV 060850Z AUTO 23006KT 9999 -SHSN BKN006 M22/M24 Q0996', 'EFIV 060820Z AUTO 24007KT 9999 -SHSN BKN007 M22/M24 Q0996', 'EFIV 060750Z AUTO 24007KT 9999 -SHSN OVC007 M22/M24 Q0997', 'EFIV 060720Z AUTO 23008KT 9999 -SHSN BKN005 M21/M24 Q0997', 'EFIV 060650Z 22006KT 9999 -SN OVC005 M20/M23 Q0997', 'EFIV 060620Z 23005KT 9999 -SN OVC004 M20/M23 Q0997', 'EFIV 060550Z 23007KT 9999 -SN OVC004 M20/M22 Q0997', 'EFIV 060520Z 23006KT 9999 -SN OVC005 M20/M22 Q0998', 'EFIV 060450Z AUTO 25006KT 9999 -SHSN OVC004 M19/M22 Q0998', 'EFIV 060420Z AUTO 25004KT 9999 -SN OVC004 M20/M22 Q0999', 'EFIV 060350Z AUTO 23005KT 9999 -SN OVC005 M20/M22 Q0999', 'EFIV 060320Z AUTO 27003KT 9999 -SHSN OVC003 M20/M23 Q0999', 'EFIV 060250Z AUTO 24004KT 9999 -SHSN OVC002 M20/M22 Q1000', 'EFIV 060220Z AUTO 27003KT 9999 OVC002 M20/M22 Q1000', 'EFIV 060150Z AUTO 23007KT 9999 -SHSN OVC002 M20/M23 Q1000', 'EFIV 060120Z AUTO 25005KT 9999 -SN OVC005 M21/M23 Q1000', 'EFIV 060050Z AUTO 25005KT 9999 OVC004 M21/M24 Q1000', 'EFIV 060020Z AUTO VRB02KT 9999 OVC005 M21/M24 Q1000', 'EFIV 052350Z AUTO 24004KT 9999 -SHSN OVC004 M22/M24 Q1000', 'EFIV 052320Z AUTO 26003KT 240V300 9999 -SHSN OVC004 M22/M25 Q1001', 'EFIV 052250Z AUTO VRB01KT 9999 -SHSN OVC004 M23/M26 Q1001', 'EFIV 052220Z AUTO VRB01KT 9999 -SHSN OVC005 M23/M26 Q1001', 'EFIV 052150Z AUTO 25004KT 220V300 9999 -SN OVC006 M23/M26 Q1000', 'EFIV 052120Z 25004KT 9999 -SN OVC006 M24/M27 Q1001', 'EFIV 052050Z 25004KT 9999 -SN OVC007 M24/M27 Q1001']","['2024-02-08 20:20:00', '2024-02-08 19:50:00', '2024-02-08 19:20:00', '2024-02-08 18:50:00', '2024-02-08 18:20:00', '2024-02-08 17:50:00', '2024-02-08 17:20:00', '2024-02-08 16:50:00', '2024-02-08 16:20:00', '2024-02-08 15:50:00', '2024-02-08 15:20:00', '2024-02-08 14:50:00', '2024-02-08 14:20:00', '2024-02-08 13:50:00', '2024-02-08 13:20:00', '2024-02-08 12:50:00', '2024-02-08 12:20:00', '2024-02-08 11:50:00', '2024-02-08 11:20:00', '2024-02-08 10:50:00', '2024-02-08 10:20:00', '2024-02-08 09:50:00', '2024-02-08 09:20:00', '2024-02-08 08:50:00', '2024-02-08 08:20:00', '2024-02-08 07:50:00', '2024-02-08 07:20:00', '2024-02-08 06:50:00', '2024-02-08 06:20:00', '2024-02-08 05:50:00', '2024-02-08 05:20:00', '2024-02-08 04:50:00', '2024-02-08 04:20:00', '2024-02-08 03:50:00', '2024-02-08 03:20:00', '2024-02-08 02:50:00', '2024-02-08 02:20:00', '2024-02-08 01:50:00', '2024-02-08 01:20:00', '2024-02-08 00:50:00', '2024-02-08 00:20:00', '2024-02-07 23:50:00', '2024-02-07 23:20:00', '2024-02-07 22:50:00', '2024-02-07 22:20:00', '2024-02-07 21:50:00', '2024-02-07 21:20:00', '2024-02-07 20:50:00', '2024-02-07 20:20:00', '2024-02-07 19:50:00', '2024-02-07 19:20:00', '2024-02-07 18:50:00', '2024-02-07 18:20:00', '2024-02-07 17:50:00', '2024-02-07 17:20:00', '2024-02-07 16:50:00', '2024-02-07 16:20:00', '2024-02-07 15:50:00', '2024-02-07 15:20:00', '2024-02-07 14:50:00', '2024-02-07 14:20:00', '2024-02-07 13:50:00', '2024-02-07 13:20:00', '2024-02-07 12:50:00', '2024-02-07 12:20:00', '2024-02-07 11:50:00', '2024-02-07 11:20:00', '2024-02-07 10:50:00', '2024-02-07 10:20:00', '2024-02-07 09:50:00', '2024-02-07 09:20:00', '2024-02-07 08:50:00', '2024-02-07 08:20:00', '2024-02-07 07:50:00', '2024-02-07 07:20:00', '2024-02-07 06:50:00', '2024-02-07 06:20:00', '2024-02-07 05:50:00', '2024-02-07 05:20:00', '2024-02-07 04:50:00', '2024-02-07 04:20:00', '2024-02-07 03:50:00', '2024-02-07 03:20:00', '2024-02-07 02:50:00', '2024-02-07 02:20:00', '2024-02-07 01:50:00', '2024-02-07 01:20:00', '2024-02-07 00:50:00', '2024-02-07 00:20:00', '2024-02-06 23:50:00', '2024-02-06 23:20:00', '2024-02-06 22:50:00', '2024-02-06 22:20:00', '2024-02-06 21:50:00', '2024-02-06 21:20:00', '2024-02-06 20:50:00', '2024-02-06 20:20:00', '2024-02-06 19:50:00', '2024-02-06 19:20:00', '2024-02-06 18:50:00', '2024-02-06 18:20:00', '2024-02-06 17:50:00', '2024-02-06 17:20:00', '2024-02-06 16:50:00', '2024-02-06 16:20:00', '2024-02-06 15:50:00', '2024-02-06 15:20:00', '2024-02-06 14:50:00', '2024-02-06 14:20:00', '2024-02-06 13:50:00', '2024-02-06 13:20:00', '2024-02-06 12:50:00', '2024-02-06 12:20:00', '2024-02-06 11:50:00', '2024-02-06 11:20:00', '2024-02-06 10:50:00', '2024-02-06 10:20:00', '2024-02-06 09:50:00', '2024-02-06 09:20:00', '2024-02-06 08:50:00', '2024-02-06 08:20:00', '2024-02-06 07:50:00', '2024-02-06 07:20:00', '2024-02-06 06:50:00', '2024-02-06 06:20:00', '2024-02-06 05:50:00', '2024-02-06 05:20:00', '2024-02-06 04:50:00', '2024-02-06 04:20:00', '2024-02-06 03:50:00', '2024-02-06 03:20:00', '2024-02-06 02:50:00', '2024-02-06 02:20:00', '2024-02-06 01:50:00', '2024-02-06 01:20:00', '2024-02-06 00:50:00', '2024-02-06 00:20:00', '2024-02-05 23:50:00', '2024-02-05 23:20:00', '2024-02-05 22:50:00', '2024-02-05 22:20:00', '2024-02-05 21:50:00', '2024-02-05 21:20:00', '2024-02-05 20:50:00']"
Finland, Joensuu Airport (JOE/EFJO) ,"['EFJO 082020Z AUTO 32005KT CAVOK M25/M27 Q1006', 'EFJO 081950Z AUTO 33005KT CAVOK M25/M27 Q1006', 'EFJO 081920Z AUTO 34005KT CAVOK M25/M27 Q1006', 'EFJO 081850Z AUTO 36004KT CAVOK M25/M28 Q1006', 'EFJO 081820Z AUTO 35004KT CAVOK M25/M27 Q1006', 'EFJO 081750Z AUTO 35004KT CAVOK M25/M27 Q1005', 'EFJO 081720Z AUTO 35004KT CAVOK M24/M26 Q1005', 'EFJO 081650Z AUTO 35004KT 9999 -SHSN NCD M23/M26 Q1005', 'EFJO 081620Z 36004KT CAVOK M24/M27 Q1005', 'EFJO 081550Z 35004KT CAVOK M23/M25 Q1005', 'EFJO 081520Z 35003KT 310V020 CAVOK M23/M25 Q1005', 'EFJO 081450Z AUTO 36004KT CAVOK M23/M25 Q1005', 'EFJO 081420Z AUTO VRB02KT 9999 2400 NCD M21/M23 Q1005', 'EFJO 081350Z AUTO VRB02KT CAVOK M20/M23 Q1005', 'EFJO 081320Z AUTO 32002KT CAVOK M20/M22 Q1005', 'EFJO 081250Z AUTO VRB01KT CAVOK M20/M23 Q1005', 'EFJO 081220Z AUTO VRB01KT CAVOK M19/M22 Q1004', 'EFJO 081150Z AUTO 32002KT CAVOK M19/M21 Q1004', 'EFJO 081120Z AUTO 01002KT CAVOK M19/M21 Q1004', 'EFJO 081050Z AUTO 36002KT CAVOK M20/M23 Q1004', 'EFJO 081020Z AUTO 02002KT CAVOK M21/M23 Q1004', 'EFJO 080950Z AUTO VRB01KT CAVOK M20/M22 Q1004', 'EFJO 080920Z AUTO VRB01KT CAVOK M22/M25 Q1003', 'EFJO 080850Z AUTO VRB01KT CAVOK M23/M25 Q1003', 'EFJO 080820Z AUTO VRB01KT CAVOK M24/M26 Q1003', 'EFJO 080750Z AUTO VRB01KT CAVOK M26/M28 Q1003', 'EFJO 080720Z AUTO VRB02KT CAVOK M25/M28 Q1002', 'EFJO 080650Z AUTO VRB02KT CAVOK M27/M30 Q1002', 'EFJO 080620Z AUTO VRB02KT CAVOK M29/M31 Q1002', 'EFJO 080550Z 01002KT CAVOK M28/M31 Q1002', 'EFJO 080520Z 01003KT 320V050 CAVOK M26/M29 Q1002', 'EFJO 080450Z AUTO 02003KT CAVOK M27/M30 Q1001', 'EFJO 080420Z AUTO VRB02KT CAVOK M26/M29 Q1001', 'EFJO 080350Z AUTO 02003KT CAVOK M25/M27 Q1001', 'EFJO 080320Z AUTO 02003KT 340V080 CAVOK M25/M28 Q1001', 'EFJO 080250Z AUTO VRB02KT CAVOK M26/M28 Q1001', 'EFJO 080220Z AUTO 03003KT 350V060 CAVOK M24/M27 Q1001', 'EFJO 080150Z AUTO 03004KT 350V050 CAVOK M24/M26 Q1001', 'EFJO 080120Z AUTO VRB02KT CAVOK M25/M28 Q1000', 'EFJO 080050Z AUTO VRB02KT 9999 -SN NCD M24/M26 Q1000', 'EFJO 080020Z AUTO VRB01KT 9999 -SHSN NCD M22/M24 Q1000', 'EFJO 072350Z AUTO VRB02KT 9999 -SN NCD M22/M24 Q1000', 'EFJO 072320Z AUTO 04003KT 340V090 7000 -SHSN NCD M23/M25 Q0999', 'EFJO 072250Z AUTO VRB02KT 9999 -SN NCD M24/M26 Q0999', 'EFJO 072220Z AUTO VRB02KT CAVOK M23/M25 Q0999', 'EFJO 072150Z AUTO VRB02KT CAVOK M21/M24 Q0999', 'EFJO 072120Z AUTO 06005KT 9999 -SHSN NCD M21/M23 Q0999', 'EFJO 072050Z AUTO 06004KT 030V100 CAVOK M21/M23 Q0999', 'EFJO 072020Z AUTO 06003KT 020V090 CAVOK M21/M23 Q0998', 'EFJO 071950Z AUTO 06004KT 020V090 CAVOK M21/M23 Q0998', 'EFJO 071920Z AUTO 06004KT 030V090 CAVOK M21/M23 Q0998', 'EFJO 071850Z AUTO 06004KT 9999 -SN NCD M21/M23 Q0997', 'EFJO 071820Z AUTO 06005KT 030V090 CAVOK M20/M22 Q0997', 'EFJO 071750Z AUTO 06005KT 030V090 CAVOK M20/M22 Q0997', 'EFJO 071720Z AUTO 06003KT 020V090 CAVOK M20/M22 Q0998', 'EFJO 071650Z AUTO 05005KT 020V080 CAVOK M20/M22 Q0997', 'EFJO 071620Z 05005KT 010V080 CAVOK M20/M22 Q0997', 'EFJO 071550Z 05005KT 010V080 CAVOK M19/M21 Q0997', 'EFJO 071520Z 05006KT CAVOK M19/M21 Q0997', 'EFJO 071450Z AUTO 04004KT 9999 -SN NCD M19/M22 Q0997', 'EFJO 071420Z AUTO 04004KT 9999 -SN NCD M20/M22 Q0996', 'EFJO 071350Z AUTO 03004KT 9999 -SHSN NCD M20/M22 Q0996', 'EFJO 071320Z AUTO 03004KT 9999 -SN NCD M19/M21 Q0996', 'EFJO 071250Z AUTO 04004KT 9999 -SHSN NCD M19/M22 Q0996', 'EFJO 071220Z AUTO 05003KT 010V080 9999 -SHSN NCD M20/M22 Q0996', 'EFJO 071150Z AUTO 04004KT 010V080 9999 -SN NCD M20/M22 Q0996', 'EFJO 071120Z AUTO 04003KT 360V070 9999 -SN NCD M20/M22 Q0996', 'EFJO 071050Z AUTO 05004KT 020V080 9999 -SN NCD M21/M23 Q0996', 'EFJO 071020Z AUTO 04003KT 360V070 9999 -SN NCD M21/M23 Q0996', 'EFJO 070950Z AUTO 05004KT 030V090 9999 -SHSN NCD M22/M24 Q0996', 'EFJO 070920Z AUTO 05004KT 020V080 9999 -SHSN NCD M22/M25 Q0996', 'EFJO 070850Z AUTO 05003KT 020V090 9999 -SHSN NCD M23/M25 Q0996', 'EFJO 070820Z AUTO VRB02KT 9999 -SHSN NCD M23/M26 Q0996', 'EFJO 070750Z AUTO 05003KT 010V080 9999 -SHSN NCD M24/M27 Q0996', 'EFJO 070720Z AUTO 05005KT 9999 -SHSN NCD M24/M26 Q0996', 'EFJO 070650Z AUTO 05005KT CAVOK M24/M27 Q0996', 'EFJO 070620Z 06005KT 360V080 CAVOK M24/M26 Q0996', 'EFJO 070550Z 07004KT 040V100 CAVOK M25/M27 Q0996', 'EFJO 070520Z 09003KT 070V130 CAVOK M25/M27 Q0996', 'EFJO 070450Z AUTO 07003KT 9999 BKN001 M23/M25 Q0996', 'EFJO 070420Z AUTO 07004KT 9999 3700 -SHSN OVC002 M22/M24 Q0996', 'EFJO 070350Z AUTO 08003KT 2000 BCFG VV003 M22/M24 Q0996', 'EFJO 070320Z AUTO 12005KT 1300 R10/2000D BCFG OVC001 M22/M24 Q0996', 'EFJO 070250Z AUTO 12004KT 9999 OVC002 M22/M24 Q0996', 'EFJO 070220Z AUTO 11007KT 9999 -SHSN OVC002 M22/M24 Q0996', 'EFJO 070150Z AUTO 12007KT 9999 OVC004 M22/M24 Q0997', 'EFJO 070120Z AUTO 12007KT 9999 -SHSN OVC004 M22/M24 Q0997', 'EFJO 070050Z AUTO 12007KT 9999 -SHSN BKN004 M24/M26 Q0997', 'EFJO 070020Z AUTO 12007KT 9999 OVC004 M23/M25 Q0997', 'EFJO 062350Z AUTO 12005KT 9999 -SHSN BKN005 M23/M25 Q0997', 'EFJO 062320Z AUTO 12006KT 9999 BKN005 M23/M25 Q0997', 'EFJO 062250Z AUTO 12006KT 9999 FEW005 M22/M24 Q0997', 'EFJO 062220Z AUTO 12006KT CAVOK M22/M24 Q0997', 'EFJO 062150Z AUTO 12005KT CAVOK M21/M23 Q0997', 'EFJO 062120Z AUTO 13006KT CAVOK M23/M25 Q0998', 'EFJO 062050Z AUTO 13006KT CAVOK M21/M23 Q0997', 'EFJO 062020Z AUTO 12005KT CAVOK M21/M23 Q0997', 'EFJO 061950Z AUTO 13004KT CAVOK M22/M24 Q0997', 'EFJO 061920Z AUTO 13003KT CAVOK M21/M23 Q0998', 'EFJO 061850Z AUTO 09003KT CAVOK M23/M25 Q0998', 'EFJO 061820Z AUTO 10003KT CAVOK M24/M26 Q0998', 'EFJO 061750Z AUTO VRB01KT CAVOK M24/M27 Q0998', 'EFJO 061720Z AUTO 10002KT CAVOK M24/M26 Q0997', 'EFJO 061650Z AUTO 07002KT CAVOK M23/M25 Q0998', 'EFJO 061620Z 11001KT CAVOK M23/M24 Q0998', 'EFJO 061550Z VRB01KT CAVOK M21/M23 Q0998', 'EFJO 061520Z VRB01KT CAVOK M21/M23 Q0998', 'EFJO 061450Z AUTO 00000KT 4200 -SN NCD M20/M22 Q0998', 'EFJO 061420Z AUTO VRB01KT 2000 BR NCD M20/M22 Q0998', 'EFJO 061350Z AUTO VRB01KT CAVOK M18/M20 Q0998', 'EFJO 061320Z AUTO VRB02KT CAVOK M15/M18 Q0998', 'EFJO 061250Z AUTO 03002KT CAVOK M15/M17 Q0998', 'EFJO 061220Z AUTO 04003KT CAVOK M15/M17 Q0997', 'EFJO 061150Z AUTO 04003KT CAVOK M15/M17 Q0998', 'EFJO 061120Z AUTO 04003KT 350V070 9999 -SHSN NCD M15/M17 Q0998', 'EFJO 061050Z AUTO 04004KT 010V080 9999 -SN NCD M15/M17 Q0997', 'EFJO 061020Z AUTO 04004KT 9999 -SN NCD M15/M18 Q0997', 'EFJO 060950Z AUTO 01003KT 330V050 9999 -SHSN NCD M15/M17 Q0997', 'EFJO 060920Z AUTO 02003KT 9999 -SHSN NCD M15/M17 Q0997', 'EFJO 060850Z AUTO 01003KT 9999 -SHSN NCD M16/M18 Q0997', 'EFJO 060820Z AUTO 02003KT 9999 -SHSN NCD M16/M18 Q0997', 'EFJO 060750Z AUTO 36003KT CAVOK M17/M19 Q0996', 'EFJO 060720Z AUTO 35003KT 9999 -SHSN FEW014 M17/M19 Q0996', 'EFJO 060650Z AUTO 01003KT 9000 -SN SCT014 M17/M19 Q0996', 'EFJO 060620Z AUTO 36003KT 7000 -SN OVC014 M17/M20 Q0996', 'EFJO 060550Z 01003KT 9999 -SHSN OVC014 M16/M18 Q0996', 'EFJO 060520Z 36003KT 9999 -SHSN OVC014 M16/M18 Q0996', 'EFJO 060450Z AUTO 33003KT 9999 -SN OVC015 M16/M18 Q0995', 'EFJO 060420Z AUTO 34003KT 9999 -SHSN OVC015 M16/M18 Q0995', 'EFJO 060350Z AUTO 34003KT 9999 -SHSN OVC016 M16/M18 Q0995', 'EFJO 060320Z AUTO 36003KT 9999 BKN016 M16/M17 Q0995', 'EFJO 060250Z AUTO 36003KT 9999 -SN SCT016 M16/M17 Q0995', 'EFJO 060220Z AUTO 34003KT 9999 -SHSN NCD M16/M17 Q0995', 'EFJO 060150Z AUTO 02003KT 9999 -SHSN NCD M14/M16 Q0994', 'EFJO 060120Z AUTO 03004KT 350V060 9999 -SHSN NCD M14/M16 Q0994', 'EFJO 060050Z AUTO 02004KT 350V060 9999 FEW039 M13/M15 Q0994', 'EFJO 060020Z AUTO 03004KT 010V070 9999 -SN SCT021 BKN035 M13/M15 Q0994', 'EFJO 052350Z AUTO 04005KT 360V080 9999 -SN SCT039 BKN050 M13/M15 Q0994', 'EFJO 052320Z AUTO 02004KT 350V060 9999 -SHSN SCT028 M13/M15 Q0994', 'EFJO 052250Z AUTO 03005KT 9999 -SN NSC M13/M15 Q0993', 'EFJO 052220Z AUTO 04005KT CAVOK M13/M15 Q0993', 'EFJO 052150Z AUTO 04005KT CAVOK M13/M15 Q0993', 'EFJO 052120Z AUTO 03004KT CAVOK M12/M15 Q0992', 'EFJO 052050Z AUTO 05004KT CAVOK M12/M14 Q0992']","['2024-02-08 20:20:00', '2024-02-08 19:50:00', '2024-02-08 19:20:00', '2024-02-08 18:50:00', '2024-02-08 18:20:00', '2024-02-08 17:50:00', '2024-02-08 17:20:00', '2024-02-08 16:50:00', '2024-02-08 16:20:00', '2024-02-08 15:50:00', '2024-02-08 15:20:00', '2024-02-08 14:50:00', '2024-02-08 14:20:00', '2024-02-08 13:50:00', '2024-02-08 13:20:00', '2024-02-08 12:50:00', '2024-02-08 12:20:00', '2024-02-08 11:50:00', '2024-02-08 11:20:00', '2024-02-08 10:50:00', '2024-02-08 10:20:00', '2024-02-08 09:50:00', '2024-02-08 09:20:00', '2024-02-08 08:50:00', '2024-02-08 08:20:00', '2024-02-08 07:50:00', '2024-02-08 07:20:00', '2024-02-08 06:50:00', '2024-02-08 06:20:00', '2024-02-08 05:50:00', '2024-02-08 05:20:00', '2024-02-08 04:50:00', '2024-02-08 04:20:00', '2024-02-08 03:50:00', '2024-02-08 03:20:00', '2024-02-08 02:50:00', '2024-02-08 02:20:00', '2024-02-08 01:50:00', '2024-02-08 01:20:00', '2024-02-08 00:50:00', '2024-02-08 00:20:00', '2024-02-07 23:50:00', '2024-02-07 23:20:00', '2024-02-07 22:50:00', '2024-02-07 22:20:00', '2024-02-07 21:50:00', '2024-02-07 21:20:00', '2024-02-07 20:50:00', '2024-02-07 20:20:00', '2024-02-07 19:50:00', '2024-02-07 19:20:00', '2024-02-07 18:50:00', '2024-02-07 18:20:00', '2024-02-07 17:50:00', '2024-02-07 17:20:00', '2024-02-07 16:50:00', '2024-02-07 16:20:00', '2024-02-07 15:50:00', '2024-02-07 15:20:00', '2024-02-07 14:50:00', '2024-02-07 14:20:00', '2024-02-07 13:50:00', '2024-02-07 13:20:00', '2024-02-07 12:50:00', '2024-02-07 12:20:00', '2024-02-07 11:50:00', '2024-02-07 11:20:00', '2024-02-07 10:50:00', '2024-02-07 10:20:00', '2024-02-07 09:50:00', '2024-02-07 09:20:00', '2024-02-07 08:50:00', '2024-02-07 08:20:00', '2024-02-07 07:50:00', '2024-02-07 07:20:00', '2024-02-07 06:50:00', '2024-02-07 06:20:00', '2024-02-07 05:50:00', '2024-02-07 05:20:00', '2024-02-07 04:50:00', '2024-02-07 04:20:00', '2024-02-07 03:50:00', '2024-02-07 03:20:00', '2024-02-07 02:50:00', '2024-02-07 02:20:00', '2024-02-07 01:50:00', '2024-02-07 01:20:00', '2024-02-07 00:50:00', '2024-02-07 00:20:00', '2024-02-06 23:50:00', '2024-02-06 23:20:00', '2024-02-06 22:50:00', '2024-02-06 22:20:00', '2024-02-06 21:50:00', '2024-02-06 21:20:00', '2024-02-06 20:50:00', '2024-02-06 20:20:00', '2024-02-06 19:50:00', '2024-02-06 19:20:00', '2024-02-06 18:50:00', '2024-02-06 18:20:00', '2024-02-06 17:50:00', '2024-02-06 17:20:00', '2024-02-06 16:50:00', '2024-02-06 16:20:00', '2024-02-06 15:50:00', '2024-02-06 15:20:00', '2024-02-06 14:50:00', '2024-02-06 14:20:00', '2024-02-06 13:50:00', '2024-02-06 13:20:00', '2024-02-06 12:50:00', '2024-02-06 12:20:00', '2024-02-06 11:50:00', '2024-02-06 11:20:00', '2024-02-06 10:50:00', '2024-02-06 10:20:00', '2024-02-06 09:50:00', '2024-02-06 09:20:00', '2024-02-06 08:50:00', '2024-02-06 08:20:00', '2024-02-06 07:50:00', '2024-02-06 07:20:00', '2024-02-06 06:50:00', '2024-02-06 06:20:00', '2024-02-06 05:50:00', '2024-02-06 05:20:00', '2024-02-06 04:50:00', '2024-02-06 04:20:00', '2024-02-06 03:50:00', '2024-02-06 03:20:00', '2024-02-06 02:50:00', '2024-02-06 02:20:00', '2024-02-06 01:50:00', '2024-02-06 01:20:00', '2024-02-06 00:50:00', '2024-02-06 00:20:00', '2024-02-05 23:50:00', '2024-02-05 23:20:00', '2024-02-05 22:50:00', '2024-02-05 22:20:00', '2024-02-05 21:50:00', '2024-02-05 21:20:00', '2024-02-05 20:50:00']"
Finland, Jyvaskyla Airport (JYV/EFJY) ,"['EFJY 082020Z AUTO 32002KT CAVOK M29/M31 Q1007', 'EFJY 081950Z AUTO 00000KT CAVOK M27/M30 Q1006', 'EFJY 081920Z AUTO VRB01KT CAVOK M27/M29 Q1006', 'EFJY 081850Z AUTO 31001KT CAVOK M27/M30 Q1006', 'EFJY 081820Z AUTO 33002KT CAVOK M27/M29 Q1006', 'EFJY 081750Z AUTO 31001KT CAVOK M26/M28 Q1005', 'EFJY 081720Z AUTO 30002KT CAVOK M26/M29 Q1005', 'EFJY 081650Z AUTO 32002KT CAVOK M26/M29 Q1005', 'EFJY 081620Z AUTO 34001KT CAVOK M25/M27 Q1005', 'EFJY 081550Z AUTO 31002KT CAVOK M24/M25 Q1005', 'EFJY 081520Z AUTO 33002KT CAVOK M22/M23 Q1005', 'EFJY 081450Z AUTO VRB01KT CAVOK M21/M23 Q1005', 'EFJY 081420Z AUTO VRB01KT CAVOK M20/M22 Q1004', 'EFJY 081350Z AUTO VRB01KT CAVOK M18/M21 Q1004', 'EFJY 081320Z AUTO VRB01KT CAVOK M17/M21 Q1004', 'EFJY 081250Z AUTO 12001KT CAVOK M18/M21 Q1004', 'EFJY 081220Z AUTO 21002KT 9999 -SHSN NCD M18/M21 Q1004', 'EFJY 081150Z AUTO 17001KT CAVOK M19/M22 Q1003', 'EFJY 081120Z AUTO VRB01KT 9999 -SHSN FEW005 M18/M23 Q1003', 'EFJY 081050Z AUTO 14001KT CAVOK M18/M22 Q1003', 'EFJY 081020Z AUTO 20001KT 9999 SCT005 M21/M23 Q1003', 'EFJY 080950Z AUTO VRB01KT 9999 BKN005 M21/M24 Q1003', 'EFJY 080920Z AUTO 35001KT CAVOK M22/M25 Q1003', 'EFJY 080850Z AUTO 34002KT 9999 OVC005 M24/M27 Q1003', 'EFJY 080820Z AUTO 33001KT 9999 SCT005 M25/M28 Q1003', 'EFJY 080750Z AUTO VRB01KT 9999 -SN OVC004 M26/M29 Q1002', 'EFJY 080720Z AUTO 33002KT 6000 OVC003 M27/M30 Q1002', 'EFJY 080650Z AUTO VRB01KT 9999 OVC003 M26/M29 Q1002', 'EFJY 080620Z AUTO VRB01KT 9999 OVC003 M27/M30 Q1001', 'EFJY 080550Z AUTO 35001KT 9999 OVC004 M27/M30 Q1001', 'EFJY 080520Z AUTO 36002KT 9999 OVC004 M27/M30 Q1001', 'EFJY 080450Z AUTO 32001KT 9999 -SN BKN004 M29/M32 Q1001', 'EFJY 080420Z AUTO VRB01KT CAVOK M29/M32 Q1001', 'EFJY 080350Z AUTO 32002KT CAVOK M29/M32 Q1000', 'EFJY 080320Z AUTO 33001KT CAVOK M29/M32 Q1000', 'EFJY 080250Z AUTO VRB01KT CAVOK M29/M32 Q1000', 'EFJY 080220Z AUTO 29001KT CAVOK M29/M32 Q1000', 'EFJY 080150Z AUTO 33002KT CAVOK M28/M31 Q1000', 'EFJY 080120Z AUTO VRB01KT CAVOK M28/M31 Q0999', 'EFJY 080050Z AUTO 34002KT CAVOK M28/M31 Q0999', 'EFJY 080020Z AUTO 31002KT CAVOK M29/M31 Q0999', 'EFJY 072350Z AUTO VRB01KT CAVOK M28/M30 Q0999', 'EFJY 072320Z AUTO VRB01KT CAVOK M27/M30 Q0998', 'EFJY 072250Z AUTO VRB02KT CAVOK M27/M30 Q0998', 'EFJY 072220Z AUTO 33002KT CAVOK M27/M30 Q0998', 'EFJY 072150Z AUTO VRB01KT CAVOK M26/M28 Q0998', 'EFJY 072120Z AUTO 33002KT CAVOK M26/M28 Q0998', 'EFJY 072050Z AUTO 01002KT CAVOK M26/M28 Q0998', 'EFJY 072020Z AUTO 36002KT CAVOK M26/M29 Q0997', 'EFJY 071950Z AUTO 35002KT CAVOK M25/M28 Q0997', 'EFJY 071920Z AUTO 36002KT CAVOK M25/M27 Q0997', 'EFJY 071850Z AUTO 02003KT CAVOK M24/M26 Q0997', 'EFJY 071820Z AUTO 34002KT CAVOK M22/M24 Q0996', 'EFJY 071750Z AUTO 01003KT CAVOK M23/M25 Q0996', 'EFJY 071720Z AUTO 03003KT CAVOK M22/M24 Q0996', 'EFJY 071650Z AUTO 03003KT CAVOK M20/M22 Q0996', 'EFJY 071620Z AUTO 03004KT CAVOK M19/M21 Q0996', 'EFJY 071550Z AUTO 04005KT 9999 BKN038 M18/M20 Q0996', 'EFJY 071520Z AUTO 04002KT 9999 BKN038 M17/M20 Q0996', 'EFJY 071450Z AUTO 03003KT CAVOK M18/M20 Q0995', 'EFJY 071420Z AUTO 05003KT CAVOK M17/M19 Q0995', 'EFJY 071350Z 03003KT CAVOK M16/M18 Q0995', 'EFJY 071320Z 01004KT CAVOK M16/M19 Q0995', 'EFJY 071250Z 02005KT CAVOK M15/M18 Q0995', 'EFJY 071220Z 02004KT CAVOK M16/M19 Q0994', 'EFJY 071150Z 05004KT 020V080 CAVOK M16/M19 Q0994', 'EFJY 071120Z 06004KT 020V080 CAVOK M16/M19 Q0994', 'EFJY 071050Z 02003KT 350V050 CAVOK M16/M19 Q0994', 'EFJY 071020Z 04003KT 340V080 9999 SCT017 M17/M19 Q0994', 'EFJY 070950Z 03003KT 360V060 9999 BKN017 M17/M20 Q0994', 'EFJY 070920Z 36003KT 9999 BKN022 M18/M20 Q0994', 'EFJY 070850Z 02003KT 9999 SCT022 M18/M20 Q0994', 'EFJY 070820Z 01003KT 9999 -SN BKN022 M19/M21 Q0994', 'EFJY 070750Z 36003KT 9999 -SN BKN022 M19/M21 Q0994', 'EFJY 070720Z 02003KT 9999 -SN BKN017 M19/M21 Q0994', 'EFJY 070650Z 35003KT 330V040 9999 -SN BKN015 M20/M22 Q0994', 'EFJY 070620Z AUTO 35002KT 9999 -SN OVC017 M20/M22 Q0994', 'EFJY 070550Z AUTO VRB01KT 9999 -SN FEW009 OVC019 M20/M23 Q0994', 'EFJY 070520Z AUTO VRB02KT 9000 -SHSN BKN007 OVC023 M21/M23 Q0994', 'EFJY 070450Z AUTO 34004KT 9999 -SHSN BKN005 M22/M25 Q0993', 'EFJY 070420Z AUTO 34002KT 9999 -SHSN SCT011 M22/M24 Q0994', 'EFJY 070350Z AUTO 35001KT 9999 -SHSN OVC012 M22/M24 Q0994', 'EFJY 070320Z AUTO 34001KT 9000 -SN OVC013 M21/M24 Q0994', 'EFJY 070250Z AUTO 23001KT 9999 -SN OVC014 M23/M25 Q0994', 'EFJY 070220Z AUTO VRB01KT 9999 -SHSN OVC014 M22/M25 Q0994', 'EFJY 070150Z AUTO VRB01KT 9999 -SHSN BKN014 M23/M25 Q0994', 'EFJY 070120Z AUTO 32001KT CAVOK M22/M24 Q0994', 'EFJY 070050Z AUTO VRB01KT CAVOK M22/M24 Q0994', 'EFJY 070020Z AUTO 33002KT CAVOK M22/M24 Q0994', 'EFJY 062350Z AUTO 32001KT CAVOK M21/M23 Q0995', 'EFJY 062320Z AUTO 32002KT 9999 -SN FEW014 M20/M22 Q0995', 'EFJY 062250Z AUTO 32002KT 9999 -SHSN OVC015 M20/M22 Q0995', 'EFJY 062220Z AUTO 31001KT 9999 -SHSN BKN015 M20/M22 Q0995', 'EFJY 062150Z AUTO 32001KT 9999 -SN SCT014 M19/M21 Q0996', 'EFJY 062120Z AUTO 36001KT 9999 -SN OVC013 M19/M21 Q0996', 'EFJY 062050Z AUTO VRB01KT 9999 -SN OVC014 M18/M20 Q0996', 'EFJY 062020Z AUTO 33001KT 9999 -SHSN OVC015 M19/M21 Q0996', 'EFJY 061950Z AUTO VRB01KT 9999 -SHSN OVC016 M18/M20 Q0996', 'EFJY 061920Z AUTO 25001KT 9999 -SN BKN016 M19/M21 Q0996', 'EFJY 061850Z AUTO 01001KT 9999 -SHSN OVC016 M18/M20 Q0996', 'EFJY 061820Z AUTO 03001KT 9999 -SHSN OVC016 M18/M20 Q0996', 'EFJY 061750Z AUTO 34001KT 9999 -SHSN OVC015 M18/M20 Q0996', 'EFJY 061720Z AUTO 35001KT 9999 OVC015 M18/M20 Q0996', 'EFJY 061650Z AUTO 33003KT 9999 BKN015 M18/M20 Q0997', 'EFJY 061620Z AUTO 32002KT 9999 SCT015 M17/M18 Q0997', 'EFJY 061550Z AUTO 31001KT 9999 FEW015 M15/M16 Q0997', 'EFJY 061520Z AUTO VRB01KT 9999 -SHSN FEW015 M15/M16 Q0997', 'EFJY 061450Z AUTO VRB01KT 9999 -SHSN OVC016 M13/M16 Q0997', 'EFJY 061420Z AUTO 07002KT 9999 SCT017 M12/M15 Q0997', 'EFJY 061350Z 06002KT 9999 -SN FEW010 SCT018 M11/M15 Q0997', 'EFJY 061320Z 06003KT 9999 -SN FEW010 SCT018 M11/M14 Q0997', 'EFJY 061250Z VRB02KT 9999 -SHSN FEW013 BKN018 M11/M14 Q0997', 'EFJY 061220Z 11002KT 9999 -SHSN FEW013 BKN018 M11/M14 Q0997', 'EFJY 061150Z 13004KT 9999 -SHSN BKN017 M11/M14 Q0997', 'EFJY 061120Z 13002KT 9999 BKN016 M11/M14 Q0997', 'EFJY 061050Z VRB01KT 9999 SCT016 M11/M14 Q0997', 'EFJY 061020Z VRB01KT 9999 FEW015 M11/M14 Q0997', 'EFJY 060950Z VRB01KT 9999 FEW015 M10/M14 Q0997', 'EFJY 060920Z 02003KT 340V050 CAVOK M11/M14 Q0997', 'EFJY 060850Z 04002KT 9999 FEW010 M11/M14 Q0997', 'EFJY 060820Z 04004KT 9999 -SN FEW010 M11/M14 Q0997', 'EFJY 060750Z 03005KT 9999 -SN FEW010 M11/M14 Q0997', 'EFJY 060720Z 03005KT 9999 -SN FEW010 M11/M14 Q0997', 'EFJY 060650Z 04006KT 9999 -SN FEW010 M11/M14 Q0996', 'EFJY 060620Z AUTO 04005KT 9999 -SN NSC M11/M13 Q0996', 'EFJY 060550Z AUTO 03006KT 9999 -SN FEW010 M11/M13 Q0996', 'EFJY 060520Z AUTO 04005KT 9999 -SN FEW010 M11/M13 Q0996', 'EFJY 060450Z AUTO 05006KT 9999 -SN FEW010 M10/M13 Q0996', 'EFJY 060420Z AUTO 03005KT 9999 -SN BKN011 M10/M13 Q0995', 'EFJY 060350Z AUTO 03005KT 350V060 9999 -SN OVC012 M10/M12 Q0995', 'EFJY 060320Z AUTO 02005KT 9999 -SN OVC011 M10/M12 Q0995', 'EFJY 060250Z AUTO 02004KT 340V040 9999 -SN OVC013 M10/M12 Q0995', 'EFJY 060220Z AUTO 36004KT 9999 -SN OVC014 M09/M12 Q0995', 'EFJY 060150Z AUTO 36004KT 9999 -SN OVC014 M09/M12 Q0995', 'EFJY 060120Z AUTO 36005KT 9999 -SN OVC011 M09/M12 Q0995', 'EFJY 060050Z AUTO 36007KT 9999 -SN OVC011 M09/M11 Q0994', 'EFJY 060020Z AUTO 01007KT 9999 -SN SCT012 OVC026 M08/M11 Q0994', 'EFJY 052350Z AUTO 01004KT 330V050 9999 -SN OVC018 M08/M11 Q0994', 'EFJY 052320Z AUTO 02006KT 340V050 9999 -SN OVC016 M08/M11 Q0994', 'EFJY 052250Z AUTO 03008KT 9999 -SN OVC016 M08/M11 Q0993', 'EFJY 052220Z AUTO 02008KT 9999 -SN OVC015 M07/M11 Q0993', 'EFJY 052150Z AUTO 04005KT 9999 -SN OVC014 M07/M10 Q0993', 'EFJY 052120Z AUTO 03004KT 9999 -SN OVC013 M07/M10 Q0992', 'EFJY 052050Z AUTO 01004KT 350V050 9999 -SN OVC013 M07/M10 Q0992']","['2024-02-08 20:20:00', '2024-02-08 19:50:00', '2024-02-08 19:20:00', '2024-02-08 18:50:00', '2024-02-08 18:20:00', '2024-02-08 17:50:00', '2024-02-08 17:20:00', '2024-02-08 16:50:00', '2024-02-08 16:20:00', '2024-02-08 15:50:00', '2024-02-08 15:20:00', '2024-02-08 14:50:00', '2024-02-08 14:20:00', '2024-02-08 13:50:00', '2024-02-08 13:20:00', '2024-02-08 12:50:00', '2024-02-08 12:20:00', '2024-02-08 11:50:00', '2024-02-08 11:20:00', '2024-02-08 10:50:00', '2024-02-08 10:20:00', '2024-02-08 09:50:00', '2024-02-08 09:20:00', '2024-02-08 08:50:00', '2024-02-08 08:20:00', '2024-02-08 07:50:00', '2024-02-08 07:20:00', '2024-02-08 06:50:00', '2024-02-08 06:20:00', '2024-02-08 05:50:00', '2024-02-08 05:20:00', '2024-02-08 04:50:00', '2024-02-08 04:20:00', '2024-02-08 03:50:00', '2024-02-08 03:20:00', '2024-02-08 02:50:00', '2024-02-08 02:20:00', '2024-02-08 01:50:00', '2024-02-08 01:20:00', '2024-02-08 00:50:00', '2024-02-08 00:20:00', '2024-02-07 23:50:00', '2024-02-07 23:20:00', '2024-02-07 22:50:00', '2024-02-07 22:20:00', '2024-02-07 21:50:00', '2024-02-07 21:20:00', '2024-02-07 20:50:00', '2024-02-07 20:20:00', '2024-02-07 19:50:00', '2024-02-07 19:20:00', '2024-02-07 18:50:00', '2024-02-07 18:20:00', '2024-02-07 17:50:00', '2024-02-07 17:20:00', '2024-02-07 16:50:00', '2024-02-07 16:20:00', '2024-02-07 15:50:00', '2024-02-07 15:20:00', '2024-02-07 14:50:00', '2024-02-07 14:20:00', '2024-02-07 13:50:00', '2024-02-07 13:20:00', '2024-02-07 12:50:00', '2024-02-07 12:20:00', '2024-02-07 11:50:00', '2024-02-07 11:20:00', '2024-02-07 10:50:00', '2024-02-07 10:20:00', '2024-02-07 09:50:00', '2024-02-07 09:20:00', '2024-02-07 08:50:00', '2024-02-07 08:20:00', '2024-02-07 07:50:00', '2024-02-07 07:20:00', '2024-02-07 06:50:00', '2024-02-07 06:20:00', '2024-02-07 05:50:00', '2024-02-07 05:20:00', '2024-02-07 04:50:00', '2024-02-07 04:20:00', '2024-02-07 03:50:00', '2024-02-07 03:20:00', '2024-02-07 02:50:00', '2024-02-07 02:20:00', '2024-02-07 01:50:00', '2024-02-07 01:20:00', '2024-02-07 00:50:00', '2024-02-07 00:20:00', '2024-02-06 23:50:00', '2024-02-06 23:20:00', '2024-02-06 22:50:00', '2024-02-06 22:20:00', '2024-02-06 21:50:00', '2024-02-06 21:20:00', '2024-02-06 20:50:00', '2024-02-06 20:20:00', '2024-02-06 19:50:00', '2024-02-06 19:20:00', '2024-02-06 18:50:00', '2024-02-06 18:20:00', '2024-02-06 17:50:00', '2024-02-06 17:20:00', '2024-02-06 16:50:00', '2024-02-06 16:20:00', '2024-02-06 15:50:00', '2024-02-06 15:20:00', '2024-02-06 14:50:00', '2024-02-06 14:20:00', '2024-02-06 13:50:00', '2024-02-06 13:20:00', '2024-02-06 12:50:00', '2024-02-06 12:20:00', '2024-02-06 11:50:00', '2024-02-06 11:20:00', '2024-02-06 10:50:00', '2024-02-06 10:20:00', '2024-02-06 09:50:00', '2024-02-06 09:20:00', '2024-02-06 08:50:00', '2024-02-06 08:20:00', '2024-02-06 07:50:00', '2024-02-06 07:20:00', '2024-02-06 06:50:00', '2024-02-06 06:20:00', '2024-02-06 05:50:00', '2024-02-06 05:20:00', '2024-02-06 04:50:00', '2024-02-06 04:20:00', '2024-02-06 03:50:00', '2024-02-06 03:20:00', '2024-02-06 02:50:00', '2024-02-06 02:20:00', '2024-02-06 01:50:00', '2024-02-06 01:20:00', '2024-02-06 00:50:00', '2024-02-06 00:20:00', '2024-02-05 23:50:00', '2024-02-05 23:20:00', '2024-02-05 22:50:00', '2024-02-05 22:20:00', '2024-02-05 21:50:00', '2024-02-05 21:20:00', '2024-02-05 20:50:00']"
Finland, Kajaani Airport (KAJ/EFKI) ,"['EFKI 082020Z AUTO VRB02KT CAVOK M30/M33 Q1007', 'EFKI 081950Z AUTO VRB01KT 9999 FEW002 M30/M33 Q1007', 'EFKI 081920Z AUTO 08001KT CAVOK M29/M32 Q1007', 'EFKI 081850Z AUTO 00000KT CAVOK M29/M32 Q1006', 'EFKI 081820Z AUTO VRB01KT CAVOK M30/M33 Q1006', 'EFKI 081750Z AUTO 07003KT CAVOK M29/M31 Q1006', 'EFKI 081720Z AUTO VRB01KT CAVOK M28/M31 Q1006', 'EFKI 081650Z VRB02KT CAVOK M27/M30 Q1006', 'EFKI 081620Z 09002KT CAVOK M26/M29 Q1006', 'EFKI 081550Z 08001KT CAVOK M26/M29 Q1006', 'EFKI 081520Z 09002KT CAVOK M25/M28 Q1006', 'EFKI 081450Z AUTO VRB01KT CAVOK M25/M28 Q1005', 'EFKI 081420Z AUTO VRB01KT CAVOK M24/M27 Q1005', 'EFKI 081350Z AUTO 00000KT CAVOK M23/M25 Q1005', 'EFKI 081320Z AUTO 00000KT CAVOK M23/M26 Q1005', 'EFKI 081250Z AUTO 28001KT CAVOK M22/M25 Q1005', 'EFKI 081220Z AUTO 29002KT CAVOK M22/M26 Q1005', 'EFKI 081150Z AUTO VRB01KT CAVOK M23/M26 Q1005', 'EFKI 081120Z AUTO VRB01KT CAVOK M23/M27 Q1004', 'EFKI 081050Z AUTO 06003KT CAVOK M22/M26 Q1004', 'EFKI 081020Z VRB01KT CAVOK M25/M28 Q1004', 'EFKI 080950Z VRB02KT CAVOK M24/M27 Q1004', 'EFKI 080920Z VRB01KT CAVOK M26/M29 Q1004', 'EFKI 080850Z 08004KT CAVOK M27/M30 Q1003', 'EFKI 080820Z AUTO 07004KT CAVOK M28/M31 Q1003', 'EFKI 080750Z AUTO VRB01KT CAVOK M29/M33 Q1003', 'EFKI 080720Z AUTO VRB01KT CAVOK M30/M34 Q1003', 'EFKI 080650Z AUTO 07003KT CAVOK M30/M33 Q1003', 'EFKI 080620Z AUTO VRB01KT CAVOK M31/M34 Q1002', 'EFKI 080550Z AUTO 07002KT CAVOK M30/M33 Q1002', 'EFKI 080520Z AUTO 07002KT CAVOK M29/M32 Q1002', 'EFKI 080450Z AUTO VRB01KT CAVOK M31/M34 Q1002', 'EFKI 080420Z AUTO 05002KT CAVOK M30/M33 Q1002', 'EFKI 080350Z AUTO VRB01KT CAVOK M29/M32 Q1001', 'EFKI 080320Z AUTO 09002KT CAVOK M30/M33 Q1001', 'EFKI 080250Z AUTO VRB01KT CAVOK M30/M33 Q1001', 'EFKI 080220Z AUTO VRB01KT CAVOK M30/M33 Q1001', 'EFKI 080150Z AUTO VRB01KT CAVOK M30/M33 Q1001', 'EFKI 080120Z AUTO VRB02KT CAVOK M29/M32 Q1000', 'EFKI 080050Z AUTO 08003KT CAVOK M29/M31 Q1000', 'EFKI 080020Z AUTO VRB01KT CAVOK M29/M32 Q1000', 'EFKI 072350Z AUTO VRB01KT CAVOK M29/M32 Q1000', 'EFKI 072320Z AUTO VRB01KT CAVOK M29/M32 Q1000', 'EFKI 072250Z AUTO VRB01KT CAVOK M29/M32 Q1000', 'EFKI 072220Z AUTO VRB01KT CAVOK M29/M31 Q1000', 'EFKI 072150Z AUTO VRB01KT CAVOK M30/M33 Q0999', 'EFKI 072120Z AUTO 10001KT CAVOK M28/M31 Q0999', 'EFKI 072050Z AUTO VRB02KT CAVOK M28/M31 Q0999', 'EFKI 072020Z AUTO 06002KT CAVOK M27/M30 Q0999', 'EFKI 071950Z AUTO VRB02KT CAVOK M28/M31 Q0999', 'EFKI 071920Z AUTO 09003KT CAVOK M27/M29 Q0998', 'EFKI 071850Z AUTO VRB02KT CAVOK M28/M31 Q0998', 'EFKI 071820Z AUTO 09002KT CAVOK M26/M29 Q0998', 'EFKI 071750Z AUTO VRB01KT CAVOK M27/M29 Q0998', 'EFKI 071720Z AUTO 00000KT CAVOK M26/M29 Q0998', 'EFKI 071650Z AUTO VRB01KT CAVOK M26/M29 Q0998', 'EFKI 071620Z VRB01KT CAVOK M25/M27 Q0998', 'EFKI 071550Z 06003KT CAVOK M24/M26 Q0998', 'EFKI 071520Z 04003KT CAVOK M24/M26 Q0997', 'EFKI 071450Z AUTO 08003KT CAVOK M23/M25 Q0997', 'EFKI 071420Z AUTO VRB02KT CAVOK M22/M24 Q0997', 'EFKI 071350Z AUTO VRB02KT CAVOK M21/M23 Q0997', 'EFKI 071320Z AUTO 11004KT CAVOK M20/M23 Q0997', 'EFKI 071250Z AUTO 10005KT CAVOK M20/M23 Q0997', 'EFKI 071220Z AUTO 09004KT CAVOK M21/M23 Q0997', 'EFKI 071150Z AUTO 09005KT 9999 -SN NCD M21/M23 Q0996', 'EFKI 071120Z AUTO 09005KT CAVOK M21/M23 Q0997', 'EFKI 071050Z AUTO 09004KT 9999 -SHSN NCD M21/M24 Q0997', 'EFKI 071020Z 10004KT 9999 FEW011 M21/M23 Q0997', 'EFKI 070950Z 10006KT 9999 FEW004 M21/M23 Q0996', 'EFKI 070920Z 10005KT 9999 SCT003 BKN004 M21/M23 Q0996', 'EFKI 070850Z AUTO 10006KT 8000 OVC005 M21/M23 Q0996', 'EFKI 070820Z AUTO 10005KT 4000 -SN OVC005 M21/M24 Q0996', 'EFKI 070750Z AUTO 09005KT 4800 -SN OVC005 M22/M24 Q0996', 'EFKI 070720Z AUTO 08006KT 6000 -SN OVC005 M22/M25 Q0996', 'EFKI 070650Z AUTO 11004KT 9999 -SN OVC006 M22/M25 Q0996', 'EFKI 070620Z AUTO 10004KT 9999 -SN OVC004 M22/M25 Q0996', 'EFKI 070550Z AUTO 10004KT 9999 OVC004 M22/M24 Q0996', 'EFKI 070520Z AUTO VRB02KT 9999 OVC005 M22/M25 Q0996', 'EFKI 070450Z AUTO 09005KT 9999 OVC004 M22/M24 Q0995', 'EFKI 070420Z AUTO 11005KT 9999 OVC006 M22/M24 Q0995', 'EFKI 070350Z AUTO 12005KT 9999 -SHSN OVC006 M20/M22 Q0995', 'EFKI 070320Z AUTO 14005KT 9999 -SHSN OVC006 M20/M22 Q0995', 'EFKI 070250Z AUTO 13004KT 9999 -SN OVC005 M20/M22 Q0995', 'EFKI 070220Z AUTO 13003KT 090V150 9999 OVC004 M21/M23 Q0996', 'EFKI 070150Z AUTO 08003KT 9000 -SHSN OVC005 M22/M24 Q0996', 'EFKI 070120Z AUTO 06004KT 9999 -SN OVC003 M22/M25 Q0996', 'EFKI 070050Z AUTO VRB02KT 9999 OVC004 M23/M26 Q0996', 'EFKI 070020Z AUTO 32002KT 9999 OVC004 M25/M27 Q0996', 'EFKI 062350Z AUTO 02001KT 9999 -SHSN OVC004 M25/M28 Q0996', 'EFKI 062320Z AUTO VRB01KT 9999 -SHSN OVC005 M27/M30 Q0996', 'EFKI 062250Z AUTO 24001KT 9999 -SHSN OVC006 M28/M31 Q0996', 'EFKI 062220Z AUTO 06004KT 9999 -SN OVC005 M27/M30 Q0996', 'EFKI 062150Z AUTO VRB01KT 9999 SCT007 M28/M31 Q0996', 'EFKI 062120Z AUTO VRB01KT CAVOK M28/M31 Q0996', 'EFKI 062050Z AUTO VRB01KT CAVOK M28/M31 Q0996', 'EFKI 062020Z AUTO 00000KT CAVOK M27/M30 Q0996', 'EFKI 061950Z AUTO 00000KT CAVOK M27/M30 Q0996', 'EFKI 061920Z AUTO VRB01KT CAVOK M27/M29 Q0996', 'EFKI 061850Z AUTO 06002KT CAVOK M26/M28 Q0996', 'EFKI 061820Z AUTO VRB01KT CAVOK M27/M30 Q0997', 'EFKI 061750Z AUTO VRB01KT CAVOK M26/M29 Q0997', 'EFKI 061720Z AUTO 20001KT CAVOK M26/M29 Q0997', 'EFKI 061650Z AUTO VRB02KT CAVOK M26/M28 Q0997', 'EFKI 061620Z 09002KT CAVOK M24/M26 Q0997', 'EFKI 061550Z VRB02KT CAVOK M25/M27 Q0997', 'EFKI 061520Z 09003KT CAVOK M23/M26 Q0997', 'EFKI 061450Z AUTO 07003KT 5000 NCD M23/M26 Q0997', 'EFKI 061420Z AUTO 14001KT CAVOK M21/M23 Q0997', 'EFKI 061350Z AUTO VRB01KT CAVOK M20/M22 Q0998', 'EFKI 061320Z AUTO 04002KT CAVOK M19/M21 Q0998', 'EFKI 061250Z AUTO VRB02KT CAVOK M17/M20 Q0998', 'EFKI 061220Z AUTO 27003KT CAVOK M18/M20 Q0998', 'EFKI 061150Z AUTO VRB01KT CAVOK M18/M20 Q0998', 'EFKI 061120Z AUTO 06003KT CAVOK M17/M19 Q0998', 'EFKI 061050Z AUTO 05002KT 9999 4200 NCD M18/M21 Q0998', 'EFKI 061020Z AUTO 35004KT CAVOK M17/M20 Q0998', 'EFKI 060950Z AUTO 34002KT CAVOK M19/M22 Q0998', 'EFKI 060920Z AUTO 03002KT CAVOK M21/M23 Q0998', 'EFKI 060850Z AUTO VRB01KT CAVOK M22/M24 Q0998', 'EFKI 060820Z AUTO 07002KT CAVOK M23/M26 Q0998', 'EFKI 060750Z AUTO 06002KT CAVOK M25/M27 Q0998', 'EFKI 060720Z AUTO 12002KT CAVOK M25/M27 Q0998', 'EFKI 060650Z AUTO VRB01KT CAVOK M25/M27 Q0998', 'EFKI 060620Z AUTO VRB01KT CAVOK M24/M27 Q0998', 'EFKI 060550Z AUTO 00000KT CAVOK M23/M25 Q0997', 'EFKI 060520Z AUTO 26002KT CAVOK M23/M25 Q0997', 'EFKI 060450Z AUTO VRB01KT CAVOK M21/M23 Q0997', 'EFKI 060420Z AUTO 05004KT CAVOK M20/M22 Q0997', 'EFKI 060350Z AUTO 04005KT CAVOK M23/M25 Q0997', 'EFKI 060320Z AUTO 04003KT CAVOK M19/M21 Q0997', 'EFKI 060250Z AUTO 03003KT CAVOK M18/M19 Q0997', 'EFKI 060220Z AUTO 04003KT CAVOK M16/M18 Q0997', 'EFKI 060150Z AUTO 07005KT 9999 -SHSN FEW009 M16/M18 Q0997', 'EFKI 060120Z AUTO 06003KT 8000 -SHSN SCT008 M16/M18 Q0997', 'EFKI 060050Z AUTO 08003KT 040V100 9999 -SHSN NCD M17/M18 Q0996', 'EFKI 060020Z AUTO VRB02KT CAVOK M18/M20 Q0996', 'EFKI 052350Z AUTO 04003KT CAVOK M19/M21 Q0996', 'EFKI 052320Z AUTO 04005KT CAVOK M17/M19 Q0996', 'EFKI 052250Z AUTO 06002KT 9999 -SHSN FEW021 M14/M15 Q0996', 'EFKI 052220Z AUTO 04002KT 9999 FEW023 M13/M15 Q0996', 'EFKI 052150Z AUTO 05004KT 9999 FEW041 M12/M14 Q0995', 'EFKI 052120Z AUTO 06008KT 9999 -SN SCT022 M12/M14 Q0995', 'EFKI 052050Z AUTO 05006KT 9999 -SN OVC022 M11/M13 Q0995']","['2024-02-08 20:20:00', '2024-02-08 19:50:00', '2024-02-08 19:20:00', '2024-02-08 18:50:00', '2024-02-08 18:20:00', '2024-02-08 17:50:00', '2024-02-08 17:20:00', '2024-02-08 16:50:00', '2024-02-08 16:20:00', '2024-02-08 15:50:00', '2024-02-08 15:20:00', '2024-02-08 14:50:00', '2024-02-08 14:20:00', '2024-02-08 13:50:00', '2024-02-08 13:20:00', '2024-02-08 12:50:00', '2024-02-08 12:20:00', '2024-02-08 11:50:00', '2024-02-08 11:20:00', '2024-02-08 10:50:00', '2024-02-08 10:20:00', '2024-02-08 09:50:00', '2024-02-08 09:20:00', '2024-02-08 08:50:00', '2024-02-08 08:20:00', '2024-02-08 07:50:00', '2024-02-08 07:20:00', '2024-02-08 06:50:00', '2024-02-08 06:20:00', '2024-02-08 05:50:00', '2024-02-08 05:20:00', '2024-02-08 04:50:00', '2024-02-08 04:20:00', '2024-02-08 03:50:00', '2024-02-08 03:20:00', '2024-02-08 02:50:00', '2024-02-08 02:20:00', '2024-02-08 01:50:00', '2024-02-08 01:20:00', '2024-02-08 00:50:00', '2024-02-08 00:20:00', '2024-02-07 23:50:00', '2024-02-07 23:20:00', '2024-02-07 22:50:00', '2024-02-07 22:20:00', '2024-02-07 21:50:00', '2024-02-07 21:20:00', '2024-02-07 20:50:00', '2024-02-07 20:20:00', '2024-02-07 19:50:00', '2024-02-07 19:20:00', '2024-02-07 18:50:00', '2024-02-07 18:20:00', '2024-02-07 17:50:00', '2024-02-07 17:20:00', '2024-02-07 16:50:00', '2024-02-07 16:20:00', '2024-02-07 15:50:00', '2024-02-07 15:20:00', '2024-02-07 14:50:00', '2024-02-07 14:20:00', '2024-02-07 13:50:00', '2024-02-07 13:20:00', '2024-02-07 12:50:00', '2024-02-07 12:20:00', '2024-02-07 11:50:00', '2024-02-07 11:20:00', '2024-02-07 10:50:00', '2024-02-07 10:20:00', '2024-02-07 09:50:00', '2024-02-07 09:20:00', '2024-02-07 08:50:00', '2024-02-07 08:20:00', '2024-02-07 07:50:00', '2024-02-07 07:20:00', '2024-02-07 06:50:00', '2024-02-07 06:20:00', '2024-02-07 05:50:00', '2024-02-07 05:20:00', '2024-02-07 04:50:00', '2024-02-07 04:20:00', '2024-02-07 03:50:00', '2024-02-07 03:20:00', '2024-02-07 02:50:00', '2024-02-07 02:20:00', '2024-02-07 01:50:00', '2024-02-07 01:20:00', '2024-02-07 00:50:00', '2024-02-07 00:20:00', '2024-02-06 23:50:00', '2024-02-06 23:20:00', '2024-02-06 22:50:00', '2024-02-06 22:20:00', '2024-02-06 21:50:00', '2024-02-06 21:20:00', '2024-02-06 20:50:00', '2024-02-06 20:20:00', '2024-02-06 19:50:00', '2024-02-06 19:20:00', '2024-02-06 18:50:00', '2024-02-06 18:20:00', '2024-02-06 17:50:00', '2024-02-06 17:20:00', '2024-02-06 16:50:00', '2024-02-06 16:20:00', '2024-02-06 15:50:00', '2024-02-06 15:20:00', '2024-02-06 14:50:00', '2024-02-06 14:20:00', '2024-02-06 13:50:00', '2024-02-06 13:20:00', '2024-02-06 12:50:00', '2024-02-06 12:20:00', '2024-02-06 11:50:00', '2024-02-06 11:20:00', '2024-02-06 10:50:00', '2024-02-06 10:20:00', '2024-02-06 09:50:00', '2024-02-06 09:20:00', '2024-02-06 08:50:00', '2024-02-06 08:20:00', '2024-02-06 07:50:00', '2024-02-06 07:20:00', '2024-02-06 06:50:00', '2024-02-06 06:20:00', '2024-02-06 05:50:00', '2024-02-06 05:20:00', '2024-02-06 04:50:00', '2024-02-06 04:20:00', '2024-02-06 03:50:00', '2024-02-06 03:20:00', '2024-02-06 02:50:00', '2024-02-06 02:20:00', '2024-02-06 01:50:00', '2024-02-06 01:20:00', '2024-02-06 00:50:00', '2024-02-06 00:20:00', '2024-02-05 23:50:00', '2024-02-05 23:20:00', '2024-02-05 22:50:00', '2024-02-05 22:20:00', '2024-02-05 21:50:00', '2024-02-05 21:20:00', '2024-02-05 20:50:00']"
Finland, Kemi Tornio Airport (KEM/EFKE) ,"['EFKE 082020Z AUTO 13004KT CAVOK M22/M24 Q1007', 'EFKE 081950Z AUTO 14004KT CAVOK M22/M24 Q1007', 'EFKE 081920Z AUTO 13005KT CAVOK M24/M27 Q1006', 'EFKE 081850Z AUTO 13004KT CAVOK M24/M27 Q1006', 'EFKE 081820Z 14004KT 110V170 CAVOK M22/M24 Q1006', 'EFKE 081750Z 16005KT 120V180 CAVOK M21/M24 Q1006', 'EFKE 081720Z AUTO 14004KT 110V180 CAVOK M20/M22 Q1006', 'EFKE 081650Z AUTO 14004KT CAVOK M20/M22 Q1005', 'EFKE 081620Z AUTO 15004KT CAVOK M20/M22 Q1005', 'EFKE 081550Z AUTO 15004KT 110V180 CAVOK M20/M22 Q1005', 'EFKE 081520Z AUTO 14005KT CAVOK M20/M22 Q1005', 'EFKE 081450Z AUTO 14004KT CAVOK M20/M22 Q1005', 'EFKE 081420Z AUTO 15005KT CAVOK M21/M23 Q1005', 'EFKE 081350Z AUTO 15004KT CAVOK M19/M22 Q1005', 'EFKE 081320Z AUTO 15004KT CAVOK M20/M22 Q1005', 'EFKE 081250Z AUTO 15003KT 120V190 CAVOK M19/M22 Q1005', 'EFKE 081220Z AUTO 15004KT CAVOK M19/M22 Q1004', 'EFKE 081150Z AUTO 14006KT 110V170 CAVOK M19/M22 Q1004', 'EFKE 081120Z AUTO 14006KT CAVOK M19/M22 Q1004', 'EFKE 081050Z AUTO 14006KT CAVOK M20/M22 Q1004', 'EFKE 081020Z AUTO 14005KT 110V170 CAVOK M20/M23 Q1004', 'EFKE 080950Z AUTO 15005KT 120V180 9999 -SHSN NSC M21/M23 Q1004', 'EFKE 080920Z AUTO 15005KT CAVOK M22/M24 Q1003', 'EFKE 080850Z AUTO 14004KT 110V180 CAVOK M22/M25 Q1003', 'EFKE 080820Z AUTO 15005KT CAVOK M23/M26 Q1003', 'EFKE 080750Z AUTO 14005KT CAVOK M23/M26 Q1003', 'EFKE 080720Z AUTO 14005KT CAVOK M23/M26 Q1002', 'EFKE 080650Z AUTO 14004KT 120V190 CAVOK M24/M27 Q1002', 'EFKE 080620Z AUTO 14004KT 120V180 CAVOK M24/M27 Q1002', 'EFKE 080550Z AUTO 14003KT CAVOK M24/M26 Q1002', 'EFKE 080520Z AUTO 13003KT 100V160 CAVOK M25/M27 Q1002', 'EFKE 080450Z AUTO 13003KT CAVOK M24/M27 Q1001', 'EFKE 080420Z 14003KT CAVOK M24/M27 Q1001', 'EFKE 080350Z 14003KT 100V180 CAVOK M24/M26 Q1001', 'EFKE 080320Z AUTO 14004KT CAVOK M23/M26 Q1001', 'EFKE 080250Z AUTO 14005KT 100V170 CAVOK M23/M26 Q1001', 'EFKE 080220Z AUTO 13005KT CAVOK M23/M26 Q1001', 'EFKE 080150Z AUTO 14004KT 110V170 CAVOK M23/M26 Q1001', 'EFKE 080120Z AUTO 13005KT CAVOK M23/M25 Q1000', 'EFKE 080050Z AUTO 12005KT CAVOK M22/M25 Q1000', 'EFKE 080020Z 12005KT CAVOK M23/M25 Q1000', 'EFKE 072350Z 11003KT CAVOK M24/M26 Q1000', 'EFKE 072320Z AUTO 12003KT CAVOK M23/M25 Q1000', 'EFKE 072250Z AUTO 13003KT 100V160 CAVOK M22/M25 Q1000', 'EFKE 072220Z AUTO 13004KT CAVOK M22/M24 Q1000', 'EFKE 072150Z AUTO 13003KT CAVOK M21/M24 Q0999', 'EFKE 072120Z AUTO 14004KT 110V180 CAVOK M21/M23 Q0999', 'EFKE 072050Z AUTO 14005KT 110V170 CAVOK M21/M23 Q0999', 'EFKE 072020Z AUTO 14006KT 110V170 CAVOK M21/M23 Q0999', 'EFKE 071950Z AUTO 13005KT 110V170 CAVOK M21/M23 Q0999', 'EFKE 071920Z AUTO 13006KT CAVOK M20/M23 Q0999', 'EFKE 071850Z AUTO 13005KT CAVOK M20/M23 Q0998', 'EFKE 071820Z 12006KT CAVOK M20/M22 Q0998', 'EFKE 071750Z 11006KT CAVOK M20/M22 Q0998', 'EFKE 071720Z 12006KT 9999 FEW018 M19/M22 Q0998', 'EFKE 071650Z AUTO 12006KT 9999 -SHSN OVC017 M19/M21 Q0998', 'EFKE 071620Z AUTO 11005KT 9999 -SHSN OVC017 M19/M21 Q0998', 'EFKE 071550Z AUTO 11005KT 9999 -SHSN OVC017 M19/M21 Q0998', 'EFKE 071520Z AUTO 12004KT 9999 -SN OVC017 M19/M21 Q0998', 'EFKE 071450Z AUTO 13003KT 100V160 9999 -SN OVC018 M18/M20 Q0998', 'EFKE 071420Z AUTO 15003KT 120V190 9999 -SHSN OVC017 M18/M20 Q0997', 'EFKE 071350Z AUTO 14005KT 100V170 9999 -SHSN OVC017 M17/M19 Q0997', 'EFKE 071320Z AUTO 14005KT 100V170 9999 -SN OVC017 M17/M19 Q0997', 'EFKE 071250Z AUTO 15005KT 110V180 9999 -SN OVC017 M17/M19 Q0997', 'EFKE 071220Z AUTO 15006KT 110V180 9999 -SN OVC016 M17/M19 Q0997', 'EFKE 071150Z AUTO 15006KT 110V190 9999 -SN OVC017 M17/M19 Q0997', 'EFKE 071120Z AUTO 15005KT 110V180 9999 -SN OVC014 M17/M19 Q0997', 'EFKE 071050Z AUTO 15005KT 120V180 9999 -SN OVC013 M18/M20 Q0997', 'EFKE 071020Z AUTO 15005KT 120V190 9000 -SHSN OVC012 M18/M20 Q0997', 'EFKE 070950Z AUTO 13003KT 090V170 8000 -SHSN OVC008 M19/M21 Q0997', 'EFKE 070920Z AUTO 14004KT 9999 -SHSN OVC007 M19/M21 Q0997', 'EFKE 070850Z AUTO VRB02KT 9999 -SHSN BKN007 OVC043 M20/M22 Q0996', 'EFKE 070820Z AUTO 12004KT 100V160 9999 -SHSN FEW006 SCT009 BKN044 M20/M22 Q0996', 'EFKE 070750Z AUTO 12003KT 360V160 9000 -SN OVC007 M20/M22 Q0996', 'EFKE 070720Z AUTO 10003KT 9000 -SHSN OVC004 M20/M22 Q0996', 'EFKE 070650Z AUTO 12003KT 090V150 9999 OVC004 M21/M23 Q0996', 'EFKE 070620Z AUTO 13003KT 090V170 9999 OVC004 M21/M23 Q0996', 'EFKE 070550Z AUTO 12004KT 090V150 9999 OVC005 M21/M23 Q0996', 'EFKE 070520Z AUTO 12005KT 9999 OVC004 M21/M23 Q0995', 'EFKE 070450Z AUTO 13004KT 090V170 9999 OVC004 M20/M22 Q0996', 'EFKE 070420Z 13004KT 9999 OVC003 M20/M22 Q0995', 'EFKE 070350Z 13005KT 100V160 9999 -SHSN OVC003 M20/M21 Q0995', 'EFKE 070320Z AUTO 12007KT 9999 -SN OVC004 M20/M22 Q0995', 'EFKE 070250Z AUTO 12005KT 9999 -SHSN OVC003 M20/M22 Q0995', 'EFKE 070220Z AUTO 12006KT 9999 -SHSN OVC003 M20/M22 Q0995', 'EFKE 070150Z AUTO 12006KT 9999 -SN OVC003 M19/M22 Q0996', 'EFKE 070120Z AUTO 12008KT 9999 -SN OVC003 M19/M21 Q0996', 'EFKE 070050Z AUTO 13005KT 100V170 9999 -SHSN OVC003 M20/M22 Q0996', 'EFKE 070020Z 12008KT 9999 -SHSN OVC003 M19/M21 Q0996', 'EFKE 062350Z 13006KT 9999 -SN OVC003 M20/M22 Q0996', 'EFKE 062320Z AUTO 14004KT 110V200 9999 -SN OVC003 M20/M22 Q0996', 'EFKE 062250Z AUTO 14005KT 9999 -SN OVC003 M20/M22 Q0996', 'EFKE 062220Z AUTO 12003KT 080V150 9000 -SN OVC003 M20/M22 Q0996', 'EFKE 062150Z AUTO 12003KT 070V160 9999 -SN OVC003 M21/M24 Q0996', 'EFKE 062120Z AUTO VRB01KT 9999 -SN OVC004 M23/M26 Q0996', 'EFKE 062050Z AUTO VRB02KT 9999 -SHSN BKN005 M24/M26 Q0997', 'EFKE 062020Z AUTO 13003KT 9999 -SN BKN006 M23/M26 Q0997', 'EFKE 061950Z AUTO 12002KT 9999 -SHSN OVC006 M25/M27 Q0997', 'EFKE 061920Z AUTO VRB02KT 9999 SCT005 M25/M28 Q0997', 'EFKE 061850Z AUTO VRB01KT 9999 FEW005 M26/M29 Q0997', 'EFKE 061820Z 10002KT 9999 SCT005 M26/M28 Q0997', 'EFKE 061750Z VRB01KT 9999 SCT006 M25/M27 Q0997', 'EFKE 061720Z VRB02KT CAVOK M25/M28 Q0997', 'EFKE 061650Z AUTO VRB02KT 9999 -SHSN SCT007 M25/M27 Q0998', 'EFKE 061620Z AUTO 19001KT 9999 SCT007 M25/M28 Q0998', 'EFKE 061550Z AUTO 11002KT CAVOK M24/M27 Q0998', 'EFKE 061520Z AUTO 09002KT CAVOK M24/M26 Q0998', 'EFKE 061450Z AUTO 13001KT 9999 4200 -SN NSC M23/M25 Q0999', 'EFKE 061420Z AUTO VRB01KT 5000 NSC M22/M24 Q0999', 'EFKE 061350Z AUTO VRB01KT CAVOK M20/M23 Q0999', 'EFKE 061320Z AUTO 02003KT CAVOK M20/M22 Q0999', 'EFKE 061250Z AUTO 36002KT CAVOK M19/M21 Q0999', 'EFKE 061220Z AUTO 34001KT CAVOK M19/M21 Q0999', 'EFKE 061150Z AUTO 36003KT CAVOK M19/M21 Q0999', 'EFKE 061120Z AUTO 35003KT CAVOK M19/M21 Q1000', 'EFKE 061050Z AUTO 36003KT CAVOK M19/M22 Q1000', 'EFKE 061020Z AUTO 36004KT CAVOK M21/M23 Q1000', 'EFKE 060950Z AUTO 36003KT CAVOK M21/M23 Q1000', 'EFKE 060920Z AUTO 36004KT CAVOK M22/M24 Q1000', 'EFKE 060850Z AUTO 01004KT CAVOK M22/M24 Q1000', 'EFKE 060820Z AUTO 02002KT CAVOK M24/M27 Q1000', 'EFKE 060750Z AUTO 02004KT CAVOK M26/M28 Q1000', 'EFKE 060720Z AUTO 02005KT CAVOK M26/M28 Q1000', 'EFKE 060650Z AUTO 02005KT CAVOK M26/M29 Q1000', 'EFKE 060620Z AUTO 02004KT CAVOK M26/M28 Q1000', 'EFKE 060550Z AUTO 03003KT CAVOK M25/M28 Q1000', 'EFKE 060520Z AUTO 02004KT CAVOK M25/M27 Q1000', 'EFKE 060450Z AUTO 02005KT CAVOK M24/M26 Q1000', 'EFKE 060420Z AUTO 02005KT CAVOK M24/M27 Q1001', 'EFKE 060350Z AUTO 02004KT CAVOK M23/M25 Q1001', 'EFKE 060320Z AUTO 01004KT CAVOK M21/M23 Q1001', 'EFKE 060250Z 01005KT CAVOK M20/M22 Q1001', 'EFKE 060220Z 02006KT CAVOK M20/M22 Q1001', 'EFKE 060150Z AUTO 02006KT CAVOK M20/M22 Q1001', 'EFKE 060120Z AUTO 02006KT CAVOK M19/M21 Q1000', 'EFKE 060050Z AUTO 02006KT CAVOK M19/M21 Q1000', 'EFKE 060020Z 02007KT CAVOK M19/M21 Q1000', 'EFKE 052350Z 02006KT CAVOK M19/M21 Q1000', 'EFKE 052320Z AUTO 02006KT 9999 -SN NCD M18/M20 Q1000', 'EFKE 052250Z AUTO 02006KT CAVOK M18/M19 Q1000', 'EFKE 052220Z AUTO 02005KT CAVOK M17/M19 Q1000', 'EFKE 052150Z AUTO 02006KT 9999 3300 NCD M17/M18 Q0999', 'EFKE 052120Z AUTO 03005KT 9999 -SN NCD M15/M17 Q0999', 'EFKE 052050Z AUTO 03006KT CAVOK M14/M16 Q0999']","['2024-02-08 20:20:00', '2024-02-08 19:50:00', '2024-02-08 19:20:00', '2024-02-08 18:50:00', '2024-02-08 18:20:00', '2024-02-08 17:50:00', '2024-02-08 17:20:00', '2024-02-08 16:50:00', '2024-02-08 16:20:00', '2024-02-08 15:50:00', '2024-02-08 15:20:00', '2024-02-08 14:50:00', '2024-02-08 14:20:00', '2024-02-08 13:50:00', '2024-02-08 13:20:00', '2024-02-08 12:50:00', '2024-02-08 12:20:00', '2024-02-08 11:50:00', '2024-02-08 11:20:00', '2024-02-08 10:50:00', '2024-02-08 10:20:00', '2024-02-08 09:50:00', '2024-02-08 09:20:00', '2024-02-08 08:50:00', '2024-02-08 08:20:00', '2024-02-08 07:50:00', '2024-02-08 07:20:00', '2024-02-08 06:50:00', '2024-02-08 06:20:00', '2024-02-08 05:50:00', '2024-02-08 05:20:00', '2024-02-08 04:50:00', '2024-02-08 04:20:00', '2024-02-08 03:50:00', '2024-02-08 03:20:00', '2024-02-08 02:50:00', '2024-02-08 02:20:00', '2024-02-08 01:50:00', '2024-02-08 01:20:00', '2024-02-08 00:50:00', '2024-02-08 00:20:00', '2024-02-07 23:50:00', '2024-02-07 23:20:00', '2024-02-07 22:50:00', '2024-02-07 22:20:00', '2024-02-07 21:50:00', '2024-02-07 21:20:00', '2024-02-07 20:50:00', '2024-02-07 20:20:00', '2024-02-07 19:50:00', '2024-02-07 19:20:00', '2024-02-07 18:50:00', '2024-02-07 18:20:00', '2024-02-07 17:50:00', '2024-02-07 17:20:00', '2024-02-07 16:50:00', '2024-02-07 16:20:00', '2024-02-07 15:50:00', '2024-02-07 15:20:00', '2024-02-07 14:50:00', '2024-02-07 14:20:00', '2024-02-07 13:50:00', '2024-02-07 13:20:00', '2024-02-07 12:50:00', '2024-02-07 12:20:00', '2024-02-07 11:50:00', '2024-02-07 11:20:00', '2024-02-07 10:50:00', '2024-02-07 10:20:00', '2024-02-07 09:50:00', '2024-02-07 09:20:00', '2024-02-07 08:50:00', '2024-02-07 08:20:00', '2024-02-07 07:50:00', '2024-02-07 07:20:00', '2024-02-07 06:50:00', '2024-02-07 06:20:00', '2024-02-07 05:50:00', '2024-02-07 05:20:00', '2024-02-07 04:50:00', '2024-02-07 04:20:00', '2024-02-07 03:50:00', '2024-02-07 03:20:00', '2024-02-07 02:50:00', '2024-02-07 02:20:00', '2024-02-07 01:50:00', '2024-02-07 01:20:00', '2024-02-07 00:50:00', '2024-02-07 00:20:00', '2024-02-06 23:50:00', '2024-02-06 23:20:00', '2024-02-06 22:50:00', '2024-02-06 22:20:00', '2024-02-06 21:50:00', '2024-02-06 21:20:00', '2024-02-06 20:50:00', '2024-02-06 20:20:00', '2024-02-06 19:50:00', '2024-02-06 19:20:00', '2024-02-06 18:50:00', '2024-02-06 18:20:00', '2024-02-06 17:50:00', '2024-02-06 17:20:00', '2024-02-06 16:50:00', '2024-02-06 16:20:00', '2024-02-06 15:50:00', '2024-02-06 15:20:00', '2024-02-06 14:50:00', '2024-02-06 14:20:00', '2024-02-06 13:50:00', '2024-02-06 13:20:00', '2024-02-06 12:50:00', '2024-02-06 12:20:00', '2024-02-06 11:50:00', '2024-02-06 11:20:00', '2024-02-06 10:50:00', '2024-02-06 10:20:00', '2024-02-06 09:50:00', '2024-02-06 09:20:00', '2024-02-06 08:50:00', '2024-02-06 08:20:00', '2024-02-06 07:50:00', '2024-02-06 07:20:00', '2024-02-06 06:50:00', '2024-02-06 06:20:00', '2024-02-06 05:50:00', '2024-02-06 05:20:00', '2024-02-06 04:50:00', '2024-02-06 04:20:00', '2024-02-06 03:50:00', '2024-02-06 03:20:00', '2024-02-06 02:50:00', '2024-02-06 02:20:00', '2024-02-06 01:50:00', '2024-02-06 01:20:00', '2024-02-06 00:50:00', '2024-02-06 00:20:00', '2024-02-05 23:50:00', '2024-02-05 23:20:00', '2024-02-05 22:50:00', '2024-02-05 22:20:00', '2024-02-05 21:50:00', '2024-02-05 21:20:00', '2024-02-05 20:50:00']"
Finland, Kittila Airport (KTT/EFKT) ,"['EFKT 082020Z AUTO 12003KT 080V140 9999 -SN OVC017 M21/M23 Q1004', 'EFKT 081950Z AUTO 14004KT 9999 -SN OVC016 M21/M23 Q1004', 'EFKT 081920Z AUTO 13006KT 9999 -SN OVC017 M21/M23 Q1003', 'EFKT 081850Z AUTO 12004KT 9999 -SN FEW009 OVC016 M21/M23 Q1003', 'EFKT 081820Z AUTO 13004KT 090V170 9999 -SN OVC018 M21/M23 Q1003', 'EFKT 081750Z AUTO 12003KT 090V150 9999 -SN OVC019 M21/M23 Q1003', 'EFKT 081720Z AUTO 12003KT 090V150 9999 -SN OVC020 M21/M23 Q1002', 'EFKT 081650Z 12004KT 090V160 9000 -SN SCT008 BKN021 M21/M23 Q1002', 'EFKT 081620Z 13005KT 9000 -SN FEW008 BKN022 M21/M23 Q1002', 'EFKT 081550Z 11004KT 9000 -SN BKN008 BKN022 M21/M24 Q1002', 'EFKT 081520Z AUTO 10003KT 9000 -SN BKN009 BKN021 M21/M24 Q1002', 'EFKT 081450Z AUTO 12004KT 8000 -SN SCT010 SCT022 BKN026 M21/M24 Q1002', 'EFKT 081420Z AUTO 12003KT 9999 -SN SCT010 BKN021 M21/M23 Q1001', 'EFKT 081350Z 14007KT 8000 SCT010 OVC022 M20/M23 Q1001', 'EFKT 081320Z 15005KT 9999 SCT010 BKN022 M20/M23 Q1001', 'EFKT 081250Z 14006KT 9999 FEW015 M20/M23 Q1001', 'EFKT 081220Z 15006KT 9999 FEW015 M20/M22 Q1001', 'EFKT 081150Z 15008KT 9999 -SN BKN018 M20/M23 Q1000', 'EFKT 081120Z 15007KT 9999 -SN BKN023 M20/M23 Q1000', 'EFKT 081050Z 14008KT 9999 -SN BKN021 M20/M23 Q1000', 'EFKT 081020Z 15009KT 9999 -SN OVC020 M20/M23 Q1000', 'EFKT 080950Z 14010KT 7000 -SN OVC011 M20/M23 Q1000', 'EFKT 080920Z 14009KT 5000 -SN OVC015 M20/M22 Q1000', 'EFKT 080850Z 16011KT 6000 -SN OVC014 M19/M22 Q1000', 'EFKT 080820Z 14008KT 9999 -SN OVC011 M19/M21 Q0999', 'EFKT 080750Z 15006KT 8000 -SN OVC011 M19/M21 Q0999', 'EFKT 080720Z 14005KT 9999 -SN OVC011 M19/M22 Q0999', 'EFKT 080650Z AUTO 14004KT 9999 -SN OVC013 M20/M22 Q0999', 'EFKT 080620Z AUTO VRB02KT 9999 -SN OVC019 M20/M23 Q0998', 'EFKT 080550Z AUTO 33001KT 9999 -SN OVC021 M20/M22 Q0998', 'EFKT 080520Z AUTO VRB01KT 9999 -SN FEW006 OVC022 M21/M24 Q0998', 'EFKT 080450Z AUTO 12002KT 9999 -SN OVC022 M21/M24 Q0998', 'EFKT 080420Z AUTO 08002KT 9999 -SN OVC022 M21/M24 Q0998', 'EFKT 080350Z AUTO VRB01KT 9999 -SN OVC022 M21/M24 Q0998', 'EFKT 080320Z AUTO VRB01KT 9999 -SN OVC023 M22/M24 Q0998', 'EFKT 080250Z AUTO VRB01KT 9999 -SN BKN025 M23/M26 Q0998', 'EFKT 080220Z AUTO VRB02KT 9000 -SN OVC025 M22/M25 Q0998', 'EFKT 080150Z AUTO VRB01KT 9999 -SHSN OVC027 M23/M26 Q0998', 'EFKT 080120Z AUTO VRB01KT 9999 -SN OVC028 M23/M26 Q0997', 'EFKT 080050Z AUTO VRB01KT 9999 -SN FEW015 BKN027 M24/M27 Q0997', 'EFKT 080020Z AUTO 07002KT 8000 -SN BKN017 M24/M26 Q0997', 'EFKT 072350Z AUTO VRB01KT 8000 -SN BKN026 M23/M25 Q0997', 'EFKT 072320Z AUTO 05001KT 9999 -SHSN NSC M23/M26 Q0997', 'EFKT 072250Z AUTO VRB02KT 9999 -SHSN NSC M23/M25 Q0997', 'EFKT 072220Z 12002KT 9999 -SN FEW048 M23/M25 Q0997', 'EFKT 072150Z VRB02KT 9999 -SN OVC049 M22/M25 Q0997', 'EFKT 072120Z 15005KT 9999 -SN FEW030 BKN047 M22/M25 Q0997', 'EFKT 072050Z AUTO 14006KT 9999 -SN BKN029 OVC048 M22/M25 Q0996', 'EFKT 072020Z AUTO 13005KT 9999 -SN BKN029 M22/M24 Q0996', 'EFKT 071950Z AUTO 11003KT 9999 -SHSN BKN029 M22/M24 Q0996', 'EFKT 071920Z AUTO 14005KT 9999 -SN FEW012 BKN029 M22/M24 Q0996', 'EFKT 071850Z AUTO 13006KT 9999 -SN OVC026 M22/M24 Q0996', 'EFKT 071820Z AUTO 12004KT 9999 -SN OVC026 M21/M24 Q0996', 'EFKT 071750Z AUTO 13006KT 9999 -SN BKN028 M21/M24 Q0995', 'EFKT 071720Z 11002KT 8000 -SN BKN027 M21/M24 Q0995', 'EFKT 071650Z VRB02KT 7000 -SN OVC027 M20/M23 Q0995', 'EFKT 071620Z 12003KT 6000 -SN BKN016 M20/M23 Q0995', 'EFKT 071550Z 11002KT 9999 -SN SCT017 SCT021 M21/M23 Q0995', 'EFKT 071520Z AUTO VRB01KT 6000 -SN FEW017 M20/M23 Q0994', 'EFKT 071450Z AUTO 14004KT 9999 -SN BKN029 M20/M22 Q0994', 'EFKT 071420Z AUTO 15004KT 9999 -SHSN FEW020 SCT025 M19/M21 Q0994', 'EFKT 071350Z AUTO 17004KT 9999 -SN FEW019 M19/M21 Q0994', 'EFKT 071320Z AUTO 17006KT 7000 -SN BKN015 M19/M21 Q0994', 'EFKT 071250Z AUTO 17006KT 7000 -SN OVC029 M18/M21 Q0994', 'EFKT 071220Z AUTO 17008KT 9999 -SN BKN027 M18/M20 Q0994', 'EFKT 071150Z 16007KT 9999 BKN026 M18/M20 Q0994', 'EFKT 071120Z 17007KT 9999 BKN026 M17/M19 Q0993', 'EFKT 071050Z 17006KT 9999 BKN026 M17/M19 Q0993', 'EFKT 071020Z 16008KT 9999 BKN026 M17/M19 Q0993', 'EFKT 070950Z 16007KT 9999 -SN BKN022 M17/M19 Q0993', 'EFKT 070920Z 17006KT 9999 -SN FEW010 BKN018 M17/M19 Q0993', 'EFKT 070820Z 17007KT 9999 -SN FEW009 BKN017 M17/M20 Q0992', 'EFKT 070720Z 17008KT 9999 -SN BKN016 M18/M20 Q0992', 'EFKT 070650Z 17006KT 9999 -SN BKN015 M18/M20 Q0992', 'EFKT 070620Z VRB02KT 9999 -SN OVC015 M18/M20 Q0992', 'EFKT 070550Z VRB01KT 9999 -SN OVC015 M18/M20 Q0991', 'EFKT 070520Z AUTO VRB01KT 9999 -SN OVC015 M18/M21 Q0991', 'EFKT 070450Z AUTO VRB01KT 9999 -SN OVC014 M19/M21 Q0991', 'EFKT 070420Z AUTO VRB01KT 9999 -SN OVC013 M19/M21 Q0991', 'EFKT 070350Z AUTO VRB01KT 9999 -SN OVC012 M19/M22 Q0991', 'EFKT 070320Z AUTO 34003KT 310V040 9999 -SN OVC011 M23/M26 Q0991', 'EFKT 070250Z AUTO VRB02KT 9999 -SN OVC010 M20/M22 Q0991', 'EFKT 070220Z AUTO VRB02KT 9999 -SN BKN010 M20/M23 Q0991', 'EFKT 070150Z AUTO 36003KT 330V050 9999 -SN FEW014 M21/M23 Q0991', 'EFKT 070120Z AUTO VRB01KT 9999 -SN BKN014 M24/M26 Q0992', 'EFKT 070050Z AUTO VRB01KT 9999 -SN BKN015 M24/M27 Q0992', 'EFKT 070020Z AUTO VRB02KT 9999 -SN NCD M23/M25 Q0992', 'EFKT 062350Z AUTO VRB01KT 9999 -SN FEW018 M24/M27 Q0992', 'EFKT 062320Z AUTO VRB02KT 9000 -SN BKN018 M23/M26 Q0992', 'EFKT 062250Z AUTO VRB01KT 9999 -SN BKN019 M24/M26 Q0992', 'EFKT 062220Z 08003KT 9999 -SHSN NSC M25/M28 Q0992', 'EFKT 062150Z VRB02KT 9999 -SHSN NSC M23/M26 Q0992', 'EFKT 062120Z 02001KT 9999 -SHSN NSC M24/M26 Q0992', 'EFKT 062050Z AUTO VRB02KT CAVOK M24/M26 Q0992', 'EFKT 062020Z AUTO VRB01KT 9999 -SN NSC M23/M26 Q0992', 'EFKT 061950Z AUTO VRB01KT 9999 -SN FEW019 M23/M26 Q0992', 'EFKT 061920Z AUTO VRB02KT 9999 -SN BKN020 M23/M25 Q0992', 'EFKT 061850Z AUTO 36002KT 9999 -SN OVC020 M22/M25 Q0993', 'EFKT 061820Z AUTO VRB01KT 9999 -SN OVC020 M23/M25 Q0993', 'EFKT 061750Z AUTO VRB02KT 9999 -SN OVC017 M23/M26 Q0993', 'EFKT 061720Z AUTO VRB02KT 9999 -SHSN OVC017 M24/M26 Q0993', 'EFKT 061650Z VRB01KT 9999 -SN FEW004 BKN019 M25/M27 Q0994', 'EFKT 061620Z VRB02KT 9999 OVC004 M25/M27 Q0994', 'EFKT 061550Z VRB01KT CAVOK M24/M27 Q0994', 'EFKT 061520Z 18001KT CAVOK M24/M27 Q0994', 'EFKT 061450Z AUTO 33002KT CAVOK M23/M26 Q0994', 'EFKT 061420Z AUTO 34001KT CAVOK M23/M25 Q0994', 'EFKT 061350Z AUTO 00000KT CAVOK M22/M24 Q0995', 'EFKT 061320Z AUTO VRB02KT CAVOK M21/M24 Q0995', 'EFKT 061250Z AUTO 19002KT CAVOK M21/M23 Q0995', 'EFKT 061220Z AUTO 00000KT 9999 SCT004 M20/M23 Q0995', 'EFKT 061150Z 22002KT 9999 SCT005 M21/M23 Q0996', 'EFKT 061120Z 24001KT 9999 FEW004 M21/M23 Q0996', 'EFKT 061050Z 25002KT 9999 FEW003 M21/M23 Q0996', 'EFKT 061020Z AUTO 25003KT 9999 SCT005 M21/M24 Q0996', 'EFKT 060950Z AUTO 24003KT 9999 FEW005 M21/M23 Q0997', 'EFKT 060920Z AUTO VRB02KT 9999 SCT005 M21/M23 Q0997', 'EFKT 060850Z AUTO 26002KT 9999 OVC004 M20/M23 Q0997', 'EFKT 060820Z AUTO 24003KT 9999 -SHSN OVC004 M20/M23 Q0997', 'EFKT 060750Z 25004KT 9999 BKN004 M20/M22 Q0997', 'EFKT 060720Z 25002KT 9999 OVC003 M20/M23 Q0997', 'EFKT 060650Z 22003KT 3000 -SN OVC003 M20/M22 Q0998', 'EFKT 060620Z AUTO VRB01KT 9999 OVC003 M20/M22 Q0998', 'EFKT 060550Z AUTO 23002KT 9999 OVC004 M20/M22 Q0998', 'EFKT 060520Z AUTO VRB01KT 9999 -SHSN OVC005 M20/M23 Q0998', 'EFKT 060450Z AUTO VRB01KT 9999 -SHSN OVC005 M21/M24 Q0998', 'EFKT 060420Z AUTO VRB01KT 9999 -SHSN OVC005 M21/M23 Q0999', 'EFKT 060350Z AUTO VRB01KT 9999 BKN005 M21/M23 Q0999', 'EFKT 060320Z AUTO VRB02KT 9999 BKN006 M20/M22 Q0999', 'EFKT 060250Z AUTO VRB02KT 9999 OVC006 M20/M22 Q0999', 'EFKT 060220Z AUTO 32002KT 9999 -SHSN OVC007 M20/M23 Q0999', 'EFKT 060150Z AUTO VRB01KT 9999 -SN OVC006 M21/M23 Q1000', 'EFKT 060120Z AUTO VRB02KT 9999 -SN OVC006 M20/M22 Q1000', 'EFKT 060050Z AUTO 24003KT 9999 -SHSN OVC006 M20/M22 Q1000', 'EFKT 060020Z AUTO VRB02KT 9999 -SHSN BKN007 M22/M24 Q1000', 'EFKT 052350Z AUTO VRB02KT 9999 -SHSN FEW005 M21/M24 Q1000', 'EFKT 052320Z AUTO 25003KT 220V280 9999 FEW006 M22/M24 Q1000', 'EFKT 052250Z AUTO VRB01KT 9999 -SHSN NCD M20/M22 Q1000', 'EFKT 052220Z VRB01KT 9999 -SHSN NSC M20/M22 Q1000', 'EFKT 052150Z 29003KT CAVOK M19/M22 Q0999', 'EFKT 052120Z VRB02KT 9999 -SN FEW029 M18/M20 Q0999', 'EFKT 052050Z AUTO VRB01KT 9999 -SN NCD M18/M20 Q0999']","['2024-02-08 20:20:00', '2024-02-08 19:50:00', '2024-02-08 19:20:00', '2024-02-08 18:50:00', '2024-02-08 18:20:00', '2024-02-08 17:50:00', '2024-02-08 17:20:00', '2024-02-08 16:50:00', '2024-02-08 16:20:00', '2024-02-08 15:50:00', '2024-02-08 15:20:00', '2024-02-08 14:50:00', '2024-02-08 14:20:00', '2024-02-08 13:50:00', '2024-02-08 13:20:00', '2024-02-08 12:50:00', '2024-02-08 12:20:00', '2024-02-08 11:50:00', '2024-02-08 11:20:00', '2024-02-08 10:50:00', '2024-02-08 10:20:00', '2024-02-08 09:50:00', '2024-02-08 09:20:00', '2024-02-08 08:50:00', '2024-02-08 08:20:00', '2024-02-08 07:50:00', '2024-02-08 07:20:00', '2024-02-08 06:50:00', '2024-02-08 06:20:00', '2024-02-08 05:50:00', '2024-02-08 05:20:00', '2024-02-08 04:50:00', '2024-02-08 04:20:00', '2024-02-08 03:50:00', '2024-02-08 03:20:00', '2024-02-08 02:50:00', '2024-02-08 02:20:00', '2024-02-08 01:50:00', '2024-02-08 01:20:00', '2024-02-08 00:50:00', '2024-02-08 00:20:00', '2024-02-07 23:50:00', '2024-02-07 23:20:00', '2024-02-07 22:50:00', '2024-02-07 22:20:00', '2024-02-07 21:50:00', '2024-02-07 21:20:00', '2024-02-07 20:50:00', '2024-02-07 20:20:00', '2024-02-07 19:50:00', '2024-02-07 19:20:00', '2024-02-07 18:50:00', '2024-02-07 18:20:00', '2024-02-07 17:50:00', '2024-02-07 17:20:00', '2024-02-07 16:50:00', '2024-02-07 16:20:00', '2024-02-07 15:50:00', '2024-02-07 15:20:00', '2024-02-07 14:50:00', '2024-02-07 14:20:00', '2024-02-07 13:50:00', '2024-02-07 13:20:00', '2024-02-07 12:50:00', '2024-02-07 12:20:00', '2024-02-07 11:50:00', '2024-02-07 11:20:00', '2024-02-07 10:50:00', '2024-02-07 10:20:00', '2024-02-07 09:50:00', '2024-02-07 09:20:00', '2024-02-07 08:20:00', '2024-02-07 07:20:00', '2024-02-07 06:50:00', '2024-02-07 06:20:00', '2024-02-07 05:50:00', '2024-02-07 05:20:00', '2024-02-07 04:50:00', '2024-02-07 04:20:00', '2024-02-07 03:50:00', '2024-02-07 03:20:00', '2024-02-07 02:50:00', '2024-02-07 02:20:00', '2024-02-07 01:50:00', '2024-02-07 01:20:00', '2024-02-07 00:50:00', '2024-02-07 00:20:00', '2024-02-06 23:50:00', '2024-02-06 23:20:00', '2024-02-06 22:50:00', '2024-02-06 22:20:00', '2024-02-06 21:50:00', '2024-02-06 21:20:00', '2024-02-06 20:50:00', '2024-02-06 20:20:00', '2024-02-06 19:50:00', '2024-02-06 19:20:00', '2024-02-06 18:50:00', '2024-02-06 18:20:00', '2024-02-06 17:50:00', '2024-02-06 17:20:00', '2024-02-06 16:50:00', '2024-02-06 16:20:00', '2024-02-06 15:50:00', '2024-02-06 15:20:00', '2024-02-06 14:50:00', '2024-02-06 14:20:00', '2024-02-06 13:50:00', '2024-02-06 13:20:00', '2024-02-06 12:50:00', '2024-02-06 12:20:00', '2024-02-06 11:50:00', '2024-02-06 11:20:00', '2024-02-06 10:50:00', '2024-02-06 10:20:00', '2024-02-06 09:50:00', '2024-02-06 09:20:00', '2024-02-06 08:50:00', '2024-02-06 08:20:00', '2024-02-06 07:50:00', '2024-02-06 07:20:00', '2024-02-06 06:50:00', '2024-02-06 06:20:00', '2024-02-06 05:50:00', '2024-02-06 05:20:00', '2024-02-06 04:50:00', '2024-02-06 04:20:00', '2024-02-06 03:50:00', '2024-02-06 03:20:00', '2024-02-06 02:50:00', '2024-02-06 02:20:00', '2024-02-06 01:50:00', '2024-02-06 01:20:00', '2024-02-06 00:50:00', '2024-02-06 00:20:00', '2024-02-05 23:50:00', '2024-02-05 23:20:00', '2024-02-05 22:50:00', '2024-02-05 22:20:00', '2024-02-05 21:50:00', '2024-02-05 21:20:00', '2024-02-05 20:50:00']"
Finland, Kokkola-Pietarsaari Airport (KOK/EFKK) ,"['EFKK 082020Z AUTO 14003KT CAVOK M20/M22 Q1007', 'EFKK 081950Z AUTO 14004KT CAVOK M20/M22 Q1007', 'EFKK 081920Z AUTO 14005KT CAVOK M20/M22 Q1006', 'EFKK 081850Z AUTO 13007KT CAVOK M19/M21 Q1006', 'EFKK 081820Z AUTO 14004KT CAVOK M19/M21 Q1006', 'EFKK 081750Z 15003KT CAVOK M19/M21 Q1006', 'EFKK 081720Z 13004KT 100V160 CAVOK M19/M21 Q1005', 'EFKK 081650Z 12003KT 090V150 CAVOK M20/M22 Q1005', 'EFKK 081620Z 12004KT CAVOK M21/M23 Q1005', 'EFKK 081550Z AUTO 12003KT CAVOK M21/M23 Q1005', 'EFKK 081520Z AUTO 12003KT CAVOK M20/M23 Q1005', 'EFKK 081450Z AUTO 14003KT CAVOK M17/M19 Q1005', 'EFKK 081420Z AUTO 13004KT CAVOK M16/M19 Q1004', 'EFKK 081350Z AUTO 14005KT CAVOK M16/M18 Q1004', 'EFKK 081320Z AUTO 13006KT CAVOK M15/M18 Q1004', 'EFKK 081250Z AUTO 13005KT CAVOK M15/M18 Q1004', 'EFKK 081220Z AUTO 13005KT CAVOK M15/M18 Q1004', 'EFKK 081150Z AUTO 13005KT CAVOK M16/M18 Q1004', 'EFKK 081120Z AUTO 14007KT CAVOK M16/M19 Q1003', 'EFKK 081050Z AUTO 14006KT CAVOK M17/M19 Q1003', 'EFKK 081020Z AUTO 14006KT 9999 -SHSN NSC M17/M20 Q1003', 'EFKK 080950Z AUTO 14008KT CAVOK M18/M21 Q1003', 'EFKK 080920Z AUTO 14008KT CAVOK M19/M22 Q1003', 'EFKK 080850Z AUTO 14007KT CAVOK M20/M23 Q1003', 'EFKK 080820Z AUTO 14006KT CAVOK M21/M24 Q1002', 'EFKK 080750Z AUTO 13005KT CAVOK M22/M24 Q1002', 'EFKK 080720Z AUTO 13004KT CAVOK M22/M25 Q1002', 'EFKK 080650Z AUTO 13005KT CAVOK M23/M25 Q1002', 'EFKK 080620Z AUTO 13004KT CAVOK M23/M26 Q1002', 'EFKK 080550Z AUTO 13005KT CAVOK M23/M26 Q1002', 'EFKK 080520Z AUTO 13004KT CAVOK M23/M26 Q1001', 'EFKK 080450Z AUTO 13004KT CAVOK M24/M27 Q1001', 'EFKK 080420Z AUTO 12003KT CAVOK M24/M27 Q1001', 'EFKK 080350Z AUTO 14003KT CAVOK M23/M26 Q1001', 'EFKK 080320Z AUTO 13003KT CAVOK M23/M26 Q1001', 'EFKK 080250Z AUTO 14004KT CAVOK M23/M25 Q1000', 'EFKK 080220Z AUTO 13004KT CAVOK M23/M25 Q1000', 'EFKK 080150Z AUTO 14003KT CAVOK M23/M25 Q1000', 'EFKK 080120Z AUTO 14002KT CAVOK M23/M25 Q1000', 'EFKK 080050Z AUTO 12003KT CAVOK M23/M25 Q1000', 'EFKK 080020Z AUTO VRB01KT CAVOK M23/M25 Q1000', 'EFKK 072350Z AUTO 13004KT CAVOK M22/M25 Q0999', 'EFKK 072320Z 14004KT CAVOK M22/M24 Q0999', 'EFKK 072250Z 13004KT CAVOK M22/M24 Q0999', 'EFKK 072220Z AUTO 13003KT CAVOK M21/M24 Q0999', 'EFKK 072150Z AUTO 13002KT CAVOK M21/M24 Q0999', 'EFKK 072120Z AUTO 13004KT CAVOK M21/M23 Q0998', 'EFKK 072050Z AUTO 14005KT CAVOK M21/M23 Q0998', 'EFKK 072020Z AUTO 14003KT 090V150 CAVOK M21/M23 Q0998', 'EFKK 071950Z AUTO 14003KT CAVOK M21/M23 Q0998', 'EFKK 071920Z AUTO 14005KT CAVOK M20/M22 Q0998', 'EFKK 071850Z AUTO 13003KT 100V160 CAVOK M19/M22 Q0998', 'EFKK 071820Z AUTO 11002KT CAVOK M21/M23 Q0997', 'EFKK 071750Z AUTO 10004KT CAVOK M22/M24 Q0997', 'EFKK 071720Z AUTO 10002KT CAVOK M21/M23 Q0997', 'EFKK 071650Z 11004KT CAVOK M20/M22 Q0997', 'EFKK 071620Z 10004KT CAVOK M20/M21 Q0997', 'EFKK 071550Z AUTO VRB01KT CAVOK M19/M21 Q0997', 'EFKK 071520Z AUTO 09003KT 060V130 CAVOK M19/M21 Q0997', 'EFKK 071450Z AUTO 10004KT CAVOK M19/M22 Q0996', 'EFKK 071420Z AUTO 10002KT 9999 FEW010 M15/M17 Q0996', 'EFKK 071350Z AUTO 11005KT CAVOK M15/M17 Q0996', 'EFKK 071320Z AUTO 11004KT CAVOK M14/M17 Q0996', 'EFKK 071250Z AUTO 11005KT CAVOK M14/M17 Q0996', 'EFKK 071220Z AUTO 11004KT CAVOK M14/M16 Q0996', 'EFKK 071150Z AUTO 11004KT CAVOK M14/M16 Q0996', 'EFKK 071120Z AUTO 13003KT CAVOK M14/M16 Q0996', 'EFKK 071050Z AUTO 15003KT 9999 -SN NCD M15/M17 Q0996', 'EFKK 071020Z AUTO 15003KT 9999 -SN BKN019 M15/M18 Q0996', 'EFKK 070950Z AUTO VRB01KT 9999 -SN OVC019 M16/M19 Q0996', 'EFKK 070920Z AUTO 14001KT 9999 -SN BKN019 M18/M21 Q0995', 'EFKK 070850Z AUTO 11003KT 9999 -SN SCT018 M21/M23 Q0995', 'EFKK 070820Z AUTO VRB01KT 9000 -SN OVC019 M22/M24 Q0995', 'EFKK 070750Z AUTO 15002KT 9999 -SN OVC019 M23/M25 Q0995', 'EFKK 070720Z AUTO VRB02KT 8000 -SHSN OVC019 M24/M26 Q0995', 'EFKK 070650Z AUTO 12001KT 9999 -SHSN SCT014 OVC019 M24/M27 Q0995', 'EFKK 070620Z AUTO 11002KT 9999 -SHSN BKN012 M24/M27 Q0995', 'EFKK 070550Z AUTO 14002KT 9999 -SHSN NCD M25/M27 Q0995', 'EFKK 070520Z AUTO 12002KT CAVOK M25/M27 Q0995', 'EFKK 070450Z AUTO 14002KT CAVOK M24/M27 Q0995', 'EFKK 070420Z AUTO 09001KT CAVOK M24/M26 Q0995', 'EFKK 070350Z AUTO 09001KT CAVOK M23/M26 Q0995', 'EFKK 070320Z AUTO 12002KT CAVOK M23/M25 Q0995', 'EFKK 070250Z AUTO 15003KT CAVOK M23/M25 Q0995', 'EFKK 070220Z AUTO 14002KT CAVOK M22/M24 Q0995', 'EFKK 070150Z AUTO 12003KT CAVOK M22/M24 Q0995', 'EFKK 070120Z AUTO 08002KT 9999 -SHSN NCD M21/M24 Q0995', 'EFKK 070050Z AUTO VRB01KT 9999 -SHSN FEW002 SCT032 M20/M22 Q0995', 'EFKK 070020Z AUTO 11002KT 9999 -SHSN SCT001 OVC032 M19/M21 Q0995', 'EFKK 062350Z AUTO 13002KT 9999 -SHSN SCT001 OVC032 M19/M21 Q0995', 'EFKK 062320Z 13002KT 9999 SCT001 OVC033 M19/M21 Q0996', 'EFKK 062250Z VRB02KT 9999 BKN001 OVC033 M20/M22 Q0996', 'EFKK 062220Z AUTO VRB01KT 9999 BKN001 M22/M24 Q0996', 'EFKK 062150Z AUTO 13002KT 9999 OVC001 M22/M24 Q0996', 'EFKK 062120Z AUTO 15002KT 9000 -SN BKN001 M23/M25 Q0996', 'EFKK 062050Z AUTO 13002KT 9999 FEW001 M22/M25 Q0996', 'EFKK 062020Z AUTO VRB01KT CAVOK M22/M25 Q0996', 'EFKK 061950Z AUTO 16002KT CAVOK M21/M24 Q0996', 'EFKK 061920Z AUTO 08001KT CAVOK M21/M23 Q0997', 'EFKK 061850Z AUTO VRB01KT CAVOK M21/M23 Q0997', 'EFKK 061820Z AUTO VRB01KT 9999 -SHSN NCD M20/M22 Q0997', 'EFKK 061750Z AUTO VRB02KT 9999 -SN NCD M19/M22 Q0997', 'EFKK 061720Z AUTO 10001KT 9999 -SN NCD M19/M21 Q0997', 'EFKK 061650Z 04001KT CAVOK M18/M21 Q0998', 'EFKK 061620Z VRB01KT CAVOK M18/M20 Q0998', 'EFKK 061550Z AUTO VRB01KT 9999 FEW012 M17/M19 Q0998', 'EFKK 061520Z AUTO VRB01KT CAVOK M17/M18 Q0998', 'EFKK 061450Z AUTO 09001KT CAVOK M15/M16 Q0998', 'EFKK 061420Z AUTO VRB01KT CAVOK M14/M15 Q0998', 'EFKK 061350Z AUTO 12002KT 9999 1000 R19/P2000D NCD M12/M13 Q0998', 'EFKK 061320Z AUTO 05002KT CAVOK M12/M14 Q0998', 'EFKK 061250Z AUTO 35001KT CAVOK M11/M13 Q0999', 'EFKK 061220Z AUTO 03002KT CAVOK M11/M13 Q0999', 'EFKK 061150Z AUTO 04002KT CAVOK M11/M13 Q0999', 'EFKK 061120Z AUTO VRB01KT CAVOK M12/M14 Q0999', 'EFKK 061050Z AUTO 00000KT CAVOK M12/M14 Q0999', 'EFKK 061020Z AUTO 05001KT 9999 -SHSN NCD M14/M16 Q0999', 'EFKK 060950Z AUTO VRB01KT 9999 -SN NCD M12/M14 Q0999', 'EFKK 060920Z AUTO 06001KT 9999 -SN NCD M14/M16 Q0999', 'EFKK 060850Z AUTO 08001KT 9999 -SN NSC M14/M16 Q0999', 'EFKK 060820Z AUTO 03002KT 9999 -SHSN NSC M14/M15 Q0999', 'EFKK 060750Z AUTO 36002KT 9999 -SHSN NSC M15/M17 Q0999', 'EFKK 060720Z AUTO 01002KT 9999 -SHSN NSC M16/M18 Q0999', 'EFKK 060650Z AUTO 03002KT 9999 FEW037 M17/M19 Q0999', 'EFKK 060620Z AUTO VRB01KT 9999 FEW037 M17/M19 Q0999', 'EFKK 060550Z AUTO VRB01KT 9999 -SHSN SCT014 SCT037 M17/M19 Q0999', 'EFKK 060520Z AUTO VRB01KT 9999 FEW015 SCT037 M17/M18 Q0999', 'EFKK 060450Z AUTO 33002KT 9999 FEW037 M17/M18 Q0999', 'EFKK 060420Z AUTO 33001KT CAVOK M16/M18 Q0999', 'EFKK 060350Z AUTO 01001KT 9999 -SHSN NSC M16/M17 Q0998', 'EFKK 060320Z AUTO VRB02KT CAVOK M16/M17 Q0999', 'EFKK 060250Z AUTO 04003KT 9999 -SHSN NCD M15/M16 Q0998', 'EFKK 060220Z AUTO 36003KT CAVOK M15/M16 Q0998', 'EFKK 060150Z AUTO 02004KT CAVOK M14/M15 Q0998', 'EFKK 060120Z AUTO 36004KT 9999 -SHSN NCD M15/M16 Q0998', 'EFKK 060050Z AUTO 34002KT 9999 -SN BKN034 M12/M13 Q0998', 'EFKK 060020Z AUTO 34002KT 9999 BKN031 M12/M13 Q0998', 'EFKK 052350Z AUTO VRB01KT 9999 SCT030 M13/M14 Q0998', 'EFKK 052320Z 02004KT CAVOK M13/M15 Q0997', 'EFKK 052250Z 03006KT CAVOK M11/M13 Q0997', 'EFKK 052220Z AUTO 02006KT CAVOK M12/M14 Q0997', 'EFKK 052150Z AUTO 02007KT CAVOK M11/M13 Q0997', 'EFKK 052120Z AUTO 36007KT CAVOK M11/M12 Q0996', 'EFKK 052050Z AUTO 02007KT 9999 FEW016 SCT042 M09/M11 Q0996']","['2024-02-08 20:20:00', '2024-02-08 19:50:00', '2024-02-08 19:20:00', '2024-02-08 18:50:00', '2024-02-08 18:20:00', '2024-02-08 17:50:00', '2024-02-08 17:20:00', '2024-02-08 16:50:00', '2024-02-08 16:20:00', '2024-02-08 15:50:00', '2024-02-08 15:20:00', '2024-02-08 14:50:00', '2024-02-08 14:20:00', '2024-02-08 13:50:00', '2024-02-08 13:20:00', '2024-02-08 12:50:00', '2024-02-08 12:20:00', '2024-02-08 11:50:00', '2024-02-08 11:20:00', '2024-02-08 10:50:00', '2024-02-08 10:20:00', '2024-02-08 09:50:00', '2024-02-08 09:20:00', '2024-02-08 08:50:00', '2024-02-08 08:20:00', '2024-02-08 07:50:00', '2024-02-08 07:20:00', '2024-02-08 06:50:00', '2024-02-08 06:20:00', '2024-02-08 05:50:00', '2024-02-08 05:20:00', '2024-02-08 04:50:00', '2024-02-08 04:20:00', '2024-02-08 03:50:00', '2024-02-08 03:20:00', '2024-02-08 02:50:00', '2024-02-08 02:20:00', '2024-02-08 01:50:00', '2024-02-08 01:20:00', '2024-02-08 00:50:00', '2024-02-08 00:20:00', '2024-02-07 23:50:00', '2024-02-07 23:20:00', '2024-02-07 22:50:00', '2024-02-07 22:20:00', '2024-02-07 21:50:00', '2024-02-07 21:20:00', '2024-02-07 20:50:00', '2024-02-07 20:20:00', '2024-02-07 19:50:00', '2024-02-07 19:20:00', '2024-02-07 18:50:00', '2024-02-07 18:20:00', '2024-02-07 17:50:00', '2024-02-07 17:20:00', '2024-02-07 16:50:00', '2024-02-07 16:20:00', '2024-02-07 15:50:00', '2024-02-07 15:20:00', '2024-02-07 14:50:00', '2024-02-07 14:20:00', '2024-02-07 13:50:00', '2024-02-07 13:20:00', '2024-02-07 12:50:00', '2024-02-07 12:20:00', '2024-02-07 11:50:00', '2024-02-07 11:20:00', '2024-02-07 10:50:00', '2024-02-07 10:20:00', '2024-02-07 09:50:00', '2024-02-07 09:20:00', '2024-02-07 08:50:00', '2024-02-07 08:20:00', '2024-02-07 07:50:00', '2024-02-07 07:20:00', '2024-02-07 06:50:00', '2024-02-07 06:20:00', '2024-02-07 05:50:00', '2024-02-07 05:20:00', '2024-02-07 04:50:00', '2024-02-07 04:20:00', '2024-02-07 03:50:00', '2024-02-07 03:20:00', '2024-02-07 02:50:00', '2024-02-07 02:20:00', '2024-02-07 01:50:00', '2024-02-07 01:20:00', '2024-02-07 00:50:00', '2024-02-07 00:20:00', '2024-02-06 23:50:00', '2024-02-06 23:20:00', '2024-02-06 22:50:00', '2024-02-06 22:20:00', '2024-02-06 21:50:00', '2024-02-06 21:20:00', '2024-02-06 20:50:00', '2024-02-06 20:20:00', '2024-02-06 19:50:00', '2024-02-06 19:20:00', '2024-02-06 18:50:00', '2024-02-06 18:20:00', '2024-02-06 17:50:00', '2024-02-06 17:20:00', '2024-02-06 16:50:00', '2024-02-06 16:20:00', '2024-02-06 15:50:00', '2024-02-06 15:20:00', '2024-02-06 14:50:00', '2024-02-06 14:20:00', '2024-02-06 13:50:00', '2024-02-06 13:20:00', '2024-02-06 12:50:00', '2024-02-06 12:20:00', '2024-02-06 11:50:00', '2024-02-06 11:20:00', '2024-02-06 10:50:00', '2024-02-06 10:20:00', '2024-02-06 09:50:00', '2024-02-06 09:20:00', '2024-02-06 08:50:00', '2024-02-06 08:20:00', '2024-02-06 07:50:00', '2024-02-06 07:20:00', '2024-02-06 06:50:00', '2024-02-06 06:20:00', '2024-02-06 05:50:00', '2024-02-06 05:20:00', '2024-02-06 04:50:00', '2024-02-06 04:20:00', '2024-02-06 03:50:00', '2024-02-06 03:20:00', '2024-02-06 02:50:00', '2024-02-06 02:20:00', '2024-02-06 01:50:00', '2024-02-06 01:20:00', '2024-02-06 00:50:00', '2024-02-06 00:20:00', '2024-02-05 23:50:00', '2024-02-05 23:20:00', '2024-02-05 22:50:00', '2024-02-05 22:20:00', '2024-02-05 21:50:00', '2024-02-05 21:20:00', '2024-02-05 20:50:00']"
Finland, Kuopio Airport (KUO/EFKU) ,"['EFKU 082020Z AUTO VRB01KT CAVOK M27/M30 Q1008', 'EFKU 081950Z AUTO 31002KT CAVOK M27/M30 Q1008', 'EFKU 081920Z AUTO 29002KT CAVOK M27/M30 Q1007', 'EFKU 081850Z AUTO 31003KT 280V340 CAVOK M26/M29 Q1007', 'EFKU 081820Z AUTO VRB01KT CAVOK M26/M28 Q1007', 'EFKU 081750Z AUTO 30002KT CAVOK M26/M29 Q1007', 'EFKU 081720Z AUTO VRB01KT CAVOK M24/M27 Q1006', 'EFKU 081650Z AUTO VRB02KT CAVOK M26/M28 Q1006', 'EFKU 081620Z AUTO 28002KT CAVOK M23/M26 Q1006', 'EFKU 081550Z AUTO VRB02KT CAVOK M23/M26 Q1006', 'EFKU 081520Z AUTO 29001KT CAVOK M21/M23 Q1006', 'EFKU 081450Z AUTO 22001KT CAVOK M21/M24 Q1006', 'EFKU 081420Z AUTO 00000KT CAVOK M20/M22 Q1006', 'EFKU 081350Z AUTO VRB01KT CAVOK M20/M23 Q1005', 'EFKU 081320Z AUTO VRB01KT CAVOK M20/M23 Q1005', 'EFKU 081250Z AUTO VRB01KT CAVOK M20/M22 Q1005', 'EFKU 081220Z AUTO 15002KT 9999 FEW006 M20/M23 Q1005', 'EFKU 081150Z AUTO VRB01KT 9999 FEW004 M21/M24 Q1005', 'EFKU 081120Z AUTO 00000KT CAVOK M22/M25 Q1005', 'EFKU 081050Z AUTO VRB01KT CAVOK M22/M25 Q1005', 'EFKU 081020Z AUTO 14001KT CAVOK M24/M27 Q1004', 'EFKU 080950Z AUTO VRB01KT CAVOK M25/M28 Q1004', 'EFKU 080920Z AUTO 15002KT CAVOK M25/M28 Q1004', 'EFKU 080850Z AUTO VRB01KT 9999 FEW001 M26/M28 Q1004', 'EFKU 080820Z AUTO 00000KT CAVOK M28/M31 Q1004', 'EFKU 080750Z AUTO VRB01KT CAVOK M29/M31 Q1004', 'EFKU 080720Z AUTO VRB01KT CAVOK M29/M32 Q1003', 'EFKU 080650Z AUTO VRB01KT CAVOK M30/M33 Q1003', 'EFKU 080620Z AUTO 00000KT CAVOK M31/M34 Q1003', 'EFKU 080550Z AUTO VRB01KT CAVOK M30/M32 Q1003', 'EFKU 080520Z AUTO 12001KT CAVOK M30/M33 Q1002', 'EFKU 080450Z AUTO VRB01KT CAVOK M30/M33 Q1002', 'EFKU 080420Z AUTO VRB01KT CAVOK M30/M33 Q1002', 'EFKU 080350Z AUTO VRB02KT CAVOK M28/M31 Q1002', 'EFKU 080320Z AUTO 32003KT CAVOK M28/M30 Q1002', 'EFKU 080250Z AUTO VRB01KT CAVOK M29/M32 Q1001', 'EFKU 080220Z AUTO VRB01KT CAVOK M28/M31 Q1001', 'EFKU 080150Z AUTO VRB01KT CAVOK M28/M30 Q1001', 'EFKU 080120Z AUTO 00000KT CAVOK M27/M29 Q1001', 'EFKU 080050Z AUTO VRB02KT CAVOK M28/M30 Q1001', 'EFKU 080020Z AUTO 28003KT CAVOK M28/M30 Q1000', 'EFKU 072350Z AUTO VRB01KT CAVOK M27/M30 Q1000', 'EFKU 072320Z AUTO VRB01KT CAVOK M26/M29 Q1000', 'EFKU 072250Z AUTO VRB01KT CAVOK M27/M29 Q1000', 'EFKU 072220Z AUTO 17002KT CAVOK M25/M27 Q1000', 'EFKU 072150Z AUTO VRB01KT CAVOK M25/M28 Q0999', 'EFKU 072120Z AUTO 31001KT CAVOK M25/M28 Q0999', 'EFKU 072050Z AUTO VRB02KT CAVOK M23/M26 Q0999', 'EFKU 072020Z AUTO 34003KT 310V020 CAVOK M23/M25 Q0999', 'EFKU 071950Z AUTO VRB02KT CAVOK M22/M24 Q0999', 'EFKU 071920Z AUTO 36003KT CAVOK M22/M25 Q0998', 'EFKU 071850Z AUTO 32003KT CAVOK M23/M25 Q0998', 'EFKU 071820Z AUTO 00000KT CAVOK M21/M24 Q0998', 'EFKU 071750Z AUTO VRB02KT CAVOK M21/M23 Q0998', 'EFKU 071720Z AUTO 09002KT CAVOK M21/M23 Q0998', 'EFKU 071650Z AUTO 09002KT CAVOK M20/M22 Q0998', 'EFKU 071620Z AUTO 09004KT CAVOK M20/M22 Q0997', 'EFKU 071550Z AUTO 08003KT CAVOK M20/M22 Q0997', 'EFKU 071520Z AUTO 06002KT CAVOK M19/M21 Q0997', 'EFKU 071450Z AUTO VRB01KT CAVOK M19/M21 Q0997', 'EFKU 071420Z AUTO 03003KT CAVOK M19/M21 Q0997', 'EFKU 071350Z AUTO 03003KT 350V050 CAVOK M19/M21 Q0997', 'EFKU 071320Z AUTO VRB02KT CAVOK M19/M21 Q0996', 'EFKU 071250Z AUTO VRB01KT CAVOK M18/M20 Q0996', 'EFKU 071220Z AUTO VRB01KT CAVOK M19/M21 Q0996', 'EFKU 071150Z AUTO 32003KT 9999 -SHSN NCD M19/M22 Q0996', 'EFKU 071120Z AUTO VRB02KT CAVOK M20/M22 Q0996', 'EFKU 071050Z AUTO 32003KT 9999 -SHSN FEW033 M21/M23 Q0996', 'EFKU 071020Z AUTO 32001KT 9999 BKN032 M21/M24 Q0996', 'EFKU 070950Z AUTO 31001KT 9999 1200 R33/P2000N -SHSN BKN028 M21/M24 Q0996', 'EFKU 070920Z AUTO VRB01KT 9999 -SN SCT021 M21/M23 Q0996', 'EFKU 070850Z AUTO 07001KT CAVOK M22/M24 Q0996', 'EFKU 070820Z AUTO 09002KT 9999 -SHSN BKN005 M21/M23 Q0996', 'EFKU 070750Z AUTO 09004KT 9999 -SN OVC005 M23/M25 Q0996', 'EFKU 070720Z AUTO 09005KT 6000 -SHSN OVC004 M23/M25 Q0996', 'EFKU 070650Z AUTO 08003KT 6000 -SHSN OVC005 M23/M26 Q0996', 'EFKU 070620Z AUTO 10003KT 9999 OVC005 M24/M26 Q0996', 'EFKU 070550Z AUTO 11004KT 9999 -SN OVC005 M24/M26 Q0996', 'EFKU 070520Z AUTO 09004KT 9999 OVC005 M24/M26 Q0996', 'EFKU 070450Z AUTO 10005KT 9999 OVC005 M24/M26 Q0996', 'EFKU 070420Z AUTO 09006KT 9999 -SN SCT005 BKN018 M23/M25 Q0996', 'EFKU 070350Z AUTO 10004KT 9999 -SHSN OVC018 M22/M24 Q0996', 'EFKU 070320Z AUTO VRB02KT 9999 -SHSN OVC017 M22/M24 Q0996', 'EFKU 070250Z AUTO VRB02KT 9999 -SN OVC017 M22/M24 Q0996', 'EFKU 070220Z AUTO VRB01KT 9999 -SN OVC015 M22/M24 Q0996', 'EFKU 070150Z AUTO VRB02KT 9999 -SN OVC014 M23/M26 Q0996', 'EFKU 070120Z AUTO VRB02KT 9999 -SN OVC012 M24/M27 Q0996', 'EFKU 070050Z AUTO 32003KT 300V010 9999 -SHSN OVC004 M24/M26 Q0996', 'EFKU 070020Z AUTO VRB01KT 9999 -SHSN OVC005 M25/M27 Q0997', 'EFKU 062350Z AUTO VRB01KT 9999 -SN OVC005 M26/M28 Q0997', 'EFKU 062320Z AUTO VRB01KT 9999 -SHSN BKN007 M27/M29 Q0997', 'EFKU 062250Z AUTO VRB01KT 9999 -SHSN BKN007 M26/M28 Q0997', 'EFKU 062220Z AUTO VRB01KT CAVOK M26/M29 Q0997', 'EFKU 062150Z AUTO 09001KT CAVOK M26/M28 Q0997', 'EFKU 062120Z AUTO 33001KT CAVOK M25/M27 Q0997', 'EFKU 062050Z AUTO VRB01KT CAVOK M24/M26 Q0997', 'EFKU 062020Z AUTO VRB01KT CAVOK M25/M27 Q0997', 'EFKU 061950Z AUTO 10002KT CAVOK M24/M26 Q0997', 'EFKU 061920Z AUTO 13002KT CAVOK M24/M26 Q0997', 'EFKU 061850Z AUTO 16002KT 9999 -SHSN FEW009 M22/M24 Q0997', 'EFKU 061820Z AUTO VRB02KT 9999 -SN BKN006 M22/M23 Q0997', 'EFKU 061750Z AUTO 11001KT 9999 1600 SCT002 M21/M22 Q0997', 'EFKU 061720Z AUTO VRB01KT 9999 1900 -SHSN VV001 M22/M23 Q0997', 'EFKU 061650Z AUTO 11001KT 9999 1000 R33/1300 -SN VV004 M21/M22 Q0998', 'EFKU 061620Z AUTO VRB01KT 9999 1200 R33/P2000D NSC M21/M22 Q0998', 'EFKU 061550Z AUTO 12001KT CAVOK M20/M22 Q0998', 'EFKU 061520Z AUTO VRB01KT CAVOK M18/M20 Q0998', 'EFKU 061450Z AUTO 00000KT CAVOK M17/M18 Q0998', 'EFKU 061420Z AUTO 32001KT CAVOK M16/M18 Q0998', 'EFKU 061350Z AUTO 00000KT 6000 1000 R33/P2000D -SN SCT006 M15/M17 Q0998', 'EFKU 061320Z AUTO VRB01KT CAVOK M15/M17 Q0998', 'EFKU 061250Z AUTO VRB01KT CAVOK M14/M16 Q0998', 'EFKU 061220Z AUTO 00000KT CAVOK M12/M15 Q0998', 'EFKU 061150Z AUTO VRB01KT CAVOK M12/M15 Q0998', 'EFKU 061120Z AUTO VRB02KT 9999 FEW012 M14/M16 Q0998', 'EFKU 061050Z AUTO 33003KT CAVOK M15/M17 Q0998', 'EFKU 061020Z AUTO 31003KT 9999 -SHSN NCD M15/M17 Q0998', 'EFKU 060950Z AUTO 33004KT 9999 -SHSN NCD M15/M17 Q0998', 'EFKU 060920Z AUTO 32003KT 9999 -SN SCT016 M16/M17 Q0998', 'EFKU 060850Z AUTO VRB02KT 9999 -SHSN OVC019 M15/M17 Q0998', 'EFKU 060820Z AUTO 33003KT 9999 -SN OVC018 M16/M18 Q0998', 'EFKU 060750Z AUTO 33004KT 9999 -SN BKN018 M16/M17 Q0998', 'EFKU 060720Z AUTO 33005KT 9000 2800 -SN OVC018 M16/M18 Q0997', 'EFKU 060650Z AUTO 33005KT 9999 -SN OVC019 M16/M17 Q0997', 'EFKU 060620Z AUTO 34005KT 9999 -SN OVC019 M15/M17 Q0997', 'EFKU 060550Z AUTO 32004KT 9999 -SN OVC019 M15/M17 Q0997', 'EFKU 060520Z AUTO 31003KT 250V340 9999 -SN OVC019 M15/M16 Q0997', 'EFKU 060450Z AUTO 29003KT 260V330 8000 -SN BKN018 M15/M16 Q0997', 'EFKU 060420Z AUTO 33004KT 9999 -SHSN BKN011 M15/M17 Q0996', 'EFKU 060350Z AUTO 35004KT 9999 -SN FEW019 M15/M17 Q0996 REFZUP', 'EFKU 060320Z AUTO 33004KT 9999 BKN023 M14/M15 Q0996 REFZUP', 'EFKU 060250Z AUTO 36003KT 9999 BKN023 M14/M15 Q0996', 'EFKU 060220Z AUTO 35003KT 9999 -SHSN FEW023 M14/M15 Q0996', 'EFKU 060150Z AUTO VRB02KT 9999 -SN FEW021 M14/M15 Q0996', 'EFKU 060120Z AUTO VRB02KT 9999 -SN SCT023 M14/M15 Q0995', 'EFKU 060050Z AUTO 01003KT 9999 -SHSN FEW021 M13/M15 Q0995', 'EFKU 060020Z AUTO 04003KT 350V070 9999 -SN NCD M13/M14 Q0995', 'EFKU 052350Z AUTO 03003KT 330V090 CAVOK M13/M15 Q0995', 'EFKU 052320Z AUTO 05003KT 020V080 CAVOK M12/M14 Q0995', 'EFKU 052250Z AUTO 04005KT 010V080 CAVOK M12/M14 Q0994', 'EFKU 052220Z AUTO 05006KT 9999 -SN SCT016 M11/M13 Q0994', 'EFKU 052150Z AUTO 05005KT 9999 -SN OVC014 M10/M12 Q0994', 'EFKU 052120Z AUTO 05005KT 020V090 9999 -SN OVC014 M10/M12 Q0993', 'EFKU 052050Z AUTO 05006KT 020V080 9999 -SN OVC015 M10/M12 Q0993']","['2024-02-08 20:20:00', '2024-02-08 19:50:00', '2024-02-08 19:20:00', '2024-02-08 18:50:00', '2024-02-08 18:20:00', '2024-02-08 17:50:00', '2024-02-08 17:20:00', '2024-02-08 16:50:00', '2024-02-08 16:20:00', '2024-02-08 15:50:00', '2024-02-08 15:20:00', '2024-02-08 14:50:00', '2024-02-08 14:20:00', '2024-02-08 13:50:00', '2024-02-08 13:20:00', '2024-02-08 12:50:00', '2024-02-08 12:20:00', '2024-02-08 11:50:00', '2024-02-08 11:20:00', '2024-02-08 10:50:00', '2024-02-08 10:20:00', '2024-02-08 09:50:00', '2024-02-08 09:20:00', '2024-02-08 08:50:00', '2024-02-08 08:20:00', '2024-02-08 07:50:00', '2024-02-08 07:20:00', '2024-02-08 06:50:00', '2024-02-08 06:20:00', '2024-02-08 05:50:00', '2024-02-08 05:20:00', '2024-02-08 04:50:00', '2024-02-08 04:20:00', '2024-02-08 03:50:00', '2024-02-08 03:20:00', '2024-02-08 02:50:00', '2024-02-08 02:20:00', '2024-02-08 01:50:00', '2024-02-08 01:20:00', '2024-02-08 00:50:00', '2024-02-08 00:20:00', '2024-02-07 23:50:00', '2024-02-07 23:20:00', '2024-02-07 22:50:00', '2024-02-07 22:20:00', '2024-02-07 21:50:00', '2024-02-07 21:20:00', '2024-02-07 20:50:00', '2024-02-07 20:20:00', '2024-02-07 19:50:00', '2024-02-07 19:20:00', '2024-02-07 18:50:00', '2024-02-07 18:20:00', '2024-02-07 17:50:00', '2024-02-07 17:20:00', '2024-02-07 16:50:00', '2024-02-07 16:20:00', '2024-02-07 15:50:00', '2024-02-07 15:20:00', '2024-02-07 14:50:00', '2024-02-07 14:20:00', '2024-02-07 13:50:00', '2024-02-07 13:20:00', '2024-02-07 12:50:00', '2024-02-07 12:20:00', '2024-02-07 11:50:00', '2024-02-07 11:20:00', '2024-02-07 10:50:00', '2024-02-07 10:20:00', '2024-02-07 09:50:00', '2024-02-07 09:20:00', '2024-02-07 08:50:00', '2024-02-07 08:20:00', '2024-02-07 07:50:00', '2024-02-07 07:20:00', '2024-02-07 06:50:00', '2024-02-07 06:20:00', '2024-02-07 05:50:00', '2024-02-07 05:20:00', '2024-02-07 04:50:00', '2024-02-07 04:20:00', '2024-02-07 03:50:00', '2024-02-07 03:20:00', '2024-02-07 02:50:00', '2024-02-07 02:20:00', '2024-02-07 01:50:00', '2024-02-07 01:20:00', '2024-02-07 00:50:00', '2024-02-07 00:20:00', '2024-02-06 23:50:00', '2024-02-06 23:20:00', '2024-02-06 22:50:00', '2024-02-06 22:20:00', '2024-02-06 21:50:00', '2024-02-06 21:20:00', '2024-02-06 20:50:00', '2024-02-06 20:20:00', '2024-02-06 19:50:00', '2024-02-06 19:20:00', '2024-02-06 18:50:00', '2024-02-06 18:20:00', '2024-02-06 17:50:00', '2024-02-06 17:20:00', '2024-02-06 16:50:00', '2024-02-06 16:20:00', '2024-02-06 15:50:00', '2024-02-06 15:20:00', '2024-02-06 14:50:00', '2024-02-06 14:20:00', '2024-02-06 13:50:00', '2024-02-06 13:20:00', '2024-02-06 12:50:00', '2024-02-06 12:20:00', '2024-02-06 11:50:00', '2024-02-06 11:20:00', '2024-02-06 10:50:00', '2024-02-06 10:20:00', '2024-02-06 09:50:00', '2024-02-06 09:20:00', '2024-02-06 08:50:00', '2024-02-06 08:20:00', '2024-02-06 07:50:00', '2024-02-06 07:20:00', '2024-02-06 06:50:00', '2024-02-06 06:20:00', '2024-02-06 05:50:00', '2024-02-06 05:20:00', '2024-02-06 04:50:00', '2024-02-06 04:20:00', '2024-02-06 03:50:00', '2024-02-06 03:20:00', '2024-02-06 02:50:00', '2024-02-06 02:20:00', '2024-02-06 01:50:00', '2024-02-06 01:20:00', '2024-02-06 00:50:00', '2024-02-06 00:20:00', '2024-02-05 23:50:00', '2024-02-05 23:20:00', '2024-02-05 22:50:00', '2024-02-05 22:20:00', '2024-02-05 21:50:00', '2024-02-05 21:20:00', '2024-02-05 20:50:00']"
Finland, Kuusamo Airport (KAO/EFKS) ,"['EFKS 082020Z 01001KT 1500 R12/1400U -SHSN BR VV001 M32/M35 Q1006', 'EFKS 081950Z VRB01KT 2000 -SHSN BR VV001 M31/M34 Q1005', 'EFKS 081920Z VRB02KT 3000 BR NSC M31/M34 Q1005', 'EFKS 081850Z AUTO 13002KT 3500 1700 -SHSN NCD M31/M34 Q1005', 'EFKS 081820Z AUTO VRB01KT 4400 -SHSN SCT001 M31/M34 Q1005', 'EFKS 081750Z AUTO VRB02KT 4600 1600 -SN VV001 M30/M33 Q1004', 'EFKS 081720Z AUTO VRB01KT 2800 -SN VV001 M30/M33 Q1004', 'EFKS 081650Z AUTO VRB01KT 3000 -SN VV001 M29/M32 Q1004', 'EFKS 081620Z AUTO VRB02KT 3500 -SHSN FEW001 M29/M32 Q1004', 'EFKS 081550Z AUTO VRB01KT 9999 -SHSN NCD M28/M31 Q1004', 'EFKS 081520Z AUTO VRB01KT 9999 -SHSN NSC M28/M30 Q1004', 'EFKS 081450Z AUTO 31002KT CAVOK M28/M30 Q1004', 'EFKS 081420Z AUTO VRB01KT CAVOK M26/M28 Q1004', 'EFKS 081350Z AUTO 16002KT CAVOK M24/M27 Q1004', 'EFKS 081320Z AUTO 11002KT CAVOK M24/M27 Q1003', 'EFKS 081250Z AUTO 20002KT 9999 -SHSN SCT001 M24/M27 Q1003', 'EFKS 081220Z AUTO 23001KT 4100 -SHSN VV001 M24/M28 Q1003', 'EFKS 081150Z AUTO 00000KT 6000 -SN FEW001 M24/M27 Q1003', 'EFKS 081120Z AUTO VRB01KT 8000 -SN BKN001 M25/M27 Q1003', 'EFKS 081050Z AUTO VRB01KT 2300 -SN BKN001 M25/M28 Q1003', 'EFKS 081020Z AUTO 21001KT 9999 FEW001 M26/M28 Q1002', 'EFKS 080950Z AUTO 19001KT 9999 SCT001 M27/M29 Q1002', 'EFKS 080920Z AUTO 20001KT 9999 BKN001 M28/M31 Q1002', 'EFKS 080850Z VRB01KT 9999 BKN002 M28/M30 Q1002', 'EFKS 080820Z VRB01KT 9999 BKN001 M30/M33 Q1002', 'EFKS 080750Z 11001KT 9999 BKN001 M30/M33 Q1002', 'EFKS 080720Z AUTO VRB01KT 9999 OVC002 M31/M34 Q1002', 'EFKS 080650Z AUTO VRB01KT 7000 BKN002 M31/M34 Q1001', 'EFKS 080620Z AUTO VRB01KT 9999 FEW002 M31/M34 Q1001', 'EFKS 080550Z AUTO VRB01KT 9999 BKN001 M31/M34 Q1001', 'EFKS 080520Z AUTO VRB01KT 9999 BKN001 M31/M34 Q1000', 'EFKS 080450Z AUTO VRB01KT 9999 BKN001 M30/M34 Q1001', 'EFKS 080420Z AUTO 12001KT 9999 BKN001 M29/M32 Q1000', 'EFKS 080350Z AUTO 11001KT 9999 BKN002 M29/M32 Q1000', 'EFKS 080320Z AUTO 15002KT 9999 BKN001 M29/M32 Q1000', 'EFKS 080250Z AUTO VRB01KT 9999 OVC001 M28/M31 Q1000', 'EFKS 080220Z AUTO VRB01KT 9999 OVC001 M28/M31 Q1000', 'EFKS 080150Z AUTO VRB01KT 9999 OVC001 M27/M30 Q1000', 'EFKS 080120Z AUTO 09001KT 9999 OVC001 M27/M29 Q1000', 'EFKS 080050Z AUTO 09003KT 9999 OVC001 M26/M28 Q0999', 'EFKS 080020Z AUTO VRB01KT 9999 1000 R12/1600D VV002 M26/M28 Q0999', 'EFKS 072350Z AUTO VRB02KT 9999 OVC001 M27/M30 Q0999', 'EFKS 072320Z AUTO VRB01KT 9999 OVC002 M27/M30 Q0999', 'EFKS 072250Z AUTO VRB01KT 9999 OVC002 M27/M30 Q0999', 'EFKS 072220Z AUTO VRB01KT 9999 VV003 M27/M30 Q0999', 'EFKS 072150Z AUTO VRB01KT 9999 OVC002 M28/M31 Q0998', 'EFKS 072120Z AUTO 08001KT 9999 OVC003 M27/M30 Q0998', 'EFKS 072050Z AUTO VRB01KT 9999 -SHSN OVC003 M27/M29 Q0998', 'EFKS 072020Z VRB01KT 9999 -SHSN OVC003 M27/M29 Q0998', 'EFKS 071950Z VRB02KT 9999 -SHSN OVC004 M27/M29 Q0998', 'EFKS 071920Z 14002KT 9999 -SHSN OVC004 M27/M30 Q0998', 'EFKS 071850Z AUTO 15001KT 9999 OVC003 M27/M30 Q0998', 'EFKS 071820Z AUTO VRB01KT 9999 OVC004 M27/M30 Q0997', 'EFKS 071750Z AUTO 08002KT 9999 BKN004 M27/M30 Q0997', 'EFKS 071720Z AUTO VRB01KT CAVOK M27/M29 Q0997', 'EFKS 071650Z AUTO 09003KT CAVOK M26/M29 Q0997', 'EFKS 071620Z AUTO 08004KT CAVOK M25/M27 Q0997', 'EFKS 071550Z AUTO 12004KT CAVOK M24/M26 Q0997', 'EFKS 071520Z AUTO 10004KT 9999 SCT004 M23/M26 Q0997', 'EFKS 071450Z AUTO 11003KT 9999 OVC005 M23/M25 Q0997', 'EFKS 071420Z AUTO 12004KT 9999 -SHSN OVC004 M23/M25 Q0997', 'EFKS 071350Z AUTO 14004KT 9999 -SHSN OVC004 M23/M25 Q0996', 'EFKS 071320Z AUTO 14002KT 9999 OVC005 M22/M25 Q0996', 'EFKS 071250Z AUTO 14003KT 9999 OVC004 M23/M25 Q0996', 'EFKS 071220Z AUTO 12003KT 9999 OVC004 M22/M25 Q0996', 'EFKS 071150Z AUTO 15003KT 9999 -SN OVC004 M23/M26 Q0996', 'EFKS 071120Z 15004KT 9999 OVC004 M24/M26 Q0996', 'EFKS 071050Z 16003KT 9999 OVC005 M24/M26 Q0996', 'EFKS 071020Z 16005KT 9999 BKN005 OVC018 M23/M26 Q0996', 'EFKS 070950Z 15004KT 9999 OVC005 M24/M27 Q0996', 'EFKS 070920Z 15003KT 9999 OVC005 M24/M27 Q0995', 'EFKS 070850Z 09002KT 9999 OVC005 M25/M27 Q0995', 'EFKS 070820Z VRB02KT 9000 OVC005 M25/M27 Q0995', 'EFKS 070750Z VRB01KT 7000 OVC004 M25/M28 Q0995', 'EFKS 070720Z 15002KT 6000 OVC004 M26/M28 Q0995', 'EFKS 070650Z 15002KT 7000 OVC003 M26/M29 Q0994', 'EFKS 070620Z AUTO 11002KT 9000 3700 OVC002 M27/M30 Q0994', 'EFKS 070550Z AUTO 11002KT 9999 -SHSN OVC004 M28/M30 Q0994', 'EFKS 070520Z AUTO 08003KT 9999 -SN OVC003 M28/M30 Q0994', 'EFKS 070450Z AUTO VRB02KT 9999 BKN002 M28/M30 Q0994', 'EFKS 070420Z AUTO VRB01KT CAVOK M28/M31 Q0994', 'EFKS 070350Z AUTO VRB01KT CAVOK M28/M31 Q0994', 'EFKS 070320Z AUTO VRB01KT 9999 -SHSN SCT013 M28/M31 Q0994', 'EFKS 070250Z AUTO VRB01KT 9999 BKN013 M28/M32 Q0994', 'EFKS 070220Z AUTO VRB01KT 9999 -SN BKN014 M28/M31 Q0994', 'EFKS 070150Z AUTO VRB01KT 9000 -SN OVC013 M28/M31 Q0994', 'EFKS 070120Z AUTO 05002KT 7000 -SN OVC013 M29/M32 Q0994', 'EFKS 070050Z AUTO VRB01KT 4200 -SN SCT004 BKN013 M29/M32 Q0994', 'EFKS 070020Z AUTO VRB01KT 3700 -SN BKN013 M29/M32 Q0994', 'EFKS 062350Z AUTO VRB01KT 6000 2700 -SHSN FEW011 M28/M31 Q0994', 'EFKS 062320Z AUTO VRB02KT 9000 -SHSN FEW004 BKN010 M28/M31 Q0994', 'EFKS 062250Z AUTO VRB01KT 9999 -SHSN FEW004 M29/M32 Q0994', 'EFKS 062220Z AUTO VRB01KT 5000 -SHSN BKN004 M29/M32 Q0994', 'EFKS 062150Z AUTO VRB01KT 3800 -SN SCT003 M29/M32 Q0994', 'EFKS 062120Z AUTO VRB01KT 6000 -SN BKN002 M29/M32 Q0994', 'EFKS 062050Z AUTO VRB01KT 9999 -SN OVC003 M28/M31 Q0994', 'EFKS 062020Z VRB01KT 9999 -SHSN FEW003 BKN017 M28/M31 Q0994', 'EFKS 061950Z VRB02KT 9999 -SHSN FEW003 BKN017 M28/M31 Q0994', 'EFKS 061920Z VRB02KT 9999 FEW003 SCT017 M29/M32 Q0994', 'EFKS 061850Z AUTO VRB01KT 9999 -SHSN OVC016 M28/M31 Q0995', 'EFKS 061820Z AUTO VRB01KT 9999 -SHSN FEW003 BKN016 M28/M30 Q0994', 'EFKS 061750Z AUTO 05001KT 9999 -SN FEW016 M27/M30 Q0994', 'EFKS 061720Z AUTO VRB01KT 9000 -SHSN NCD M27/M30 Q0994', 'EFKS 061650Z AUTO VRB01KT 9999 -SHSN NCD M26/M29 Q0995', 'EFKS 061620Z AUTO VRB01KT CAVOK M26/M28 Q0995', 'EFKS 061550Z AUTO VRB01KT 9999 -SHSN NCD M25/M27 Q0995', 'EFKS 061520Z AUTO VRB01KT 9999 -SHSN NCD M24/M26 Q0995', 'EFKS 061450Z AUTO VRB01KT CAVOK M23/M25 Q0995', 'EFKS 061420Z AUTO VRB01KT 9999 -SHSN NSC M22/M24 Q0995', 'EFKS 061350Z AUTO VRB01KT 9999 -SHSN NSC M21/M24 Q0995', 'EFKS 061320Z AUTO VRB01KT 9999 2200 -SHSN FEW011 M20/M22 Q0996', 'EFKS 061250Z AUTO VRB01KT CAVOK M20/M22 Q0996', 'EFKS 061220Z AUTO VRB02KT 9999 -SN SCT018 M20/M22 Q0996', 'EFKS 061150Z AUTO 31003KT 9999 -SHSN OVC017 M20/M22 Q0996', 'EFKS 061120Z AUTO VRB01KT 9999 -SHSN BKN018 M21/M23 Q0996', 'EFKS 061050Z AUTO VRB01KT 9999 -SHSN NCD M21/M23 Q0996', 'EFKS 061020Z AUTO 00000KT 9000 -SHSN SCT017 M22/M24 Q0996', 'EFKS 060950Z AUTO VRB01KT 9999 -SHSN OVC017 M23/M26 Q0997', 'EFKS 060920Z AUTO VRB01KT 9999 -SN BKN001 OVC017 M24/M27 Q0997', 'EFKS 060850Z AUTO 32001KT 9999 BKN001 M25/M28 Q0997', 'EFKS 060820Z AUTO 32001KT 9999 OVC002 M27/M29 Q0997', 'EFKS 060750Z AUTO VRB01KT 9999 BKN002 M26/M29 Q0997', 'EFKS 060720Z VRB01KT 9999 BR BKN002 M26/M29 Q0997', 'EFKS 060650Z VRB02KT 3100 BR BKN002 M26/M29 Q0997', 'EFKS 060620Z AUTO 32003KT 9999 BKN002 M25/M28 Q0997', 'EFKS 060550Z AUTO 30002KT 9999 -SN FEW003 M24/M27 Q0997', 'EFKS 060520Z AUTO 31001KT 9999 -SN BKN015 M24/M26 Q0997', 'EFKS 060450Z AUTO VRB01KT 9999 -SN OVC016 M23/M25 Q0997', 'EFKS 060420Z AUTO VRB02KT 9999 -SHSN BKN016 M23/M25 Q0997', 'EFKS 060350Z AUTO 32003KT 9999 -SHSN OVC017 M22/M24 Q0997', 'EFKS 060320Z AUTO 32003KT 9999 BKN018 M22/M25 Q0997', 'EFKS 060250Z AUTO 33004KT 9999 -SHSN FEW018 M22/M24 Q0997', 'EFKS 060220Z AUTO 31003KT 9999 -SHSN BKN018 M21/M23 Q0997', 'EFKS 060150Z AUTO 30003KT 9999 -SN BKN018 M21/M23 Q0998', 'EFKS 060120Z AUTO VRB02KT 9999 -SN OVC018 M20/M22 Q0997', 'EFKS 060050Z AUTO 32003KT 9999 -SN OVC019 M20/M22 Q0997', 'EFKS 060020Z AUTO 30004KT 9999 -SN OVC019 M21/M23 Q0997', 'EFKS 052350Z AUTO 30004KT 9999 -SN BKN020 M21/M23 Q0997', 'EFKS 052320Z AUTO VRB02KT 3300 -SN BKN020 M22/M24 Q0997', 'EFKS 052250Z AUTO 29003KT 9999 -SN BKN021 M21/M23 Q0997', 'EFKS 052220Z AUTO VRB01KT 9999 -SHSN BKN021 M21/M22 Q0997', 'EFKS 052150Z AUTO 05003KT 9999 -SHSN SCT021 M18/M20 Q0997', 'EFKS 052120Z AUTO 04005KT 9999 -SHSN NCD M18/M20 Q0997', 'EFKS 052050Z AUTO 04007KT 9999 -SHSN NCD M18/M20 Q0996']","['2024-02-08 20:20:00', '2024-02-08 19:50:00', '2024-02-08 19:20:00', '2024-02-08 18:50:00', '2024-02-08 18:20:00', '2024-02-08 17:50:00', '2024-02-08 17:20:00', '2024-02-08 16:50:00', '2024-02-08 16:20:00', '2024-02-08 15:50:00', '2024-02-08 15:20:00', '2024-02-08 14:50:00', '2024-02-08 14:20:00', '2024-02-08 13:50:00', '2024-02-08 13:20:00', '2024-02-08 12:50:00', '2024-02-08 12:20:00', '2024-02-08 11:50:00', '2024-02-08 11:20:00', '2024-02-08 10:50:00', '2024-02-08 10:20:00', '2024-02-08 09:50:00', '2024-02-08 09:20:00', '2024-02-08 08:50:00', '2024-02-08 08:20:00', '2024-02-08 07:50:00', '2024-02-08 07:20:00', '2024-02-08 06:50:00', '2024-02-08 06:20:00', '2024-02-08 05:50:00', '2024-02-08 05:20:00', '2024-02-08 04:50:00', '2024-02-08 04:20:00', '2024-02-08 03:50:00', '2024-02-08 03:20:00', '2024-02-08 02:50:00', '2024-02-08 02:20:00', '2024-02-08 01:50:00', '2024-02-08 01:20:00', '2024-02-08 00:50:00', '2024-02-08 00:20:00', '2024-02-07 23:50:00', '2024-02-07 23:20:00', '2024-02-07 22:50:00', '2024-02-07 22:20:00', '2024-02-07 21:50:00', '2024-02-07 21:20:00', '2024-02-07 20:50:00', '2024-02-07 20:20:00', '2024-02-07 19:50:00', '2024-02-07 19:20:00', '2024-02-07 18:50:00', '2024-02-07 18:20:00', '2024-02-07 17:50:00', '2024-02-07 17:20:00', '2024-02-07 16:50:00', '2024-02-07 16:20:00', '2024-02-07 15:50:00', '2024-02-07 15:20:00', '2024-02-07 14:50:00', '2024-02-07 14:20:00', '2024-02-07 13:50:00', '2024-02-07 13:20:00', '2024-02-07 12:50:00', '2024-02-07 12:20:00', '2024-02-07 11:50:00', '2024-02-07 11:20:00', '2024-02-07 10:50:00', '2024-02-07 10:20:00', '2024-02-07 09:50:00', '2024-02-07 09:20:00', '2024-02-07 08:50:00', '2024-02-07 08:20:00', '2024-02-07 07:50:00', '2024-02-07 07:20:00', '2024-02-07 06:50:00', '2024-02-07 06:20:00', '2024-02-07 05:50:00', '2024-02-07 05:20:00', '2024-02-07 04:50:00', '2024-02-07 04:20:00', '2024-02-07 03:50:00', '2024-02-07 03:20:00', '2024-02-07 02:50:00', '2024-02-07 02:20:00', '2024-02-07 01:50:00', '2024-02-07 01:20:00', '2024-02-07 00:50:00', '2024-02-07 00:20:00', '2024-02-06 23:50:00', '2024-02-06 23:20:00', '2024-02-06 22:50:00', '2024-02-06 22:20:00', '2024-02-06 21:50:00', '2024-02-06 21:20:00', '2024-02-06 20:50:00', '2024-02-06 20:20:00', '2024-02-06 19:50:00', '2024-02-06 19:20:00', '2024-02-06 18:50:00', '2024-02-06 18:20:00', '2024-02-06 17:50:00', '2024-02-06 17:20:00', '2024-02-06 16:50:00', '2024-02-06 16:20:00', '2024-02-06 15:50:00', '2024-02-06 15:20:00', '2024-02-06 14:50:00', '2024-02-06 14:20:00', '2024-02-06 13:50:00', '2024-02-06 13:20:00', '2024-02-06 12:50:00', '2024-02-06 12:20:00', '2024-02-06 11:50:00', '2024-02-06 11:20:00', '2024-02-06 10:50:00', '2024-02-06 10:20:00', '2024-02-06 09:50:00', '2024-02-06 09:20:00', '2024-02-06 08:50:00', '2024-02-06 08:20:00', '2024-02-06 07:50:00', '2024-02-06 07:20:00', '2024-02-06 06:50:00', '2024-02-06 06:20:00', '2024-02-06 05:50:00', '2024-02-06 05:20:00', '2024-02-06 04:50:00', '2024-02-06 04:20:00', '2024-02-06 03:50:00', '2024-02-06 03:20:00', '2024-02-06 02:50:00', '2024-02-06 02:20:00', '2024-02-06 01:50:00', '2024-02-06 01:20:00', '2024-02-06 00:50:00', '2024-02-06 00:20:00', '2024-02-05 23:50:00', '2024-02-05 23:20:00', '2024-02-05 22:50:00', '2024-02-05 22:20:00', '2024-02-05 21:50:00', '2024-02-05 21:20:00', '2024-02-05 20:50:00']"
Finland, Lappeenranta Airport (LPP/EFLP) ,"['EFLP 082020Z AUTO 02003KT CAVOK M22/M24 Q1006', 'EFLP 081950Z AUTO 02003KT 340V050 CAVOK M21/M23 Q1006', 'EFLP 081920Z AUTO 03005KT CAVOK M21/M23 Q1006', 'EFLP 081850Z AUTO 03005KT CAVOK M20/M23 Q1005', 'EFLP 081820Z AUTO 01004KT 350V050 CAVOK M20/M23 Q1005', 'EFLP 081750Z AUTO 03005KT CAVOK M20/M22 Q1005', 'EFLP 081720Z AUTO 03005KT 9999 -SHSN NCD M19/M21 Q1005', 'EFLP 081650Z AUTO 03004KT 9999 -SN NCD M19/M21 Q1005', 'EFLP 081620Z AUTO 02003KT 9999 -SHSN NCD M20/M22 Q1005', 'EFLP 081550Z AUTO 03003KT 360V060 9999 -SN NCD M19/M21 Q1004', 'EFLP 081520Z AUTO 03003KT 9999 -SN NCD M19/M21 Q1004', 'EFLP 081450Z AUTO 02003KT CAVOK M19/M21 Q1004', 'EFLP 081420Z AUTO 03004KT CAVOK M18/M21 Q1004', 'EFLP 081350Z AUTO 04004KT CAVOK M18/M21 Q1004', 'EFLP 081320Z AUTO 04006KT CAVOK M17/M21 Q1004', 'EFLP 081250Z AUTO 03004KT CAVOK M17/M20 Q1003', 'EFLP 081220Z AUTO 02004KT CAVOK M17/M20 Q1003', 'EFLP 081150Z AUTO 04004KT CAVOK M17/M20 Q1003', 'EFLP 081120Z AUTO 03004KT CAVOK M17/M20 Q1003', 'EFLP 081050Z AUTO 03004KT CAVOK M18/M21 Q1003', 'EFLP 081020Z AUTO 06004KT CAVOK M19/M22 Q1003', 'EFLP 080950Z AUTO VRB02KT CAVOK M20/M23 Q1002', 'EFLP 080920Z AUTO 04002KT CAVOK M20/M22 Q1002', 'EFLP 080850Z 02003KT 9999 FEW002 M21/M24 Q1002', 'EFLP 080820Z 02003KT 9999 SCT002 M22/M24 Q1002', 'EFLP 080750Z 02003KT 9999 SCT002 M22/M24 Q1002', 'EFLP 080720Z 02005KT 9999 SCT002 M22/M24 Q1001', 'EFLP 080650Z 02005KT 9999 FEW002 M22/M25 Q1001', 'EFLP 080620Z 36005KT 9999 SCT002 M22/M25 Q1001', 'EFLP 080550Z AUTO 01005KT 9999 BKN002 M22/M24 Q1000', 'EFLP 080520Z AUTO 03004KT 9999 -SHSN FEW002 M22/M24 Q1000', 'EFLP 080450Z AUTO 03004KT 9999 -SHSN FEW003 M21/M24 Q1000', 'EFLP 080420Z AUTO 03005KT CAVOK M21/M23 Q1000', 'EFLP 080350Z AUTO 02005KT 9999 FEW043 M21/M23 Q0999', 'EFLP 080320Z AUTO 01005KT 9999 BKN043 M20/M22 Q0999', 'EFLP 080250Z AUTO 03005KT 9999 BKN045 M19/M22 Q0999', 'EFLP 080220Z AUTO 03004KT 9999 OVC044 M19/M21 Q0999', 'EFLP 080150Z AUTO 03006KT 9999 OVC044 M19/M21 Q0999', 'EFLP 080120Z AUTO 03006KT 9999 OVC045 M19/M21 Q0998', 'EFLP 080050Z AUTO 02006KT 9999 OVC045 M19/M21 Q0998', 'EFLP 080020Z AUTO 03005KT 9999 OVC045 M19/M21 Q0998', 'EFLP 072350Z AUTO 01005KT 9999 OVC045 M19/M21 Q0997', 'EFLP 072320Z AUTO 01006KT 9999 OVC045 M18/M21 Q0997', 'EFLP 072250Z AUTO 02005KT 9999 OVC045 M18/M21 Q0997', 'EFLP 072220Z AUTO 02005KT 9999 -SN OVC045 M18/M21 Q0997', 'EFLP 072150Z AUTO 02006KT 9999 -SN OVC045 M18/M20 Q0996', 'EFLP 072120Z AUTO 02006KT 9999 -SN OVC045 M18/M20 Q0996', 'EFLP 072050Z AUTO 03007KT 9999 -SN OVC044 M17/M19 Q0996', 'EFLP 072020Z AUTO 02007KT 9999 -SN OVC044 M17/M19 Q0996', 'EFLP 071950Z AUTO 02007KT 9999 -SHSN OVC044 M16/M19 Q0996', 'EFLP 071920Z AUTO 02007KT 9999 -SN OVC044 M16/M18 Q0995', 'EFLP 071850Z AUTO 03007KT 9999 -SN OVC045 M16/M18 Q0995', 'EFLP 071820Z AUTO 02007KT 350V050 9999 -SN OVC045 M16/M18 Q0995', 'EFLP 071750Z AUTO 02006KT 9999 -SN OVC045 M15/M18 Q0995', 'EFLP 071720Z AUTO 03007KT 9000 -SN OVC046 M15/M18 Q0994', 'EFLP 071650Z AUTO 03008KT 9999 -SN OVC046 M15/M17 Q0994', 'EFLP 071620Z AUTO 03008KT 9999 -SN OVC045 M15/M17 Q0994', 'EFLP 071550Z AUTO 03009KT 9999 -SN OVC045 M15/M17 Q0994', 'EFLP 071520Z AUTO 03009KT 9999 -SN OVC045 M15/M17 Q0994', 'EFLP 071450Z AUTO 02008KT 9999 -SN OVC044 M14/M17 Q0994', 'EFLP 071420Z AUTO 03008KT 9999 -SN OVC044 M14/M17 Q0993', 'EFLP 071350Z AUTO 03008KT 9999 -SN OVC044 M14/M17 Q0993', 'EFLP 071320Z AUTO 03009KT 9999 -SN OVC042 M14/M16 Q0993', 'EFLP 071250Z AUTO 03010KT 9999 -SN OVC041 M14/M16 Q0993', 'EFLP 071220Z AUTO 03009KT 9999 -SN OVC041 M14/M16 Q0992', 'EFLP 071150Z AUTO 04010KT 9999 -SN BKN040 M14/M16 Q0992', 'EFLP 071120Z AUTO 04009KT 9999 -SHSN BKN040 M14/M17 Q0992', 'EFLP 071050Z AUTO 03007KT 9999 -SN OVC037 M14/M17 Q0992', 'EFLP 071020Z AUTO 04009KT 9999 -SN BKN038 M14/M17 Q0992', 'EFLP 070950Z AUTO 04009KT 9999 -SN BKN037 M14/M17 Q0992', 'EFLP 070920Z AUTO 04009KT 9999 -SN BKN035 M14/M17 Q0992', 'EFLP 070850Z AUTO 03008KT 9999 -SN BKN034 M14/M17 Q0992', 'EFLP 070820Z AUTO 03008KT 360V060 4100 -SN OVC015 M14/M16 Q0992', 'EFLP 070750Z AUTO 05007KT 3600 -SN OVC019 M13/M16 Q0992', 'EFLP 070720Z AUTO 06006KT 4300 -SN FEW020 OVC026 M14/M16 Q0992', 'EFLP 070650Z AUTO 09004KT 060V120 6000 -SN FEW010 OVC023 M14/M16 Q0992', 'EFLP 070620Z AUTO 09008KT 070V130 9999 -SN OVC009 M15/M17 Q0992', 'EFLP 070550Z AUTO 09008KT 070V130 9999 -SN OVC010 M15/M17 Q0992', 'EFLP 070520Z AUTO 08009KT 060V120 9999 -SN OVC011 M14/M17 Q0992', 'EFLP 070450Z AUTO 09008KT 9999 -SN OVC011 M14/M16 Q0993', 'EFLP 070420Z AUTO 09006KT 9000 -SN OVC011 M14/M16 Q0993', 'EFLP 070350Z AUTO 08007KT 040V120 7000 -SN OVC011 M14/M16 Q0993', 'EFLP 070320Z AUTO 10006KT 070V130 7000 -SN OVC010 M14/M16 Q0993', 'EFLP 070250Z AUTO 10006KT 080V140 9999 -SN OVC010 M14/M16 Q0993', 'EFLP 070220Z AUTO 08007KT 9000 -SN OVC011 M14/M16 Q0994', 'EFLP 070150Z AUTO 08005KT 9999 -SN OVC014 M14/M16 Q0994', 'EFLP 070120Z AUTO 09005KT 060V130 9999 -SN OVC015 M14/M16 Q0994', 'EFLP 070050Z AUTO 09006KT 9999 -SN OVC017 M14/M15 Q0994', 'EFLP 070020Z AUTO 09006KT 9999 -SN OVC018 M14/M16 Q0994', 'EFLP 062350Z AUTO 09005KT 9999 -SN OVC019 M14/M16 Q0995', 'EFLP 062320Z AUTO 09005KT 9999 -SN OVC020 M14/M16 Q0995', 'EFLP 062250Z AUTO 10004KT 9999 -SHSN OVC020 M14/M16 Q0995', 'EFLP 062220Z AUTO 10003KT 9999 -SHSN OVC020 M14/M16 Q0996', 'EFLP 062150Z AUTO 11003KT 080V150 9999 -SHSN OVC019 M14/M16 Q0996', 'EFLP 062120Z AUTO 12004KT 9999 -SN OVC019 M14/M16 Q0996', 'EFLP 062050Z AUTO 11003KT 9999 -SN OVC019 M14/M16 Q0996', 'EFLP 062020Z AUTO 11004KT 9999 -SN OVC018 M14/M16 Q0996', 'EFLP 061950Z AUTO 10004KT 9999 -SN OVC017 M15/M16 Q0997', 'EFLP 061920Z AUTO 09004KT 9999 -SN OVC015 M16/M18 Q0997', 'EFLP 061850Z AUTO VRB02KT 9999 -SN OVC013 M18/M20 Q0997', 'EFLP 061820Z AUTO 01002KT 9999 FEW014 M19/M20 Q0997', 'EFLP 061750Z AUTO 01002KT CAVOK M19/M20 Q0997', 'EFLP 061720Z AUTO 36001KT CAVOK M18/M19 Q0997', 'EFLP 061650Z AUTO 05003KT 9999 -SHSN FEW007 M18/M20 Q0997', 'EFLP 061620Z AUTO 05004KT 9999 -SN FEW007 M17/M18 Q0997', 'EFLP 061550Z AUTO 05003KT CAVOK M18/M19 Q0997', 'EFLP 061520Z AUTO 03002KT 9999 -SHSN NCD M17/M18 Q0997', 'EFLP 061450Z AUTO 03003KT CAVOK M17/M18 Q0998', 'EFLP 061420Z AUTO 03003KT 350V050 CAVOK M14/M16 Q0997', 'EFLP 061350Z AUTO 01004KT CAVOK M14/M16 Q0997', 'EFLP 061320Z AUTO 36003KT CAVOK M13/M16 Q0997', 'EFLP 061250Z AUTO 34004KT 300V010 CAVOK M13/M16 Q0997', 'EFLP 061220Z AUTO 36004KT 330V050 CAVOK M13/M16 Q0997', 'EFLP 061150Z AUTO 01004KT 340V040 CAVOK M13/M16 Q0997', 'EFLP 061120Z AUTO 36005KT CAVOK M13/M16 Q0997', 'EFLP 061050Z AUTO 02005KT 340V040 CAVOK M13/M16 Q0997', 'EFLP 061020Z AUTO 03004KT 350V060 9999 -SN NCD M13/M16 Q0997', 'EFLP 060950Z AUTO 36005KT 340V040 9999 -SN NCD M13/M16 Q0997', 'EFLP 060920Z AUTO 04006KT 9999 -SHSN NCD M14/M16 Q0996', 'EFLP 060850Z AUTO 04007KT 9999 -SHSN NCD M14/M16 Q0996', 'EFLP 060820Z AUTO 02005KT CAVOK M14/M16 Q0996', 'EFLP 060750Z AUTO 01005KT 9999 -SHSN NCD M14/M16 Q0996', 'EFLP 060720Z AUTO 36003KT 330V040 9999 -SHSN FEW009 M14/M16 Q0996', 'EFLP 060650Z AUTO 03005KT 350V050 9999 -SHSN FEW008 M13/M15 Q0995', 'EFLP 060620Z AUTO 02005KT CAVOK M13/M15 Q0995', 'EFLP 060550Z AUTO 36006KT 9999 -SHSN FEW007 M12/M14 Q0995', 'EFLP 060520Z AUTO 02007KT 330V050 9999 -SHSN BKN007 M12/M13 Q0994', 'EFLP 060450Z AUTO 03008KT 9999 SCT008 M11/M13 Q0994', 'EFLP 060420Z AUTO 03007KT 9999 -SN BKN009 M11/M13 Q0994', 'EFLP 060350Z AUTO 02008KT 9999 -SHSN OVC009 M10/M12 Q0994', 'EFLP 060320Z AUTO 03008KT 9999 -SN BKN010 OVC038 M10/M12 Q0993', 'EFLP 060250Z AUTO 02007KT 9999 -SN BKN010 M10/M12 Q0993', 'EFLP 060220Z AUTO 02007KT 9999 -SN FEW009 SCT021 M10/M12 Q0993', 'EFLP 060150Z AUTO 02007KT 9999 -SN FEW009 M10/M11 Q0993', 'EFLP 060120Z AUTO 01006KT 9999 -SN FEW031 M10/M11 Q0992', 'EFLP 060050Z AUTO 36006KT 340V040 9999 -SN FEW040 M10/M12 Q0992', 'EFLP 060020Z AUTO 36006KT 9999 -SN FEW009 BKN033 M10/M11 Q0992', 'EFLP 052350Z AUTO 36007KT 9999 -SN FEW008 OVC031 M09/M11 Q0992', 'EFLP 052320Z AUTO 02009KT 350V050 5000 -SN FEW009 OVC032 M08/M10 Q0991', 'EFLP 052250Z AUTO 01009KT 6000 -SN OVC027 M08/M10 Q0991', 'EFLP 052220Z AUTO 02008KT 4700 -SN FEW007 OVC031 M08/M09 Q0990', 'EFLP 052150Z AUTO 01007KT 4300 -SN FEW006 OVC025 M07/M09 Q0990', 'EFLP 052120Z AUTO 03009KT 3200 -SN FEW007 OVC018 M07/M08 Q0989', 'EFLP 052050Z AUTO 03010KT 4800 -SN OVC007 M06/M08 Q0989']","['2024-02-08 20:20:00', '2024-02-08 19:50:00', '2024-02-08 19:20:00', '2024-02-08 18:50:00', '2024-02-08 18:20:00', '2024-02-08 17:50:00', '2024-02-08 17:20:00', '2024-02-08 16:50:00', '2024-02-08 16:20:00', '2024-02-08 15:50:00', '2024-02-08 15:20:00', '2024-02-08 14:50:00', '2024-02-08 14:20:00', '2024-02-08 13:50:00', '2024-02-08 13:20:00', '2024-02-08 12:50:00', '2024-02-08 12:20:00', '2024-02-08 11:50:00', '2024-02-08 11:20:00', '2024-02-08 10:50:00', '2024-02-08 10:20:00', '2024-02-08 09:50:00', '2024-02-08 09:20:00', '2024-02-08 08:50:00', '2024-02-08 08:20:00', '2024-02-08 07:50:00', '2024-02-08 07:20:00', '2024-02-08 06:50:00', '2024-02-08 06:20:00', '2024-02-08 05:50:00', '2024-02-08 05:20:00', '2024-02-08 04:50:00', '2024-02-08 04:20:00', '2024-02-08 03:50:00', '2024-02-08 03:20:00', '2024-02-08 02:50:00', '2024-02-08 02:20:00', '2024-02-08 01:50:00', '2024-02-08 01:20:00', '2024-02-08 00:50:00', '2024-02-08 00:20:00', '2024-02-07 23:50:00', '2024-02-07 23:20:00', '2024-02-07 22:50:00', '2024-02-07 22:20:00', '2024-02-07 21:50:00', '2024-02-07 21:20:00', '2024-02-07 20:50:00', '2024-02-07 20:20:00', '2024-02-07 19:50:00', '2024-02-07 19:20:00', '2024-02-07 18:50:00', '2024-02-07 18:20:00', '2024-02-07 17:50:00', '2024-02-07 17:20:00', '2024-02-07 16:50:00', '2024-02-07 16:20:00', '2024-02-07 15:50:00', '2024-02-07 15:20:00', '2024-02-07 14:50:00', '2024-02-07 14:20:00', '2024-02-07 13:50:00', '2024-02-07 13:20:00', '2024-02-07 12:50:00', '2024-02-07 12:20:00', '2024-02-07 11:50:00', '2024-02-07 11:20:00', '2024-02-07 10:50:00', '2024-02-07 10:20:00', '2024-02-07 09:50:00', '2024-02-07 09:20:00', '2024-02-07 08:50:00', '2024-02-07 08:20:00', '2024-02-07 07:50:00', '2024-02-07 07:20:00', '2024-02-07 06:50:00', '2024-02-07 06:20:00', '2024-02-07 05:50:00', '2024-02-07 05:20:00', '2024-02-07 04:50:00', '2024-02-07 04:20:00', '2024-02-07 03:50:00', '2024-02-07 03:20:00', '2024-02-07 02:50:00', '2024-02-07 02:20:00', '2024-02-07 01:50:00', '2024-02-07 01:20:00', '2024-02-07 00:50:00', '2024-02-07 00:20:00', '2024-02-06 23:50:00', '2024-02-06 23:20:00', '2024-02-06 22:50:00', '2024-02-06 22:20:00', '2024-02-06 21:50:00', '2024-02-06 21:20:00', '2024-02-06 20:50:00', '2024-02-06 20:20:00', '2024-02-06 19:50:00', '2024-02-06 19:20:00', '2024-02-06 18:50:00', '2024-02-06 18:20:00', '2024-02-06 17:50:00', '2024-02-06 17:20:00', '2024-02-06 16:50:00', '2024-02-06 16:20:00', '2024-02-06 15:50:00', '2024-02-06 15:20:00', '2024-02-06 14:50:00', '2024-02-06 14:20:00', '2024-02-06 13:50:00', '2024-02-06 13:20:00', '2024-02-06 12:50:00', '2024-02-06 12:20:00', '2024-02-06 11:50:00', '2024-02-06 11:20:00', '2024-02-06 10:50:00', '2024-02-06 10:20:00', '2024-02-06 09:50:00', '2024-02-06 09:20:00', '2024-02-06 08:50:00', '2024-02-06 08:20:00', '2024-02-06 07:50:00', '2024-02-06 07:20:00', '2024-02-06 06:50:00', '2024-02-06 06:20:00', '2024-02-06 05:50:00', '2024-02-06 05:20:00', '2024-02-06 04:50:00', '2024-02-06 04:20:00', '2024-02-06 03:50:00', '2024-02-06 03:20:00', '2024-02-06 02:50:00', '2024-02-06 02:20:00', '2024-02-06 01:50:00', '2024-02-06 01:20:00', '2024-02-06 00:50:00', '2024-02-06 00:20:00', '2024-02-05 23:50:00', '2024-02-05 23:20:00', '2024-02-05 22:50:00', '2024-02-05 22:20:00', '2024-02-05 21:50:00', '2024-02-05 21:20:00', '2024-02-05 20:50:00']"
Finland, Mariehamn Airport (MHQ/EFMA) ,"['EFMA 082020Z AUTO 08004KT 050V110 CAVOK M07/M10 Q1004', 'EFMA 081950Z AUTO 09005KT 070V130 CAVOK M07/M10 Q1004', 'EFMA 081920Z AUTO 09006KT 060V120 9999 -SN NSC M07/M10 Q1003', 'EFMA 081850Z AUTO 09007KT 9999 SCT041 M07/M09 Q1003', 'EFMA 081820Z AUTO 08008KT CAVOK M07/M09 Q1003', 'EFMA 081750Z AUTO 04003KT 360V090 CAVOK M08/M09 Q1003', 'EFMA 081720Z AUTO 05003KT 010V080 CAVOK M08/M10 Q1003', 'EFMA 081650Z AUTO 06003KT 030V100 CAVOK M08/M09 Q1002', 'EFMA 081620Z AUTO 04005KT CAVOK M07/M09 Q1002', 'EFMA 081550Z AUTO 03006KT CAVOK M08/M09 Q1002', 'EFMA 081520Z 09003KT 040V130 CAVOK M07/M08 Q1002', 'EFMA 081450Z 05004KT 010V090 CAVOK M07/M08 Q1001', 'EFMA 081420Z 08004KT CAVOK M06/M08 Q1001', 'EFMA 081350Z AUTO 08004KT 050V110 CAVOK M05/M08 Q1001', 'EFMA 081320Z AUTO 08005KT 040V110 CAVOK M05/M07 Q1001', 'EFMA 081250Z AUTO 09005KT CAVOK M05/M07 Q1001', 'EFMA 081220Z AUTO 11005KT 9999 -SN FEW027 SCT036 M05/M07 Q1001', 'EFMA 081150Z AUTO 08006KT 340V120 9999 -SHSN OVC026 M04/M07 Q1001', 'EFMA 081120Z AUTO 02003KT 9999 BKN026 BKN041 M04/M10 Q1001', 'EFMA 081050Z AUTO 06003KT 350V110 9999 BKN045 M03/M10 Q1001', 'EFMA 081020Z AUTO VRB01KT CAVOK M03/M09 Q1001', 'EFMA 080950Z AUTO VRB01KT 9999 FEW046 M04/M09 Q1001', 'EFMA 080920Z AUTO VRB01KT 9999 BKN045 M05/M07 Q1000', 'EFMA 080850Z 01003KT 9999 BKN045 M07/M09 Q1000', 'EFMA 080820Z VRB02KT 9999 OVC045 M08/M10 Q1000', 'EFMA 080750Z AUTO VRB01KT 9999 BKN044 M10/M11 Q1000', 'EFMA 080720Z AUTO VRB02KT CAVOK M11/M12 Q1000', 'EFMA 080650Z AUTO 02003KT CAVOK M10/M11 Q0999', 'EFMA 080620Z AUTO VRB01KT CAVOK M10/M11 Q0999', 'EFMA 080550Z AUTO 33002KT CAVOK M10/M11 Q0999', 'EFMA 080520Z VRB02KT 9999 FEW048 M09/M10 Q0999', 'EFMA 080450Z VRB01KT 9999 BKN048 M08/M09 Q0999', 'EFMA 080420Z AUTO VRB01KT 9999 OVC043 M07/M08 Q0999', 'EFMA 080350Z AUTO VRB02KT 9999 OVC045 M07/M08 Q0999', 'EFMA 080320Z AUTO VRB01KT 9999 OVC049 M07/M08 Q0998', 'EFMA 080250Z AUTO VRB01KT CAVOK M07/M08 Q0998', 'EFMA 080220Z AUTO VRB01KT CAVOK M07/M08 Q0998', 'EFMA 080150Z AUTO 00000KT CAVOK M06/M07 Q0998', 'EFMA 080120Z AUTO 00000KT CAVOK M06/M07 Q0998', 'EFMA 080050Z AUTO 04003KT 9999 -SN FEW030 M06/M07 Q0998', 'EFMA 080020Z AUTO 31003KT 270V350 8000 -SHSN BKN021 M05/M07 Q0998', 'EFMA 072350Z AUTO VRB02KT 9000 4300 -SHSN FEW011 OVC031 M06/M07 Q0998', 'EFMA 072320Z AUTO 15002KT 9999 -SHSN OVC033 M06/M08 Q0998', 'EFMA 072250Z AUTO VRB02KT 9999 OVC042 M06/M08 Q0998', 'EFMA 072220Z AUTO VRB02KT 9999 OVC044 M06/M08 Q0997', 'EFMA 072150Z AUTO VRB02KT 9999 OVC044 M06/M08 Q0997', 'EFMA 072120Z AUTO VRB01KT 9999 OVC045 M06/M08 Q0997', 'EFMA 072050Z AUTO 10002KT 9999 OVC043 M06/M09 Q0997', 'EFMA 072020Z AUTO VRB01KT 9999 -SHSN OVC042 M06/M08 Q0997', 'EFMA 071950Z AUTO VRB02KT 9999 OVC045 M06/M09 Q0997', 'EFMA 071920Z AUTO 00000KT 9999 OVC049 M07/M08 Q0997', 'EFMA 071850Z AUTO VRB01KT 9999 FEW017 BKN048 M07/M09 Q0997', 'EFMA 071820Z AUTO VRB01KT 9999 BKN019 OVC048 M07/M09 Q0997', 'EFMA 071750Z AUTO 13002KT 9999 -SHSN BKN021 OVC048 M06/M09 Q0997', 'EFMA 071720Z AUTO VRB01KT 9999 SCT022 OVC049 M07/M09 Q0996', 'EFMA 071650Z AUTO VRB01KT 9999 -SHSN BKN048 M07/M09 Q0996', 'EFMA 071620Z AUTO VRB01KT 9999 -SHSN SCT030 BKN046 M08/M10 Q0996', 'EFMA 071550Z AUTO VRB01KT 9999 -SHSN FEW030 BKN044 M08/M11 Q0996', 'EFMA 071520Z AUTO VRB01KT 9999 FEW029 SCT045 M08/M11 Q0996', 'EFMA 071450Z AUTO VRB02KT 9999 FEW032 M06/M11 Q0996', 'EFMA 071420Z AUTO 35003KT 9999 FEW026 M06/M11 Q0996', 'EFMA 071350Z AUTO 01006KT 320V030 9999 SCT027 M06/M11 Q0995', 'EFMA 071320Z AUTO 36007KT 9999 FEW023 M05/M11 Q0995', 'EFMA 071250Z AUTO 01006KT 340V040 9999 -SHSN SCT024 M05/M10 Q0995', 'EFMA 071220Z AUTO 35007KT 9999 -SHSN BKN027 M05/M10 Q0995', 'EFMA 071150Z AUTO 33008KT 300V360 9999 OVC027 M05/M11 Q0995', 'EFMA 071120Z AUTO 35007KT 9999 -SHSN OVC030 M05/M10 Q0994', 'EFMA 071050Z AUTO 35008KT 320V030 9999 -SHSN BKN029 M05/M10 Q0994', 'EFMA 071020Z AUTO 36008KT 9999 -SN FEW016 SCT029 M06/M10 Q0994', 'EFMA 070950Z AUTO 36007KT 330V030 9999 -SN BKN013 M06/M09 Q0994', 'EFMA 070920Z 01008KT 330V030 6000 -SN BKN015 M06/M08 Q0993', 'EFMA 070850Z 35006KT 320V020 6000 -SN BKN023 M06/M08 Q0993', 'EFMA 070820Z 34007KT 5000 -SN BKN027 M06/M08 Q0993', 'EFMA 070750Z AUTO 34005KT 9999 -SN BKN018 M06/M08 Q0993', 'EFMA 070720Z AUTO 36004KT 330V030 4400 -SHSN OVC018 M06/M08 Q0993', 'EFMA 070650Z AUTO 36006KT 320V030 9999 -SHSN OVC021 M06/M10 Q0992', 'EFMA 070620Z AUTO 36008KT 330V030 9999 -SN OVC020 M06/M10 Q0992', 'EFMA 070550Z 02007KT 9999 -SN OVC020 M06/M10 Q0992', 'EFMA 070520Z 02010KT 9999 -SN OVC021 M06/M10 Q0992', 'EFMA 070450Z 02011KT 9999 -SN OVC021 M06/M10 Q0991', 'EFMA 070420Z AUTO 02011KT 9999 -SN OVC020 M06/M10 Q0991', 'EFMA 070350Z AUTO 03009KT 9999 BKN021 M05/M09 Q0991', 'EFMA 070320Z AUTO 02008KT 9999 -SHSN NCD M06/M09 Q0991', 'EFMA 070250Z AUTO 05007KT 9999 FEW037 M06/M10 Q0991', 'EFMA 070220Z AUTO 05009KT 9999 BKN035 M06/M09 Q0991', 'EFMA 070150Z AUTO 04009KT 9999 OVC034 M05/M09 Q0991', 'EFMA 070120Z AUTO 06006KT 360V100 9999 OVC036 M05/M09 Q0991', 'EFMA 070050Z AUTO 05009KT 9999 BKN035 M05/M08 Q0991', 'EFMA 070020Z AUTO 04008KT 9999 OVC034 M05/M08 Q0991', 'EFMA 062350Z AUTO 03008KT 9999 OVC033 M05/M08 Q0991', 'EFMA 062320Z AUTO 04007KT 9999 OVC032 M05/M09 Q0991', 'EFMA 062250Z AUTO 04009KT 9999 OVC030 M05/M09 Q0991', 'EFMA 062220Z AUTO 04008KT 9999 OVC030 M05/M09 Q0992', 'EFMA 062150Z AUTO 03009KT 9999 OVC029 M06/M09 Q0992', 'EFMA 062120Z AUTO 04010KT 9999 OVC028 M05/M09 Q0992', 'EFMA 062050Z AUTO 02010KT 9999 OVC025 M05/M09 Q0993', 'EFMA 062020Z AUTO 04007KT 9999 OVC025 M05/M10 Q0993', 'EFMA 061950Z AUTO 04008KT 9999 OVC026 M05/M10 Q0993', 'EFMA 061920Z 03009KT 9999 OVC026 M05/M10 Q0994', 'EFMA 061850Z AUTO 03009KT 9999 OVC025 M05/M10 Q0994', 'EFMA 061820Z AUTO 03010KT 9999 OVC022 M05/M10 Q0994', 'EFMA 061750Z AUTO 03009KT 9999 OVC024 M04/M09 Q0995', 'EFMA 061720Z AUTO 03007KT 9999 OVC023 M04/M09 Q0995', 'EFMA 061650Z AUTO 04007KT 9999 -SN OVC023 M04/M09 Q0996', 'EFMA 061620Z AUTO 06004KT 9999 OVC024 M04/M09 Q0996', 'EFMA 061550Z AUTO 10005KT 070V130 9999 OVC025 M04/M09 Q0996', 'EFMA 061520Z 07005KT 040V100 9999 OVC024 M04/M09 Q0997', 'EFMA 061450Z 07005KT 9999 OVC025 M04/M09 Q0997', 'EFMA 061420Z 03006KT 330V060 9999 OVC023 M04/M10 Q0997', 'EFMA 061350Z AUTO 03008KT 9999 OVC023 M04/M09 Q0997', 'EFMA 061320Z AUTO 04007KT 360V060 9999 OVC027 M04/M09 Q0998', 'EFMA 061250Z AUTO 03007KT 9999 OVC028 M03/M09 Q0998', 'EFMA 061220Z AUTO 35008KT 320V020 9999 OVC028 M03/M09 Q0998', 'EFMA 061150Z AUTO 01007KT 9999 -SHSN OVC027 M03/M09 Q0998', 'EFMA 061120Z AUTO 01009KT 9999 OVC028 M03/M09 Q0998', 'EFMA 061050Z AUTO 36008KT 9999 OVC028 M03/M09 Q0998', 'EFMA 061020Z AUTO 01008KT 9999 -SHSN OVC028 M03/M09 Q0999', 'EFMA 060950Z 35007KT 320V020 9999 -SN OVC020 M03/M08 Q0999', 'EFMA 060920Z 01008KT 9999 -SHSN OVC021 M03/M06 Q0999', 'EFMA 060850Z 34007KT 310V010 9999 -SHSN OVC027 M02/M06 Q0998', 'EFMA 060820Z AUTO 34005KT 310V020 9999 -SHSN OVC026 M02/M07 Q0998', 'EFMA 060750Z AUTO 33004KT 300V010 9999 -SHSN OVC021 M02/M06 Q0998', 'EFMA 060720Z AUTO 32005KT 9999 -SHSN OVC027 M02/M06 Q0998', 'EFMA 060650Z AUTO 33005KT 300V360 9999 -SHSN OVC027 M02/M06 Q0998', 'EFMA 060620Z AUTO 34006KT 9999 -SHSN OVC026 M02/M06 Q0998', 'EFMA 060550Z AUTO 32004KT 9999 -SHSN OVC029 M02/M07 Q0998', 'EFMA 060520Z AUTO 31005KT 9999 OVC030 M02/M06 Q0998', 'EFMA 060450Z AUTO 32004KT 290V350 9999 OVC031 M02/M06 Q0998', 'EFMA 060420Z AUTO 33005KT 290V360 9999 -SHSN OVC032 M02/M06 Q0998', 'EFMA 060350Z AUTO 34004KT 310V010 9999 OVC037 M02/M06 Q0998', 'EFMA 060320Z AUTO 32004KT 9999 OVC035 M02/M05 Q0998', 'EFMA 060250Z AUTO 33006KT 9999 OVC033 M02/M05 Q0998', 'EFMA 060220Z AUTO 32004KT 290V350 9999 -SHSN OVC021 M02/M05 Q0998', 'EFMA 060150Z AUTO 32005KT 290V350 9999 FEW019 OVC035 M02/M05 Q0998', 'EFMA 060120Z AUTO 31004KT 9999 OVC035 M02/M06 Q0998', 'EFMA 060050Z AUTO 31006KT 280V360 9999 OVC026 M02/M06 Q0997', 'EFMA 060020Z AUTO 32005KT 9999 BKN032 M02/M07 Q0997', 'EFMA 052350Z AUTO 32007KT 290V350 9999 BKN026 M02/M07 Q0997', 'EFMA 052320Z AUTO 33007KT 9999 OVC026 M02/M07 Q0997', 'EFMA 052250Z AUTO 33007KT 310V010 9999 OVC028 M02/M08 Q0997', 'EFMA 052220Z AUTO 34008KT 310V020 9999 OVC028 M02/M07 Q0997', 'EFMA 052150Z AUTO 35008KT 320V020 9999 BKN028 M02/M07 Q0997', 'EFMA 052120Z AUTO 34007KT 310V010 9999 OVC030 M02/M07 Q0997', 'EFMA 052050Z AUTO 35009KT 320V030 9999 OVC037 M02/M07 Q0996']","['2024-02-08 20:20:00', '2024-02-08 19:50:00', '2024-02-08 19:20:00', '2024-02-08 18:50:00', '2024-02-08 18:20:00', '2024-02-08 17:50:00', '2024-02-08 17:20:00', '2024-02-08 16:50:00', '2024-02-08 16:20:00', '2024-02-08 15:50:00', '2024-02-08 15:20:00', '2024-02-08 14:50:00', '2024-02-08 14:20:00', '2024-02-08 13:50:00', '2024-02-08 13:20:00', '2024-02-08 12:50:00', '2024-02-08 12:20:00', '2024-02-08 11:50:00', '2024-02-08 11:20:00', '2024-02-08 10:50:00', '2024-02-08 10:20:00', '2024-02-08 09:50:00', '2024-02-08 09:20:00', '2024-02-08 08:50:00', '2024-02-08 08:20:00', '2024-02-08 07:50:00', '2024-02-08 07:20:00', '2024-02-08 06:50:00', '2024-02-08 06:20:00', '2024-02-08 05:50:00', '2024-02-08 05:20:00', '2024-02-08 04:50:00', '2024-02-08 04:20:00', '2024-02-08 03:50:00', '2024-02-08 03:20:00', '2024-02-08 02:50:00', '2024-02-08 02:20:00', '2024-02-08 01:50:00', '2024-02-08 01:20:00', '2024-02-08 00:50:00', '2024-02-08 00:20:00', '2024-02-07 23:50:00', '2024-02-07 23:20:00', '2024-02-07 22:50:00', '2024-02-07 22:20:00', '2024-02-07 21:50:00', '2024-02-07 21:20:00', '2024-02-07 20:50:00', '2024-02-07 20:20:00', '2024-02-07 19:50:00', '2024-02-07 19:20:00', '2024-02-07 18:50:00', '2024-02-07 18:20:00', '2024-02-07 17:50:00', '2024-02-07 17:20:00', '2024-02-07 16:50:00', '2024-02-07 16:20:00', '2024-02-07 15:50:00', '2024-02-07 15:20:00', '2024-02-07 14:50:00', '2024-02-07 14:20:00', '2024-02-07 13:50:00', '2024-02-07 13:20:00', '2024-02-07 12:50:00', '2024-02-07 12:20:00', '2024-02-07 11:50:00', '2024-02-07 11:20:00', '2024-02-07 10:50:00', '2024-02-07 10:20:00', '2024-02-07 09:50:00', '2024-02-07 09:20:00', '2024-02-07 08:50:00', '2024-02-07 08:20:00', '2024-02-07 07:50:00', '2024-02-07 07:20:00', '2024-02-07 06:50:00', '2024-02-07 06:20:00', '2024-02-07 05:50:00', '2024-02-07 05:20:00', '2024-02-07 04:50:00', '2024-02-07 04:20:00', '2024-02-07 03:50:00', '2024-02-07 03:20:00', '2024-02-07 02:50:00', '2024-02-07 02:20:00', '2024-02-07 01:50:00', '2024-02-07 01:20:00', '2024-02-07 00:50:00', '2024-02-07 00:20:00', '2024-02-06 23:50:00', '2024-02-06 23:20:00', '2024-02-06 22:50:00', '2024-02-06 22:20:00', '2024-02-06 21:50:00', '2024-02-06 21:20:00', '2024-02-06 20:50:00', '2024-02-06 20:20:00', '2024-02-06 19:50:00', '2024-02-06 19:20:00', '2024-02-06 18:50:00', '2024-02-06 18:20:00', '2024-02-06 17:50:00', '2024-02-06 17:20:00', '2024-02-06 16:50:00', '2024-02-06 16:20:00', '2024-02-06 15:50:00', '2024-02-06 15:20:00', '2024-02-06 14:50:00', '2024-02-06 14:20:00', '2024-02-06 13:50:00', '2024-02-06 13:20:00', '2024-02-06 12:50:00', '2024-02-06 12:20:00', '2024-02-06 11:50:00', '2024-02-06 11:20:00', '2024-02-06 10:50:00', '2024-02-06 10:20:00', '2024-02-06 09:50:00', '2024-02-06 09:20:00', '2024-02-06 08:50:00', '2024-02-06 08:20:00', '2024-02-06 07:50:00', '2024-02-06 07:20:00', '2024-02-06 06:50:00', '2024-02-06 06:20:00', '2024-02-06 05:50:00', '2024-02-06 05:20:00', '2024-02-06 04:50:00', '2024-02-06 04:20:00', '2024-02-06 03:50:00', '2024-02-06 03:20:00', '2024-02-06 02:50:00', '2024-02-06 02:20:00', '2024-02-06 01:50:00', '2024-02-06 01:20:00', '2024-02-06 00:50:00', '2024-02-06 00:20:00', '2024-02-05 23:50:00', '2024-02-05 23:20:00', '2024-02-05 22:50:00', '2024-02-05 22:20:00', '2024-02-05 21:50:00', '2024-02-05 21:20:00', '2024-02-05 20:50:00']"
Finland, Mikkeli Airport (MIK/EFMI) ,"['EFMI 082020Z AUTO VRB01KT CAVOK M28/M30 Q1007', 'EFMI 081950Z AUTO 27002KT CAVOK M27/M30 Q1007', 'EFMI 081920Z AUTO 27001KT CAVOK M27/M29 Q1007', 'EFMI 081850Z AUTO 29003KT CAVOK M26/M29 Q1006', 'EFMI 081820Z AUTO 29003KT 9999 -SHSN NCD M26/M29 Q1006', 'EFMI 081750Z AUTO VRB01KT CAVOK M26/M29 Q1006', 'EFMI 081720Z AUTO 27002KT 9999 -SN NCD M25/M27 Q1006', 'EFMI 081650Z AUTO VRB01KT CAVOK M25/M27 Q1005', 'EFMI 081620Z AUTO 00000KT CAVOK M23/M26 Q1005', 'EFMI 081550Z AUTO 27002KT CAVOK M23/M25 Q1005', 'EFMI 081520Z AUTO 02001KT CAVOK M22/M24 Q1005', 'EFMI 081450Z AUTO 03001KT CAVOK M20/M22 Q1005', 'EFMI 081420Z AUTO 05003KT 020V080 CAVOK M17/M20 Q1005', 'EFMI 081350Z AUTO 04003KT CAVOK M17/M20 Q1004', 'EFMI 081320Z AUTO 06003KT 350V100 CAVOK M17/M20 Q1004', 'EFMI 081250Z AUTO 10003KT CAVOK M18/M21 Q1004', 'EFMI 081220Z AUTO VRB02KT CAVOK M17/M20 Q1004', 'EFMI 081150Z AUTO VRB01KT CAVOK M18/M21 Q1004', 'EFMI 081120Z AUTO 11003KT CAVOK M18/M21 Q1004', 'EFMI 081050Z AUTO 11003KT CAVOK M19/M22 Q1003', 'EFMI 081020Z AUTO 13002KT CAVOK M20/M22 Q1003', 'EFMI 080950Z AUTO 13002KT CAVOK M21/M23 Q1003', 'EFMI 080920Z AUTO 13002KT 9999 -SHSN NCD M20/M23 Q1003', 'EFMI 080850Z AUTO VRB01KT CAVOK M23/M26 Q1003', 'EFMI 080820Z AUTO VRB02KT 9999 -SHSN NCD M27/M30 Q1003', 'EFMI 080750Z AUTO 28001KT 9999 -SHSN NCD M28/M31 Q1002', 'EFMI 080720Z AUTO 27002KT 9999 -SN NCD M29/M32 Q1002', 'EFMI 080650Z AUTO 29002KT 9999 -SN NCD M30/M32 Q1002', 'EFMI 080620Z AUTO 28003KT CAVOK M29/M32 Q1002', 'EFMI 080550Z AUTO VRB01KT CAVOK M29/M32 Q1001', 'EFMI 080520Z AUTO 27002KT CAVOK M29/M32 Q1001', 'EFMI 080450Z AUTO VRB01KT CAVOK M29/M32 Q1001', 'EFMI 080420Z AUTO 27001KT CAVOK M29/M32 Q1001', 'EFMI 080350Z AUTO VRB01KT CAVOK M29/M32 Q1000', 'EFMI 080320Z AUTO 29001KT CAVOK M28/M31 Q1000', 'EFMI 080250Z AUTO VRB01KT CAVOK M28/M31 Q1000', 'EFMI 080220Z AUTO 26002KT CAVOK M28/M31 Q1000', 'EFMI 080150Z AUTO VRB02KT CAVOK M28/M30 Q1000', 'EFMI 080120Z AUTO 26001KT CAVOK M27/M30 Q0999', 'EFMI 080050Z AUTO 25001KT CAVOK M27/M30 Q0999', 'EFMI 080020Z AUTO 29002KT 9999 -SHSN NCD M26/M29 Q0999', 'EFMI 072350Z AUTO 26002KT 9999 -SN NCD M26/M29 Q0999', 'EFMI 072320Z AUTO VRB01KT CAVOK M26/M29 Q0999', 'EFMI 072250Z AUTO VRB01KT CAVOK M26/M28 Q0998', 'EFMI 072220Z AUTO VRB01KT CAVOK M25/M28 Q0998', 'EFMI 072150Z AUTO VRB01KT CAVOK M24/M26 Q0998', 'EFMI 072120Z AUTO VRB02KT 9999 -SN NCD M23/M26 Q0998', 'EFMI 072050Z AUTO VRB01KT CAVOK M23/M25 Q0997', 'EFMI 072020Z AUTO VRB01KT CAVOK M22/M24 Q0997', 'EFMI 071950Z AUTO VRB02KT CAVOK M20/M22 Q0997', 'EFMI 071920Z AUTO VRB02KT 9999 -SHSN NCD M20/M22 Q0997', 'EFMI 071850Z AUTO VRB02KT CAVOK M20/M22 Q0996', 'EFMI 071820Z AUTO 05003KT 360V120 9999 FEW042 M19/M21 Q0996', 'EFMI 071750Z AUTO 05004KT 010V100 9999 -SHSN BKN042 M18/M21 Q0996', 'EFMI 071720Z AUTO 06004KT 020V090 9999 -SHSN BKN042 M18/M20 Q0996', 'EFMI 071650Z AUTO 05003KT 360V120 9999 -SHSN OVC043 M18/M20 Q0996', 'EFMI 071620Z AUTO 05003KT 340V120 9999 -SHSN BKN044 M18/M20 Q0996', 'EFMI 071550Z AUTO 04005KT 360V100 9999 -SN OVC044 M18/M20 Q0996', 'EFMI 071520Z AUTO 05005KT 360V100 9999 -SN OVC044 M17/M20 Q0996', 'EFMI 071450Z AUTO 05005KT 020V080 9999 -SN OVC044 M17/M19 Q0995', 'EFMI 071420Z AUTO 06004KT 010V110 9000 -SN OVC026 M16/M19 Q0995', 'EFMI 071350Z AUTO 04005KT 010V090 5000 -SN FEW025 OVC043 M16/M19 Q0995', 'EFMI 071320Z AUTO 05004KT 020V090 5000 -SN OVC042 M16/M18 Q0994', 'EFMI 071250Z AUTO 06003KT 010V100 9999 -SN OVC042 M15/M18 Q0994', 'EFMI 071220Z AUTO 02005KT 340V070 9999 -SHSN OVC042 M15/M18 Q0994', 'EFMI 071150Z AUTO 04004KT 010V090 9999 -SHSN OVC043 M15/M18 Q0994', 'EFMI 071120Z AUTO 07003KT 030V100 9999 -SHSN BKN042 M15/M18 Q0994', 'EFMI 071050Z AUTO 04004KT 360V070 9999 -SHSN SCT040 M16/M18 Q0994', 'EFMI 071020Z AUTO 04005KT 360V090 9999 -SN BKN038 M16/M18 Q0994', 'EFMI 070950Z AUTO 03005KT 360V070 9999 -SN OVC036 M16/M18 Q0994', 'EFMI 070920Z AUTO 05005KT 020V080 9999 -SN OVC034 M16/M19 Q0994', 'EFMI 070850Z AUTO 04004KT 360V080 7000 -SN OVC029 M16/M18 Q0994', 'EFMI 070820Z AUTO 04004KT 010V080 7000 -SN OVC014 M16/M18 Q0993', 'EFMI 070750Z AUTO 04004KT 010V080 5000 -SN OVC020 M16/M18 Q0993', 'EFMI 070720Z AUTO 06005KT 030V100 3200 -SN OVC019 M16/M18 Q0993', 'EFMI 070650Z AUTO 06003KT 020V100 3800 -SN OVC017 M15/M18 Q0993', 'EFMI 070620Z AUTO 05003KT 020V090 6000 -SN OVC016 M16/M18 Q0993', 'EFMI 070550Z AUTO 04005KT 010V080 8000 -SN OVC016 M16/M18 Q0993', 'EFMI 070520Z AUTO 06004KT 020V100 9999 -SN OVC016 M16/M18 Q0993', 'EFMI 070450Z AUTO 05004KT 020V090 9999 -SN OVC016 M16/M18 Q0993', 'EFMI 070420Z AUTO 05003KT 010V080 9999 -SN OVC017 M16/M18 Q0994', 'EFMI 070350Z AUTO VRB02KT 9999 -SN OVC018 M16/M18 Q0994', 'EFMI 070320Z AUTO 04003KT 020V080 9999 -SN OVC020 M16/M18 Q0994', 'EFMI 070250Z AUTO VRB02KT 9000 -SN OVC021 M17/M19 Q0994', 'EFMI 070220Z AUTO VRB01KT 9999 -SN OVC019 M18/M20 Q0994', 'EFMI 070150Z AUTO VRB01KT 9999 -SN OVC018 M18/M20 Q0994', 'EFMI 070120Z AUTO VRB01KT 9999 -SN OVC016 M19/M21 Q0994', 'EFMI 070050Z AUTO 00000KT 9999 -SN OVC016 M20/M22 Q0995', 'EFMI 070020Z AUTO 24001KT 9999 -SN BKN012 M21/M23 Q0995', 'EFMI 062350Z AUTO VRB01KT 9999 -SN OVC009 M21/M23 Q0995', 'EFMI 062320Z AUTO VRB01KT 9999 -SN OVC007 M22/M24 Q0996', 'EFMI 062250Z AUTO VRB01KT 9999 -SHSN OVC008 M23/M25 Q0996', 'EFMI 062220Z AUTO VRB01KT 7000 -SHSN SCT008 M25/M28 Q0996', 'EFMI 062150Z AUTO 28002KT 9999 -SHSN NCD M25/M27 Q0996', 'EFMI 062120Z AUTO VRB01KT CAVOK M25/M27 Q0996', 'EFMI 062050Z AUTO VRB01KT 9999 -SHSN NCD M24/M26 Q0997', 'EFMI 062020Z AUTO 00000KT 9999 -SHSN NCD M24/M26 Q0997', 'EFMI 061950Z AUTO VRB01KT 9999 -SHSN NCD M23/M25 Q0997', 'EFMI 061920Z AUTO VRB01KT CAVOK M23/M25 Q0997', 'EFMI 061850Z AUTO 29001KT 9999 -SHSN NCD M22/M24 Q0997', 'EFMI 061820Z AUTO VRB01KT 5000 -SHSN FEW002 M21/M23 Q0997', 'EFMI 061750Z AUTO VRB01KT 9999 -SHSN NCD M21/M23 Q0997', 'EFMI 061720Z AUTO VRB01KT 9999 -SHSN NCD M20/M23 Q0997', 'EFMI 061650Z AUTO VRB01KT CAVOK M20/M22 Q0997', 'EFMI 061620Z AUTO 27001KT 9999 -SHSN NCD M19/M22 Q0997', 'EFMI 061550Z AUTO VRB01KT CAVOK M18/M19 Q0998', 'EFMI 061520Z AUTO VRB01KT CAVOK M17/M18 Q0998', 'EFMI 061450Z AUTO VRB02KT 9999 -SHSN FEW017 M15/M17 Q0998', 'EFMI 061420Z AUTO 05002KT 9999 -SHSN FEW010 M15/M17 Q0998', 'EFMI 061350Z AUTO VRB01KT 9999 -SHSN BKN010 M13/M16 Q0998', 'EFMI 061320Z AUTO VRB02KT 9999 FEW010 M12/M16 Q0998', 'EFMI 061250Z AUTO 03003KT 340V090 9999 -SHSN BKN015 M12/M16 Q0998', 'EFMI 061220Z AUTO VRB02KT 9999 -SHSN SCT014 M12/M16 Q0998', 'EFMI 061150Z AUTO VRB02KT 9999 -SHSN BKN014 M12/M16 Q0997', 'EFMI 061120Z AUTO VRB02KT 9999 -SHSN FEW012 M12/M16 Q0997', 'EFMI 061050Z AUTO 05005KT 010V110 9999 -SHSN NCD M12/M16 Q0997', 'EFMI 061020Z AUTO 09004KT 040V110 9999 FEW013 M12/M16 Q0997', 'EFMI 060950Z AUTO 04004KT 360V090 CAVOK M12/M16 Q0997', 'EFMI 060920Z AUTO 07004KT 020V110 9999 -SHSN FEW011 M13/M16 Q0997', 'EFMI 060850Z AUTO 05005KT 360V100 9999 -SHSN NSC M13/M16 Q0997', 'EFMI 060820Z AUTO 03003KT 330V060 9999 -SHSN NSC M13/M16 Q0997', 'EFMI 060750Z AUTO 03003KT 340V070 CAVOK M13/M16 Q0997', 'EFMI 060720Z AUTO VRB02KT 2300 -SHSN NCD M14/M16 Q0996', 'EFMI 060650Z AUTO VRB02KT 9999 -SHSN NCD M14/M16 Q0996', 'EFMI 060620Z AUTO VRB01KT 9999 -SHSN NCD M14/M16 Q0996', 'EFMI 060550Z AUTO VRB02KT 9999 -SHSN NCD M13/M15 Q0996', 'EFMI 060520Z AUTO 03004KT 360V060 9999 -SN BKN009 M12/M14 Q0996', 'EFMI 060450Z AUTO 03006KT 330V070 9999 -SN BKN009 M12/M14 Q0996', 'EFMI 060420Z AUTO 03007KT 350V060 9999 -SHSN BKN011 M11/M14 Q0995', 'EFMI 060350Z AUTO 03005KT 330V070 9999 -SHSN FEW010 M11/M13 Q0995', 'EFMI 060320Z AUTO 04006KT 010V070 9999 -SHSN BKN010 M10/M13 Q0995', 'EFMI 060250Z AUTO VRB03KT 9999 -SHSN OVC010 M10/M12 Q0994', 'EFMI 060220Z AUTO 01003KT 320V080 9999 -SHSN OVC010 M10/M12 Q0994', 'EFMI 060150Z AUTO VRB03KT 9999 OVC010 M09/M12 Q0994', 'EFMI 060120Z AUTO 02004KT 310V090 9999 OVC010 M09/M12 Q0994', 'EFMI 060050Z AUTO VRB02KT 9999 OVC011 M10/M11 Q0994', 'EFMI 060020Z AUTO 36003KT 310V060 9999 BKN011 M10/M12 Q0993', 'EFMI 052350Z AUTO VRB02KT CAVOK M10/M12 Q0993', 'EFMI 052320Z AUTO 36003KT 270V080 9999 -SHSN NSC M10/M12 Q0993', 'EFMI 052250Z AUTO 36004KT 300V050 9999 -SHSN FEW044 M10/M12 Q0993', 'EFMI 052220Z AUTO VRB04KT 9999 -SN FEW011 M09/M11 Q0992', 'EFMI 052150Z AUTO 01003KT 290V060 9999 -SN BKN023 M09/M11 Q0992', 'EFMI 052120Z AUTO VRB03KT 9999 -SHSN OVC024 M09/M11 Q0992', 'EFMI 052050Z AUTO 36003KT 300V070 9999 -SHSN FEW013 BKN034 M09/M11 Q0991']","['2024-02-08 20:20:00', '2024-02-08 19:50:00', '2024-02-08 19:20:00', '2024-02-08 18:50:00', '2024-02-08 18:20:00', '2024-02-08 17:50:00', '2024-02-08 17:20:00', '2024-02-08 16:50:00', '2024-02-08 16:20:00', '2024-02-08 15:50:00', '2024-02-08 15:20:00', '2024-02-08 14:50:00', '2024-02-08 14:20:00', '2024-02-08 13:50:00', '2024-02-08 13:20:00', '2024-02-08 12:50:00', '2024-02-08 12:20:00', '2024-02-08 11:50:00', '2024-02-08 11:20:00', '2024-02-08 10:50:00', '2024-02-08 10:20:00', '2024-02-08 09:50:00', '2024-02-08 09:20:00', '2024-02-08 08:50:00', '2024-02-08 08:20:00', '2024-02-08 07:50:00', '2024-02-08 07:20:00', '2024-02-08 06:50:00', '2024-02-08 06:20:00', '2024-02-08 05:50:00', '2024-02-08 05:20:00', '2024-02-08 04:50:00', '2024-02-08 04:20:00', '2024-02-08 03:50:00', '2024-02-08 03:20:00', '2024-02-08 02:50:00', '2024-02-08 02:20:00', '2024-02-08 01:50:00', '2024-02-08 01:20:00', '2024-02-08 00:50:00', '2024-02-08 00:20:00', '2024-02-07 23:50:00', '2024-02-07 23:20:00', '2024-02-07 22:50:00', '2024-02-07 22:20:00', '2024-02-07 21:50:00', '2024-02-07 21:20:00', '2024-02-07 20:50:00', '2024-02-07 20:20:00', '2024-02-07 19:50:00', '2024-02-07 19:20:00', '2024-02-07 18:50:00', '2024-02-07 18:20:00', '2024-02-07 17:50:00', '2024-02-07 17:20:00', '2024-02-07 16:50:00', '2024-02-07 16:20:00', '2024-02-07 15:50:00', '2024-02-07 15:20:00', '2024-02-07 14:50:00', '2024-02-07 14:20:00', '2024-02-07 13:50:00', '2024-02-07 13:20:00', '2024-02-07 12:50:00', '2024-02-07 12:20:00', '2024-02-07 11:50:00', '2024-02-07 11:20:00', '2024-02-07 10:50:00', '2024-02-07 10:20:00', '2024-02-07 09:50:00', '2024-02-07 09:20:00', '2024-02-07 08:50:00', '2024-02-07 08:20:00', '2024-02-07 07:50:00', '2024-02-07 07:20:00', '2024-02-07 06:50:00', '2024-02-07 06:20:00', '2024-02-07 05:50:00', '2024-02-07 05:20:00', '2024-02-07 04:50:00', '2024-02-07 04:20:00', '2024-02-07 03:50:00', '2024-02-07 03:20:00', '2024-02-07 02:50:00', '2024-02-07 02:20:00', '2024-02-07 01:50:00', '2024-02-07 01:20:00', '2024-02-07 00:50:00', '2024-02-07 00:20:00', '2024-02-06 23:50:00', '2024-02-06 23:20:00', '2024-02-06 22:50:00', '2024-02-06 22:20:00', '2024-02-06 21:50:00', '2024-02-06 21:20:00', '2024-02-06 20:50:00', '2024-02-06 20:20:00', '2024-02-06 19:50:00', '2024-02-06 19:20:00', '2024-02-06 18:50:00', '2024-02-06 18:20:00', '2024-02-06 17:50:00', '2024-02-06 17:20:00', '2024-02-06 16:50:00', '2024-02-06 16:20:00', '2024-02-06 15:50:00', '2024-02-06 15:20:00', '2024-02-06 14:50:00', '2024-02-06 14:20:00', '2024-02-06 13:50:00', '2024-02-06 13:20:00', '2024-02-06 12:50:00', '2024-02-06 12:20:00', '2024-02-06 11:50:00', '2024-02-06 11:20:00', '2024-02-06 10:50:00', '2024-02-06 10:20:00', '2024-02-06 09:50:00', '2024-02-06 09:20:00', '2024-02-06 08:50:00', '2024-02-06 08:20:00', '2024-02-06 07:50:00', '2024-02-06 07:20:00', '2024-02-06 06:50:00', '2024-02-06 06:20:00', '2024-02-06 05:50:00', '2024-02-06 05:20:00', '2024-02-06 04:50:00', '2024-02-06 04:20:00', '2024-02-06 03:50:00', '2024-02-06 03:20:00', '2024-02-06 02:50:00', '2024-02-06 02:20:00', '2024-02-06 01:50:00', '2024-02-06 01:20:00', '2024-02-06 00:50:00', '2024-02-06 00:20:00', '2024-02-05 23:50:00', '2024-02-05 23:20:00', '2024-02-05 22:50:00', '2024-02-05 22:20:00', '2024-02-05 21:50:00', '2024-02-05 21:20:00', '2024-02-05 20:50:00']"
Finland, Oulu Airport (OUL/EFOU) ,"['EFOU 082020Z AUTO 14004KT CAVOK M22/M25 Q1008', 'EFOU 081950Z AUTO 15007KT CAVOK M21/M24 Q1008', 'EFOU 081920Z AUTO 15007KT CAVOK M21/M23 Q1007', 'EFOU 081850Z AUTO 15007KT CAVOK M20/M22 Q1007', 'EFOU 081820Z AUTO 15008KT CAVOK M21/M23 Q1007', 'EFOU 081750Z AUTO 15007KT CAVOK M20/M22 Q1007', 'EFOU 081720Z AUTO 15006KT CAVOK M20/M22 Q1007', 'EFOU 081650Z AUTO 15006KT CAVOK M20/M22 Q1007', 'EFOU 081620Z AUTO 14007KT CAVOK M19/M22 Q1006', 'EFOU 081550Z AUTO 15007KT CAVOK M20/M22 Q1006', 'EFOU 081520Z AUTO 15007KT CAVOK M19/M21 Q1006', 'EFOU 081450Z AUTO 15007KT CAVOK M19/M21 Q1006', 'EFOU 081420Z AUTO 15007KT CAVOK M19/M21 Q1006', 'EFOU 081350Z AUTO 14007KT CAVOK M19/M21 Q1006', 'EFOU 081320Z AUTO 14008KT CAVOK M19/M21 Q1006', 'EFOU 081250Z AUTO 14008KT CAVOK M19/M21 Q1005', 'EFOU 081220Z AUTO 14007KT CAVOK M19/M22 Q1005', 'EFOU 081150Z AUTO 14007KT CAVOK M20/M23 Q1005', 'EFOU 081120Z AUTO 14007KT CAVOK M21/M23 Q1005', 'EFOU 081050Z AUTO 15007KT CAVOK M22/M24 Q1005', 'EFOU 081020Z AUTO 14006KT CAVOK M22/M25 Q1005', 'EFOU 080950Z AUTO 14008KT CAVOK M23/M25 Q1004', 'EFOU 080920Z AUTO 15006KT CAVOK M23/M26 Q1004', 'EFOU 080850Z AUTO 15007KT CAVOK M23/M26 Q1004', 'EFOU 080820Z AUTO 15005KT CAVOK M23/M26 Q1004', 'EFOU 080750Z AUTO 14007KT CAVOK M24/M26 Q1004', 'EFOU 080720Z AUTO 14007KT CAVOK M24/M27 Q1003', 'EFOU 080650Z AUTO 15006KT CAVOK M24/M27 Q1003', 'EFOU 080620Z AUTO 15008KT 9999 -SHSN NSC M24/M26 Q1003', 'EFOU 080550Z AUTO 15007KT CAVOK M24/M26 Q1003', 'EFOU 080520Z AUTO 15008KT CAVOK M24/M27 Q1002', 'EFOU 080450Z AUTO 15009KT CAVOK M24/M27 Q1002', 'EFOU 080420Z AUTO 14010KT CAVOK M24/M27 Q1002', 'EFOU 080350Z AUTO 14009KT CAVOK M24/M27 Q1002', 'EFOU 080320Z AUTO 14008KT 9999 -SHSN NSC M24/M27 Q1002', 'EFOU 080250Z AUTO 15007KT 9999 -SHSN NSC M23/M26 Q1002', 'EFOU 080220Z AUTO 15008KT 9999 -SHSN NSC M24/M26 Q1001', 'EFOU 080150Z AUTO 14008KT 9999 -SHSN NSC M24/M27 Q1001', 'EFOU 080120Z AUTO 14007KT CAVOK M24/M27 Q1001', 'EFOU 080050Z AUTO 14008KT 9999 -SHSN NCD M24/M26 Q1001', 'EFOU 080020Z AUTO 14007KT CAVOK M24/M26 Q1001', 'EFOU 072350Z AUTO 14007KT CAVOK M24/M26 Q1001', 'EFOU 072320Z AUTO 14007KT CAVOK M24/M26 Q1000', 'EFOU 072250Z AUTO 15008KT CAVOK M23/M26 Q1000', 'EFOU 072220Z AUTO 15008KT 9999 -SHSN NSC M23/M25 Q1000', 'EFOU 072150Z AUTO 15008KT CAVOK M22/M25 Q1000', 'EFOU 072120Z AUTO 15007KT CAVOK M22/M25 Q1000', 'EFOU 072050Z AUTO 15008KT CAVOK M22/M25 Q1000', 'EFOU 072020Z AUTO 15008KT CAVOK M22/M25 Q1000', 'EFOU 071950Z AUTO 14008KT CAVOK M22/M24 Q0999', 'EFOU 071920Z AUTO 14008KT CAVOK M22/M24 Q0999', 'EFOU 071850Z AUTO 14007KT CAVOK M22/M24 Q0999', 'EFOU 071820Z AUTO 14007KT CAVOK M22/M24 Q0999', 'EFOU 071750Z AUTO 14007KT CAVOK M21/M23 Q0999', 'EFOU 071720Z AUTO 14007KT CAVOK M21/M23 Q0999', 'EFOU 071650Z AUTO 15006KT CAVOK M20/M22 Q0999', 'EFOU 071620Z AUTO 15006KT CAVOK M20/M22 Q0998', 'EFOU 071550Z AUTO 13005KT CAVOK M20/M22 Q0998', 'EFOU 071520Z AUTO 14006KT CAVOK M19/M21 Q0998', 'EFOU 071450Z AUTO 14007KT CAVOK M19/M21 Q0998', 'EFOU 071420Z AUTO 13007KT 9999 0800 R12/P2000N NCD M18/M20 Q0998', 'EFOU 071350Z AUTO 12007KT CAVOK M18/M20 Q0998', 'EFOU 071320Z AUTO 13007KT CAVOK M18/M20 Q0998', 'EFOU 071250Z AUTO 13007KT CAVOK M18/M20 Q0998', 'EFOU 071220Z AUTO 14007KT CAVOK M18/M20 Q0997', 'EFOU 071150Z AUTO 14007KT CAVOK M18/M20 Q0997', 'EFOU 071120Z AUTO 15006KT CAVOK M18/M20 Q0997', 'EFOU 071050Z AUTO 14006KT CAVOK M19/M21 Q0997', 'EFOU 071020Z AUTO 14007KT CAVOK M19/M21 Q0997', 'EFOU 070950Z AUTO 14008KT 9999 -SN NCD M19/M21 Q0997', 'EFOU 070920Z AUTO 13009KT 9999 -SN FEW014 M19/M21 Q0997', 'EFOU 070850Z AUTO 14009KT 9999 -SN FEW016 M19/M21 Q0997', 'EFOU 070820Z AUTO 15006KT 8000 -SN BKN014 M19/M21 Q0997', 'EFOU 070750Z AUTO 15007KT 6000 -SN OVC016 M19/M22 Q0997', 'EFOU 070720Z AUTO 15008KT 6000 -SN OVC015 M20/M22 Q0996', 'EFOU 070650Z AUTO 15008KT 9999 -SN OVC014 M20/M23 Q0996', 'EFOU 070620Z AUTO 15007KT 9999 -SN OVC014 M21/M24 Q0996', 'EFOU 070550Z AUTO 13005KT 9999 -SN OVC014 M22/M25 Q0996', 'EFOU 070520Z AUTO 13006KT 9999 -SN OVC016 M23/M25 Q0996', 'EFOU 070450Z AUTO 14007KT 9999 -SHSN OVC014 M23/M26 Q0996', 'EFOU 070420Z AUTO 14006KT 9999 -SHSN BKN013 M24/M26 Q0996', 'EFOU 070350Z AUTO 14006KT 9999 FEW013 M24/M27 Q0996', 'EFOU 070320Z AUTO 13005KT 9999 SCT004 M24/M26 Q0996', 'EFOU 070250Z AUTO 14005KT 9999 OVC004 M24/M26 Q0996', 'EFOU 070220Z AUTO 13006KT 9999 SCT003 M24/M26 Q0996', 'EFOU 070150Z AUTO 14006KT 9999 FEW003 M23/M26 Q0996', 'EFOU 070120Z AUTO 14006KT CAVOK M24/M26 Q0996', 'EFOU 070050Z AUTO 14006KT 9999 SCT003 M23/M26 Q0996', 'EFOU 070020Z AUTO 14006KT CAVOK M24/M26 Q0996', 'EFOU 062350Z AUTO 14007KT CAVOK M23/M26 Q0997', 'EFOU 062320Z AUTO 13006KT CAVOK M23/M25 Q0997', 'EFOU 062250Z AUTO 14005KT CAVOK M23/M25 Q0997', 'EFOU 062220Z AUTO 14006KT CAVOK M22/M25 Q0997', 'EFOU 062150Z AUTO 14006KT CAVOK M22/M24 Q0997', 'EFOU 062120Z AUTO 15005KT CAVOK M22/M24 Q0997', 'EFOU 062050Z AUTO 13004KT CAVOK M22/M24 Q0997', 'EFOU 062020Z AUTO 14005KT CAVOK M22/M24 Q0997', 'EFOU 061950Z AUTO 14005KT CAVOK M21/M23 Q0997', 'EFOU 061920Z AUTO 15004KT CAVOK M21/M23 Q0997', 'EFOU 061850Z AUTO 14005KT 9999 -SHSN NCD M20/M22 Q0997', 'EFOU 061820Z AUTO 14003KT CAVOK M20/M22 Q0998', 'EFOU 061750Z AUTO 14002KT CAVOK M20/M22 Q0998', 'EFOU 061720Z AUTO 15005KT CAVOK M20/M21 Q0998', 'EFOU 061650Z AUTO 14004KT CAVOK M19/M21 Q0998', 'EFOU 061620Z AUTO VRB02KT CAVOK M19/M21 Q0998', 'EFOU 061550Z AUTO 13003KT CAVOK M19/M21 Q0998', 'EFOU 061520Z AUTO VRB01KT CAVOK M19/M21 Q0999', 'EFOU 061450Z AUTO 18002KT CAVOK M19/M21 Q0999', 'EFOU 061420Z AUTO 15002KT CAVOK M17/M19 Q0999', 'EFOU 061350Z AUTO 15003KT CAVOK M17/M19 Q0999', 'EFOU 061320Z AUTO 13003KT CAVOK M17/M19 Q0999', 'EFOU 061250Z AUTO 13004KT CAVOK M17/M20 Q0999', 'EFOU 061220Z AUTO 12005KT CAVOK M16/M19 Q0999', 'EFOU 061150Z AUTO 12003KT CAVOK M16/M19 Q0999', 'EFOU 061120Z AUTO 14004KT CAVOK M16/M19 Q0999', 'EFOU 061050Z AUTO 12004KT CAVOK M16/M19 Q1000', 'EFOU 061020Z AUTO 11003KT CAVOK M16/M19 Q1000', 'EFOU 060950Z AUTO 12003KT CAVOK M16/M19 Q1000', 'EFOU 060920Z AUTO VRB02KT CAVOK M16/M19 Q1000', 'EFOU 060850Z AUTO VRB01KT CAVOK M16/M19 Q1000', 'EFOU 060820Z AUTO VRB02KT CAVOK M17/M19 Q1000', 'EFOU 060750Z AUTO VRB02KT 2200 -SN NCD M18/M20 Q1000', 'EFOU 060720Z AUTO VRB01KT 9999 3000 -SN NCD M17/M19 Q1000', 'EFOU 060650Z AUTO 08003KT CAVOK M16/M18 Q1000', 'EFOU 060620Z AUTO 06004KT CAVOK M16/M18 Q1000', 'EFOU 060550Z AUTO 09002KT CAVOK M15/M17 Q1000', 'EFOU 060520Z AUTO 08004KT CAVOK M15/M17 Q0999', 'EFOU 060450Z AUTO 09003KT CAVOK M14/M17 Q0999', 'EFOU 060420Z AUTO 07004KT 040V100 CAVOK M14/M16 Q0999', 'EFOU 060350Z AUTO 08004KT CAVOK M13/M16 Q0999', 'EFOU 060320Z AUTO 07005KT 9999 -SHSN //////CB M13/M16 Q0999', 'EFOU 060250Z AUTO 05004KT 9999 -SHSN FEW027 M13/M16 Q0999', 'EFOU 060220Z AUTO 06003KT CAVOK M13/M16 Q0999', 'EFOU 060150Z AUTO 08004KT CAVOK M13/M16 Q0999', 'EFOU 060120Z AUTO 06004KT CAVOK M13/M16 Q0999', 'EFOU 060050Z AUTO 05004KT 020V080 CAVOK M14/M16 Q0999', 'EFOU 060020Z AUTO 06004KT CAVOK M14/M16 Q0999', 'EFOU 052350Z AUTO 05004KT 010V080 CAVOK M14/M16 Q0999', 'EFOU 052320Z AUTO 06005KT CAVOK M13/M15 Q0998', 'EFOU 052250Z AUTO 05005KT CAVOK M13/M15 Q0998', 'EFOU 052220Z AUTO 05006KT CAVOK M12/M15 Q0998', 'EFOU 052150Z AUTO 05006KT CAVOK M12/M14 Q0998', 'EFOU 052120Z AUTO 04006KT CAVOK M11/M13 Q0997', 'EFOU 052050Z AUTO 04006KT CAVOK M11/M13 Q0997']","['2024-02-08 20:20:00', '2024-02-08 19:50:00', '2024-02-08 19:20:00', '2024-02-08 18:50:00', '2024-02-08 18:20:00', '2024-02-08 17:50:00', '2024-02-08 17:20:00', '2024-02-08 16:50:00', '2024-02-08 16:20:00', '2024-02-08 15:50:00', '2024-02-08 15:20:00', '2024-02-08 14:50:00', '2024-02-08 14:20:00', '2024-02-08 13:50:00', '2024-02-08 13:20:00', '2024-02-08 12:50:00', '2024-02-08 12:20:00', '2024-02-08 11:50:00', '2024-02-08 11:20:00', '2024-02-08 10:50:00', '2024-02-08 10:20:00', '2024-02-08 09:50:00', '2024-02-08 09:20:00', '2024-02-08 08:50:00', '2024-02-08 08:20:00', '2024-02-08 07:50:00', '2024-02-08 07:20:00', '2024-02-08 06:50:00', '2024-02-08 06:20:00', '2024-02-08 05:50:00', '2024-02-08 05:20:00', '2024-02-08 04:50:00', '2024-02-08 04:20:00', '2024-02-08 03:50:00', '2024-02-08 03:20:00', '2024-02-08 02:50:00', '2024-02-08 02:20:00', '2024-02-08 01:50:00', '2024-02-08 01:20:00', '2024-02-08 00:50:00', '2024-02-08 00:20:00', '2024-02-07 23:50:00', '2024-02-07 23:20:00', '2024-02-07 22:50:00', '2024-02-07 22:20:00', '2024-02-07 21:50:00', '2024-02-07 21:20:00', '2024-02-07 20:50:00', '2024-02-07 20:20:00', '2024-02-07 19:50:00', '2024-02-07 19:20:00', '2024-02-07 18:50:00', '2024-02-07 18:20:00', '2024-02-07 17:50:00', '2024-02-07 17:20:00', '2024-02-07 16:50:00', '2024-02-07 16:20:00', '2024-02-07 15:50:00', '2024-02-07 15:20:00', '2024-02-07 14:50:00', '2024-02-07 14:20:00', '2024-02-07 13:50:00', '2024-02-07 13:20:00', '2024-02-07 12:50:00', '2024-02-07 12:20:00', '2024-02-07 11:50:00', '2024-02-07 11:20:00', '2024-02-07 10:50:00', '2024-02-07 10:20:00', '2024-02-07 09:50:00', '2024-02-07 09:20:00', '2024-02-07 08:50:00', '2024-02-07 08:20:00', '2024-02-07 07:50:00', '2024-02-07 07:20:00', '2024-02-07 06:50:00', '2024-02-07 06:20:00', '2024-02-07 05:50:00', '2024-02-07 05:20:00', '2024-02-07 04:50:00', '2024-02-07 04:20:00', '2024-02-07 03:50:00', '2024-02-07 03:20:00', '2024-02-07 02:50:00', '2024-02-07 02:20:00', '2024-02-07 01:50:00', '2024-02-07 01:20:00', '2024-02-07 00:50:00', '2024-02-07 00:20:00', '2024-02-06 23:50:00', '2024-02-06 23:20:00', '2024-02-06 22:50:00', '2024-02-06 22:20:00', '2024-02-06 21:50:00', '2024-02-06 21:20:00', '2024-02-06 20:50:00', '2024-02-06 20:20:00', '2024-02-06 19:50:00', '2024-02-06 19:20:00', '2024-02-06 18:50:00', '2024-02-06 18:20:00', '2024-02-06 17:50:00', '2024-02-06 17:20:00', '2024-02-06 16:50:00', '2024-02-06 16:20:00', '2024-02-06 15:50:00', '2024-02-06 15:20:00', '2024-02-06 14:50:00', '2024-02-06 14:20:00', '2024-02-06 13:50:00', '2024-02-06 13:20:00', '2024-02-06 12:50:00', '2024-02-06 12:20:00', '2024-02-06 11:50:00', '2024-02-06 11:20:00', '2024-02-06 10:50:00', '2024-02-06 10:20:00', '2024-02-06 09:50:00', '2024-02-06 09:20:00', '2024-02-06 08:50:00', '2024-02-06 08:20:00', '2024-02-06 07:50:00', '2024-02-06 07:20:00', '2024-02-06 06:50:00', '2024-02-06 06:20:00', '2024-02-06 05:50:00', '2024-02-06 05:20:00', '2024-02-06 04:50:00', '2024-02-06 04:20:00', '2024-02-06 03:50:00', '2024-02-06 03:20:00', '2024-02-06 02:50:00', '2024-02-06 02:20:00', '2024-02-06 01:50:00', '2024-02-06 01:20:00', '2024-02-06 00:50:00', '2024-02-06 00:20:00', '2024-02-05 23:50:00', '2024-02-05 23:20:00', '2024-02-05 22:50:00', '2024-02-05 22:20:00', '2024-02-05 21:50:00', '2024-02-05 21:20:00', '2024-02-05 20:50:00']"
Finland, Pori Airport (POR/EFPO) ,"['EFPO 082020Z AUTO 12005KT CAVOK M18/M21 Q1006', 'EFPO 081950Z AUTO 12007KT CAVOK M18/M20 Q1006', 'EFPO 081920Z AUTO 12004KT CAVOK M17/M20 Q1006', 'EFPO 081850Z AUTO 11004KT CAVOK M17/M20 Q1005', 'EFPO 081820Z AUTO 11005KT CAVOK M17/M19 Q1005', 'EFPO 081750Z AUTO 10005KT CAVOK M16/M19 Q1005', 'EFPO 081720Z AUTO 10004KT CAVOK M16/M19 Q1004', 'EFPO 081650Z AUTO 10004KT CAVOK M15/M18 Q1004', 'EFPO 081620Z AUTO 10006KT CAVOK M15/M18 Q1004', 'EFPO 081550Z AUTO 10005KT CAVOK M15/M18 Q1004', 'EFPO 081520Z AUTO 10005KT CAVOK M14/M18 Q1004', 'EFPO 081450Z AUTO 10004KT CAVOK M14/M18 Q1004', 'EFPO 081420Z AUTO 09005KT CAVOK M13/M17 Q1003', 'EFPO 081350Z AUTO 10006KT CAVOK M13/M17 Q1003', 'EFPO 081320Z AUTO 10005KT CAVOK M13/M17 Q1003', 'EFPO 081250Z AUTO 09006KT CAVOK M13/M17 Q1003', 'EFPO 081220Z AUTO 09006KT CAVOK M14/M18 Q1003', 'EFPO 081150Z AUTO 07003KT 030V110 9999 FEW038 M14/M18 Q1002', 'EFPO 081120Z AUTO 12009KT 9999 BKN039 M14/M18 Q1002', 'EFPO 081050Z AUTO 12007KT 9999 -SHSN NCD M15/M18 Q1002', 'EFPO 081020Z AUTO 13009KT 9999 -SHSN BKN037 M16/M19 Q1002', 'EFPO 080950Z AUTO 14009KT 9999 -SHSN BKN036 M16/M19 Q1002', 'EFPO 080920Z AUTO 11007KT 9999 OVC036 M16/M19 Q1002', 'EFPO 080850Z AUTO 12005KT 9999 -SHSN BKN035 M17/M20 Q1002', 'EFPO 080820Z AUTO 12006KT 9999 -SHSN FEW035 M17/M20 Q1002', 'EFPO 080750Z AUTO 12005KT 9999 SCT035 M18/M20 Q1002', 'EFPO 080720Z AUTO 11008KT 9999 OVC036 //////CB M18/M21 Q1001', 'EFPO 080650Z AUTO 11007KT 9999 -SHSN BKN036 //////CB M18/M20 Q1001', 'EFPO 080620Z AUTO 11008KT 9999 -SHSN OVC036 //////CB M18/M20 Q1001', 'EFPO 080550Z AUTO 11007KT 9999 -SHSN OVC037 M17/M20 Q1001', 'EFPO 080520Z AUTO 11005KT 9999 BKN038 M17/M20 Q1001', 'EFPO 080450Z AUTO 11004KT 9999 -SHSN BKN037 M17/M20 Q1000', 'EFPO 080420Z AUTO 10004KT 9999 -SHSN BKN036 M17/M20 Q1000', 'EFPO 080350Z AUTO 13007KT 9999 -SHSN BKN034 M17/M20 Q1000', 'EFPO 080320Z AUTO 11006KT 9999 -SHSN BKN035 //////CB M17/M19 Q1000', 'EFPO 080250Z AUTO 10004KT 9999 -SHSN BKN035 M16/M19 Q1000', 'EFPO 080220Z AUTO 10004KT 9999 BKN035 M16/M19 Q0999', 'EFPO 080150Z AUTO 15004KT 9999 BKN034 M16/M19 Q0999', 'EFPO 080120Z AUTO 15005KT 9999 BKN033 M16/M19 Q0999', 'EFPO 080050Z AUTO 14004KT 9999 -SN BKN031 M16/M18 Q0999', 'EFPO 080020Z AUTO 12006KT 9999 -SN FEW017 BKN029 M16/M18 Q0998', 'EFPO 072350Z AUTO 10008KT 9999 -SN OVC029 M15/M18 Q0998', 'EFPO 072320Z AUTO 12006KT 9999 -SN OVC030 M15/M17 Q0999', 'EFPO 072250Z AUTO 11005KT 9999 -SHSN OVC031 M15/M17 Q0998', 'EFPO 072220Z AUTO 09003KT 9999 -SN OVC031 M15/M17 Q0998', 'EFPO 072150Z AUTO VRB02KT 9999 -SN BKN031 M16/M18 Q0998', 'EFPO 072120Z AUTO 10003KT 9999 BKN031 M15/M18 Q0998', 'EFPO 072050Z AUTO 11004KT 9999 FEW031 M16/M19 Q0998', 'EFPO 072020Z AUTO 12003KT CAVOK M16/M18 Q0997', 'EFPO 071950Z AUTO 12003KT CAVOK M15/M17 Q0997', 'EFPO 071920Z AUTO 12003KT 090V150 CAVOK M14/M16 Q0997', 'EFPO 071850Z AUTO 09004KT CAVOK M15/M17 Q0997', 'EFPO 071820Z AUTO 08004KT 9999 -SHSN NCD M13/M15 Q0996', 'EFPO 071750Z AUTO VRB01KT 9999 -SHSN NCD M15/M17 Q0996', 'EFPO 071720Z AUTO VRB02KT 9999 //////CB M13/M14 Q0996', 'EFPO 071650Z AUTO VRB01KT 9999 -SHSN NCD M13/M15 Q0996', 'EFPO 071620Z AUTO 09002KT CAVOK M12/M14 Q0996', 'EFPO 071550Z AUTO 09003KT 9999 //////CB M11/M14 Q0996', 'EFPO 071520Z AUTO 07002KT 9999 //////CB M10/M13 Q0996', 'EFPO 071450Z AUTO 05003KT 020V080 CAVOK M10/M13 Q0995', 'EFPO 071420Z AUTO VRB02KT 9999 -SHSN //////CB M10/M13 Q0995', 'EFPO 071350Z AUTO 32003KT 300V360 CAVOK M10/M13 Q0995', 'EFPO 071320Z AUTO 33004KT 9999 -SHSN NCD M10/M12 Q0995', 'EFPO 071250Z AUTO 32004KT 9999 -SN FEW025 M10/M13 Q0995', 'EFPO 071220Z AUTO 34004KT 290V010 9999 FEW025 M09/M12 Q0994', 'EFPO 071150Z AUTO VRB02KT CAVOK M09/M12 Q0994', 'EFPO 071120Z AUTO VRB01KT CAVOK M08/M12 Q0994', 'EFPO 071050Z AUTO VRB02KT CAVOK M09/M12 Q0994', 'EFPO 071020Z AUTO VRB02KT CAVOK M10/M13 Q0994', 'EFPO 070950Z AUTO 07003KT 040V100 9999 -SN SCT025 M10/M13 Q0994', 'EFPO 070920Z AUTO 05003KT 020V090 9999 -SHSN OVC025 //////CB M10/M13 Q0994', 'EFPO 070850Z AUTO 02005KT 9999 -SHSN OVC027 //////CB M11/M13 Q0994', 'EFPO 070820Z AUTO 01004KT 9999 -SHSN OVC027 //////CB M11/M13 Q0994', 'EFPO 070750Z AUTO 01005KT 9999 -SHSN OVC026 //////CB M11/M13 Q0993', 'EFPO 070720Z AUTO VRB02KT 9999 -SHSN OVC025 //////CB M11/M13 Q0993', 'EFPO 070650Z AUTO 02004KT 340V050 9999 -SHSN OVC023 //////CB M11/M13 Q0993', 'EFPO 070620Z AUTO 02005KT 340V040 9999 -SHSN OVC025 //////CB M11/M13 Q0993', 'EFPO 070550Z AUTO 01004KT 9999 -SHSN OVC028 //////CB M11/M13 Q0993', 'EFPO 070520Z AUTO 02004KT 9999 -SHSN OVC027 //////CB M11/M13 Q0993', 'EFPO 070450Z AUTO 02004KT 9999 -SHSN OVC028 //////CB M11/M13 Q0993', 'EFPO 070420Z AUTO 03004KT 9999 -SHSN OVC027 //////CB M11/M13 Q0993', 'EFPO 070350Z AUTO 03004KT 9999 -SHSN OVC025 //////CB M12/M13 Q0993', 'EFPO 070320Z AUTO 02004KT 9999 -SHSN OVC024 //////CB M12/M14 Q0993', 'EFPO 070250Z AUTO VRB01KT 9999 -SHSN OVC023 //////CB M12/M14 Q0993', 'EFPO 070220Z AUTO 03002KT 9999 -SN OVC023 M13/M15 Q0993', 'EFPO 070150Z AUTO VRB02KT 9999 -SHSN OVC024 //////CB M13/M15 Q0993', 'EFPO 070120Z AUTO VRB02KT 9999 -SHSN BKN025 //////CB M14/M16 Q0993', 'EFPO 070050Z AUTO 04003KT 010V080 CAVOK M14/M15 Q0993', 'EFPO 070020Z AUTO 04003KT 9999 //////CB M14/M16 Q0993', 'EFPO 062350Z AUTO 04002KT CAVOK M15/M16 Q0994', 'EFPO 062320Z AUTO VRB01KT 9999 //////CB M14/M17 Q0994', 'EFPO 062250Z AUTO 02003KT 9999 //////CB M13/M15 Q0994', 'EFPO 062220Z AUTO 03003KT 9999 //////CB M13/M15 Q0994', 'EFPO 062150Z AUTO 00000KT 9999 //////CB M14/M15 Q0995', 'EFPO 062120Z AUTO 04003KT 020V080 9999 //////CB M13/M15 Q0995', 'EFPO 062050Z AUTO 04002KT 9999 //////CB M13/M15 Q0995', 'EFPO 062020Z AUTO 06003KT 9999 //////CB M13/M14 Q0996', 'EFPO 061950Z AUTO VRB01KT CAVOK M13/M14 Q0996', 'EFPO 061920Z AUTO 05003KT 020V080 9999 //////CB M12/M14 Q0996', 'EFPO 061850Z AUTO 05003KT CAVOK M12/M14 Q0996', 'EFPO 061820Z AUTO 05002KT 9999 //////CB M11/M14 Q0996', 'EFPO 061750Z AUTO VRB02KT 9999 //////CB M11/M14 Q0996', 'EFPO 061720Z AUTO 05003KT 9999 //////CB M10/M13 Q0997', 'EFPO 061650Z AUTO 05003KT 020V080 9999 //////CB M10/M13 Q0997', 'EFPO 061620Z AUTO 05004KT 9999 //////CB M09/M13 Q0997', 'EFPO 061550Z AUTO 04005KT 9999 //////CB M09/M13 Q0997', 'EFPO 061520Z AUTO 04003KT CAVOK M08/M13 Q0997', 'EFPO 061450Z AUTO 05003KT CAVOK M08/M13 Q0998', 'EFPO 061420Z AUTO 05004KT CAVOK M08/M13 Q0998', 'EFPO 061350Z AUTO 06003KT 020V120 CAVOK M07/M13 Q0998', 'EFPO 061320Z AUTO 04004KT 360V080 9999 //////CB M07/M13 Q0998', 'EFPO 061250Z AUTO 07003KT 030V100 9999 //////CB M07/M13 Q0998', 'EFPO 061220Z AUTO 04003KT 360V070 CAVOK M07/M12 Q0998', 'EFPO 061150Z AUTO 05005KT 340V080 9999 //////CB M07/M12 Q0998', 'EFPO 061120Z AUTO 04004KT 360V090 CAVOK M07/M12 Q0998', 'EFPO 061050Z AUTO 04005KT 010V080 9999 //////CB M07/M11 Q0998', 'EFPO 061020Z AUTO 02006KT 350V050 9999 FEW017 //////CB M07/M11 Q0998', 'EFPO 060950Z AUTO 01005KT 340V070 9999 BKN015 //////CB M07/M11 Q0998', 'EFPO 060920Z AUTO 33005KT 9999 BKN015 M07/M10 Q0998', 'EFPO 060850Z AUTO 34005KT 310V010 9999 -SHSN BKN016 M07/M10 Q0998', 'EFPO 060820Z AUTO 34005KT 9999 BKN016 M07/M10 Q0998', 'EFPO 060750Z AUTO 34005KT 9999 FEW015 M07/M10 Q0998', 'EFPO 060720Z AUTO 35004KT 9999 FEW017 M07/M10 Q0998', 'EFPO 060650Z AUTO 34006KT 9999 FEW030 M07/M10 Q0998', 'EFPO 060620Z AUTO 01008KT 9999 BKN024 M06/M10 Q0997', 'EFPO 060550Z AUTO 01009KT 9999 -SHSN OVC023 M05/M09 Q0997', 'EFPO 060520Z AUTO 36004KT 9999 -SHSN OVC026 M05/M08 Q0997', 'EFPO 060450Z AUTO 35006KT 330V030 9999 -SHSN FEW014 OVC028 M05/M08 Q0997', 'EFPO 060420Z AUTO 36006KT 320V030 9999 -SHSN FEW016 OVC029 M05/M08 Q0997', 'EFPO 060350Z AUTO 36007KT 9999 -SHSN OVC026 M04/M08 Q0997', 'EFPO 060320Z AUTO 35004KT 320V030 9999 OVC029 M04/M08 Q0997', 'EFPO 060250Z AUTO 35005KT 9999 -SHSN FEW020 OVC033 M04/M08 Q0997', 'EFPO 060220Z AUTO 35006KT 9999 -SHSN FEW019 OVC035 M04/M08 Q0997', 'EFPO 060150Z AUTO 34005KT 9999 FEW019 OVC028 M04/M08 Q0997', 'EFPO 060120Z AUTO 34005KT 9999 OVC039 M04/M08 Q0996', 'EFPO 060050Z AUTO 34005KT 9999 OVC041 M04/M08 Q0996', 'EFPO 060020Z AUTO 33005KT 300V360 9999 OVC041 M04/M07 Q0996', 'EFPO 052350Z AUTO 32005KT 9999 OVC041 M04/M07 Q0996', 'EFPO 052320Z AUTO 34006KT 9999 FEW014 OVC038 M04/M07 Q0996', 'EFPO 052250Z AUTO 34007KT 9999 BKN014 OVC037 M04/M07 Q0996', 'EFPO 052220Z AUTO 35008KT 9999 FEW013 OVC037 M04/M07 Q0995', 'EFPO 052150Z AUTO 34007KT 9999 -SHSN SCT013 OVC038 M04/M07 Q0995', 'EFPO 052120Z AUTO 35008KT 9999 OVC014 M04/M07 Q0995', 'EFPO 052050Z AUTO 34008KT 9999 OVC014 M03/M07 Q0994']","['2024-02-08 20:20:00', '2024-02-08 19:50:00', '2024-02-08 19:20:00', '2024-02-08 18:50:00', '2024-02-08 18:20:00', '2024-02-08 17:50:00', '2024-02-08 17:20:00', '2024-02-08 16:50:00', '2024-02-08 16:20:00', '2024-02-08 15:50:00', '2024-02-08 15:20:00', '2024-02-08 14:50:00', '2024-02-08 14:20:00', '2024-02-08 13:50:00', '2024-02-08 13:20:00', '2024-02-08 12:50:00', '2024-02-08 12:20:00', '2024-02-08 11:50:00', '2024-02-08 11:20:00', '2024-02-08 10:50:00', '2024-02-08 10:20:00', '2024-02-08 09:50:00', '2024-02-08 09:20:00', '2024-02-08 08:50:00', '2024-02-08 08:20:00', '2024-02-08 07:50:00', '2024-02-08 07:20:00', '2024-02-08 06:50:00', '2024-02-08 06:20:00', '2024-02-08 05:50:00', '2024-02-08 05:20:00', '2024-02-08 04:50:00', '2024-02-08 04:20:00', '2024-02-08 03:50:00', '2024-02-08 03:20:00', '2024-02-08 02:50:00', '2024-02-08 02:20:00', '2024-02-08 01:50:00', '2024-02-08 01:20:00', '2024-02-08 00:50:00', '2024-02-08 00:20:00', '2024-02-07 23:50:00', '2024-02-07 23:20:00', '2024-02-07 22:50:00', '2024-02-07 22:20:00', '2024-02-07 21:50:00', '2024-02-07 21:20:00', '2024-02-07 20:50:00', '2024-02-07 20:20:00', '2024-02-07 19:50:00', '2024-02-07 19:20:00', '2024-02-07 18:50:00', '2024-02-07 18:20:00', '2024-02-07 17:50:00', '2024-02-07 17:20:00', '2024-02-07 16:50:00', '2024-02-07 16:20:00', '2024-02-07 15:50:00', '2024-02-07 15:20:00', '2024-02-07 14:50:00', '2024-02-07 14:20:00', '2024-02-07 13:50:00', '2024-02-07 13:20:00', '2024-02-07 12:50:00', '2024-02-07 12:20:00', '2024-02-07 11:50:00', '2024-02-07 11:20:00', '2024-02-07 10:50:00', '2024-02-07 10:20:00', '2024-02-07 09:50:00', '2024-02-07 09:20:00', '2024-02-07 08:50:00', '2024-02-07 08:20:00', '2024-02-07 07:50:00', '2024-02-07 07:20:00', '2024-02-07 06:50:00', '2024-02-07 06:20:00', '2024-02-07 05:50:00', '2024-02-07 05:20:00', '2024-02-07 04:50:00', '2024-02-07 04:20:00', '2024-02-07 03:50:00', '2024-02-07 03:20:00', '2024-02-07 02:50:00', '2024-02-07 02:20:00', '2024-02-07 01:50:00', '2024-02-07 01:20:00', '2024-02-07 00:50:00', '2024-02-07 00:20:00', '2024-02-06 23:50:00', '2024-02-06 23:20:00', '2024-02-06 22:50:00', '2024-02-06 22:20:00', '2024-02-06 21:50:00', '2024-02-06 21:20:00', '2024-02-06 20:50:00', '2024-02-06 20:20:00', '2024-02-06 19:50:00', '2024-02-06 19:20:00', '2024-02-06 18:50:00', '2024-02-06 18:20:00', '2024-02-06 17:50:00', '2024-02-06 17:20:00', '2024-02-06 16:50:00', '2024-02-06 16:20:00', '2024-02-06 15:50:00', '2024-02-06 15:20:00', '2024-02-06 14:50:00', '2024-02-06 14:20:00', '2024-02-06 13:50:00', '2024-02-06 13:20:00', '2024-02-06 12:50:00', '2024-02-06 12:20:00', '2024-02-06 11:50:00', '2024-02-06 11:20:00', '2024-02-06 10:50:00', '2024-02-06 10:20:00', '2024-02-06 09:50:00', '2024-02-06 09:20:00', '2024-02-06 08:50:00', '2024-02-06 08:20:00', '2024-02-06 07:50:00', '2024-02-06 07:20:00', '2024-02-06 06:50:00', '2024-02-06 06:20:00', '2024-02-06 05:50:00', '2024-02-06 05:20:00', '2024-02-06 04:50:00', '2024-02-06 04:20:00', '2024-02-06 03:50:00', '2024-02-06 03:20:00', '2024-02-06 02:50:00', '2024-02-06 02:20:00', '2024-02-06 01:50:00', '2024-02-06 01:20:00', '2024-02-06 00:50:00', '2024-02-06 00:20:00', '2024-02-05 23:50:00', '2024-02-05 23:20:00', '2024-02-05 22:50:00', '2024-02-05 22:20:00', '2024-02-05 21:50:00', '2024-02-05 21:20:00', '2024-02-05 20:50:00']"
Finland, Rovaniemi Airport (RVN/EFRO) ,"['EFRO 082020Z AUTO 13003KT 080V180 CAVOK M22/M25 Q1005', 'EFRO 081950Z AUTO 10005KT CAVOK M22/M24 Q1005', 'EFRO 081920Z AUTO 07004KT 030V130 CAVOK M22/M25 Q1004', 'EFRO 081850Z AUTO 09006KT CAVOK M22/M24 Q1004', 'EFRO 081820Z AUTO 14006KT CAVOK M22/M24 Q1004', 'EFRO 081750Z AUTO 11005KT 070V130 CAVOK M22/M24 Q1004', 'EFRO 081720Z AUTO 10005KT CAVOK M22/M24 Q1004', 'EFRO 081650Z AUTO 12007KT CAVOK M22/M24 Q1004', 'EFRO 081620Z AUTO 12005KT 080V150 CAVOK M21/M24 Q1003', 'EFRO 081550Z AUTO 10004KT 060V120 CAVOK M21/M24 Q1003', 'EFRO 081520Z AUTO 09003KT 040V140 9999 -SHSN NCD M21/M24 Q1003', 'EFRO 081450Z AUTO 11006KT CAVOK M21/M23 Q1003', 'EFRO 081420Z AUTO 11006KT CAVOK M21/M23 Q1003', 'EFRO 081350Z AUTO 09005KT CAVOK M21/M23 Q1003', 'EFRO 081320Z AUTO 07003KT 040V110 CAVOK M20/M23 Q1003', 'EFRO 081250Z 09004KT 9999 BCFG NSC M20/M23 Q1002', 'EFRO 081220Z 10004KT 060V120 9999 4000W BCFG NSC M20/M23 Q1002', 'EFRO 081150Z 10004KT 070V130 9999 BCFG FEW005 M21/M23 Q1002', 'EFRO 081120Z 11005KT 9999 BCFG FEW004 M21/M23 Q1002', 'EFRO 081050Z 13007KT 6000 BCFG SCT004 M21/M24 Q1002', 'EFRO 081020Z 11006KT 6000 BCFG SCT004 M21/M24 Q1002', 'EFRO 080950Z 10007KT 9999 BCFG FEW005 M22/M24 Q1001', 'EFRO 080920Z 09005KT 6000 BCFG FEW004 M22/M25 Q1001', 'EFRO 080850Z 09004KT 6000 BCFG SCT004 M22/M25 Q1001', 'EFRO 080820Z 08004KT 050V110 5000 BCFG BKN004 M22/M25 Q1001', 'EFRO 080750Z 12005KT 4000 BCFG BKN003 M22/M24 Q1001', 'EFRO 080720Z 10005KT 5000 BCFG BKN003 M22/M25 Q1000', 'EFRO 080650Z 11005KT 5000 BCFG BKN002 M22/M25 Q1000', 'EFRO 080620Z 07004KT 050V110 8000 2500SW BCFG BKN003 M23/M25 Q1000', 'EFRO 080550Z 09004KT 6000 2500W BKN002 M23/M25 Q0999', 'EFRO 080520Z 09004KT 050V120 9999 BKN004 M23/M25 Q0999', 'EFRO 080450Z AUTO 06004KT 040V110 9999 BKN004 M23/M25 Q0999', 'EFRO 080420Z AUTO 10005KT 9999 -SN OVC004 M22/M25 Q0999', 'EFRO 080350Z AUTO 11006KT 9999 OVC003 M22/M24 Q0999', 'EFRO 080320Z AUTO 12007KT 9999 -SHSN OVC003 M23/M25 Q0999', 'EFRO 080250Z AUTO 11005KT 9999 -SHSN BKN004 M23/M25 Q0999', 'EFRO 080220Z AUTO 12007KT CAVOK M23/M25 Q0999', 'EFRO 080150Z AUTO 12007KT CAVOK M23/M25 Q0999', 'EFRO 080120Z AUTO 10005KT CAVOK M22/M25 Q0998', 'EFRO 080050Z AUTO 12007KT 9999 FEW009 M22/M25 Q0998', 'EFRO 080020Z AUTO 13006KT 9999 -SHSN NSC M22/M24 Q0998', 'EFRO 072350Z AUTO 12006KT 9999 -SHSN FEW010 M22/M24 Q0998', 'EFRO 072320Z AUTO 11006KT 9999 BKN004 M21/M24 Q0998', 'EFRO 072250Z AUTO 12007KT 9999 -SN OVC006 M21/M23 Q0998', 'EFRO 072220Z AUTO 13005KT 7000 -SN OVC011 M20/M23 Q0998', 'EFRO 072150Z AUTO 14005KT 8000 -SN OVC009 M20/M23 Q0998', 'EFRO 072120Z AUTO 14006KT 9000 -SN OVC009 M20/M23 Q0997', 'EFRO 072050Z AUTO 14006KT 6000 -SN OVC008 M21/M23 Q0997', 'EFRO 072020Z AUTO 13006KT 6000 -SHSN OVC011 M21/M23 Q0997', 'EFRO 071950Z AUTO 12006KT 9999 -SN OVC008 M20/M23 Q0997', 'EFRO 071920Z AUTO 12006KT 9999 -SN OVC011 M20/M23 Q0997', 'EFRO 071850Z AUTO 12006KT 9999 -SN OVC010 M20/M22 Q0997', 'EFRO 071820Z AUTO 13005KT 9999 -SN OVC011 M20/M23 Q0996', 'EFRO 071750Z AUTO 11005KT 9999 -SN OVC011 M20/M23 Q0996', 'EFRO 071720Z AUTO 12007KT 9999 -SN OVC012 M21/M23 Q0996', 'EFRO 071650Z AUTO 12007KT 9999 -SN OVC013 M21/M23 Q0996', 'EFRO 071620Z AUTO 12007KT 9999 -SN OVC014 M20/M23 Q0996', 'EFRO 071550Z AUTO 13007KT 9999 -SN OVC014 M20/M22 Q0996', 'EFRO 071520Z AUTO 13006KT 9999 -SN OVC014 M20/M23 Q0996', 'EFRO 071450Z AUTO 12006KT 9999 -SN OVC013 M20/M23 Q0996', 'EFRO 071420Z AUTO 10004KT 9999 -SHSN BKN014 M20/M23 Q0995', 'EFRO 071350Z AUTO 12008KT 9999 -SHSN FEW017 M20/M23 Q0995', 'EFRO 071320Z AUTO 11007KT 9999 -SN NCD M20/M22 Q0995', 'EFRO 071250Z 12007KT 8000 -SN FEW007 M20/M22 Q0995', 'EFRO 071220Z 12007KT 8000 -SN NSC M19/M22 Q0995', 'EFRO 071150Z 12006KT 100V160 8000 -SN NSC M19/M22 Q0995', 'EFRO 071120Z 12006KT 100V160 8000 -SN FEW020 M19/M22 Q0995', 'EFRO 071050Z 12007KT 7000 -SN NSC M20/M22 Q0995', 'EFRO 071020Z 12007KT 6000 -SN FEW007 BKN039 M20/M22 Q0995', 'EFRO 070950Z 13005KT 100V160 7000 -SN FEW009 BKN040 M20/M22 Q0995', 'EFRO 070920Z 15007KT 7000 -SN BKN041 M20/M22 Q0994', 'EFRO 070850Z 15006KT 100V170 7000 -SN SCT027 BKN042 M20/M22 Q0994', 'EFRO 070820Z 13004KT 080V180 6000 -SN FEW013 BKN027 M20/M22 Q0994', 'EFRO 070750Z 15003KT 110V180 5000 -SN BKN027 M20/M22 Q0994', 'EFRO 070720Z 14004KT 100V180 5000 -SN BKN026 M20/M22 Q0994', 'EFRO 070650Z 12003KT 5000 -SN BKN026 M20/M22 Q0993', 'EFRO 070620Z 13004KT 100V160 8000 -SN BKN024 M20/M22 Q0993', 'EFRO 070550Z 14004KT 100V170 8000 OVC024 M20/M22 Q0993', 'EFRO 070520Z 13004KT 9999 -SN OVC024 M20/M22 Q0993', 'EFRO 070450Z AUTO 13004KT 9999 -SN OVC024 M20/M22 Q0993', 'EFRO 070420Z AUTO 13005KT 9999 -SN OVC025 M20/M22 Q0993', 'EFRO 070350Z AUTO 13005KT 9999 -SN OVC026 M19/M22 Q0993', 'EFRO 070320Z AUTO 14004KT 110V190 9999 -SN OVC027 M20/M22 Q0993', 'EFRO 070250Z AUTO 14004KT 110V180 9999 -SN OVC027 M20/M22 Q0993', 'EFRO 070220Z AUTO 14004KT 9999 -SN BKN027 M20/M22 Q0993', 'EFRO 070150Z AUTO 14003KT 110V170 3500 -SN SCT026 M20/M22 Q0993', 'EFRO 070120Z AUTO 16005KT 2700 -SN FEW002 M20/M22 Q0993', 'EFRO 070050Z AUTO 15004KT 1700 -SN BKN002 M20/M22 Q0993', 'EFRO 070020Z AUTO 13004KT 1800 -SN OVC003 M21/M23 Q0993', 'EFRO 062350Z AUTO 17005KT 1800 -SN OVC003 M20/M22 Q0993', 'EFRO 062320Z AUTO 17005KT 3800 -SN OVC003 M20/M22 Q0993', 'EFRO 062250Z AUTO 19004KT 9999 -SN BKN003 OVC011 M20/M22 Q0994', 'EFRO 062220Z AUTO 19003KT 8000 -SHSN FEW003 OVC012 M20/M22 Q0993', 'EFRO 062150Z AUTO VRB02KT 9999 -SHSN SCT004 BKN014 OVC017 M21/M23 Q0994', 'EFRO 062120Z AUTO 15003KT 110V180 9999 -SN BKN004 OVC016 M20/M22 Q0994', 'EFRO 062050Z AUTO VRB02KT 9999 -SN SCT004 M21/M23 Q0994', 'EFRO 062020Z AUTO 19005KT 9999 4800 -SN SCT012 M20/M22 Q0994', 'EFRO 061950Z AUTO 18004KT 7000 -SHSN FEW003 OVC014 M21/M23 Q0994', 'EFRO 061920Z AUTO 22005KT 7000 -SHSN OVC018 M20/M22 Q0994', 'EFRO 061850Z AUTO 22002KT 9999 -SHSN FEW004 BKN018 M21/M24 Q0994', 'EFRO 061820Z AUTO VRB02KT CAVOK M23/M25 Q0994', 'EFRO 061750Z AUTO 21005KT 9999 3700 -SHSN NSC M21/M23 Q0994', 'EFRO 061720Z AUTO 21005KT 9999 -SN BKN018 M21/M23 Q0994', 'EFRO 061650Z AUTO 21005KT 9999 -SN OVC019 M21/M23 Q0995', 'EFRO 061620Z AUTO 21004KT 9999 4000 -SN FEW007 SCT020 M20/M22 Q0995', 'EFRO 061550Z AUTO 20003KT 9999 -SHSN BKN019 M22/M24 Q0995', 'EFRO 061520Z AUTO 21003KT 9999 -SHSN FEW007 M22/M24 Q0995', 'EFRO 061450Z AUTO 20002KT 9999 -SHSN NSC M23/M25 Q0996', 'EFRO 061420Z AUTO 20002KT 9999 -SHSN NSC M22/M25 Q0996', 'EFRO 061350Z AUTO 22003KT 9999 1400 R03/P2000U -SHSN FEW008 M21/M23 Q0996', 'EFRO 061320Z AUTO VRB01KT 9999 -SN FEW005 M20/M23 Q0996', 'EFRO 061250Z 22002KT 9999 -SN FEW008 M21/M23 Q0996', 'EFRO 061220Z 28001KT 9999 -SN FEW009 M20/M22 Q0997', 'EFRO 061150Z VRB02KT 9999 FEW010 M20/M23 Q0997', 'EFRO 061120Z 21002KT CAVOK M20/M22 Q0997', 'EFRO 061050Z VRB01KT 9999 FEW001 SCT013 M20/M22 Q0997', 'EFRO 061020Z VRB02KT 6000 -SN BKN009 M20/M22 Q0997', 'EFRO 060950Z VRB01KT 9999 3000E BCFG FEW004 M20/M22 Q0997', 'EFRO 060920Z VRB01KT 8000 0600SW R03/P2000D BCFG FEW003 M21/M23 Q0997', 'EFRO 060850Z 28002KT 9999 BCFG FEW002 M22/M24 Q0998', 'EFRO 060820Z 31002KT CAVOK M22/M24 Q0998', 'EFRO 060750Z 21002KT 9999 1000N R03/P2000N BCFG NSC M22/M24 Q0998', 'EFRO 060720Z VRB02KT CAVOK M22/M24 Q0998', 'EFRO 060650Z VRB01KT CAVOK M21/M23 Q0998', 'EFRO 060620Z VRB02KT CAVOK M22/M24 Q0998', 'EFRO 060550Z 01003KT CAVOK M21/M23 Q0998', 'EFRO 060520Z VRB02KT CAVOK M21/M23 Q0998', 'EFRO 060450Z AUTO VRB02KT CAVOK M22/M24 Q0998', 'EFRO 060420Z AUTO 36006KT CAVOK M21/M22 Q0998', 'EFRO 060350Z AUTO 04006KT CAVOK M20/M22 Q0998', 'EFRO 060320Z AUTO 04005KT CAVOK M20/M22 Q0999', 'EFRO 060250Z AUTO VRB02KT 9999 -SHSN NCD M19/M21 Q0999', 'EFRO 060220Z AUTO 04005KT 9999 -SN FEW012 M18/M20 Q0999', 'EFRO 060150Z AUTO 04006KT 9999 SCT019 M19/M20 Q0999', 'EFRO 060120Z AUTO 03006KT CAVOK M19/M21 Q0999', 'EFRO 060050Z AUTO 03006KT CAVOK M18/M20 Q0999', 'EFRO 060020Z AUTO 03008KT CAVOK M19/M21 Q0999', 'EFRO 052350Z AUTO 02006KT CAVOK M19/M20 Q0999', 'EFRO 052320Z AUTO 01005KT CAVOK M18/M20 Q0999', 'EFRO 052250Z AUTO 03007KT CAVOK M17/M18 Q0999', 'EFRO 052220Z AUTO 05007KT CAVOK M16/M18 Q0998', 'EFRO 052150Z AUTO 09004KT CAVOK M15/M17 Q0998', 'EFRO 052120Z AUTO 07005KT CAVOK M15/M17 Q0998', 'EFRO 052050Z AUTO 07006KT CAVOK M15/M17 Q0998']","['2024-02-08 20:20:00', '2024-02-08 19:50:00', '2024-02-08 19:20:00', '2024-02-08 18:50:00', '2024-02-08 18:20:00', '2024-02-08 17:50:00', '2024-02-08 17:20:00', '2024-02-08 16:50:00', '2024-02-08 16:20:00', '2024-02-08 15:50:00', '2024-02-08 15:20:00', '2024-02-08 14:50:00', '2024-02-08 14:20:00', '2024-02-08 13:50:00', '2024-02-08 13:20:00', '2024-02-08 12:50:00', '2024-02-08 12:20:00', '2024-02-08 11:50:00', '2024-02-08 11:20:00', '2024-02-08 10:50:00', '2024-02-08 10:20:00', '2024-02-08 09:50:00', '2024-02-08 09:20:00', '2024-02-08 08:50:00', '2024-02-08 08:20:00', '2024-02-08 07:50:00', '2024-02-08 07:20:00', '2024-02-08 06:50:00', '2024-02-08 06:20:00', '2024-02-08 05:50:00', '2024-02-08 05:20:00', '2024-02-08 04:50:00', '2024-02-08 04:20:00', '2024-02-08 03:50:00', '2024-02-08 03:20:00', '2024-02-08 02:50:00', '2024-02-08 02:20:00', '2024-02-08 01:50:00', '2024-02-08 01:20:00', '2024-02-08 00:50:00', '2024-02-08 00:20:00', '2024-02-07 23:50:00', '2024-02-07 23:20:00', '2024-02-07 22:50:00', '2024-02-07 22:20:00', '2024-02-07 21:50:00', '2024-02-07 21:20:00', '2024-02-07 20:50:00', '2024-02-07 20:20:00', '2024-02-07 19:50:00', '2024-02-07 19:20:00', '2024-02-07 18:50:00', '2024-02-07 18:20:00', '2024-02-07 17:50:00', '2024-02-07 17:20:00', '2024-02-07 16:50:00', '2024-02-07 16:20:00', '2024-02-07 15:50:00', '2024-02-07 15:20:00', '2024-02-07 14:50:00', '2024-02-07 14:20:00', '2024-02-07 13:50:00', '2024-02-07 13:20:00', '2024-02-07 12:50:00', '2024-02-07 12:20:00', '2024-02-07 11:50:00', '2024-02-07 11:20:00', '2024-02-07 10:50:00', '2024-02-07 10:20:00', '2024-02-07 09:50:00', '2024-02-07 09:20:00', '2024-02-07 08:50:00', '2024-02-07 08:20:00', '2024-02-07 07:50:00', '2024-02-07 07:20:00', '2024-02-07 06:50:00', '2024-02-07 06:20:00', '2024-02-07 05:50:00', '2024-02-07 05:20:00', '2024-02-07 04:50:00', '2024-02-07 04:20:00', '2024-02-07 03:50:00', '2024-02-07 03:20:00', '2024-02-07 02:50:00', '2024-02-07 02:20:00', '2024-02-07 01:50:00', '2024-02-07 01:20:00', '2024-02-07 00:50:00', '2024-02-07 00:20:00', '2024-02-06 23:50:00', '2024-02-06 23:20:00', '2024-02-06 22:50:00', '2024-02-06 22:20:00', '2024-02-06 21:50:00', '2024-02-06 21:20:00', '2024-02-06 20:50:00', '2024-02-06 20:20:00', '2024-02-06 19:50:00', '2024-02-06 19:20:00', '2024-02-06 18:50:00', '2024-02-06 18:20:00', '2024-02-06 17:50:00', '2024-02-06 17:20:00', '2024-02-06 16:50:00', '2024-02-06 16:20:00', '2024-02-06 15:50:00', '2024-02-06 15:20:00', '2024-02-06 14:50:00', '2024-02-06 14:20:00', '2024-02-06 13:50:00', '2024-02-06 13:20:00', '2024-02-06 12:50:00', '2024-02-06 12:20:00', '2024-02-06 11:50:00', '2024-02-06 11:20:00', '2024-02-06 10:50:00', '2024-02-06 10:20:00', '2024-02-06 09:50:00', '2024-02-06 09:20:00', '2024-02-06 08:50:00', '2024-02-06 08:20:00', '2024-02-06 07:50:00', '2024-02-06 07:20:00', '2024-02-06 06:50:00', '2024-02-06 06:20:00', '2024-02-06 05:50:00', '2024-02-06 05:20:00', '2024-02-06 04:50:00', '2024-02-06 04:20:00', '2024-02-06 03:50:00', '2024-02-06 03:20:00', '2024-02-06 02:50:00', '2024-02-06 02:20:00', '2024-02-06 01:50:00', '2024-02-06 01:20:00', '2024-02-06 00:50:00', '2024-02-06 00:20:00', '2024-02-05 23:50:00', '2024-02-05 23:20:00', '2024-02-05 22:50:00', '2024-02-05 22:20:00', '2024-02-05 21:50:00', '2024-02-05 21:20:00', '2024-02-05 20:50:00']"
Finland, Savonlinna Airport (SVL/EFSA) ,"['EFSA 082020Z AUTO VRB01KT CAVOK M28/M31 Q1007', 'EFSA 081950Z AUTO 33002KT CAVOK M27/M30 Q1007', 'EFSA 081920Z AUTO 33002KT CAVOK M26/M29 Q1007', 'EFSA 081850Z AUTO VRB01KT CAVOK M27/M29 Q1006', 'EFSA 081820Z AUTO VRB01KT CAVOK M26/M29 Q1006', 'EFSA 081750Z AUTO VRB01KT CAVOK M27/M29 Q1006', 'EFSA 081720Z AUTO VRB01KT CAVOK M26/M29 Q1006', 'EFSA 081650Z AUTO 31001KT CAVOK M25/M28 Q1005', 'EFSA 081620Z AUTO 18001KT CAVOK M24/M27 Q1006', 'EFSA 081550Z 25002KT CAVOK M24/M26 Q1005', 'EFSA 081520Z VRB01KT CAVOK M24/M26 Q1005', 'EFSA 081450Z VRB01KT CAVOK M22/M24 Q1005', 'EFSA 081420Z VRB01KT CAVOK M21/M23 Q1005', 'EFSA 081350Z AUTO 08002KT CAVOK M19/M22 Q1005', 'EFSA 081320Z AUTO 08003KT CAVOK M18/M20 Q1005', 'EFSA 081250Z AUTO 06003KT CAVOK M18/M20 Q1004', 'EFSA 081220Z 08003KT CAVOK M18/M21 Q1004', 'EFSA 081150Z 07003KT CAVOK M18/M21 Q1004', 'EFSA 081120Z VRB02KT CAVOK M19/M22 Q1004', 'EFSA 081050Z AUTO VRB02KT CAVOK M19/M22 Q1004', 'EFSA 081020Z AUTO VRB01KT CAVOK M18/M20 Q1004', 'EFSA 080950Z AUTO VRB01KT CAVOK M21/M24 Q1004', 'EFSA 080920Z AUTO 21002KT CAVOK M23/M26 Q1003', 'EFSA 080850Z AUTO VRB01KT CAVOK M24/M26 Q1003', 'EFSA 080820Z AUTO 32001KT CAVOK M26/M30 Q1003', 'EFSA 080750Z AUTO 33001KT CAVOK M27/M30 Q1003', 'EFSA 080720Z VRB01KT CAVOK M28/M31 Q1002', 'EFSA 080650Z VRB01KT CAVOK M29/M33 Q1002', 'EFSA 080620Z VRB01KT CAVOK M29/M32 Q1002', 'EFSA 080550Z AUTO VRB01KT CAVOK M29/M31 Q1002', 'EFSA 080520Z VRB01KT CAVOK M28/M31 Q1001', 'EFSA 080450Z 30001KT CAVOK M28/M30 Q1001', 'EFSA 080420Z VRB02KT CAVOK M28/M30 Q1001', 'EFSA 080350Z AUTO VRB02KT 9999 -SHSN NCD M27/M29 Q1001', 'EFSA 080320Z AUTO VRB01KT CAVOK M27/M30 Q1000', 'EFSA 080250Z AUTO 00000KT CAVOK M28/M31 Q1000', 'EFSA 080220Z AUTO VRB01KT CAVOK M26/M29 Q1000', 'EFSA 080150Z AUTO VRB01KT CAVOK M27/M29 Q1000', 'EFSA 080120Z AUTO VRB01KT CAVOK M26/M28 Q1000', 'EFSA 080050Z AUTO 24001KT CAVOK M25/M27 Q0999', 'EFSA 080020Z AUTO VRB01KT CAVOK M25/M27 Q0999', 'EFSA 072350Z AUTO VRB01KT CAVOK M24/M26 Q0999', 'EFSA 072320Z AUTO VRB01KT CAVOK M24/M26 Q0999', 'EFSA 072250Z AUTO VRB01KT CAVOK M24/M27 Q0999', 'EFSA 072220Z AUTO VRB01KT CAVOK M22/M25 Q0998', 'EFSA 072150Z AUTO VRB01KT CAVOK M24/M27 Q0998', 'EFSA 072120Z AUTO VRB01KT CAVOK M22/M24 Q0998', 'EFSA 072050Z AUTO VRB01KT CAVOK M22/M25 Q0998', 'EFSA 072020Z AUTO VRB01KT CAVOK M21/M23 Q0998', 'EFSA 071950Z AUTO 05002KT CAVOK M21/M23 Q0997', 'EFSA 071920Z AUTO VRB01KT CAVOK M21/M23 Q0997', 'EFSA 071850Z AUTO VRB02KT CAVOK M20/M23 Q0997', 'EFSA 071820Z AUTO 07002KT CAVOK M20/M22 Q0997', 'EFSA 071750Z AUTO 05003KT CAVOK M20/M22 Q0996', 'EFSA 071720Z AUTO 06004KT CAVOK M20/M22 Q0996', 'EFSA 071650Z AUTO 05003KT CAVOK M20/M22 Q0996', 'EFSA 071620Z AUTO VRB01KT CAVOK M19/M22 Q0996', 'EFSA 071550Z 04003KT CAVOK M19/M22 Q0996', 'EFSA 071520Z 06003KT CAVOK M19/M21 Q0996', 'EFSA 071450Z 05004KT CAVOK M19/M21 Q0996', 'EFSA 071420Z 05004KT CAVOK M19/M21 Q0995', 'EFSA 071350Z AUTO 05005KT CAVOK M18/M21 Q0995', 'EFSA 071320Z AUTO 05005KT CAVOK M18/M20 Q0995', 'EFSA 071250Z AUTO 06004KT CAVOK M18/M20 Q0995', 'EFSA 071220Z AUTO 07005KT 050V110 CAVOK M18/M20 Q0995', 'EFSA 071150Z AUTO 06004KT CAVOK M18/M20 Q0995', 'EFSA 071120Z AUTO 07004KT CAVOK M18/M20 Q0995', 'EFSA 071050Z AUTO 07006KT 9999 FEW037 M18/M21 Q0994', 'EFSA 071020Z AUTO 07006KT 9999 BKN037 M19/M22 Q0995', 'EFSA 070950Z AUTO 06007KT 9999 -SHSN OVC037 M19/M21 Q0995', 'EFSA 070920Z AUTO 07007KT 9999 -SN OVC038 M19/M22 Q0995', 'EFSA 070850Z AUTO 06006KT 9999 -SN OVC037 M20/M22 Q0995', 'EFSA 070820Z AUTO 07006KT 9999 -SN OVC036 M20/M22 Q0995', 'EFSA 070750Z AUTO 07007KT 9999 -SN OVC034 M20/M22 Q0995', 'EFSA 070720Z AUTO 07006KT 9999 -SN OVC033 M20/M22 Q0995', 'EFSA 070650Z AUTO 07006KT 9999 -SN OVC031 M20/M22 Q0994', 'EFSA 070620Z AUTO 06006KT 9000 -SN FEW012 OVC030 M20/M22 Q0995', 'EFSA 070550Z AUTO 06006KT 9999 -SN FEW003 OVC013 M20/M22 Q0995', 'EFSA 070520Z 06007KT 9000 -SHSN OVC003 M20/M22 Q0995', 'EFSA 070450Z 05006KT 9999 -SHSN OVC003 M21/M23 Q0995', 'EFSA 070420Z VRB02KT 9999 -SHSN OVC003 M20/M22 Q0995', 'EFSA 070350Z AUTO VRB02KT 9999 OVC002 M21/M23 Q0995', 'EFSA 070320Z AUTO VRB01KT 9999 -SHSN OVC003 M22/M24 Q0995', 'EFSA 070250Z AUTO 02002KT 9999 -SN BKN005 M23/M25 Q0995', 'EFSA 070220Z AUTO VRB01KT CAVOK M23/M25 Q0995', 'EFSA 070150Z AUTO 04002KT CAVOK M23/M25 Q0996', 'EFSA 070120Z AUTO VRB01KT CAVOK M23/M25 Q0996', 'EFSA 070050Z AUTO 03001KT CAVOK M23/M25 Q0996', 'EFSA 070020Z AUTO 05002KT CAVOK M23/M25 Q0996', 'EFSA 062350Z AUTO 05002KT 9999 -SHSN SCT021 M22/M25 Q0996', 'EFSA 062320Z AUTO VRB01KT 9999 -SN BKN020 M23/M25 Q0997', 'EFSA 062250Z AUTO VRB02KT 9999 -SN OVC018 M23/M26 Q0997', 'EFSA 062220Z AUTO VRB01KT 9999 -SN OVC018 M25/M27 Q0997', 'EFSA 062150Z AUTO VRB01KT 9999 -SHSN BKN019 M25/M27 Q0997', 'EFSA 062120Z AUTO VRB01KT 9999 -SN BKN017 M26/M29 Q0997', 'EFSA 062050Z AUTO VRB01KT 9999 FEW018 M27/M30 Q0997', 'EFSA 062020Z AUTO VRB01KT CAVOK M26/M28 Q0997', 'EFSA 061950Z AUTO 00000KT CAVOK M25/M27 Q0997', 'EFSA 061920Z AUTO VRB01KT CAVOK M26/M28 Q0998', 'EFSA 061850Z AUTO 06003KT 050V120 CAVOK M26/M28 Q0998', 'EFSA 061820Z AUTO VRB01KT CAVOK M24/M25 Q0998', 'EFSA 061750Z AUTO VRB01KT CAVOK M24/M26 Q0998', 'EFSA 061720Z AUTO 00000KT CAVOK M23/M25 Q0998', 'EFSA 061650Z AUTO VRB01KT CAVOK M22/M23 Q0998', 'EFSA 061620Z AUTO VRB01KT 9999 -SHSN NCD M22/M23 Q0998', 'EFSA 061550Z VRB01KT CAVOK M19/M20 Q0998', 'EFSA 061520Z VRB01KT CAVOK M20/M22 Q0998', 'EFSA 061450Z VRB01KT CAVOK M19/M20 Q0998', 'EFSA 061420Z 05002KT CAVOK M17/M18 Q0998', 'EFSA 061350Z AUTO 06003KT CAVOK M14/M17 Q0998', 'EFSA 061320Z AUTO 07003KT CAVOK M14/M17 Q0998', 'EFSA 061250Z AUTO 06005KT 9999 -SHSN NCD M13/M16 Q0998', 'EFSA 061220Z 04005KT 9999 FEW007 M13/M16 Q0997', 'EFSA 061150Z 05006KT 9999 SCT006 M13/M16 Q0997', 'EFSA 061120Z 04003KT 9999 -SN SCT007 M13/M16 Q0997', 'EFSA 061050Z AUTO 03005KT 7000 -SHSN FEW011 M13/M16 Q0997', 'EFSA 061020Z AUTO 04005KT 9999 -SHSN NCD M13/M16 Q0997', 'EFSA 060950Z AUTO 02003KT 9999 -SHSN NCD M13/M16 Q0997', 'EFSA 060920Z AUTO 31003KT 9999 -SN SCT018 M14/M17 Q0997', 'EFSA 060850Z AUTO 31002KT 5000 2000 -SN SCT011 BKN013 M15/M17 Q0997', 'EFSA 060820Z AUTO 30002KT 6000 -SN OVC017 M15/M17 Q0997', 'EFSA 060750Z AUTO 29002KT 4500 -SN OVC016 M16/M18 Q0997', 'EFSA 060720Z 01002KT 6000 -SN BKN014 M18/M19 Q0996', 'EFSA 060650Z 02002KT 7000 -SN BKN014 M16/M18 Q0996', 'EFSA 060620Z VRB01KT 9999 SCT010 M16/M18 Q0996', 'EFSA 060550Z AUTO 03003KT CAVOK M16/M18 Q0996', 'EFSA 060520Z 02003KT CAVOK M15/M17 Q0996', 'EFSA 060450Z VRB02KT 9999 -SHSN NSC M16/M19 Q0995', 'EFSA 060420Z 05003KT CAVOK M15/M16 Q0995', 'EFSA 060350Z AUTO 03006KT 9999 -SHSN NCD M14/M16 Q0995', 'EFSA 060320Z AUTO 03007KT CAVOK M14/M16 Q0995', 'EFSA 060250Z AUTO 04005KT 9999 -SN BKN012 M13/M15 Q0995', 'EFSA 060220Z AUTO 03004KT 9999 -SN SCT043 M13/M15 Q0994', 'EFSA 060150Z AUTO 03004KT 9999 -SN FEW040 M12/M14 Q0994', 'EFSA 060120Z AUTO 05006KT 9999 -SN FEW044 M12/M14 Q0994', 'EFSA 060050Z AUTO 05007KT 9999 -SN NSC M12/M14 Q0994', 'EFSA 060020Z AUTO 04007KT 9999 -SN FEW012 M11/M14 Q0993', 'EFSA 052350Z AUTO 04009KT 9999 -SN FEW016 M11/M13 Q0993', 'EFSA 052320Z AUTO 04009KT 9000 -SN FEW010 M10/M13 Q0993', 'EFSA 052250Z AUTO 04008KT 9999 -SN OVC010 M10/M12 Q0992', 'EFSA 052220Z AUTO 03007KT 9999 -SN OVC010 M09/M11 Q0992', 'EFSA 052150Z AUTO 04007KT 9999 -SN OVC011 M09/M11 Q0991', 'EFSA 052120Z AUTO 05008KT 9999 -SN OVC011 M09/M11 Q0991', 'EFSA 052050Z AUTO 05008KT 9999 -SN OVC011 M09/M11 Q0991']","['2024-02-08 20:20:00', '2024-02-08 19:50:00', '2024-02-08 19:20:00', '2024-02-08 18:50:00', '2024-02-08 18:20:00', '2024-02-08 17:50:00', '2024-02-08 17:20:00', '2024-02-08 16:50:00', '2024-02-08 16:20:00', '2024-02-08 15:50:00', '2024-02-08 15:20:00', '2024-02-08 14:50:00', '2024-02-08 14:20:00', '2024-02-08 13:50:00', '2024-02-08 13:20:00', '2024-02-08 12:50:00', '2024-02-08 12:20:00', '2024-02-08 11:50:00', '2024-02-08 11:20:00', '2024-02-08 10:50:00', '2024-02-08 10:20:00', '2024-02-08 09:50:00', '2024-02-08 09:20:00', '2024-02-08 08:50:00', '2024-02-08 08:20:00', '2024-02-08 07:50:00', '2024-02-08 07:20:00', '2024-02-08 06:50:00', '2024-02-08 06:20:00', '2024-02-08 05:50:00', '2024-02-08 05:20:00', '2024-02-08 04:50:00', '2024-02-08 04:20:00', '2024-02-08 03:50:00', '2024-02-08 03:20:00', '2024-02-08 02:50:00', '2024-02-08 02:20:00', '2024-02-08 01:50:00', '2024-02-08 01:20:00', '2024-02-08 00:50:00', '2024-02-08 00:20:00', '2024-02-07 23:50:00', '2024-02-07 23:20:00', '2024-02-07 22:50:00', '2024-02-07 22:20:00', '2024-02-07 21:50:00', '2024-02-07 21:20:00', '2024-02-07 20:50:00', '2024-02-07 20:20:00', '2024-02-07 19:50:00', '2024-02-07 19:20:00', '2024-02-07 18:50:00', '2024-02-07 18:20:00', '2024-02-07 17:50:00', '2024-02-07 17:20:00', '2024-02-07 16:50:00', '2024-02-07 16:20:00', '2024-02-07 15:50:00', '2024-02-07 15:20:00', '2024-02-07 14:50:00', '2024-02-07 14:20:00', '2024-02-07 13:50:00', '2024-02-07 13:20:00', '2024-02-07 12:50:00', '2024-02-07 12:20:00', '2024-02-07 11:50:00', '2024-02-07 11:20:00', '2024-02-07 10:50:00', '2024-02-07 10:20:00', '2024-02-07 09:50:00', '2024-02-07 09:20:00', '2024-02-07 08:50:00', '2024-02-07 08:20:00', '2024-02-07 07:50:00', '2024-02-07 07:20:00', '2024-02-07 06:50:00', '2024-02-07 06:20:00', '2024-02-07 05:50:00', '2024-02-07 05:20:00', '2024-02-07 04:50:00', '2024-02-07 04:20:00', '2024-02-07 03:50:00', '2024-02-07 03:20:00', '2024-02-07 02:50:00', '2024-02-07 02:20:00', '2024-02-07 01:50:00', '2024-02-07 01:20:00', '2024-02-07 00:50:00', '2024-02-07 00:20:00', '2024-02-06 23:50:00', '2024-02-06 23:20:00', '2024-02-06 22:50:00', '2024-02-06 22:20:00', '2024-02-06 21:50:00', '2024-02-06 21:20:00', '2024-02-06 20:50:00', '2024-02-06 20:20:00', '2024-02-06 19:50:00', '2024-02-06 19:20:00', '2024-02-06 18:50:00', '2024-02-06 18:20:00', '2024-02-06 17:50:00', '2024-02-06 17:20:00', '2024-02-06 16:50:00', '2024-02-06 16:20:00', '2024-02-06 15:50:00', '2024-02-06 15:20:00', '2024-02-06 14:50:00', '2024-02-06 14:20:00', '2024-02-06 13:50:00', '2024-02-06 13:20:00', '2024-02-06 12:50:00', '2024-02-06 12:20:00', '2024-02-06 11:50:00', '2024-02-06 11:20:00', '2024-02-06 10:50:00', '2024-02-06 10:20:00', '2024-02-06 09:50:00', '2024-02-06 09:20:00', '2024-02-06 08:50:00', '2024-02-06 08:20:00', '2024-02-06 07:50:00', '2024-02-06 07:20:00', '2024-02-06 06:50:00', '2024-02-06 06:20:00', '2024-02-06 05:50:00', '2024-02-06 05:20:00', '2024-02-06 04:50:00', '2024-02-06 04:20:00', '2024-02-06 03:50:00', '2024-02-06 03:20:00', '2024-02-06 02:50:00', '2024-02-06 02:20:00', '2024-02-06 01:50:00', '2024-02-06 01:20:00', '2024-02-06 00:50:00', '2024-02-06 00:20:00', '2024-02-05 23:50:00', '2024-02-05 23:20:00', '2024-02-05 22:50:00', '2024-02-05 22:20:00', '2024-02-05 21:50:00', '2024-02-05 21:20:00', '2024-02-05 20:50:00']"
Finland, Seinajoki Airport (SJY/EFSI) ,"['EFSI 082020Z AUTO 13007KT CAVOK M23/M25 Q1006', 'EFSI 081950Z AUTO 13007KT CAVOK M22/M24 Q1006', 'EFSI 081920Z AUTO 13005KT CAVOK M21/M24 Q1005', 'EFSI 081850Z AUTO 13006KT CAVOK M21/M24 Q1005', 'EFSI 081820Z AUTO 13007KT CAVOK M20/M22 Q1005', 'EFSI 081750Z AUTO 14007KT CAVOK M21/M23 Q1005', 'EFSI 081720Z AUTO 14007KT CAVOK M20/M22 Q1004', 'EFSI 081650Z AUTO 14007KT CAVOK M20/M21 Q1004', 'EFSI 081620Z AUTO 13007KT CAVOK M20/M22 Q1004', 'EFSI 081550Z AUTO 12006KT CAVOK M19/M20 Q1004', 'EFSI 081520Z AUTO 13004KT CAVOK M18/M20 Q1004', 'EFSI 081450Z AUTO 12006KT CAVOK M17/M19 Q1003', 'EFSI 081420Z AUTO 12006KT CAVOK M18/M20 Q1003', 'EFSI 081350Z AUTO 14007KT CAVOK M18/M21 Q1003', 'EFSI 081320Z AUTO 14006KT CAVOK M17/M20 Q1003', 'EFSI 081250Z AUTO 14008KT CAVOK M18/M20 Q1003', 'EFSI 081220Z AUTO 13008KT 9999 -SHSN NCD M18/M20 Q1003', 'EFSI 081150Z AUTO 14010KT 9999 -SHSN NCD M17/M20 Q1003', 'EFSI 081120Z AUTO 14008KT 9999 -SHSN NCD M19/M21 Q1002', 'EFSI 081050Z AUTO 14009KT 9999 -SHSN NCD M19/M22 Q1002', 'EFSI 081020Z AUTO 14009KT 9999 -SHSN NCD M20/M22 Q1002', 'EFSI 080950Z AUTO 14008KT 9999 -SHSN NCD M21/M24 Q1002', 'EFSI 080920Z AUTO 13010KT 9999 -SHSN NCD M22/M25 Q1002', 'EFSI 080850Z AUTO 13008KT 9999 -SHSN NCD M23/M26 Q1002', 'EFSI 080820Z AUTO 14008KT 9999 // //////CB M24/M27 Q1002', 'EFSI 080750Z AUTO 14008KT 9999 -SHSN //////CB M25/M27 Q1001', 'EFSI 080720Z AUTO 14009KT CAVOK M25/M28 Q1001', 'EFSI 080650Z AUTO 14006KT CAVOK M25/M28 Q1001', 'EFSI 080620Z AUTO 14009KT CAVOK M25/M27 Q1001', 'EFSI 080550Z AUTO 14007KT CAVOK M26/M28 Q1000', 'EFSI 080520Z AUTO 13008KT 9999 -SN NCD M26/M28 Q1000', 'EFSI 080450Z AUTO 13006KT CAVOK M25/M27 Q1000', 'EFSI 080420Z AUTO 14007KT CAVOK M26/M28 Q1000', 'EFSI 080350Z AUTO 14007KT 9999 -SHSN NCD M26/M28 Q1000', 'EFSI 080320Z AUTO 14007KT CAVOK M26/M28 Q0999', 'EFSI 080250Z AUTO 13007KT CAVOK M26/M28 Q0999', 'EFSI 080220Z AUTO 13007KT CAVOK M25/M28 Q0999', 'EFSI 080150Z AUTO 14006KT CAVOK M25/M27 Q0999', 'EFSI 080120Z AUTO 14005KT CAVOK M24/M26 Q0999', 'EFSI 080050Z AUTO 13005KT CAVOK M24/M26 Q0999', 'EFSI 080020Z AUTO 13005KT CAVOK M24/M26 Q0998', 'EFSI 072350Z AUTO 14005KT CAVOK M23/M25 Q0998', 'EFSI 072320Z AUTO 13005KT CAVOK M23/M26 Q0998', 'EFSI 072250Z AUTO 12004KT CAVOK M24/M26 Q0998', 'EFSI 072220Z AUTO 13004KT CAVOK M23/M25 Q0998', 'EFSI 072150Z AUTO 14005KT CAVOK M23/M25 Q0997', 'EFSI 072120Z AUTO 13004KT CAVOK M23/M25 Q0997', 'EFSI 072050Z AUTO 12004KT CAVOK M22/M25 Q0997', 'EFSI 072020Z AUTO 11004KT CAVOK M22/M24 Q0997', 'EFSI 071950Z AUTO 11004KT CAVOK M21/M23 Q0997', 'EFSI 071920Z AUTO 12004KT CAVOK M22/M24 Q0997', 'EFSI 071850Z AUTO 12005KT CAVOK M22/M24 Q0997', 'EFSI 071820Z AUTO 11005KT CAVOK M20/M22 Q0997', 'EFSI 071750Z AUTO 11003KT CAVOK M21/M23 Q0996', 'EFSI 071720Z AUTO 11002KT CAVOK M21/M22 Q0996', 'EFSI 071650Z AUTO 12002KT CAVOK M20/M22 Q0996', 'EFSI 071620Z AUTO 10002KT CAVOK M19/M21 Q0996', 'EFSI 071550Z AUTO 09003KT CAVOK M19/M21 Q0995', 'EFSI 071520Z AUTO 11002KT CAVOK M18/M20 Q0996', 'EFSI 071450Z AUTO 10002KT CAVOK M17/M19 Q0995', 'EFSI 071420Z AUTO 09002KT CAVOK M15/M17 Q0995', 'EFSI 071350Z AUTO 12002KT CAVOK M14/M16 Q0995', 'EFSI 071320Z AUTO 11003KT 060V130 CAVOK M14/M17 Q0995', 'EFSI 071250Z AUTO 12003KT 090V150 CAVOK M14/M16 Q0995', 'EFSI 071220Z AUTO 14003KT CAVOK M14/M16 Q0995', 'EFSI 071150Z AUTO 15004KT 9999 -SN NCD M14/M17 Q0994', 'EFSI 071120Z AUTO 15004KT 9999 -SN NCD M15/M17 Q0994', 'EFSI 071050Z AUTO 14003KT 9999 -SN BKN024 M15/M17 Q0994', 'EFSI 071020Z AUTO 14005KT 9999 -SN OVC024 M15/M18 Q0994', 'EFSI 070950Z AUTO 15005KT 7000 -SN OVC024 M15/M18 Q0994', 'EFSI 070920Z AUTO 12004KT 9999 -SN OVC023 M16/M18 Q0994', 'EFSI 070850Z AUTO 10005KT 070V130 9999 -SN OVC023 M16/M18 Q0994', 'EFSI 070820Z AUTO 11004KT 9999 -SN OVC024 M16/M18 Q0994', 'EFSI 070750Z AUTO 10003KT 9999 -SN OVC025 M17/M19 Q0994', 'EFSI 070720Z AUTO VRB02KT 9999 -SN OVC026 M17/M19 Q0994', 'EFSI 070650Z AUTO 08002KT 9999 -SN OVC026 M17/M19 Q0994', 'EFSI 070620Z AUTO 07003KT 9999 -SN OVC027 M17/M19 Q0994', 'EFSI 070550Z AUTO VRB01KT 9999 -SN OVC028 M19/M21 Q0993', 'EFSI 070520Z AUTO VRB01KT 9999 -SN OVC029 M19/M22 Q0993', 'EFSI 070450Z AUTO 10002KT 9999 -SHSN OVC031 M20/M22 Q0993', 'EFSI 070420Z AUTO 10002KT 9999 -SHSN OVC031 M21/M23 Q0993', 'EFSI 070350Z AUTO 00000KT 9999 -SHSN BKN032 M21/M23 Q0993', 'EFSI 070320Z AUTO 11002KT 9999 SCT032 M21/M23 Q0993', 'EFSI 070250Z AUTO 11002KT 9999 -SN NCD M21/M23 Q0993', 'EFSI 070220Z AUTO 09002KT 9999 -SHSN NCD M21/M23 Q0993', 'EFSI 070150Z AUTO 11003KT 9999 -SHSN NCD M20/M23 Q0994', 'EFSI 070120Z AUTO 10002KT 9999 -SHSN NCD M21/M23 Q0994', 'EFSI 070050Z AUTO 11002KT 9999 -SN NCD M20/M22 Q0994', 'EFSI 070020Z AUTO 11002KT CAVOK M20/M22 Q0994', 'EFSI 062350Z AUTO 12001KT CAVOK M19/M21 Q0994', 'EFSI 062320Z AUTO VRB01KT CAVOK M18/M20 Q0994', 'EFSI 062250Z AUTO 12002KT 9999 -SHSN NCD M17/M19 Q0995', 'EFSI 062220Z AUTO 10002KT 9999 -SN NSC M17/M18 Q0995', 'EFSI 062150Z AUTO 09002KT 9999 -SHSN NSC M15/M17 Q0995', 'EFSI 062120Z AUTO 00000KT 9999 -SHSN FEW026 M15/M17 Q0995', 'EFSI 062050Z AUTO 20001KT 9999 -SHSN NSC M15/M17 Q0995', 'EFSI 062020Z AUTO 11002KT 9999 -SHSN FEW020 M15/M17 Q0996', 'EFSI 061950Z AUTO 11002KT CAVOK M15/M17 Q0996', 'EFSI 061920Z AUTO 13003KT 9999 -SHSN FEW013 M14/M16 Q0996', 'EFSI 061850Z AUTO 14003KT CAVOK M15/M17 Q0996', 'EFSI 061820Z AUTO 08002KT 9999 -SHSN NSC M15/M16 Q0996', 'EFSI 061750Z AUTO 12002KT CAVOK M15/M16 Q0996', 'EFSI 061720Z AUTO 14001KT CAVOK M15/M16 Q0996', 'EFSI 061650Z AUTO VRB02KT CAVOK M15/M16 Q0997', 'EFSI 061620Z AUTO 00000KT CAVOK M14/M16 Q0997', 'EFSI 061550Z AUTO 00000KT CAVOK M14/M15 Q0997', 'EFSI 061520Z AUTO VRB01KT CAVOK M13/M15 Q0997', 'EFSI 061450Z AUTO 31001KT CAVOK M13/M15 Q0997', 'EFSI 061420Z AUTO VRB01KT 9999 -SHSN NSC M11/M13 Q0997', 'EFSI 061350Z AUTO VRB02KT CAVOK M11/M13 Q0998', 'EFSI 061320Z AUTO VRB01KT CAVOK M11/M13 Q0998', 'EFSI 061250Z AUTO 31002KT CAVOK M12/M13 Q0998', 'EFSI 061220Z AUTO VRB01KT 9000 -SHSN NSC M12/M14 Q0998', 'EFSI 061150Z AUTO VRB01KT 9999 -SHSN NSC M12/M14 Q0998', 'EFSI 061120Z AUTO 00000KT 9999 -SHSN NSC M12/M14 Q0998', 'EFSI 061050Z AUTO VRB01KT CAVOK M12/M14 Q0998', 'EFSI 061020Z AUTO VRB02KT 9999 -SHSN NSC M13/M15 Q0998', 'EFSI 060950Z AUTO 30003KT 3300 -SN SCT016 M14/M16 Q0998', 'EFSI 060920Z AUTO 30003KT 8000 -SHSN BKN018 M15/M16 Q0998', 'EFSI 060850Z AUTO 29003KT 9999 -SHSN BKN019 M15/M16 Q0998', 'EFSI 060820Z AUTO 30002KT 9999 SCT018 M17/M19 Q0998', 'EFSI 060750Z AUTO VRB01KT CAVOK M17/M19 Q0998', 'EFSI 060720Z AUTO VRB01KT CAVOK M18/M20 Q0998', 'EFSI 060650Z AUTO 31002KT CAVOK M18/M20 Q0998', 'EFSI 060620Z AUTO 28002KT 9999 //////CB M17/M19 Q0998', 'EFSI 060550Z AUTO 30003KT 9999 SCT045 //////CB M17/M18 Q0998', 'EFSI 060520Z AUTO 33002KT 9999 FEW045 //////CB M16/M18 Q0998', 'EFSI 060450Z AUTO 34002KT CAVOK M15/M16 Q0998', 'EFSI 060420Z AUTO 35003KT CAVOK M14/M15 Q0997', 'EFSI 060350Z AUTO 35003KT 9999 //////CB M13/M15 Q0997', 'EFSI 060320Z AUTO VRB02KT 9999 //////CB M12/M13 Q0997', 'EFSI 060250Z AUTO 01004KT 330V050 CAVOK M11/M13 Q0997', 'EFSI 060220Z AUTO 01003KT 340V040 9999 -SHSN NCD M11/M12 Q0997', 'EFSI 060150Z AUTO 01006KT 320V050 9999 -SN FEW010 SCT037 M10/M12 Q0997', 'EFSI 060120Z AUTO 02006KT 340V070 9999 -SN BKN011 OVC036 M08/M11 Q0996', 'EFSI 060050Z AUTO 03004KT 340V080 9999 -SN OVC011 M08/M10 Q0996', 'EFSI 060020Z AUTO 01004KT 330V060 9999 -SN OVC013 M07/M10 Q0996', 'EFSI 052350Z AUTO 36005KT 330V040 9999 -SN OVC010 M07/M10 Q0996', 'EFSI 052320Z AUTO 36005KT 330V040 9999 -SHSN OVC009 M07/M09 Q0996', 'EFSI 052250Z AUTO 36005KT 310V060 9999 -SHSN OVC010 M06/M08 Q0995', 'EFSI 052220Z AUTO 35005KT 320V030 9999 -SN BKN011 OVC038 M06/M08 Q0995', 'EFSI 052150Z AUTO 34006KT 320V020 9999 -SHSN BKN010 OVC040 M06/M08 Q0994', 'EFSI 052120Z AUTO 34006KT 9999 -SHSN OVC010 M06/M08 Q0994', 'EFSI 052050Z AUTO 34005KT 9999 -SHSN BKN010 OVC040 M06/M08 Q0994']","['2024-02-08 20:20:00', '2024-02-08 19:50:00', '2024-02-08 19:20:00', '2024-02-08 18:50:00', '2024-02-08 18:20:00', '2024-02-08 17:50:00', '2024-02-08 17:20:00', '2024-02-08 16:50:00', '2024-02-08 16:20:00', '2024-02-08 15:50:00', '2024-02-08 15:20:00', '2024-02-08 14:50:00', '2024-02-08 14:20:00', '2024-02-08 13:50:00', '2024-02-08 13:20:00', '2024-02-08 12:50:00', '2024-02-08 12:20:00', '2024-02-08 11:50:00', '2024-02-08 11:20:00', '2024-02-08 10:50:00', '2024-02-08 10:20:00', '2024-02-08 09:50:00', '2024-02-08 09:20:00', '2024-02-08 08:50:00', '2024-02-08 08:20:00', '2024-02-08 07:50:00', '2024-02-08 07:20:00', '2024-02-08 06:50:00', '2024-02-08 06:20:00', '2024-02-08 05:50:00', '2024-02-08 05:20:00', '2024-02-08 04:50:00', '2024-02-08 04:20:00', '2024-02-08 03:50:00', '2024-02-08 03:20:00', '2024-02-08 02:50:00', '2024-02-08 02:20:00', '2024-02-08 01:50:00', '2024-02-08 01:20:00', '2024-02-08 00:50:00', '2024-02-08 00:20:00', '2024-02-07 23:50:00', '2024-02-07 23:20:00', '2024-02-07 22:50:00', '2024-02-07 22:20:00', '2024-02-07 21:50:00', '2024-02-07 21:20:00', '2024-02-07 20:50:00', '2024-02-07 20:20:00', '2024-02-07 19:50:00', '2024-02-07 19:20:00', '2024-02-07 18:50:00', '2024-02-07 18:20:00', '2024-02-07 17:50:00', '2024-02-07 17:20:00', '2024-02-07 16:50:00', '2024-02-07 16:20:00', '2024-02-07 15:50:00', '2024-02-07 15:20:00', '2024-02-07 14:50:00', '2024-02-07 14:20:00', '2024-02-07 13:50:00', '2024-02-07 13:20:00', '2024-02-07 12:50:00', '2024-02-07 12:20:00', '2024-02-07 11:50:00', '2024-02-07 11:20:00', '2024-02-07 10:50:00', '2024-02-07 10:20:00', '2024-02-07 09:50:00', '2024-02-07 09:20:00', '2024-02-07 08:50:00', '2024-02-07 08:20:00', '2024-02-07 07:50:00', '2024-02-07 07:20:00', '2024-02-07 06:50:00', '2024-02-07 06:20:00', '2024-02-07 05:50:00', '2024-02-07 05:20:00', '2024-02-07 04:50:00', '2024-02-07 04:20:00', '2024-02-07 03:50:00', '2024-02-07 03:20:00', '2024-02-07 02:50:00', '2024-02-07 02:20:00', '2024-02-07 01:50:00', '2024-02-07 01:20:00', '2024-02-07 00:50:00', '2024-02-07 00:20:00', '2024-02-06 23:50:00', '2024-02-06 23:20:00', '2024-02-06 22:50:00', '2024-02-06 22:20:00', '2024-02-06 21:50:00', '2024-02-06 21:20:00', '2024-02-06 20:50:00', '2024-02-06 20:20:00', '2024-02-06 19:50:00', '2024-02-06 19:20:00', '2024-02-06 18:50:00', '2024-02-06 18:20:00', '2024-02-06 17:50:00', '2024-02-06 17:20:00', '2024-02-06 16:50:00', '2024-02-06 16:20:00', '2024-02-06 15:50:00', '2024-02-06 15:20:00', '2024-02-06 14:50:00', '2024-02-06 14:20:00', '2024-02-06 13:50:00', '2024-02-06 13:20:00', '2024-02-06 12:50:00', '2024-02-06 12:20:00', '2024-02-06 11:50:00', '2024-02-06 11:20:00', '2024-02-06 10:50:00', '2024-02-06 10:20:00', '2024-02-06 09:50:00', '2024-02-06 09:20:00', '2024-02-06 08:50:00', '2024-02-06 08:20:00', '2024-02-06 07:50:00', '2024-02-06 07:20:00', '2024-02-06 06:50:00', '2024-02-06 06:20:00', '2024-02-06 05:50:00', '2024-02-06 05:20:00', '2024-02-06 04:50:00', '2024-02-06 04:20:00', '2024-02-06 03:50:00', '2024-02-06 03:20:00', '2024-02-06 02:50:00', '2024-02-06 02:20:00', '2024-02-06 01:50:00', '2024-02-06 01:20:00', '2024-02-06 00:50:00', '2024-02-06 00:20:00', '2024-02-05 23:50:00', '2024-02-05 23:20:00', '2024-02-05 22:50:00', '2024-02-05 22:20:00', '2024-02-05 21:50:00', '2024-02-05 21:20:00', '2024-02-05 20:50:00']"
Finland, Tampere Pirkkala Airport (TMP/EFTP) ,"['EFTP 082020Z AUTO 05003KT CAVOK M22/M24 Q1006', 'EFTP 081950Z AUTO 04004KT CAVOK M20/M22 Q1005', 'EFTP 081920Z AUTO 05003KT CAVOK M19/M22 Q1005', 'EFTP 081850Z AUTO 06003KT CAVOK M20/M22 Q1005', 'EFTP 081820Z AUTO 06004KT CAVOK M19/M21 Q1004', 'EFTP 081750Z AUTO 07004KT CAVOK M20/M22 Q1004', 'EFTP 081720Z AUTO 07003KT CAVOK M19/M21 Q1004', 'EFTP 081650Z AUTO VRB01KT CAVOK M20/M22 Q1004', 'EFTP 081620Z AUTO VRB02KT CAVOK M20/M22 Q1004', 'EFTP 081550Z AUTO 05002KT CAVOK M18/M20 Q1004', 'EFTP 081520Z AUTO 07004KT CAVOK M19/M21 Q1003', 'EFTP 081450Z AUTO 07003KT CAVOK M17/M20 Q1003', 'EFTP 081420Z AUTO 08005KT CAVOK M16/M19 Q1003', 'EFTP 081350Z AUTO 09005KT CAVOK M16/M19 Q1003', 'EFTP 081320Z 07004KT CAVOK M16/M19 Q1003', 'EFTP 081250Z 08003KT CAVOK M16/M19 Q1003', 'EFTP 081220Z 08004KT CAVOK M16/M19 Q1002', 'EFTP 081150Z 08004KT CAVOK M16/M19 Q1002', 'EFTP 081120Z 07003KT CAVOK M17/M20 Q1002', 'EFTP 081050Z 07003KT CAVOK M18/M20 Q1002', 'EFTP 081020Z 06003KT CAVOK M18/M20 Q1002', 'EFTP 080950Z 06003KT CAVOK M19/M21 Q1002', 'EFTP 080920Z 07004KT CAVOK M20/M22 Q1002', 'EFTP 080850Z 06004KT CAVOK M20/M23 Q1001', 'EFTP 080820Z 06003KT CAVOK M21/M24 Q1001', 'EFTP 080750Z 06003KT CAVOK M23/M26 Q1001', 'EFTP 080720Z 07003KT CAVOK M23/M26 Q1001', 'EFTP 080650Z VRB02KT CAVOK M26/M29 Q1000', 'EFTP 080620Z 07002KT CAVOK M26/M29 Q1000', 'EFTP 080550Z AUTO 06002KT CAVOK M26/M29 Q1000', 'EFTP 080520Z AUTO VRB01KT CAVOK M26/M28 Q1000', 'EFTP 080450Z AUTO VRB01KT CAVOK M24/M27 Q1000', 'EFTP 080420Z AUTO 05001KT 9999 -SHSN NCD M25/M28 Q0999', 'EFTP 080350Z AUTO VRB01KT CAVOK M25/M27 Q0999', 'EFTP 080320Z AUTO VRB01KT 9999 -SHSN FEW035 M24/M27 Q0999', 'EFTP 080250Z AUTO VRB01KT 9999 -SN BKN037 M24/M27 Q0999', 'EFTP 080220Z AUTO 00000KT CAVOK M25/M27 Q0999', 'EFTP 080150Z AUTO 06001KT 9999 -SHSN NCD M25/M28 Q0998', 'EFTP 080120Z AUTO VRB01KT CAVOK M24/M27 Q0998', 'EFTP 080050Z AUTO VRB01KT CAVOK M25/M27 Q0998', 'EFTP 080020Z AUTO VRB01KT CAVOK M24/M27 Q0998', 'EFTP 072350Z AUTO 08001KT CAVOK M24/M26 Q0998', 'EFTP 072320Z AUTO 07001KT CAVOK M25/M27 Q0997', 'EFTP 072250Z AUTO VRB01KT CAVOK M23/M25 Q0997', 'EFTP 072220Z AUTO 06002KT CAVOK M24/M26 Q0997', 'EFTP 072150Z AUTO 06002KT CAVOK M23/M26 Q0997', 'EFTP 072120Z AUTO 09002KT CAVOK M24/M26 Q0997', 'EFTP 072050Z AUTO VRB01KT CAVOK M22/M25 Q0996', 'EFTP 072020Z AUTO VRB01KT CAVOK M22/M24 Q0996', 'EFTP 071950Z AUTO VRB01KT CAVOK M22/M24 Q0996', 'EFTP 071920Z AUTO 00000KT CAVOK M21/M23 Q0996', 'EFTP 071850Z AUTO VRB01KT 9999 -SHSN NCD M21/M23 Q0996', 'EFTP 071820Z AUTO VRB01KT CAVOK M20/M22 Q0995', 'EFTP 071750Z AUTO VRB01KT CAVOK M19/M21 Q0996', 'EFTP 071720Z AUTO VRB01KT CAVOK M19/M20 Q0995', 'EFTP 071650Z AUTO VRB01KT CAVOK M18/M20 Q0995', 'EFTP 071620Z AUTO 00000KT 9999 -SHSN NCD M17/M19 Q0995', 'EFTP 071550Z AUTO 04002KT 9999 -SHSN FEW015 M15/M17 Q0995', 'EFTP 071520Z AUTO 04004KT 9999 -SN BKN016 M14/M17 Q0994', 'EFTP 071450Z AUTO 02003KT 350V050 9999 -SN FEW017 M14/M17 Q0994', 'EFTP 071420Z AUTO 01003KT CAVOK M13/M17 Q0994', 'EFTP 071350Z AUTO 36004KT CAVOK M13/M16 Q0994', 'EFTP 071320Z 04004KT 360V070 9999 FEW030 M12/M17 Q0994', 'EFTP 071250Z 06006KT CAVOK M13/M17 Q0993', 'EFTP 071220Z 04005KT 360V080 CAVOK M12/M16 Q0993', 'EFTP 071150Z 06005KT 030V090 CAVOK M12/M16 Q0993', 'EFTP 071120Z 07006KT 9999 FEW035 M12/M16 Q0993', 'EFTP 071050Z 06006KT 9999 FEW035 M12/M16 Q0993', 'EFTP 071020Z 07007KT 9999 FEW035 M13/M16 Q0993', 'EFTP 070950Z 07007KT 9999 -SN FEW034 M13/M16 Q0993', 'EFTP 070920Z 06006KT 9999 -SN SCT040 M13/M15 Q0993', 'EFTP 070850Z 05005KT 9999 SCT040 M13/M16 Q0992', 'EFTP 070820Z 04004KT 9999 -SN SCT040 M14/M16 Q0992', 'EFTP 070750Z 03003KT 9999 SCT043 M14/M16 Q0992', 'EFTP 070720Z 05004KT 9999 -SN BKN043 M13/M16 Q0992', 'EFTP 070650Z 04005KT 9999 -SN SCT043 M13/M15 Q0992', 'EFTP 070620Z 04005KT 9999 -SN BKN026 M13/M15 Q0992', 'EFTP 070550Z AUTO 04004KT 6000 -SN OVC029 M12/M14 Q0992', 'EFTP 070520Z AUTO 04005KT 010V070 4200 -SN OVC024 M12/M14 Q0992', 'EFTP 070450Z AUTO 04005KT 6000 -SN OVC031 M12/M14 Q0992', 'EFTP 070420Z AUTO 05005KT 8000 -SN OVC029 M12/M14 Q0992', 'EFTP 070350Z AUTO 04005KT 9999 -SN OVC029 M11/M13 Q0992', 'EFTP 070320Z AUTO 04004KT 9999 -SN OVC029 M11/M13 Q0992', 'EFTP 070250Z AUTO 05004KT 010V080 9999 -SN OVC029 M11/M13 Q0992', 'EFTP 070220Z AUTO 07004KT 9999 -SN OVC027 M11/M13 Q0992', 'EFTP 070150Z AUTO 06005KT 9999 -SN OVC028 M11/M13 Q0992', 'EFTP 070120Z AUTO 06004KT 9999 -SN OVC027 M11/M12 Q0992', 'EFTP 070050Z AUTO 06004KT 9999 -SN OVC021 M11/M12 Q0992', 'EFTP 070020Z AUTO 06004KT 9999 -SN OVC019 M10/M12 Q0993', 'EFTP 062350Z AUTO 05003KT 9999 -SN OVC023 M10/M12 Q0993', 'EFTP 062320Z AUTO 06004KT 030V090 9999 -SN OVC024 M10/M12 Q0993', 'EFTP 062250Z AUTO VRB02KT 9999 -SN OVC024 M10/M12 Q0993', 'EFTP 062220Z AUTO 09004KT 9999 -SN OVC023 M10/M12 Q0993', 'EFTP 062150Z AUTO 07005KT 9999 -SN OVC023 M10/M12 Q0993', 'EFTP 062120Z AUTO 09005KT 9999 -SN OVC020 M10/M12 Q0994', 'EFTP 062050Z AUTO 09004KT 9999 -SHSN OVC017 M10/M12 Q0994', 'EFTP 062020Z AUTO 10005KT 9999 -SHSN OVC015 M10/M12 Q0995', 'EFTP 061950Z AUTO 07002KT 9999 -SHSN BKN014 M12/M14 Q0995', 'EFTP 061920Z AUTO 07001KT 9999 -SHSN BKN016 M12/M14 Q0995', 'EFTP 061850Z AUTO 07002KT 9999 BKN016 M12/M13 Q0995', 'EFTP 061820Z AUTO 05002KT 9999 SCT013 BKN016 M11/M12 Q0995', 'EFTP 061750Z AUTO 04003KT 9999 -SHSN BKN013 M10/M12 Q0995', 'EFTP 061720Z AUTO 05002KT 9999 -SHSN OVC013 M10/M12 Q0995', 'EFTP 061650Z AUTO 05002KT 9999 -SHSN OVC013 M10/M12 Q0996', 'EFTP 061620Z AUTO VRB01KT 9999 OVC013 M10/M12 Q0996', 'EFTP 061550Z AUTO 03003KT 9999 -SHSN OVC014 M11/M12 Q0996', 'EFTP 061520Z AUTO VRB01KT 9999 OVC013 M12/M13 Q0996', 'EFTP 061450Z AUTO VRB01KT CAVOK M12/M13 Q0996', 'EFTP 061420Z AUTO VRB02KT 9999 FEW009 M10/M12 Q0997', 'EFTP 061350Z AUTO VRB02KT CAVOK M10/M12 Q0997', 'EFTP 061320Z 04003KT 9999 SCT010 M10/M12 Q0997', 'EFTP 061250Z 36004KT 9999 SCT010 M10/M12 Q0997', 'EFTP 061220Z 01003KT 330V040 9999 SCT009 M10/M13 Q0997', 'EFTP 061150Z 01004KT 330V040 9999 SCT007 M10/M13 Q0997', 'EFTP 061120Z 02003KT 350V060 9999 FEW010 M11/M13 Q0997', 'EFTP 061050Z 02004KT 9999 FEW010 M11/M13 Q0997', 'EFTP 061020Z 02004KT 9999 FEW010 M10/M13 Q0997', 'EFTP 060950Z 02003KT 340V050 9999 FEW010 M10/M12 Q0997', 'EFTP 060920Z 01004KT 330V040 9999 FEW010 M10/M12 Q0997', 'EFTP 060850Z 36004KT 320V030 9999 -SN FEW010 M10/M12 Q0997', 'EFTP 060820Z 36004KT 320V030 9999 -SN SCT010 M10/M12 Q0997', 'EFTP 060750Z 35003KT 320V030 9999 -SN SCT009 M09/M12 Q0996', 'EFTP 060720Z 36005KT 320V030 9999 -SN BKN009 M09/M11 Q0996', 'EFTP 060650Z 36004KT 9999 FEW009 BKN049 M09/M11 Q0996', 'EFTP 060620Z 01004KT 330V050 9999 FEW010 BKN048 M09/M11 Q0996', 'EFTP 060550Z AUTO 01005KT 9999 -SHSN OVC044 M08/M11 Q0996', 'EFTP 060520Z AUTO 36003KT 310V030 9999 -SHSN OVC041 M08/M10 Q0996', 'EFTP 060450Z AUTO 35004KT 320V030 9999 -SHSN OVC041 M08/M10 Q0996', 'EFTP 060420Z AUTO 35004KT 9999 OVC041 M08/M10 Q0996', 'EFTP 060350Z AUTO 34005KT 9999 -SHSN FEW011 OVC044 M07/M10 Q0995', 'EFTP 060320Z AUTO 01003KT 320V050 9999 -SHSN BKN013 M07/M09 Q0995', 'EFTP 060250Z AUTO 02003KT 340V060 9999 -SN OVC019 M07/M09 Q0995', 'EFTP 060220Z AUTO 36004KT 330V030 9999 -SN OVC016 M06/M09 Q0995', 'EFTP 060150Z AUTO 36003KT 330V030 9999 -SHSN OVC022 M06/M09 Q0995', 'EFTP 060120Z AUTO VRB02KT 9999 -SHSN BKN021 M06/M09 Q0995', 'EFTP 060050Z AUTO 02004KT 350V050 9999 -SHSN BKN015 M06/M09 Q0994', 'EFTP 060020Z AUTO 02005KT 320V050 9999 -SHSN OVC015 M06/M09 Q0994', 'EFTP 052350Z AUTO 34005KT 300V020 9999 -SHSN OVC018 M05/M09 Q0994', 'EFTP 052320Z AUTO 35006KT 320V030 9999 -SHSN OVC016 M05/M09 Q0994', 'EFTP 052250Z AUTO 36007KT 320V040 9999 -SHSN OVC014 M05/M09 Q0994', 'EFTP 052220Z AUTO 34004KT 320V020 9999 OVC016 M05/M08 Q0993', 'EFTP 052150Z AUTO 35004KT 320V020 9999 OVC017 M05/M08 Q0993', 'EFTP 052120Z AUTO 35006KT 310V020 9999 OVC015 M05/M09 Q0993', 'EFTP 052050Z AUTO 36006KT 330V050 9999 OVC013 M05/M08 Q0992']","['2024-02-08 20:20:00', '2024-02-08 19:50:00', '2024-02-08 19:20:00', '2024-02-08 18:50:00', '2024-02-08 18:20:00', '2024-02-08 17:50:00', '2024-02-08 17:20:00', '2024-02-08 16:50:00', '2024-02-08 16:20:00', '2024-02-08 15:50:00', '2024-02-08 15:20:00', '2024-02-08 14:50:00', '2024-02-08 14:20:00', '2024-02-08 13:50:00', '2024-02-08 13:20:00', '2024-02-08 12:50:00', '2024-02-08 12:20:00', '2024-02-08 11:50:00', '2024-02-08 11:20:00', '2024-02-08 10:50:00', '2024-02-08 10:20:00', '2024-02-08 09:50:00', '2024-02-08 09:20:00', '2024-02-08 08:50:00', '2024-02-08 08:20:00', '2024-02-08 07:50:00', '2024-02-08 07:20:00', '2024-02-08 06:50:00', '2024-02-08 06:20:00', '2024-02-08 05:50:00', '2024-02-08 05:20:00', '2024-02-08 04:50:00', '2024-02-08 04:20:00', '2024-02-08 03:50:00', '2024-02-08 03:20:00', '2024-02-08 02:50:00', '2024-02-08 02:20:00', '2024-02-08 01:50:00', '2024-02-08 01:20:00', '2024-02-08 00:50:00', '2024-02-08 00:20:00', '2024-02-07 23:50:00', '2024-02-07 23:20:00', '2024-02-07 22:50:00', '2024-02-07 22:20:00', '2024-02-07 21:50:00', '2024-02-07 21:20:00', '2024-02-07 20:50:00', '2024-02-07 20:20:00', '2024-02-07 19:50:00', '2024-02-07 19:20:00', '2024-02-07 18:50:00', '2024-02-07 18:20:00', '2024-02-07 17:50:00', '2024-02-07 17:20:00', '2024-02-07 16:50:00', '2024-02-07 16:20:00', '2024-02-07 15:50:00', '2024-02-07 15:20:00', '2024-02-07 14:50:00', '2024-02-07 14:20:00', '2024-02-07 13:50:00', '2024-02-07 13:20:00', '2024-02-07 12:50:00', '2024-02-07 12:20:00', '2024-02-07 11:50:00', '2024-02-07 11:20:00', '2024-02-07 10:50:00', '2024-02-07 10:20:00', '2024-02-07 09:50:00', '2024-02-07 09:20:00', '2024-02-07 08:50:00', '2024-02-07 08:20:00', '2024-02-07 07:50:00', '2024-02-07 07:20:00', '2024-02-07 06:50:00', '2024-02-07 06:20:00', '2024-02-07 05:50:00', '2024-02-07 05:20:00', '2024-02-07 04:50:00', '2024-02-07 04:20:00', '2024-02-07 03:50:00', '2024-02-07 03:20:00', '2024-02-07 02:50:00', '2024-02-07 02:20:00', '2024-02-07 01:50:00', '2024-02-07 01:20:00', '2024-02-07 00:50:00', '2024-02-07 00:20:00', '2024-02-06 23:50:00', '2024-02-06 23:20:00', '2024-02-06 22:50:00', '2024-02-06 22:20:00', '2024-02-06 21:50:00', '2024-02-06 21:20:00', '2024-02-06 20:50:00', '2024-02-06 20:20:00', '2024-02-06 19:50:00', '2024-02-06 19:20:00', '2024-02-06 18:50:00', '2024-02-06 18:20:00', '2024-02-06 17:50:00', '2024-02-06 17:20:00', '2024-02-06 16:50:00', '2024-02-06 16:20:00', '2024-02-06 15:50:00', '2024-02-06 15:20:00', '2024-02-06 14:50:00', '2024-02-06 14:20:00', '2024-02-06 13:50:00', '2024-02-06 13:20:00', '2024-02-06 12:50:00', '2024-02-06 12:20:00', '2024-02-06 11:50:00', '2024-02-06 11:20:00', '2024-02-06 10:50:00', '2024-02-06 10:20:00', '2024-02-06 09:50:00', '2024-02-06 09:20:00', '2024-02-06 08:50:00', '2024-02-06 08:20:00', '2024-02-06 07:50:00', '2024-02-06 07:20:00', '2024-02-06 06:50:00', '2024-02-06 06:20:00', '2024-02-06 05:50:00', '2024-02-06 05:20:00', '2024-02-06 04:50:00', '2024-02-06 04:20:00', '2024-02-06 03:50:00', '2024-02-06 03:20:00', '2024-02-06 02:50:00', '2024-02-06 02:20:00', '2024-02-06 01:50:00', '2024-02-06 01:20:00', '2024-02-06 00:50:00', '2024-02-06 00:20:00', '2024-02-05 23:50:00', '2024-02-05 23:20:00', '2024-02-05 22:50:00', '2024-02-05 22:20:00', '2024-02-05 21:50:00', '2024-02-05 21:20:00', '2024-02-05 20:50:00']"
Finland, Turku Airport (TKU/EFTU) ,"['EFTU 082020Z AUTO 08004KT 9999 -SN BKN018 BKN024 M16/M18 Q1005', 'EFTU 081950Z AUTO 07004KT 9999 -SN BKN024 M16/M18 Q1004', 'EFTU 081920Z AUTO 07003KT 9999 -SN NCD M16/M19 Q1004', 'EFTU 081850Z AUTO 06004KT CAVOK M16/M18 Q1004', 'EFTU 081820Z AUTO 07004KT CAVOK M16/M18 Q1004', 'EFTU 081750Z AUTO 06004KT CAVOK M16/M18 Q1004', 'EFTU 081720Z AUTO 08003KT CAVOK M16/M18 Q1003', 'EFTU 081650Z AUTO 08003KT CAVOK M16/M18 Q1003', 'EFTU 081620Z AUTO 08004KT CAVOK M15/M18 Q1003', 'EFTU 081550Z AUTO 07004KT CAVOK M15/M18 Q1003', 'EFTU 081520Z AUTO 07003KT CAVOK M16/M18 Q1003', 'EFTU 081450Z AUTO 08002KT CAVOK M15/M17 Q1003', 'EFTU 081420Z AUTO 06003KT CAVOK M14/M17 Q1003', 'EFTU 081350Z AUTO 09004KT CAVOK M14/M18 Q1003', 'EFTU 081320Z AUTO 07004KT 9999 SCT046 M14/M17 Q1002', 'EFTU 081250Z AUTO 08006KT 9999 BKN046 M14/M17 Q1002', 'EFTU 081220Z AUTO 08005KT 9999 OVC046 M13/M17 Q1002', 'EFTU 081150Z AUTO 09006KT 9999 BKN046 M13/M17 Q1002', 'EFTU 081120Z AUTO 10006KT 9999 OVC041 M13/M17 Q1002', 'EFTU 081050Z AUTO 08004KT 9999 OVC043 M14/M17 Q1002', 'EFTU 081020Z AUTO 09004KT 050V110 9999 BKN042 M14/M17 Q1002', 'EFTU 080950Z AUTO 11004KT 080V140 9999 BKN041 M14/M17 Q1002', 'EFTU 080920Z AUTO 11005KT 9999 -SHSN OVC041 M15/M18 Q1002', 'EFTU 080850Z AUTO 09004KT 9999 -SHSN OVC042 M15/M18 Q1001', 'EFTU 080820Z AUTO 08004KT 9999 OVC042 M15/M18 Q1001', 'EFTU 080750Z AUTO 08004KT 9999 -SHSN OVC042 M16/M19 Q1001', 'EFTU 080720Z AUTO 09005KT 9999 -SHSN BKN042 M16/M18 Q1000', 'EFTU 080650Z AUTO 09005KT 9999 -SHSN BKN042 M16/M19 Q1000', 'EFTU 080620Z AUTO 08004KT 9999 -SHSN OVC042 M16/M18 Q1000', 'EFTU 080550Z AUTO 09005KT 9999 -SHSN OVC042 M16/M18 Q1000', 'EFTU 080520Z AUTO 09005KT 9999 -SHSN OVC042 M16/M18 Q1000', 'EFTU 080450Z AUTO 08005KT 9999 -SHSN OVC042 M16/M18 Q1000', 'EFTU 080420Z AUTO 09004KT 9999 -SHSN OVC041 M16/M18 Q0999', 'EFTU 080350Z AUTO 08003KT 9999 -SN BKN040 M16/M19 Q0999', 'EFTU 080320Z AUTO 08003KT 9999 -SHSN BKN039 M17/M19 Q0999', 'EFTU 080250Z AUTO VRB01KT 9999 -SHSN BKN038 M16/M19 Q0999', 'EFTU 080220Z AUTO VRB02KT 9999 BKN036 M16/M18 Q0999', 'EFTU 080150Z AUTO 04003KT 9999 BKN036 M16/M18 Q0999', 'EFTU 080120Z AUTO 13002KT 9999 -SHSN BKN034 M15/M17 Q0999', 'EFTU 080050Z AUTO VRB02KT 9999 -SHSN BKN032 M15/M17 Q0998', 'EFTU 080020Z AUTO 07006KT 9999 -SHSN SCT034 M15/M17 Q0998', 'EFTU 072350Z AUTO 08004KT 9999 -SHSN OVC033 M15/M17 Q0998', 'EFTU 072320Z AUTO 07003KT 9999 OVC033 M15/M17 Q0998', 'EFTU 072250Z AUTO 06002KT 9999 BKN033 M15/M17 Q0997', 'EFTU 072220Z AUTO 07002KT CAVOK M14/M16 Q0997', 'EFTU 072150Z AUTO 07002KT CAVOK M15/M16 Q0997', 'EFTU 072120Z AUTO 08003KT CAVOK M13/M15 Q0997', 'EFTU 072050Z AUTO 06003KT 9999 -SHSN BKN016 BKN038 M12/M14 Q0997', 'EFTU 072020Z AUTO 06003KT 9999 -SHSN OVC019 M11/M14 Q0997', 'EFTU 071950Z AUTO 06004KT 9999 -SN OVC021 M11/M13 Q0996', 'EFTU 071920Z AUTO 08004KT 9999 -SN OVC023 M11/M13 Q0996', 'EFTU 071850Z AUTO 08005KT 9999 -SN OVC022 M10/M13 Q0996', 'EFTU 071820Z AUTO 09004KT 9999 -SHSN OVC021 M10/M12 Q0996', 'EFTU 071750Z AUTO VRB02KT 9999 -SHSN OVC022 M09/M12 Q0996', 'EFTU 071720Z AUTO 09002KT 9999 -SHSN OVC022 M09/M12 Q0995', 'EFTU 071650Z AUTO 05003KT 9999 -SHSN OVC022 M09/M12 Q0995', 'EFTU 071620Z AUTO 06003KT 030V090 9999 -SHSN OVC021 M10/M12 Q0995', 'EFTU 071550Z AUTO VRB01KT 9999 BKN021 M11/M12 Q0995', 'EFTU 071520Z AUTO VRB01KT CAVOK M11/M13 Q0995', 'EFTU 071450Z AUTO 06002KT CAVOK M09/M12 Q0995', 'EFTU 071420Z AUTO VRB02KT CAVOK M08/M12 Q0994', 'EFTU 071350Z AUTO VRB02KT CAVOK M07/M11 Q0994', 'EFTU 071320Z AUTO 35004KT 330V030 CAVOK M08/M11 Q0994', 'EFTU 071250Z AUTO 01004KT 330V060 9999 -SHSN FEW017 SCT039 M07/M11 Q0994', 'EFTU 071220Z AUTO 36004KT 330V050 9999 -SHSN NSC M07/M11 Q0993', 'EFTU 071150Z AUTO 36004KT 330V030 9999 -SHSN NCD M07/M11 Q0993', 'EFTU 071120Z AUTO 36004KT 320V040 9999 -SHSN NCD M07/M11 Q0993', 'EFTU 071050Z AUTO 01005KT 330V050 9999 BKN045 M08/M11 Q0993', 'EFTU 071020Z AUTO 02003KT 340V070 9999 OVC046 M08/M11 Q0993', 'EFTU 070950Z AUTO VRB02KT 9999 -SN BKN046 M08/M11 Q0993', 'EFTU 070920Z AUTO 03004KT 350V060 9999 -SN OVC045 M08/M11 Q0992', 'EFTU 070850Z AUTO 02005KT 350V050 9999 -SN OVC043 M08/M11 Q0992', 'EFTU 070820Z AUTO 04004KT 360V080 9999 -SHSN OVC043 M08/M11 Q0992', 'EFTU 070750Z AUTO 03005KT 360V060 9999 -SHSN OVC042 M08/M11 Q0992', 'EFTU 070720Z AUTO 02005KT 360V060 9999 -SN OVC040 M08/M11 Q0992', 'EFTU 070650Z AUTO 03005KT 360V060 9999 -SN OVC040 M08/M10 Q0991', 'EFTU 070620Z AUTO 03004KT 360V070 9999 -SHSN OVC039 M08/M10 Q0991', 'EFTU 070550Z AUTO 04005KT 9999 -SHSN OVC030 M08/M10 Q0991', 'EFTU 070520Z AUTO 05006KT 9999 -SN BKN040 M08/M10 Q0991', 'EFTU 070450Z AUTO 06005KT 9999 -SN OVC038 M08/M10 Q0991', 'EFTU 070420Z AUTO 05004KT 020V090 9999 -SHSN OVC037 M08/M10 Q0991', 'EFTU 070350Z AUTO 06005KT 9999 -SHSN OVC036 M08/M10 Q0991', 'EFTU 070320Z AUTO 07006KT 9999 -SN OVC035 M07/M10 Q0991', 'EFTU 070250Z AUTO 06005KT 9999 -SHSN OVC033 M07/M10 Q0991', 'EFTU 070220Z AUTO 05004KT 020V080 9999 -SHSN OVC032 M07/M10 Q0991', 'EFTU 070150Z AUTO 04005KT 9999 -SHSN OVC030 M07/M10 Q0991', 'EFTU 070120Z AUTO 05005KT 9999 -SHSN OVC029 M07/M10 Q0991', 'EFTU 070050Z AUTO 06004KT 030V090 9999 -SHSN OVC028 M08/M10 Q0991', 'EFTU 070020Z AUTO 06004KT 9999 -SHSN OVC028 M08/M10 Q0992', 'EFTU 062350Z AUTO 05004KT 020V090 9999 -SHSN OVC026 M08/M10 Q0992', 'EFTU 062320Z AUTO 04004KT 9999 -SHSN OVC025 M08/M10 Q0992', 'EFTU 062250Z AUTO VRB02KT 9999 -SHSN OVC026 M08/M10 Q0992', 'EFTU 062220Z AUTO 05003KT 9999 -SN OVC026 M08/M10 Q0993', 'EFTU 062150Z AUTO 06003KT 020V100 9999 -SN OVC025 M08/M10 Q0993', 'EFTU 062120Z AUTO 05003KT 030V090 9999 -SN OVC026 M08/M10 Q0993', 'EFTU 062050Z AUTO 04004KT 9999 -SN OVC026 M08/M10 Q0994', 'EFTU 062020Z AUTO 07003KT 030V110 9999 -SN OVC023 M08/M10 Q0994', 'EFTU 061950Z AUTO 06004KT 030V100 9999 -SN OVC022 M07/M10 Q0994', 'EFTU 061920Z AUTO 07004KT 030V100 9999 -SN OVC023 M07/M10 Q0995', 'EFTU 061850Z AUTO 06005KT 9999 -SN OVC023 M07/M09 Q0995', 'EFTU 061820Z AUTO 07004KT 9999 -SN OVC022 M07/M09 Q0995', 'EFTU 061750Z AUTO 07004KT 030V120 9999 -SN OVC021 M07/M09 Q0995', 'EFTU 061720Z AUTO 09005KT 9999 -SHSN OVC020 M07/M09 Q0996', 'EFTU 061650Z AUTO 09004KT 9999 -SHSN OVC021 M06/M09 Q0996', 'EFTU 061620Z AUTO 09005KT 9999 -SHSN OVC022 M06/M09 Q0996', 'EFTU 061550Z AUTO 08004KT 050V110 9999 -SHSN OVC021 M06/M08 Q0996', 'EFTU 061520Z AUTO 09004KT 9999 -SN OVC025 M06/M08 Q0996', 'EFTU 061450Z AUTO 07003KT 9999 -SN FEW017 OVC025 M05/M08 Q0997', 'EFTU 061420Z AUTO 05003KT 010V080 9999 -SHSN OVC018 M05/M08 Q0997', 'EFTU 061350Z AUTO 34003KT 270V050 9999 -SHSN OVC022 M05/M10 Q0997', 'EFTU 061320Z AUTO 28004KT 9999 OVC027 M05/M10 Q0997', 'EFTU 061250Z AUTO VRB02KT 9999 BKN024 M05/M11 Q0997', 'EFTU 061220Z AUTO 33004KT 300V360 9999 -SHSN OVC026 M05/M11 Q0997', 'EFTU 061150Z AUTO 32004KT 290V010 9999 -SHSN OVC024 M05/M10 Q0997', 'EFTU 061120Z AUTO 01004KT 330V060 9999 -SHSN BKN027 M04/M10 Q0997', 'EFTU 061050Z AUTO 35005KT 9999 FEW020 M05/M10 Q0997', 'EFTU 061020Z AUTO 33004KT 300V360 9999 -SHSN SCT023 M04/M09 Q0997', 'EFTU 060950Z AUTO 35005KT 310V030 9999 -SHSN SCT022 M04/M10 Q0997', 'EFTU 060920Z AUTO 36005KT 320V030 9999 BKN033 M04/M09 Q0997', 'EFTU 060850Z AUTO 33004KT 290V360 9999 -SHSN OVC034 M04/M08 Q0997', 'EFTU 060820Z AUTO 32003KT 280V360 9999 -SN OVC031 M05/M08 Q0997', 'EFTU 060750Z AUTO VRB02KT 9999 -SHSN OVC034 M05/M07 Q0997', 'EFTU 060720Z AUTO VRB02KT 9999 -SHSN BKN034 M06/M07 Q0997', 'EFTU 060650Z AUTO VRB01KT 9999 -SHSN OVC030 M06/M07 Q0997', 'EFTU 060620Z AUTO 31002KT 9999 -SN OVC036 M05/M07 Q0997', 'EFTU 060550Z AUTO VRB02KT 9999 -SHSN FEW015 OVC035 M05/M06 Q0996', 'EFTU 060520Z AUTO VRB01KT 9999 -SHSN FEW015 OVC034 M05/M06 Q0996', 'EFTU 060450Z AUTO VRB02KT 9999 -SN OVC019 M05/M06 Q0997', 'EFTU 060420Z AUTO 33003KT 270V360 6000 -SN FEW014 OVC039 M04/M07 Q0996', 'EFTU 060350Z AUTO 33003KT 290V020 9999 -SHSN SCT014 OVC038 M04/M07 Q0996', 'EFTU 060320Z AUTO 31003KT 270V350 9999 -SHSN FEW014 OVC038 M04/M07 Q0996', 'EFTU 060250Z AUTO 32004KT 290V360 9999 -SHSN FEW014 OVC035 M04/M07 Q0996', 'EFTU 060220Z AUTO 34003KT 300V020 9999 -SHSN FEW013 OVC033 M04/M07 Q0996', 'EFTU 060150Z AUTO 34004KT 280V020 9999 -SN OVC016 M04/M07 Q0996', 'EFTU 060120Z AUTO 32004KT 280V010 9999 -SN OVC017 M04/M06 Q0996', 'EFTU 060050Z AUTO 32004KT 280V360 9999 -SHSN OVC017 M04/M06 Q0995', 'EFTU 060020Z AUTO 33005KT 300V010 9999 OVC020 M03/M07 Q0995', 'EFTU 052350Z AUTO 32004KT 280V360 9999 OVC015 M03/M07 Q0995', 'EFTU 052320Z AUTO 32004KT 280V360 9999 BKN016 M03/M06 Q0995', 'EFTU 052250Z AUTO 33004KT 300V010 CAVOK M04/M06 Q0995', 'EFTU 052220Z AUTO 33005KT 210V010 9999 BKN014 OVC050 M03/M06 Q0994', 'EFTU 052150Z AUTO 33006KT 290V350 9999 OVC014 M03/M06 Q0994', 'EFTU 052120Z AUTO 33005KT 280V020 9999 OVC017 M03/M06 Q0994', 'EFTU 052050Z AUTO 33006KT 290V030 9999 -SHSN BKN016 M03/M06 Q0993']","['2024-02-08 20:20:00', '2024-02-08 19:50:00', '2024-02-08 19:20:00', '2024-02-08 18:50:00', '2024-02-08 18:20:00', '2024-02-08 17:50:00', '2024-02-08 17:20:00', '2024-02-08 16:50:00', '2024-02-08 16:20:00', '2024-02-08 15:50:00', '2024-02-08 15:20:00', '2024-02-08 14:50:00', '2024-02-08 14:20:00', '2024-02-08 13:50:00', '2024-02-08 13:20:00', '2024-02-08 12:50:00', '2024-02-08 12:20:00', '2024-02-08 11:50:00', '2024-02-08 11:20:00', '2024-02-08 10:50:00', '2024-02-08 10:20:00', '2024-02-08 09:50:00', '2024-02-08 09:20:00', '2024-02-08 08:50:00', '2024-02-08 08:20:00', '2024-02-08 07:50:00', '2024-02-08 07:20:00', '2024-02-08 06:50:00', '2024-02-08 06:20:00', '2024-02-08 05:50:00', '2024-02-08 05:20:00', '2024-02-08 04:50:00', '2024-02-08 04:20:00', '2024-02-08 03:50:00', '2024-02-08 03:20:00', '2024-02-08 02:50:00', '2024-02-08 02:20:00', '2024-02-08 01:50:00', '2024-02-08 01:20:00', '2024-02-08 00:50:00', '2024-02-08 00:20:00', '2024-02-07 23:50:00', '2024-02-07 23:20:00', '2024-02-07 22:50:00', '2024-02-07 22:20:00', '2024-02-07 21:50:00', '2024-02-07 21:20:00', '2024-02-07 20:50:00', '2024-02-07 20:20:00', '2024-02-07 19:50:00', '2024-02-07 19:20:00', '2024-02-07 18:50:00', '2024-02-07 18:20:00', '2024-02-07 17:50:00', '2024-02-07 17:20:00', '2024-02-07 16:50:00', '2024-02-07 16:20:00', '2024-02-07 15:50:00', '2024-02-07 15:20:00', '2024-02-07 14:50:00', '2024-02-07 14:20:00', '2024-02-07 13:50:00', '2024-02-07 13:20:00', '2024-02-07 12:50:00', '2024-02-07 12:20:00', '2024-02-07 11:50:00', '2024-02-07 11:20:00', '2024-02-07 10:50:00', '2024-02-07 10:20:00', '2024-02-07 09:50:00', '2024-02-07 09:20:00', '2024-02-07 08:50:00', '2024-02-07 08:20:00', '2024-02-07 07:50:00', '2024-02-07 07:20:00', '2024-02-07 06:50:00', '2024-02-07 06:20:00', '2024-02-07 05:50:00', '2024-02-07 05:20:00', '2024-02-07 04:50:00', '2024-02-07 04:20:00', '2024-02-07 03:50:00', '2024-02-07 03:20:00', '2024-02-07 02:50:00', '2024-02-07 02:20:00', '2024-02-07 01:50:00', '2024-02-07 01:20:00', '2024-02-07 00:50:00', '2024-02-07 00:20:00', '2024-02-06 23:50:00', '2024-02-06 23:20:00', '2024-02-06 22:50:00', '2024-02-06 22:20:00', '2024-02-06 21:50:00', '2024-02-06 21:20:00', '2024-02-06 20:50:00', '2024-02-06 20:20:00', '2024-02-06 19:50:00', '2024-02-06 19:20:00', '2024-02-06 18:50:00', '2024-02-06 18:20:00', '2024-02-06 17:50:00', '2024-02-06 17:20:00', '2024-02-06 16:50:00', '2024-02-06 16:20:00', '2024-02-06 15:50:00', '2024-02-06 15:20:00', '2024-02-06 14:50:00', '2024-02-06 14:20:00', '2024-02-06 13:50:00', '2024-02-06 13:20:00', '2024-02-06 12:50:00', '2024-02-06 12:20:00', '2024-02-06 11:50:00', '2024-02-06 11:20:00', '2024-02-06 10:50:00', '2024-02-06 10:20:00', '2024-02-06 09:50:00', '2024-02-06 09:20:00', '2024-02-06 08:50:00', '2024-02-06 08:20:00', '2024-02-06 07:50:00', '2024-02-06 07:20:00', '2024-02-06 06:50:00', '2024-02-06 06:20:00', '2024-02-06 05:50:00', '2024-02-06 05:20:00', '2024-02-06 04:50:00', '2024-02-06 04:20:00', '2024-02-06 03:50:00', '2024-02-06 03:20:00', '2024-02-06 02:50:00', '2024-02-06 02:20:00', '2024-02-06 01:50:00', '2024-02-06 01:20:00', '2024-02-06 00:50:00', '2024-02-06 00:20:00', '2024-02-05 23:50:00', '2024-02-05 23:20:00', '2024-02-05 22:50:00', '2024-02-05 22:20:00', '2024-02-05 21:50:00', '2024-02-05 21:20:00', '2024-02-05 20:50:00']"
Finland, Vaasa Airport (VAA/EFVA) ,"['EFVA 082020Z AUTO VRB02KT CAVOK M21/M23 Q1006', 'EFVA 081950Z AUTO 11003KT CAVOK M20/M22 Q1006', 'EFVA 081920Z AUTO 11004KT CAVOK M18/M21 Q1005', 'EFVA 081850Z AUTO 12003KT CAVOK M19/M21 Q1005', 'EFVA 081820Z AUTO 13004KT CAVOK M19/M21 Q1005', 'EFVA 081750Z AUTO 13003KT CAVOK M18/M20 Q1005', 'EFVA 081720Z AUTO 13002KT CAVOK M18/M20 Q1005', 'EFVA 081650Z AUTO VRB02KT CAVOK M18/M20 Q1005', 'EFVA 081620Z AUTO 12003KT CAVOK M18/M20 Q1005', 'EFVA 081550Z AUTO 12004KT CAVOK M17/M19 Q1004', 'EFVA 081520Z AUTO 12005KT CAVOK M16/M19 Q1004', 'EFVA 081450Z AUTO 12005KT CAVOK M15/M18 Q1004', 'EFVA 081420Z AUTO 12006KT CAVOK M15/M18 Q1004', 'EFVA 081350Z AUTO 12006KT CAVOK M15/M18 Q1004', 'EFVA 081320Z AUTO 12007KT CAVOK M14/M17 Q1003', 'EFVA 081250Z AUTO 11005KT CAVOK M15/M18 Q1003', 'EFVA 081220Z AUTO 12006KT CAVOK M15/M18 Q1003', 'EFVA 081150Z AUTO 12006KT CAVOK M16/M19 Q1003', 'EFVA 081120Z AUTO 15003KT CAVOK M18/M20 Q1003', 'EFVA 081050Z AUTO 13005KT CAVOK M17/M20 Q1003', 'EFVA 081020Z AUTO 11004KT CAVOK M18/M21 Q1003', 'EFVA 080950Z AUTO 14004KT CAVOK M20/M22 Q1003', 'EFVA 080920Z AUTO 15005KT 110V180 CAVOK M20/M23 Q1002', 'EFVA 080850Z AUTO 13005KT CAVOK M21/M23 Q1002', 'EFVA 080820Z AUTO 11005KT CAVOK M21/M24 Q1002', 'EFVA 080750Z AUTO 12005KT CAVOK M22/M24 Q1002', 'EFVA 080720Z AUTO 11005KT CAVOK M22/M25 Q1001', 'EFVA 080650Z AUTO 11004KT CAVOK M22/M25 Q1001', 'EFVA 080620Z AUTO 11003KT CAVOK M22/M25 Q1001', 'EFVA 080550Z AUTO 10003KT CAVOK M24/M27 Q1001', 'EFVA 080520Z AUTO 12002KT CAVOK M24/M27 Q1001', 'EFVA 080450Z AUTO 11003KT CAVOK M22/M24 Q1001', 'EFVA 080420Z AUTO 10004KT CAVOK M21/M24 Q1000', 'EFVA 080350Z AUTO 11003KT CAVOK M22/M25 Q1000', 'EFVA 080320Z AUTO 10003KT CAVOK M22/M25 Q1000', 'EFVA 080250Z AUTO VRB02KT CAVOK M22/M25 Q1000', 'EFVA 080220Z AUTO 11003KT CAVOK M22/M25 Q1000', 'EFVA 080150Z AUTO 13003KT CAVOK M22/M24 Q1000', 'EFVA 080120Z AUTO 11003KT CAVOK M21/M23 Q1000', 'EFVA 080050Z AUTO 11003KT CAVOK M21/M24 Q0999', 'EFVA 080020Z AUTO VRB02KT CAVOK M21/M23 Q0999', 'EFVA 072350Z AUTO VRB02KT CAVOK M21/M23 Q0999', 'EFVA 072320Z AUTO 14003KT CAVOK M22/M23 Q0999', 'EFVA 072250Z AUTO VRB02KT CAVOK M20/M22 Q0999', 'EFVA 072220Z AUTO VRB02KT CAVOK M20/M22 Q0998', 'EFVA 072150Z AUTO VRB02KT CAVOK M21/M23 Q0998', 'EFVA 072120Z AUTO 17002KT CAVOK M20/M21 Q0998', 'EFVA 072050Z AUTO 13003KT CAVOK M20/M21 Q0998', 'EFVA 072020Z AUTO 13004KT CAVOK M20/M22 Q0998', 'EFVA 071950Z AUTO VRB02KT CAVOK M21/M23 Q0998', 'EFVA 071920Z AUTO 12002KT CAVOK M21/M22 Q0997', 'EFVA 071850Z AUTO 13002KT CAVOK M21/M22 Q0997', 'EFVA 071820Z AUTO VRB01KT CAVOK M19/M21 Q0997', 'EFVA 071750Z AUTO 10003KT CAVOK M19/M21 Q0997', 'EFVA 071720Z AUTO VRB01KT CAVOK M17/M19 Q0997', 'EFVA 071650Z AUTO 09002KT CAVOK M18/M19 Q0997', 'EFVA 071620Z AUTO 11003KT CAVOK M18/M20 Q0996', 'EFVA 071550Z AUTO 12004KT CAVOK M17/M19 Q0996', 'EFVA 071520Z AUTO 11003KT CAVOK M17/M18 Q0996', 'EFVA 071450Z AUTO 09003KT CAVOK M14/M16 Q0996', 'EFVA 071420Z AUTO 07004KT CAVOK M13/M16 Q0996', 'EFVA 071350Z AUTO 07003KT CAVOK M13/M16 Q0996', 'EFVA 071320Z AUTO 10003KT 9999 FEW035 M12/M15 Q0996', 'EFVA 071250Z AUTO 08003KT 9999 OVC035 M13/M16 Q0996', 'EFVA 071220Z AUTO 12003KT 090V150 9999 BKN036 M13/M16 Q0996', 'EFVA 071150Z AUTO 14004KT CAVOK M13/M16 Q0996', 'EFVA 071120Z AUTO 14004KT CAVOK M14/M16 Q0995', 'EFVA 071050Z AUTO 14003KT CAVOK M14/M16 Q0995', 'EFVA 071020Z AUTO 14003KT CAVOK M14/M17 Q0995', 'EFVA 070950Z AUTO 15003KT CAVOK M15/M17 Q0995', 'EFVA 070920Z AUTO VRB01KT 9999 -SN NCD M13/M15 Q0995', 'EFVA 070850Z AUTO VRB01KT 9999 -SN OVC033 M15/M17 Q0995', 'EFVA 070820Z AUTO 09002KT 9999 -SN OVC032 M14/M16 Q0995', 'EFVA 070750Z AUTO 12002KT 9999 -SN OVC031 M14/M16 Q0995', 'EFVA 070720Z AUTO 11002KT 9999 -SN OVC031 M15/M17 Q0995', 'EFVA 070650Z AUTO VRB01KT 9999 -SN OVC032 M15/M16 Q0995', 'EFVA 070620Z AUTO VRB01KT 9999 -SN OVC034 M15/M17 Q0994', 'EFVA 070550Z AUTO VRB01KT 9999 -SHSN OVC035 M15/M17 Q0994', 'EFVA 070520Z AUTO VRB01KT 9999 -SHSN OVC037 M16/M18 Q0994', 'EFVA 070450Z AUTO 00000KT 9999 -SHSN OVC038 M16/M18 Q0994', 'EFVA 070420Z AUTO VRB01KT 9999 -SHSN OVC040 M17/M19 Q0994', 'EFVA 070350Z AUTO 33001KT 9999 -SHSN OVC042 M17/M19 Q0994', 'EFVA 070320Z AUTO VRB01KT 9999 -SHSN BKN042 M18/M20 Q0994', 'EFVA 070250Z AUTO VRB01KT 9999 -SHSN OVC045 M18/M20 Q0994', 'EFVA 070220Z AUTO VRB01KT 9999 FEW046 M18/M20 Q0995', 'EFVA 070150Z AUTO VRB01KT CAVOK M17/M19 Q0995', 'EFVA 070120Z AUTO 00000KT CAVOK M17/M19 Q0995', 'EFVA 070050Z AUTO 06001KT CAVOK M16/M18 Q0995', 'EFVA 070020Z AUTO 34003KT CAVOK M15/M17 Q0995', 'EFVA 062350Z AUTO 35001KT CAVOK M15/M16 Q0995', 'EFVA 062320Z AUTO 00000KT CAVOK M15/M17 Q0995', 'EFVA 062250Z AUTO VRB01KT CAVOK M15/M17 Q0995', 'EFVA 062220Z AUTO VRB01KT CAVOK M15/M17 Q0996', 'EFVA 062150Z AUTO VRB01KT CAVOK M16/M17 Q0996', 'EFVA 062120Z AUTO 02001KT CAVOK M14/M16 Q0996', 'EFVA 062050Z AUTO 11002KT CAVOK M15/M16 Q0996', 'EFVA 062020Z AUTO VRB01KT 9999 -SHSN FEW012 M14/M15 Q0996', 'EFVA 061950Z AUTO 13002KT 9999 -SHSN BKN013 M14/M16 Q0997', 'EFVA 061920Z AUTO VRB01KT 9999 -SHSN BKN014 M13/M14 Q0997', 'EFVA 061850Z AUTO VRB01KT 9999 -SN BKN014 M13/M14 Q0997', 'EFVA 061820Z AUTO 05002KT 9999 SCT013 M13/M14 Q0997', 'EFVA 061750Z AUTO VRB01KT 9999 SCT013 M12/M13 Q0997', 'EFVA 061720Z AUTO VRB01KT 9999 -SN BKN014 M12/M13 Q0997', 'EFVA 061650Z AUTO VRB02KT 9999 -SHSN BKN015 M12/M14 Q0997', 'EFVA 061620Z AUTO VRB02KT 9999 BKN016 M12/M13 Q0998', 'EFVA 061550Z AUTO VRB02KT 9999 -SN FEW017 M11/M12 Q0998', 'EFVA 061520Z AUTO 27003KT 9999 -SN BKN019 M09/M11 Q0998', 'EFVA 061450Z AUTO 17001KT 6000 -SN OVC017 M09/M12 Q0998', 'EFVA 061420Z AUTO 13002KT 9999 BKN017 M10/M12 Q0998', 'EFVA 061350Z AUTO 15001KT 9999 FEW016 M09/M12 Q0999', 'EFVA 061320Z AUTO VRB01KT CAVOK M10/M12 Q0999', 'EFVA 061250Z AUTO VRB01KT 9999 FEW015 M08/M11 Q0999', 'EFVA 061220Z AUTO VRB01KT 9999 BKN016 M09/M12 Q0999', 'EFVA 061150Z AUTO VRB01KT CAVOK M08/M11 Q0999', 'EFVA 061120Z AUTO VRB02KT CAVOK M09/M11 Q0999', 'EFVA 061050Z AUTO 23001KT 9999 FEW039 M08/M11 Q0999', 'EFVA 061020Z AUTO VRB01KT 9999 -SN NCD M09/M11 Q0999', 'EFVA 060950Z AUTO VRB01KT 9999 -SN FEW011 SCT039 M09/M11 Q0999', 'EFVA 060920Z AUTO 26001KT 9999 -SN BKN040 M09/M11 Q0999', 'EFVA 060850Z AUTO VRB01KT 9999 -SN OVC040 M09/M11 Q0999', 'EFVA 060820Z AUTO 00000KT 9999 -SN OVC039 M09/M11 Q0999', 'EFVA 060750Z AUTO 03002KT 9999 -SHSN OVC041 M10/M11 Q0999', 'EFVA 060720Z AUTO VRB02KT 9999 -SHSN OVC042 M10/M11 Q0999', 'EFVA 060650Z AUTO 02002KT 9999 -SHSN OVC042 M09/M11 Q0999', 'EFVA 060620Z AUTO 01002KT 9999 OVC041 M09/M11 Q0999', 'EFVA 060550Z AUTO 36001KT 9999 OVC040 M09/M11 Q0999', 'EFVA 060520Z AUTO 02002KT 9999 -SHSN OVC039 M10/M12 Q0999', 'EFVA 060450Z AUTO 34002KT 9999 OVC041 M10/M11 Q0999', 'EFVA 060420Z AUTO 05002KT 9999 OVC040 M10/M11 Q0999', 'EFVA 060350Z AUTO 04003KT 9999 OVC038 M09/M11 Q0999', 'EFVA 060320Z AUTO 36004KT 9999 OVC044 M11/M12 Q0999', 'EFVA 060250Z AUTO VRB01KT 9999 OVC042 M10/M11 Q0998', 'EFVA 060220Z AUTO 01004KT 9999 -SHSN BKN041 M11/M12 Q0998', 'EFVA 060150Z AUTO 02003KT 9999 BKN041 M09/M11 Q0998', 'EFVA 060120Z AUTO 02005KT 9999 SCT040 M09/M11 Q0998', 'EFVA 060050Z AUTO 03007KT 9999 BKN040 M09/M11 Q0998', 'EFVA 060020Z AUTO 36006KT 9999 SCT039 M09/M11 Q0998', 'EFVA 052350Z AUTO 01006KT 9999 SCT015 M08/M11 Q0998', 'EFVA 052320Z AUTO 01009KT 9999 SCT014 M07/M10 Q0997', 'EFVA 052250Z AUTO 36012KT 9999 BKN013 M07/M09 Q0997', 'EFVA 052220Z AUTO 36011KT 9999 -SN SCT013 BKN032 M06/M08 Q0996', 'EFVA 052150Z AUTO 02009KT 9999 -SN OVC015 M05/M08 Q0996', 'EFVA 052120Z AUTO 01008KT 9999 -SN OVC015 M05/M07 Q0996', 'EFVA 052050Z AUTO 36004KT 9999 -SHSN OVC021 M05/M07 Q0995']","['2024-02-08 20:20:00', '2024-02-08 19:50:00', '2024-02-08 19:20:00', '2024-02-08 18:50:00', '2024-02-08 18:20:00', '2024-02-08 17:50:00', '2024-02-08 17:20:00', '2024-02-08 16:50:00', '2024-02-08 16:20:00', '2024-02-08 15:50:00', '2024-02-08 15:20:00', '2024-02-08 14:50:00', '2024-02-08 14:20:00', '2024-02-08 13:50:00', '2024-02-08 13:20:00', '2024-02-08 12:50:00', '2024-02-08 12:20:00', '2024-02-08 11:50:00', '2024-02-08 11:20:00', '2024-02-08 10:50:00', '2024-02-08 10:20:00', '2024-02-08 09:50:00', '2024-02-08 09:20:00', '2024-02-08 08:50:00', '2024-02-08 08:20:00', '2024-02-08 07:50:00', '2024-02-08 07:20:00', '2024-02-08 06:50:00', '2024-02-08 06:20:00', '2024-02-08 05:50:00', '2024-02-08 05:20:00', '2024-02-08 04:50:00', '2024-02-08 04:20:00', '2024-02-08 03:50:00', '2024-02-08 03:20:00', '2024-02-08 02:50:00', '2024-02-08 02:20:00', '2024-02-08 01:50:00', '2024-02-08 01:20:00', '2024-02-08 00:50:00', '2024-02-08 00:20:00', '2024-02-07 23:50:00', '2024-02-07 23:20:00', '2024-02-07 22:50:00', '2024-02-07 22:20:00', '2024-02-07 21:50:00', '2024-02-07 21:20:00', '2024-02-07 20:50:00', '2024-02-07 20:20:00', '2024-02-07 19:50:00', '2024-02-07 19:20:00', '2024-02-07 18:50:00', '2024-02-07 18:20:00', '2024-02-07 17:50:00', '2024-02-07 17:20:00', '2024-02-07 16:50:00', '2024-02-07 16:20:00', '2024-02-07 15:50:00', '2024-02-07 15:20:00', '2024-02-07 14:50:00', '2024-02-07 14:20:00', '2024-02-07 13:50:00', '2024-02-07 13:20:00', '2024-02-07 12:50:00', '2024-02-07 12:20:00', '2024-02-07 11:50:00', '2024-02-07 11:20:00', '2024-02-07 10:50:00', '2024-02-07 10:20:00', '2024-02-07 09:50:00', '2024-02-07 09:20:00', '2024-02-07 08:50:00', '2024-02-07 08:20:00', '2024-02-07 07:50:00', '2024-02-07 07:20:00', '2024-02-07 06:50:00', '2024-02-07 06:20:00', '2024-02-07 05:50:00', '2024-02-07 05:20:00', '2024-02-07 04:50:00', '2024-02-07 04:20:00', '2024-02-07 03:50:00', '2024-02-07 03:20:00', '2024-02-07 02:50:00', '2024-02-07 02:20:00', '2024-02-07 01:50:00', '2024-02-07 01:20:00', '2024-02-07 00:50:00', '2024-02-07 00:20:00', '2024-02-06 23:50:00', '2024-02-06 23:20:00', '2024-02-06 22:50:00', '2024-02-06 22:20:00', '2024-02-06 21:50:00', '2024-02-06 21:20:00', '2024-02-06 20:50:00', '2024-02-06 20:20:00', '2024-02-06 19:50:00', '2024-02-06 19:20:00', '2024-02-06 18:50:00', '2024-02-06 18:20:00', '2024-02-06 17:50:00', '2024-02-06 17:20:00', '2024-02-06 16:50:00', '2024-02-06 16:20:00', '2024-02-06 15:50:00', '2024-02-06 15:20:00', '2024-02-06 14:50:00', '2024-02-06 14:20:00', '2024-02-06 13:50:00', '2024-02-06 13:20:00', '2024-02-06 12:50:00', '2024-02-06 12:20:00', '2024-02-06 11:50:00', '2024-02-06 11:20:00', '2024-02-06 10:50:00', '2024-02-06 10:20:00', '2024-02-06 09:50:00', '2024-02-06 09:20:00', '2024-02-06 08:50:00', '2024-02-06 08:20:00', '2024-02-06 07:50:00', '2024-02-06 07:20:00', '2024-02-06 06:50:00', '2024-02-06 06:20:00', '2024-02-06 05:50:00', '2024-02-06 05:20:00', '2024-02-06 04:50:00', '2024-02-06 04:20:00', '2024-02-06 03:50:00', '2024-02-06 03:20:00', '2024-02-06 02:50:00', '2024-02-06 02:20:00', '2024-02-06 01:50:00', '2024-02-06 01:20:00', '2024-02-06 00:50:00', '2024-02-06 00:20:00', '2024-02-05 23:50:00', '2024-02-05 23:20:00', '2024-02-05 22:50:00', '2024-02-05 22:20:00', '2024-02-05 21:50:00', '2024-02-05 21:20:00', '2024-02-05 20:50:00']"
