country,airport,METARs,UTC/Time
Indonesia, Ambon Pattimura Airport (AMQ/WAPP) ,"['WAPP 101630Z 04008KT 9999 SCT017 27/23 Q1013 NOSIG', 'WAPP 101600Z 01007KT 9999 SCT017 27/23 Q1013 NOSIG', 'WAPP 101530Z 01006KT 9999 SCT017 28/24 Q1012 NOSIG', 'WAPP 101500Z 34007KT 9999 SCT017 28/24 Q1012 NOSIG', 'WAPP 101430Z 36005KT 9999 SCT017 29/24 Q1012 NOSIG', 'WAPP 101400Z 01006KT 9999 SCT017 29/24 Q1012 NOSIG', 'WAPP 101330Z 01008KT 9999 SCT017 27/23 Q1011 NOSIG', 'WAPP 101300Z 04008KT 9999 SCT017 28/23 Q1011 NOSIG', 'WAPP 101230Z 36005KT 9999 SCT017 28/23 Q1011 NOSIG', 'WAPP 101200Z 01009KT 9999 SCT017 29/23 Q1011 NOSIG', 'WAPP 101130Z VRB07KT 9999 SCT017 29/24 Q1009 NOSIG', 'WAPP 101100Z VRB05KT 9999 SCT017 29/24 Q1009 NOSIG', 'WAPP 101030Z 02010KT 9999 SCT017 30/24 Q1009 NOSIG', 'WAPP 101000Z 36011KT 320V040 9999 SCT017 30/24 Q1009 NOSIG', 'WAPP 100930Z 01013KT 9999 SCT017 30/24 Q1009 NOSIG', 'WAPP 100900Z 36013KT 330V030 9999 SCT017 30/24 Q1009 NOSIG', 'WAPP 100830Z 36011KT 9999 SCT017 31/24 Q1009 NOSIG', 'WAPP 100800Z 36009KT 270V050 9999 SCT017 31/24 Q1009 NOSIG', 'WAPP 100730Z 35008KT 270V050 9999 SCT017 32/24 Q1009 NOSIG', 'WAPP 100700Z 33008KT 260V020 9999 SCT017 33/23 Q1009 NOSIG', 'WAPP 100630Z 36008KT 310V040 SCT017 34/24 Q1009 NOSIG', 'WAPP 100600Z 34009KT 300V020 SCT017 35/24 Q1009 NOSIG', 'WAPP 100530Z 36009KT SCT017 33/25 Q1010 NOSIG', 'WAPP 100500Z 04010KT SCT017 34/25 Q1010 NOSIG', 'WAPP 100430Z 01009KT SCT017 34/25 Q1010 NOSIG', 'WAPP 100400Z 01009KT 300V070 9999 SCT017 34/25 Q1010 NOSIG', 'WAPP 100330Z 02013KT 9999 SCT017 34/22 Q1011 NOSIG', 'WAPP 100300Z 34012KT 310V010 9999 SCT017 34/22 Q1011 NOSIG', 'WAPP 100230Z 34011KT 290V010 9999 SCT017 34/23 Q1011 NOSIG', 'WAPP 100200Z 35013KT 300V020 9999 FEW017 33/23 Q1011 NOSIG', 'WAPP 100130Z 34010KT 320V070 9999 FEW017 32/23 Q1012 NOSIG', 'WAPP 100100Z 36010KT 320V070 9999 FEW017 32/23 Q1012 NOSIG', 'WAPP 100030Z 35011KT 9999 FEW017 31/23 Q1012 NOSIG', 'WAPP 100000Z 35010KT 320V020 9999 FEW017 31/24 Q1012 NOSIG', 'WAPP 092330Z 35009KT 320V040 9999 FEW017 31/24 Q1012 NOSIG', 'WAPP 092230Z 03003KT 340V130 9999 FEW017 27/24 Q1011 NOSIG', 'WAPP 092200Z 36003KT 320V080 9999 FEW017 25/24 Q1010 NOSIG', 'WAPP 092130Z 01003KT 360V060 9999 FEW017 25/24 Q1010 NOSIG', 'WAPP 092100Z 33005KT 9999 FEW017 26/24 Q1010 NOSIG', 'WAPP 092030Z 35006KT 9999 FEW017 26/24 Q1010 NOSIG', 'WAPP 092000Z 01004KT 9999 FEW017 26/24 Q1010 NOSIG', 'WAPP 091930Z 36008KT 9999 FEW017 26/24 Q1010 NOSIG', 'WAPP 091900Z 35006KT 340V060 9999 FEW017 26/24 Q1010 NOSIG', 'WAPP 091830Z 33003KT 9999 FEW017 26/24 Q1010 NOSIG', 'WAPP 091800Z 01004KT 9999 FEW017 26/24 Q1010 NOSIG', 'WAPP 091730Z 36002KT 9999 FEW017 26/24 Q1011 NOSIG', 'WAPP 091700Z 02003KT 350V080 9999 FEW017 26/24 Q1010 NOSIG', 'WAPP 091630Z 01003KT 330V060 9999 FEW017 26/24 Q1011 NOSIG', 'WAPP 091600Z VRB01KT 9999 FEW017 26/24 Q1011 NOSIG', 'WAPP 091530Z VRB02KT 9999 FEW017 27/24 Q1011 NOSIG', 'WAPP 091500Z 02003KT 340V060 9999 FEW017 27/24 Q1011 NOSIG', 'WAPP 091430Z VRB01KT 9999 FEW017 28/24 Q1011 NOSIG', 'WAPP 091400Z 09001KT 9999 FEW017 28/24 Q1011 NOSIG', 'WAPP 091330Z 01003KT 330V070 9999 FEW017 28/23 Q1011 NOSIG', 'WAPP 091300Z VRB03KT 9999 FEW017 29/23 Q1011 NOSIG', 'WAPP 091230Z 33003KT 300V360 9999 FEW017 28/24 Q1010 NOSIG', 'WAPP 091200Z 32005KT 300V360 9999 FEW017 29/24 Q1010 NOSIG', 'WAPP 091130Z 33003KT 9999 FEW017 29/23 Q1010 NOSIG', 'WAPP 091100Z 01004KT 9999 FEW017 29/23 Q1009 NOSIG', 'WAPP 091030Z 34008KT 9999 FEW017 29/23 Q1009 NOSIG', 'WAPP 091000Z 02005KT 9999 FEW017 30/23 Q1009 NOSIG', 'WAPP 090930Z 36007KT 9999 FEW017 32/24 Q1008 NOSIG', 'WAPP 090900Z 32004KT 9999 FEW017 33/24 Q1008 NOSIG', 'WAPP 090830Z 02008KT 9999 SCT017 33/24 Q1008 NOSIG', 'WAPP 090800Z 05007KT 9999 SCT017 33/24 Q1008 NOSIG', 'WAPP 090730Z 35009KT 9999 SCT017 33/23 Q1008 NOSIG', 'WAPP 090700Z 33010KT 9999 SCT017 33/23 Q1008 NOSIG', 'WAPP 090630Z 35009KT 9999 SCT017 34/23 Q1008 NOSIG', 'WAPP 090530Z 34011KT 9999 SCT017 34/23 Q1009 NOSIG', 'WAPP 090500Z 33008KT 9999 SCT017 34/23 Q1009 NOSIG', 'WAPP 090430Z 02008KT 9999 SCT017 33/24 Q1010 NOSIG', 'WAPP 090400Z 04015KT 9999 SCT017 33/24 Q1010 NOSIG', 'WAPP 090330Z 35008KT 310V050 9999 SCT017 34/24 Q1010 NOSIG', 'WAPP 090300Z 34009KT 300V030 9999 SCT017 34/24 Q1011 NOSIG', 'WAPP 090230Z 34010KT 310V010 9999 SCT017 34/24 Q1011 NOSIG', 'WAPP 090200Z 35012KT 320V020 9999 FEW017 33/23 Q1011 NOSIG', 'WAPP 090130Z 34009KT 300V020 9999 FEW017 33/23 Q1011 NOSIG', 'WAPP 090100Z 34009KT 310V020 9999 FEW017 33/23 Q1012 NOSIG', 'WAPP 090030Z VRB03KT 9999 FEW017 32/24 Q1012 NOSIG', 'WAPP 090000Z 10003KT 010V170 9999 FEW017 30/24 Q1012 NOSIG', 'WAPP 082330Z VRB03KT 9999 FEW017 30/24 Q1012 NOSIG', 'WAPP 082300Z VRB02KT 9999 FEW017 28/24 Q1011 NOSIG', 'WAPP 082230Z 01003KT 9999 FEW017 26/24 Q1011 NOSIG', 'WAPP 082200Z 03003KT 9999 SCT016 25/23 Q1010 NOSIG', 'WAPP 082130Z 35001KT 9999 SCT016 25/23 Q1010 NOSIG', 'WAPP 082100Z 05003KT 9999 SCT016 25/23 Q1010 NOSIG', 'WAPP 082030Z 34005KT 9999 SCT016 26/23 Q1010 NOSIG', 'WAPP 082000Z 01005KT 9999 SCT016 26/23 Q1010 NOSIG', 'WAPP 081930Z 35004KT 9999 SCT016 25/23 Q1010 NOSIG', 'WAPP 081900Z 05005KT 9999 SCT016 25/23 Q1010 NOSIG', 'WAPP 081830Z 34005KT 9999 SCT016 24/23 Q1010 NOSIG', 'WAPP 081800Z 34003KT 9999 SCT016 24/23 Q1010 NOSIG', 'WAPP 081730Z 02002KT 9999 SCT016 24/23 Q1011 NOSIG', 'WAPP 081700Z 36004KT 9999 SCT016 24/23 Q1011 NOSIG', 'WAPP 081630Z 35003KT 9999 SCT016 24/23 Q1011 NOSIG', 'WAPP 081600Z 02003KT 9999 SCT016 24/23 Q1011 NOSIG', 'WAPP 081530Z 00000KT 9999 SCT016 25/24 Q1011 NOSIG', 'WAPP 081500Z 36005KT 9999 SCT016 25/24 Q1011 NOSIG', 'WAPP 081430Z VRB03KT 9999 SCT016 25/24 Q1011 NOSIG', 'WAPP 081400Z 01005KT 9999 SCT016 26/24 Q1011 NOSIG', 'WAPP 081330Z 34005KT 9999 SCT016 26/24 Q1011 NOSIG', 'WAPP 081300Z 35006KT 9999 SCT016 26/24 Q1011 NOSIG', 'WAPP 081230Z 36003KT 9999 SCT016 26/23 Q1011 NOSIG', 'WAPP 081200Z 01004KT 9999 SCT016 27/23 Q1011 NOSIG', 'WAPP 081130Z 00000KT 9999 SCT016 27/23 Q1010 NOSIG', 'WAPP 081100Z VRB02KT 9999 SCT016 27/23 Q1010 NOSIG', 'WAPP 081030Z 33005KT 9999 SCT016 27/24 Q1008 NOSIG', 'WAPP 081000Z 35004KT 320V020 9999 SCT016 28/24 Q1009 NOSIG', 'WAPP 080930Z VRB02KT 9999 SCT016 29/23 Q1009 NOSIG', 'WAPP 080900Z VRB02KT 9999 SCT016 29/24 Q1009 NOSIG', 'WAPP 080830Z 31004KT 270V350 9999 SCT016 30/23 Q1009 NOSIG', 'WAPP 080800Z 31005KT 260V020 9999 SCT016 30/30 Q1008 NOSIG', 'WAPP 080730Z 34004KT 290V030 9999 SCT016 31/24 Q1008 NOSIG', 'WAPP 080700Z 33008KT 9999 SCT016 30/24 Q1008 NOSIG', 'WAPP 080630Z 32007KT 9999 SCT016 30/24 Q1009 NOSIG', 'WAPP 080600Z 34007KT 310V010 9999 SCT016 31/24 Q1009 NOSIG', 'WAPP 080500Z 34007KT 9999 SCT016 31/23 Q1010 NOSIG', 'WAPP 080430Z 31006KT 270V020 9999 SCT016 31/24 Q1010 NOSIG', 'WAPP 080400Z VRB04KT 9999 SCT016 31/24 Q1010 NOSIG', 'WAPP 080330Z 16003KT 110V220 9999 SCT016 30/23 Q1010 NOSIG', 'WAPP 080300Z VRB02KT 9999 SCT016 29/24 Q1011 NOSIG', 'WAPP 080230Z VRB01KT 9999 SCT016 30/24 Q1011 NOSIG', 'WAPP 080200Z VRB02KT 9999 SCT016 29/23 Q1011 NOSIG', 'WAPP 080130Z VRB02KT 9999 SCT016 28/23 Q1011 NOSIG', 'WAPP 080100Z VRB02KT 9999 SCT016 28/24 Q1011 NOSIG', 'WAPP 080030Z VRB02KT 9999 SCT016 27/24 Q1011 NOSIG', 'WAPP 080000Z 02003KT 350V070 8000 VCSH FEW016CB SCT017 26/24 Q1011 NOSIG', 'WAPP 072330Z 03004KT 330V060 8000 VCSH FEW016CB SCT017 25/24 Q1011 NOSIG', 'WAPP 072300Z 05004KT 9999 FEW016CB SCT017 25/24 Q1011 NOSIG RMK CB TO N', 'WAPP 072230Z 05005KT 9000 FEW016CB SCT017 25/24 Q1011 RERA NOSIGRMK CB TO N', 'WAPP 072200Z 04006KT 8000 -RA FEW016CB SCT017 25/23 Q1010 NOSIGRMK CB TO N', 'WAPP 072130Z 36003KT 8000 -RA FEW016CB SCT017 24/23 Q1010 NOSIGRMK CB TO N', 'WAPP 072100Z 01004KT 8000 -RA FEW016CB SCT017 24/23 Q1010 NOSIGRMK CB TO N', 'WAPP 072030Z 04006KT 8000 -RA FEW016CB SCT017 24/23 Q1010 NOSIGRMK CB TO N', 'WAPP 072000Z 01004KT 350V050 8000 -RA FEW016CB SCT017 24/23 Q1010 NOSIGRMK CB TO W', 'WAPP 071930Z VRB02KT 7000 -RA FEW016CB SCT017 24/23 Q1009 NOSIGRMK CB TO W', 'WAPP 071900Z 03003KT 360V120 7000 -RA FEW016CB SCT017 24/23 Q1009 NOSIGRMK CB TO W', 'WAPP 071830Z 27007KT 190V320 7000 -RA FEW016CB SCT017 24/22 Q1010 NOSIGRMK CB TO W', 'WAPP 071730Z 01006KT 9999 SCT017 26/24 Q1010 NOSIG']","['2024-02-10 16:30:00', '2024-02-10 16:00:00', '2024-02-10 15:30:00', '2024-02-10 15:00:00', '2024-02-10 14:30:00', '2024-02-10 14:00:00', '2024-02-10 13:30:00', '2024-02-10 13:00:00', '2024-02-10 12:30:00', '2024-02-10 12:00:00', '2024-02-10 11:30:00', '2024-02-10 11:00:00', '2024-02-10 10:30:00', '2024-02-10 10:00:00', '2024-02-10 09:30:00', '2024-02-10 09:00:00', '2024-02-10 08:30:00', '2024-02-10 08:00:00', '2024-02-10 07:30:00', '2024-02-10 07:00:00', '2024-02-10 06:30:00', '2024-02-10 06:00:00', '2024-02-10 05:30:00', '2024-02-10 05:00:00', '2024-02-10 04:30:00', '2024-02-10 04:00:00', '2024-02-10 03:30:00', '2024-02-10 03:00:00', '2024-02-10 02:30:00', '2024-02-10 02:00:00', '2024-02-10 01:30:00', '2024-02-10 01:00:00', '2024-02-10 00:30:00', '2024-02-10 00:00:00', '2024-02-09 23:30:00', '2024-02-09 22:30:00', '2024-02-09 22:00:00', '2024-02-09 21:30:00', '2024-02-09 21:00:00', '2024-02-09 20:30:00', '2024-02-09 20:00:00', '2024-02-09 19:30:00', '2024-02-09 19:00:00', '2024-02-09 18:30:00', '2024-02-09 18:00:00', '2024-02-09 17:30:00', '2024-02-09 17:00:00', '2024-02-09 16:30:00', '2024-02-09 16:00:00', '2024-02-09 15:30:00', '2024-02-09 15:00:00', '2024-02-09 14:30:00', '2024-02-09 14:00:00', '2024-02-09 13:30:00', '2024-02-09 13:00:00', '2024-02-09 12:30:00', '2024-02-09 12:00:00', '2024-02-09 11:30:00', '2024-02-09 11:00:00', '2024-02-09 10:30:00', '2024-02-09 10:00:00', '2024-02-09 09:30:00', '2024-02-09 09:00:00', '2024-02-09 08:30:00', '2024-02-09 08:00:00', '2024-02-09 07:30:00', '2024-02-09 07:00:00', '2024-02-09 06:30:00', '2024-02-09 05:30:00', '2024-02-09 05:00:00', '2024-02-09 04:30:00', '2024-02-09 04:00:00', '2024-02-09 03:30:00', '2024-02-09 03:00:00', '2024-02-09 02:30:00', '2024-02-09 02:00:00', '2024-02-09 01:30:00', '2024-02-09 01:00:00', '2024-02-09 00:30:00', '2024-02-09 00:00:00', '2024-02-08 23:30:00', '2024-02-08 23:00:00', '2024-02-08 22:30:00', '2024-02-08 22:00:00', '2024-02-08 21:30:00', '2024-02-08 21:00:00', '2024-02-08 20:30:00', '2024-02-08 20:00:00', '2024-02-08 19:30:00', '2024-02-08 19:00:00', '2024-02-08 18:30:00', '2024-02-08 18:00:00', '2024-02-08 17:30:00', '2024-02-08 17:00:00', '2024-02-08 16:30:00', '2024-02-08 16:00:00', '2024-02-08 15:30:00', '2024-02-08 15:00:00', '2024-02-08 14:30:00', '2024-02-08 14:00:00', '2024-02-08 13:30:00', '2024-02-08 13:00:00', '2024-02-08 12:30:00', '2024-02-08 12:00:00', '2024-02-08 11:30:00', '2024-02-08 11:00:00', '2024-02-08 10:30:00', '2024-02-08 10:00:00', '2024-02-08 09:30:00', '2024-02-08 09:00:00', '2024-02-08 08:30:00', '2024-02-08 08:00:00', '2024-02-08 07:30:00', '2024-02-08 07:00:00', '2024-02-08 06:30:00', '2024-02-08 06:00:00', '2024-02-08 05:00:00', '2024-02-08 04:30:00', '2024-02-08 04:00:00', '2024-02-08 03:30:00', '2024-02-08 03:00:00', '2024-02-08 02:30:00', '2024-02-08 02:00:00', '2024-02-08 01:30:00', '2024-02-08 01:00:00', '2024-02-08 00:30:00', '2024-02-08 00:00:00', '2024-02-07 23:30:00', '2024-02-07 23:00:00', '2024-02-07 22:30:00', '2024-02-07 22:00:00', '2024-02-07 21:30:00', '2024-02-07 21:00:00', '2024-02-07 20:30:00', '2024-02-07 20:00:00', '2024-02-07 19:30:00', '2024-02-07 19:00:00', '2024-02-07 18:30:00', '2024-02-07 17:30:00']"
Indonesia, Balikpapan Sepinggan Airport (BPN/WALL) ,"['WALL 101630Z 33004KT 9000 FEW020 26/25 Q1013 NOSIG', 'WALL 101600Z 32003KT 9000 FEW020 26/25 Q1013 NOSIG', 'WALL 101530Z 36003KT 9000 FEW020 26/25 Q1013 NOSIG', 'WALL 101500Z 31003KT 9000 FEW020 26/25 Q1013 NOSIG', 'WALL 101430Z 31003KT 9000 FEW020 26/25 Q1013 NOSIG', 'WALL 101400Z 35003KT 9000 SCT020 26/25 Q1013 NOSIG', 'WALL 101330Z 02004KT 9000 SCT020 26/25 Q1013 NOSIG', 'WALL 101300Z 35004KT 9000 SCT020 26/25 Q1013 NOSIG', 'WALL 101230Z 01003KT 9000 SCT020 26/25 Q1012 NOSIG', 'WALL 101200Z 01003KT 9000 SCT020 26/25 Q1012 NOSIG', 'WALL 101130Z 33004KT 9000 FEW018CB SCT020 27/25Q1011 RMK CB TO NE', 'WALL 101100Z 34004KT 9000 FEW018CB SCT020 27/25Q1011 RMK CB TO N', 'WALL 101030Z 33002KT 9000 FEW018CB SCT020 27/25Q1011 RMK CB TO N', 'WALL 101000Z 02004KT 9000 FEW018CB BKN020 27/25Q1010 RMK CB TO N', 'WALL 100930Z 00000KT 9000 FEW018CB BKN020 27/26Q1010 RMK CB TO N', 'WALL 100900Z 00000KT 8000 FEW018CB BKN020 27/25Q1010 RETS RMK TO N AND S', 'WALL 100830Z 22003KT 2000 TSRA FEW016CB BKN018 26/25Q1010 RMK CB OVER THE FIELD', 'WALL 100800Z 27009KT 9000 TSRA FEW016CB BKN018 27/25Q1010 RMK CB OVER THE FIELD', 'WALL 100730Z 02009KT 9999 TS FEW018CB SCT020 28/25Q1010 RMK CB OVER THE FIELD', 'WALL 100700Z 07012KT 9999 FEW018CB SCT020 29/26Q1010 RMK CB TO SW', 'WALL 100630Z 07008KT 9999 FEW018CB SCT020 30/26Q1011 RMK CB TO SW AND NW', 'WALL 100600Z 07006KT 9999 FEW018CB SCT020 30/26Q1011 RMK CB TO W', 'WALL 100530Z 08005KT 9999 SCT020 30/26 Q1011', 'WALL 100500Z 08004KT 9999 FEW020 30/26 Q1012 NOSIG', 'WALL 100430Z 04005KT 9999 FEW020 32/25 Q1013 NOSIG', 'WALL 100400Z 02005KT 9999 FEW020 32/25 Q1013 NOSIG', 'WALL 100330Z 30003KT 9999 FEW020 30/25 Q1014 NOSIG', 'WALL 100300Z 30004KT 9999 FEW020 30/24 Q1014 NOSIG', 'WALL 100230Z 33004KT 9999 FEW020 30/24 Q1014 NOSIG', 'WALL 100200Z 32005KT 9999 FEW020 29/25 Q1014 NOSIG', 'WALL 100130Z 33004KT 9999 FEW020 29/24 Q1014 NOSIG', 'WALL 100100Z 30003KT 9999 FEW020 28/25 Q1014 NOSIG', 'WALL 100030Z 31006KT 9999 FEW020 27/24 Q1013 NOSIG', 'WALL 100000Z 33007KT 9999 FEW020 27/24 Q1013 NOSIG', 'WALL 092330Z 31007KT 9999 FEW020 27/24 Q1012 NOSIG', 'WALL 092300Z 34004KT 9999 FEW020 26/24 Q1012 NOSIG', 'WALL 092230Z 34005KT 9999 FEW020 25/24 Q1012 NOSIG', 'WALL 092030Z 34005KT 9000 FEW020 25/24 Q1011 NOSIG', 'WALL 092000Z 33004KT 320V020 9000 FEW020 25/24 Q1011 NOSIG', 'WALL 091930Z 31003KT 310V020 9000 FEW020 25/24 Q1011 NOSIG', 'WALL 091900Z 36004KT 9000 FEW020 25/24 Q1011 NOSIG', 'WALL 091830Z 33004KT 310V010 9000 FEW020 25/24 Q1011 NOSIG', 'WALL 091800Z 32005KT 9000 FEW020 25/24 Q1011 NOSIG', 'WALL 091730Z 35005KT 9000 FEW020 25/25 Q1012 NOSIG', 'WALL 091700Z 34006KT 9000 FEW020 26/25 Q1012', 'WALL 091630Z 34008KT 9000 FEW020 26/25 Q1013 NOSIG', 'WALL 091600Z 36007KT 9000 FEW020 26/25 Q1013 NOSIG', 'WALL 091530Z 34005KT 9000 FEW020 26/25 Q1013 NOSIG', 'WALL 091500Z 34006KT 9000 FEW020 26/25 Q1013 NOSIG', 'WALL 091430Z 34004KT 9000 FEW020 26/25 Q1013 NOSIG', 'WALL 091330Z 28003KT 9000 FEW020 26/25 Q1013 NOSIG', 'WALL 091300Z 27003KT 9000 FEW020 26/25 Q1012 NOSIG', 'WALL 091230Z 25005KT 8000 FEW020 26/26 Q1012 NOSIG', 'WALL 091200Z 27004KT 240V360 9000 FEW020 26/25 Q1011', 'WALL 091130Z 03004KT 9000 FEW020 26/25 Q1011 NOSIG', 'WALL 091100Z 01004KT 320V030 7000 FEW020 26/26 Q1011 NOSIG', 'WALL 091030Z 29002KT 9000 FEW020 26/26 Q1010', 'WALL 091000Z VRB03KT 9000 FEW020 26/25 Q1010', 'WALL 090930Z 25002KT 8000 FEW020 26/25 Q1009', 'WALL 090900Z 34002KT 8000 FEW020CB FEW022 26/25 Q1009 RMK CB TO E', 'WALL 090830Z 08002KT 8000 FEW020CB FEW020 26/25 Q1009 RETS RMK CB TO E', 'WALL 090800Z 24002KT 8000 -TSRA FEW020CB SCT022 26/25 Q1009 RMK CB TO S AND E', 'WALL 090730Z 27003KT 8000 -TSRA FEW020CB SCT020 26/25 Q1010 RMK CB TO S AND SE', 'WALL 090700Z 33007KT 300V020 3500 -TSRA FEW018CB BKN020 25/25 Q1010 RMK CB TO S AND SE', 'WALL 090630Z 05004KT 340V130 2500 TS FEW017CB BKN018 28/26 Q1010 RMK CB OVER THE FIELD', 'WALL 090600Z 07003KT 040V120 9999 TS FEW018CB BKN020 29/26 Q1010RMK CB OVER THE FIELD', 'WALL 090530Z 07002KT 9999 FEW018CB BKN020 29/26 Q1010RMK CB TO W NW AND N', 'WALL 090500Z 07002KT 9999 FEW018CB BKN020 29/26 Q1011RMK CB TO W NW AND S', 'WALL 090430Z 10002KT 9999 FEW018CB SCT020 29/25 Q1011RMK CB TO NW AND S', 'WALL 090400Z 00000KT 9999 -RA FEW018CB SCT020 27/25 Q1011RMK CB TO S', 'WALL 090330Z 05004KT 9000 -RA FEW018CB SCT020 26/25 Q1012RMK CB TO S', 'WALL 090300Z 35002KT 7000 -RA FEW018CB BKN020 27/26 Q1012RMK CB TO SW AND S', 'WALL 090230Z 26008KT 1000 +RA FEW016CB BKN018 28/27 Q1012RMK CB TO SW AND S', 'WALL 090200Z 20004KT 9000 FEW018CB SCT020 30/27 Q1012RMK CB TO S AND SE', 'WALL 090130Z 16002KT 9000 FEW018CB SCT020 29/26 Q1012RMK CB TO S AND SE', 'WALL 090100Z 02003KT 9000 FEW018CB SCT020 30/26 Q1011RMK CB TO S AND SE', 'WALL 090030Z 35003KT 9000 FEW018CB SCT020 29/26 Q1012RMK CB TO S AND SE', 'WALL 090000Z 36004KT 9000 SCT020 28/26 Q1011 NOSIG', 'WALL 082330Z 36004KT 8000 FEW018CB FEW020 27/26 Q1011 RMK CB TO E AND S', 'WALL 082300Z 33005KT 8000 FEW018CB FEW020 27/26 Q1011 RMK CB TO E', 'WALL 082230Z 33003KT 8000 FEW018CB SCT018 26/26 Q1011 RMK CB TO E', 'WALL 082200Z 28002KT 8000 SCT018 26/25 Q1010 NOSIG', 'WALL 082130Z 31002KT 8000 SCT018 26/25 Q1010 NOSIG', 'WALL 082100Z 36004KT 8000 SCT018 26/26 Q1010 NOSIG', 'WALL 082030Z 24002KT 7000 SCT020 26/26 Q1010 NOSIG', 'WALL 082000Z 04002KT 7000 SCT020 27/26 Q1010 NOSIG', 'WALL 081930Z 00000KT 7000 -RA FEW020CB SCT020 27/26 Q1010 RMK CB TO N AND E', 'WALL 081900Z 29004KT 9000 -RA FEW020CB SCT020 27/26 Q1010 RMK CB TO N AND E', 'WALL 081830Z 02003KT 9000 SCT020 27/26 Q1010 NOSIG', 'WALL 081800Z 00000KT 9000 SCT020 28/26 Q1011 NOSIG', 'WALL 081730Z 00000KT 9000 SCT020 28/25 Q1011 NOSIG', 'WALL 081700Z 00000KT 9000 SCT020 29/25 Q1011 NOSIG', 'WALL 081630Z 00000KT 9000 SCT020 29/25 Q1011 NOSIG', 'WALL 081600Z 00000KT 9000 SCT020 28/26 Q1012 NOSIG', 'WALL 081530Z 08002KT 9000 SCT020 29/25 Q1012 NOSIG', 'WALL 081500Z 04002KT 9000 SCT020 29/25 Q1012 NOSIG', 'WALL 081430Z 05002KT 9000 SCT020 29/26 Q1011 NOSIG', 'WALL 081400Z 15002KT 9000 FEW020 29/26 Q1011 NOSIG', 'WALL 081330Z 08003KT 9000 FEW020 29/25 Q1011 NOSIG', 'WALL 081300Z 08003KT 9000 FEW020 29/25 Q1011 NOSIG', 'WALL 081230Z 05004KT 040V120 9000 FEW020 29/23 Q1010 NOSIG', 'WALL 081200Z 05003KT 9000 FEW020 29/23 Q1010 NOSIG', 'WALL 081130Z 07003KT 050V110 9000 FEW020 28/23 Q1009 NOSIG', 'WALL 081100Z 06003KT 9009 FEW020 28/24 Q1009 NOSIG', 'WALL 081030Z 02002KT 020V100 9999 FEW020 28/23 Q1008 NOSIG', 'WALL 081000Z 03001KT 9999 FEW020 29/23 Q1009', 'WALL 080930Z 07004KT 020V100 9999 FEW020 30/24 Q1008', 'WALL 080900Z 07005KT 040V100 9999 VCTS FEW020CB FEW020 30/24 Q1008 RMK CB TO NW', 'WALL 080830Z 06003KT 030V120 9999 FEW020 29/24 Q1008 NOSIG', 'WALL 080800Z 09003KT 9999 FEW020 30/24 Q1008 NOSIG', 'WALL 080730Z 08004KT 050V150 9999 FEW020 31/26 Q1009 NOSIG', 'WALL 080700Z 31001KT 310V190 9999 FEW020 31/25 Q1009 NOSIG', 'WALL 080630Z 10003KT 9999 FEW020 32/27 Q1009 NOSIG', 'WALL 080600Z VRB04KT 9999 FEW020 31/26 Q1010 NOSIG', 'WALL 080530Z 14004KT 9999 FEW020 31/26 Q1010 NOSIG', 'WALL 080500Z 15003KT 100V210 9999 FEW020 31/26 Q1011 NOSIG', 'WALL 080430Z 20003KT 150V250 9999 FEW020 31/26 Q1011 NOSIG', 'WALL 080400Z 20005KT 130V230 9999 FEW020 30/25 Q1011 NOSIG', 'WALL 080330Z 19006KT 170V270 9999 FEW020 30/25 Q1012 NOSIG', 'WALL 080300Z 19005KT 140V270 9999 FEW020 30/25 Q1012 NOSIG', 'WALL 080230Z 19005KT 150V240 9999 FEW020 30/25 Q1012 NOSIG', 'WALL 080200Z 20004KT 150V260 9999 FEW020 31/25 Q1012 NOSIG', 'WALL 080130Z VRB02KT 9999 FEW020 30/24 Q1012 NOSIG', 'WALL 080100Z 30003KT 250V010 9999 FEW020 29/24 Q1012 NOSIG', 'WALL 080030Z 31005KT 260V360 9999 FEW020 28/24 Q1012 NOSIG', 'WALL 080000Z 33006KT 300V360 9999 FEW020 27/23 Q1012 NOSIG', 'WALL 072330Z 33006KT 9999 FEW020 26/24 Q1012 NOSIG', 'WALL 072300Z 33005KT 9999 FEW020 25/24 Q1011 NOSIG', 'WALL 072230Z 35002KT 9000 FEW020 24/24 Q1011 NOSIG', 'WALL 072200Z 34002KT 9000 SCT020 25/23Q1011 NOSIG', 'WALL 072130Z 00000KT 9000 FEW020 25/24Q1011 NOSIG', 'WALL 072100Z 20002KT 9000 FEW018CB FEW020 27/25Q1011 RMK CB TO NW', 'WALL 072030Z 00000KT 9000 FEW018CB FEW020 27/25Q1011 RMK CB TO NW', 'WALL 072000Z 20003KT 9000 FEW018CB FEW020 27/25Q1011 RMK CB TO NW', 'WALL 071930Z 21002KT 9000 FEW018CB FEW020 26/25Q1011 RMK CB TO NW', 'WALL 071900Z 22002KT 9000 FEW018CB FEW020 26/25Q1010 RMK CB TO NW', 'WALL 071830Z 19002KT 9000 FEW018CB FEW020 25/24Q1010 RMK CB TO NW', 'WALL 071800Z 21002KT 9000 FEW018CB FEW020 25/24Q1010 RMK CB TO NW', 'WALL 071730Z 00000KT 9000 FEW020 25/24 Q1011 NOSIG']","['2024-02-10 16:30:00', '2024-02-10 16:00:00', '2024-02-10 15:30:00', '2024-02-10 15:00:00', '2024-02-10 14:30:00', '2024-02-10 14:00:00', '2024-02-10 13:30:00', '2024-02-10 13:00:00', '2024-02-10 12:30:00', '2024-02-10 12:00:00', '2024-02-10 11:30:00', '2024-02-10 11:00:00', '2024-02-10 10:30:00', '2024-02-10 10:00:00', '2024-02-10 09:30:00', '2024-02-10 09:00:00', '2024-02-10 08:30:00', '2024-02-10 08:00:00', '2024-02-10 07:30:00', '2024-02-10 07:00:00', '2024-02-10 06:30:00', '2024-02-10 06:00:00', '2024-02-10 05:30:00', '2024-02-10 05:00:00', '2024-02-10 04:30:00', '2024-02-10 04:00:00', '2024-02-10 03:30:00', '2024-02-10 03:00:00', '2024-02-10 02:30:00', '2024-02-10 02:00:00', '2024-02-10 01:30:00', '2024-02-10 01:00:00', '2024-02-10 00:30:00', '2024-02-10 00:00:00', '2024-02-09 23:30:00', '2024-02-09 23:00:00', '2024-02-09 22:30:00', '2024-02-09 20:30:00', '2024-02-09 20:00:00', '2024-02-09 19:30:00', '2024-02-09 19:00:00', '2024-02-09 18:30:00', '2024-02-09 18:00:00', '2024-02-09 17:30:00', '2024-02-09 17:00:00', '2024-02-09 16:30:00', '2024-02-09 16:00:00', '2024-02-09 15:30:00', '2024-02-09 15:00:00', '2024-02-09 14:30:00', '2024-02-09 13:30:00', '2024-02-09 13:00:00', '2024-02-09 12:30:00', '2024-02-09 12:00:00', '2024-02-09 11:30:00', '2024-02-09 11:00:00', '2024-02-09 10:30:00', '2024-02-09 10:00:00', '2024-02-09 09:30:00', '2024-02-09 09:00:00', '2024-02-09 08:30:00', '2024-02-09 08:00:00', '2024-02-09 07:30:00', '2024-02-09 07:00:00', '2024-02-09 06:30:00', '2024-02-09 06:00:00', '2024-02-09 05:30:00', '2024-02-09 05:00:00', '2024-02-09 04:30:00', '2024-02-09 04:00:00', '2024-02-09 03:30:00', '2024-02-09 03:00:00', '2024-02-09 02:30:00', '2024-02-09 02:00:00', '2024-02-09 01:30:00', '2024-02-09 01:00:00', '2024-02-09 00:30:00', '2024-02-09 00:00:00', '2024-02-08 23:30:00', '2024-02-08 23:00:00', '2024-02-08 22:30:00', '2024-02-08 22:00:00', '2024-02-08 21:30:00', '2024-02-08 21:00:00', '2024-02-08 20:30:00', '2024-02-08 20:00:00', '2024-02-08 19:30:00', '2024-02-08 19:00:00', '2024-02-08 18:30:00', '2024-02-08 18:00:00', '2024-02-08 17:30:00', '2024-02-08 17:00:00', '2024-02-08 16:30:00', '2024-02-08 16:00:00', '2024-02-08 15:30:00', '2024-02-08 15:00:00', '2024-02-08 14:30:00', '2024-02-08 14:00:00', '2024-02-08 13:30:00', '2024-02-08 13:00:00', '2024-02-08 12:30:00', '2024-02-08 12:00:00', '2024-02-08 11:30:00', '2024-02-08 11:00:00', '2024-02-08 10:30:00', '2024-02-08 10:00:00', '2024-02-08 09:30:00', '2024-02-08 09:00:00', '2024-02-08 08:30:00', '2024-02-08 08:00:00', '2024-02-08 07:30:00', '2024-02-08 07:00:00', '2024-02-08 06:30:00', '2024-02-08 06:00:00', '2024-02-08 05:30:00', '2024-02-08 05:00:00', '2024-02-08 04:30:00', '2024-02-08 04:00:00', '2024-02-08 03:30:00', '2024-02-08 03:00:00', '2024-02-08 02:30:00', '2024-02-08 02:00:00', '2024-02-08 01:30:00', '2024-02-08 01:00:00', '2024-02-08 00:30:00', '2024-02-08 00:00:00', '2024-02-07 23:30:00', '2024-02-07 23:00:00', '2024-02-07 22:30:00', '2024-02-07 22:00:00', '2024-02-07 21:30:00', '2024-02-07 21:00:00', '2024-02-07 20:30:00', '2024-02-07 20:00:00', '2024-02-07 19:30:00', '2024-02-07 19:00:00', '2024-02-07 18:30:00', '2024-02-07 18:00:00', '2024-02-07 17:30:00']"
Indonesia, Banjarmasin Syamsudin Noor Airport (BDJ/WAOO) ,"['WAOO 101630Z AUTO 06004KT 9999 BKN007 BKN180 27/25 Q1013', 'WAOO 101600Z AUTO 06006KT 9999 FEW190 27/26 Q1013', 'WAOO 101530Z AUTO 05003KT 010V080 9999 FEW160 27/25 Q1013', 'WAOO 101500Z 04002KT 9999 SCT018 26/25 Q1013 NOSIG', 'WAOO 101430Z 03002KT 9999 SCT018 26/25 Q1014 NOSIG', 'WAOO 101400Z 06003KT 030V100 9999 SCT017 26/25 Q1013 NOSIG', 'WAOO 101330Z 02004KT 330V030 9999 SCT017 27/25 Q1013 NOSIG', 'WAOO 101300Z 32004KT 260V340 9999 SCT017 27/25 Q1013 NOSIG', 'WAOO 101230Z 27005KT 9999 SCT017 27/25 Q1012 RERA NOSIG', 'WAOO 101200Z 22004KT 220V290 9999 SCT017 27/25 Q1012 TEMPO FM1230 1330 5000 RA', 'WAOO 101130Z 26006KT 9999 SCT017 28/25 Q1012 NOSIG', 'WAOO 101100Z 27008KT 9999 SCT017 28/24 Q1011 NOSIG', 'WAOO 101030Z 27008KT 9999 SCT017 28/25 Q1010 NOSIG', 'WAOO 101000Z 28010KT 9999 SCT017 30/25 Q1010 NOSIG', 'WAOO 100930Z 24007KT 9999 SCT017 30/25 Q1009 NOSIG', 'WAOO 100900Z 21004KT 9999 SCT017 30/25 Q1009 NOSIG', 'WAOO 100830Z 20006KT 9999 SCT017 31/26 Q1009 NOSIG', 'WAOO 100800Z 24007KT 9999 SCT017 30/25 Q1009 NOSIG', 'WAOO 100730Z 23005KT 9999 FEW015CB SCT017 30/25 Q1009 NOSIG RMK CB TO E', 'WAOO 100700Z 23006KT 2000 RA FEW015CB BKN017 28/24 Q1010 NOSIG RMK CB TO AREA', 'WAOO 100630Z 01005KT 280V060 9999 FEW016CB SCT017 32/25 Q1010 NOSIG RMK CB TO SW', 'WAOO 100600Z 35006KT 9999 FEW016CB SCT017 32/25 Q1011 NOSIG RMK CB TO SW', 'WAOO 100530Z 01007KT 9999 SCT017 31/25 Q1011 NOSIG', 'WAOO 100500Z 03006KT 360V070 9999 SCT017 31/25 Q1012 NOSIG', 'WAOO 100430Z 36006KT 330V050 9999 SCT017 31/25 Q1013 NOSIG', 'WAOO 100400Z 01005KT 330V040 9999 SCT017 30/25 Q1013 NOSIG', 'WAOO 100330Z 03006KT 360V060 9999 SCT017 30/25 Q1013 NOSIG', 'WAOO 100300Z 36006KT 330V040 9999 SCT017 30/25 Q1013 NOSIG', 'WAOO 100230Z 36005KT 310V050 9999 FEW017 29/24 Q1013 NOSIG', 'WAOO 100200Z 02005KT 340V060 9999 FEW016 28/24 Q1013 NOSIG', 'WAOO 100130Z 03005KT 350V060 9999 FEW016 27/24 Q1014 NOSIG', 'WAOO 100100Z 05006KT 9999 FEW017 27/24 Q1013 NOSIG', 'WAOO 100030Z 06006KT 9999 FEW017 26/24 Q1013 NOSIG', 'WAOO 100000Z 05006KT 9999 FEW017 25/24 Q1013 NOSIG', 'WAOO 092330Z 07003KT 9999 FEW017 25/24 Q1012 NOSIG', 'WAOO 092300Z 07003KT 9999 FEW017 25/24 Q1012 NOSIG', 'WAOO 092230Z AUTO VRB02KT 9999 OVC008 25/25 Q1011', 'WAOO 092200Z AUTO 09004KT 9999 OVC008 26/25 Q1011', 'WAOO 092130Z AUTO 09004KT 9999 BKN008 25/25 Q1011', 'WAOO 092100Z AUTO 05005KT 9999 FEW009 26/25 Q1011', 'WAOO 092030Z AUTO 04004KT 9999 OVC010 26/25 Q1011', 'WAOO 092000Z AUTO 05005KT 9999 OVC010 26/25 Q1011', 'WAOO 091900Z AUTO 03004KT 9999 SCT070 BKN080 OVC200 26/25 Q1011', 'WAOO 091830Z AUTO 01004KT 9999 BKN065 BKN075 OVC200 26/25 Q1011', 'WAOO 091800Z AUTO 01005KT 340V050 9999 FEW042 SCT050 BKN070 26/25 Q1012', 'WAOO 091730Z AUTO 02004KT 320V050 1800 BR FEW003 SCT013 BKN017 26/25 Q1012', 'WAOO 091700Z AUTO VRB01KT 9999 FEW022 SCT039 BKN060 26/25 Q1012', 'WAOO 091630Z AUTO VRB03KT 2200 BR FEW003 SCT042 BKN050 25/25 Q1013', 'WAOO 091600Z AUTO 23004KT 180V280 6000 VCTS BKN008 OVC022 26/25 Q1013', 'WAOO 091500Z 06005KT 9999 SCT018 27/25 Q1013 NOSIG', 'WAOO 091430Z 05006KT 9999 FEW018 27/26 Q1013 NOSIG', 'WAOO 091400Z 04005KT 9999 FEW018 28/25 Q1012 NOSIG', 'WAOO 091330Z 05006KT 9999 FEW018 28/26 Q1012 NOSIG', 'WAOO 091300Z 06002KT 9999 FEW018 29/26 Q1011 NOSIG', 'WAOO 091230Z 00000KT 9999 SCT018 29/26 Q1011 NOSIG', 'WAOO 091200Z 26003KT 9999 SCT018 29/26 Q1011 NOSIG', 'WAOO 091130Z 24002KT 220V280 9999 SCT018 29/26 Q1010 NOSIG', 'WAOO 091100Z 24004KT 9999 SCT018 29/26 Q1010 NOSIG', 'WAOO 091030Z 26004KT 220V280 9999 SCT018 30/26 Q1009 NOSIG', 'WAOO 091000Z 21004KT 210V270 9999 FEW018 30/26 Q1009 NOSIG', 'WAOO 090930Z 24006KT 200V270 9999 SCT018 30/25 Q1008 NOSIG', 'WAOO 090900Z 24008KT 210V270 9999 SCT017 31/25 Q1008 NOSIG', 'WAOO 090830Z 22006KT 210V280 9999 SCT017 32/25 Q1007 NOSIG', 'WAOO 090800Z 25006KT 200V290 9999 SCT017 32/24 Q1008 NOSIG', 'WAOO 090730Z 25007KT 210V330 9999 SCT017 32/25 Q1008 NOSIG', 'WAOO 090630Z 20007KT 170V260 9999 SCT018 31/26 Q1009 NOSIG', 'WAOO 090600Z 27005KT 120V290 9999 SCT018 32/26 Q1009 NOSIG', 'WAOO 090530Z 25005KT 170V320 9999 SCT018 31/26 Q1010 NOSIG', 'WAOO 090500Z 27005KT 9999 SCT016 30/26 Q1010 NOSIG', 'WAOO 090430Z 29007KT 230V030 9999 FEW015CB SCT016 29/26 Q1011 RERA NOSIG RMK CB TO E', 'WAOO 090400Z 20003KT 3000 RA FEW015CB SCT016 28/26 Q1011 BECMG FM0430 NSW RMK CB TO AREA', 'WAOO 090330Z 29007KT 210V330 9999 SCT016 32/24 Q1011 TEMPO FM0330 TL0430 1500 RA', 'WAOO 090300Z 30009KT 230V330 9999 SCT018 31/24 Q1012 NOSIG', 'WAOO 090230Z 27007KT 240V320 9999 SCT018 31/25 Q1012 NOSIG', 'WAOO 090200Z 27005KT 180V290 9999 SCT018 30/25 Q1012 NOSIG', 'WAOO 090130Z 21004KT 160V310 9999 SCT018 29/26 Q1012 NOSIG', 'WAOO 090100Z 18002KT 9999 FEW020 28/26 Q1012 NOSIG', 'WAOO 090030Z 06002KT 8000 FEW020 27/25 Q1012 NOSIG', 'WAOO 090000Z 07003KT 7000 FEW020 26/25 Q1011 NOSIG', 'WAOO 082330Z 00000KT 9000 FEW020 25/24 Q1011 NOSIG', 'WAOO 082300Z 09003KT 8000 FEW020 24/24 Q1010 NOSIG', 'WAOO 082230Z 09004KT 8000 FEW020 25/24 Q1010 NOSIG', 'WAOO 082200Z 09003KT 8000 FEW020 25/24 Q1010 NOSIG', 'WAOO 082130Z AUTO 08002KT 9999 NCD 26/25 Q1010', 'WAOO 082100Z AUTO 10002KT 9999 NCD 25/24 Q1010', 'WAOO 082030Z AUTO 05001KT 9999 NCD 26/25 Q1010 NOSIG', 'WAOO 082000Z AUTO 11002KT 9999 NCD 26/25 Q1010 NOSIG', 'WAOO 081930Z AUTO 12002KT 9999 SCT310 SCT330 26/25 Q1009 NOSIG', 'WAOO 081900Z AUTO 10002KT 9999 SCT310 SCT330 26/25 Q1010 NOSIG', 'WAOO 081830Z AUTO 09001KT 9999 SCT310 26/25 Q1010', 'WAOO 081800Z AUTO 09002KT 9999 FEW280 BKN300 26/25 Q1010', 'WAOO 081730Z AUTO VRB02KT 9999 SCT290 27/25 Q1011', 'WAOO 081700Z AUTO 15002KT 9999 FEW075 BKN280 27/25 Q1011', 'WAOO 081630Z AUTO 13001KT 9999 FEW080 FEW250 SCT290 27/25 Q1012', 'WAOO 081600Z AUTO VRB02KT 9999 NCD 27/25 Q1012', 'WAOO 081530Z AUTO 21003KT 9999 SCT200 SCT260 27/26 Q1012', 'WAOO 081500Z AUTO 21003KT 9999 FEW260 SCT290 27/25 Q1012', 'WAOO 081430Z AUTO VRB02KT 9999 BKN290 27/25 Q1011', 'WAOO 081400Z 15003KT 9999 FEW020 27/25 Q1011 NOSIG', 'WAOO 081330Z 14003KT 9999 FEW020 27/25 Q1011 NOSIG', 'WAOO 081300Z 08003KT 9999 FEW020 27/25 Q1011 NOSIG', 'WAOO 081230Z 17002KT 9999 FEW020 28/25 Q1010 NOSIG', 'WAOO 081200Z 19003KT 9999 FEW020 28/24 Q1010 NOSIG', 'WAOO 081130Z 21004KT 150V250 9999 FEW020 28/24 Q1010 NOSIG', 'WAOO 081030Z 20005KT 180V260 9999 FEW020 24/24 Q1009 NOSIG', 'WAOO 081000Z 22006KT 200V270 9999 FEW020 30/24 Q1009 NOSIG', 'WAOO 080930Z 23008KT 190V270 9999 FEW020 31/25 Q1008 NOSIG', 'WAOO 080900Z 23008KT 180V270 9999 FEW020 31/24 Q1008 NOSIG', 'WAOO 080830Z 22008KT 170V270 9999 FEW020 32/25 Q1008 NOSIG', 'WAOO 080800Z 20008KT 160V240 9999 FEW020 32/25 Q1008 NOSIG', 'WAOO 080730Z 25007KT 170V250 9999 FEW020 32/24 Q1008 NOSIG', 'WAOO 080700Z 23008KT 160V250 9999 SCT020 32/24 Q1008 NOSIG', 'WAOO 080630Z 21008KT 150V270 9999 SCT020 32/24 Q1009 NOSIG', 'WAOO 080600Z 21008KT 180V270 9999 SCT020 31/24 Q1010 NOSIG', 'WAOO 080530Z 20007KT 170V240 9999 FEW020 32/24 Q1010 NOSIG', 'WAOO 080500Z 18006KT 170V240 9999 FEW020 31/24 Q1011 NOSIG', 'WAOO 080430Z 19008KT 180V270 9999 SCT020 3/24 Q1011 NOSIG', 'WAOO 080400Z 27005KT 220V310 9999 FEW020 31/24 Q1011 NOSIG', 'WAOO 080330Z 30004KT 250V350 9999 SCT019 30/24 Q1012 NOSIG', 'WAOO 080300Z 26004KT 9999 FEW019 29/25 Q1012 NOSIG', 'WAOO 080230Z 25004KT 230V030 9999 FEW018 28/24 Q1012 NOSIG', 'WAOO 080200Z 34002KT 9999 FEW017 27/24 Q1013 NOSIG', 'WAOO 080130Z 02002KT 9999 FEW017 26/25 Q1013 NOSIG', 'WAOO 080100Z 13004KT 090V160 9999 FEW017 25/24 Q1013 NOSIG', 'WAOO 080030Z 11003KT 9999 SCT017 25/24 Q1013 BECMG FM0100 9999 NSW', 'WAOO 080000Z 06002KT 350V080 8000 RA SCT017 25/24 Q1012 RETS BECMG FM0130 9999 NSW', 'WAOO 072300Z 02005KT 5000 TSRA FEW015CB SCT016 24/24 Q1012 RMK CB TO N AND S', 'WAOO 072130Z 07006KT 4000 RA FEW015CB SCT016 25/25 Q1010 RMK CB TO W', 'WAOO 072100Z AUTO 06006KT 9000 SCT007 BKN029 OVC060 25/25 Q1010 RETSRA', 'WAOO 072030Z AUTO ///// 9000 VCTS FEW006 BKN029 OVC038 ///// Q1010 RETSRA', 'WAOO 072000Z AUTO 07004KT 7000 VCTS FEW007 BKN019 OVC031 26/26 Q1010 RETSRA', 'WAOO 071930Z AUTO 05004KT 020V090 8000 BKN021 BKN055 OVC130 26/26 Q1010 RETSRA', 'WAOO 071900Z AUTO 05003KT 9000 SCT020 OVC029 26/26 Q1010 RETSRA', 'WAOO 071830Z AUTO 06004KT 8000 BKN022 OVC027 26/26 Q1010 RETSRA', 'WAOO 071800Z AUTO 06003KT 360V100 9999 SCT012 BKN017 BKN060 26/26 Q1010 RETSRA', 'WAOO 071730Z AUTO 06003KT 010V090 9999 BKN018 BKN044 BKN070 26/26 Q1011 RETSRA']","['2024-02-10 16:30:00', '2024-02-10 16:00:00', '2024-02-10 15:30:00', '2024-02-10 15:00:00', '2024-02-10 14:30:00', '2024-02-10 14:00:00', '2024-02-10 13:30:00', '2024-02-10 13:00:00', '2024-02-10 12:30:00', '2024-02-10 12:00:00', '2024-02-10 11:30:00', '2024-02-10 11:00:00', '2024-02-10 10:30:00', '2024-02-10 10:00:00', '2024-02-10 09:30:00', '2024-02-10 09:00:00', '2024-02-10 08:30:00', '2024-02-10 08:00:00', '2024-02-10 07:30:00', '2024-02-10 07:00:00', '2024-02-10 06:30:00', '2024-02-10 06:00:00', '2024-02-10 05:30:00', '2024-02-10 05:00:00', '2024-02-10 04:30:00', '2024-02-10 04:00:00', '2024-02-10 03:30:00', '2024-02-10 03:00:00', '2024-02-10 02:30:00', '2024-02-10 02:00:00', '2024-02-10 01:30:00', '2024-02-10 01:00:00', '2024-02-10 00:30:00', '2024-02-10 00:00:00', '2024-02-09 23:30:00', '2024-02-09 23:00:00', '2024-02-09 22:30:00', '2024-02-09 22:00:00', '2024-02-09 21:30:00', '2024-02-09 21:00:00', '2024-02-09 20:30:00', '2024-02-09 20:00:00', '2024-02-09 19:00:00', '2024-02-09 18:30:00', '2024-02-09 18:00:00', '2024-02-09 17:30:00', '2024-02-09 17:00:00', '2024-02-09 16:30:00', '2024-02-09 16:00:00', '2024-02-09 15:00:00', '2024-02-09 14:30:00', '2024-02-09 14:00:00', '2024-02-09 13:30:00', '2024-02-09 13:00:00', '2024-02-09 12:30:00', '2024-02-09 12:00:00', '2024-02-09 11:30:00', '2024-02-09 11:00:00', '2024-02-09 10:30:00', '2024-02-09 10:00:00', '2024-02-09 09:30:00', '2024-02-09 09:00:00', '2024-02-09 08:30:00', '2024-02-09 08:00:00', '2024-02-09 07:30:00', '2024-02-09 06:30:00', '2024-02-09 06:00:00', '2024-02-09 05:30:00', '2024-02-09 05:00:00', '2024-02-09 04:30:00', '2024-02-09 04:00:00', '2024-02-09 03:30:00', '2024-02-09 03:00:00', '2024-02-09 02:30:00', '2024-02-09 02:00:00', '2024-02-09 01:30:00', '2024-02-09 01:00:00', '2024-02-09 00:30:00', '2024-02-09 00:00:00', '2024-02-08 23:30:00', '2024-02-08 23:00:00', '2024-02-08 22:30:00', '2024-02-08 22:00:00', '2024-02-08 21:30:00', '2024-02-08 21:00:00', '2024-02-08 20:30:00', '2024-02-08 20:00:00', '2024-02-08 19:30:00', '2024-02-08 19:00:00', '2024-02-08 18:30:00', '2024-02-08 18:00:00', '2024-02-08 17:30:00', '2024-02-08 17:00:00', '2024-02-08 16:30:00', '2024-02-08 16:00:00', '2024-02-08 15:30:00', '2024-02-08 15:00:00', '2024-02-08 14:30:00', '2024-02-08 14:00:00', '2024-02-08 13:30:00', '2024-02-08 13:00:00', '2024-02-08 12:30:00', '2024-02-08 12:00:00', '2024-02-08 11:30:00', '2024-02-08 10:30:00', '2024-02-08 10:00:00', '2024-02-08 09:30:00', '2024-02-08 09:00:00', '2024-02-08 08:30:00', '2024-02-08 08:00:00', '2024-02-08 07:30:00', '2024-02-08 07:00:00', '2024-02-08 06:30:00', '2024-02-08 06:00:00', '2024-02-08 05:30:00', '2024-02-08 05:00:00', '2024-02-08 04:30:00', '2024-02-08 04:00:00', '2024-02-08 03:30:00', '2024-02-08 03:00:00', '2024-02-08 02:30:00', '2024-02-08 02:00:00', '2024-02-08 01:30:00', '2024-02-08 01:00:00', '2024-02-08 00:30:00', '2024-02-08 00:00:00', '2024-02-07 23:00:00', '2024-02-07 21:30:00', '2024-02-07 21:00:00', '2024-02-07 20:30:00', '2024-02-07 20:00:00', '2024-02-07 19:30:00', '2024-02-07 19:00:00', '2024-02-07 18:30:00', '2024-02-07 18:00:00', '2024-02-07 17:30:00']"
Indonesia, Batam Hang Nadim Airport (BTH/WIDD) ,"['WIDD 101630Z 01003KT 9000 -RA BKN013 25/24 Q1017 NOSIG', 'WIDD 101600Z 01006KT 4000 RA BKN013 25/24 Q1017 NOSIG', 'WIDD 101530Z 03008KT 7000 -RA BKN014 25/24 Q1017 NOSIG', 'WIDD 101500Z 01011KT 8000 -RA SCT014 26/24 Q1017 NOSIG', 'WIDD 101430Z 34005KT 9000 -RA SCT014 27/25 Q1017 NOSIG', 'WIDD 101400Z 02005KT 9999 FEW014 27/25 Q1016 NOSIG', 'WIDD 101330Z 02005KT 9999 FEW014 27/24 Q1016 NOSIG', 'WIDD 101300Z 01009KT 9999 FEW014 27/23 Q1015 NOSIG', 'WIDD 101230Z 02011KT 9999 FEW014 28/24 Q1015 NOSIG', 'WIDD 101200Z 06009KT 9999 FEW014 28/23 Q1014 NOSIG', 'WIDD 101130Z 07008KT 9999 FEW014 29/23 Q1014 NOSIG', 'WIDD 101100Z 07009KT 9999 FEW014 29/24 Q1014 NOSIG', 'WIDD 101030Z 06012KT 9999 SCT014 29/24 Q1013 NOSIG', 'WIDD 101000Z 05012KT 9999 SCT014 30/23 Q1013 NOSIG', 'WIDD 100930Z 06011KT 9999 FEW014 30/23 Q1013 NOSIG', 'WIDD 100900Z 06011KT 9999 FEW014 30/24 Q1013 NOSIG', 'WIDD 100830Z 07013KT 9999 FEW014 31/23 Q1013 NOSIG', 'WIDD 100800Z 06013KT 9999 FEW014 31/23 Q1014 NOSIG', 'WIDD 100730Z 07013KT 9999 FEW014 31/23 Q1014 NOSIG', 'WIDD 100700Z 06015KT 9999 FEW014 31/23 Q1014 NOSIG', 'WIDD 100630Z 06014KT 9999 FEW014 31/23 Q1015 NOSIG', 'WIDD 100600Z 05014KT 9999 SCT014 31/24 Q1015 NOSIG', 'WIDD 100530Z 05014KT 9999 FEW014 31/23 Q1015 NOSIG', 'WIDD 100500Z 05013KT 9999 SCT014 31/23 Q1016 NOSIG', 'WIDD 100430Z 05016KT 9999 SCT014 31/23 Q1016 NOSIG', 'WIDD 100400Z 04014KT 9999 SCT014 31/23 Q1017 NOSIG', 'WIDD 100330Z 05013KT 9999 SCT014 31/23 Q1017 NOSIG', 'WIDD 100300Z 03008KT 9999 SCT014 30/24 Q1017 NOSIG', 'WIDD 100230Z 02008KT 9999 SCT014 29/24 Q1016 NOSIG', 'WIDD 100200Z 01006KT 9999 SCT014 29/24 Q1016 NOSIG', 'WIDD 100130Z 36006KT 9999 FEW014 28/24 Q1016 NOSIG', 'WIDD 100100Z 36005KT 9999 FEW014 27/23 Q1016 NOSIG', 'WIDD 100030Z 36005KT 9000 FEW014 26/23 Q1016 NOSIG', 'WIDD 100000Z 34003KT 9000 FEW014 25/23 Q1015 NOSIG', 'WIDD 092330Z 35005KT 9999 FEW014 25/23 Q1015 NOSIG', 'WIDD 092300Z 35005KT 9999 FEW014 25/23 Q1015 NOSIG', 'WIDD 092230Z 36005KT 9999 FEW014 25/23 Q1015 NOSIG', 'WIDD 092200Z 01005KT 9999 FEW014 26/23 Q1014 NOSIG', 'WIDD 092130Z 35005KT 9999 FEW014 26/23 Q1014 NOSIG', 'WIDD 092100Z 01006KT 9999 FEW014 26/24 Q1014 NOSIG', 'WIDD 092030Z 01006KT 9999 FEW014 26/24 Q1014 NOSIG', 'WIDD 091930Z 01006KT 9999 FEW014 26/24 Q1014 NOSIG', 'WIDD 091830Z 01005KT 9999 FEW014 26/24 Q1015 NOSIG', 'WIDD 091800Z 04008KT 9999 FEW014 27/24 Q1015 NOSIG', 'WIDD 091730Z 04008KT 9999 SCT014 27/24 Q1015 NOSIG', 'WIDD 091700Z 03008KT 9999 SCT014 27/24 Q1016 NOSIG', 'WIDD 091630Z 02008KT 9999 SCT014 27/24 Q1016 NOSIG', 'WIDD 091600Z 02009KT 9999 SCT014 27/24 Q1016 NOSIG', 'WIDD 091530Z 04009KT 9999 SCT014 27/24 Q1016 NOSIG', 'WIDD 091500Z 04010KT 9999 SCT014 28/24 Q1015 NOSIG', 'WIDD 091430Z 03009KT 9999 SCT014 28/24 Q1015 NOSIG METAR WADD 091430Z 05002KT 9999 FEW017 27/24 Q1012 NOSIG', 'WIDD 091400Z 04009KT 9999 SCT014 28/24 Q1015 NOSIG', 'WIDD 091330Z 04010KT 9999 SCT014 28/24 Q1014 NOSIG', 'WIDD 091300Z 04009KT 9999 SCT014 28/24 Q1014 NOSIG', 'WIDD 091230Z 04009KT 9999 SCT014 28/24 Q1013 NOSIG', 'WIDD 091200Z 03006KT 9999 BKN014 28/24 Q1013 NOSIG', 'WIDD 091130Z 03009KT 9000 BKN014 28/24 Q1013 NOSIG', 'WIDD 091100Z 03010KT 9000 SCT014 29/24 Q1012 NOSIG', 'WIDD 091030Z 04011KT 9000 BKN014 29/24 Q1012 NOSIG', 'WIDD 091000Z 05010KT 9999 BKN014 29/23 Q1012 NOSIG', 'WIDD 090930Z 05011KT 9999 BKN014 30/25 Q1012 NOSIG', 'WIDD 090900Z 05013KT 9999 FEW013CB SCT014 30/23 Q1012 NOSIG RMK CB TO SW', 'WIDD 090830Z 05014KT 9999 FEW013CB BKN014 30/24 Q1012 NOSIG RMK CB TO SW', 'WIDD 090800Z 05015KT 9999 FEW013CB FEW014 31/23 Q1011 NOSIG RMK CB TO S AND NW', 'WIDD 090730Z 04014KT 9999 SCT014 31/24 Q1012 NOSIG', 'WIDD 090700Z 05015KT 9999 SCT014 31/23 Q1012 NOSIG', 'WIDD 090630Z 05014KT 9999 SCT014 31/25 Q1013 NOSIG', 'WIDD 090600Z 05014KT 9999 SCT014 31/25 Q1014 NOSIG', 'WIDD 090530Z 06013KT 9999 SCT014 31/25 Q1014 NOSIG', 'WIDD 090500Z 06011KT 9999 SCT014 31/25 Q1014 NOSIG', 'WIDD 090430Z 05014KT 9999 FEW014 31/25 Q1015 NOSIG', 'WIDD 090400Z 05011KT 9999 SCT014 30/25 Q1015 NOSIG', 'WIDD 090330Z 05011KT 9999 SCT014 30/25 Q1015 NOSIG', 'WIDD 090300Z 05011KT 9999 SCT014 30/25 Q1015 NOSIG', 'WIDD 090230Z 05014KT 9999 SCT014 30/25 Q1015 NOSIG', 'WIDD 090200Z 03011KT 9999 SCT014 29/25 Q1015 NOSIG', 'WIDD 090130Z 02008KT 9999 SCT014 29/25 Q1014 NOSIG', 'WIDD 090100Z 01008KT 9999 FEW014 28/25 Q1014 NOSIG', 'WIDD 090030Z 02006KT 9999 FEW014 28/25 Q1014 NOSIG', 'WIDD 090000Z 02004KT 9999 SCT014 27/25 Q1014 NOSIG', 'WIDD 082330Z 01005KT 9999 FEW014 27/25 Q1013 NOSIG', 'WIDD 082300Z 03005KT 9999 FEW014 27/25 Q1013 NOSIG', 'WIDD 082230Z 01004KT 9999 FEW014 27/25 Q1013 NOSIG', 'WIDD 082200Z 04010KT 9999 FEW014 27/25 Q1012 NOSIG', 'WIDD 082100Z 03005KT 9999 FEW014 27/25 Q1012 NOSIG', 'WIDD 082030Z 01004KT 9999 FEW014 27/25 Q1012 NOSIG', 'WIDD 081830Z 36006KT 9999 FEW014 28/25 Q1013 NOSIG', 'WIDD 081730Z 02004KT 9999 FEW014 28/25 Q1013 NOSIG', 'WIDD 081700Z 06008KT 9999 FEW014 28/25 Q1014 NOSIG', 'WIDD 081630Z 03010KT 9999 FEW014 28/25 Q1014 NOSIG', 'WIDD 081600Z 04008KT 9999 FEW014 28/25 Q1014 NOSIG', 'WIDD 081530Z 04008KT 9999 FEW014 28/25 Q1014 NOSIG', 'WIDD 081500Z 02006KT 9999 FEW014 28/25 Q1014 NOSIG', 'WIDD 081400Z 03008KT 9999 FEW014 28/25 Q1013 NOSIG', 'WIDD 081330Z 03008KT 9999 FEW014 28/25 Q1013 NOSIG', 'WIDD 081300Z 02012KT 9999 FEW014 28/25 Q1012 NOSIG', 'WIDD 081230Z 02006KT 9999 FEW014 28/25 Q1012 NOSIG', 'WIDD 081200Z 03012KT 9999 FEW014 29/25 Q1011 NOSIG', 'WIDD 081130Z 04009KT 9999 FEW014 29/25 Q1011 NOSIG', 'WIDD 081100Z 06012KT 9999 FEW014 29/25 Q1011 NOSIG', 'WIDD 081030Z 06013KT 9999 FEW014 28/25 Q1010 NOSIG', 'WIDD 081000Z 06013KT 9999 FEW014 30/25 Q1010 NOSIG', 'WIDD 080930Z 06015KT 9999 FEW014 30/25 Q1010 NOSIG', 'WIDD 080900Z 07014KT 9999 FEW014 30/25 Q1010 NOSIG', 'WIDD 080830Z 04011KT 9999 FEW014 31/25 Q1010 NOSIG', 'WIDD 080800Z 06014KT 9999 FEW014 31/25 Q1010 NOSIG', 'WIDD 080730Z 05015KT 9999 FEW014 31/24 Q1011 NOSIG', 'WIDD 080700Z 07011KT 9999 FEW014 32/23 Q1012 NOSIG', 'WIDD 080630Z 06013KT 9999 FEW014 32/25 Q1012 NOSIG', 'WIDD 080600Z 06012KT 9999 SCT014 32/24 Q1012 NOSIG', 'WIDD 080530Z 05012KT 9999 SCT014 32/25 Q1013 NOSIG', 'WIDD 080500Z 06010KT 9999 SCT014 31/25 Q1013 NOSIG', 'WIDD 080430Z 04010KT 9999 SCT014 31/25 Q1014 NOSIG', 'WIDD 080400Z 05010KT 9999 SCT014 30/25 Q1014 NOSIG', 'WIDD 080330Z 04010KT 9999 SCT014 30/25 Q1014 NOSIG', 'WIDD 080300Z 03007KT 9999 SCT014 30/25 Q1014 NOSIG', 'WIDD 080230Z 04007KT 9999 SCT014 29/24 Q1014 NOSIG', 'WIDD 080200Z 04007KT 9999 SCT014 29/25 Q1014 NOSIG', 'WIDD 080130Z 03006KT 9999 SCT014 28/25 Q1014 NOSIG', 'WIDD 080100Z 04006KT 9999 SCT014 28/25 Q1014 NOSIG', 'WIDD 080030Z 02004KT 9999 FEW014 27/25 Q1014 NOSIG', 'WIDD 080000Z 01004KT 9999 FEW014 26/25 Q1013 NOSIG', 'WIDD 072330Z 02003KT 9999 FEW014 26/25 Q1013 NOSIG', 'WIDD 072300Z 02004KT 9999 FEW014 26/25 Q1013 NOSIG', 'WIDD 072230Z 00000KT 9999 SCT014 26/24 Q1013 NOSIG', 'WIDD 072200Z 00000KT 9999 SCT014 26/25 Q1012 NOSIG', 'WIDD 072130Z 00000KT 9999 SCT014 26/24 Q1012 NOSIG', 'WIDD 072100Z 00000KT 9999 FEW014 26/24 Q1012 NOSIG', 'WIDD 072030Z 00000KT 9999 FEW014 26/24 Q1012 NOSIG', 'WIDD 072000Z 00000KT 9999 FEW014 26/24 Q1012 NOSIG', 'WIDD 071900Z 02004KT 9999 FEW014 27/25 Q1014 NOSIG', 'WIDD 071830Z 00000KT 9999 FEW014 27/25 Q1013 NOSIG', 'WIDD 071800Z 00000KT 9999 FEW014 27/25 Q1014 NOSIG', 'WIDD 071730Z 01002KT 9999 FEW014 27/25 Q1014 NOSIH']","['2024-02-10 16:30:00', '2024-02-10 16:00:00', '2024-02-10 15:30:00', '2024-02-10 15:00:00', '2024-02-10 14:30:00', '2024-02-10 14:00:00', '2024-02-10 13:30:00', '2024-02-10 13:00:00', '2024-02-10 12:30:00', '2024-02-10 12:00:00', '2024-02-10 11:30:00', '2024-02-10 11:00:00', '2024-02-10 10:30:00', '2024-02-10 10:00:00', '2024-02-10 09:30:00', '2024-02-10 09:00:00', '2024-02-10 08:30:00', '2024-02-10 08:00:00', '2024-02-10 07:30:00', '2024-02-10 07:00:00', '2024-02-10 06:30:00', '2024-02-10 06:00:00', '2024-02-10 05:30:00', '2024-02-10 05:00:00', '2024-02-10 04:30:00', '2024-02-10 04:00:00', '2024-02-10 03:30:00', '2024-02-10 03:00:00', '2024-02-10 02:30:00', '2024-02-10 02:00:00', '2024-02-10 01:30:00', '2024-02-10 01:00:00', '2024-02-10 00:30:00', '2024-02-10 00:00:00', '2024-02-09 23:30:00', '2024-02-09 23:00:00', '2024-02-09 22:30:00', '2024-02-09 22:00:00', '2024-02-09 21:30:00', '2024-02-09 21:00:00', '2024-02-09 20:30:00', '2024-02-09 19:30:00', '2024-02-09 18:30:00', '2024-02-09 18:00:00', '2024-02-09 17:30:00', '2024-02-09 17:00:00', '2024-02-09 16:30:00', '2024-02-09 16:00:00', '2024-02-09 15:30:00', '2024-02-09 15:00:00', '2024-02-09 14:30:00', '2024-02-09 14:00:00', '2024-02-09 13:30:00', '2024-02-09 13:00:00', '2024-02-09 12:30:00', '2024-02-09 12:00:00', '2024-02-09 11:30:00', '2024-02-09 11:00:00', '2024-02-09 10:30:00', '2024-02-09 10:00:00', '2024-02-09 09:30:00', '2024-02-09 09:00:00', '2024-02-09 08:30:00', '2024-02-09 08:00:00', '2024-02-09 07:30:00', '2024-02-09 07:00:00', '2024-02-09 06:30:00', '2024-02-09 06:00:00', '2024-02-09 05:30:00', '2024-02-09 05:00:00', '2024-02-09 04:30:00', '2024-02-09 04:00:00', '2024-02-09 03:30:00', '2024-02-09 03:00:00', '2024-02-09 02:30:00', '2024-02-09 02:00:00', '2024-02-09 01:30:00', '2024-02-09 01:00:00', '2024-02-09 00:30:00', '2024-02-09 00:00:00', '2024-02-08 23:30:00', '2024-02-08 23:00:00', '2024-02-08 22:30:00', '2024-02-08 22:00:00', '2024-02-08 21:00:00', '2024-02-08 20:30:00', '2024-02-08 18:30:00', '2024-02-08 17:30:00', '2024-02-08 17:00:00', '2024-02-08 16:30:00', '2024-02-08 16:00:00', '2024-02-08 15:30:00', '2024-02-08 15:00:00', '2024-02-08 14:00:00', '2024-02-08 13:30:00', '2024-02-08 13:00:00', '2024-02-08 12:30:00', '2024-02-08 12:00:00', '2024-02-08 11:30:00', '2024-02-08 11:00:00', '2024-02-08 10:30:00', '2024-02-08 10:00:00', '2024-02-08 09:30:00', '2024-02-08 09:00:00', '2024-02-08 08:30:00', '2024-02-08 08:00:00', '2024-02-08 07:30:00', '2024-02-08 07:00:00', '2024-02-08 06:30:00', '2024-02-08 06:00:00', '2024-02-08 05:30:00', '2024-02-08 05:00:00', '2024-02-08 04:30:00', '2024-02-08 04:00:00', '2024-02-08 03:30:00', '2024-02-08 03:00:00', '2024-02-08 02:30:00', '2024-02-08 02:00:00', '2024-02-08 01:30:00', '2024-02-08 01:00:00', '2024-02-08 00:30:00', '2024-02-08 00:00:00', '2024-02-07 23:30:00', '2024-02-07 23:00:00', '2024-02-07 22:30:00', '2024-02-07 22:00:00', '2024-02-07 21:30:00', '2024-02-07 21:00:00', '2024-02-07 20:30:00', '2024-02-07 20:00:00', '2024-02-07 19:00:00', '2024-02-07 18:30:00', '2024-02-07 18:00:00', '2024-02-07 17:30:00']"
Iran, Abadan Airport (ABD/OIAA) ,"['OIAA 101600Z 15004KT 9999 FEW040 SCT200 19/08 Q1017', 'OIAA 101500Z 17006KT 9999 FEW040 BKN200 21/08 Q1017', 'OIAA 101400Z 14008KT 9999 FEW040 BKN200 22/07 Q1017', 'OIAA 101300Z 12008KT CAVOK 24/07 Q1017', 'OIAA 101200Z 09008KT CAVOK 24/07 Q1018', 'OIAA 101100Z 06006KT CAVOK 24/06 Q1018', 'OIAA 101000Z 08008KT CAVOK 24/05 Q1019', 'OIAA 100900Z 13004KT CAVOK 24/05 Q1019', 'OIAA 100800Z 14002KT CAVOK 24/05 Q1020', 'OIAA 100700Z 12004KT 8000 NSC 22/06 Q1021', 'OIAA 100600Z 13004KT 6000 NSC 19/08 Q1021', 'OIAA 100500Z 12002KT 3000 HZ NSC 13/09 Q1021', 'OIAA 100400Z 00000KT 2500 BR NSC 09/08 Q1020', 'OIAA 100300Z 18002KT 5000 BR FEW040 09/07 Q1019', 'OIAA 100200Z 12004KT CAVOK 10/08 Q1019', 'OIAA 100100Z 15002KT CAVOK 10/07 Q1019', 'OIAA 100000Z 18002KT CAVOK 11/07 Q1019', 'OIAA 092300Z 17002KT CAVOK 11/05 Q1019', 'OIAA 092200Z 23002KT CAVOK 13/05 Q1019', 'OIAA 092100Z 18002KT CAVOK 13/05 Q1019', 'OIAA 092000Z 18006KT CAVOK 13/06 Q1020', 'OIAA 091900Z 00000KT CAVOK 15/06 Q1020', 'OIAA 091800Z 00000KT CAVOK 16/05 Q1020', 'OIAA 091700Z 00000KT CAVOK 16/05 Q1020', 'OIAA 091600Z 00000KT CAVOK 18/07 Q1019', 'OIAA 091500Z 36004KT CAVOK 21/04 Q1019', 'OIAA 091400Z 33004KT CAVOK 23/05 Q1019', 'OIAA 091300Z 32006KT CAVOK 24/04 Q1019', 'OIAA 091200Z 35006KT CAVOK 24/04 Q1019', 'OIAA 091100Z 33006KT CAVOK 24/05 Q1020', 'OIAA 091000Z 33008KT CAVOK 23/05 Q1021', 'OIAA 090900Z 32006KT CAVOK 22/06 Q1022', 'OIAA 090800Z 30004KT CAVOK 20/08 Q1022', 'OIAA 090700Z 30004KT CAVOK 19/09 Q1022', 'OIAA 090600Z 32004KT 7000 NSC 13/06 Q1022', 'OIAA 090500Z 00000KT 7000 NSC 13/06 Q1022', 'OIAA 090400Z 00000KT 7000 NSC 09/04 Q1021', 'OIAA 090300Z 00000KT CAVOK 09/04 Q1021', 'OIAA 090200Z 27004KT CAVOK 09/05 Q1021', 'OIAA 090100Z 25002KT CAVOK 10/05 Q1021', 'OIAA 090000Z 00000KT CAVOK 10/06 Q1021', 'OIAA 082300Z 00000KT CAVOK 11/06 Q1021', 'OIAA 082200Z 00000KT CAVOK 11/07 Q1022', 'OIAA 082100Z 00000KT CAVOK 12/07 Q1022', 'OIAA 082000Z 26002KT CAVOK 12/07 Q1022', 'OIAA 081900Z 29002KT CAVOK 14/07 Q1022', 'OIAA 081800Z 36004KT CAVOK 16/07 Q1022', 'OIAA 081700Z 33006KT CAVOK 18/06 Q1022', 'OIAA 081600Z 32004KT CAVOK 19/06 Q1022', 'OIAA 081500Z 33010KT CAVOK 20/05 Q1021', 'OIAA 081400Z 33010KT CAVOK 21/05 Q1021', 'OIAA 081300Z 33014KT CAVOK 22/06 Q1022', 'OIAA 081200Z 32014KT CAVOK 22/06 Q1022', 'OIAA 081100Z 32019KT CAVOK 22/05 Q1023', 'OIAA 081000Z 32014KT CAVOK 21/06 Q1024', 'OIAA 080900Z 30017KT CAVOK 20/06 Q1025', 'OIAA 080800Z 31017KT CAVOK 20/07 Q1026', 'OIAA 080600Z 29010KT 8000 NSC 14/06 Q1026', 'OIAA 080500Z 26006KT 8000 NSC 11/05 Q1026', 'OIAA 080400Z 25006KT 7000 NSC 09/04 Q1025', 'OIAA 080300Z 26002KT 7000 NSC 09/04 Q1024', 'OIAA 080200Z 28004KT CAVOK 09/05 Q1023', 'OIAA 080100Z 28004KT CAVOK 11/05 Q1023', 'OIAA 080000Z 32006KT CAVOK 12/06 Q1023', 'OIAA 072300Z 32004KT CAVOK 13/05 Q1023', 'OIAA 072200Z 31006KT CAVOK 14/05 Q1023', 'OIAA 072100Z 30006KT CAVOK 13/05 Q1023', 'OIAA 072000Z 29006KT CAVOK 13/05 Q1023', 'OIAA 071900Z 30006KT CAVOK 15/04 Q1023', 'OIAA 071800Z 31006KT CAVOK 15/03 Q1023']","['2024-02-10 16:00:00', '2024-02-10 15:00:00', '2024-02-10 14:00:00', '2024-02-10 13:00:00', '2024-02-10 12:00:00', '2024-02-10 11:00:00', '2024-02-10 10:00:00', '2024-02-10 09:00:00', '2024-02-10 08:00:00', '2024-02-10 07:00:00', '2024-02-10 06:00:00', '2024-02-10 05:00:00', '2024-02-10 04:00:00', '2024-02-10 03:00:00', '2024-02-10 02:00:00', '2024-02-10 01:00:00', '2024-02-10 00:00:00', '2024-02-09 23:00:00', '2024-02-09 22:00:00', '2024-02-09 21:00:00', '2024-02-09 20:00:00', '2024-02-09 19:00:00', '2024-02-09 18:00:00', '2024-02-09 17:00:00', '2024-02-09 16:00:00', '2024-02-09 15:00:00', '2024-02-09 14:00:00', '2024-02-09 13:00:00', '2024-02-09 12:00:00', '2024-02-09 11:00:00', '2024-02-09 10:00:00', '2024-02-09 09:00:00', '2024-02-09 08:00:00', '2024-02-09 07:00:00', '2024-02-09 06:00:00', '2024-02-09 05:00:00', '2024-02-09 04:00:00', '2024-02-09 03:00:00', '2024-02-09 02:00:00', '2024-02-09 01:00:00', '2024-02-09 00:00:00', '2024-02-08 23:00:00', '2024-02-08 22:00:00', '2024-02-08 21:00:00', '2024-02-08 20:00:00', '2024-02-08 19:00:00', '2024-02-08 18:00:00', '2024-02-08 17:00:00', '2024-02-08 16:00:00', '2024-02-08 15:00:00', '2024-02-08 14:00:00', '2024-02-08 13:00:00', '2024-02-08 12:00:00', '2024-02-08 11:00:00', '2024-02-08 10:00:00', '2024-02-08 09:00:00', '2024-02-08 08:00:00', '2024-02-08 06:00:00', '2024-02-08 05:00:00', '2024-02-08 04:00:00', '2024-02-08 03:00:00', '2024-02-08 02:00:00', '2024-02-08 01:00:00', '2024-02-08 00:00:00', '2024-02-07 23:00:00', '2024-02-07 22:00:00', '2024-02-07 21:00:00', '2024-02-07 20:00:00', '2024-02-07 19:00:00', '2024-02-07 18:00:00']"
Iran, Abu Musa Island Airport (AEU/OIBA) ,"['OIBA 101500Z 00000KT CAVOK 20/10 Q1017', 'OIBA 101400Z 35004KT CAVOK 22/10 Q1016', 'OIBA 101300Z 36004KT CAVOK 24/11 Q1016', 'OIBA 101200Z 34006KT CAVOK 24/11 Q1017', 'OIBA 101100Z 24004KT CAVOK 25/12 Q1017', 'OIBA 101000Z 22006KT CAVOK 24/13 Q1017', 'OIBA 100900Z 19006KT 8000 FEW030 SCT200 23/13 Q1019', 'OIBA 100800Z 17010KT 6000 FEW030 SCT190 22/13 Q1019', 'OIBA 100700Z 18006KT 8000 FEW030 BKN190 24/12 Q1019', 'OIBA 100600Z VRB02KT 8000 NSC 25/11 Q1020', 'OIBA 100500Z 00000KT 5000 HZ NSC 24/11 Q1019', 'OIBA 100400Z 12004KT 5000 HZ NSC 19/11 Q1019', 'OIBA 100300Z 11004KT 5000 HZ NSC 16/10 Q1018', 'OIBA 091500Z 26008KT 9999 FEW030 21/12 Q1017', 'OIBA 091400Z 25008KT 9999 FEW030 22/13 Q1017', 'OIBA 091300Z 28008KT 9999 FEW030 23/12 Q1017', 'OIBA 091200Z 28008KT 9999 SCT030 23/12 Q1017', 'OIBA 091100Z 28008KT 8000 FEW030 24/13 Q1017', 'OIBA 091000Z 29008KT 8000 FEW030 24/12 Q1018', 'OIBA 090900Z 27008KT 6000 SCT030 24/13 Q1019', 'OIBA 090800Z 31008KT 7000 SCT030 23/13 Q1019', 'OIBA 090700Z 31006KT 8000 SCT030 25/12 Q1019', 'OIBA 090600Z 27006KT 9999 FEW030 24/12 Q1020', 'OIBA 090500Z 30004KT 9999 FEW030 23/11 Q1019', 'OIBA 090400Z 30004KT 9999 SCT030 22/10 Q1018', 'OIBA 090300Z 27008KT 9999 SCT030 20/10 Q1018', 'OIBA 081500Z 26010KT 9999 FEW030 21/12 Q1018', 'OIBA 081400Z 26010KT 9999 FEW030 22/11 Q1018', 'OIBA 081300Z 26010KT 9999 FEW030 23/12 Q1018', 'OIBA 081200Z 28010KT 9999 FEW030 23/13 Q1018', 'OIBA 081100Z 26010KT 9999 FEW030 24/12 Q1018', 'OIBA 081000Z 27008KT 9999 FEW030 24/11 Q1019', 'OIBA 080900Z 25008KT 9999 SCT030 24/11 Q1021', 'OIBA 080800Z 28010KT 9999 SCT030 23/11 Q1022', 'OIBA 080700Z 26008KT 9999 SCT030 24/11 Q1022', 'OIBA 080600Z 26006KT 9999 SCT030 22/11 Q1022', 'OIBA 080500Z 25010KT 9999 SCT030 23/12 Q1021', 'OIBA 080400Z 27010KT 9999 SCT025 21/12 Q1020', 'OIBA 080300Z 30006KT 9999 FEW025 21/10 Q1019']","['2024-02-10 15:00:00', '2024-02-10 14:00:00', '2024-02-10 13:00:00', '2024-02-10 12:00:00', '2024-02-10 11:00:00', '2024-02-10 10:00:00', '2024-02-10 09:00:00', '2024-02-10 08:00:00', '2024-02-10 07:00:00', '2024-02-10 06:00:00', '2024-02-10 05:00:00', '2024-02-10 04:00:00', '2024-02-10 03:00:00', '2024-02-09 15:00:00', '2024-02-09 14:00:00', '2024-02-09 13:00:00', '2024-02-09 12:00:00', '2024-02-09 11:00:00', '2024-02-09 10:00:00', '2024-02-09 09:00:00', '2024-02-09 08:00:00', '2024-02-09 07:00:00', '2024-02-09 06:00:00', '2024-02-09 05:00:00', '2024-02-09 04:00:00', '2024-02-09 03:00:00', '2024-02-08 15:00:00', '2024-02-08 14:00:00', '2024-02-08 13:00:00', '2024-02-08 12:00:00', '2024-02-08 11:00:00', '2024-02-08 10:00:00', '2024-02-08 09:00:00', '2024-02-08 08:00:00', '2024-02-08 07:00:00', '2024-02-08 06:00:00', '2024-02-08 05:00:00', '2024-02-08 04:00:00', '2024-02-08 03:00:00']"
Iran, Aghajari Airport (AKW/OIAG) ,"['OIAG 101600Z 25004KT CAVOK 19/09 Q1018', 'OIAG 101400Z 18004KT CAVOK 24/04 Q1018', 'OIAG 101300Z 23008KT CAVOK 25/05 Q1018', 'OIAG 101200Z 34004KT CAVOK 25/05 Q1018', 'OIAG 101100Z 08006KT CAVOK 26/05 Q1018', 'OIAG 101000Z 00000KT CAVOK 24/06 Q1019', 'OIAG 100900Z 18004KT CAVOK 23/07 Q1020', 'OIAG 100800Z 18004KT CAVOK 22/07 Q1021', 'OIAG 100700Z 16004KT 8000 NSC 20/07 Q1021', 'OIAG 100600Z 00000KT 8000 NSC 18/07 Q1022', 'OIAG 100500Z 00000KT CAVOK 15/06 Q1021', 'OIAG 100400Z VRB02KT 8000 NSC 09/04 Q1021', 'OIAG 100300Z 00000KT 7000 NSC 09/05 Q1020', 'OIAG 100200Z VRB02KT 7000 NSC 09/04 Q1020', 'OIAG 091700Z 35004KT 8000 NSC 17/05 Q1020', 'OIAG 091600Z 01006KT 8000 NSC 19/06 Q1020', 'OIAG 091500Z 28004KT 8000 NSC 20/05 Q1019', 'OIAG 091400Z 28006KT CAVOK 23/05 Q1019', 'OIAG 091300Z 29006KT CAVOK 24/06 Q1019', 'OIAG 091200Z 29004KT CAVOK 24/05 Q1019', 'OIAG 091100Z 32006KT CAVOK 24/05 Q1020', 'OIAG 091000Z 26006KT CAVOK 23/04 Q1021', 'OIAG 090900Z 13006KT CAVOK 22/05 Q1022', 'OIAG 090800Z VRB02KT 8000 NSC 20/06 Q1022', 'OIAG 090700Z VRB02KT 7000 NSC 18/06 Q1023', 'OIAG 090600Z VRB02KT 8000 NSC 15/05 Q1023', 'OIAG 090500Z 00000KT 8000 NSC 12/05 Q1022', 'OIAG 090400Z VRB02KT 8000 NSC 08/03 Q1022', 'OIAG 090300Z VRB02KT 8000 NSC 07/04 Q1021', 'OIAG 090200Z VRB02KT 8000 NSC 08/04 Q1021', 'OIAG 081700Z 33004KT CAVOK 16/05 Q1021', 'OIAG 081600Z 32006KT CAVOK 17/05 Q1021', 'OIAG 081400Z 29012KT CAVOK 21/04 Q1021', 'OIAG 081300Z 29014KT CAVOK 22/05 Q1021', 'OIAG 081200Z 29008KT CAVOK 22/05 Q1021', 'OIAG 081100Z 29008KT CAVOK 22/05 Q1022', 'OIAG 081000Z 29006KT CAVOK 22/04 Q1023', 'OIAG 080900Z 26002KT CAVOK 20/06 Q1024', 'OIAG 080800Z 13002KT CAVOK 19/07 Q1025', 'OIAG 080700Z 15004KT CAVOK 17/06 Q1025', 'OIAG 080600Z 16004KT CAVOK 14/06 Q1025', 'OIAG 080500Z 13002KT CAVOK 12/06 Q1025', 'OIAG 080400Z 11004KT CAVOK 08/05 Q1024', 'OIAG 080300Z 12004KT CAVOK 08/04 Q1023', 'OIAG 080200Z 12004KT CAVOK 08/05 Q1023']","['2024-02-10 16:00:00', '2024-02-10 14:00:00', '2024-02-10 13:00:00', '2024-02-10 12:00:00', '2024-02-10 11:00:00', '2024-02-10 10:00:00', '2024-02-10 09:00:00', '2024-02-10 08:00:00', '2024-02-10 07:00:00', '2024-02-10 06:00:00', '2024-02-10 05:00:00', '2024-02-10 04:00:00', '2024-02-10 03:00:00', '2024-02-10 02:00:00', '2024-02-09 17:00:00', '2024-02-09 16:00:00', '2024-02-09 15:00:00', '2024-02-09 14:00:00', '2024-02-09 13:00:00', '2024-02-09 12:00:00', '2024-02-09 11:00:00', '2024-02-09 10:00:00', '2024-02-09 09:00:00', '2024-02-09 08:00:00', '2024-02-09 07:00:00', '2024-02-09 06:00:00', '2024-02-09 05:00:00', '2024-02-09 04:00:00', '2024-02-09 03:00:00', '2024-02-09 02:00:00', '2024-02-08 17:00:00', '2024-02-08 16:00:00', '2024-02-08 14:00:00', '2024-02-08 13:00:00', '2024-02-08 12:00:00', '2024-02-08 11:00:00', '2024-02-08 10:00:00', '2024-02-08 09:00:00', '2024-02-08 08:00:00', '2024-02-08 07:00:00', '2024-02-08 06:00:00', '2024-02-08 05:00:00', '2024-02-08 04:00:00', '2024-02-08 03:00:00', '2024-02-08 02:00:00']"
Iran, Ahwaz International Airport (AWZ/OIAW) ,"['OIAW 101630Z 00000KT CAVOK 17/08 Q1017', 'OIAW 101600Z 00000KT CAVOK 18/08 Q1017', 'OIAW 101530Z 06002KT CAVOK 20/07 Q1017', 'OIAW 101500Z 01002KT CAVOK 20/06 Q1017 NOSIG', 'OIAW 101430Z 06002KT CAVOK 21/06 Q1017', 'OIAW 101400Z 02002KT CAVOK 22/06 Q1017 NOSIG', 'OIAW 101330Z 05002KT CAVOK 23/05 Q1017', 'OIAW 101300Z 02004KT CAVOK 23/05 Q1017 NOSIG', 'OIAW 101230Z 36004KT CAVOK 24/05 Q1017', 'OIAW 101200Z 09004KT CAVOK 24/03 Q1017 NOSIG', 'OIAW 101130Z 10002KT CAVOK 25/05 Q1017', 'OIAW 101100Z 09002KT CAVOK 25/04 Q1017 NOSIG', 'OIAW 101030Z 10002KT CAVOK 24/04 Q1018', 'OIAW 101000Z 11004KT CAVOK 24/06 Q1018 NOSIG', 'OIAW 100930Z 13004KT CAVOK 23/06 Q1019', 'OIAW 100900Z 11002KT CAVOK 23/07 Q1019 NOSIG', 'OIAW 100830Z 10002KT CAVOK 23/08 Q1019', 'OIAW 100800Z 14004KT CAVOK 22/08 Q1020 NOSIG', 'OIAW 100730Z 15004KT CAVOK 20/08 Q1020', 'OIAW 100700Z 13002KT CAVOK 19/09 Q1020 NOSIG', 'OIAW 100630Z 10002KT 8000 NSC 17/09 Q1021', 'OIAW 100600Z 11002KT 8000 NSC 15/08 Q1020 NOSIG', 'OIAW 100530Z 12002KT 8000 NSC 13/07 Q1020', 'OIAW 100500Z 10002KT 7000 NSC 12/07 Q1020 NOSIG', 'OIAW 100430Z 09004KT 7000 NSC 11/07 Q1020', 'OIAW 100400Z 10002KT 6000 NSC 10/07 Q1019', 'OIAW 100330Z 00000KT 6000 NSC 08/06 Q1019', 'OIAW 100300Z 00000KT 6000 NSC 09/07 Q1019', 'OIAW 100100Z 00000KT 7000 NSC 09/07 Q1017', 'OIAW 100000Z 00000KT 7000 NSC 10/07 Q1018', 'OIAW 092300Z 00000KT 7000 NSC 10/07 Q1018', 'OIAW 092200Z 00000KT 7000 NSC 10/07 Q1018', 'OIAW 092100Z 00000KT CAVOK 11/07 Q1018', 'OIAW 092030Z 00000KT 8000 NSC 12/07 Q1019', 'OIAW 092000Z 00000KT 8000 NSC 12/08 Q1019', 'OIAW 091930Z 00000KT 8000 NSC 12/07 Q1019', 'OIAW 091900Z 00000KT 8000 NSC 13/07 Q1019', 'OIAW 091830Z 00000KT 8000 NSC 12/07 Q1019', 'OIAW 091800Z 00000KT 8000 NSC 13/07 Q1019', 'OIAW 091730Z 00000KT 8000 NSC 13/07 Q1019', 'OIAW 091700Z 00000KT CAVOK 14/07 Q1019', 'OIAW 091630Z 00000KT CAVOK 15/06 Q1019', 'OIAW 091600Z 00000KT CAVOK 15/06 Q1018', 'OIAW 091530Z 31002KT CAVOK 16/05 Q1018', 'OIAW 091500Z 28002KT CAVOK 20/06 Q1018', 'OIAW 091430Z 28004KT CAVOK 21/05 Q1018', 'OIAW 091400Z 31002KT CAVOK 23/05 Q1018', 'OIAW 091330Z 08004KT CAVOK 23/05 Q1018', 'OIAW 091300Z 07002KT CAVOK 25/06 Q1018 NOSIG', 'OIAW 091230Z 29004KT CAVOK 24/05 Q1018', 'OIAW 091200Z 06002KT CAVOK 24/06 Q1018', 'OIAW 091130Z 01002KT CAVOK 24/05 Q1018', 'OIAW 091100Z 28004KT CAVOK 23/06 Q1018 NOSIG', 'OIAW 091030Z 09004KT CAVOK 23/07 Q1019', 'OIAW 091000Z 30004KT CAVOK 23/07 Q1019 NOSIG', 'OIAW 090930Z 12002KT CAVOK 22/08 Q1021', 'OIAW 090900Z 15002KT CAVOK 22/09 Q1021', 'OIAW 090830Z 00000KT 8000 NSC 22/10 Q1021', 'OIAW 090800Z 12002KT 6000 NSC 20/09 Q1021 NOSIG', 'OIAW 090730Z 10002KT 6000 NSC 19/09 Q1021', 'OIAW 090700Z 00000KT 6000 NSC 18/09 Q1021', 'OIAW 090630Z 07002KT 6000 NSC 16/09 Q1021', 'OIAW 090600Z 00000KT 6000 NSC 15/09 Q1021 NOSIG', 'OIAW 090530Z 06002KT 4000 HZ NSC 15/09 Q1021', 'OIAW 090500Z 00000KT 4000 HZ NSC 13/09 Q1021 NOSIG', 'OIAW 090430Z 00000KT 5000 HZ NSC 12/09 Q1021', 'OIAW 090400Z 00000KT 7000 NSC 09/06 Q1020 NOSIG', 'OIAW 090330Z 28002KT 7000 NSC 09/06 Q1020', 'OIAW 090300Z 28002KT 8000 NSC 08/06 Q1020', 'OIAW 090200Z 00000KT 8000 NSC 08/06 Q1020', 'OIAW 090100Z 00000KT CAVOK 08/06 Q1020', 'OIAW 090000Z 00000KT CAVOK 08/05 Q1020', 'OIAW 082300Z 00000KT CAVOK 10/05 Q1020', 'OIAW 082200Z 10002KT CAVOK 12/05 Q1020', 'OIAW 082100Z 30002KT CAVOK 14/05 Q1020', 'OIAW 082030Z 30002KT CAVOK 14/05 Q1020', 'OIAW 081930Z 29002KT CAVOK 14/05 Q1020', 'OIAW 081900Z 32002KT CAVOK 15/05 Q1020', 'OIAW 081830Z 33004KT CAVOK 16/05 Q1021', 'OIAW 081800Z 32004KT CAVOK 17/05 Q1020', 'OIAW 081730Z 30004KT CAVOK 17/05 Q1020', 'OIAW 081700Z 29004KT CAVOK 17/06 Q1020', 'OIAW 081630Z 28002KT CAVOK 16/06 Q1020', 'OIAW 081600Z 28004KT CAVOK 17/06 Q1020', 'OIAW 081530Z 30002KT CAVOK 18/06 Q1020', 'OIAW 081500Z 17002KT CAVOK 19/05 Q1020', 'OIAW 081430Z 16004KT CAVOK 20/06 Q1020', 'OIAW 081400Z 20004KT CAVOK 21/06 Q1020 NOSIG', 'OIAW 081330Z 18004KT CAVOK 22/06 Q1020', 'OIAW 081300Z 32004KT CAVOK 22/06 Q1020', 'OIAW 081230Z 22004KT CAVOK 22/05 Q1021', 'OIAW 081200Z 11004KT CAVOK 22/06 Q1021', 'OIAW 081130Z 29004KT CAVOK 22/07 Q1021', 'OIAW 081100Z 29004KT CAVOK 22/06 Q1021', 'OIAW 081000Z 30004KT CAVOK 21/07 Q1023', 'OIAW 080930Z 29004KT CAVOK 20/08 Q1023', 'OIAW 080900Z 31004KT CAVOK 19/07 Q1023', 'OIAW 080830Z 31004KT CAVOK 19/07 Q1024', 'OIAW 080800Z 28002KT CAVOK 19/08 Q1024', 'OIAW 080700Z 12002KT CAVOK 17/07 Q1024', 'OIAW 080630Z 30002KT CAVOK 16/08 Q1024', 'OIAW 080530Z 22002KT CAVOK 14/08 Q1024', 'OIAW 080500Z 28002KT CAVOK 13/08 Q1023', 'OIAW 080400Z 00000KT CAVOK 08/04 Q1023', 'OIAW 080330Z 00000KT CAVOK 09/05 Q1023', 'OIAW 080300Z 30002KT CAVOK 10/06 Q1022', 'OIAW 080200Z 33002KT CAVOK 10/06 Q1022', 'OIAW 080100Z 28002KT CAVOK 10/05 Q1022', 'OIAW 080000Z 30004KT CAVOK 12/05 Q1022', 'OIAW 072300Z 30002KT CAVOK 12/05 Q1022', 'OIAW 072200Z 31004KT CAVOK 14/05 Q1022', 'OIAW 072100Z 31006KT CAVOK 15/05 Q1022', 'OIAW 072030Z 31006KT CAVOK 15/05 Q1022', 'OIAW 072000Z 31006KT CAVOK 15/05 Q1022', 'OIAW 071930Z 33006KT CAVOK 16/04 Q1022', 'OIAW 071900Z 33006KT CAVOK 17/06 Q1022', 'OIAW 071830Z 32004KT CAVOK 16/07 Q1022', 'OIAW 071800Z 29002KT CAVOK 15/06 Q1022', 'OIAW 071730Z 30002KT CAVOK 15/07 Q1022']","['2024-02-10 16:30:00', '2024-02-10 16:00:00', '2024-02-10 15:30:00', '2024-02-10 15:00:00', '2024-02-10 14:30:00', '2024-02-10 14:00:00', '2024-02-10 13:30:00', '2024-02-10 13:00:00', '2024-02-10 12:30:00', '2024-02-10 12:00:00', '2024-02-10 11:30:00', '2024-02-10 11:00:00', '2024-02-10 10:30:00', '2024-02-10 10:00:00', '2024-02-10 09:30:00', '2024-02-10 09:00:00', '2024-02-10 08:30:00', '2024-02-10 08:00:00', '2024-02-10 07:30:00', '2024-02-10 07:00:00', '2024-02-10 06:30:00', '2024-02-10 06:00:00', '2024-02-10 05:30:00', '2024-02-10 05:00:00', '2024-02-10 04:30:00', '2024-02-10 04:00:00', '2024-02-10 03:30:00', '2024-02-10 03:00:00', '2024-02-10 01:00:00', '2024-02-10 00:00:00', '2024-02-09 23:00:00', '2024-02-09 22:00:00', '2024-02-09 21:00:00', '2024-02-09 20:30:00', '2024-02-09 20:00:00', '2024-02-09 19:30:00', '2024-02-09 19:00:00', '2024-02-09 18:30:00', '2024-02-09 18:00:00', '2024-02-09 17:30:00', '2024-02-09 17:00:00', '2024-02-09 16:30:00', '2024-02-09 16:00:00', '2024-02-09 15:30:00', '2024-02-09 15:00:00', '2024-02-09 14:30:00', '2024-02-09 14:00:00', '2024-02-09 13:30:00', '2024-02-09 13:00:00', '2024-02-09 12:30:00', '2024-02-09 12:00:00', '2024-02-09 11:30:00', '2024-02-09 11:00:00', '2024-02-09 10:30:00', '2024-02-09 10:00:00', '2024-02-09 09:30:00', '2024-02-09 09:00:00', '2024-02-09 08:30:00', '2024-02-09 08:00:00', '2024-02-09 07:30:00', '2024-02-09 07:00:00', '2024-02-09 06:30:00', '2024-02-09 06:00:00', '2024-02-09 05:30:00', '2024-02-09 05:00:00', '2024-02-09 04:30:00', '2024-02-09 04:00:00', '2024-02-09 03:30:00', '2024-02-09 03:00:00', '2024-02-09 02:00:00', '2024-02-09 01:00:00', '2024-02-09 00:00:00', '2024-02-08 23:00:00', '2024-02-08 22:00:00', '2024-02-08 21:00:00', '2024-02-08 20:30:00', '2024-02-08 19:30:00', '2024-02-08 19:00:00', '2024-02-08 18:30:00', '2024-02-08 18:00:00', '2024-02-08 17:30:00', '2024-02-08 17:00:00', '2024-02-08 16:30:00', '2024-02-08 16:00:00', '2024-02-08 15:30:00', '2024-02-08 15:00:00', '2024-02-08 14:30:00', '2024-02-08 14:00:00', '2024-02-08 13:30:00', '2024-02-08 13:00:00', '2024-02-08 12:30:00', '2024-02-08 12:00:00', '2024-02-08 11:30:00', '2024-02-08 11:00:00', '2024-02-08 10:00:00', '2024-02-08 09:30:00', '2024-02-08 09:00:00', '2024-02-08 08:30:00', '2024-02-08 08:00:00', '2024-02-08 07:00:00', '2024-02-08 06:30:00', '2024-02-08 05:30:00', '2024-02-08 05:00:00', '2024-02-08 04:00:00', '2024-02-08 03:30:00', '2024-02-08 03:00:00', '2024-02-08 02:00:00', '2024-02-08 01:00:00', '2024-02-08 00:00:00', '2024-02-07 23:00:00', '2024-02-07 22:00:00', '2024-02-07 21:00:00', '2024-02-07 20:30:00', '2024-02-07 20:00:00', '2024-02-07 19:30:00', '2024-02-07 19:00:00', '2024-02-07 18:30:00', '2024-02-07 18:00:00', '2024-02-07 17:30:00']"
Iran, Arak Airport (AJK/OIHR) ,"['OIHR 101100Z 01010KT CAVOK 12/M09 Q1021', 'OIHR 101000Z 03002KT CAVOK 13/M09 Q1022', 'OIHR 100900Z 09004KT CAVOK 12/M06 Q1022', 'OIHR 100800Z 00000KT 9999 FEW035 SCT190 09/M05 Q1023', 'OIHR 100700Z 00000KT CAVOK 06/M04 Q1024', 'OIHR 100600Z 18002KT CAVOK 03/M05 Q1024', 'OIHR 100500Z 17006KT CAVOK M03/M06 Q1024', 'OIHR 100430Z 18004KT CAVOK M04/M06 Q1023', 'OIHR 091930Z 06004KT CAVOK 00/M09 Q1022', 'OIHR 091900Z 06004KT CAVOK 02/M09 Q1022', 'OIHR 091800Z 00000KT CAVOK 05/M07 Q1022', 'OIHR 091730Z 06002KT CAVOK 05/M07 Q1022', 'OIHR 091700Z 03006KT CAVOK 05/M07 Q1021', 'OIHR 081430Z 24014KT CAVOK 10/M08 Q1020', 'OIHR 081400Z 24012KT CAVOK 11/M06 Q1020', 'OIHR 081330Z 27010KT CAVOK 13/M05 Q1020', 'OIHR 081300Z 02008KT CAVOK 13/M05 Q1020', 'OIHR 081230Z 03006KT CAVOK 13/M05 Q1020', 'OIHR 081200Z 03006KT CAVOK 13/M05 Q1020', 'OIHR 081100Z 36008KT CAVOK 12/M04 Q1021', 'OIHR 081000Z 15006KT CAVOK 12/M04 Q1022', 'OIHR 080900Z 12006KT CAVOK 09/M03 Q1023', 'OIHR 080700Z 27004KT CAVOK 04/M03 Q1025', 'OIHR 080600Z 00000KT 8000 NSC 01/M03 Q1025', 'OIHR 080500Z 00000KT 6000 NSC M02/M05 Q1025', 'OIHR 080430Z 00000KT 6000 NSC M03/M06 Q1025']","['2024-02-10 11:00:00', '2024-02-10 10:00:00', '2024-02-10 09:00:00', '2024-02-10 08:00:00', '2024-02-10 07:00:00', '2024-02-10 06:00:00', '2024-02-10 05:00:00', '2024-02-10 04:30:00', '2024-02-09 19:30:00', '2024-02-09 19:00:00', '2024-02-09 18:00:00', '2024-02-09 17:30:00', '2024-02-09 17:00:00', '2024-02-08 14:30:00', '2024-02-08 14:00:00', '2024-02-08 13:30:00', '2024-02-08 13:00:00', '2024-02-08 12:30:00', '2024-02-08 12:00:00', '2024-02-08 11:00:00', '2024-02-08 10:00:00', '2024-02-08 09:00:00', '2024-02-08 07:00:00', '2024-02-08 06:00:00', '2024-02-08 05:00:00', '2024-02-08 04:30:00']"
Iran, Ardabil Airport (ADU/OITL) ,"['OITL 101600Z VRB02KT CAVOK 03/M03 Q1021', 'OITL 101500Z 26004KT CAVOK 04/M02 Q1020 NOSIG', 'OITL 101400Z 30006KT 9999 FEW100 07/M01 Q1020 NOSIG', 'OITL 101300Z 33004KT CAVOK 12/M04 Q1019 NOSIG', 'OITL 101230Z 21004KT CAVOK 12/M03 Q1020', 'OITL 101200Z 27004KT CAVOK 12/M03 Q1019 NOSIG', 'OITL 101130Z 30006KT CAVOK 11/M03 Q1019', 'OITL 101100Z 28006KT CAVOK 10/M00 Q1019 NOSIG', 'OITL 101030Z 27006KT 9999 FEW100 BKN200 10/M00 Q1019', 'OITL 101000Z 27006KT 9999 FEW100 09/01 Q1020 NOSIG', 'OITL 100930Z 27006KT 9999 FEW100 10/M02 Q1020', 'OITL 100900Z 33006KT 9999 FEW100 07/M01 Q1020', 'OITL 100800Z 31008KT 9999 FEW100 05/M00 Q1021 NOSIG', 'OITL 100700Z 29008KT 9999 FEW100 03/00 Q1021 NOSIG', 'OITL 100630Z 27010KT 9999 FEW100 03/00 Q1020', 'OITL 100600Z 26004KT 9999 FEW100 SCT200 00/M01 Q1020 NOSIG', 'OITL 100530Z 28006KT 9999 FEW100 SCT200 M02/M03 Q1020', 'OITL 100500Z 25006KT 9999 FEW100 SCT200 M01/M02 Q1020 NOSIG', 'OITL 100400Z 27004KT 9999 FEW100 SCT200 M04/M04 Q1019 NOSIG', 'OITL 100300Z 25006KT 9999 FEW090 BKN200 M03/M03 Q1019', 'OITL 100200Z 28006KT 9999 FEW090 BKN200 M02/M03 Q1018', 'OITL 100100Z 00000KT 9999 FEW090 BKN200 M02/M03 Q1018', 'OITL 100000Z 00000KT 9999 FEW090 BKN200 M01/M02 Q1018', 'OITL 092300Z 28004KT 9999 FEW090 BKN200 M00/M02 Q1018', 'OITL 092200Z 30008KT 9999 FEW090 BKN200 01/M01 Q1018', 'OITL 092100Z 27004KT 9999 FEW090 BKN200 03/M01 Q1018', 'OITL 092000Z 27004KT 9999 FEW090 BKN200 03/M01 Q1018', 'OITL 091900Z 00000KT 9999 FEW090 BKN200 05/M01 Q1018', 'OITL 091800Z 00000KT 9999 FEW090 BKN200 04/M01 Q1018', 'OITL 091700Z 21004KT 9999 FEW090 BKN200 05/M02 Q1018', 'OITL 091600Z VRB02KT 9999 FEW090 OVC200 05/M00 Q1018', 'OITL 091500Z 21008KT 9999 FEW090 OVC200 05/00 Q1017 NOSIG', 'OITL 091400Z 14012KT 9999 FEW090 OVC200 08/M01 Q1016 NOSIG', 'OITL 091300Z 21006KT 9999 FEW090 OVC200 08/M02 Q1017 NOSIG', 'OITL 091230Z 10004KT 9999 FEW090 OVC200 09/M04 Q1016', 'OITL 091200Z VRB02KT 9999 FEW090 OVC200 09/M02 Q1017 NOSIG', 'OITL 091130Z 27006KT 9999 FEW100 OVC200 09/M02 Q1016', 'OITL 091100Z 24008KT 9999 FEW100 OVC200 11/M02 Q1016 NOSIG', 'OITL 091030Z 23016KT 9999 FEW100 OVC200 11/M02 Q1016', 'OITL 091000Z 19014KT 9999 FEW100 OVC200 11/M02 Q1016 NOSIG', 'OITL 090930Z 20016G27KT 9999 FEW100 OVC200 10/M02 Q1017', 'OITL 090900Z 23010G21KT 9999 SCT090 OVC200 09/M02 Q1017 NOSIG', 'OITL 090830Z 22010G21KT 9999 SCT090 OVC200 09/M02 Q1017', 'OITL 090800Z 21019G29KT 9999 SCT090 OVC200 09/M03 Q1017 NOSIG', 'OITL 090730Z 21016G27KT 9999 SCT090 OVC200 07/M03 Q1017', 'OITL 090700Z 20016G27KT 9999 SCT090 OVC200 07/M02 Q1017 NOSIG', 'OITL 090630Z 21012G23KT 9999 SCT090 OVC200 07/M02 Q1017', 'OITL 090600Z 22016G29KT 9999 SCT090 OVC200 06/M02 Q1017 NOSIG', 'OITL 090530Z 21016G27KT 9999 FEW080 BKN200 06/M02 Q1017', 'OITL 090500Z 22017KT 9999 FEW080 BKN200 05/M02 Q1016 NOSIG', 'OITL 090430Z 20019KT 9999 FEW080 BKN200 03/M02 Q1016', 'OITL 090400Z 20023KT 9999 FEW080 BKN200 03/M02 Q1016 NOSIG', 'OITL 090300Z 20006KT CAVOK M04/M05 Q1016', 'OITL 090200Z 27006KT CAVOK M01/M02 Q1015', 'OITL 090100Z 34006KT CAVOK M04/M05 Q1015', 'OITL 090000Z 27004KT CAVOK M03/M04 Q1017', 'OITL 082300Z 27004KT CAVOK M03/M04 Q1016', 'OITL 082100Z 24006KT CAVOK M02/M03 Q1016', 'OITL 082000Z 30006KT CAVOK M01/M03 Q1016', 'OITL 081900Z 25008KT CAVOK 02/M02 Q1017', 'OITL 081800Z 18006KT 9999 FEW100 03/M01 Q1016', 'OITL 081700Z 16006KT 9999 FEW100 04/M02 Q1017', 'OITL 081600Z 21008KT 9999 FEW110 SCT200 04/M02 Q1017', 'OITL 081500Z VRB02KT 9999 FEW110 BKN200 03/M02 Q1016 NOSIG', 'OITL 081400Z VRB02KT 9999 FEW110 BKN200 06/M01 Q1016 NOSIG', 'OITL 081300Z 24004KT 9999 FEW110 BKN200 07/M01 Q1016 NOSIG', 'OITL 081230Z 27006KT 9999 FEW110 BKN200 10/M02 Q1016', 'OITL 081200Z 21010KT 9999 FEW110 BKN200 10/M03 Q1016 NOSIG', 'OITL 081130Z 20010KT 9999 FEW110 SCT200 09/M05 Q1017', 'OITL 081100Z 22014KT 9999 FEW110 SCT200 10/M04 Q1017 NOSIG', 'OITL 081030Z 26006KT 9999 FEW100 09/M03 Q1017', 'OITL 081000Z 25006KT 9999 FEW100 09/M03 Q1018 NOSIG', 'OITL 080900Z 27006KT 9999 FEW090 08/M02 Q1018 NOSIG', 'OITL 080800Z 22016KT 9999 FEW090 07/M02 Q1019 NOSIG', 'OITL 080700Z 33006KT 9999 FEW090 SCT200 04/M02 Q1019 NOSIG', 'OITL 080630Z 23008KT 9999 FEW090 SCT200 04/M03 Q1019', 'OITL 080600Z 23010KT 9999 FEW090 SCT200 04/M02 Q1019 NOSIG', 'OITL 080530Z 24004KT 9999 FEW090 SCT200 04/M03 Q1019', 'OITL 080500Z 08002KT 9999 FEW090 SCT200 04/M03 Q1020 NOSIG', 'OITL 080430Z 12004KT 9999 FEW090 SCT200 02/M02 Q1019', 'OITL 080400Z 00000KT 9999 FEW090 SCT200 M02/M04 Q1019 NOSIG', 'OITL 080300Z 00000KT 9999 FEW090 M02/M05 Q1018', 'OITL 080200Z 00000KT CAVOK M03/M06 Q1017', 'OITL 080100Z 25006KT CAVOK M03/M05 Q1017', 'OITL 080000Z 14006KT CAVOK M04/M05 Q1017', 'OITL 072300Z 24008KT CAVOK M02/M05 Q1018', 'OITL 072200Z 23008KT CAVOK M00/M04 Q1017', 'OITL 072100Z 25008KT CAVOK M01/M04 Q1017', 'OITL 072000Z 21012KT CAVOK 02/M03 Q1018', 'OITL 071900Z 20010KT CAVOK 02/M03 Q1018', 'OITL 071800Z 30006KT CAVOK 02/M03 Q1018']","['2024-02-10 16:00:00', '2024-02-10 15:00:00', '2024-02-10 14:00:00', '2024-02-10 13:00:00', '2024-02-10 12:30:00', '2024-02-10 12:00:00', '2024-02-10 11:30:00', '2024-02-10 11:00:00', '2024-02-10 10:30:00', '2024-02-10 10:00:00', '2024-02-10 09:30:00', '2024-02-10 09:00:00', '2024-02-10 08:00:00', '2024-02-10 07:00:00', '2024-02-10 06:30:00', '2024-02-10 06:00:00', '2024-02-10 05:30:00', '2024-02-10 05:00:00', '2024-02-10 04:00:00', '2024-02-10 03:00:00', '2024-02-10 02:00:00', '2024-02-10 01:00:00', '2024-02-10 00:00:00', '2024-02-09 23:00:00', '2024-02-09 22:00:00', '2024-02-09 21:00:00', '2024-02-09 20:00:00', '2024-02-09 19:00:00', '2024-02-09 18:00:00', '2024-02-09 17:00:00', '2024-02-09 16:00:00', '2024-02-09 15:00:00', '2024-02-09 14:00:00', '2024-02-09 13:00:00', '2024-02-09 12:30:00', '2024-02-09 12:00:00', '2024-02-09 11:30:00', '2024-02-09 11:00:00', '2024-02-09 10:30:00', '2024-02-09 10:00:00', '2024-02-09 09:30:00', '2024-02-09 09:00:00', '2024-02-09 08:30:00', '2024-02-09 08:00:00', '2024-02-09 07:30:00', '2024-02-09 07:00:00', '2024-02-09 06:30:00', '2024-02-09 06:00:00', '2024-02-09 05:30:00', '2024-02-09 05:00:00', '2024-02-09 04:30:00', '2024-02-09 04:00:00', '2024-02-09 03:00:00', '2024-02-09 02:00:00', '2024-02-09 01:00:00', '2024-02-09 00:00:00', '2024-02-08 23:00:00', '2024-02-08 21:00:00', '2024-02-08 20:00:00', '2024-02-08 19:00:00', '2024-02-08 18:00:00', '2024-02-08 17:00:00', '2024-02-08 16:00:00', '2024-02-08 15:00:00', '2024-02-08 14:00:00', '2024-02-08 13:00:00', '2024-02-08 12:30:00', '2024-02-08 12:00:00', '2024-02-08 11:30:00', '2024-02-08 11:00:00', '2024-02-08 10:30:00', '2024-02-08 10:00:00', '2024-02-08 09:00:00', '2024-02-08 08:00:00', '2024-02-08 07:00:00', '2024-02-08 06:30:00', '2024-02-08 06:00:00', '2024-02-08 05:30:00', '2024-02-08 05:00:00', '2024-02-08 04:30:00', '2024-02-08 04:00:00', '2024-02-08 03:00:00', '2024-02-08 02:00:00', '2024-02-08 01:00:00', '2024-02-08 00:00:00', '2024-02-07 23:00:00', '2024-02-07 22:00:00', '2024-02-07 21:00:00', '2024-02-07 20:00:00', '2024-02-07 19:00:00', '2024-02-07 18:00:00']"
Iran, Assaluyeh Persian Gulf Airport (PGU/OIBP) ,"['OIBP 101600Z 00000KT CAVOK 20/12 Q1018 A3008', 'OIBP 101500Z 00000KT 8000 FEW034CB BKN170 21/12 Q1018 A3007', 'OIBP 101400Z 25006KT 8000 FEW034CB BKN180 22/13 Q1018 A3006', 'OIBP 101300Z 23008KT 6000 NSC 23/11 Q1017 A3004', 'OIBP 101200Z 24006KT CAVOK 25/12 Q1016 A3003', 'OIBP 101100Z 23008KT CAVOK 26/12 Q1016 A3002', 'OIBP 101000Z 19004KT CAVOK 27/07 Q1017 A3004', 'OIBP 100900Z 21004KT CAVOK 26/07 Q1018 A3008', 'OIBP 100800Z 04004KT CAVOK 24/08 Q1019 A3011', 'OIBP 100700Z 00000KT CAVOK 23/10 Q1020 A3014', 'OIBP 100600Z 15004KT 7000 NSC 19/10 Q1020 A3013', 'OIBP 100500Z 15006KT 6000 NSC 14/09 Q1020 A3012', 'OIBP 100400Z 13006KT 6000 NSC 11/08 Q1019 A3010', 'OIBP 100330Z 13004KT 7000 NSC 11/08 Q1019 A3009', 'OIBP 100300Z 13004KT CAVOK 11/08 Q1018 A3008', 'OIBP 100200Z 12004KT CAVOK 12/09 Q1017 A3006', 'OIBP 100100Z 13006KT CAVOK 13/09 Q1018 A3006', 'OIBP 100000Z 14004KT CAVOK 12/08 Q1018 A3007', 'OIBP 092100Z 14004KT CAVOK 14/09 Q1018 A3009', 'OIBP 092000Z 13006KT CAVOK 15/09 Q1019 A3010', 'OIBP 091900Z 10004KT CAVOK 16/09 Q1019 A3009', 'OIBP 091800Z 00000KT CAVOK 16/09 Q1018 A3008', 'OIBP 091700Z 16004KT CAVOK 17/09 Q1018 A3007', 'OIBP 091600Z 10004KT CAVOK 19/10 Q1018 A3006', 'OIBP 091500Z 00000KT CAVOK 21/10 Q1017 A3005', 'OIBP 091400Z 29006KT CAVOK 22/09 Q1017 A3003', 'OIBP 091300Z 30008KT CAVOK 23/10 Q1017 A3003', 'OIBP 091200Z 30010KT CAVOK 23/11 Q1017 A3004', 'OIBP 091100Z 24008KT CAVOK 24/11 Q1017 A3005', 'OIBP 091000Z 28006KT CAVOK 24/10 Q1018 A3006', 'OIBP 090900Z 14004KT CAVOK 24/09 Q1019 A3009', 'OIBP 090800Z VRB02KT CAVOK 25/09 Q1020 A3012', 'OIBP 090700Z 16004KT CAVOK 22/11 Q1020 A3014', 'OIBP 090600Z 15006KT CAVOK 19/11 Q1020 A3014', 'OIBP 090500Z 13004KT CAVOK 16/10 Q1020 A3012', 'OIBP 090400Z 12006KT CAVOK 12/09 Q1019 A3010', 'OIBP 090300Z 12006KT CAVOK 11/09 Q1018 A3009', 'OIBP 090200Z 15006KT CAVOK 11/09 Q1018 A3007', 'OIBP 090100Z 13004KT CAVOK 12/09 Q1018 A3007', 'OIBP 090000Z 00000KT CAVOK 13/10 Q1018 A3006', 'OIBP 082100Z 00000KT CAVOK 15/10 Q1019 A3010', 'OIBP 082000Z 00000KT CAVOK 17/11 Q1019 A3011', 'OIBP 081900Z 00000KT CAVOK 18/12 Q1019 A3011', 'OIBP 081800Z 28004KT CAVOK 19/12 Q1019 A3011', 'OIBP 081700Z 28006KT CAVOK 20/12 Q1019 A3011', 'OIBP 081600Z 29008KT CAVOK 20/12 Q1019 A3010', 'OIBP 081500Z 28006KT CAVOK 21/11 Q1018 A3009', 'OIBP 081400Z 29008KT CAVOK 22/10 Q1018 A3007', 'OIBP 081300Z 29010KT CAVOK 22/11 Q1018 A3007', 'OIBP 081200Z 29010KT CAVOK 23/10 Q1018 A3008', 'OIBP 081100Z 30008KT 8000 NSC 23/08 Q1018 A3009', 'OIBP 081000Z 30010KT CAVOK 23/10 Q1019 A3011', 'OIBP 080900Z 29008KT CAVOK 23/10 Q1020 A3015', 'OIBP 080800Z 28004KT CAVOK 23/07 Q1021 A3018', 'OIBP 080700Z 17004KT CAVOK 22/09 Q1022 A3020', 'OIBP 080600Z 15004KT CAVOK 19/09 Q1022 A3019', 'OIBP 080500Z 13006KT CAVOK 15/09 Q1022 A3019', 'OIBP 080400Z 13006KT 8000 NSC 12/09 Q1021 A3017', 'OIBP 080300Z 13006KT CAVOK 11/08 Q1020 A3014', 'OIBP 080200Z 15006KT CAVOK 11/08 Q1019 A3011', 'OIBP 080100Z 12004KT CAVOK 13/09 Q1019 A3011', 'OIBP 080000Z 00000KT CAVOK 12/09 Q1019 A3011', 'OIBP 072100Z 00000KT CAVOK 16/10 Q1020 A3013', 'OIBP 072000Z 34004KT CAVOK 17/11 Q1020 A3014', 'OIBP 071900Z 30010KT CAVOK 19/11 Q1020 A3013', 'OIBP 071800Z 29010KT CAVOK 19/11 Q1019 A3012']","['2024-02-10 16:00:00', '2024-02-10 15:00:00', '2024-02-10 14:00:00', '2024-02-10 13:00:00', '2024-02-10 12:00:00', '2024-02-10 11:00:00', '2024-02-10 10:00:00', '2024-02-10 09:00:00', '2024-02-10 08:00:00', '2024-02-10 07:00:00', '2024-02-10 06:00:00', '2024-02-10 05:00:00', '2024-02-10 04:00:00', '2024-02-10 03:30:00', '2024-02-10 03:00:00', '2024-02-10 02:00:00', '2024-02-10 01:00:00', '2024-02-10 00:00:00', '2024-02-09 21:00:00', '2024-02-09 20:00:00', '2024-02-09 19:00:00', '2024-02-09 18:00:00', '2024-02-09 17:00:00', '2024-02-09 16:00:00', '2024-02-09 15:00:00', '2024-02-09 14:00:00', '2024-02-09 13:00:00', '2024-02-09 12:00:00', '2024-02-09 11:00:00', '2024-02-09 10:00:00', '2024-02-09 09:00:00', '2024-02-09 08:00:00', '2024-02-09 07:00:00', '2024-02-09 06:00:00', '2024-02-09 05:00:00', '2024-02-09 04:00:00', '2024-02-09 03:00:00', '2024-02-09 02:00:00', '2024-02-09 01:00:00', '2024-02-09 00:00:00', '2024-02-08 21:00:00', '2024-02-08 20:00:00', '2024-02-08 19:00:00', '2024-02-08 18:00:00', '2024-02-08 17:00:00', '2024-02-08 16:00:00', '2024-02-08 15:00:00', '2024-02-08 14:00:00', '2024-02-08 13:00:00', '2024-02-08 12:00:00', '2024-02-08 11:00:00', '2024-02-08 10:00:00', '2024-02-08 09:00:00', '2024-02-08 08:00:00', '2024-02-08 07:00:00', '2024-02-08 06:00:00', '2024-02-08 05:00:00', '2024-02-08 04:00:00', '2024-02-08 03:00:00', '2024-02-08 02:00:00', '2024-02-08 01:00:00', '2024-02-08 00:00:00', '2024-02-07 21:00:00', '2024-02-07 20:00:00', '2024-02-07 19:00:00', '2024-02-07 18:00:00']"
Iran, Bandar Abbas International Airport (BND/OIKB) ,"['OIKB 101630Z 26006KT CAVOK 19/12 Q1018 A3008', 'OIKB 101600Z 24004KT CAVOK 19/12 Q1018 A3007', 'OIKB 101530Z 25004KT CAVOK 19/12 Q1018 A3007', 'OIKB 101500Z VRB02KT CAVOK 20/12 Q1017 A3006', 'OIKB 101430Z 24004KT CAVOK 22/12 Q1017 A3005', 'OIKB 101400Z 24004KT CAVOK 23/13 Q1017 A3005', 'OIKB 101330Z 25006KT 8000 NSC 23/12 Q1017 A3005', 'OIKB 101300Z 23006KT 8000 NSC 24/12 Q1017 A3005', 'OIKB 101230Z 26006KT 8000 NSC 25/13 Q1017 A3005', 'OIKB 101200Z 25008KT 7000 NSC 24/13 Q1017 A3005', 'OIKB 101130Z 25010KT 7000 NSC 25/13 Q1017 A3006', 'OIKB 101100Z 22010KT 7000 FEW030 BKN200 24/13 Q1018 A3006', 'OIKB 101030Z 25010KT 6000 NSC 24/12 Q1018 A3007', 'OIKB 101000Z 34008KT 6000 NSC 24/12 Q1018 A3008', 'OIKB 100930Z 25008KT 6000 NSC 24/11 Q1018 A3008', 'OIKB 100900Z 24010KT 6000 NSC 24/11 Q1019 A3010', 'OIKB 100830Z 25008KT 6000 NSC 24/12 Q1019 A3011', 'OIKB 100800Z 21008KT 6000 NSC 24/12 Q1019 A3012 NOSIG', 'OIKB 100730Z 32004KT 5000 HZ NSC 24/11 Q1020 A3015', 'OIKB 100700Z 28004KT 5000 HZ NSC 24/12 Q1020 A3015', 'OIKB 100630Z 05006KT 4000 HZ NSC 23/13 Q1021 A3015', 'OIKB 100600Z 07004KT 4000 HZ NSC 22/13 Q1021 A3015', 'OIKB 100530Z 02006KT 4000 HZ NSC 20/13 Q1021 A3015', 'OIKB 100500Z 36006KT 4000 HZ NSC 19/13 Q1020 A3014', 'OIKB 100430Z 33006KT 3000 HZ NSC 18/13 Q1020 A3014', 'OIKB 100400Z 33004KT 3000 BR NSC 15/11 Q1020 A3013 NOSIG', 'OIKB 100330Z 33004KT 2700 BR NSC 12/10 Q1019 A3011', 'OIKB 100300Z 36004KT 2700 BR NSC 12/10 Q1019 A3010', 'OIKB 100230Z 36004KT 3000 BR NSC 13/10 Q1019 A3009', 'OIKB 100200Z 36006KT 4000 BR NSC 13/10 Q1018 A3009', 'OIKB 100100Z 36004KT 5000 BR NSC 13/10 Q1018 A3008', 'OIKB 100000Z 36006KT 6000 NSC 14/11 Q1018 A3009', 'OIKB 092300Z 05004KT 6000 NSC 15/11 Q1018 A3009', 'OIKB 092200Z 27004KT 6000 NSC 17/13 Q1018 A3009', 'OIKB 092130Z 27004KT 6000 NSC 18/13 Q1018 A3009', 'OIKB 092100Z 26004KT 6000 NSC 18/14 Q1018 A3009', 'OIKB 092030Z VRB02KT 6000 NSC 19/14 Q1018 A3009', 'OIKB 092000Z 27006KT 6000 NSC 19/14 Q1018 A3009', 'OIKB 091930Z 27006KT 6000 NSC 19/14 Q1018 A3009', 'OIKB 091900Z 27006KT 6000 NSC 20/14 Q1018 A3009', 'OIKB 091830Z 27006KT 6000 NSC 20/14 Q1018 A3009', 'OIKB 091800Z 27006KT 6000 NSC 20/14 Q1018 A3008', 'OIKB 091730Z 27008KT 6000 NSC 21/14 Q1018 A3008', 'OIKB 091700Z 26008KT 6000 NSC 21/14 Q1018 A3007', 'OIKB 091630Z 26008KT 6000 NSC 21/14 Q1018 A3006', 'OIKB 091600Z 26010KT 7000 NSC 22/14 Q1017 A3006', 'OIKB 091530Z 26010KT 7000 NSC 22/13 Q1017 A3004', 'OIKB 091500Z 25006KT 7000 NSC 22/15 Q1017 A3004', 'OIKB 091430Z 22008KT 7000 NSC 22/15 Q1017 A3004', 'OIKB 091400Z 24008KT 7000 NSC 22/14 Q1017 A3003', 'OIKB 091330Z 23012KT 7000 NSC 23/14 Q1016 A3003', 'OIKB 091300Z 24010KT 7000 NSC 23/14 Q1016 A3003', 'OIKB 091230Z 24012KT 7000 NSC 23/15 Q1016 A3003', 'OIKB 091200Z 24010KT 7000 NSC 24/14 Q1016 A3003', 'OIKB 091130Z 22012KT 6000 FEW030 24/13 Q1017 A3004', 'OIKB 091100Z 21012KT 6000 FEW030 24/13 Q1017 A3004', 'OIKB 091030Z 24010KT 6000 FEW030 24/12 Q1017 A3005', 'OIKB 091000Z 26010KT 6000 FEW030 24/13 Q1018 A3006 NOSIG', 'OIKB 090930Z 25010KT 6000 FEW030TCU 24/12 Q1018 A3007', 'OIKB 090900Z 26010KT 7000 FEW030 24/12 Q1019 A3009 NOSIG', 'OIKB 090830Z 25010KT 7000 FEW030 24/11 Q1019 A3011', 'OIKB 090800Z 26008KT 7000 FEW030 24/11 Q1020 A3013 NOSIG', 'OIKB 090730Z 24008KT 7000 FEW030 23/12 Q1020 A3014', 'OIKB 090700Z 25008KT 7000 FEW030 24/11 Q1020 A3014', 'OIKB 090630Z VRB02KT 7000 NSC 24/11 Q1020 A3015', 'OIKB 090600Z 07004KT 6000 NSC 22/11 Q1021 A3015 NOSIG', 'OIKB 090530Z 07006KT 6000 NSC 21/11 Q1020 A3014', 'OIKB 090500Z 06004KT 6000 NSC 19/11 Q1020 A3014 NOSIG', 'OIKB 090430Z VRB02KT 6000 NSC 17/11 Q1020 A3012', 'OIKB 090400Z VRB02KT 5000 HZ NSC 14/10 Q1019 A3011', 'OIKB 090330Z 02004KT 4500 HZ NSC 12/09 Q1019 A3011', 'OIKB 090300Z 32004KT 4000 BR FEW020 12/09 Q1019 A3009', 'OIKB 090230Z 35006KT 4000 BR FEW025 12/09 Q1018 A3009', 'OIKB 090200Z 03004KT 5000 BR NSC 13/10 Q1018 A3009', 'OIKB 090100Z 02004KT CAVOK 13/10 Q1018 A3007', 'OIKB 090000Z 35004KT CAVOK 14/11 Q1018 A3008', 'OIKB 082300Z 34006KT CAVOK 15/10 Q1018 A3009', 'OIKB 082200Z 01004KT CAVOK 15/11 Q1018 A3009', 'OIKB 082130Z 27004KT CAVOK 17/12 Q1019 A3009', 'OIKB 082100Z 27004KT CAVOK 17/12 Q1019 A3010', 'OIKB 082030Z 27004KT CAVOK 18/12 Q1019 A3010', 'OIKB 082000Z 27004KT CAVOK 18/12 Q1019 A3011', 'OIKB 081930Z 28004KT CAVOK 19/12 Q1019 A3011', 'OIKB 081900Z 28006KT CAVOK 19/12 Q1019 A3011', 'OIKB 081830Z 29006KT CAVOK 20/13 Q1019 A3011', 'OIKB 081800Z 27006KT CAVOK 20/13 Q1019 A3011', 'OIKB 081730Z 27006KT CAVOK 20/13 Q1019 A3010', 'OIKB 081700Z 26008KT CAVOK 21/13 Q1019 A3009', 'OIKB 081630Z 26008KT CAVOK 21/13 Q1018 A3009', 'OIKB 081600Z 26008KT CAVOK 21/13 Q1018 A3009', 'OIKB 081530Z 25006KT 9999 FEW030 21/13 Q1018 A3008', 'OIKB 081500Z 23008KT 9999 FEW030 21/13 Q1018 A3008 NOSIG', 'OIKB 081430Z 23008KT 9999 FEW030 21/12 Q1018 A3007', 'OIKB 081400Z 22010KT 9999 FEW030 22/12 Q1018 A3007 NOSIG', 'OIKB 081330Z 23012KT 9999 FEW030 22/12 Q1018 A3007', 'OIKB 081300Z 21010KT 9999 FEW030 23/13 Q1018 A3007 NOSIG', 'OIKB 081230Z 22010KT 9999 FEW030 23/12 Q1018 A3007', 'OIKB 081200Z 20012KT 9999 FEW030 23/12 Q1018 A3008 NOSIG', 'OIKB 081130Z 23010KT 9999 FEW030 23/11 Q1018 A3008', 'OIKB 081100Z 23010KT 9999 FEW025 23/11 Q1018 A3009', 'OIKB 081030Z 26008KT 9999 FEW025 24/10 Q1019 A3011', 'OIKB 081000Z 23008KT 9999 FEW025 24/11 Q1020 A3012', 'OIKB 080930Z 24010KT 9999 FEW020 24/11 Q1020 A3014', 'OIKB 080900Z 22008KT 9999 FEW020 24/09 Q1021 A3015', 'OIKB 080830Z 24008KT 9999 FEW025 24/08 Q1021 A3016', 'OIKB 080800Z 24010KT 9999 FEW025 24/09 Q1022 A3018', 'OIKB 080730Z 17008KT CAVOK 24/08 Q1022 A3019', 'OIKB 080700Z 11004KT CAVOK 24/08 Q1022 A3019', 'OIKB 080630Z 14006KT CAVOK 23/10 Q1022 A3020', 'OIKB 080600Z 12006KT CAVOK 22/09 Q1022 A3020', 'OIKB 080530Z VRB02KT 9999 FEW002 21/10 Q1022 A3019', 'OIKB 080500Z VRB02KT 9999 FEW025 18/09 Q1022 A3019', 'OIKB 080430Z VRB02KT 9999 FEW030 16/09 Q1022 A3019', 'OIKB 080400Z VRB02KT 9999 FEW030 14/08 Q1021 A3017', 'OIKB 080330Z VRB02KT 9999 FEW030 12/07 Q1021 A3016', 'OIKB 080300Z 33004KT 9999 FEW030 12/08 Q1021 A3015', 'OIKB 080230Z 01006KT 9999 FEW025 12/08 Q1020 A3014', 'OIKB 080200Z 02004KT CAVOK 12/08 Q1020 A3014', 'OIKB 080100Z 34004KT 9999 FEW025 13/09 Q1020 A3013', 'OIKB 080000Z 34004KT 9999 FEW030 13/09 Q1020 A3014', 'OIKB 072300Z 01004KT 9999 FEW090 13/09 Q1020 A3014', 'OIKB 072200Z 03004KT CAVOK 14/09 Q1020 A3014', 'OIKB 072130Z 04004KT CAVOK 14/09 Q1020 A3014', 'OIKB 072100Z 06004KT CAVOK 15/09 Q1020 A3014', 'OIKB 072030Z 28004KT CAVOK 16/10 Q1020 A3014', 'OIKB 072000Z 28006KT CAVOK 17/11 Q1020 A3014', 'OIKB 071930Z 28004KT CAVOK 17/11 Q1020 A3014', 'OIKB 071900Z 26004KT CAVOK 18/11 Q1020 A3014', 'OIKB 071830Z 26006KT CAVOK 18/11 Q1020 A3014', 'OIKB 071800Z 25004KT CAVOK 19/11 Q1020 A3014', 'OIKB 071730Z 27006KT CAVOK 20/11 Q1020 A3013']","['2024-02-10 16:30:00', '2024-02-10 16:00:00', '2024-02-10 15:30:00', '2024-02-10 15:00:00', '2024-02-10 14:30:00', '2024-02-10 14:00:00', '2024-02-10 13:30:00', '2024-02-10 13:00:00', '2024-02-10 12:30:00', '2024-02-10 12:00:00', '2024-02-10 11:30:00', '2024-02-10 11:00:00', '2024-02-10 10:30:00', '2024-02-10 10:00:00', '2024-02-10 09:30:00', '2024-02-10 09:00:00', '2024-02-10 08:30:00', '2024-02-10 08:00:00', '2024-02-10 07:30:00', '2024-02-10 07:00:00', '2024-02-10 06:30:00', '2024-02-10 06:00:00', '2024-02-10 05:30:00', '2024-02-10 05:00:00', '2024-02-10 04:30:00', '2024-02-10 04:00:00', '2024-02-10 03:30:00', '2024-02-10 03:00:00', '2024-02-10 02:30:00', '2024-02-10 02:00:00', '2024-02-10 01:00:00', '2024-02-10 00:00:00', '2024-02-09 23:00:00', '2024-02-09 22:00:00', '2024-02-09 21:30:00', '2024-02-09 21:00:00', '2024-02-09 20:30:00', '2024-02-09 20:00:00', '2024-02-09 19:30:00', '2024-02-09 19:00:00', '2024-02-09 18:30:00', '2024-02-09 18:00:00', '2024-02-09 17:30:00', '2024-02-09 17:00:00', '2024-02-09 16:30:00', '2024-02-09 16:00:00', '2024-02-09 15:30:00', '2024-02-09 15:00:00', '2024-02-09 14:30:00', '2024-02-09 14:00:00', '2024-02-09 13:30:00', '2024-02-09 13:00:00', '2024-02-09 12:30:00', '2024-02-09 12:00:00', '2024-02-09 11:30:00', '2024-02-09 11:00:00', '2024-02-09 10:30:00', '2024-02-09 10:00:00', '2024-02-09 09:30:00', '2024-02-09 09:00:00', '2024-02-09 08:30:00', '2024-02-09 08:00:00', '2024-02-09 07:30:00', '2024-02-09 07:00:00', '2024-02-09 06:30:00', '2024-02-09 06:00:00', '2024-02-09 05:30:00', '2024-02-09 05:00:00', '2024-02-09 04:30:00', '2024-02-09 04:00:00', '2024-02-09 03:30:00', '2024-02-09 03:00:00', '2024-02-09 02:30:00', '2024-02-09 02:00:00', '2024-02-09 01:00:00', '2024-02-09 00:00:00', '2024-02-08 23:00:00', '2024-02-08 22:00:00', '2024-02-08 21:30:00', '2024-02-08 21:00:00', '2024-02-08 20:30:00', '2024-02-08 20:00:00', '2024-02-08 19:30:00', '2024-02-08 19:00:00', '2024-02-08 18:30:00', '2024-02-08 18:00:00', '2024-02-08 17:30:00', '2024-02-08 17:00:00', '2024-02-08 16:30:00', '2024-02-08 16:00:00', '2024-02-08 15:30:00', '2024-02-08 15:00:00', '2024-02-08 14:30:00', '2024-02-08 14:00:00', '2024-02-08 13:30:00', '2024-02-08 13:00:00', '2024-02-08 12:30:00', '2024-02-08 12:00:00', '2024-02-08 11:30:00', '2024-02-08 11:00:00', '2024-02-08 10:30:00', '2024-02-08 10:00:00', '2024-02-08 09:30:00', '2024-02-08 09:00:00', '2024-02-08 08:30:00', '2024-02-08 08:00:00', '2024-02-08 07:30:00', '2024-02-08 07:00:00', '2024-02-08 06:30:00', '2024-02-08 06:00:00', '2024-02-08 05:30:00', '2024-02-08 05:00:00', '2024-02-08 04:30:00', '2024-02-08 04:00:00', '2024-02-08 03:30:00', '2024-02-08 03:00:00', '2024-02-08 02:30:00', '2024-02-08 02:00:00', '2024-02-08 01:00:00', '2024-02-08 00:00:00', '2024-02-07 23:00:00', '2024-02-07 22:00:00', '2024-02-07 21:30:00', '2024-02-07 21:00:00', '2024-02-07 20:30:00', '2024-02-07 20:00:00', '2024-02-07 19:30:00', '2024-02-07 19:00:00', '2024-02-07 18:30:00', '2024-02-07 18:00:00', '2024-02-07 17:30:00']"
Iran, Bandar Lengeh Airport (BDH/OIBL) ,"['OIBL 101600Z 18004KT CAVOK 20/10 Q1018', 'OIBL 101500Z 15006KT CAVOK 21/11 Q1018', 'OIBL 101400Z 17006KT CAVOK 22/11 Q1017', 'OIBL 101300Z 19010KT CAVOK 23/11 Q1017', 'OIBL 101200Z 18008KT CAVOK 23/11 Q1017', 'OIBL 101100Z 18008KT CAVOK 23/11 Q1018', 'OIBL 101000Z 15008KT 9999 FEW030 24/14 Q1018', 'OIBL 100900Z 16004KT CAVOK 23/15 Q1019', 'OIBL 100800Z 13006KT CAVOK 23/14 Q1020', 'OIBL 100700Z 13008KT CAVOK 22/12 Q1020', 'OIBL 100600Z 08004KT CAVOK 22/11 Q1020', 'OIBL 100500Z 05006KT CAVOK 19/11 Q1020', 'OIBL 100400Z 03006KT CAVOK 15/10 Q1019', 'OIBL 100300Z 34004KT CAVOK 15/07 Q1019', 'OIBL 100200Z 00000KT CAVOK 15/10 Q1018', 'OIBL 100000Z 36004KT CAVOK 15/10 Q1018', 'OIBL 092100Z 34004KT CAVOK 16/10 Q1018', 'OIBL 091800Z 32004KT 8000 NSC 18/11 Q1019', 'OIBL 091700Z 29004KT CAVOK 19/11 Q1019', 'OIBL 091600Z 00000KT CAVOK 20/11 Q1018', 'OIBL 091500Z 00000KT CAVOK 21/12 Q1018', 'OIBL 091400Z 25004KT CAVOK 22/12 Q1017', 'OIBL 091300Z 27006KT CAVOK 23/13 Q1017', 'OIBL 091200Z 25008KT CAVOK 23/13 Q1018', 'OIBL 091100Z 23008KT CAVOK 24/13 Q1018', 'OIBL 091000Z 20010KT CAVOK 24/13 Q1020', 'OIBL 090900Z 21008KT CAVOK 24/12 Q1020', 'OIBL 090800Z 18006KT CAVOK 23/11 Q1020', 'OIBL 090700Z 20004KT CAVOK 24/09 Q1021', 'OIBL 090600Z 05006KT CAVOK 18/09 Q1020', 'OIBL 090500Z 03006KT CAVOK 17/08 Q1019', 'OIBL 090400Z 02004KT CAVOK 16/07 Q1019', 'OIBL 090300Z 34004KT CAVOK 15/07 Q1019', 'OIBL 090200Z 02004KT CAVOK 15/08 Q1019', 'OIBL 090000Z 01006KT CAVOK 16/08 Q1018', 'OIBL 082100Z 34010KT CAVOK 16/04 Q1019', 'OIBL 081800Z 31008KT CAVOK 19/07 Q1019', 'OIBL 081700Z 27008KT CAVOK 19/08 Q1019', 'OIBL 081600Z 29008KT CAVOK 20/11 Q1019', 'OIBL 081500Z 30010KT CAVOK 21/11 Q1019', 'OIBL 081400Z 28008KT CAVOK 22/12 Q1018', 'OIBL 081300Z 27012KT CAVOK 23/13 Q1018', 'OIBL 081200Z 22006KT CAVOK 23/12 Q1020', 'OIBL 081100Z 27008KT CAVOK 23/12 Q1021', 'OIBL 081000Z 20008KT CAVOK 24/14 Q1021', 'OIBL 080900Z 21006KT CAVOK 24/14 Q1022', 'OIBL 080800Z 09006KT CAVOK 23/12 Q1022', 'OIBL 080700Z 09006KT CAVOK 21/13 Q1022', 'OIBL 080600Z 06004KT CAVOK 20/13 Q1022', 'OIBL 080500Z 05004KT CAVOK 17/09 Q1021', 'OIBL 080400Z 03004KT CAVOK 15/02 Q1020', 'OIBL 080300Z 03004KT CAVOK 13/M01 Q1020', 'OIBL 080200Z 00000KT CAVOK 14/01 Q1020', 'OIBL 080000Z 36004KT CAVOK 15/05 Q1019', 'OIBL 072100Z 02004KT CAVOK 16/05 Q1020', 'OIBL 071800Z 33004KT CAVOK 17/06 Q1020']","['2024-02-10 16:00:00', '2024-02-10 15:00:00', '2024-02-10 14:00:00', '2024-02-10 13:00:00', '2024-02-10 12:00:00', '2024-02-10 11:00:00', '2024-02-10 10:00:00', '2024-02-10 09:00:00', '2024-02-10 08:00:00', '2024-02-10 07:00:00', '2024-02-10 06:00:00', '2024-02-10 05:00:00', '2024-02-10 04:00:00', '2024-02-10 03:00:00', '2024-02-10 02:00:00', '2024-02-10 00:00:00', '2024-02-09 21:00:00', '2024-02-09 18:00:00', '2024-02-09 17:00:00', '2024-02-09 16:00:00', '2024-02-09 15:00:00', '2024-02-09 14:00:00', '2024-02-09 13:00:00', '2024-02-09 12:00:00', '2024-02-09 11:00:00', '2024-02-09 10:00:00', '2024-02-09 09:00:00', '2024-02-09 08:00:00', '2024-02-09 07:00:00', '2024-02-09 06:00:00', '2024-02-09 05:00:00', '2024-02-09 04:00:00', '2024-02-09 03:00:00', '2024-02-09 02:00:00', '2024-02-09 00:00:00', '2024-02-08 21:00:00', '2024-02-08 18:00:00', '2024-02-08 17:00:00', '2024-02-08 16:00:00', '2024-02-08 15:00:00', '2024-02-08 14:00:00', '2024-02-08 13:00:00', '2024-02-08 12:00:00', '2024-02-08 11:00:00', '2024-02-08 10:00:00', '2024-02-08 09:00:00', '2024-02-08 08:00:00', '2024-02-08 07:00:00', '2024-02-08 06:00:00', '2024-02-08 05:00:00', '2024-02-08 04:00:00', '2024-02-08 03:00:00', '2024-02-08 02:00:00', '2024-02-08 00:00:00', '2024-02-07 21:00:00', '2024-02-07 18:00:00']"
Iran, Birjand International Airport (XBJ/OIMB) ,"['OIMB 101600Z 06004KT CAVOK 08/M19 Q1023 A3021', 'OIMB 101500Z 00000KT CAVOK 11/M16 Q1022 A3020', 'OIMB 101400Z 31008KT CAVOK 14/M16 Q1022 A3019', 'OIMB 101300Z 32010KT CAVOK 17/M16 Q1021 A3018', 'OIMB 101200Z 29008KT CAVOK 18/M17 Q1021 A3017', 'OIMB 101100Z 33008KT CAVOK 18/M18 Q1021 A3017', 'OIMB 101000Z 27010KT CAVOK 18/M18 Q1021 A3018', 'OIMB 100900Z 33008KT CAVOK 17/M16 Q1022 A3020', 'OIMB 100800Z 31008KT CAVOK 16/M17 Q1023 A3023', 'OIMB 100700Z 01004KT CAVOK 17/M16 Q1024 A3025', 'OIMB 100600Z 08004KT CAVOK 13/M14 Q1024 A3026', 'OIMB 100500Z 11004KT CAVOK 07/M15 Q1024 A3026', 'OIMB 100400Z 09006KT CAVOK M00/M17 Q1024 A3025', 'OIMB 100200Z 12006KT CAVOK M03/M17 Q1022 A3021', 'OIMB 100100Z 10006KT CAVOK M02/M17 Q1022 A3019', 'OIMB 100000Z 13008KT CAVOK M01/M17 Q1022 A3020', 'OIMB 092300Z 12006KT CAVOK M01/M18 Q1022 A3020', 'OIMB 092200Z 12006KT CAVOK M00/M18 Q1022 A3020', 'OIMB 092100Z 09006KT CAVOK 00/M18 Q1022 A3019', 'OIMB 092000Z 12004KT CAVOK 00/M19 Q1022 A3019', 'OIMB 091900Z 12004KT CAVOK 01/M19 Q1022 A3019', 'OIMB 091800Z 13006KT CAVOK 03/M19 Q1022 A3018', 'OIMB 091700Z 12004KT CAVOK 03/M19 Q1021 A3017', 'OIMB 091600Z 00000KT CAVOK 08/M17 Q1021 A3015', 'OIMB 091500Z 30004KT CAVOK 09/M17 Q1020 A3014', 'OIMB 091400Z 31008KT CAVOK 12/M16 Q1019 A3012', 'OIMB 091300Z 30012KT CAVOK 15/M17 Q1019 A3012', 'OIMB 091200Z 31012KT CAVOK 16/M17 Q1019 A3011', 'OIMB 091100Z 31012KT CAVOK 16/M17 Q1019 A3011', 'OIMB 091000Z 31014KT CAVOK 16/M16 Q1019 A3011', 'OIMB 090900Z 30008KT CAVOK 15/M14 Q1020 A3014', 'OIMB 090800Z 30008KT CAVOK 14/M11 Q1021 A3017', 'OIMB 090700Z 27004KT CAVOK 14/M11 Q1022 A3019', 'OIMB 090600Z 10004KT CAVOK 11/M12 Q1022 A3019', 'OIMB 090500Z 12006KT CAVOK 06/M13 Q1022 A3019', 'OIMB 090400Z 11006KT CAVOK 00/M15 Q1021 A3017', 'OIMB 090300Z 10006KT CAVOK M02/M16 Q1020 A3014', 'OIMB 090200Z 12006KT CAVOK M02/M15 Q1020 A3014', 'OIMB 090100Z 09004KT CAVOK M01/M16 Q1020 A3013', 'OIMB 090000Z 10006KT CAVOK M00/M16 Q1020 A3012', 'OIMB 082300Z 00000KT CAVOK 00/M16 Q1020 A3012', 'OIMB 082200Z 14004KT CAVOK 01/M16 Q1020 A3013', 'OIMB 082100Z 08008KT CAVOK 01/M15 Q1020 A3014', 'OIMB 082000Z 11006KT CAVOK 02/M16 Q1020 A3014', 'OIMB 081900Z 10004KT CAVOK 04/M16 Q1021 A3015', 'OIMB 081800Z 07006KT CAVOK 06/M16 Q1020 A3015', 'OIMB 081700Z 10004KT CAVOK 07/M15 Q1020 A3014', 'OIMB 081600Z 00000KT CAVOK 07/M14 Q1020 A3014', 'OIMB 081500Z 31006KT CAVOK 10/M14 Q1020 A3012', 'OIMB 081400Z 30010KT CAVOK 13/M13 Q1019 A3011', 'OIMB 081300Z 31008KT CAVOK 16/M14 Q1019 A3010', 'OIMB 081200Z 31010KT 9999 FEW040 17/M14 Q1019 A3011', 'OIMB 081100Z 28010KT CAVOK 17/M14 Q1019 A3012', 'OIMB 081030Z 25006KT CAVOK 17/15 Q1020 A3012', 'OIMB 081000Z 28006KT CAVOK 17/M14 Q1020 A3013', 'OIMB 080900Z 24006KT CAVOK 16/M12 Q1021 A3016', 'OIMB 080800Z 26006KT CAVOK 15/M13 Q1022 A3019', 'OIMB 080700Z 09008KT CAVOK 14/M13 Q1022 A3021', 'OIMB 080600Z 12012KT CAVOK 13/M13 Q1023 A3022', 'OIMB 080500Z 09014KT CAVOK 09/M15 Q1023 A3022', 'OIMB 080400Z 09012KT CAVOK 05/M15 Q1023 A3021', 'OIMB 080300Z 12010KT CAVOK 02/M15 Q1022 A3019', 'OIMB 080200Z 12014KT CAVOK 03/M15 Q1021 A3018', 'OIMB 080100Z 11014KT CAVOK 03/M15 Q1021 A3017', 'OIMB 080000Z 10010KT CAVOK 03/M15 Q1021 A3018', 'OIMB 072300Z 04006KT CAVOK 02/M15 Q1022 A3018', 'OIMB 072200Z 12008KT CAVOK 03/M15 Q1022 A3018', 'OIMB 072100Z 09012KT CAVOK 03/M15 Q1022 A3018', 'OIMB 072000Z 10012KT CAVOK 04/M15 Q1022 A3019', 'OIMB 071900Z 09014KT CAVOK 05/M15 Q1022 A3020', 'OIMB 071800Z 09010KT CAVOK 05/M16 Q1022 A3020']","['2024-02-10 16:00:00', '2024-02-10 15:00:00', '2024-02-10 14:00:00', '2024-02-10 13:00:00', '2024-02-10 12:00:00', '2024-02-10 11:00:00', '2024-02-10 10:00:00', '2024-02-10 09:00:00', '2024-02-10 08:00:00', '2024-02-10 07:00:00', '2024-02-10 06:00:00', '2024-02-10 05:00:00', '2024-02-10 04:00:00', '2024-02-10 02:00:00', '2024-02-10 01:00:00', '2024-02-10 00:00:00', '2024-02-09 23:00:00', '2024-02-09 22:00:00', '2024-02-09 21:00:00', '2024-02-09 20:00:00', '2024-02-09 19:00:00', '2024-02-09 18:00:00', '2024-02-09 17:00:00', '2024-02-09 16:00:00', '2024-02-09 15:00:00', '2024-02-09 14:00:00', '2024-02-09 13:00:00', '2024-02-09 12:00:00', '2024-02-09 11:00:00', '2024-02-09 10:00:00', '2024-02-09 09:00:00', '2024-02-09 08:00:00', '2024-02-09 07:00:00', '2024-02-09 06:00:00', '2024-02-09 05:00:00', '2024-02-09 04:00:00', '2024-02-09 03:00:00', '2024-02-09 02:00:00', '2024-02-09 01:00:00', '2024-02-09 00:00:00', '2024-02-08 23:00:00', '2024-02-08 22:00:00', '2024-02-08 21:00:00', '2024-02-08 20:00:00', '2024-02-08 19:00:00', '2024-02-08 18:00:00', '2024-02-08 17:00:00', '2024-02-08 16:00:00', '2024-02-08 15:00:00', '2024-02-08 14:00:00', '2024-02-08 13:00:00', '2024-02-08 12:00:00', '2024-02-08 11:00:00', '2024-02-08 10:30:00', '2024-02-08 10:00:00', '2024-02-08 09:00:00', '2024-02-08 08:00:00', '2024-02-08 07:00:00', '2024-02-08 06:00:00', '2024-02-08 05:00:00', '2024-02-08 04:00:00', '2024-02-08 03:00:00', '2024-02-08 02:00:00', '2024-02-08 01:00:00', '2024-02-08 00:00:00', '2024-02-07 23:00:00', '2024-02-07 22:00:00', '2024-02-07 21:00:00', '2024-02-07 20:00:00', '2024-02-07 19:00:00', '2024-02-07 18:00:00']"
Iran, Bojnord Airport (BJB/OIMN) ,"['OIMN 101600Z 26004KT CAVOK 09/M02 Q1021', 'OIMN 101500Z VRB02KT CAVOK 09/M00 Q1021', 'OIMN 101400Z 24004KT CAVOK 11/M01 Q1020', 'OIMN 101300Z VRB02KT CAVOK 15/M02 Q1020', 'OIMN 101200Z 05004KT CAVOK 16/M04 Q1019', 'OIMN 101100Z 29006KT CAVOK 17/M03 Q1019', 'OIMN 101000Z 01004KT CAVOK 15/M02 Q1019', 'OIMN 100900Z 00000KT CAVOK 15/M01 Q1020', 'OIMN 100800Z VRB02KT CAVOK 12/M02 Q1021', 'OIMN 100700Z 00000KT CAVOK 09/M00 Q1021', 'OIMN 100600Z VRB02KT CAVOK 06/M01 Q1021', 'OIMN 100500Z 00000KT CAVOK 05/M01 Q1021', 'OIMN 100400Z VRB02KT CAVOK M01/M02 Q1021', 'OIMN 100300Z VRB02KT CAVOK M01/M04 Q1020', 'OIMN 100200Z 28004KT CAVOK M02/M04 Q1020', 'OIMN 100100Z 28004KT CAVOK M00/M03 Q1020', 'OIMN 100000Z VRB02KT CAVOK 01/M02 Q1020', 'OIMN 092300Z VRB02KT CAVOK 01/M03 Q1020', 'OIMN 092200Z 25004KT CAVOK 01/M03 Q1020', 'OIMN 092100Z VRB02KT CAVOK 03/M02 Q1019', 'OIMN 092000Z VRB02KT CAVOK 04/M03 Q1019', 'OIMN 091900Z VRB02KT CAVOK 04/M02 Q1019', 'OIMN 091800Z VRB02KT CAVOK 04/M02 Q1019', 'OIMN 091700Z VRB02KT CAVOK 05/M03 Q1019', 'OIMN 091600Z 00000KT CAVOK 06/M02 Q1018', 'OIMN 091500Z VRB02KT CAVOK 08/M03 Q1018', 'OIMN 091400Z 25004KT CAVOK 10/M02 Q1017', 'OIMN 091300Z 28006KT CAVOK 14/M03 Q1017', 'OIMN 091200Z 27004KT CAVOK 15/M05 Q1017', 'OIMN 091100Z 00000KT CAVOK 15/M05 Q1016', 'OIMN 091030Z 00000KT CAVOK 16/M04 Q1016', 'OIMN 091000Z 02006KT CAVOK 15/M04 Q1016', 'OIMN 090930Z 12004KT CAVOK 15/M04 Q1017', 'OIMN 090900Z 29006KT 9999 FEW045 14/M03 Q1017', 'OIMN 090830Z 28004KT 9999 FEW040 14/M03 Q1017', 'OIMN 090800Z VRB02KT 9999 FEW040 13/M02 Q1017', 'OIMN 090700Z VRB02KT 9999 FEW035 10/M01 Q1018', 'OIMN 090630Z 00000KT 9999 FEW035 09/M01 Q1018', 'OIMN 090600Z 31004KT CAVOK 08/M01 Q1018', 'OIMN 090530Z VRB02KT CAVOK 07/M02 Q1018', 'OIMN 090500Z 00000KT CAVOK 04/M01 Q1018', 'OIMN 090430Z 00000KT CAVOK 03/M00 Q1018', 'OIMN 090400Z VRB02KT CAVOK 01/M02 Q1018', 'OIMN 090330Z VRB02KT CAVOK M00/M03 Q1018', 'OIMN 090300Z VRB02KT CAVOK M01/M03 Q1017', 'OIMN 090200Z 33004KT CAVOK M02/M05 Q1017', 'OIMN 090100Z 17004KT CAVOK 00/M03 Q1017', 'OIMN 090000Z 00000KT CAVOK 00/M03 Q1017', 'OIMN 082300Z 00000KT CAVOK 01/M02 Q1018', 'OIMN 082200Z VRB02KT CAVOK 02/M02 Q1018', 'OIMN 082100Z VRB02KT CAVOK 02/M03 Q1018', 'OIMN 082000Z 00000KT CAVOK 01/M03 Q1018', 'OIMN 081900Z VRB02KT CAVOK 02/M03 Q1018', 'OIMN 081800Z 00000KT CAVOK 03/M02 Q1018', 'OIMN 081700Z VRB02KT CAVOK 05/M02 Q1018', 'OIMN 081600Z VRB02KT CAVOK 04/M03 Q1018', 'OIMN 081500Z 32004KT CAVOK 06/M02 Q1018', 'OIMN 081400Z 21006KT CAVOK 11/M04 Q1018', 'OIMN 081300Z 20012KT 9999 FEW035 13/M05 Q1018', 'OIMN 081200Z 25004KT 9999 FEW035 14/M04 Q1018', 'OIMN 081100Z 01004KT 9999 FEW035 14/M04 Q1018', 'OIMN 081000Z VRB02KT 9999 FEW035 14/M04 Q1018', 'OIMN 080900Z 02002KT 9999 FEW033 13/M01 Q1019', 'OIMN 080800Z VRB02KT 9999 FEW033 11/M02 Q1020', 'OIMN 080700Z VRB02KT CAVOK 08/M01 Q1021', 'OIMN 080600Z 36004KT CAVOK 05/M01 Q1021', 'OIMN 080500Z 04004KT CAVOK 03/M01 Q1021', 'OIMN 080400Z VRB02KT CAVOK M01/M03 Q1021', 'OIMN 080300Z 26004KT CAVOK M01/M03 Q1021', 'OIMN 080200Z VRB02KT CAVOK M01/M03 Q1021', 'OIMN 080100Z VRB02KT CAVOK M01/M03 Q1021', 'OIMN 080000Z 28004KT CAVOK M01/M03 Q1021', 'OIMN 072300Z VRB04KT CAVOK 00/M03 Q1021', 'OIMN 072200Z VRB02KT CAVOK 00/M03 Q1021', 'OIMN 072100Z VRB02KT CAVOK 01/M03 Q1021', 'OIMN 072000Z 28004KT CAVOK 00/M03 Q1021', 'OIMN 071900Z VRB02KT CAVOK 01/M03 Q1021', 'OIMN 071800Z 00000KT CAVOK 02/M03 Q1021']","['2024-02-10 16:00:00', '2024-02-10 15:00:00', '2024-02-10 14:00:00', '2024-02-10 13:00:00', '2024-02-10 12:00:00', '2024-02-10 11:00:00', '2024-02-10 10:00:00', '2024-02-10 09:00:00', '2024-02-10 08:00:00', '2024-02-10 07:00:00', '2024-02-10 06:00:00', '2024-02-10 05:00:00', '2024-02-10 04:00:00', '2024-02-10 03:00:00', '2024-02-10 02:00:00', '2024-02-10 01:00:00', '2024-02-10 00:00:00', '2024-02-09 23:00:00', '2024-02-09 22:00:00', '2024-02-09 21:00:00', '2024-02-09 20:00:00', '2024-02-09 19:00:00', '2024-02-09 18:00:00', '2024-02-09 17:00:00', '2024-02-09 16:00:00', '2024-02-09 15:00:00', '2024-02-09 14:00:00', '2024-02-09 13:00:00', '2024-02-09 12:00:00', '2024-02-09 11:00:00', '2024-02-09 10:30:00', '2024-02-09 10:00:00', '2024-02-09 09:30:00', '2024-02-09 09:00:00', '2024-02-09 08:30:00', '2024-02-09 08:00:00', '2024-02-09 07:00:00', '2024-02-09 06:30:00', '2024-02-09 06:00:00', '2024-02-09 05:30:00', '2024-02-09 05:00:00', '2024-02-09 04:30:00', '2024-02-09 04:00:00', '2024-02-09 03:30:00', '2024-02-09 03:00:00', '2024-02-09 02:00:00', '2024-02-09 01:00:00', '2024-02-09 00:00:00', '2024-02-08 23:00:00', '2024-02-08 22:00:00', '2024-02-08 21:00:00', '2024-02-08 20:00:00', '2024-02-08 19:00:00', '2024-02-08 18:00:00', '2024-02-08 17:00:00', '2024-02-08 16:00:00', '2024-02-08 15:00:00', '2024-02-08 14:00:00', '2024-02-08 13:00:00', '2024-02-08 12:00:00', '2024-02-08 11:00:00', '2024-02-08 10:00:00', '2024-02-08 09:00:00', '2024-02-08 08:00:00', '2024-02-08 07:00:00', '2024-02-08 06:00:00', '2024-02-08 05:00:00', '2024-02-08 04:00:00', '2024-02-08 03:00:00', '2024-02-08 02:00:00', '2024-02-08 01:00:00', '2024-02-08 00:00:00', '2024-02-07 23:00:00', '2024-02-07 22:00:00', '2024-02-07 21:00:00', '2024-02-07 20:00:00', '2024-02-07 19:00:00', '2024-02-07 18:00:00']"
Iran, Bushehr Airport (BUZ/OIBB) ,"['OIBB 101600Z 00000KT CAVOK 17/11 Q1019 A3009', 'OIBB 101500Z 24010KT CAVOK 19/12 Q1018 A3009 NOSIG', 'OIBB 101400Z 24010KT CAVOK 20/12 Q1018 A3006 NOSIG', 'OIBB 101300Z 25006KT CAVOK 21/12 Q1017 A3006 NOSIG', 'OIBB 101200Z 27010KT CAVOK 20/11 Q1017 A3005 NOSIG', 'OIBB 101100Z 30006KT CAVOK 20/10 Q1017 A3005 NOSIG', 'OIBB 101000Z 32008KT CAVOK 20/11 Q1018 A3007 NOSIG', 'OIBB 100900Z 29008KT CAVOK 20/10 Q1019 A3010 NOSIG', 'OIBB 100800Z 30006KT CAVOK 19/10 Q1020 A3012 NOSIG', 'OIBB 100730Z 31004KT CAVOK 20/08 Q1020 A3014', 'OIBB 100700Z 03004KT CAVOK 19/10 Q1020 A3015 NOSIG', 'OIBB 100630Z 06004KT CAVOK 18/10 Q1021 A3015', 'OIBB 100600Z 10006KT CAVOK 17/09 Q1021 A3015 NOSIG', 'OIBB 100530Z 08004KT CAVOK 17/10 Q1021 A3015', 'OIBB 100500Z 04004KT CAVOK 15/10 Q1021 A3015 NOSIG', 'OIBB 100430Z 00000KT 8000 NSC 12/08 Q1021 A3015', 'OIBB 100400Z 00000KT 8000 NSC 10/07 Q1020 A3013 NOSIG', 'OIBB 100300Z VRB02KT 6000 NSC 13/09 Q1019 A3010', 'OIBB 100200Z VRB02KT 6000 NSC 14/10 Q1018 A3008', 'OIBB 100100Z 00000KT CAVOK 12/08 Q1018 A3007', 'OIBB 100000Z 00000KT CAVOK 11/08 Q1018 A3008', 'OIBB 092300Z VRB02KT CAVOK 12/08 Q1019 A3009', 'OIBB 092200Z 11004KT CAVOK 13/08 Q1019 A3010', 'OIBB 092100Z VRB02KT CAVOK 14/09 Q1019 A3010', 'OIBB 092000Z VRB02KT CAVOK 16/09 Q1019 A3012', 'OIBB 091930Z 09004KT CAVOK 16/10 Q1019 A3012', 'OIBB 091900Z VRB02KT CAVOK 17/11 Q1020 A3012', 'OIBB 091800Z 32006KT CAVOK 18/11 Q1020 A3012', 'OIBB 091700Z 32006KT CAVOK 18/11 Q1019 A3011', 'OIBB 091600Z 32006KT CAVOK 18/10 Q1019 A3010', 'OIBB 091530Z 32006KT CAVOK 18/10 Q1019 A3009', 'OIBB 091500Z 31008KT CAVOK 19/10 Q1018 A3009 NOSIG', 'OIBB 091430Z 30008KT CAVOK 19/10 Q1018 A3008', 'OIBB 091400Z 29010KT CAVOK 19/09 Q1018 A3008 NOSIG', 'OIBB 091300Z 33012KT CAVOK 20/09 Q1018 A3009 NOSIG', 'OIBB 091200Z 30010KT CAVOK 20/10 Q1019 A3009 NOSIG', 'OIBB 091100Z 29010KT CAVOK 21/10 Q1019 A3011 NOSIG', 'OIBB 091000Z 28010KT CAVOK 20/09 Q1019 A3012 NOSIG', 'OIBB 090900Z 30008KT CAVOK 19/07 Q1020 A3014 NOSIG', 'OIBB 090800Z 31008KT CAVOK 18/07 Q1021 A3017 NOSIG', 'OIBB 090700Z 32006KT CAVOK 18/08 Q1022 A3018 NOSIG', 'OIBB 090600Z 00000KT 7000 NSC 17/09 Q1021 A3018 NOSIG', 'OIBB 090500Z 00000KT 7000 NSC 14/09 Q1021 A3016 NOSIG', 'OIBB 090400Z VRB02KT CAVOK 10/07 Q1021 A3015', 'OIBB 090300Z 00000KT 7000 NSC 11/08 Q1020 A3013', 'OIBB 090200Z 00000KT CAVOK 10/06 Q1020 A3012', 'OIBB 090100Z 00000KT CAVOK 10/07 Q1019 A3011', 'OIBB 090000Z 00000KT CAVOK 12/08 Q1019 A3012', 'OIBB 082300Z 00000KT CAVOK 12/08 Q1020 A3013', 'OIBB 082200Z 00000KT CAVOK 13/08 Q1020 A3014', 'OIBB 082100Z VRB02KT CAVOK 14/08 Q1020 A3014', 'OIBB 082000Z 11004KT CAVOK 15/09 Q1020 A3014', 'OIBB 081930Z 10004KT CAVOK 16/09 Q1020 A3015', 'OIBB 081900Z 09004KT CAVOK 16/10 Q1020 A3015', 'OIBB 081830Z VRB02KT CAVOK 17/10 Q1021 A3015', 'OIBB 081800Z 33006KT CAVOK 18/10 Q1021 A3015', 'OIBB 081730Z 31006KT CAVOK 18/10 Q1021 A3015', 'OIBB 081700Z 31006KT CAVOK 18/10 Q1021 A3015', 'OIBB 081600Z 30008KT CAVOK 18/09 Q1020 A3014', 'OIBB 081530Z 30008KT CAVOK 18/10 Q1020 A3014', 'OIBB 081500Z 29010KT CAVOK 18/09 Q1020 A3014 NOSIG', 'OIBB 081430Z 29012KT CAVOK 18/10 Q1020 A3013', 'OIBB 081400Z 29012KT CAVOK 18/10 Q1020 A3013 NOSIG', 'OIBB 081330Z 29012KT CAVOK 19/11 Q1020 A3013', 'OIBB 081300Z 35012KT CAVOK 19/11 Q1020 A3014 NOSIG', 'OIBB 081200Z 29012KT CAVOK 19/08 Q1020 A3015 NOSIG', 'OIBB 081130Z 30012KT CAVOK 19/10 Q1021 A3016', 'OIBB 081100Z 29014KT CAVOK 19/10 Q1021 A3017 NOSIG', 'OIBB 081000Z 31012KT CAVOK 20/09 Q1022 A3019 NOSIG', 'OIBB 080900Z 31010KT CAVOK 19/11 Q1023 A3022 NOSIG', 'OIBB 080800Z 33006KT CAVOK 17/09 Q1024 A3025 NOSIG', 'OIBB 080700Z 35006KT CAVOK 17/08 Q1024 A3027 NOSIG', 'OIBB 080630Z 35006KT CAVOK 16/09 Q1025 A3027 NOSIG', 'OIBB 080600Z 35006KT CAVOK 16/08 Q1024 A3026 NOSIG', 'OIBB 080500Z 35006KT CAVOK 16/10 Q1024 A3024 NOSIG', 'OIBB 080430Z 35004KT CAVOK 16/10 Q1024 A3024', 'OIBB 080400Z 32004KT CAVOK 15/09 Q1023 A3023 NOSIG', 'OIBB 080300Z 33004KT CAVOK 15/08 Q1023 A3021', 'OIBB 080200Z 32004KT CAVOK 15/08 Q1022 A3019', 'OIBB 080100Z 00000KT CAVOK 13/08 Q1022 A3018', 'OIBB 080000Z 00000KT CAVOK 13/07 Q1022 A3019', 'OIBB 072300Z 06004KT CAVOK 13/06 Q1022 A3020', 'OIBB 072200Z 10004KT CAVOK 14/07 Q1022 A3020', 'OIBB 072100Z 01004KT CAVOK 17/08 Q1022 A3019', 'OIBB 072000Z 32010KT CAVOK 18/10 Q1022 A3019', 'OIBB 071900Z 30012KT CAVOK 18/09 Q1022 A3019', 'OIBB 071800Z 30012KT CAVOK 19/09 Q1022 A3018']","['2024-02-10 16:00:00', '2024-02-10 15:00:00', '2024-02-10 14:00:00', '2024-02-10 13:00:00', '2024-02-10 12:00:00', '2024-02-10 11:00:00', '2024-02-10 10:00:00', '2024-02-10 09:00:00', '2024-02-10 08:00:00', '2024-02-10 07:30:00', '2024-02-10 07:00:00', '2024-02-10 06:30:00', '2024-02-10 06:00:00', '2024-02-10 05:30:00', '2024-02-10 05:00:00', '2024-02-10 04:30:00', '2024-02-10 04:00:00', '2024-02-10 03:00:00', '2024-02-10 02:00:00', '2024-02-10 01:00:00', '2024-02-10 00:00:00', '2024-02-09 23:00:00', '2024-02-09 22:00:00', '2024-02-09 21:00:00', '2024-02-09 20:00:00', '2024-02-09 19:30:00', '2024-02-09 19:00:00', '2024-02-09 18:00:00', '2024-02-09 17:00:00', '2024-02-09 16:00:00', '2024-02-09 15:30:00', '2024-02-09 15:00:00', '2024-02-09 14:30:00', '2024-02-09 14:00:00', '2024-02-09 13:00:00', '2024-02-09 12:00:00', '2024-02-09 11:00:00', '2024-02-09 10:00:00', '2024-02-09 09:00:00', '2024-02-09 08:00:00', '2024-02-09 07:00:00', '2024-02-09 06:00:00', '2024-02-09 05:00:00', '2024-02-09 04:00:00', '2024-02-09 03:00:00', '2024-02-09 02:00:00', '2024-02-09 01:00:00', '2024-02-09 00:00:00', '2024-02-08 23:00:00', '2024-02-08 22:00:00', '2024-02-08 21:00:00', '2024-02-08 20:00:00', '2024-02-08 19:30:00', '2024-02-08 19:00:00', '2024-02-08 18:30:00', '2024-02-08 18:00:00', '2024-02-08 17:30:00', '2024-02-08 17:00:00', '2024-02-08 16:00:00', '2024-02-08 15:30:00', '2024-02-08 15:00:00', '2024-02-08 14:30:00', '2024-02-08 14:00:00', '2024-02-08 13:30:00', '2024-02-08 13:00:00', '2024-02-08 12:00:00', '2024-02-08 11:30:00', '2024-02-08 11:00:00', '2024-02-08 10:00:00', '2024-02-08 09:00:00', '2024-02-08 08:00:00', '2024-02-08 07:00:00', '2024-02-08 06:30:00', '2024-02-08 06:00:00', '2024-02-08 05:00:00', '2024-02-08 04:30:00', '2024-02-08 04:00:00', '2024-02-08 03:00:00', '2024-02-08 02:00:00', '2024-02-08 01:00:00', '2024-02-08 00:00:00', '2024-02-07 23:00:00', '2024-02-07 22:00:00', '2024-02-07 21:00:00', '2024-02-07 20:00:00', '2024-02-07 19:00:00', '2024-02-07 18:00:00']"
Iran, Chabahar Konarak Airport (ZBR/OIZC) ,"['OIZC 101400Z 21010KT CAVOK SCT170 23/14 Q1017 A3005', 'OIZC 101300Z 20010KT CAVOK FEW170 25/13 Q1017 A3003', 'OIZC 101100Z 22014KT 9999 FEW035 SCT170 27/14 Q1017 A3003', 'OIZC 101000Z 21012KT 9999 FEW035 26/13 Q1017 A3005', 'OIZC 100900Z 23014KT 9999 FEW035 SCT170 26/14 Q1018 A3008', 'OIZC 100800Z 23008KT CAVOK 26/13 Q1019 A3010 SCT170', 'OIZC 100700Z 00000KT CAVOK 25/12 Q1020 A3012 SCT170', 'OIZC 100600Z 00000KT CAVOK 24/13 Q1020 A3014 FEW170', 'OIZC 100500Z 00000KT CAVOK 21/12 Q1020 A3014', 'OIZC 100400Z 00000KT CAVOK 16/10 Q1020 A3013', 'OIZC 100300Z 00000KT CAVOK 12/07 Q1019 A3009', 'OIZC 100200Z 00000KT 8000 NSC 12/07 Q1018', 'OIZC 100100Z 00000KT 6000 NSC 13/09 Q1017 FEW170', 'OIZC 100000Z 00000KT 6000 NSC 13/09 Q1017 FEW170', 'OIZC 091400Z 24014KT 8000 NSC 23/13 Q1016 A3001', 'OIZC 091300Z 23018KT 8000 NSC 24/12 Q1015 A2999', 'OIZC 091200Z 26016KT 8000 NSC 25/11 Q1015 A2999', 'OIZC 091100Z 25014KT 8000 NSC 26/11 Q1015 A2999', 'OIZC 091000Z 24012KT CAVOK 26/10 Q1016 A3001', 'OIZC 090900Z 21012KT CAVOK 25/10 Q1017 A3004', 'OIZC 090800Z 22012KT CAVOK 25/11 Q1018 A3007', 'OIZC 090700Z 27010KT CAVOK 25/11 Q1019 A3010', 'OIZC 090600Z 31006KT CAVOK 23/12 Q1019 A3011', 'OIZC 090500Z 34006KT CAVOK 21/12 Q1019 A3011', 'OIZC 090400Z 00000KT CAVOK 17/11 Q1019', 'OIZC 090300Z 00000KT CAVOK 13/09 Q1018', 'OIZC 090200Z 00000KT CAVOK 14/10 Q1018', 'OIZC 081600Z 00000KT CAVOK 20/12 Q1019', 'OIZC 081500Z 22006KT CAVOK 21/12 Q1018', 'OIZC 081400Z 22010KT CAVOK 22/12 Q1017 A3005', 'OIZC 081300Z 23014KT CAVOK 24/12 Q1017', 'OIZC 081200Z 20016KT 9999 FEW035 25/12 Q1017 A3005', 'OIZC 081100Z 21008G18KT 9999 FEW035 26/12 Q1017 A3005', 'OIZC 081000Z 19016KT CAVOK 27/13 Q1018 A3007 FEW170', 'OIZC 080900Z 20010KT CAVOK 27/11 Q1019 A3010 FEW170', 'OIZC 080800Z 04010KT CAVOK 26/11 Q1020 A3013', 'OIZC 080700Z 08010KT CAVOK 26/11 Q1021 A3016', 'OIZC 080600Z 07008KT CAVOK 24/10 Q1022 A3018', 'OIZC 080500Z 04006KT CAVOK 21/07 Q1022 A3019', 'OIZC 080400Z 01006KT CAVOK 15/06 Q1021 A3017 FEW170', 'OIZC 080300Z 34006KT 9999 FEW035 SCT170 12/05 Q1021 A3016', 'OIZC 080200Z 35006KT 8000 FEW035 BKN170 12/05 Q1020 A3014', 'OIZC 080100Z 02004KT 8000 FEW035 BKN170 12/05 Q1019 A3012']","['2024-02-10 14:00:00', '2024-02-10 13:00:00', '2024-02-10 11:00:00', '2024-02-10 10:00:00', '2024-02-10 09:00:00', '2024-02-10 08:00:00', '2024-02-10 07:00:00', '2024-02-10 06:00:00', '2024-02-10 05:00:00', '2024-02-10 04:00:00', '2024-02-10 03:00:00', '2024-02-10 02:00:00', '2024-02-10 01:00:00', '2024-02-10 00:00:00', '2024-02-09 14:00:00', '2024-02-09 13:00:00', '2024-02-09 12:00:00', '2024-02-09 11:00:00', '2024-02-09 10:00:00', '2024-02-09 09:00:00', '2024-02-09 08:00:00', '2024-02-09 07:00:00', '2024-02-09 06:00:00', '2024-02-09 05:00:00', '2024-02-09 04:00:00', '2024-02-09 03:00:00', '2024-02-09 02:00:00', '2024-02-08 16:00:00', '2024-02-08 15:00:00', '2024-02-08 14:00:00', '2024-02-08 13:00:00', '2024-02-08 12:00:00', '2024-02-08 11:00:00', '2024-02-08 10:00:00', '2024-02-08 09:00:00', '2024-02-08 08:00:00', '2024-02-08 07:00:00', '2024-02-08 06:00:00', '2024-02-08 05:00:00', '2024-02-08 04:00:00', '2024-02-08 03:00:00', '2024-02-08 02:00:00', '2024-02-08 01:00:00']"
Iran, Gachsaran Airport (GCH/OIAH) ,"['OIAH 101600Z 00000KT 9999 FEW040 BKN190 14/03 Q1021', 'OIAH 101500Z 25004KT 9999 FEW040 BKN190 16/03 Q1020', 'OIAH 101400Z 26006KT 9999 FEW035 BKN190 19/03 Q1020', 'OIAH 101300Z 15004KT 9999 FEW035 SCT190 22/M01 Q1019', 'OIAH 101200Z 00000KT 9999 FEW035 SCT190 21/00 Q1019', 'OIAH 101100Z 00000KT 9999 FEW035 SCT200 22/M02 Q1020', 'OIAH 101000Z 12006KT CAVOK 21/01 Q1020', 'OIAH 100900Z 16006KT CAVOK 20/02 Q1021', 'OIAH 100800Z 13010KT CAVOK 19/03 Q1022', 'OIAH 100700Z 15008KT CAVOK 16/05 Q1022', 'OIAH 100630Z 14010KT CAVOK 15/04 Q1023', 'OIAH 100600Z 14006KT CAVOK 14/04 Q1023', 'OIAH 100530Z VRB02KT CAVOK 12/04 Q1023', 'OIAH 100500Z 16004KT CAVOK 10/05 Q1023', 'OIAH 100430Z 00000KT CAVOK 08/05 Q1022', 'OIAH 100400Z 00000KT CAVOK 05/02 Q1022', 'OIAH 100300Z 00000KT CAVOK 04/02 Q1022', 'OIAH 100200Z 00000KT CAVOK 06/03 Q1020', 'OIAH 100100Z 00000KT CAVOK 05/02 Q1020', 'OIAH 100000Z 00000KT CAVOK 06/04 Q1020', 'OIAH 092300Z VRB02KT CAVOK 08/04 Q1021', 'OIAH 092200Z 00000KT CAVOK 06/03 Q1021', 'OIAH 092100Z 00000KT CAVOK 07/03 Q1021', 'OIAH 092000Z 00000KT CAVOK 08/03 Q1022', 'OIAH 091900Z 00000KT CAVOK 10/03 Q1021', 'OIAH 091800Z 00000KT CAVOK 11/04 Q1021', 'OIAH 091700Z 00000KT CAVOK 12/04 Q1021', 'OIAH 091600Z 27004KT CAVOK 13/04 Q1021', 'OIAH 091500Z 00000KT CAVOK 15/02 Q1020', 'OIAH 091400Z 00000KT CAVOK 18/02 Q1020', 'OIAH 091300Z 27006KT CAVOK 19/04 Q1020', 'OIAH 091200Z 24010KT CAVOK 19/04 Q1020', 'OIAH 091100Z 26006KT CAVOK 20/04 Q1020', 'OIAH 091000Z 00000KT CAVOK 20/05 Q1021', 'OIAH 090900Z 00000KT CAVOK 19/04 Q1022', 'OIAH 090800Z 00000KT CAVOK 17/05 Q1022', 'OIAH 090700Z 00000KT CAVOK 16/05 Q1023', 'OIAH 090600Z 00000KT CAVOK 14/06 Q1023', 'OIAH 090500Z 00000KT CAVOK 10/06 Q1023', 'OIAH 090400Z 00000KT CAVOK 04/02 Q1022', 'OIAH 090300Z 00000KT CAVOK 03/02 Q1022', 'OIAH 090200Z 00000KT CAVOK 04/02 Q1022', 'OIAH 090100Z 00000KT CAVOK 04/02 Q1022', 'OIAH 090000Z 00000KT CAVOK 05/02 Q1022', 'OIAH 082300Z 00000KT CAVOK 06/03 Q1022', 'OIAH 082200Z 00000KT CAVOK 06/03 Q1022', 'OIAH 082100Z 00000KT CAVOK 07/03 Q1022', 'OIAH 082000Z 00000KT CAVOK 08/02 Q1022', 'OIAH 081900Z 00000KT CAVOK 10/03 Q1022', 'OIAH 081800Z 27004KT CAVOK 11/03 Q1022', 'OIAH 081700Z 27004KT CAVOK 11/04 Q1022', 'OIAH 081600Z 26004KT CAVOK 12/04 Q1022', 'OIAH 081500Z 26004KT CAVOK 14/04 Q1022', 'OIAH 081400Z 27004KT CAVOK 16/04 Q1021', 'OIAH 081300Z 26004KT CAVOK 17/05 Q1021', 'OIAH 081200Z 27004KT 9999 FEW040 18/04 Q1022', 'OIAH 081100Z 34004KT 9999 FEW040 18/04 Q1022', 'OIAH 081000Z 13006KT 9999 FEW040 17/03 Q1023', 'OIAH 080900Z 00000KT CAVOK 17/04 Q1024', 'OIAH 080800Z VRB02KT CAVOK 16/04 Q1025', 'OIAH 080700Z VRB02KT CAVOK 15/05 Q1025', 'OIAH 080600Z 00000KT CAVOK 11/05 Q1026', 'OIAH 080500Z 00000KT CAVOK 10/05 Q1025', 'OIAH 080400Z 00000KT CAVOK 05/03 Q1025', 'OIAH 080300Z 00000KT CAVOK 03/01 Q1024', 'OIAH 080200Z 00000KT CAVOK 04/01 Q1023', 'OIAH 080100Z 00000KT CAVOK 05/02 Q1023', 'OIAH 080000Z 00000KT CAVOK 04/02 Q1023', 'OIAH 072300Z 00000KT CAVOK 04/02 Q1023', 'OIAH 072200Z 00000KT CAVOK 05/02 Q1024', 'OIAH 072100Z 00000KT CAVOK 06/02 Q1023', 'OIAH 072000Z 00000KT CAVOK 07/02 Q1023', 'OIAH 071900Z 00000KT CAVOK 09/02 Q1023', 'OIAH 071800Z 00000KT CAVOK 10/03 Q1022']","['2024-02-10 16:00:00', '2024-02-10 15:00:00', '2024-02-10 14:00:00', '2024-02-10 13:00:00', '2024-02-10 12:00:00', '2024-02-10 11:00:00', '2024-02-10 10:00:00', '2024-02-10 09:00:00', '2024-02-10 08:00:00', '2024-02-10 07:00:00', '2024-02-10 06:30:00', '2024-02-10 06:00:00', '2024-02-10 05:30:00', '2024-02-10 05:00:00', '2024-02-10 04:30:00', '2024-02-10 04:00:00', '2024-02-10 03:00:00', '2024-02-10 02:00:00', '2024-02-10 01:00:00', '2024-02-10 00:00:00', '2024-02-09 23:00:00', '2024-02-09 22:00:00', '2024-02-09 21:00:00', '2024-02-09 20:00:00', '2024-02-09 19:00:00', '2024-02-09 18:00:00', '2024-02-09 17:00:00', '2024-02-09 16:00:00', '2024-02-09 15:00:00', '2024-02-09 14:00:00', '2024-02-09 13:00:00', '2024-02-09 12:00:00', '2024-02-09 11:00:00', '2024-02-09 10:00:00', '2024-02-09 09:00:00', '2024-02-09 08:00:00', '2024-02-09 07:00:00', '2024-02-09 06:00:00', '2024-02-09 05:00:00', '2024-02-09 04:00:00', '2024-02-09 03:00:00', '2024-02-09 02:00:00', '2024-02-09 01:00:00', '2024-02-09 00:00:00', '2024-02-08 23:00:00', '2024-02-08 22:00:00', '2024-02-08 21:00:00', '2024-02-08 20:00:00', '2024-02-08 19:00:00', '2024-02-08 18:00:00', '2024-02-08 17:00:00', '2024-02-08 16:00:00', '2024-02-08 15:00:00', '2024-02-08 14:00:00', '2024-02-08 13:00:00', '2024-02-08 12:00:00', '2024-02-08 11:00:00', '2024-02-08 10:00:00', '2024-02-08 09:00:00', '2024-02-08 08:00:00', '2024-02-08 07:00:00', '2024-02-08 06:00:00', '2024-02-08 05:00:00', '2024-02-08 04:00:00', '2024-02-08 03:00:00', '2024-02-08 02:00:00', '2024-02-08 01:00:00', '2024-02-08 00:00:00', '2024-02-07 23:00:00', '2024-02-07 22:00:00', '2024-02-07 21:00:00', '2024-02-07 20:00:00', '2024-02-07 19:00:00', '2024-02-07 18:00:00']"
Iran, Gorgan Airport (GBT/OING) ,"['OING 101600Z 25010KT CAVOK 10/08 Q1021', 'OING 101500Z 26004KT CAVOK 12/09 Q1020 NOSIG', 'OING 101400Z 00000KT 7000 NSC 16/11 Q1019 NOSIG', 'OING 101300Z 24004KT 6000 NSC 20/13 Q1019 NOSIG', 'OING 101200Z 00000KT 6000 NSC 21/11 Q1018 NOSIG', 'OING 101100Z 00000KT 5000 HZ NSC 20/10 Q1018 NOSIG', 'OING 101000Z 28004KT 6000 NSC 18/10 Q1018 NOSIG', 'OING 100900Z 26006KT CAVOK 16/12 Q1018 NOSIG', 'OING 100800Z 00000KT CAVOK 17/11 Q1019 NOSIG', 'OING 100700Z 00000KT CAVOK 14/09 Q1019 NOSIG', 'OING 100600Z 00000KT CAVOK 12/08 Q1019 NOSIG', 'OING 100500Z 00000KT CAVOK 09/05 Q1018 NOSIG', 'OING 100400Z 10004KT CAVOK 05/03 Q1017 NOSIG', 'OING 100300Z 00000KT CAVOK 06/03 Q1017', 'OING 100200Z 00000KT CAVOK 04/02 Q1017', 'OING 100100Z 12004KT CAVOK 06/02 Q1017', 'OING 100000Z 00000KT CAVOK 07/04 Q1017', 'OING 092300Z 00000KT CAVOK 05/04 Q1017', 'OING 092200Z 00000KT CAVOK 06/04 Q1017', 'OING 092100Z 00000KT CAVOK 05/03 Q1018', 'OING 092000Z 00000KT CAVOK 06/04 Q1018', 'OING 091900Z 00000KT CAVOK 08/07 Q1018', 'OING 091800Z 00000KT CAVOK 09/06 Q1018', 'OING 091700Z 00000KT CAVOK 10/07 Q1018', 'OING 091600Z 00000KT CAVOK 11/08 Q1017', 'OING 091500Z 00000KT CAVOK 11/07 Q1017 NOSIG', 'OING 091400Z 32004KT CAVOK 17/08 Q1017 NOSIG', 'OING 091300Z 00000KT CAVOK 22/07 Q1016 NOSIG', 'OING 091200Z 00000KT CAVOK 22/05 Q1016 NOSIG', 'OING 091100Z 00000KT CAVOK 22/05 Q1016 NOSIG', 'OING 091000Z 00000KT CAVOK 22/09 Q1015 NOSIG', 'OING 090900Z 00000KT CAVOK 20/08 Q1016 NOSIG', 'OING 090800Z 00000KT CAVOK 20/07 Q1016 NOSIG', 'OING 090700Z 00000KT CAVOK 16/07 Q1016 NOSIG', 'OING 090600Z 00000KT CAVOK 13/08 Q1016 NOSIG', 'OING 090500Z 00000KT CAVOK 08/05 Q1016', 'OING 090400Z 00000KT CAVOK 03/02 Q1015 NOSIG', 'OING 090300Z 00000KT CAVOK 03/02 Q1014', 'OING 090200Z 00000KT CAVOK 02/01 Q1014', 'OING 090100Z 00000KT CAVOK 03/02 Q1013', 'OING 090000Z 00000KT CAVOK 05/03 Q1014', 'OING 082300Z 00000KT CAVOK 05/03 Q1014', 'OING 082200Z 00000KT CAVOK 05/03 Q1015', 'OING 082100Z 00000KT CAVOK 05/04 Q1015', 'OING 082000Z 00000KT CAVOK 06/04 Q1015', 'OING 081900Z 00000KT CAVOK 06/05 Q1016', 'OING 081800Z 00000KT CAVOK 08/06 Q1016', 'OING 081700Z 00000KT CAVOK 08/06 Q1016', 'OING 081600Z 00000KT CAVOK 09/07 Q1016', 'OING 081500Z 00000KT CAVOK 11/08 Q1016 NOSIG', 'OING 081400Z 00000KT CAVOK 18/10 Q1015 NOSIG', 'OING 081300Z 00000KT CAVOK 20/10 Q1015 NOSIG', 'OING 081200Z 00000KT CAVOK 22/07 Q1015 NOSIG', 'OING 081100Z 00000KT CAVOK 21/08 Q1016 NOSIG', 'OING 081000Z 00000KT CAVOK 21/08 Q1016 NOSIG', 'OING 080900Z 27008KT CAVOK 19/09 Q1017 NOSIG', 'OING 080800Z 30004KT CAVOK 19/09 Q1018 NOSIG', 'OING 080700Z 00000KT CAVOK 16/09 Q1018 NOSIG', 'OING 080600Z 00000KT CAVOK 12/07 Q1018 NOSIG', 'OING 080500Z 00000KT CAVOK 09/05 Q1018 NOSIG', 'OING 080400Z 00000KT CAVOK 04/02 Q1018 NOSIG', 'OING 080300Z 00000KT CAVOK 02/01 Q1017', 'OING 080200Z 00000KT CAVOK 03/02 Q1017', 'OING 080100Z 00000KT CAVOK 02/M00 Q1017', 'OING 080000Z 00000KT CAVOK 05/03 Q1017', 'OING 072300Z 00000KT CAVOK 04/03 Q1017', 'OING 072200Z 00000KT CAVOK 03/01 Q1017', 'OING 072100Z 12004KT CAVOK 05/02 Q1017', 'OING 072030Z 12004KT CAVOK 08/04 Q1017', 'OING 072000Z 00000KT CAVOK 08/05 Q1018', 'OING 071900Z 15004KT CAVOK 07/05 Q1018', 'OING 071800Z 00000KT CAVOK 07/05 Q1019']","['2024-02-10 16:00:00', '2024-02-10 15:00:00', '2024-02-10 14:00:00', '2024-02-10 13:00:00', '2024-02-10 12:00:00', '2024-02-10 11:00:00', '2024-02-10 10:00:00', '2024-02-10 09:00:00', '2024-02-10 08:00:00', '2024-02-10 07:00:00', '2024-02-10 06:00:00', '2024-02-10 05:00:00', '2024-02-10 04:00:00', '2024-02-10 03:00:00', '2024-02-10 02:00:00', '2024-02-10 01:00:00', '2024-02-10 00:00:00', '2024-02-09 23:00:00', '2024-02-09 22:00:00', '2024-02-09 21:00:00', '2024-02-09 20:00:00', '2024-02-09 19:00:00', '2024-02-09 18:00:00', '2024-02-09 17:00:00', '2024-02-09 16:00:00', '2024-02-09 15:00:00', '2024-02-09 14:00:00', '2024-02-09 13:00:00', '2024-02-09 12:00:00', '2024-02-09 11:00:00', '2024-02-09 10:00:00', '2024-02-09 09:00:00', '2024-02-09 08:00:00', '2024-02-09 07:00:00', '2024-02-09 06:00:00', '2024-02-09 05:00:00', '2024-02-09 04:00:00', '2024-02-09 03:00:00', '2024-02-09 02:00:00', '2024-02-09 01:00:00', '2024-02-09 00:00:00', '2024-02-08 23:00:00', '2024-02-08 22:00:00', '2024-02-08 21:00:00', '2024-02-08 20:00:00', '2024-02-08 19:00:00', '2024-02-08 18:00:00', '2024-02-08 17:00:00', '2024-02-08 16:00:00', '2024-02-08 15:00:00', '2024-02-08 14:00:00', '2024-02-08 13:00:00', '2024-02-08 12:00:00', '2024-02-08 11:00:00', '2024-02-08 10:00:00', '2024-02-08 09:00:00', '2024-02-08 08:00:00', '2024-02-08 07:00:00', '2024-02-08 06:00:00', '2024-02-08 05:00:00', '2024-02-08 04:00:00', '2024-02-08 03:00:00', '2024-02-08 02:00:00', '2024-02-08 01:00:00', '2024-02-08 00:00:00', '2024-02-07 23:00:00', '2024-02-07 22:00:00', '2024-02-07 21:00:00', '2024-02-07 20:30:00', '2024-02-07 20:00:00', '2024-02-07 19:00:00', '2024-02-07 18:00:00']"
Iran, Hamedan International Airport (HDM/OIHH) ,"['OIHH 101600Z 31002KT CAVOK 08/M05 Q1022 A3018', 'OIHH 101500Z 28004KT CAVOK 09/M04 Q1021 A3017', 'OIHH 101400Z 06004KT 9999 FEW045 BKN190 11/M05 Q1021 A3016', 'OIHH 101300Z 04004KT 9999 FEW045 BKN190 13/M05 Q1021 A3016', 'OIHH 101200Z 03004KT 9999 FEW045 SCT190 13/M06 Q1021 A3015', 'OIHH 101100Z 36004KT CAVOK 12/M07 Q1021 A3016', 'OIHH 101000Z 09004KT CAVOK 12/M07 Q1021 A3017', 'OIHH 100900Z 35002KT CAVOK 12/M09 Q1022 A3020', 'OIHH 100800Z 07002KT CAVOK 10/M08 Q1023 A3022', 'OIHH 100700Z 04004KT CAVOK 08/M05 Q1023 A3023', 'OIHH 100600Z 00000KT CAVOK 05/M02 Q1023 A3023', 'OIHH 100500Z 10002KT CAVOK M00/M03 Q1023 A3022', 'OIHH 100400Z 19002KT CAVOK M03/M06 Q1022 A3019', 'OIHH 100300Z 05002KT CAVOK M02/M05 Q1021 A3017', 'OIHH 100200Z 09002KT CAVOK M02/M05 Q1021 A3016', 'OIHH 100100Z 18002KT CAVOK M02/M05 Q1021 A3015', 'OIHH 100000Z 14004KT CAVOK M01/M05 Q1021 A3016', 'OIHH 092300Z 16002KT CAVOK M00/M04 Q1021 A3016', 'OIHH 092200Z 13004KT CAVOK 01/M05 Q1021 A3016', 'OIHH 092100Z 13006KT CAVOK 01/M04 Q1021 A3017', 'OIHH 092000Z 09002KT CAVOK 01/M04 Q1021 A3017', 'OIHH 091900Z 14006KT CAVOK 02/M04 Q1021 A3017', 'OIHH 091800Z 08004KT CAVOK 02/M03 Q1021 A3016', 'OIHH 091700Z 07006KT CAVOK 03/M05 Q1021 A3016', 'OIHH 091600Z 07002KT CAVOK 04/M05 Q1020 A3014', 'OIHH 091500Z 27004KT CAVOK 07/M05 Q1020 A3012', 'OIHH 091400Z 30012KT CAVOK 10/M08 Q1019 A3011', 'OIHH 091300Z 29008KT CAVOK 12/M14 Q1019 A3011', 'OIHH 091200Z 24006KT CAVOK 13/M14 Q1019 A3011', 'OIHH 091100Z 01004KT CAVOK 14/M10 Q1019 A3011', 'OIHH 091000Z 04002KT CAVOK 12/M04 Q1020 A3014', 'OIHH 090900Z 01004KT CAVOK 09/M04 Q1021 A3017', 'OIHH 090800Z 03004KT CAVOK 07/M04 Q1022 A3018', 'OIHH 090700Z 01004KT CAVOK 06/M04 Q1022 A3019', 'OIHH 090600Z 12006KT CAVOK 03/M03 Q1022 A3019', 'OIHH 090500Z 13006KT CAVOK M00/M05 Q1021 A3018', 'OIHH 090400Z 11006KT CAVOK M04/M06 Q1021 A3016', 'OIHH 090300Z 11004KT CAVOK M04/M06 Q1021 A3015', 'OIHH 090200Z 13006KT CAVOK M03/M05 Q1020 A3014', 'OIHH 090100Z 12006KT CAVOK M03/M05 Q1020 A3014', 'OIHH 090000Z 14002KT CAVOK M02/M05 Q1021 A3015', 'OIHH 082300Z 12006KT CAVOK M03/M05 Q1021 A3016', 'OIHH 082200Z 14002KT CAVOK M02/M05 Q1021 A3017', 'OIHH 082100Z 14004KT CAVOK M01/M04 Q1021 A3017', 'OIHH 082000Z 08004KT CAVOK M02/M05 Q1021 A3017', 'OIHH 081900Z 13004KT CAVOK M00/M04 Q1021 A3018', 'OIHH 081800Z 11004KT CAVOK M00/M04 Q1021 A3017', 'OIHH 081700Z 13004KT CAVOK 02/M04 Q1021 A3016', 'OIHH 081600Z 09004KT CAVOK 03/M05 Q1021 A3016', 'OIHH 081500Z 32008KT CAVOK 06/M06 Q1020 A3014', 'OIHH 081400Z 30008KT CAVOK 09/M07 Q1020 A3014', 'OIHH 081300Z 30012KT CAVOK 11/M09 Q1020 A3014', 'OIHH 081200Z 28014KT CAVOK 12/M11 Q1020 A3014', 'OIHH 081100Z 29010KT CAVOK 12/M12 Q1021 A3016', 'OIHH 081000Z 27008KT CAVOK 12/M10 Q1021 A3017', 'OIHH 080900Z 33004KT CAVOK 09/M03 Q1023 A3021', 'OIHH 080800Z 02004KT CAVOK 07/M03 Q1023 A3023', 'OIHH 080700Z 06004KT CAVOK 05/M03 Q1024 A3024', 'OIHH 080600Z 10004KT CAVOK 03/M03 Q1024 A3025', 'OIHH 080500Z 12002KT CAVOK 01/M04 Q1024 A3025', 'OIHH 080400Z 12004KT CAVOK M04/M06 Q1023 A3023', 'OIHH 080300Z 13004KT CAVOK M04/M06 Q1023 A3021', 'OIHH 080200Z 15004KT CAVOK M04/M07 Q1022 A3019', 'OIHH 080100Z 11002KT CAVOK M05/M06 Q1022 A3020', 'OIHH 080000Z 20002KT CAVOK M04/M06 Q1022 A3021', 'OIHH 072300Z 13002KT CAVOK M03/M05 Q1023 A3021', 'OIHH 072200Z 13002KT CAVOK M03/M05 Q1022 A3021', 'OIHH 072100Z 12006KT CAVOK M03/M04 Q1023 A3021', 'OIHH 072000Z 08006KT CAVOK M01/M04 Q1023 A3022', 'OIHH 071900Z 10008KT CAVOK M01/M03 Q1023 A3021', 'OIHH 071800Z 10006KT CAVOK M01/M04 Q1023 A3021']","['2024-02-10 16:00:00', '2024-02-10 15:00:00', '2024-02-10 14:00:00', '2024-02-10 13:00:00', '2024-02-10 12:00:00', '2024-02-10 11:00:00', '2024-02-10 10:00:00', '2024-02-10 09:00:00', '2024-02-10 08:00:00', '2024-02-10 07:00:00', '2024-02-10 06:00:00', '2024-02-10 05:00:00', '2024-02-10 04:00:00', '2024-02-10 03:00:00', '2024-02-10 02:00:00', '2024-02-10 01:00:00', '2024-02-10 00:00:00', '2024-02-09 23:00:00', '2024-02-09 22:00:00', '2024-02-09 21:00:00', '2024-02-09 20:00:00', '2024-02-09 19:00:00', '2024-02-09 18:00:00', '2024-02-09 17:00:00', '2024-02-09 16:00:00', '2024-02-09 15:00:00', '2024-02-09 14:00:00', '2024-02-09 13:00:00', '2024-02-09 12:00:00', '2024-02-09 11:00:00', '2024-02-09 10:00:00', '2024-02-09 09:00:00', '2024-02-09 08:00:00', '2024-02-09 07:00:00', '2024-02-09 06:00:00', '2024-02-09 05:00:00', '2024-02-09 04:00:00', '2024-02-09 03:00:00', '2024-02-09 02:00:00', '2024-02-09 01:00:00', '2024-02-09 00:00:00', '2024-02-08 23:00:00', '2024-02-08 22:00:00', '2024-02-08 21:00:00', '2024-02-08 20:00:00', '2024-02-08 19:00:00', '2024-02-08 18:00:00', '2024-02-08 17:00:00', '2024-02-08 16:00:00', '2024-02-08 15:00:00', '2024-02-08 14:00:00', '2024-02-08 13:00:00', '2024-02-08 12:00:00', '2024-02-08 11:00:00', '2024-02-08 10:00:00', '2024-02-08 09:00:00', '2024-02-08 08:00:00', '2024-02-08 07:00:00', '2024-02-08 06:00:00', '2024-02-08 05:00:00', '2024-02-08 04:00:00', '2024-02-08 03:00:00', '2024-02-08 02:00:00', '2024-02-08 01:00:00', '2024-02-08 00:00:00', '2024-02-07 23:00:00', '2024-02-07 22:00:00', '2024-02-07 21:00:00', '2024-02-07 20:00:00', '2024-02-07 19:00:00', '2024-02-07 18:00:00']"
Iran, Ilam Airport (IIL/OICI) ,"['OICI 101600Z 14002KT CAVOK 09/02 Q1022 A3020', 'OICI 101500Z 35002KT CAVOK 10/01 Q1022 A3019', 'OICI 101400Z 16002KT CAVOK 12/M01 Q1022 A3019', 'OICI 101300Z 17002KT CAVOK 13/M01 Q1022 A3019', 'OICI 101200Z 24004KT CAVOK 14/M00 Q1022 A3020', 'OICI 101100Z 27008KT 9999 FEW040 BKN190 13/00 Q1023 A3021', 'OICI 101000Z 28010KT CAVOK 14/M00 Q1023 A3023', 'OICI 100900Z 18006KT CAVOK 15/M06 Q1023 A3023', 'OICI 100830Z 14004KT CAVOK 14/M06 Q1024 A3024', 'OICI 100800Z 10006KT CAVOK 14/M07 Q1024 A3025', 'OICI 100730Z 14002KT CAVOK 14/M05 Q1024 A3026', 'OICI 100700Z 16002KT CAVOK 12/M03 Q1024 A3026', 'OICI 100630Z 10004KT CAVOK 10/M02 Q1024 A3026', 'OICI 100600Z 11004KT CAVOK 09/M03 Q1024 A3026', 'OICI 100500Z 10004KT CAVOK 06/M04 Q1024 A3026', 'OICI 100400Z 09002KT CAVOK 03/M06 Q1023 A3022', 'OICI 100300Z 09006KT CAVOK 02/M04 Q1023 A3021', 'OICI 100200Z 11006KT CAVOK 03/M04 Q1022 A3020', 'OICI 100100Z 09004KT CAVOK 03/M04 Q1022 A3020', 'OICI 100000Z 10004KT CAVOK 03/M03 Q1022 A3019', 'OICI 092300Z 14004KT CAVOK 05/M01 Q1022 A3020', 'OICI 092200Z 08004KT CAVOK 04/M02 Q1023 A3021', 'OICI 092100Z 13004KT CAVOK 06/M00 Q1023 A3021', 'OICI 092000Z 11004KT CAVOK 05/00 Q1023 A3022', 'OICI 091900Z 11006KT CAVOK 05/00 Q1023 A3021', 'OICI 091800Z 13004KT CAVOK 06/00 Q1023 A3021', 'OICI 091700Z 09004KT CAVOK 06/01 Q1023 A3022', 'OICI 091600Z 06002KT CAVOK 06/00 Q1023 A3021', 'OICI 091500Z 00000KT CAVOK 08/M00 Q1022 A3020', 'OICI 091400Z 30004KT CAVOK 11/01 Q1022 A3020', 'OICI 091300Z 28006KT CAVOK 13/00 Q1022 A3020', 'OICI 091200Z 28008KT CAVOK 14/M00 Q1022 A3020', 'OICI 091100Z 08002KT CAVOK 15/M03 Q1022 A3020', 'OICI 091000Z 13006KT CAVOK 14/M05 Q1023 A3022', 'OICI 090930Z 14006KT CAVOK 14/M06 Q1023 A3023', 'OICI 090900Z 14004KT CAVOK 14/M05 Q1024 A3025', 'OICI 090830Z 14004KT CAVOK 14/M04 Q1024 A3026', 'OICI 090800Z 14004KT CAVOK 13/M01 Q1024 A3026', 'OICI 090730Z 15004KT CAVOK 12/M02 Q1024 A3026', 'OICI 090700Z 13004KT CAVOK 10/M01 Q1025 A3027', 'OICI 090630Z 15004KT CAVOK 09/01 Q1024 A3026', 'OICI 090600Z 11006KT CAVOK 07/M01 Q1024 A3026', 'OICI 090530Z 11006KT CAVOK 05/M01 Q1024 A3026', 'OICI 090500Z 12006KT CAVOK 03/M03 Q1024 A3025', 'OICI 090400Z 11006KT CAVOK 01/M04 Q1024 A3025', 'OICI 090300Z 09006KT CAVOK 01/M04 Q1023 A3023', 'OICI 090200Z 13004KT CAVOK 01/M02 Q1023 A3023', 'OICI 090100Z 11006KT CAVOK 01/M03 Q1023 A3022', 'OICI 090000Z 11004KT CAVOK 02/M01 Q1024 A3025', 'OICI 082300Z 09006KT CAVOK 01/M01 Q1024 A3026', 'OICI 082200Z 11006KT CAVOK 03/01 Q1025 A3027', 'OICI 082100Z 11004KT CAVOK 03/M00 Q1025 A3027', 'OICI 082000Z 09004KT CAVOK 03/00 Q1024 A3026', 'OICI 081900Z 08004KT CAVOK 03/00 Q1025 A3028', 'OICI 081800Z 03002KT CAVOK 04/02 Q1025 A3028', 'OICI 081700Z 00000KT CAVOK 05/02 Q1025 A3028', 'OICI 081600Z 00000KT CAVOK 06/02 Q1025 A3027', 'OICI 081500Z 35004KT CAVOK 07/02 Q1024 A3026', 'OICI 081400Z 27004KT CAVOK 11/03 Q1024 A3026', 'OICI 081300Z 26006KT CAVOK 12/03 Q1024 A3026', 'OICI 081200Z 25008KT CAVOK 13/02 Q1025 A3027', 'OICI 081100Z 26006KT CAVOK 14/02 Q1025 A3028', 'OICI 081000Z 29006KT CAVOK 13/01 Q1025 A3029', 'OICI 080930Z 24004KT CAVOK 13/M01 Q1026 A3030', 'OICI 080900Z 12002KT CAVOK 13/00 Q1026 A3032', 'OICI 080830Z 12004KT CAVOK 12/M00 Q1027 A3033', 'OICI 080800Z 13004KT CAVOK 11/01 Q1027 A3034', 'OICI 080730Z 13004KT CAVOK 11/00 Q1027 A3034', 'OICI 080700Z 13004KT CAVOK 09/00 Q1027 A3034', 'OICI 080630Z 14004KT CAVOK 08/M00 Q1027 A3033', 'OICI 080600Z 11006KT CAVOK 07/M00 Q1027 A3033', 'OICI 080530Z 11006KT CAVOK 05/M01 Q1026 A3033', 'OICI 080500Z 12006KT CAVOK 03/M02 Q1026 A3032', 'OICI 080400Z 09004KT CAVOK M01/M03 Q1026 A3030', 'OICI 080300Z 11006KT CAVOK M00/M03 Q1025 A3029', 'OICI 080100Z 09004KT CAVOK 00/M02 Q1022', 'OICI 080000Z 07004KT CAVOK M00/M02 Q1025 A3028', 'OICI 072300Z 12004KT CAVOK 01/M01 Q1022', 'OICI 072200Z 14002KT CAVOK 02/M01 Q1022', 'OICI 072100Z 11004KT CAVOK 02/M01 Q1025 A3030', 'OICI 072000Z 10004KT CAVOK 02/M01 Q1026 A3030', 'OICI 071900Z 01004KT CAVOK 03/M00 Q1026 A3030', 'OICI 071800Z 30006KT CAVOK 04/01 Q1026 A3031']","['2024-02-10 16:00:00', '2024-02-10 15:00:00', '2024-02-10 14:00:00', '2024-02-10 13:00:00', '2024-02-10 12:00:00', '2024-02-10 11:00:00', '2024-02-10 10:00:00', '2024-02-10 09:00:00', '2024-02-10 08:30:00', '2024-02-10 08:00:00', '2024-02-10 07:30:00', '2024-02-10 07:00:00', '2024-02-10 06:30:00', '2024-02-10 06:00:00', '2024-02-10 05:00:00', '2024-02-10 04:00:00', '2024-02-10 03:00:00', '2024-02-10 02:00:00', '2024-02-10 01:00:00', '2024-02-10 00:00:00', '2024-02-09 23:00:00', '2024-02-09 22:00:00', '2024-02-09 21:00:00', '2024-02-09 20:00:00', '2024-02-09 19:00:00', '2024-02-09 18:00:00', '2024-02-09 17:00:00', '2024-02-09 16:00:00', '2024-02-09 15:00:00', '2024-02-09 14:00:00', '2024-02-09 13:00:00', '2024-02-09 12:00:00', '2024-02-09 11:00:00', '2024-02-09 10:00:00', '2024-02-09 09:30:00', '2024-02-09 09:00:00', '2024-02-09 08:30:00', '2024-02-09 08:00:00', '2024-02-09 07:30:00', '2024-02-09 07:00:00', '2024-02-09 06:30:00', '2024-02-09 06:00:00', '2024-02-09 05:30:00', '2024-02-09 05:00:00', '2024-02-09 04:00:00', '2024-02-09 03:00:00', '2024-02-09 02:00:00', '2024-02-09 01:00:00', '2024-02-09 00:00:00', '2024-02-08 23:00:00', '2024-02-08 22:00:00', '2024-02-08 21:00:00', '2024-02-08 20:00:00', '2024-02-08 19:00:00', '2024-02-08 18:00:00', '2024-02-08 17:00:00', '2024-02-08 16:00:00', '2024-02-08 15:00:00', '2024-02-08 14:00:00', '2024-02-08 13:00:00', '2024-02-08 12:00:00', '2024-02-08 11:00:00', '2024-02-08 10:00:00', '2024-02-08 09:30:00', '2024-02-08 09:00:00', '2024-02-08 08:30:00', '2024-02-08 08:00:00', '2024-02-08 07:30:00', '2024-02-08 07:00:00', '2024-02-08 06:30:00', '2024-02-08 06:00:00', '2024-02-08 05:30:00', '2024-02-08 05:00:00', '2024-02-08 04:00:00', '2024-02-08 03:00:00', '2024-02-08 01:00:00', '2024-02-08 00:00:00', '2024-02-07 23:00:00', '2024-02-07 22:00:00', '2024-02-07 21:00:00', '2024-02-07 20:00:00', '2024-02-07 19:00:00', '2024-02-07 18:00:00']"
Iran, Iranshahr Airport (IHR/OIZI) ,"['OIZI 101600Z 23004KT CAVOK 21/01 Q1020', 'OIZI 101500Z 25006KT CAVOK 23/01 Q1019', 'OIZI 101400Z 27004KT CAVOK 24/M00 Q1019', 'OIZI 101300Z 31004KT CAVOK 26/M01 Q1018', 'OIZI 101200Z 00000KT CAVOK 26/M01 Q1018', 'OIZI 101100Z 25004KT CAVOK 26/M00 Q1018', 'OIZI 101000Z 00000KT CAVOK 26/00 Q1019', 'OIZI 100900Z 00000KT CAVOK 24/00 Q1020', 'OIZI 100800Z 00000KT CAVOK 23/00 Q1021', 'OIZI 100700Z 00000KT CAVOK 22/01 Q1022', 'OIZI 100630Z 09004KT CAVOK 21/01 Q1023', 'OIZI 100600Z 12006KT CAVOK 20/01 Q1023', 'OIZI 100530Z 04004KT CAVOK 19/00 Q1023', 'OIZI 100500Z 03006KT CAVOK 17/M00 Q1023', 'OIZI 100430Z 03006KT CAVOK 15/M01 Q1023', 'OIZI 100400Z 03004KT CAVOK 14/M01 Q1023', 'OIZI 100300Z 02006KT CAVOK 11/M03 Q1022', 'OIZI 100200Z 03004KT CAVOK 11/M02 Q1021', 'OIZI 100000Z 01006KT CAVOK 12/M03 Q1020', 'OIZI 092100Z 01006KT CAVOK 13/M02 Q1021', 'OIZI 092000Z 00000KT CAVOK 14/01 Q1021', 'OIZI 091900Z 00000KT CAVOK 15/01 Q1021', 'OIZI 091800Z 00000KT CAVOK 16/M01 Q1020', 'OIZI 091700Z 00000KT CAVOK 18/00 Q1020', 'OIZI 091600Z 24004KT CAVOK 19/01 Q1019', 'OIZI 091500Z 00000KT CAVOK 20/01 Q1019', 'OIZI 091400Z 23004KT CAVOK 21/01 Q1018', 'OIZI 091300Z 24006KT CAVOK 23/01 Q1018', 'OIZI 091200Z 24006KT CAVOK 23/01 Q1018', 'OIZI 091100Z 22004KT CAVOK 23/02 Q1018', 'OIZI 091000Z 17004KT CAVOK 23/02 Q1019', 'OIZI 090900Z 16004KT CAVOK 22/03 Q1020', 'OIZI 090800Z 33004KT CAVOK 21/05 Q1021', 'OIZI 090700Z 00000KT CAVOK 19/06 Q1022', 'OIZI 090600Z 27004KT CAVOK 17/06 Q1023', 'OIZI 090500Z 00000KT CAVOK 16/01 Q1023', 'OIZI 090400Z 00000KT CAVOK 13/M03 Q1023', 'OIZI 090300Z 00000KT CAVOK 09/M04 Q1022', 'OIZI 090200Z 35006KT CAVOK 11/M03 Q1021', 'OIZI 090000Z 01004KT CAVOK 11/M04 Q1020', 'OIZI 082100Z 36004KT CAVOK 14/M04 Q1021', 'OIZI 082000Z 36004KT CAVOK 14/M05 Q1021', 'OIZI 081900Z 00000KT CAVOK 14/M02 Q1021', 'OIZI 081800Z 00000KT CAVOK 16/M04 Q1021', 'OIZI 081700Z 28004KT CAVOK 18/M03 Q1021', 'OIZI 081600Z 32004KT CAVOK 19/M03 Q1020', 'OIZI 081500Z 31004KT CAVOK 21/M02 Q1020', 'OIZI 081400Z 31004KT CAVOK 22/M03 Q1019', 'OIZI 081300Z 32006KT CAVOK 23/M03 Q1019', 'OIZI 081200Z 29008KT CAVOK 24/M01 Q1019', 'OIZI 081100Z 25006KT CAVOK 24/01 Q1019', 'OIZI 081000Z 24008KT CAVOK 23/M01 Q1020', 'OIZI 080900Z 00000KT CAVOK 23/M01 Q1021', 'OIZI 080800Z 31004KT CAVOK 21/M01 Q1023', 'OIZI 080700Z 23008KT CAVOK 20/00 Q1024', 'OIZI 080630Z 19006KT CAVOK 20/01 Q1024', 'OIZI 080600Z 17006KT CAVOK 20/01 Q1024', 'OIZI 080500Z 05004KT CAVOK 17/M01 Q1024', 'OIZI 080430Z 02006KT CAVOK 16/M02 Q1024', 'OIZI 080400Z 03008KT CAVOK 13/M02 Q1024', 'OIZI 080300Z 35008KT CAVOK 10/M04 Q1023', 'OIZI 080200Z 02006KT CAVOK 10/M04 Q1023', 'OIZI 080000Z 02006KT CAVOK 11/M03 Q1022', 'OIZI 072100Z 01006KT CAVOK 13/M03 Q1022', 'OIZI 072000Z 02004KT CAVOK 14/M01 Q1022', 'OIZI 071900Z 02004KT CAVOK 14/M00 Q1022', 'OIZI 071800Z 35004KT CAVOK 17/01 Q1022']","['2024-02-10 16:00:00', '2024-02-10 15:00:00', '2024-02-10 14:00:00', '2024-02-10 13:00:00', '2024-02-10 12:00:00', '2024-02-10 11:00:00', '2024-02-10 10:00:00', '2024-02-10 09:00:00', '2024-02-10 08:00:00', '2024-02-10 07:00:00', '2024-02-10 06:30:00', '2024-02-10 06:00:00', '2024-02-10 05:30:00', '2024-02-10 05:00:00', '2024-02-10 04:30:00', '2024-02-10 04:00:00', '2024-02-10 03:00:00', '2024-02-10 02:00:00', '2024-02-10 00:00:00', '2024-02-09 21:00:00', '2024-02-09 20:00:00', '2024-02-09 19:00:00', '2024-02-09 18:00:00', '2024-02-09 17:00:00', '2024-02-09 16:00:00', '2024-02-09 15:00:00', '2024-02-09 14:00:00', '2024-02-09 13:00:00', '2024-02-09 12:00:00', '2024-02-09 11:00:00', '2024-02-09 10:00:00', '2024-02-09 09:00:00', '2024-02-09 08:00:00', '2024-02-09 07:00:00', '2024-02-09 06:00:00', '2024-02-09 05:00:00', '2024-02-09 04:00:00', '2024-02-09 03:00:00', '2024-02-09 02:00:00', '2024-02-09 00:00:00', '2024-02-08 21:00:00', '2024-02-08 20:00:00', '2024-02-08 19:00:00', '2024-02-08 18:00:00', '2024-02-08 17:00:00', '2024-02-08 16:00:00', '2024-02-08 15:00:00', '2024-02-08 14:00:00', '2024-02-08 13:00:00', '2024-02-08 12:00:00', '2024-02-08 11:00:00', '2024-02-08 10:00:00', '2024-02-08 09:00:00', '2024-02-08 08:00:00', '2024-02-08 07:00:00', '2024-02-08 06:30:00', '2024-02-08 06:00:00', '2024-02-08 05:00:00', '2024-02-08 04:30:00', '2024-02-08 04:00:00', '2024-02-08 03:00:00', '2024-02-08 02:00:00', '2024-02-08 00:00:00', '2024-02-07 21:00:00', '2024-02-07 20:00:00', '2024-02-07 19:00:00', '2024-02-07 18:00:00']"
Iran, Isfahan International Airport (IFN/OIFM) ,"['OIFM 101630Z 00000KT CAVOK 08/M13 Q1022 A3020', 'OIFM 101600Z 00000KT CAVOK 06/M16 Q1022 A3019', 'OIFM 101530Z 02004KT CAVOK 09/M14 Q1022 A3018', 'OIFM 101500Z 00000KT CAVOK 12/M14 Q1021 A3018', 'OIFM 101430Z 05004KT CAVOK 12/M13 Q1022 A3018', 'OIFM 101400Z 06006KT CAVOK 13/M14 Q1021 A3018', 'OIFM 101330Z 08004KT CAVOK 14/M14 Q1021 A3017', 'OIFM 101300Z 08004KT CAVOK 15/M16 Q1021 A3017', 'OIFM 101230Z 08004KT CAVOK 16/M14 Q1021 A3017', 'OIFM 101200Z 00000KT CAVOK 15/M14 Q1021 A3018', 'OIFM 101130Z 00000KT CAVOK 15/M13 Q1021 A3018', 'OIFM 101100Z 00000KT CAVOK 15/M13 Q1022 A3019', 'OIFM 101030Z 06004KT 9999 FEW040 BKN200 15/M12 Q1022 A3019', 'OIFM 101000Z 00000KT 9999 FEW040 BKN200 13/M12 Q1022 A3020', 'OIFM 100930Z 21004KT 9999 FEW035 BKN200 13/M11 Q1023 A3021', 'OIFM 100900Z 33004KT 9999 FEW035 BKN200 12/M11 Q1023 A3023', 'OIFM 100830Z 35002KT 9999 FEW035 BKN200 12/M10 Q1024 A3024', 'OIFM 100800Z 18004KT 9999 FEW035 BKN200 11/M11 Q1024 A3025', 'OIFM 100730Z 21004KT 9999 FEW035 BKN200 10/M11 Q1025 A3027', 'OIFM 100700Z 00000KT 9999 FEW035 BKN200 08/M10 Q1025 A3028', 'OIFM 100630Z 29004KT 9999 FEW035 BKN200 07/M10 Q1025 A3028', 'OIFM 100600Z 31004KT 9999 FEW035 BKN200 05/M10 Q1025 A3028', 'OIFM 100530Z 30004KT CAVOK 03/M10 Q1025 A3028', 'OIFM 100500Z 32004KT CAVOK 02/M10 Q1025 A3027', 'OIFM 100430Z 31004KT CAVOK M02/M11 Q1024 A3026', 'OIFM 100400Z 29004KT CAVOK M04/M12 Q1024 A3024', 'OIFM 100330Z 30006KT CAVOK M07/M14 Q1023 A3024', 'OIFM 100300Z 00000KT CAVOK M04/M12 Q1023 A3022', 'OIFM 100230Z 00000KT CAVOK M04/M13 Q1023 A3021', 'OIFM 100200Z 00000KT CAVOK M04/M12 Q1023 A3021', 'OIFM 100130Z 33004KT CAVOK M04/M13 Q1022 A3020', 'OIFM 100100Z 31006KT CAVOK M04/M13 Q1022 A3019', 'OIFM 100030Z 30002KT CAVOK M03/M12 Q1022 A3019', 'OIFM 100000Z 29004KT CAVOK M03/M12 Q1022 A3019', 'OIFM 092330Z 31004KT CAVOK M02/M12 Q1022 A3019', 'OIFM 092300Z 28004KT CAVOK M02/M11 Q1022 A3021', 'OIFM 092230Z 25004KT CAVOK M03/M11 Q1022 A3020', 'OIFM 092200Z 29004KT CAVOK M03/M12 Q1022 A3021', 'OIFM 092130Z 29004KT CAVOK M03/M13 Q1023 A3021', 'OIFM 092100Z 00000KT CAVOK 01/M13 Q1022 A3021', 'OIFM 092030Z 00000KT CAVOK M02/M12 Q1023 A3021', 'OIFM 092000Z 34004KT CAVOK M00/M13 Q1023 A3021', 'OIFM 091930Z 04004KT CAVOK M01/M12 Q1023 A3021', 'OIFM 091900Z 00000KT CAVOK 03/M13 Q1022 A3020', 'OIFM 091830Z 07006KT CAVOK 02/M12 Q1022 A3020', 'OIFM 091800Z 01004KT CAVOK 03/M13 Q1022 A3019', 'OIFM 091730Z 32004KT 8000 NSC 03/M14 Q1022 A3018', 'OIFM 091700Z 16004KT 8000 NSC 08/M12 Q1022 A3018', 'OIFM 091630Z 00000KT 7000 NSC 08/M13 Q1022 A3018', 'OIFM 091600Z 00000KT 8000 NSC 06/M13 Q1021 A3017', 'OIFM 091530Z 00000KT 8000 NSC 09/M12 Q1021 A3016', 'OIFM 091500Z 12006KT CAVOK 11/M13 Q1020 A3014', 'OIFM 091430Z 12004KT CAVOK 12/M13 Q1020 A3014', 'OIFM 091400Z 13004KT CAVOK 14/M13 Q1020 A3014', 'OIFM 091330Z 14004KT CAVOK 15/M13 Q1020 A3014', 'OIFM 091300Z 16004KT CAVOK 15/M13 Q1020 A3014', 'OIFM 091230Z 15006KT CAVOK 15/M13 Q1020 A3015', 'OIFM 091200Z 11004KT CAVOK 15/M13 Q1020 A3015', 'OIFM 091130Z 00000KT CAVOK 15/M12 Q1020 A3015', 'OIFM 091100Z 05004KT CAVOK 15/M12 Q1021 A3015', 'OIFM 091030Z 00000KT CAVOK 15/M13 Q1021 A3016', 'OIFM 091000Z 06002KT CAVOK 14/M12 Q1021 A3017', 'OIFM 090930Z 00000KT CAVOK 14/M11 Q1022 A3018', 'OIFM 090900Z 23004KT CAVOK 12/M12 Q1022 A3020', 'OIFM 090830Z 00000KT CAVOK 12/M10 Q1023 A3023', 'OIFM 090800Z 00000KT CAVOK 11/M10 Q1023 A3024', 'OIFM 090730Z 00000KT CAVOK 09/M08 Q1024 A3024', 'OIFM 090700Z 00000KT CAVOK 09/M08 Q1024 A3025', 'OIFM 090630Z 29004KT CAVOK 07/M08 Q1024 A3026', 'OIFM 090600Z 31004KT CAVOK 05/M08 Q1024 A3025', 'OIFM 090530Z 00000KT CAVOK 03/M09 Q1024 A3025', 'OIFM 090500Z 34004KT CAVOK 01/M10 Q1024 A3025', 'OIFM 090430Z 32004KT CAVOK M03/M11 Q1023 A3024', 'OIFM 090400Z 33004KT CAVOK M05/M10 Q1023 A3022', 'OIFM 090330Z 30004KT CAVOK M07/M12 Q1023 A3021', 'OIFM 090300Z 31004KT CAVOK M05/M11 Q1022 A3021', 'OIFM 090230Z 32006KT CAVOK M05/M11 Q1022 A3019', 'OIFM 090200Z 26004KT CAVOK M06/M12 Q1022 A3019', 'OIFM 090130Z 30004KT CAVOK M04/M12 Q1022 A3018', 'OIFM 090100Z 27006KT CAVOK M03/M11 Q1022 A3018', 'OIFM 090030Z 28010KT CAVOK M04/M11 Q1022 A3018', 'OIFM 090000Z 25006KT CAVOK M03/M11 Q1022 A3019', 'OIFM 082330Z 31004KT CAVOK M02/M10 Q1022 A3019', 'OIFM 082300Z 30004KT 8000 NSC M03/M10 Q1022 A3019', 'OIFM 082230Z 30006KT CAVOK M04/M10 Q1022 A3019', 'OIFM 082200Z 27006KT CAVOK M04/M10 Q1022 A3020', 'OIFM 082130Z 28004KT CAVOK M03/M11 Q1022 A3019', 'OIFM 082100Z 29002KT CAVOK M03/M11 Q1022 A3020', 'OIFM 082030Z 00000KT CAVOK M00/M09 Q1022 A3020', 'OIFM 082000Z 33004KT CAVOK M02/M10 Q1022 A3020', 'OIFM 081930Z 00000KT CAVOK 01/M10 Q1022 A3020', 'OIFM 081900Z 00000KT CAVOK 01/M10 Q1022 A3019', 'OIFM 081830Z 00000KT CAVOK 02/M10 Q1022 A3020', 'OIFM 081800Z 11004KT CAVOK 03/M09 Q1022 A3020', 'OIFM 081730Z 08002KT CAVOK 04/M09 Q1022 A3020', 'OIFM 081700Z 14004KT CAVOK 07/M08 Q1022 A3019', 'OIFM 081630Z 12004KT CAVOK 07/M08 Q1022 A3020', 'OIFM 081600Z 12004KT CAVOK 08/M08 Q1022 A3019', 'OIFM 081530Z 11004KT CAVOK 08/M08 Q1022 A3018', 'OIFM 081500Z 15006KT CAVOK 10/M08 Q1021 A3017', 'OIFM 081430Z 15006KT CAVOK 11/M08 Q1021 A3018', 'OIFM 081400Z 16006KT CAVOK 13/M08 Q1021 A3017', 'OIFM 081330Z 12004KT CAVOK 13/M09 Q1021 A3017', 'OIFM 081300Z 00000KT CAVOK 14/M09 Q1021 A3018', 'OIFM 081230Z 15004KT CAVOK 14/M08 Q1022 A3018', 'OIFM 081200Z 31004KT CAVOK 14/M08 Q1022 A3019', 'OIFM 081130Z 00000KT CAVOK 14/M08 Q1022 A3020', 'OIFM 081100Z 20004KT CAVOK 13/M08 Q1023 A3021', 'OIFM 081030Z 28004KT CAVOK 13/M07 Q1023 A3022', 'OIFM 081000Z 20006KT CAVOK 12/M07 Q1023 A3023', 'OIFM 080930Z 16004KT CAVOK 11/M06 Q1024 A3024', 'OIFM 080900Z 04002KT CAVOK 10/M06 Q1024 A3027', 'OIFM 080830Z 23006KT CAVOK 10/M06 Q1025 A3028', 'OIFM 080800Z 01002KT CAVOK 09/M05 Q1026 A3030', 'OIFM 080730Z 21006KT CAVOK 08/M05 Q1026 A3031', 'OIFM 080700Z 34002KT CAVOK 07/M05 Q1026 A3032', 'OIFM 080630Z 33006KT 8000 NSC 06/M05 Q1026 A3032', 'OIFM 080600Z 33004KT 8000 NSC 04/M05 Q1026 A3032', 'OIFM 080530Z 33004KT CAVOK 02/M05 Q1026 A3032', 'OIFM 080500Z 02004KT CAVOK M00/M06 Q1026 A3031', 'OIFM 080430Z 03004KT CAVOK M03/M08 Q1026 A3030', 'OIFM 080400Z 29004KT CAVOK M05/M08 Q1025 A3029', 'OIFM 080330Z 29004KT CAVOK M05/M08 Q1025 A3027', 'OIFM 080300Z 00000KT CAVOK M03/M07 Q1024 A3026', 'OIFM 080230Z 31004KT CAVOK M03/M06 Q1024 A3026', 'OIFM 080200Z 00000KT CAVOK M02/M06 Q1024 A3025', 'OIFM 080130Z 00000KT CAVOK M01/M05 Q1024 A3024', 'OIFM 080100Z 00000KT CAVOK M01/M06 Q1024 A3024', 'OIFM 080030Z 00000KT CAVOK M01/M06 Q1024 A3024', 'OIFM 080000Z 29004KT CAVOK M00/M06 Q1024 A3024', 'OIFM 072330Z 29008KT CAVOK 00/M06 Q1024 A3024', 'OIFM 072300Z 30008KT CAVOK 01/M06 Q1023 A3024', 'OIFM 072230Z 29010KT CAVOK 01/M05 Q1023 A3024', 'OIFM 072200Z 30010KT CAVOK 01/M05 Q1023 A3023', 'OIFM 072130Z 28008KT CAVOK 01/M05 Q1023 A3023', 'OIFM 072100Z 29008KT CAVOK 01/M05 Q1023 A3022', 'OIFM 072030Z 29008KT CAVOK 01/M05 Q1023 A3023', 'OIFM 072000Z 31010KT CAVOK 03/M05 Q1023 A3023', 'OIFM 071930Z 31008KT CAVOK 03/M05 Q1023 A3023', 'OIFM 071900Z 30006KT CAVOK 03/M05 Q1023 A3023', 'OIFM 071830Z 30008KT CAVOK 04/M05 Q1023 A3023', 'OIFM 071800Z 31010KT CAVOK 05/M05 Q1023 A3023', 'OIFM 071730Z 32012KT CAVOK 06/M05 Q1023 A3022']","['2024-02-10 16:30:00', '2024-02-10 16:00:00', '2024-02-10 15:30:00', '2024-02-10 15:00:00', '2024-02-10 14:30:00', '2024-02-10 14:00:00', '2024-02-10 13:30:00', '2024-02-10 13:00:00', '2024-02-10 12:30:00', '2024-02-10 12:00:00', '2024-02-10 11:30:00', '2024-02-10 11:00:00', '2024-02-10 10:30:00', '2024-02-10 10:00:00', '2024-02-10 09:30:00', '2024-02-10 09:00:00', '2024-02-10 08:30:00', '2024-02-10 08:00:00', '2024-02-10 07:30:00', '2024-02-10 07:00:00', '2024-02-10 06:30:00', '2024-02-10 06:00:00', '2024-02-10 05:30:00', '2024-02-10 05:00:00', '2024-02-10 04:30:00', '2024-02-10 04:00:00', '2024-02-10 03:30:00', '2024-02-10 03:00:00', '2024-02-10 02:30:00', '2024-02-10 02:00:00', '2024-02-10 01:30:00', '2024-02-10 01:00:00', '2024-02-10 00:30:00', '2024-02-10 00:00:00', '2024-02-09 23:30:00', '2024-02-09 23:00:00', '2024-02-09 22:30:00', '2024-02-09 22:00:00', '2024-02-09 21:30:00', '2024-02-09 21:00:00', '2024-02-09 20:30:00', '2024-02-09 20:00:00', '2024-02-09 19:30:00', '2024-02-09 19:00:00', '2024-02-09 18:30:00', '2024-02-09 18:00:00', '2024-02-09 17:30:00', '2024-02-09 17:00:00', '2024-02-09 16:30:00', '2024-02-09 16:00:00', '2024-02-09 15:30:00', '2024-02-09 15:00:00', '2024-02-09 14:30:00', '2024-02-09 14:00:00', '2024-02-09 13:30:00', '2024-02-09 13:00:00', '2024-02-09 12:30:00', '2024-02-09 12:00:00', '2024-02-09 11:30:00', '2024-02-09 11:00:00', '2024-02-09 10:30:00', '2024-02-09 10:00:00', '2024-02-09 09:30:00', '2024-02-09 09:00:00', '2024-02-09 08:30:00', '2024-02-09 08:00:00', '2024-02-09 07:30:00', '2024-02-09 07:00:00', '2024-02-09 06:30:00', '2024-02-09 06:00:00', '2024-02-09 05:30:00', '2024-02-09 05:00:00', '2024-02-09 04:30:00', '2024-02-09 04:00:00', '2024-02-09 03:30:00', '2024-02-09 03:00:00', '2024-02-09 02:30:00', '2024-02-09 02:00:00', '2024-02-09 01:30:00', '2024-02-09 01:00:00', '2024-02-09 00:30:00', '2024-02-09 00:00:00', '2024-02-08 23:30:00', '2024-02-08 23:00:00', '2024-02-08 22:30:00', '2024-02-08 22:00:00', '2024-02-08 21:30:00', '2024-02-08 21:00:00', '2024-02-08 20:30:00', '2024-02-08 20:00:00', '2024-02-08 19:30:00', '2024-02-08 19:00:00', '2024-02-08 18:30:00', '2024-02-08 18:00:00', '2024-02-08 17:30:00', '2024-02-08 17:00:00', '2024-02-08 16:30:00', '2024-02-08 16:00:00', '2024-02-08 15:30:00', '2024-02-08 15:00:00', '2024-02-08 14:30:00', '2024-02-08 14:00:00', '2024-02-08 13:30:00', '2024-02-08 13:00:00', '2024-02-08 12:30:00', '2024-02-08 12:00:00', '2024-02-08 11:30:00', '2024-02-08 11:00:00', '2024-02-08 10:30:00', '2024-02-08 10:00:00', '2024-02-08 09:30:00', '2024-02-08 09:00:00', '2024-02-08 08:30:00', '2024-02-08 08:00:00', '2024-02-08 07:30:00', '2024-02-08 07:00:00', '2024-02-08 06:30:00', '2024-02-08 06:00:00', '2024-02-08 05:30:00', '2024-02-08 05:00:00', '2024-02-08 04:30:00', '2024-02-08 04:00:00', '2024-02-08 03:30:00', '2024-02-08 03:00:00', '2024-02-08 02:30:00', '2024-02-08 02:00:00', '2024-02-08 01:30:00', '2024-02-08 01:00:00', '2024-02-08 00:30:00', '2024-02-08 00:00:00', '2024-02-07 23:30:00', '2024-02-07 23:00:00', '2024-02-07 22:30:00', '2024-02-07 22:00:00', '2024-02-07 21:30:00', '2024-02-07 21:00:00', '2024-02-07 20:30:00', '2024-02-07 20:00:00', '2024-02-07 19:30:00', '2024-02-07 19:00:00', '2024-02-07 18:30:00', '2024-02-07 18:00:00', '2024-02-07 17:30:00']"
Iran, Kalaleh Airport (KLM/OINE) ,"['OINE 101600Z 06004KT CAVOK 13/08 Q1017', 'OINE 101500Z 07004KT CAVOK 15/09 Q1017', 'OINE 101400Z 12004KT CAVOK 16/12 Q1016', 'OINE 101300Z 20004KT CAVOK 20/14 Q1016', 'OINE 101200Z 21008KT CAVOK 21/14 Q1015', 'OINE 101100Z 00000KT CAVOK 23/11 Q1015', 'OINE 101000Z 00000KT CAVOK 22/13 Q1015', 'OINE 100900Z 33004KT CAVOK 21/12 Q1016', 'OINE 100800Z 00000KT CAVOK 20/10 Q1016', 'OINE 100700Z 00000KT CAVOK 19/10 Q1017', 'OINE 100600Z 00000KT CAVOK 16/09 Q1017', 'OINE 100500Z 00000KT CAVOK 13/06 Q1017', 'OINE 100400Z 00000KT CAVOK 07/02 Q1017', 'OINE 100300Z 00000KT CAVOK 09/02 Q1016', 'OINE 100200Z 00000KT CAVOK 08/02 Q1016', 'OINE 100000Z 00000KT CAVOK 08/02 Q1016', 'OINE 092100Z 00000KT CAVOK 09/03 Q1016', 'OINE 091800Z 00000KT CAVOK 11/05 Q1016', 'OINE 091700Z 00000KT CAVOK 11/05 Q1016', 'OINE 091600Z 06004KT CAVOK 11/06 Q1016', 'OINE 091500Z 08004KT CAVOK 13/08 Q1015', 'OINE 091400Z 00000KT CAVOK 17/10 Q1015', 'OINE 091300Z 20004KT CAVOK 20/10 Q1015', 'OINE 091200Z 24006KT CAVOK 20/09 Q1013', 'OINE 091100Z 22008KT CAVOK 21/08 Q1014', 'OINE 091000Z 23008KT CAVOK 22/06 Q1013', 'OINE 090900Z 29004KT CAVOK 22/10 Q1013', 'OINE 090800Z 00000KT CAVOK 21/11 Q1013', 'OINE 090700Z 29004KT CAVOK 18/08 Q1014', 'OINE 090600Z 30004KT CAVOK 15/07 Q1014', 'OINE 090500Z 00000KT CAVOK 12/06 Q1014', 'OINE 090400Z 00000KT CAVOK 07/02 Q1013', 'OINE 090300Z 00000KT CAVOK 04/01 Q1012', 'OINE 090200Z 00000KT CAVOK 08/02 Q1012', 'OINE 090000Z 00000KT CAVOK 07/03 Q1013', 'OINE 082100Z 00000KT CAVOK 08/03 Q1014', 'OINE 081800Z 00000KT CAVOK 10/04 Q1014', 'OINE 081700Z 01004KT CAVOK 10/04 Q1014', 'OINE 081600Z 00000KT CAVOK 13/04 Q1014', 'OINE 081500Z 00000KT CAVOK 15/02 Q1014', 'OINE 081400Z 00000KT CAVOK 16/06 Q1013', 'OINE 081300Z 00000KT CAVOK 23/09 Q1013', 'OINE 081200Z 30004KT CAVOK 22/09 Q1014', 'OINE 081100Z 00000KT CAVOK 25/06 Q1014', 'OINE 081000Z 00000KT CAVOK 23/08 Q1014', 'OINE 080900Z 00000KT CAVOK 22/06 Q1016', 'OINE 080800Z 00000KT CAVOK 21/07 Q1015', 'OINE 080700Z 00000KT CAVOK 21/03 Q1016', 'OINE 080600Z 00000KT CAVOK 20/05 Q1017', 'OINE 080500Z 07008KT CAVOK 17/04 Q1016', 'OINE 080400Z 07008KT CAVOK 16/01 Q1015', 'OINE 080300Z 09012KT CAVOK 15/01 Q1015', 'OINE 080200Z 05004KT CAVOK 13/02 Q1015', 'OINE 080000Z 09010KT CAVOK 15/02 Q1016', 'OINE 072100Z 00000KT CAVOK 05/03 Q1017', 'OINE 071800Z 30006KT CAVOK 09/04 Q1018']","['2024-02-10 16:00:00', '2024-02-10 15:00:00', '2024-02-10 14:00:00', '2024-02-10 13:00:00', '2024-02-10 12:00:00', '2024-02-10 11:00:00', '2024-02-10 10:00:00', '2024-02-10 09:00:00', '2024-02-10 08:00:00', '2024-02-10 07:00:00', '2024-02-10 06:00:00', '2024-02-10 05:00:00', '2024-02-10 04:00:00', '2024-02-10 03:00:00', '2024-02-10 02:00:00', '2024-02-10 00:00:00', '2024-02-09 21:00:00', '2024-02-09 18:00:00', '2024-02-09 17:00:00', '2024-02-09 16:00:00', '2024-02-09 15:00:00', '2024-02-09 14:00:00', '2024-02-09 13:00:00', '2024-02-09 12:00:00', '2024-02-09 11:00:00', '2024-02-09 10:00:00', '2024-02-09 09:00:00', '2024-02-09 08:00:00', '2024-02-09 07:00:00', '2024-02-09 06:00:00', '2024-02-09 05:00:00', '2024-02-09 04:00:00', '2024-02-09 03:00:00', '2024-02-09 02:00:00', '2024-02-09 00:00:00', '2024-02-08 21:00:00', '2024-02-08 18:00:00', '2024-02-08 17:00:00', '2024-02-08 16:00:00', '2024-02-08 15:00:00', '2024-02-08 14:00:00', '2024-02-08 13:00:00', '2024-02-08 12:00:00', '2024-02-08 11:00:00', '2024-02-08 10:00:00', '2024-02-08 09:00:00', '2024-02-08 08:00:00', '2024-02-08 07:00:00', '2024-02-08 06:00:00', '2024-02-08 05:00:00', '2024-02-08 04:00:00', '2024-02-08 03:00:00', '2024-02-08 02:00:00', '2024-02-08 00:00:00', '2024-02-07 21:00:00', '2024-02-07 18:00:00']"
Iran, Karaj Payam International Airport (PYK/OIIP) ,"['OIIP 101600Z 31004KT CAVOK 10/M05 Q1020 A3013', 'OIIP 101500Z 28010KT CAVOK 12/M05 Q1019 A3012', 'OIIP 101400Z 30008KT CAVOK 13/M08 Q1019 A3010', 'OIIP 101300Z 29006KT CAVOK 15/M09 Q1019 A3010', 'OIIP 101200Z 30008KT CAVOK 15/M08 Q1019 A3010', 'OIIP 101100Z 27006KT CAVOK 15/M09 Q1019 A3011', 'OIIP 101000Z 31012KT CAVOK 15/M08 Q1020 A3013', 'OIIP 100930Z 29010KT CAVOK 15/M07 Q1020 A3014', 'OIIP 100900Z 30008KT CAVOK 14/M06 Q1020 A3014', 'OIIP 100830Z 30008KT CAVOK 13/M06 Q1021 A3015', 'OIIP 100800Z 29010KT CAVOK 12/M05 Q1021 A3016', 'OIIP 100700Z 31008KT CAVOK 11/M05 Q1021 A3017', 'OIIP 100630Z 31008KT CAVOK 10/M05 Q1021 A3017', 'OIIP 100600Z 30010KT CAVOK 08/M04 Q1021 A3017', 'OIIP 100500Z 31008KT CAVOK 06/M04 Q1021 A3015', 'OIIP 100400Z 31008KT CAVOK 02/M05 Q1020 A3012', 'OIIP 100300Z 34008KT CAVOK 02/M05 Q1019 A3010', 'OIIP 100200Z 32008KT CAVOK 03/M05 Q1019 A3009', 'OIIP 100100Z 29006KT CAVOK 04/M05 Q1018 A3009', 'OIIP 100000Z 31004KT CAVOK 05/M05 Q1019 A3009', 'OIIP 092300Z 30008KT CAVOK 06/M06 Q1019 A3010', 'OIIP 092200Z 30008KT CAVOK 07/M05 Q1019 A3010', 'OIIP 092100Z 31008KT CAVOK 04/M04 Q1019 A3010', 'OIIP 092000Z 33004KT CAVOK 05/M05 Q1019 A3010', 'OIIP 091900Z 26006KT CAVOK 08/M04 Q1019 A3009', 'OIIP 091800Z 28008KT CAVOK 08/M04 Q1018 A3008', 'OIIP 091700Z 28006KT CAVOK 06/M04 Q1018 A3007', 'OIIP 091600Z 27006KT CAVOK 10/M05 Q1017 A3006', 'OIIP 091500Z 31008KT CAVOK 09/M06 Q1017 A3004', 'OIIP 091400Z 30010KT CAVOK 13/M06 Q1016 A3002', 'OIIP 091300Z 29012KT CAVOK 14/M07 Q1017 A3003', 'OIIP 091200Z 30014KT CAVOK 14/M07 Q1016 A3002', 'OIIP 091100Z 29012KT CAVOK 14/M05 Q1016 A3002', 'OIIP 091030Z 30010KT CAVOK 13/M04 Q1017 A3004', 'OIIP 091000Z 30010KT CAVOK 13/M04 Q1017 A3004', 'OIIP 090930Z 30010KT CAVOK 11/M03 Q1018 A3007', 'OIIP 090900Z 30010KT CAVOK 11/M03 Q1018 A3007', 'OIIP 090830Z 28010KT CAVOK 11/M02 Q1019 A3009', 'OIIP 090800Z 28010KT CAVOK 10/M03 Q1019 A3010', 'OIIP 090730Z 30010KT CAVOK 09/M02 Q1019 A3010', 'OIIP 090700Z 30010KT CAVOK 08/M02 Q1019 A3010', 'OIIP 090630Z 31012KT CAVOK 07/M02 Q1019 A3010', 'OIIP 090600Z 31012KT CAVOK 06/M02 Q1019 A3009', 'OIIP 090500Z 31010KT CAVOK 03/M02 Q1019 A3009', 'OIIP 090400Z 29012KT CAVOK 02/M03 Q1018 A3008', 'OIIP 090300Z 32010KT CAVOK 00/M03 Q1018 A3006', 'OIIP 090200Z 30010KT CAVOK 02/M03 Q1018 A3007', 'OIIP 090100Z 29008KT CAVOK 03/M03 Q1018 A3006', 'OIIP 090000Z 31008KT CAVOK 02/M03 Q1018 A3006', 'OIIP 082300Z 30008KT CAVOK 04/M03 Q1018 A3008', 'OIIP 082200Z 31012KT CAVOK 03/M03 Q1018 A3008', 'OIIP 082100Z 29012KT CAVOK 05/M03 Q1018 A3007', 'OIIP 082000Z 30008KT CAVOK 07/M04 Q1018 A3009', 'OIIP 081900Z 27008KT CAVOK 08/M04 Q1018 A3008', 'OIIP 081800Z 28006KT CAVOK 06/M01 Q1018 A3008', 'OIIP 081700Z 31008KT CAVOK 07/M04 Q1018 A3008', 'OIIP 081600Z 31006KT CAVOK 07/M05 Q1018 A3007', 'OIIP 081500Z 33008KT CAVOK 08/M05 Q1018 A3006', 'OIIP 081400Z 31008KT CAVOK 11/M05 Q1018 A3006', 'OIIP 081300Z 32008KT CAVOK 13/M05 Q1018 A3006', 'OIIP 081200Z 31012KT CAVOK 13/M05 Q1018 A3007', 'OIIP 081100Z 31010KT CAVOK 12/M05 Q1018 A3009', 'OIIP 081030Z 30010KT CAVOK 12/M05 Q1019 A3010', 'OIIP 081000Z 32006KT CAVOK 12/M03 Q1019 A3011', 'OIIP 080930Z 31014KT CAVOK 12/M04 Q1019 A3011', 'OIIP 080900Z 32010KT CAVOK 11/M03 Q1020 A3013', 'OIIP 080830Z 32012KT CAVOK 10/M03 Q1020 A3015', 'OIIP 080800Z 31010KT CAVOK 09/M03 Q1021 A3016', 'OIIP 080730Z 32010KT CAVOK 08/M03 Q1021 A3017', 'OIIP 080700Z 31010KT 8000 NSC 08/M03 Q1021 A3017', 'OIIP 080630Z 30010KT 8000 NSC 07/M02 Q1021 A3017', 'OIIP 080600Z 32004KT 8000 NSC 05/M02 Q1021 A3017', 'OIIP 080500Z 02004KT 8000 NSC 03/M02 Q1021 A3017', 'OIIP 080400Z 28008KT 8000 NSC 02/M03 Q1020 A3014', 'OIIP 080300Z 28008KT CAVOK 02/M03 Q1020 A3013', 'OIIP 080200Z 28008KT CAVOK 02/M03 Q1019 A3011', 'OIIP 080100Z 29008KT CAVOK 01/M03 Q1019 A3011', 'OIIP 080000Z 31008KT CAVOK 01/M03 Q1019 A3012', 'OIIP 072300Z 29010KT CAVOK 03/M02 Q1019 A3011', 'OIIP 072200Z 28008KT CAVOK 02/M03 Q1019 A3011', 'OIIP 072100Z 29008KT CAVOK 04/M03 Q1019 A3011', 'OIIP 072000Z 27008KT CAVOK 04/M03 Q1019 A3011', 'OIIP 071900Z 28004KT CAVOK 03/M03 Q1020 A3012', 'OIIP 071800Z 25006KT CAVOK 05/M03 Q1020 A3012']","['2024-02-10 16:00:00', '2024-02-10 15:00:00', '2024-02-10 14:00:00', '2024-02-10 13:00:00', '2024-02-10 12:00:00', '2024-02-10 11:00:00', '2024-02-10 10:00:00', '2024-02-10 09:30:00', '2024-02-10 09:00:00', '2024-02-10 08:30:00', '2024-02-10 08:00:00', '2024-02-10 07:00:00', '2024-02-10 06:30:00', '2024-02-10 06:00:00', '2024-02-10 05:00:00', '2024-02-10 04:00:00', '2024-02-10 03:00:00', '2024-02-10 02:00:00', '2024-02-10 01:00:00', '2024-02-10 00:00:00', '2024-02-09 23:00:00', '2024-02-09 22:00:00', '2024-02-09 21:00:00', '2024-02-09 20:00:00', '2024-02-09 19:00:00', '2024-02-09 18:00:00', '2024-02-09 17:00:00', '2024-02-09 16:00:00', '2024-02-09 15:00:00', '2024-02-09 14:00:00', '2024-02-09 13:00:00', '2024-02-09 12:00:00', '2024-02-09 11:00:00', '2024-02-09 10:30:00', '2024-02-09 10:00:00', '2024-02-09 09:30:00', '2024-02-09 09:00:00', '2024-02-09 08:30:00', '2024-02-09 08:00:00', '2024-02-09 07:30:00', '2024-02-09 07:00:00', '2024-02-09 06:30:00', '2024-02-09 06:00:00', '2024-02-09 05:00:00', '2024-02-09 04:00:00', '2024-02-09 03:00:00', '2024-02-09 02:00:00', '2024-02-09 01:00:00', '2024-02-09 00:00:00', '2024-02-08 23:00:00', '2024-02-08 22:00:00', '2024-02-08 21:00:00', '2024-02-08 20:00:00', '2024-02-08 19:00:00', '2024-02-08 18:00:00', '2024-02-08 17:00:00', '2024-02-08 16:00:00', '2024-02-08 15:00:00', '2024-02-08 14:00:00', '2024-02-08 13:00:00', '2024-02-08 12:00:00', '2024-02-08 11:00:00', '2024-02-08 10:30:00', '2024-02-08 10:00:00', '2024-02-08 09:30:00', '2024-02-08 09:00:00', '2024-02-08 08:30:00', '2024-02-08 08:00:00', '2024-02-08 07:30:00', '2024-02-08 07:00:00', '2024-02-08 06:30:00', '2024-02-08 06:00:00', '2024-02-08 05:00:00', '2024-02-08 04:00:00', '2024-02-08 03:00:00', '2024-02-08 02:00:00', '2024-02-08 01:00:00', '2024-02-08 00:00:00', '2024-02-07 23:00:00', '2024-02-07 22:00:00', '2024-02-07 21:00:00', '2024-02-07 20:00:00', '2024-02-07 19:00:00', '2024-02-07 18:00:00']"
Iran, Kashan Airport (KKS/OIFK) ,"['OIFK 091500Z 06002KT CAVOK 15/M05 Q1017 A3006', 'OIFK 080800Z 10004KT CAVOK 16/M07 Q1022 A3020', 'OIFK 080500Z 00000KT CAVOK 07/M01 Q1023 A3022', 'OIFK 072200Z 00000KT CAVOK 06/M03 Q1022 A3020']","['2024-02-09 15:00:00', '2024-02-08 08:00:00', '2024-02-08 05:00:00', '2024-02-07 22:00:00']"
Iran, Kerman Airport (KER/OIKK) ,"['OIKK 101600Z 07016KT CAVOK 12/M12 Q1022 A3018', 'OIKK 101530Z 06014KT CAVOK 13/M13 Q1022 A3018', 'OIKK 101500Z 06012KT CAVOK 13/M13 Q1021 A3017', 'OIKK 101430Z 05012KT CAVOK 14/M13 Q1021 A3016', 'OIKK 101400Z 35006KT CAVOK 16/M16 Q1020 A3014', 'OIKK 101330Z 36004KT CAVOK 17/M15 Q1020 A3013', 'OIKK 101300Z 02004KT CAVOK 18/M15 Q1020 A3013', 'OIKK 101230Z 01006KT CAVOK 18/M15 Q1020 A3013', 'OIKK 101200Z 04006KT CAVOK 18/M15 Q1020 A3013', 'OIKK 101130Z 33010KT CAVOK 18/M15 Q1020 A3013', 'OIKK 101100Z 08006KT CAVOK 18/M15 Q1020 A3013', 'OIKK 101000Z 34008KT CAVOK 17/M15 Q1021 A3016', 'OIKK 100900Z 30006KT CAVOK 16/M14 Q1022 A3019', 'OIKK 100830Z 27006KT CAVOK 16/M14 Q1022 A3021', 'OIKK 100800Z 26004KT CAVOK 16/M13 Q1023 A3023', 'OIKK 100730Z 17004KT CAVOK 16/M13 Q1024 A3025', 'OIKK 100700Z 00000KT CAVOK 14/M13 Q1024 A3026', 'OIKK 100630Z 35004KT CAVOK 12/M14 Q1024 A3026', 'OIKK 100600Z 01006KT CAVOK 09/M15 Q1024 A3027', 'OIKK 100530Z 30004KT CAVOK 07/M15 Q1024 A3027', 'OIKK 100500Z 00000KT CAVOK 07/M15 Q1024 A3027', 'OIKK 100400Z 12004KT CAVOK M01/M18 Q1024 A3026', 'OIKK 100300Z 11006KT CAVOK M04/M18 Q1023 A3023', 'OIKK 100200Z 13004KT CAVOK M04/M18 Q1023 A3022', 'OIKK 100100Z 09004KT CAVOK M02/M17 Q1022 A3021', 'OIKK 100000Z 12004KT CAVOK M01/M17 Q1022 A3020', 'OIKK 092300Z 10004KT CAVOK 00/M16 Q1022 A3020', 'OIKK 092200Z 10004KT CAVOK 00/M17 Q1023 A3021', 'OIKK 092100Z 13004KT CAVOK 02/M17 Q1023 A3021', 'OIKK 092000Z 11004KT CAVOK 03/M17 Q1022 A3020', 'OIKK 091900Z 18004KT CAVOK 03/M19 Q1022 A3020', 'OIKK 091800Z 08004KT CAVOK 08/M16 Q1022 A3019', 'OIKK 091700Z 03004KT CAVOK 09/M15 Q1021 A3018', 'OIKK 091600Z 36004KT CAVOK 08/M17 Q1021 A3016', 'OIKK 091530Z 29002KT CAVOK 08/M17 Q1021 A3015', 'OIKK 091500Z 32004KT CAVOK 11/M16 Q1020 A3014', 'OIKK 091400Z 36004KT CAVOK 14/M15 Q1020 A3013', 'OIKK 091330Z 03004KT CAVOK 16/M15 Q1020 A3012', 'OIKK 091300Z 03004KT CAVOK 16/M16 Q1019 A3012', 'OIKK 091230Z 02004KT CAVOK 17/M16 Q1019 A3011', 'OIKK 091200Z 27004KT CAVOK 17/M15 Q1019 A3012', 'OIKK 091130Z 26004KT CAVOK 17/M15 Q1019 A3011', 'OIKK 091100Z 24006KT CAVOK 16/M15 Q1020 A3012', 'OIKK 091030Z 27004KT CAVOK 16/M14 Q1020 A3013', 'OIKK 091000Z 27004KT CAVOK 15/M14 Q1020 A3014', 'OIKK 090930Z 23006KT CAVOK 15/M14 Q1021 A3015', 'OIKK 090900Z 25004KT CAVOK 14/M12 Q1022 A3018', 'OIKK 090830Z 21004KT CAVOK 15/M11 Q1022 A3019', 'OIKK 090800Z 21004KT CAVOK 14/M10 Q1023 A3021', 'OIKK 090730Z 18004KT CAVOK 14/M10 Q1023 A3022', 'OIKK 090700Z 18004KT CAVOK 12/M11 Q1023 A3023', 'OIKK 090630Z 14004KT CAVOK 11/M12 Q1024 A3024', 'OIKK 090600Z 12004KT CAVOK 07/M13 Q1024 A3024', 'OIKK 090530Z 11004KT CAVOK 05/M13 Q1024 A3024', 'OIKK 090500Z 12004KT CAVOK 03/M15 Q1023 A3023', 'OIKK 090400Z 13004KT CAVOK M03/M18 Q1023 A3022', 'OIKK 090300Z 10006KT CAVOK M03/M17 Q1022 A3019', 'OIKK 090200Z 10004KT CAVOK M02/M17 Q1021 A3018', 'OIKK 090100Z 09004KT CAVOK M02/M17 Q1021 A3018', 'OIKK 090000Z 11004KT CAVOK M02/M17 Q1021 A3017', 'OIKK 082300Z 13004KT CAVOK M02/M17 Q1022 A3019', 'OIKK 082200Z 11004KT CAVOK 00/M17 Q1022 A3019', 'OIKK 082100Z 12006KT CAVOK 00/M17 Q1022 A3019', 'OIKK 082000Z 12004KT CAVOK 02/M16 Q1022 A3020', 'OIKK 081900Z 13004KT CAVOK 04/M15 Q1022 A3020', 'OIKK 081800Z 16004KT CAVOK 05/M15 Q1022 A3020', 'OIKK 081700Z 35004KT CAVOK 07/M14 Q1022 A3019', 'OIKK 081630Z 36004KT CAVOK 07/M14 Q1022 A3018', 'OIKK 081600Z 33006KT CAVOK 09/M13 Q1022 A3018', 'OIKK 081500Z 34006KT CAVOK 10/M13 Q1021 A3016', 'OIKK 081400Z 34006KT CAVOK 13/M13 Q1020 A3014', 'OIKK 081330Z 00000KT CAVOK 14/M14 Q1020 A3014', 'OIKK 081300Z 36006KT CAVOK 15/M14 Q1020 A3013', 'OIKK 081230Z 32004KT CAVOK 15/M14 Q1020 A3013', 'OIKK 081200Z 32004KT CAVOK 15/M14 Q1020 A3013', 'OIKK 081130Z 01006KT CAVOK 15/M14 Q1020 A3013', 'OIKK 081100Z 27008KT CAVOK 15/M14 Q1020 A3014', 'OIKK 081000Z 22006KT CAVOK 14/M14 Q1021 A3016', 'OIKK 080830Z 22004KT CAVOK 14/M15 Q1022 A3021', 'OIKK 080800Z 21002KT CAVOK 13/M15 Q1023 A3023', 'OIKK 080730Z 00000KT CAVOK 13/M15 Q1024 A3025', 'OIKK 080700Z 00000KT CAVOK 11/M16 Q1025 A3027', 'OIKK 080630Z 00000KT CAVOK 08/M16 Q1025 A3028', 'OIKK 080600Z 00000KT CAVOK 08/M16 Q1025 A3028', 'OIKK 080530Z 10002KT CAVOK 07/M16 Q1025 A3027', 'OIKK 080500Z 00000KT CAVOK 02/M18 Q1025 A3027', 'OIKK 080400Z 13004KT CAVOK M02/M20 Q1024 A3026', 'OIKK 080300Z 14004KT CAVOK M06/M21 Q1023 A3023', 'OIKK 080200Z 12004KT CAVOK M04/M20 Q1022 A3021', 'OIKK 080100Z 10004KT CAVOK M03/M20 Q1022 A3019', 'OIKK 080000Z 14004KT CAVOK M01/M19 Q1022 A3019', 'OIKK 072300Z 16004KT CAVOK 01/M18 Q1021 A3017', 'OIKK 072200Z 23008KT CAVOK 03/M16 Q1021 A3018', 'OIKK 072100Z 21004KT CAVOK 04/M17 Q1021 A3017', 'OIKK 072000Z 28004KT CAVOK 02/M20 Q1021 A3018', 'OIKK 071900Z 11004KT CAVOK 04/M17 Q1022 A3018', 'OIKK 071800Z 15004KT CAVOK 05/M19 Q1021 A3016']","['2024-02-10 16:00:00', '2024-02-10 15:30:00', '2024-02-10 15:00:00', '2024-02-10 14:30:00', '2024-02-10 14:00:00', '2024-02-10 13:30:00', '2024-02-10 13:00:00', '2024-02-10 12:30:00', '2024-02-10 12:00:00', '2024-02-10 11:30:00', '2024-02-10 11:00:00', '2024-02-10 10:00:00', '2024-02-10 09:00:00', '2024-02-10 08:30:00', '2024-02-10 08:00:00', '2024-02-10 07:30:00', '2024-02-10 07:00:00', '2024-02-10 06:30:00', '2024-02-10 06:00:00', '2024-02-10 05:30:00', '2024-02-10 05:00:00', '2024-02-10 04:00:00', '2024-02-10 03:00:00', '2024-02-10 02:00:00', '2024-02-10 01:00:00', '2024-02-10 00:00:00', '2024-02-09 23:00:00', '2024-02-09 22:00:00', '2024-02-09 21:00:00', '2024-02-09 20:00:00', '2024-02-09 19:00:00', '2024-02-09 18:00:00', '2024-02-09 17:00:00', '2024-02-09 16:00:00', '2024-02-09 15:30:00', '2024-02-09 15:00:00', '2024-02-09 14:00:00', '2024-02-09 13:30:00', '2024-02-09 13:00:00', '2024-02-09 12:30:00', '2024-02-09 12:00:00', '2024-02-09 11:30:00', '2024-02-09 11:00:00', '2024-02-09 10:30:00', '2024-02-09 10:00:00', '2024-02-09 09:30:00', '2024-02-09 09:00:00', '2024-02-09 08:30:00', '2024-02-09 08:00:00', '2024-02-09 07:30:00', '2024-02-09 07:00:00', '2024-02-09 06:30:00', '2024-02-09 06:00:00', '2024-02-09 05:30:00', '2024-02-09 05:00:00', '2024-02-09 04:00:00', '2024-02-09 03:00:00', '2024-02-09 02:00:00', '2024-02-09 01:00:00', '2024-02-09 00:00:00', '2024-02-08 23:00:00', '2024-02-08 22:00:00', '2024-02-08 21:00:00', '2024-02-08 20:00:00', '2024-02-08 19:00:00', '2024-02-08 18:00:00', '2024-02-08 17:00:00', '2024-02-08 16:30:00', '2024-02-08 16:00:00', '2024-02-08 15:00:00', '2024-02-08 14:00:00', '2024-02-08 13:30:00', '2024-02-08 13:00:00', '2024-02-08 12:30:00', '2024-02-08 12:00:00', '2024-02-08 11:30:00', '2024-02-08 11:00:00', '2024-02-08 10:00:00', '2024-02-08 08:30:00', '2024-02-08 08:00:00', '2024-02-08 07:30:00', '2024-02-08 07:00:00', '2024-02-08 06:30:00', '2024-02-08 06:00:00', '2024-02-08 05:30:00', '2024-02-08 05:00:00', '2024-02-08 04:00:00', '2024-02-08 03:00:00', '2024-02-08 02:00:00', '2024-02-08 01:00:00', '2024-02-08 00:00:00', '2024-02-07 23:00:00', '2024-02-07 22:00:00', '2024-02-07 21:00:00', '2024-02-07 20:00:00', '2024-02-07 19:00:00', '2024-02-07 18:00:00']"
Iran, Khark Island Airport (KHK/OIBQ) ,"['OIBQ 101500Z 00000KT 7000 NSC 18/14 Q1018', 'OIBQ 101400Z 00000KT 7000 NSC 20/15 Q1018', 'OIBQ 101300Z 28004KT CAVOK 21/14 Q1018', 'OIBQ 101200Z 32008KT CAVOK 20/13 Q1018', 'OIBQ 101100Z 00000KT CAVOK 20/10 Q1018', 'OIBQ 101000Z 07004KT CAVOK 20/13 Q1018', 'OIBQ 100900Z 00000KT CAVOK 20/12 Q1020', 'OIBQ 100800Z 00000KT CAVOK 19/12 Q1020', 'OIBQ 100700Z 00000KT 8000 NSC 19/13 Q1021', 'OIBQ 100600Z 10006KT 7000 NSC 18/14 Q1021', 'OIBQ 100500Z 11004KT 5000 BR NSC 17/16 Q1021', 'OIBQ 100400Z 00000KT 5000 BR NSC 12/11 Q1020', 'OIBQ 100300Z 00000KT 5000 BR NSC 11/10 Q1020', 'OIBQ 100200Z 00000KT CAVOK 12/11 Q1019', 'OIBQ 100100Z 00000KT CAVOK 11/10 Q1018', 'OIBQ 091600Z 30004KT CAVOK 18/11 Q1019', 'OIBQ 091500Z 29004KT CAVOK 18/10 Q1019', 'OIBQ 091400Z 30008KT CAVOK 19/11 Q1019', 'OIBQ 091300Z 31010KT CAVOK 20/12 Q1019', 'OIBQ 091200Z 31010KT CAVOK 20/10 Q1019', 'OIBQ 091100Z 32010KT CAVOK 19/11 Q1020', 'OIBQ 091000Z 32010KT CAVOK 20/10 Q1020', 'OIBQ 090900Z 33010KT CAVOK 20/11 Q1021', 'OIBQ 090800Z 33010KT CAVOK 20/11 Q1022', 'OIBQ 090700Z 34010KT CAVOK 20/10 Q1022', 'OIBQ 090600Z 35008KT CAVOK 19/11 Q1022', 'OIBQ 090500Z 34008KT CAVOK 19/11 Q1021', 'OIBQ 090400Z 34008KT CAVOK 18/11 Q1021', 'OIBQ 090300Z 33008KT CAVOK 18/10 Q1021', 'OIBQ 081500Z 31010KT CAVOK 18/11 Q1020', 'OIBQ 081400Z 30008KT CAVOK 19/10 Q1020', 'OIBQ 081300Z 30010KT CAVOK 19/10 Q1021', 'OIBQ 081200Z 31012KT CAVOK 19/11 Q1021', 'OIBQ 081100Z 31014KT CAVOK 19/12 Q1022', 'OIBQ 081000Z 32012KT CAVOK 19/12 Q1023', 'OIBQ 080900Z 32010KT CAVOK 19/12 Q1024', 'OIBQ 080800Z 32012KT CAVOK 18/12 Q1025', 'OIBQ 080700Z 32012KT CAVOK 19/12 Q1025', 'OIBQ 080600Z 33012KT CAVOK 18/10 Q1025', 'OIBQ 080500Z 32012KT CAVOK 18/10 Q1024', 'OIBQ 080400Z 32010KT CAVOK 17/11 Q1024', 'OIBQ 080300Z 34012KT CAVOK 17/10 Q1023']","['2024-02-10 15:00:00', '2024-02-10 14:00:00', '2024-02-10 13:00:00', '2024-02-10 12:00:00', '2024-02-10 11:00:00', '2024-02-10 10:00:00', '2024-02-10 09:00:00', '2024-02-10 08:00:00', '2024-02-10 07:00:00', '2024-02-10 06:00:00', '2024-02-10 05:00:00', '2024-02-10 04:00:00', '2024-02-10 03:00:00', '2024-02-10 02:00:00', '2024-02-10 01:00:00', '2024-02-09 16:00:00', '2024-02-09 15:00:00', '2024-02-09 14:00:00', '2024-02-09 13:00:00', '2024-02-09 12:00:00', '2024-02-09 11:00:00', '2024-02-09 10:00:00', '2024-02-09 09:00:00', '2024-02-09 08:00:00', '2024-02-09 07:00:00', '2024-02-09 06:00:00', '2024-02-09 05:00:00', '2024-02-09 04:00:00', '2024-02-09 03:00:00', '2024-02-08 15:00:00', '2024-02-08 14:00:00', '2024-02-08 13:00:00', '2024-02-08 12:00:00', '2024-02-08 11:00:00', '2024-02-08 10:00:00', '2024-02-08 09:00:00', '2024-02-08 08:00:00', '2024-02-08 07:00:00', '2024-02-08 06:00:00', '2024-02-08 05:00:00', '2024-02-08 04:00:00', '2024-02-08 03:00:00']"
Iran, Khoy Airport (KHY/OITK) ,"['OITK 101500Z 18004KT CAVOK 09/M03 Q1021 A3016', 'OITK 101400Z 17004KT CAVOK 13/M03 Q1021 A3016', 'OITK 101300Z 19004KT CAVOK 13/M03 Q1021 A3015', 'OITK 101200Z VRB02KT CAVOK 13/M03 Q1021 A3015', 'OITK 101100Z 19004KT CAVOK 13/M03 Q1021 A3016', 'OITK 101000Z VRB02KT CAVOK 13/M03 Q1021 A3016', 'OITK 100900Z 27004KT CAVOK 11/M03 Q1022 A3019', 'OITK 100800Z VRB02KT CAVOK 11/M03 Q1022 A3019', 'OITK 100700Z VRB02KT CAVOK 09/M03 Q1022 A3020', 'OITK 100600Z VRB02KT CAVOK 06/M03 Q1022 A3021', 'OITK 100500Z 16004KT CAVOK 02/M05 Q1022 A3019', 'OITK 100400Z 18006KT CAVOK 00/M06 Q1021 A3016', 'OITK 100300Z 16006KT CAVOK 01/M05 Q1020 A3014', 'OITK 091500Z 17004KT 9999 FEW040 SCT090 BKN170 09/M02 Q1019 A3010', 'OITK 091400Z 16006KT 9999 FEW040 SCT090 BKN170 11/M02 Q1019 A3009', 'OITK 091300Z 16008KT 9999 FEW040 SCT090 BKN170 12/M02 Q1018 A3009', 'OITK 091200Z 19006KT 9999 FEW040 SCT090 BKN170 13/M02 Q1018 A3008', 'OITK 091100Z 17004KT 9999 FEW040 SCT090 BKN170 13/M03 Q1018 A3009', 'OITK 091000Z 21006KT 9999 FEW040 SCT090 BKN170 12/M03 Q1019 A3010', 'OITK 090900Z 22006KT 9999 FEW040 SCT090 BKN170 12/M03 Q1020 A3012', 'OITK 090800Z 15004KT 9999 FEW040 SCT090 BKN170 10/M03 Q1020 A3014', 'OITK 090700Z 15004KT 9999 FEW040 SCT090 BKN170 12/M03 Q1020 A3013', 'OITK 090600Z 34002KT 9000 FEW040 SCT090 09/M03 Q1020 A3014', 'OITK 090500Z 18004KT 8000 FEW040 SCT090 06/M04 Q1020 A3013', 'OITK 090400Z 18006KT 8000 FEW040 SCT090 07/M05 Q1019 A3010', 'OITK 090300Z 24006KT 8000 FEW040 SCT090 07/M04 Q1018 A3008', 'OITK 081500Z 27014KT 9999 FEW040 BKN090 09/M02 Q1019 A3011', 'OITK 081400Z 27012KT 9999 FEW040 SCT090 11/M02 Q1019 A3011', 'OITK 081300Z 26016KT 9999 FEW040 SCT170 12/M03 Q1019 A3011', 'OITK 081200Z 20008KT 9999 FEW040 SCT170 13/M01 Q1019 A3011', 'OITK 081100Z 21008KT 9999 FEW040 SCT170 13/M02 Q1019 A3011', 'OITK 081000Z 23010KT 9999 FEW040 SCT170 13/M02 Q1020 A3013', 'OITK 080900Z 22006KT 9999 FEW040 SCT090 BKN170 13/M02 Q1021 A3016', 'OITK 080800Z 21010KT 9999 FEW040 SCT090 BKN170 12/M02 Q1021 A3018', 'OITK 080700Z 18004KT 9999 FEW040 SCT090 11/M02 Q1022 A3018', 'OITK 080600Z 18002KT 9999 FEW040 BKN170 07/M03 Q1022 A3019', 'OITK 080500Z 08002KT 9000 FEW040 BKN170 03/M04 Q1022 A3019', 'OITK 080400Z 24004KT 8000 FEW040 SCT170 04/M04 Q1021 A3017', 'OITK 080300Z 10002KT 8000 FEW040 03/M05 Q1021 A3016']","['2024-02-10 15:00:00', '2024-02-10 14:00:00', '2024-02-10 13:00:00', '2024-02-10 12:00:00', '2024-02-10 11:00:00', '2024-02-10 10:00:00', '2024-02-10 09:00:00', '2024-02-10 08:00:00', '2024-02-10 07:00:00', '2024-02-10 06:00:00', '2024-02-10 05:00:00', '2024-02-10 04:00:00', '2024-02-10 03:00:00', '2024-02-09 15:00:00', '2024-02-09 14:00:00', '2024-02-09 13:00:00', '2024-02-09 12:00:00', '2024-02-09 11:00:00', '2024-02-09 10:00:00', '2024-02-09 09:00:00', '2024-02-09 08:00:00', '2024-02-09 07:00:00', '2024-02-09 06:00:00', '2024-02-09 05:00:00', '2024-02-09 04:00:00', '2024-02-09 03:00:00', '2024-02-08 15:00:00', '2024-02-08 14:00:00', '2024-02-08 13:00:00', '2024-02-08 12:00:00', '2024-02-08 11:00:00', '2024-02-08 10:00:00', '2024-02-08 09:00:00', '2024-02-08 08:00:00', '2024-02-08 07:00:00', '2024-02-08 06:00:00', '2024-02-08 05:00:00', '2024-02-08 04:00:00', '2024-02-08 03:00:00']"
Iran, Kish International Airport (KIH/OIBK) ,"['OIBK 101600Z 04004KT 7000 NSC 20/12 Q1018', 'OIBK 101500Z 17004KT 8000 NSC 21/12 Q1018', 'OIBK 101400Z 19006KT 8000 NSC 22/12 Q1017', 'OIBK 101300Z 17010KT 8000 NSC 23/13 Q1017', 'OIBK 101200Z 15008KT 8000 NSC 22/13 Q1017', 'OIBK 101100Z 14006KT 8000 NSC 23/12 Q1018', 'OIBK 101000Z 15010KT 8000 NSC 23/12 Q1018', 'OIBK 100900Z 15006KT CAVOK 24/13 Q1019', 'OIBK 100800Z 13004KT CAVOK 23/13 Q1020', 'OIBK 100700Z 12004KT CAVOK 23/13 Q1020', 'OIBK 100600Z 13006KT CAVOK 22/14 Q1021', 'OIBK 100500Z 00000KT CAVOK 22/13 Q1020', 'OIBK 100400Z 00000KT CAVOK 18/12 Q1020', 'OIBK 100300Z 00000KT CAVOK 17/11 Q1019', 'OIBK 100200Z 00000KT CAVOK 16/11 Q1018', 'OIBK 100100Z 00000KT CAVOK 16/11 Q1018', 'OIBK 100000Z 00000KT CAVOK 17/11 Q1018', 'OIBK 092300Z 00000KT CAVOK 17/10 Q1018', 'OIBK 092200Z 00000KT CAVOK 17/10 Q1019', 'OIBK 092100Z 00000KT CAVOK 17/10 Q1019', 'OIBK 092000Z 34004KT CAVOK 17/10 Q1019', 'OIBK 091900Z 00000KT CAVOK 18/10 Q1019', 'OIBK 091800Z 00000KT CAVOK 18/10 Q1019', 'OIBK 091700Z 00000KT CAVOK 18/10 Q1019', 'OIBK 091600Z 26004KT CAVOK 19/10 Q1019', 'OIBK 091500Z 24006KT CAVOK 20/10 Q1018', 'OIBK 091400Z 25008KT CAVOK 21/10 Q1018', 'OIBK 091300Z 24008KT CAVOK 22/10 Q1018', 'OIBK 091200Z 24008KT CAVOK 23/11 Q1018', 'OIBK 091100Z 26006KT CAVOK 23/11 Q1018', 'OIBK 091000Z 28010KT 9999 FEW030 23/12 Q1018', 'OIBK 090900Z 28010KT 9999 FEW030 22/12 Q1019', 'OIBK 090830Z 26008KT 9999 FEW030 23/12 Q1020', 'OIBK 090800Z 33006KT 9999 FEW030 23/12 Q1020', 'OIBK 090730Z 31006KT 9999 FEW025 23/12 Q1020', 'OIBK 090700Z 26010KT 9999 FEW025 22/12 Q1021', 'OIBK 090630Z 32006KT 9999 FEW025 22/13 Q1021', 'OIBK 090600Z 26008KT CAVOK 22/12 Q1021', 'OIBK 090530Z 30008KT CAVOK 21/13 Q1020', 'OIBK 090500Z 31006KT CAVOK 21/13 Q1020', 'OIBK 090430Z 30004KT CAVOK 20/13 Q1020', 'OIBK 090400Z 30004KT CAVOK 18/13 Q1019', 'OIBK 090300Z 29004KT CAVOK 17/12 Q1019', 'OIBK 090200Z 30004KT CAVOK 17/12 Q1018', 'OIBK 090100Z 31006KT CAVOK 18/12 Q1018', 'OIBK 090000Z 30006KT CAVOK 18/11 Q1018', 'OIBK 082300Z 30006KT CAVOK 19/11 Q1018', 'OIBK 082200Z 32006KT CAVOK 19/10 Q1019', 'OIBK 082100Z 31006KT CAVOK 18/11 Q1019', 'OIBK 082000Z 30004KT CAVOK 19/10 Q1019', 'OIBK 081900Z 29004KT CAVOK 19/10 Q1019', 'OIBK 081800Z 30006KT CAVOK 20/10 Q1020', 'OIBK 081700Z 29006KT CAVOK 20/10 Q1020', 'OIBK 081600Z 29006KT CAVOK 20/10 Q1019', 'OIBK 081500Z 30006KT CAVOK 20/10 Q1019', 'OIBK 081400Z 28008KT CAVOK 22/10 Q1018', 'OIBK 081300Z 24010KT CAVOK 23/10 Q1018', 'OIBK 081200Z 27008KT CAVOK 23/09 Q1019', 'OIBK 081100Z 26008KT CAVOK 24/08 Q1019', 'OIBK 081000Z 27008KT CAVOK 23/10 Q1020', 'OIBK 080900Z 29008KT CAVOK 23/11 Q1021', 'OIBK 080800Z 30006KT CAVOK 23/08 Q1022', 'OIBK 080700Z 29008KT CAVOK 22/10 Q1023', 'OIBK 080600Z 30010KT CAVOK 21/12 Q1023', 'OIBK 080500Z 33006KT CAVOK 20/12 Q1022', 'OIBK 080400Z 31004KT CAVOK 17/12 Q1022', 'OIBK 080300Z 32004KT CAVOK 17/11 Q1021', 'OIBK 080200Z 31008KT CAVOK 18/12 Q1020', 'OIBK 080100Z 30006KT CAVOK 18/12 Q1020', 'OIBK 080000Z 31008KT CAVOK 18/12 Q1020', 'OIBK 072300Z 31008KT CAVOK 19/12 Q1020', 'OIBK 072200Z 31008KT CAVOK 19/12 Q1020', 'OIBK 072100Z 32008KT CAVOK 19/12 Q1020', 'OIBK 072000Z 32008KT CAVOK 19/12 Q1020', 'OIBK 071900Z 31008KT CAVOK 19/11 Q1020', 'OIBK 071800Z 32008KT CAVOK 20/11 Q1020']","['2024-02-10 16:00:00', '2024-02-10 15:00:00', '2024-02-10 14:00:00', '2024-02-10 13:00:00', '2024-02-10 12:00:00', '2024-02-10 11:00:00', '2024-02-10 10:00:00', '2024-02-10 09:00:00', '2024-02-10 08:00:00', '2024-02-10 07:00:00', '2024-02-10 06:00:00', '2024-02-10 05:00:00', '2024-02-10 04:00:00', '2024-02-10 03:00:00', '2024-02-10 02:00:00', '2024-02-10 01:00:00', '2024-02-10 00:00:00', '2024-02-09 23:00:00', '2024-02-09 22:00:00', '2024-02-09 21:00:00', '2024-02-09 20:00:00', '2024-02-09 19:00:00', '2024-02-09 18:00:00', '2024-02-09 17:00:00', '2024-02-09 16:00:00', '2024-02-09 15:00:00', '2024-02-09 14:00:00', '2024-02-09 13:00:00', '2024-02-09 12:00:00', '2024-02-09 11:00:00', '2024-02-09 10:00:00', '2024-02-09 09:00:00', '2024-02-09 08:30:00', '2024-02-09 08:00:00', '2024-02-09 07:30:00', '2024-02-09 07:00:00', '2024-02-09 06:30:00', '2024-02-09 06:00:00', '2024-02-09 05:30:00', '2024-02-09 05:00:00', '2024-02-09 04:30:00', '2024-02-09 04:00:00', '2024-02-09 03:00:00', '2024-02-09 02:00:00', '2024-02-09 01:00:00', '2024-02-09 00:00:00', '2024-02-08 23:00:00', '2024-02-08 22:00:00', '2024-02-08 21:00:00', '2024-02-08 20:00:00', '2024-02-08 19:00:00', '2024-02-08 18:00:00', '2024-02-08 17:00:00', '2024-02-08 16:00:00', '2024-02-08 15:00:00', '2024-02-08 14:00:00', '2024-02-08 13:00:00', '2024-02-08 12:00:00', '2024-02-08 11:00:00', '2024-02-08 10:00:00', '2024-02-08 09:00:00', '2024-02-08 08:00:00', '2024-02-08 07:00:00', '2024-02-08 06:00:00', '2024-02-08 05:00:00', '2024-02-08 04:00:00', '2024-02-08 03:00:00', '2024-02-08 02:00:00', '2024-02-08 01:00:00', '2024-02-08 00:00:00', '2024-02-07 23:00:00', '2024-02-07 22:00:00', '2024-02-07 21:00:00', '2024-02-07 20:00:00', '2024-02-07 19:00:00', '2024-02-07 18:00:00']"
Iran, Lamerd Airport (LFM/OISR) ,"['OISR 101500Z 28006KT CAVOK 20/09 Q1019 A3010 NOSIG', 'OISR 101400Z 20008KT CAVOK 21/09 Q1018 A3008 NOSIG', 'OISR 101300Z 15004KT CAVOK 23/07 Q1018 A3007 NOSIG', 'OISR 101200Z 09006KT CAVOK 25/03 Q1018 A3007 NOSIG', 'OISR 101100Z 12004KT CAVOK 24/06 Q1018 A3008 NOSIG', 'OISR 101000Z 00000KT CAVOK 24/06 Q1019 A3012', 'OISR 100900Z 00000KT CAVOK 23/08 Q1021 A3015 NOSIG', 'OISR 100800Z 00000KT CAVOK 20/08 Q1022 A3018 NOSIG', 'OISR 100700Z 26004KT CAVOK 18/09 Q1022 A3019 NOSIG', 'OISR 100600Z 30006KT CAVOK 15/08 Q1023 A3021 NOSIG', 'OISR 100500Z 26004KT CAVOK 12/08 Q1022 A3020 NOSIG', 'OISR 100400Z 25006KT CAVOK 08/06 Q1021 A3017 NOSIG', 'OISR 100330Z 27006KT CAVOK 08/06 Q1021 A3016', 'OISR 100300Z 28004KT CAVOK 08/06 Q1021 A3015', 'OISR 100230Z 30004KT CAVOK 08/06 Q1020 A3013', 'OISR 091500Z 00000KT CAVOK 19/08 Q1019 A3009 NOSIG', 'OISR 091400Z 00000KT CAVOK 22/07 Q1018 A3008 NOSIG', 'OISR 091300Z 23004KT CAVOK 23/07 Q1018 A3008 NOSIG', 'OISR 091200Z 00000KT CAVOK 23/08 Q1018 A3009 NOSIG', 'OISR 091100Z 07004KT CAVOK 23/08 Q1019 A3010 NOSIG', 'OISR 091000Z 00000KT CAVOK 25/08 Q1019 A3012 NOSIG', 'OISR 090900Z 00000KT CAVOK 22/07 Q1021 A3015 NOSIG', 'OISR 090800Z 00000KT CAVOK 20/08 Q1022 A3018 NOSIG', 'OISR 090700Z 27006KT CAVOK 18/08 Q1022 A3020 NOSIG', 'OISR 090600Z 30004KT CAVOK 14/08 Q1022 A3021 NOSIG', 'OISR 090500Z 00000KT CAVOK 11/08 Q1022 A3019 NOSIG', 'OISR 090400Z 00000KT CAVOK 08/06 Q1021 A3017 NOSIG', 'OISR 090300Z 28004KT CAVOK 08/06 Q1021 A3015', 'OISR 081500Z 28008KT CAVOK 18/08 Q1020 A3013 NOSIG', 'OISR 081400Z 00000KT CAVOK 21/06 Q1020 A3012 NOSIG', 'OISR 081300Z 26004KT CAVOK 22/07 Q1019 A3012 NOSIG', 'OISR 081200Z 26004KT CAVOK 22/05 Q1020 A3012 NOSIG', 'OISR 081100Z 25004KT CAVOK 23/06 Q1020 A3014 NOSIG', 'OISR 081000Z 00000KT CAVOK 23/06 Q1022 A3019 NOSIG', 'OISR 080900Z 00000KT CAVOK 19/06 Q1022 A3020 NOSIG', 'OISR 080800Z 25004KT CAVOK 18/06 Q1023 A3023 NOSIG', 'OISR 080700Z 28008KT CAVOK 16/06 Q1024 A3026 NOSIG', 'OISR 080600Z 28004KT CAVOK 14/07 Q1024 A3026 NOSIG', 'OISR 080500Z 28004KT CAVOK 10/05 Q1024 A3025 NOSIG', 'OISR 080400Z 27004KT CAVOK 07/04 Q1023 A3024 NOSIG', 'OISR 080300Z 00000KT CAVOK 06/03 Q1023 A3021']","['2024-02-10 15:00:00', '2024-02-10 14:00:00', '2024-02-10 13:00:00', '2024-02-10 12:00:00', '2024-02-10 11:00:00', '2024-02-10 10:00:00', '2024-02-10 09:00:00', '2024-02-10 08:00:00', '2024-02-10 07:00:00', '2024-02-10 06:00:00', '2024-02-10 05:00:00', '2024-02-10 04:00:00', '2024-02-10 03:30:00', '2024-02-10 03:00:00', '2024-02-10 02:30:00', '2024-02-09 15:00:00', '2024-02-09 14:00:00', '2024-02-09 13:00:00', '2024-02-09 12:00:00', '2024-02-09 11:00:00', '2024-02-09 10:00:00', '2024-02-09 09:00:00', '2024-02-09 08:00:00', '2024-02-09 07:00:00', '2024-02-09 06:00:00', '2024-02-09 05:00:00', '2024-02-09 04:00:00', '2024-02-09 03:00:00', '2024-02-08 15:00:00', '2024-02-08 14:00:00', '2024-02-08 13:00:00', '2024-02-08 12:00:00', '2024-02-08 11:00:00', '2024-02-08 10:00:00', '2024-02-08 09:00:00', '2024-02-08 08:00:00', '2024-02-08 07:00:00', '2024-02-08 06:00:00', '2024-02-08 05:00:00', '2024-02-08 04:00:00', '2024-02-08 03:00:00']"
Iran, Lar Airport (LRR/OISL) ,"['OISL 101600Z 08006KT CAVOK 17/02 Q1019 A3009', 'OISL 101500Z 08006KT CAVOK 18/01 Q1018 A3007 NOSIG', 'OISL 101400Z 07010KT CAVOK 20/M02 Q1017 A3006 NOSIG', 'OISL 101300Z 06010KT CAVOK 21/M02 Q1017 A3004 NOSIG', 'OISL 101200Z 10006KT CAVOK 22/M00 Q1017 A3005 NOSIG', 'OISL 101100Z 04004KT CAVOK 22/00 Q1018 A3008 NOSIG', 'OISL 101000Z 09004KT CAVOK 21/00 Q1019 A3009 NOSIG', 'OISL 100930Z 15004KT CAVOK 20/M00 Q1019 A3010', 'OISL 100900Z 11004KT CAVOK 20/M02 Q1020 A3013 NOSIG', 'OISL 100830Z 12006KT CAVOK 20/00 Q1020 A3014', 'OISL 100800Z 13004KT CAVOK 20/00 Q1021 A3015 NOSIG', 'OISL 100730Z 09004KT CAVOK 18/M00 Q1021 A3015', 'OISL 100700Z 00000KT CAVOK 17/M00 Q1021 A3016 NOSIG', 'OISL 100630Z 00000KT CAVOK 16/M01 Q1021 A3018', 'OISL 100600Z 00000KT CAVOK 12/M01 Q1021 A3017 NOSIG', 'OISL 100500Z 31004KT CAVOK 07/M02 Q1021 A3017 NOSIG', 'OISL 100400Z 00000KT CAVOK 04/M05 Q1020 A3015 NOSIG', 'OISL 100300Z 00000KT CAVOK 03/M05 Q1020 A3012', 'OISL 100200Z 00000KT CAVOK 05/M03 Q1019 A3011', 'OISL 100100Z 00000KT CAVOK 05/M03 Q1019 A3010', 'OISL 100000Z 00000KT CAVOK 05/M04 Q1019 A3010', 'OISL 092100Z 26004KT CAVOK 09/M04 Q1019 A3011', 'OISL 092000Z 00000KT CAVOK 10/M02 Q1019 A3011', 'OISL 091900Z 23004KT CAVOK 10/M01 Q1019 A3011', 'OISL 091800Z 00000KT CAVOK 12/M00 Q1019 A3010', 'OISL 091700Z 00000KT CAVOK 14/00 Q1018 A3009', 'OISL 091600Z 23004KT CAVOK 15/00 Q1018 A3007', 'OISL 091500Z 00000KT CAVOK 17/01 Q1017 A3005 NOSIG', 'OISL 091400Z 00000KT CAVOK 20/M03 Q1017 A3004 NOSIG', 'OISL 091300Z 00000KT CAVOK 22/M03 Q1017 A3004 NOSIG', 'OISL 091200Z 00000KT CAVOK 21/M02 Q1017 A3004 NOSIG', 'OISL 091100Z 00000KT CAVOK 21/M02 Q1017 A3006 NOSIG', 'OISL 091000Z 00000KT CAVOK 20/M01 Q1018 A3008 NOSIG', 'OISL 090900Z 00000KT CAVOK 19/M01 Q1019 A3011 NOSIG', 'OISL 090830Z 00000KT CAVOK 19/01 Q1020 A3012', 'OISL 090800Z 00000KT CAVOK 18/01 Q1020 A3014 NOSIG', 'OISL 090730Z 00000KT CAVOK 17/01 Q1021 A3015', 'OISL 090700Z 00000KT CAVOK 16/00 Q1021 A3016 NOSIG', 'OISL 090630Z 00000KT CAVOK 15/00 Q1021 A3017', 'OISL 090600Z 00000KT CAVOK 13/M00 Q1021 A3017 NOSIG', 'OISL 090530Z 00000KT CAVOK 11/M01 Q1021 A3016', 'OISL 090500Z 00000KT CAVOK 09/M01 Q1021 A3015 NOSIG', 'OISL 090400Z 00000KT CAVOK 04/M02 Q1020 A3014 NOSIG', 'OISL 090300Z 26004KT CAVOK 04/M03 Q1020 A3012', 'OISL 090200Z 30004KT CAVOK 05/M02 Q1019 A3011', 'OISL 090100Z 26004KT CAVOK 05/M03 Q1019 A3009', 'OISL 090000Z 23004KT CAVOK 07/M03 Q1019 A3010', 'OISL 082100Z 23004KT CAVOK 08/M02 Q1019 A3011', 'OISL 082000Z 23004KT CAVOK 08/M02 Q1019 A3011', 'OISL 081900Z 00000KT CAVOK 09/M02 Q1020 A3012', 'OISL 081800Z 00000KT CAVOK 11/M03 Q1020 A3012', 'OISL 081700Z 23004KT CAVOK 13/M02 Q1019 A3011', 'OISL 081600Z 26006KT CAVOK 15/M03 Q1019 A3010', 'OISL 081500Z 26006KT CAVOK 16/M03 Q1018 A3009 NOSIG', 'OISL 081400Z 23004KT CAVOK 19/M05 Q1018 A3007 NOSIG', 'OISL 081300Z 25008KT CAVOK 20/M04 Q1018 A3007 NOSIG', 'OISL 081200Z 02006KT CAVOK 20/M05 Q1018 A3008 NOSIG', 'OISL 081100Z 26006KT CAVOK 20/M01 Q1019 A3010 NOSIG', 'OISL 081000Z 34008KT CAVOK 19/M00 Q1020 A3012 NOSIG', 'OISL 080930Z 27006KT CAVOK 19/00 Q1020 A3014', 'OISL 080900Z 29004KT CAVOK 19/M00 Q1021 A3016 NOSIG', 'OISL 080830Z 12004KT CAVOK 19/M01 Q1021 A3018', 'OISL 080800Z 14004KT CAVOK 18/M02 Q1022 A3019 NOSIG', 'OISL 080730Z 00000KT CAVOK 17/M01 Q1022 A3021', 'OISL 080700Z 02004KT CAVOK 15/M01 Q1023 A3022 NOSIG', 'OISL 080630Z 00000KT CAVOK 14/M01 Q1023 A3022', 'OISL 080600Z 00000KT CAVOK 11/M01 Q1023 A3022 NOSIG', 'OISL 080500Z 24004KT CAVOK 08/M02 Q1023 A3022 NOSIG', 'OISL 080400Z 00000KT CAVOK 03/M05 Q1022 A3019 NOSIG', 'OISL 080300Z 00000KT CAVOK 03/M05 Q1021 A3018', 'OISL 080200Z 24004KT CAVOK 04/M05 Q1021 A3015', 'OISL 080100Z 25004KT CAVOK 04/M06 Q1020 A3015', 'OISL 080000Z 00000KT CAVOK 06/M04 Q1021 A3015', 'OISL 072100Z 00000KT CAVOK 08/M04 Q1020 A3015', 'OISL 072000Z 27004KT CAVOK 09/M03 Q1020 A3015', 'OISL 071900Z 00000KT CAVOK 10/M03 Q1020 A3015', 'OISL 071800Z 23004KT CAVOK 11/M02 Q1020 A3014']","['2024-02-10 16:00:00', '2024-02-10 15:00:00', '2024-02-10 14:00:00', '2024-02-10 13:00:00', '2024-02-10 12:00:00', '2024-02-10 11:00:00', '2024-02-10 10:00:00', '2024-02-10 09:30:00', '2024-02-10 09:00:00', '2024-02-10 08:30:00', '2024-02-10 08:00:00', '2024-02-10 07:30:00', '2024-02-10 07:00:00', '2024-02-10 06:30:00', '2024-02-10 06:00:00', '2024-02-10 05:00:00', '2024-02-10 04:00:00', '2024-02-10 03:00:00', '2024-02-10 02:00:00', '2024-02-10 01:00:00', '2024-02-10 00:00:00', '2024-02-09 21:00:00', '2024-02-09 20:00:00', '2024-02-09 19:00:00', '2024-02-09 18:00:00', '2024-02-09 17:00:00', '2024-02-09 16:00:00', '2024-02-09 15:00:00', '2024-02-09 14:00:00', '2024-02-09 13:00:00', '2024-02-09 12:00:00', '2024-02-09 11:00:00', '2024-02-09 10:00:00', '2024-02-09 09:00:00', '2024-02-09 08:30:00', '2024-02-09 08:00:00', '2024-02-09 07:30:00', '2024-02-09 07:00:00', '2024-02-09 06:30:00', '2024-02-09 06:00:00', '2024-02-09 05:30:00', '2024-02-09 05:00:00', '2024-02-09 04:00:00', '2024-02-09 03:00:00', '2024-02-09 02:00:00', '2024-02-09 01:00:00', '2024-02-09 00:00:00', '2024-02-08 21:00:00', '2024-02-08 20:00:00', '2024-02-08 19:00:00', '2024-02-08 18:00:00', '2024-02-08 17:00:00', '2024-02-08 16:00:00', '2024-02-08 15:00:00', '2024-02-08 14:00:00', '2024-02-08 13:00:00', '2024-02-08 12:00:00', '2024-02-08 11:00:00', '2024-02-08 10:00:00', '2024-02-08 09:30:00', '2024-02-08 09:00:00', '2024-02-08 08:30:00', '2024-02-08 08:00:00', '2024-02-08 07:30:00', '2024-02-08 07:00:00', '2024-02-08 06:30:00', '2024-02-08 06:00:00', '2024-02-08 05:00:00', '2024-02-08 04:00:00', '2024-02-08 03:00:00', '2024-02-08 02:00:00', '2024-02-08 01:00:00', '2024-02-08 00:00:00', '2024-02-07 21:00:00', '2024-02-07 20:00:00', '2024-02-07 19:00:00', '2024-02-07 18:00:00']"
Iran, Lavan Island Airport (LVP/OIBV) ,"['OIBV 101500Z 00000KT 5000 HZ NSC 21/14 Q1018', 'OIBV 101400Z 23004KT 5000 HZ NSC 22/13 Q1018', 'OIBV 101300Z 16006KT 4000 HZ NSC 23/12 Q1017', 'OIBV 101200Z 22008KT 4000 HZ NSC 23/12 Q1017', 'OIBV 101100Z 20008KT 4000 HZ NSC 24/10 Q1017', 'OIBV 101000Z 14008KT 5000 HZ NSC 24/11 Q1017', 'OIBV 100900Z 05004KT 5000 HZ NSC 23/12 Q1019', 'OIBV 100800Z 05004KT 5000 HZ NSC 23/13 Q1019', 'OIBV 100700Z 00000KT 5000 HZ NSC 23/12 Q1020', 'OIBV 100600Z 04004KT 6000 NSC 21/13 Q1020', 'OIBV 100500Z 02004KT 7000 NSC 19/12 Q1019', 'OIBV 100400Z 05004KT 7000 NSC 17/13 Q1019', 'OIBV 100300Z 03004KT 7000 NSC 17/13 Q1018', 'OIBV 091500Z 00000KT CAVOK 20/11 Q1018', 'OIBV 091400Z 24004KT CAVOK 21/11 Q1017', 'OIBV 091300Z 21006KT CAVOK 22/11 Q1017', 'OIBV 091200Z 22008KT CAVOK 23/12 Q1017', 'OIBV 091100Z 29012KT CAVOK 23/12 Q1018', 'OIBV 091000Z 29012KT CAVOK 23/12 Q1018', 'OIBV 090900Z 35008KT CAVOK 23/12 Q1019', 'OIBV 090800Z 01006KT CAVOK 23/12 Q1020', 'OIBV 090700Z 02006KT CAVOK 22/12 Q1020', 'OIBV 090600Z 29004KT CAVOK 21/12 Q1020', 'OIBV 090500Z 33006KT CAVOK 21/12 Q1020', 'OIBV 090400Z 33006KT CAVOK 18/12 Q1019', 'OIBV 090300Z 33006KT CAVOK 18/12 Q1018', 'OIBV 081500Z 29010KT CAVOK 20/10 Q1019', 'OIBV 081400Z 30008KT CAVOK 21/12 Q1018', 'OIBV 081300Z 30018KT CAVOK 22/11 Q1018', 'OIBV 081200Z 29016KT CAVOK 23/11 Q1018', 'OIBV 081100Z 30010KT 8000 NSC 23/11 Q1019', 'OIBV 081000Z 33010KT 8000 NSC 23/10 Q1019', 'OIBV 080900Z 34008KT CAVOK 23/10 Q1020', 'OIBV 080800Z 29004KT CAVOK 22/11 Q1021', 'OIBV 080700Z 35004KT CAVOK 22/08 Q1022', 'OIBV 080600Z 01010KT CAVOK 21/07 Q1022', 'OIBV 080500Z 02006KT CAVOK 20/12 Q1022', 'OIBV 080400Z 00000KT 9999 FEW025 18/11 Q1021', 'OIBV 080300Z 00000KT CAVOK 17/11 Q1020', 'OIBV 080200Z 31006KT CAVOK 18/12 Q1019', 'OIBV 080100Z 33008KT CAVOK 19/12 Q1019']","['2024-02-10 15:00:00', '2024-02-10 14:00:00', '2024-02-10 13:00:00', '2024-02-10 12:00:00', '2024-02-10 11:00:00', '2024-02-10 10:00:00', '2024-02-10 09:00:00', '2024-02-10 08:00:00', '2024-02-10 07:00:00', '2024-02-10 06:00:00', '2024-02-10 05:00:00', '2024-02-10 04:00:00', '2024-02-10 03:00:00', '2024-02-09 15:00:00', '2024-02-09 14:00:00', '2024-02-09 13:00:00', '2024-02-09 12:00:00', '2024-02-09 11:00:00', '2024-02-09 10:00:00', '2024-02-09 09:00:00', '2024-02-09 08:00:00', '2024-02-09 07:00:00', '2024-02-09 06:00:00', '2024-02-09 05:00:00', '2024-02-09 04:00:00', '2024-02-09 03:00:00', '2024-02-08 15:00:00', '2024-02-08 14:00:00', '2024-02-08 13:00:00', '2024-02-08 12:00:00', '2024-02-08 11:00:00', '2024-02-08 10:00:00', '2024-02-08 09:00:00', '2024-02-08 08:00:00', '2024-02-08 07:00:00', '2024-02-08 06:00:00', '2024-02-08 05:00:00', '2024-02-08 04:00:00', '2024-02-08 03:00:00', '2024-02-08 02:00:00', '2024-02-08 01:00:00']"
Iran, Mahshahr Airport (MRX/OIAM) ,"['OIAM 101600Z 21006KT 9999 SCT040 19/10 Q1018', 'OIAM 101500Z 22006KT 9999 SCT040 20/10 Q1018', 'OIAM 101400Z 21008KT 9999 SCT040 22/08 Q1017', 'OIAM 101330Z 24006KT 9999 SCT040 23/04 Q1017', 'OIAM 101300Z 22006KT 9999 SCT040 23/04 Q1017', 'OIAM 101200Z 19006KT CAVOK 24/03 Q1018', 'OIAM 101100Z 13006KT CAVOK 23/08 Q1018', 'OIAM 101000Z 23006KT CAVOK 24/06 Q1018', 'OIAM 100930Z 13004KT CAVOK 24/05 Q1019', 'OIAM 100900Z 16006KT CAVOK 23/06 Q1019', 'OIAM 100830Z 13006KT CAVOK 22/06 Q1020', 'OIAM 100800Z 12004KT CAVOK 21/07 Q1020', 'OIAM 100700Z 00000KT 6000 NSC 20/08 Q1021', 'OIAM 100600Z 00000KT 6000 NSC 16/06 Q1021', 'OIAM 100500Z 10006KT 6000 NSC 13/05 Q1020', 'OIAM 100400Z 09006KT 4000 HZ NSC 12/08 Q1019', 'OIAM 100300Z 00000KT 6000 NSC 10/08 Q1019', 'OIAM 100200Z 00000KT CAVOK 11/05 Q1019', 'OIAM 100100Z 00000KT CAVOK 11/06 Q1018', 'OIAM 100000Z 00000KT CAVOK 12/06 Q1018', 'OIAM 092300Z 00000KT CAVOK 13/07 Q1019', 'OIAM 092200Z 00000KT CAVOK 13/07 Q1019', 'OIAM 092100Z 00000KT CAVOK 13/07 Q1019', 'OIAM 092000Z 00000KT CAVOK 15/08 Q1019', 'OIAM 091900Z 00000KT CAVOK 15/08 Q1019', 'OIAM 091800Z 00000KT CAVOK 15/08 Q1019', 'OIAM 091700Z 00000KT CAVOK 17/09 Q1019', 'OIAM 091600Z 00000KT CAVOK 18/08 Q1019', 'OIAM 091530Z 00000KT CAVOK 20/06 Q1019', 'OIAM 091500Z 00000KT CAVOK 20/06 Q1018', 'OIAM 091430Z 36006KT CAVOK 21/05 Q1018', 'OIAM 091400Z 36006KT CAVOK 22/03 Q1018', 'OIAM 091330Z 32006KT CAVOK 23/03 Q1018', 'OIAM 091300Z 32006KT CAVOK 23/02 Q1018', 'OIAM 091200Z 32006KT CAVOK 23/04 Q1019', 'OIAM 091100Z 34008KT CAVOK 23/05 Q1019', 'OIAM 091000Z 33008KT CAVOK 22/06 Q1020', 'OIAM 090900Z 31004KT CAVOK 21/10 Q1021', 'OIAM 090800Z 00000KT CAVOK 20/09 Q1022', 'OIAM 090700Z 33006KT CAVOK 17/09 Q1022', 'OIAM 090600Z 31006KT CAVOK 15/08 Q1022', 'OIAM 090500Z 31004KT CAVOK 13/07 Q1021', 'OIAM 090400Z 00000KT 7000 NSC 10/08 Q1021', 'OIAM 090300Z 00000KT 7000 NSC 10/06 Q1020', 'OIAM 090200Z 32004KT CAVOK 10/06 Q1020', 'OIAM 090100Z 00000KT CAVOK 10/06 Q1020', 'OIAM 090000Z 00000KT CAVOK 10/06 Q1021', 'OIAM 082200Z 00000KT CAVOK 11/07 Q1021', 'OIAM 082100Z 00000KT CAVOK 12/06 Q1021', 'OIAM 082000Z 33004KT CAVOK 12/06 Q1021', 'OIAM 081900Z 00000KT CAVOK 14/07 Q1021', 'OIAM 081800Z 00000KT CAVOK 15/06 Q1021', 'OIAM 081700Z 33008KT CAVOK 16/05 Q1021', 'OIAM 081600Z 33008KT CAVOK 18/06 Q1021', 'OIAM 081500Z 31006KT CAVOK 20/05 Q1020', 'OIAM 081430Z 33006KT CAVOK 20/05 Q1020', 'OIAM 081400Z 34008KT CAVOK 22/04 Q1020', 'OIAM 081330Z 32008KT CAVOK 22/04 Q1021', 'OIAM 081300Z 31012KT CAVOK 22/04 Q1021', 'OIAM 081200Z 33010KT CAVOK 22/05 Q1021', 'OIAM 081100Z 33010KT CAVOK 21/05 Q1022', 'OIAM 081030Z 35008KT CAVOK 21/06 Q1023', 'OIAM 081000Z 32008KT CAVOK 21/06 Q1023', 'OIAM 080930Z 30008KT CAVOK 19/07 Q1024', 'OIAM 080900Z 34008KT CAVOK 19/07 Q1024', 'OIAM 080800Z 31006KT CAVOK 17/07 Q1024', 'OIAM 080700Z 30006KT CAVOK 15/07 Q1025', 'OIAM 080600Z 33010KT CAVOK 13/07 Q1025', 'OIAM 080500Z 31006KT 8000 NSC 12/07 Q1024', 'OIAM 080400Z 31006KT 7000 NSC 10/05 Q1023', 'OIAM 080300Z 30004KT 7000 NSC 09/05 Q1023', 'OIAM 080200Z 00000KT 7000 NSC 09/05 Q1022', 'OIAM 080100Z 30006KT CAVOK 10/04 Q1022', 'OIAM 080000Z 00000KT CAVOK 10/03 Q1022', 'OIAM 072300Z 33008KT CAVOK 11/06 Q1022 A3021', 'OIAM 072200Z 31010KT CAVOK 12/06 Q1022', 'OIAM 072100Z 33010KT CAVOK 13/06 Q1022', 'OIAM 072000Z 30010KT CAVOK 14/06 Q1022', 'OIAM 071900Z 00000KT CAVOK 13/07 Q1022', 'OIAM 071800Z 00000KT CAVOK 14/07 Q1022']","['2024-02-10 16:00:00', '2024-02-10 15:00:00', '2024-02-10 14:00:00', '2024-02-10 13:30:00', '2024-02-10 13:00:00', '2024-02-10 12:00:00', '2024-02-10 11:00:00', '2024-02-10 10:00:00', '2024-02-10 09:30:00', '2024-02-10 09:00:00', '2024-02-10 08:30:00', '2024-02-10 08:00:00', '2024-02-10 07:00:00', '2024-02-10 06:00:00', '2024-02-10 05:00:00', '2024-02-10 04:00:00', '2024-02-10 03:00:00', '2024-02-10 02:00:00', '2024-02-10 01:00:00', '2024-02-10 00:00:00', '2024-02-09 23:00:00', '2024-02-09 22:00:00', '2024-02-09 21:00:00', '2024-02-09 20:00:00', '2024-02-09 19:00:00', '2024-02-09 18:00:00', '2024-02-09 17:00:00', '2024-02-09 16:00:00', '2024-02-09 15:30:00', '2024-02-09 15:00:00', '2024-02-09 14:30:00', '2024-02-09 14:00:00', '2024-02-09 13:30:00', '2024-02-09 13:00:00', '2024-02-09 12:00:00', '2024-02-09 11:00:00', '2024-02-09 10:00:00', '2024-02-09 09:00:00', '2024-02-09 08:00:00', '2024-02-09 07:00:00', '2024-02-09 06:00:00', '2024-02-09 05:00:00', '2024-02-09 04:00:00', '2024-02-09 03:00:00', '2024-02-09 02:00:00', '2024-02-09 01:00:00', '2024-02-09 00:00:00', '2024-02-08 22:00:00', '2024-02-08 21:00:00', '2024-02-08 20:00:00', '2024-02-08 19:00:00', '2024-02-08 18:00:00', '2024-02-08 17:00:00', '2024-02-08 16:00:00', '2024-02-08 15:00:00', '2024-02-08 14:30:00', '2024-02-08 14:00:00', '2024-02-08 13:30:00', '2024-02-08 13:00:00', '2024-02-08 12:00:00', '2024-02-08 11:00:00', '2024-02-08 10:30:00', '2024-02-08 10:00:00', '2024-02-08 09:30:00', '2024-02-08 09:00:00', '2024-02-08 08:00:00', '2024-02-08 07:00:00', '2024-02-08 06:00:00', '2024-02-08 05:00:00', '2024-02-08 04:00:00', '2024-02-08 03:00:00', '2024-02-08 02:00:00', '2024-02-08 01:00:00', '2024-02-08 00:00:00', '2024-02-07 23:00:00', '2024-02-07 22:00:00', '2024-02-07 21:00:00', '2024-02-07 20:00:00', '2024-02-07 19:00:00', '2024-02-07 18:00:00']"
Iran, Maragheh Sahand Airport (ACP/OITM) ,"['OITM 101600Z 07002KT CAVOK 06/M05 Q1021', 'OITM 101500Z 35004KT CAVOK 09/M05 Q1020', 'OITM 101400Z 26004KT CAVOK 13/M03 Q1020', 'OITM 101300Z 27004KT CAVOK 13/M04 Q1020', 'OITM 101200Z 27006KT CAVOK 13/M03 Q1020', 'OITM 101100Z 28004KT CAVOK 13/M03 Q1020', 'OITM 101000Z 28002KT CAVOK 13/M03 Q1020', 'OITM 100900Z 29004KT CAVOK 12/M03 Q1021', 'OITM 100800Z 19006KT CAVOK 11/M02 Q1021', 'OITM 100700Z 12004KT CAVOK 10/M02 Q1021', 'OITM 100600Z 08008KT CAVOK 06/M03 Q1021', 'OITM 100500Z 09008KT CAVOK 02/M04 Q1021', 'OITM 100400Z 07008KT 9999 FEW040 01/M05 Q1020', 'OITM 100300Z 09008KT CAVOK 01/M05 Q1019', 'OITM 100200Z 09008KT CAVOK 01/M05 Q1019', 'OITM 100000Z 11004KT CAVOK 01/M05 Q1019', 'OITM 092100Z 08004KT CAVOK 03/M05 Q1019', 'OITM 091800Z 13006KT CAVOK 03/M04 Q1019', 'OITM 091700Z 13004KT CAVOK 05/M04 Q1019', 'OITM 091600Z 02006KT CAVOK 06/M04 Q1019', 'OITM 091500Z 36004KT 9999 FEW090 BKN180 07/M05 Q1018', 'OITM 091400Z 32006KT 9999 FEW090 BKN180 11/M04 Q1018', 'OITM 091300Z 27004KT 9999 FEW040 BKN180 13/M04 Q1018', 'OITM 091200Z 29004KT 9999 FEW040 BKN180 11/M03 Q1018', 'OITM 091100Z 25004KT 9999 FEW040 BKN180 12/M03 Q1018', 'OITM 091000Z 20002KT 9999 FEW040 BKN180 12/M02 Q1019', 'OITM 090900Z 19006KT 9999 FEW040 BKN180 11/M02 Q1020', 'OITM 090800Z 20004KT 9999 FEW040 BKN180 10/M01 Q1020', 'OITM 090700Z 10004KT 8000 FEW040 BKN180 09/M02 Q1021', 'OITM 090600Z 11004KT 9999 FEW040 BKN180 05/M02 Q1020', 'OITM 090500Z 11006KT 8000 NSC 01/M03 Q1020', 'OITM 090400Z 08008KT CAVOK 01/M04 Q1019', 'OITM 090300Z 10006KT CAVOK M00/M04 Q1019', 'OITM 090200Z 08008KT CAVOK 00/M04 Q1018', 'OITM 090000Z 11006KT CAVOK M01/M04 Q1019', 'OITM 082100Z 05004KT CAVOK 02/M03 Q1019', 'OITM 081800Z 18002KT CAVOK 05/M03 Q1019', 'OITM 081700Z 15004KT CAVOK 06/M03 Q1019', 'OITM 081600Z 23008KT CAVOK 07/M03 Q1019', 'OITM 081500Z 24008KT CAVOK 09/M02 Q1019', 'OITM 081400Z 26012KT CAVOK 12/M03 Q1018', 'OITM 081300Z 26006KT CAVOK 13/M03 Q1018', 'OITM 081200Z 28006KT CAVOK 13/M03 Q1019', 'OITM 081100Z 27006KT CAVOK 12/M03 Q1019', 'OITM 081000Z 26006KT CAVOK 12/M03 Q1020', 'OITM 080900Z 30004KT CAVOK 10/M02 Q1021', 'OITM 080800Z 29004KT CAVOK 09/M01 Q1022', 'OITM 080700Z 24006KT CAVOK 08/M01 Q1022', 'OITM 080600Z 14002KT CAVOK 07/M02 Q1022', 'OITM 080500Z 08006KT CAVOK 02/M04 Q1022', 'OITM 080400Z 09008KT CAVOK 00/M05 Q1022', 'OITM 080300Z 09004KT CAVOK 01/M05 Q1021', 'OITM 080200Z 08006KT CAVOK 00/M05 Q1021', 'OITM 080000Z 08006KT CAVOK 01/M04 Q1020', 'OITM 072100Z 08006KT CAVOK 01/M04 Q1020', 'OITM 071800Z 12002KT CAVOK 03/M03 Q1020']","['2024-02-10 16:00:00', '2024-02-10 15:00:00', '2024-02-10 14:00:00', '2024-02-10 13:00:00', '2024-02-10 12:00:00', '2024-02-10 11:00:00', '2024-02-10 10:00:00', '2024-02-10 09:00:00', '2024-02-10 08:00:00', '2024-02-10 07:00:00', '2024-02-10 06:00:00', '2024-02-10 05:00:00', '2024-02-10 04:00:00', '2024-02-10 03:00:00', '2024-02-10 02:00:00', '2024-02-10 00:00:00', '2024-02-09 21:00:00', '2024-02-09 18:00:00', '2024-02-09 17:00:00', '2024-02-09 16:00:00', '2024-02-09 15:00:00', '2024-02-09 14:00:00', '2024-02-09 13:00:00', '2024-02-09 12:00:00', '2024-02-09 11:00:00', '2024-02-09 10:00:00', '2024-02-09 09:00:00', '2024-02-09 08:00:00', '2024-02-09 07:00:00', '2024-02-09 06:00:00', '2024-02-09 05:00:00', '2024-02-09 04:00:00', '2024-02-09 03:00:00', '2024-02-09 02:00:00', '2024-02-09 00:00:00', '2024-02-08 21:00:00', '2024-02-08 18:00:00', '2024-02-08 17:00:00', '2024-02-08 16:00:00', '2024-02-08 15:00:00', '2024-02-08 14:00:00', '2024-02-08 13:00:00', '2024-02-08 12:00:00', '2024-02-08 11:00:00', '2024-02-08 10:00:00', '2024-02-08 09:00:00', '2024-02-08 08:00:00', '2024-02-08 07:00:00', '2024-02-08 06:00:00', '2024-02-08 05:00:00', '2024-02-08 04:00:00', '2024-02-08 03:00:00', '2024-02-08 02:00:00', '2024-02-08 00:00:00', '2024-02-07 21:00:00', '2024-02-07 18:00:00']"
Iran, Mashhad International Airport (MHD/OIMM) ,"['OIMM 101630Z 20008KT CAVOK 11/02 Q1021 A3017', 'OIMM 101600Z 23004KT CAVOK 11/02 Q1021 A3017', 'OIMM 101530Z 21004KT CAVOK 12/02 Q1021 A3017', 'OIMM 101500Z 19004KT CAVOK 13/02 Q1021 A3016', 'OIMM 101430Z 20004KT CAVOK 14/02 Q1021 A3015', 'OIMM 101400Z 19004KT CAVOK 15/02 Q1020 A3014', 'OIMM 101330Z 14004KT CAVOK 17/02 Q1020 A3014', 'OIMM 101300Z 00000KT CAVOK 17/02 Q1020 A3013', 'OIMM 101230Z 30004KT CAVOK 17/01 Q1020 A3013', 'OIMM 101200Z 06004KT CAVOK 17/02 Q1020 A3013', 'OIMM 101130Z 08004KT CAVOK 17/03 Q1020 A3012', 'OIMM 101100Z 01004KT CAVOK 17/02 Q1020 A3013', 'OIMM 101030Z 03006KT CAVOK 17/02 Q1020 A3012', 'OIMM 101000Z 35008KT CAVOK 17/02 Q1020 A3013', 'OIMM 100930Z 05010KT CAVOK 16/02 Q1020 A3013', 'OIMM 100900Z 04006KT CAVOK 16/02 Q1020 A3013', 'OIMM 100830Z 04006KT CAVOK 16/03 Q1020 A3015', 'OIMM 100800Z 04008KT CAVOK 15/03 Q1021 A3016', 'OIMM 100730Z 08006KT CAVOK 15/04 Q1021 A3016', 'OIMM 100700Z 07006KT CAVOK 14/04 Q1022 A3018', 'OIMM 100630Z 04006KT CAVOK 13/04 Q1022 A3018', 'OIMM 100600Z 06004KT CAVOK 11/04 Q1022 A3018', 'OIMM 100530Z 04004KT CAVOK 09/03 Q1022 A3018', 'OIMM 100500Z 36004KT CAVOK 08/02 Q1021 A3018', 'OIMM 100430Z 35004KT CAVOK 05/00 Q1021 A3017', 'OIMM 100400Z 01004KT CAVOK 04/M01 Q1021 A3016', 'OIMM 100330Z 00000KT CAVOK 03/M01 Q1020 A3014', 'OIMM 100300Z 16004KT CAVOK 03/M01 Q1020 A3014', 'OIMM 100230Z 16004KT CAVOK 03/M01 Q1020 A3013', 'OIMM 100200Z 00000KT CAVOK 03/M01 Q1020 A3012', 'OIMM 100130Z 18004KT CAVOK 04/M01 Q1020 A3012', 'OIMM 100100Z 00000KT CAVOK 03/M01 Q1020 A3012', 'OIMM 100030Z 30004KT CAVOK 03/M01 Q1020 A3012', 'OIMM 100000Z 19004KT CAVOK 03/M01 Q1019 A3011', 'OIMM 092330Z 19004KT CAVOK 04/M01 Q1020 A3012', 'OIMM 092300Z 19004KT CAVOK 05/M00 Q1019 A3012', 'OIMM 092230Z 18006KT CAVOK 05/M00 Q1019 A3012', 'OIMM 092200Z 00000KT CAVOK 05/M00 Q1019 A3012', 'OIMM 092130Z 00000KT CAVOK 05/00 Q1019 A3012', 'OIMM 092100Z 00000KT CAVOK 06/00 Q1019 A3012', 'OIMM 092030Z 00000KT CAVOK 07/01 Q1020 A3012', 'OIMM 092000Z 00000KT CAVOK 07/01 Q1020 A3012', 'OIMM 091930Z 00000KT CAVOK 07/01 Q1019 A3011', 'OIMM 091900Z 00000KT CAVOK 07/01 Q1019 A3011', 'OIMM 091830Z 23006KT CAVOK 08/01 Q1019 A3011', 'OIMM 091800Z 20006KT CAVOK 09/01 Q1019 A3011', 'OIMM 091730Z 23004KT CAVOK 09/01 Q1019 A3011', 'OIMM 091700Z 21006KT CAVOK 10/01 Q1019 A3010', 'OIMM 091630Z 00000KT CAVOK 09/02 Q1019 A3009', 'OIMM 091600Z 20004KT CAVOK 11/02 Q1019 A3010', 'OIMM 091530Z 18006KT CAVOK 11/02 Q1018 A3009', 'OIMM 091500Z 00000KT CAVOK 12/02 Q1018 A3008', 'OIMM 091430Z 12004KT CAVOK 14/01 Q1018 A3007', 'OIMM 091400Z 12004KT CAVOK 13/02 Q1018 A3007', 'OIMM 091330Z 16004KT CAVOK 15/02 Q1017 A3005', 'OIMM 091300Z 19006KT CAVOK 16/03 Q1017 A3005', 'OIMM 091230Z 16006KT CAVOK 16/01 Q1017 A3004', 'OIMM 091200Z 14006KT CAVOK 16/01 Q1017 A3004', 'OIMM 091130Z 12006KT CAVOK 16/01 Q1017 A3004', 'OIMM 091100Z 05004KT CAVOK 16/01 Q1017 A3004', 'OIMM 091030Z 04006KT CAVOK 16/02 Q1017 A3004', 'OIMM 091000Z 08006KT CAVOK 16/02 Q1017 A3004', 'OIMM 090930Z 07006KT CAVOK 16/03 Q1017 A3005', 'OIMM 090900Z 10004KT CAVOK 15/03 Q1019 A3009', 'OIMM 090830Z 03004KT CAVOK 15/03 Q1018 A3007', 'OIMM 090800Z 06004KT CAVOK 14/02 Q1019 A3009', 'OIMM 090730Z 03004KT CAVOK 14/03 Q1019 A3011', 'OIMM 090700Z 06004KT CAVOK 12/03 Q1019 A3011', 'OIMM 090630Z 09004KT CAVOK 11/03 Q1019 A3012', 'OIMM 090600Z 07006KT CAVOK 10/02 Q1019 A3012', 'OIMM 090530Z 01004KT CAVOK 09/02 Q1019 A3012', 'OIMM 090500Z 00000KT CAVOK 08/02 Q1020 A3012', 'OIMM 090430Z 04004KT CAVOK 05/00 Q1019 A3011', 'OIMM 090400Z 05004KT CAVOK 04/M01 Q1019 A3009', 'OIMM 090330Z 07004KT CAVOK 02/M01 Q1018 A3009', 'OIMM 090300Z 21004KT CAVOK 03/M01 Q1018 A3007', 'OIMM 090230Z 24004KT CAVOK 03/M01 Q1018 A3007', 'OIMM 090200Z 00000KT CAVOK 02/M01 Q1018 A3007', 'OIMM 090130Z 32004KT CAVOK 02/M01 Q1018 A3007', 'OIMM 090100Z 08004KT CAVOK 03/M01 Q1018 A3007', 'OIMM 090030Z 00000KT CAVOK 03/M02 Q1018 A3007', 'OIMM 090000Z 19004KT CAVOK 04/M01 Q1018 A3007', 'OIMM 082330Z 20004KT CAVOK 05/M00 Q1018 A3008', 'OIMM 082300Z 36004KT CAVOK 03/M01 Q1018 A3008', 'OIMM 082200Z 22004KT CAVOK 06/01 Q1018 A3009', 'OIMM 082130Z 20004KT CAVOK 05/01 Q1018 A3009', 'OIMM 082100Z 30004KT CAVOK 05/00 Q1018 A3009', 'OIMM 082030Z 00000KT CAVOK 06/01 Q1018 A3009', 'OIMM 082000Z 17004KT CAVOK 07/01 Q1018 A3009', 'OIMM 081930Z 15004KT CAVOK 07/02 Q1019 A3009', 'OIMM 081900Z 20008KT CAVOK 08/02 Q1019 A3009', 'OIMM 081830Z 24006KT CAVOK 08/02 Q1019 A3010', 'OIMM 081800Z 26006KT CAVOK 08/02 Q1019 A3010', 'OIMM 081730Z 21004KT CAVOK 09/02 Q1019 A3010', 'OIMM 081700Z 21006KT CAVOK 09/02 Q1019 A3010', 'OIMM 081630Z 18008KT CAVOK 09/02 Q1019 A3011', 'OIMM 081600Z 22006KT CAVOK 10/02 Q1019 A3011', 'OIMM 081530Z 00000KT CAVOK 10/02 Q1019 A3011', 'OIMM 081500Z 04006KT CAVOK 11/02 Q1019 A3011', 'OIMM 081430Z 02006KT 9999 FEW040 11/03 Q1019 A3011', 'OIMM 081400Z 11006KT 9999 FEW040 12/03 Q1019 A3009', 'OIMM 081330Z 11008KT 9999 FEW040 14/04 Q1019 A3009', 'OIMM 081300Z 33006KT 9999 FEW040 16/02 Q1019 A3009', 'OIMM 081230Z 28008KT 9999 FEW040 16/02 Q1019 A3009', 'OIMM 081200Z 27014KT 9999 FEW040 16/01 Q1019 A3010', 'OIMM 081130Z 13010KT 9999 FEW040 16/03 Q1019 A3010', 'OIMM 081100Z 12006KT CAVOK 16/03 Q1019 A3011', 'OIMM 081030Z 05004KT 9999 FEW035 15/03 Q1019 A3012', 'OIMM 081000Z 06004KT CAVOK 16/04 Q1020 A3013', 'OIMM 080930Z 07004KT CAVOK 15/04 Q1020 A3014', 'OIMM 080900Z 03004KT CAVOK 14/04 Q1021 A3015', 'OIMM 080830Z 00000KT CAVOK 14/04 Q1021 A3017', 'OIMM 080800Z 08004KT CAVOK 13/03 Q1021 A3018', 'OIMM 080730Z 11004KT CAVOK 12/04 Q1022 A3019', 'OIMM 080700Z 10004KT CAVOK 11/03 Q1022 A3020', 'OIMM 080630Z 10004KT CAVOK 11/03 Q1022 A3020', 'OIMM 080600Z 34004KT CAVOK 09/02 Q1022 A3021', 'OIMM 080530Z 35004KT CAVOK 07/02 Q1023 A3021', 'OIMM 080500Z 00000KT CAVOK 06/01 Q1022 A3021', 'OIMM 080430Z 07004KT CAVOK 06/01 Q1022 A3020', 'OIMM 080400Z 00000KT CAVOK 03/M00 Q1022 A3020', 'OIMM 080330Z 00000KT CAVOK 02/M01 Q1022 A3019', 'OIMM 080300Z 20004KT CAVOK 03/M01 Q1022 A3018', 'OIMM 080230Z 20008KT CAVOK 03/M01 Q1021 A3017', 'OIMM 080200Z 00000KT CAVOK 02/M01 Q1021 A3016', 'OIMM 080130Z 00000KT CAVOK 02/M01 Q1021 A3016', 'OIMM 080100Z 18004KT CAVOK 03/M01 Q1021 A3016', 'OIMM 080030Z 28004KT CAVOK 03/M01 Q1021 A3015', 'OIMM 080000Z 25004KT CAVOK 03/M01 Q1021 A3016', 'OIMM 072330Z 00000KT CAVOK 04/M01 Q1021 A3017', 'OIMM 072300Z 31006KT CAVOK 03/M01 Q1021 A3016', 'OIMM 072230Z 25004KT CAVOK 03/M01 Q1021 A3016', 'OIMM 072200Z 34002KT CAVOK 04/M00 Q1021 A3016', 'OIMM 072130Z 17004KT CAVOK 04/M01 Q1021 A3016', 'OIMM 072100Z 19004KT CAVOK 05/M00 Q1021 A3017', 'OIMM 072030Z 20004KT CAVOK 06/00 Q1021 A3017', 'OIMM 072000Z 19006KT CAVOK 06/00 Q1021 A3017', 'OIMM 071930Z 16004KT CAVOK 06/00 Q1021 A3017', 'OIMM 071900Z 19008KT CAVOK 07/00 Q1021 A3017', 'OIMM 071830Z 10004KT CAVOK 08/00 Q1021 A3016', 'OIMM 071800Z 31006KT CAVOK 09/01 Q1021 A3015', 'OIMM 071730Z 30008KT CAVOK 09/01 Q1021 A3015']","['2024-02-10 16:30:00', '2024-02-10 16:00:00', '2024-02-10 15:30:00', '2024-02-10 15:00:00', '2024-02-10 14:30:00', '2024-02-10 14:00:00', '2024-02-10 13:30:00', '2024-02-10 13:00:00', '2024-02-10 12:30:00', '2024-02-10 12:00:00', '2024-02-10 11:30:00', '2024-02-10 11:00:00', '2024-02-10 10:30:00', '2024-02-10 10:00:00', '2024-02-10 09:30:00', '2024-02-10 09:00:00', '2024-02-10 08:30:00', '2024-02-10 08:00:00', '2024-02-10 07:30:00', '2024-02-10 07:00:00', '2024-02-10 06:30:00', '2024-02-10 06:00:00', '2024-02-10 05:30:00', '2024-02-10 05:00:00', '2024-02-10 04:30:00', '2024-02-10 04:00:00', '2024-02-10 03:30:00', '2024-02-10 03:00:00', '2024-02-10 02:30:00', '2024-02-10 02:00:00', '2024-02-10 01:30:00', '2024-02-10 01:00:00', '2024-02-10 00:30:00', '2024-02-10 00:00:00', '2024-02-09 23:30:00', '2024-02-09 23:00:00', '2024-02-09 22:30:00', '2024-02-09 22:00:00', '2024-02-09 21:30:00', '2024-02-09 21:00:00', '2024-02-09 20:30:00', '2024-02-09 20:00:00', '2024-02-09 19:30:00', '2024-02-09 19:00:00', '2024-02-09 18:30:00', '2024-02-09 18:00:00', '2024-02-09 17:30:00', '2024-02-09 17:00:00', '2024-02-09 16:30:00', '2024-02-09 16:00:00', '2024-02-09 15:30:00', '2024-02-09 15:00:00', '2024-02-09 14:30:00', '2024-02-09 14:00:00', '2024-02-09 13:30:00', '2024-02-09 13:00:00', '2024-02-09 12:30:00', '2024-02-09 12:00:00', '2024-02-09 11:30:00', '2024-02-09 11:00:00', '2024-02-09 10:30:00', '2024-02-09 10:00:00', '2024-02-09 09:30:00', '2024-02-09 09:00:00', '2024-02-09 08:30:00', '2024-02-09 08:00:00', '2024-02-09 07:30:00', '2024-02-09 07:00:00', '2024-02-09 06:30:00', '2024-02-09 06:00:00', '2024-02-09 05:30:00', '2024-02-09 05:00:00', '2024-02-09 04:30:00', '2024-02-09 04:00:00', '2024-02-09 03:30:00', '2024-02-09 03:00:00', '2024-02-09 02:30:00', '2024-02-09 02:00:00', '2024-02-09 01:30:00', '2024-02-09 01:00:00', '2024-02-09 00:30:00', '2024-02-09 00:00:00', '2024-02-08 23:30:00', '2024-02-08 23:00:00', '2024-02-08 22:00:00', '2024-02-08 21:30:00', '2024-02-08 21:00:00', '2024-02-08 20:30:00', '2024-02-08 20:00:00', '2024-02-08 19:30:00', '2024-02-08 19:00:00', '2024-02-08 18:30:00', '2024-02-08 18:00:00', '2024-02-08 17:30:00', '2024-02-08 17:00:00', '2024-02-08 16:30:00', '2024-02-08 16:00:00', '2024-02-08 15:30:00', '2024-02-08 15:00:00', '2024-02-08 14:30:00', '2024-02-08 14:00:00', '2024-02-08 13:30:00', '2024-02-08 13:00:00', '2024-02-08 12:30:00', '2024-02-08 12:00:00', '2024-02-08 11:30:00', '2024-02-08 11:00:00', '2024-02-08 10:30:00', '2024-02-08 10:00:00', '2024-02-08 09:30:00', '2024-02-08 09:00:00', '2024-02-08 08:30:00', '2024-02-08 08:00:00', '2024-02-08 07:30:00', '2024-02-08 07:00:00', '2024-02-08 06:30:00', '2024-02-08 06:00:00', '2024-02-08 05:30:00', '2024-02-08 05:00:00', '2024-02-08 04:30:00', '2024-02-08 04:00:00', '2024-02-08 03:30:00', '2024-02-08 03:00:00', '2024-02-08 02:30:00', '2024-02-08 02:00:00', '2024-02-08 01:30:00', '2024-02-08 01:00:00', '2024-02-08 00:30:00', '2024-02-08 00:00:00', '2024-02-07 23:30:00', '2024-02-07 23:00:00', '2024-02-07 22:30:00', '2024-02-07 22:00:00', '2024-02-07 21:30:00', '2024-02-07 21:00:00', '2024-02-07 20:30:00', '2024-02-07 20:00:00', '2024-02-07 19:30:00', '2024-02-07 19:00:00', '2024-02-07 18:30:00', '2024-02-07 18:00:00', '2024-02-07 17:30:00']"
Iran, Noshahr Airport (NSH/OINN) ,"['OINN 101600Z 19004KT CAVOK 12/06 Q1018', 'OINN 101500Z 31004KT CAVOK 15/09 Q1018', 'OINN 101400Z 29006KT CAVOK 17/06 Q1017', 'OINN 101300Z 27008KT 9999 BKN160 20/02 Q1017', 'OINN 101200Z 31012KT 9999 BKN160 21/03 Q1017', 'OINN 101100Z 29008KT 9999 BKN160 21/01 Q1017', 'OINN 101000Z 31006KT 9999 BKN160 18/04 Q1016', 'OINN 100900Z 30006KT 9999 BKN170 19/06 Q1017', 'OINN 100800Z 29012KT 9999 BKN170 19/02 Q1017', 'OINN 100700Z 33008KT 9999 FEW070 BKN170 18/06 Q1017', 'OINN 100600Z 02002KT 9999 FEW070 BKN170 17/05 Q1016', 'OINN 100500Z 00000KT CAVOK 11/04 Q1016', 'OINN 100400Z 18002KT CAVOK 11/01 Q1014', 'OINN 100300Z 12002KT CAVOK 09/03 Q1014', 'OINN 100200Z 18002KT CAVOK 09/03 Q1014', 'OINN 100100Z 15002KT CAVOK 10/02 Q1014', 'OINN 100000Z 12002KT CAVOK 09/03 Q1014', 'OINN 092300Z 18002KT CAVOK 09/02 Q1014', 'OINN 092200Z 18002KT CAVOK 10/02 Q1014', 'OINN 092100Z 09002KT CAVOK 11/02 Q1014', 'OINN 092000Z 12002KT CAVOK 12/02 Q1015', 'OINN 091900Z 00000KT CAVOK 10/02 Q1015', 'OINN 091800Z 12002KT CAVOK 13/01 Q1015', 'OINN 091700Z 15002KT CAVOK 13/03 Q1015', 'OINN 091600Z 12002KT CAVOK 13/04 Q1015', 'OINN 091500Z 12002KT CAVOK 14/04 Q1015', 'OINN 091400Z 00000KT CAVOK 15/02 Q1014', 'OINN 091300Z 00000KT CAVOK 19/01 Q1014', 'OINN 091200Z 33002KT CAVOK 20/03 Q1014', 'OINN 091100Z 33004KT CAVOK 21/M02 Q1013', 'OINN 091000Z 03004KT CAVOK 23/M02 Q1013', 'OINN 090900Z 21002KT CAVOK 19/02 Q1014', 'OINN 090800Z 33002KT CAVOK 18/06 Q1014', 'OINN 090700Z 03006KT CAVOK 16/06 Q1013', 'OINN 090600Z 21002KT CAVOK 19/01 Q1013', 'OINN 090500Z 23004KT CAVOK 16/00 Q1012', 'OINN 090400Z 21004KT CAVOK 14/M01 Q1011', 'OINN 090300Z 20006KT CAVOK 10/00 Q1011', 'OINN 090200Z 00000KT CAVOK 08/02 Q1010', 'OINN 090100Z 00000KT CAVOK 09/02 Q1010', 'OINN 090000Z 00000KT CAVOK 08/03 Q1011', 'OINN 082300Z 00000KT CAVOK 08/02 Q1011', 'OINN 082200Z 00000KT CAVOK 09/03 Q1011', 'OINN 082100Z 00000KT CAVOK 09/03 Q1012', 'OINN 082000Z 18004KT CAVOK 13/02 Q1012', 'OINN 081900Z 00000KT CAVOK 11/03 Q1013', 'OINN 081800Z 00000KT CAVOK 11/06 Q1013', 'OINN 081700Z 00000KT CAVOK 11/06 Q1013', 'OINN 081600Z 15002KT CAVOK 12/10 Q1014', 'OINN 081500Z 00000KT CAVOK 13/12 Q1013', 'OINN 081400Z 00000KT CAVOK 16/11 Q1013', 'OINN 081300Z 34004KT CAVOK 17/09 Q1013', 'OINN 081200Z 34004KT CAVOK 18/07 Q1013', 'OINN 081100Z 03002KT CAVOK 18/08 Q1013', 'OINN 081000Z 32004KT CAVOK 18/10 Q1013', 'OINN 080900Z 06004KT CAVOK 20/04 Q1014', 'OINN 080800Z 06004KT CAVOK 21/02 Q1015', 'OINN 080700Z 01004KT CAVOK 19/06 Q1015', 'OINN 080600Z 00000KT CAVOK 18/03 Q1015', 'OINN 080500Z 00000KT CAVOK 11/03 Q1015', 'OINN 080400Z 17004KT CAVOK 08/01 Q1015', 'OINN 080300Z 00000KT CAVOK 08/02 Q1014', 'OINN 080200Z 00000KT CAVOK 09/01 Q1014', 'OINN 080100Z 18004KT CAVOK 09/01 Q1014', 'OINN 080000Z 11004KT CAVOK 08/02 Q1014', 'OINN 072300Z 15002KT CAVOK 09/02 Q1014', 'OINN 072200Z 16004KT CAVOK 09/01 Q1014', 'OINN 072100Z 17004KT CAVOK 09/01 Q1015', 'OINN 072000Z 00000KT CAVOK 09/05 Q1015', 'OINN 071900Z 16002KT CAVOK 09/04 Q1015', 'OINN 071800Z 15002KT CAVOK 09/04 Q1016']","['2024-02-10 16:00:00', '2024-02-10 15:00:00', '2024-02-10 14:00:00', '2024-02-10 13:00:00', '2024-02-10 12:00:00', '2024-02-10 11:00:00', '2024-02-10 10:00:00', '2024-02-10 09:00:00', '2024-02-10 08:00:00', '2024-02-10 07:00:00', '2024-02-10 06:00:00', '2024-02-10 05:00:00', '2024-02-10 04:00:00', '2024-02-10 03:00:00', '2024-02-10 02:00:00', '2024-02-10 01:00:00', '2024-02-10 00:00:00', '2024-02-09 23:00:00', '2024-02-09 22:00:00', '2024-02-09 21:00:00', '2024-02-09 20:00:00', '2024-02-09 19:00:00', '2024-02-09 18:00:00', '2024-02-09 17:00:00', '2024-02-09 16:00:00', '2024-02-09 15:00:00', '2024-02-09 14:00:00', '2024-02-09 13:00:00', '2024-02-09 12:00:00', '2024-02-09 11:00:00', '2024-02-09 10:00:00', '2024-02-09 09:00:00', '2024-02-09 08:00:00', '2024-02-09 07:00:00', '2024-02-09 06:00:00', '2024-02-09 05:00:00', '2024-02-09 04:00:00', '2024-02-09 03:00:00', '2024-02-09 02:00:00', '2024-02-09 01:00:00', '2024-02-09 00:00:00', '2024-02-08 23:00:00', '2024-02-08 22:00:00', '2024-02-08 21:00:00', '2024-02-08 20:00:00', '2024-02-08 19:00:00', '2024-02-08 18:00:00', '2024-02-08 17:00:00', '2024-02-08 16:00:00', '2024-02-08 15:00:00', '2024-02-08 14:00:00', '2024-02-08 13:00:00', '2024-02-08 12:00:00', '2024-02-08 11:00:00', '2024-02-08 10:00:00', '2024-02-08 09:00:00', '2024-02-08 08:00:00', '2024-02-08 07:00:00', '2024-02-08 06:00:00', '2024-02-08 05:00:00', '2024-02-08 04:00:00', '2024-02-08 03:00:00', '2024-02-08 02:00:00', '2024-02-08 01:00:00', '2024-02-08 00:00:00', '2024-02-07 23:00:00', '2024-02-07 22:00:00', '2024-02-07 21:00:00', '2024-02-07 20:00:00', '2024-02-07 19:00:00', '2024-02-07 18:00:00']"
Iran, Parsabad Moghan Airport (PFQ/OITP) ,"['OITP 101600Z 19008KT CAVOK 09/02 Q1017', 'OITP 101500Z 18002KT CAVOK 13/01 Q1016', 'OITP 101400Z 04004KT CAVOK 20/03 Q1016', 'OITP 101300Z 01008KT CAVOK 22/02 Q1016', 'OITP 101200Z 02006KT CAVOK 23/01 Q1015', 'OITP 101100Z 34004KT CAVOK 23/01 Q1015', 'OITP 101000Z 29004KT CAVOK 23/01 Q1015', 'OITP 100900Z 27012KT CAVOK 22/03 Q1016', 'OITP 100800Z 26008KT CAVOK 20/04 Q1016', 'OITP 100700Z 26008KT CAVOK 18/04 Q1016', 'OITP 100600Z 23008KT CAVOK 14/08 Q1016', 'OITP 100500Z 23006KT CAVOK 08/04 Q1016', 'OITP 100400Z 26010KT CAVOK 06/02 Q1015', 'OITP 100300Z 25008KT CAVOK 06/01 Q1014', 'OITP 100000Z 26010KT CAVOK 08/03 Q1013', 'OITP 092100Z 26012KT 9999 SCT040 08/03 Q1013', 'OITP 091800Z 22012KT 9999 SCT040 10/05 Q1013', 'OITP 091700Z 22008KT 9999 SCT040 OVC080 10/05 Q1013', 'OITP 091600Z 22008KT 9999 SCT040 OVC080 11/05 Q1013', 'OITP 091500Z 21008KT 9999 SCT040 OVC080 11/05 Q1013', 'OITP 091400Z 24004KT 9999 SCT040 BKN080 14/05 Q1012', 'OITP 091300Z 01004KT 9999 SCT040 BKN080 18/05 Q1012', 'OITP 091200Z 36004KT 9999 SCT040 BKN080 19/05 Q1012', 'OITP 091100Z 01006KT 9999 SCT040 BKN080 19/04 Q1012', 'OITP 091000Z 01008KT 9999 SCT040 BKN080 20/04 Q1012', 'OITP 090900Z 34004KT 9999 SCT040 BKN080 20/03 Q1013', 'OITP 090800Z 35004KT 9999 SCT040 BKN080 19/03 Q1013', 'OITP 090700Z 33002KT 9999 SCT040 OVC080 17/04 Q1013', 'OITP 090600Z 24006KT 9999 SCT040 OVC080 13/03 Q1012', 'OITP 090500Z 25006KT 9999 BKN040 08/01 Q1011', 'OITP 090400Z 25006KT 9999 BKN040 08/01 Q1011', 'OITP 090300Z 26008KT CAVOK 08/01 Q1011', 'OITP 090200Z 25012KT CAVOK 09/01 Q1011', 'OITP 090100Z 25010KT CAVOK 09/01 Q1011', 'OITP 090000Z 28008KT CAVOK 08/03 Q1011', 'OITP 082300Z 27008KT CAVOK 07/02 Q1011', 'OITP 082200Z 24008KT CAVOK 07/02 Q1011', 'OITP 082100Z 24008KT CAVOK 06/01 Q1011', 'OITP 082000Z 22012KT CAVOK 09/03 Q1011', 'OITP 081900Z 24008KT CAVOK 09/02 Q1011', 'OITP 081800Z 24010KT CAVOK 09/03 Q1011', 'OITP 081700Z 22010KT CAVOK 09/03 Q1012', 'OITP 081600Z 23010KT CAVOK 10/03 Q1011', 'OITP 081500Z 23008KT 9999 FEW040 BKN170 11/03 Q1011', 'OITP 081400Z 30004KT 9999 FEW040 BKN170 15/03 Q1011', 'OITP 081300Z 36006KT 9999 FEW040 BKN170 18/04 Q1011', 'OITP 081230Z 01008KT 9999 FEW040 BKN170 20/04 Q1011', 'OITP 081200Z 36008KT 9999 FEW040 BKN170 20/03 Q1012', 'OITP 081130Z 36008KT 9999 FEW040 BKN170 21/04 Q1012', 'OITP 081100Z 35006KT 9999 FEW040 BKN170 21/03 Q1012', 'OITP 081000Z 36006KT CAVOK 22/04 Q1012', 'OITP 080900Z 34006KT CAVOK 21/03 Q1013', 'OITP 080800Z 30006KT CAVOK 20/03 Q1014', 'OITP 080700Z 30008KT CAVOK 17/04 Q1014', 'OITP 080600Z 28010KT CAVOK 14/06 Q1017', 'OITP 080500Z 26010KT CAVOK 09/04 Q1017', 'OITP 080400Z 25012KT CAVOK 08/05 Q1014', 'OITP 080300Z 26010KT CAVOK 05/03 Q1014', 'OITP 080200Z 24008KT CAVOK 04/01 Q1013', 'OITP 080100Z 25010KT CAVOK 05/02 Q1013', 'OITP 080000Z 25008KT CAVOK 05/03 Q1013', 'OITP 072200Z 24008KT CAVOK 05/03 Q1014', 'OITP 072100Z 24008KT CAVOK 05/03 Q1014', 'OITP 071800Z 22010KT CAVOK 06/02 Q1014']","['2024-02-10 16:00:00', '2024-02-10 15:00:00', '2024-02-10 14:00:00', '2024-02-10 13:00:00', '2024-02-10 12:00:00', '2024-02-10 11:00:00', '2024-02-10 10:00:00', '2024-02-10 09:00:00', '2024-02-10 08:00:00', '2024-02-10 07:00:00', '2024-02-10 06:00:00', '2024-02-10 05:00:00', '2024-02-10 04:00:00', '2024-02-10 03:00:00', '2024-02-10 00:00:00', '2024-02-09 21:00:00', '2024-02-09 18:00:00', '2024-02-09 17:00:00', '2024-02-09 16:00:00', '2024-02-09 15:00:00', '2024-02-09 14:00:00', '2024-02-09 13:00:00', '2024-02-09 12:00:00', '2024-02-09 11:00:00', '2024-02-09 10:00:00', '2024-02-09 09:00:00', '2024-02-09 08:00:00', '2024-02-09 07:00:00', '2024-02-09 06:00:00', '2024-02-09 05:00:00', '2024-02-09 04:00:00', '2024-02-09 03:00:00', '2024-02-09 02:00:00', '2024-02-09 01:00:00', '2024-02-09 00:00:00', '2024-02-08 23:00:00', '2024-02-08 22:00:00', '2024-02-08 21:00:00', '2024-02-08 20:00:00', '2024-02-08 19:00:00', '2024-02-08 18:00:00', '2024-02-08 17:00:00', '2024-02-08 16:00:00', '2024-02-08 15:00:00', '2024-02-08 14:00:00', '2024-02-08 13:00:00', '2024-02-08 12:30:00', '2024-02-08 12:00:00', '2024-02-08 11:30:00', '2024-02-08 11:00:00', '2024-02-08 10:00:00', '2024-02-08 09:00:00', '2024-02-08 08:00:00', '2024-02-08 07:00:00', '2024-02-08 06:00:00', '2024-02-08 05:00:00', '2024-02-08 04:00:00', '2024-02-08 03:00:00', '2024-02-08 02:00:00', '2024-02-08 01:00:00', '2024-02-08 00:00:00', '2024-02-07 22:00:00', '2024-02-07 21:00:00', '2024-02-07 18:00:00']"
Iran, Dayrestan Qeshm Island Airport (GSM/OIKQ) ,"['OIKQ 101600Z 00000KT CAVOK 19/12 Q1018', 'OIKQ 101500Z 27004KT CAVOK 20/13 Q1017 NOSIG', 'OIKQ 101400Z 24004KT CAVOK 22/15 Q1017 NOSIG', 'OIKQ 101300Z 23006KT CAVOK 23/15 Q1017 NOSIG', 'OIKQ 101200Z 23006KT 9999 FEW025 BKN200 23/15 Q1017 NOSIG', 'OIKQ 101100Z 23006KT 9999 FEW025 BKN200 24/15 Q1017 NOSIG', 'OIKQ 101000Z 22012KT 9999 FEW020 SCT200 24/16 Q1018 NOSIG', 'OIKQ 100900Z 23010KT 9999 FEW020 SCT200 24/17 Q1019 NOSIG', 'OIKQ 100800Z 20010KT 9999 FEW020 BKN200 23/17 Q1019 NOSIG', 'OIKQ 100700Z 00000KT 9999 FEW020 BKN200 23/17 Q1020 NOSIG', 'OIKQ 100600Z 33006KT 8000 NSC 21/17 Q1020 NOSIG', 'OIKQ 100500Z 00000KT 8000 NSC 18/15 Q1019 NOSIG', 'OIKQ 100400Z 00000KT 6000 FEW020 BKN200 13/10 Q1019 NOSIG', 'OIKQ 100300Z 00000KT 7000 FEW020 BKN200 14/10 Q1018', 'OIKQ 100200Z 00000KT 8000 NSC 14/10 Q1018', 'OIKQ 100100Z 00000KT 8000 NSC 15/11 Q1017', 'OIKQ 100000Z 00000KT 8000 NSC 15/11 Q1017', 'OIKQ 092300Z 00000KT 8000 NSC 16/11 Q1018', 'OIKQ 092200Z 00000KT 8000 NSC 16/11 Q1018', 'OIKQ 092100Z 00000KT 8000 NSC 17/12 Q1018', 'OIKQ 092000Z 32004KT 8000 NSC 18/12 Q1018', 'OIKQ 091900Z 27004KT 8000 NSC 18/12 Q1018', 'OIKQ 091800Z 29006KT 7000 NSC 18/13 Q1018', 'OIKQ 091700Z 30004KT 7000 NSC 19/13 Q1018', 'OIKQ 091600Z 27008KT 7000 NSC 20/14 Q1018', 'OIKQ 091500Z 25010KT 8000 NSC 21/15 Q1017 NOSIG', 'OIKQ 091400Z 25012KT 8000 NSC 22/15 Q1017 NOSIG', 'OIKQ 091300Z 24014KT CAVOK 23/16 Q1016 NOSIG', 'OIKQ 091200Z 24014KT 9999 FEW020 23/16 Q1017 NOSIG', 'OIKQ 091100Z 23012KT 9999 FEW020 24/17 Q1017 NOSIG', 'OIKQ 091000Z 23014KT 9999 SCT020 24/17 Q1018 NOSIG', 'OIKQ 090900Z 23010KT 9999 SCT020 23/17 Q1019 NOSIG', 'OIKQ 090800Z 28008KT 9999 SCT020 23/17 Q1020 NOSIG', 'OIKQ 090700Z 27006KT 9999 FEW020 22/17 Q1020', 'OIKQ 090600Z VRB04KT 9999 FEW020 21/16 Q1020 NOSIG', 'OIKQ 090500Z 00000KT 9999 FEW020 18/14 Q1019 NOSIG', 'OIKQ 090400Z 00000KT 7000 FEW020 13/09 Q1019 NOSIG', 'OIKQ 090300Z 33004KT 7000 FEW020 14/10 Q1018', 'OIKQ 090200Z 36004KT CAVOK 14/10 Q1017', 'OIKQ 090100Z 00000KT CAVOK 14/09 Q1017', 'OIKQ 090000Z 00000KT CAVOK 15/10 Q1017', 'OIKQ 082300Z 00000KT CAVOK 15/10 Q1017', 'OIKQ 082200Z 00000KT CAVOK 16/11 Q1018', 'OIKQ 082100Z 00000KT CAVOK 16/11 Q1018', 'OIKQ 082000Z 00000KT CAVOK 17/11 Q1018', 'OIKQ 081900Z 30004KT CAVOK 17/11 Q1019', 'OIKQ 081800Z 30004KT CAVOK 18/12 Q1019', 'OIKQ 081700Z 32004KT CAVOK 19/13 Q1019', 'OIKQ 081600Z 00000KT CAVOK 19/12 Q1018', 'OIKQ 081500Z 25010KT CAVOK 21/13 Q1018 NOSIG', 'OIKQ 081400Z 26010KT CAVOK 22/14 Q1018 NOSIG', 'OIKQ 081300Z 27012KT 9999 FEW025 23/14 Q1018 NOSIG', 'OIKQ 081200Z 22010KT 9999 FEW025 23/14 Q1018 NOSIG', 'OIKQ 081100Z 23012KT 9999 FEW025 24/15 Q1018 NOSIG', 'OIKQ 081000Z 23010KT 9999 SCT025 23/15 Q1019 NOSIG', 'OIKQ 080900Z 24008KT 9999 FEW025TCU 23/15 Q1020 NOSIG', 'OIKQ 080800Z 26010KT 9999 SCT025 23/15 Q1021 NOSIG', 'OIKQ 080700Z 25008KT 9999 FEW025 23/17 Q1022 NOSIG', 'OIKQ 080600Z 00000KT 9999 FEW025 21/16 Q1021 NOSIG', 'OIKQ 080500Z 00000KT 8000 FEW025 17/13 Q1021 NOSIG', 'OIKQ 080400Z 00000KT 8000 FEW025 13/08 Q1020 NOSIG', 'OIKQ 080300Z 00000KT 9999 FEW030 13/07 Q1020', 'OIKQ 080200Z 00000KT CAVOK 15/09 Q1019', 'OIKQ 080100Z 00000KT CAVOK 15/09 Q1019', 'OIKQ 080000Z 00000KT CAVOK 15/08 Q1019', 'OIKQ 072300Z 00000KT CAVOK 18/10 Q1019', 'OIKQ 072200Z 21008KT CAVOK 20/12 Q1019', 'OIKQ 072100Z 21006KT CAVOK 19/11 Q1019', 'OIKQ 072000Z 23006KT CAVOK 20/12 Q1019', 'OIKQ 071900Z 21010KT CAVOK 18/10 Q1020', 'OIKQ 071800Z 00000KT CAVOK 18/10 Q1020']","['2024-02-10 16:00:00', '2024-02-10 15:00:00', '2024-02-10 14:00:00', '2024-02-10 13:00:00', '2024-02-10 12:00:00', '2024-02-10 11:00:00', '2024-02-10 10:00:00', '2024-02-10 09:00:00', '2024-02-10 08:00:00', '2024-02-10 07:00:00', '2024-02-10 06:00:00', '2024-02-10 05:00:00', '2024-02-10 04:00:00', '2024-02-10 03:00:00', '2024-02-10 02:00:00', '2024-02-10 01:00:00', '2024-02-10 00:00:00', '2024-02-09 23:00:00', '2024-02-09 22:00:00', '2024-02-09 21:00:00', '2024-02-09 20:00:00', '2024-02-09 19:00:00', '2024-02-09 18:00:00', '2024-02-09 17:00:00', '2024-02-09 16:00:00', '2024-02-09 15:00:00', '2024-02-09 14:00:00', '2024-02-09 13:00:00', '2024-02-09 12:00:00', '2024-02-09 11:00:00', '2024-02-09 10:00:00', '2024-02-09 09:00:00', '2024-02-09 08:00:00', '2024-02-09 07:00:00', '2024-02-09 06:00:00', '2024-02-09 05:00:00', '2024-02-09 04:00:00', '2024-02-09 03:00:00', '2024-02-09 02:00:00', '2024-02-09 01:00:00', '2024-02-09 00:00:00', '2024-02-08 23:00:00', '2024-02-08 22:00:00', '2024-02-08 21:00:00', '2024-02-08 20:00:00', '2024-02-08 19:00:00', '2024-02-08 18:00:00', '2024-02-08 17:00:00', '2024-02-08 16:00:00', '2024-02-08 15:00:00', '2024-02-08 14:00:00', '2024-02-08 13:00:00', '2024-02-08 12:00:00', '2024-02-08 11:00:00', '2024-02-08 10:00:00', '2024-02-08 09:00:00', '2024-02-08 08:00:00', '2024-02-08 07:00:00', '2024-02-08 06:00:00', '2024-02-08 05:00:00', '2024-02-08 04:00:00', '2024-02-08 03:00:00', '2024-02-08 02:00:00', '2024-02-08 01:00:00', '2024-02-08 00:00:00', '2024-02-07 23:00:00', '2024-02-07 22:00:00', '2024-02-07 21:00:00', '2024-02-07 20:00:00', '2024-02-07 19:00:00', '2024-02-07 18:00:00']"
Iraq, Baghdad International Airport (BGW/ORBI) ,"['ORBI 101700Z 35007KT 9999 -RA OVC033 15/09 Q1019 NOSIG', 'ORBI 101600Z 09003KT 7000 OVC033 16/08 Q1019 NOSIG', 'ORBI 101500Z 09008KT 9000 OVC033 17/09 Q1018 NOSIG', 'ORBI 101400Z 08010KT 9999 OVC033 17/07 Q1017 NOSIG', 'ORBI 101300Z 09010KT 9999 SCT035 BKN100 17/08 Q1017 NOSIG', 'ORBI 101100Z 10012KT 7000 -RA BKN033 14/10 Q1018 NOSIG', 'ORBI 101000Z 11011KT 9000 -RA OVC033 15/09 Q1018 NOSIG', 'ORBI 100900Z 11014KT 9000 RA OVC033 15/09 Q1019 NOSIG', 'ORBI 100800Z 12009KT 9000 RA OVC033 15/10 Q1020 TEMBO RA', 'ORBI 100700Z 11007KT 080V140 9999 OVC033 17/06 Q1020 NOSIG', 'ORBI 100600Z 10013KT 9000 BKN033 17/07 Q1019 TEMPO RA', 'ORBI 100500Z 10013KT 9999 BKN030 17/07 Q1018 RERA NOSIG', 'ORBI 100400Z 08010KT 8000 OVC030 14/08 Q1019', 'ORBI 100300Z VRB02KT 8000 -RA OVC030 14/07 Q1020 NOSIG', 'ORBI 100200Z 31009KT 9999 BKN030 16/05 Q1019 NOSIG', 'ORBI 100100Z 12009KT 100V160 7000 BKN030 16/06 Q1017 NOSIG', 'ORBI 100000Z 09011KT 6000 -RA OVC030 14/06 Q1018 NOSIG', 'ORBI 092300Z 09005KT 9999 SCT030 16/04 Q1018 NOSIG', 'ORBI 092200Z 04005KT 9999 FEW040 15/04 Q1018 NOSIG', 'ORBI 092100Z 00000KT CAVOK 15/04 Q1018 NOSIG', 'ORBI 092000Z 11006KT CAVOK 17/05 Q1018 NOSIG', 'ORBI 091900Z 11008KT CAVOK 18/05 Q1018 NOSIG', 'ORBI 091800Z 12008KT CAVOK 18/05 Q1018 NOSIG', 'ORBI 091700Z 13007KT CAVOK 18/05 Q1018 NOSIG', 'ORBI 091605Z 12007KT CAVOK 19/05 Q1018 NOSIG', 'ORBI 091500Z 13006KT CAVOK 19/05 Q1018 NOSIG', 'ORBI 091400Z 15009KT CAVOK 21/05 Q1019 NOSIG', 'ORBI 091300Z 16006KT 100V190 9999 FEW040 BKN200 22/05 Q1019 NOSIG', 'ORBI 091200Z 09005KT CAVOK 22/04 Q1019 NOSIG', 'ORBI 091100Z 08004KT 360V160 CAVOK 22/04 Q1020 NOSIG', 'ORBI 091000Z 11005KT 050V150 CAVOK 22/05 Q1020 NOSIG', 'ORBI 090900Z 19005KT 130V230 CAVOK 21/06 Q1022 NOSIG', 'ORBI 090800Z 20006KT 170V230 8000 FEW040 BKN200 20/07 Q1022 NOSIG', 'ORBI 090700Z 16006KT 3500 HZ NSC 19/07 Q1023 NOSIG', 'ORBI 090600Z 15003KT 120V200 6000 NSC 16/07 Q1022 NOSIG', 'ORBI 090500Z 00000KT 6000 NSC 11/05 Q1022 NOSIG', 'ORBI 090400Z 20003KT 180V250 7000 NSC 09/04 Q1021 NOSIG', 'ORBI 090300Z 14002KT 8000 NSC 09/05 Q1021 NOSIG', 'ORBI 090200Z 16002KT 8000 NSC 09/06 Q1021 NOSIG', 'ORBI 090100Z 00000KT 8000 NSC 09/06 Q1021 NOSIG', 'ORBI 090000Z 06001KT 8000 NSC 10/04 Q1022 NOSIG', 'ORBI 082300Z 00000KT 9000 NSC 11/06 Q1022 NOSIG', 'ORBI 082200Z 00000KT 8000 NSC 10/04 Q1022 NOSIG', 'ORBI 082100Z 23003KT 7000 NSC 12/05 Q1023 NOSIG', 'ORBI 082000Z 05003KT 7000 NSC 13/07 Q1022 NOSIG', 'ORBI 081900Z 04002KT CAVOK 14/07 Q1023 NOSIG', 'ORBI 081800Z 34002KT CAVOK 13/05 Q1023 NOSIG', 'ORBI 081700Z 04003KT CAVOK 17/06 Q1023 NOSIG', 'ORBI 081600Z 02004KT CAVOK 18/07 Q1023 NOSIG', 'ORBI 081500Z 01004KT 9999 FEW030 19/06 Q1022 NOSIG', 'ORBI 081400Z 02004KT 9999 FEW030 21/05 Q1023 NOSIG', 'ORBI 081200Z VRB03KT 9999 FEW030 22/05 Q1023 NOSIG', 'ORBI 081100Z 29006KT 260V330 9999 FEW025 22/06 Q1024 NOSIG', 'ORBI 081000Z 30004KT 200V350 CAVOK 21/06 Q1025 NOSIG', 'ORBI 080900Z 23004KT 190V290 CAVOK 20/07 Q1026 NOSIG', 'ORBI 080800Z 23003KT 180V280 CAVOK 19/07 Q1026 NOSIG', 'ORBI 080700Z VRB02KT 7000 NSC 17/06 Q1026 NOSIG', 'ORBI 080601Z VRB02KT 5000 FU NSC 15/06 Q1026 NOSIG', 'ORBI 080500Z VRB02KT 4400 BR NSC 10/05 Q1026 NOSIG', 'ORBI 080400Z 00000KT 5000 BR NSC 07/05 Q1025 NOSIG', 'ORBI 080300Z 23001KT 6000 NSC 08/06 Q1025 NOSIG', 'ORBI 080200Z 24002KT 7000 NSC 08/05 Q1025 NOSIG', 'ORBI 080101Z 31003KT 7000 NSC 09/04 Q1025', 'ORBI 080000Z 36003KT 8000 NSC 09/05 Q1025 NOSIG', 'ORBI 072300Z VRB02KT CAVOK 09/05 Q1025 NOSIG', 'ORBI 072200Z 15002KT CAVOK 10/04 Q1025 NOSIG', 'ORBI 072100Z 24001KT CAVOK 10/05 Q1025 NOSIG', 'ORBI 072000Z 19005KT CAVOK 11/04 Q1025', 'ORBI 071901Z 00000KT CAVOK 12/04 Q1025 NOSIG', 'ORBI 071800Z 00000KT CAVOK 12/04 Q1025 NOSIG']","['2024-02-10 17:00:00', '2024-02-10 16:00:00', '2024-02-10 15:00:00', '2024-02-10 14:00:00', '2024-02-10 13:00:00', '2024-02-10 11:00:00', '2024-02-10 10:00:00', '2024-02-10 09:00:00', '2024-02-10 08:00:00', '2024-02-10 07:00:00', '2024-02-10 06:00:00', '2024-02-10 05:00:00', '2024-02-10 04:00:00', '2024-02-10 03:00:00', '2024-02-10 02:00:00', '2024-02-10 01:00:00', '2024-02-10 00:00:00', '2024-02-09 23:00:00', '2024-02-09 22:00:00', '2024-02-09 21:00:00', '2024-02-09 20:00:00', '2024-02-09 19:00:00', '2024-02-09 18:00:00', '2024-02-09 17:00:00', '2024-02-09 16:05:00', '2024-02-09 15:00:00', '2024-02-09 14:00:00', '2024-02-09 13:00:00', '2024-02-09 12:00:00', '2024-02-09 11:00:00', '2024-02-09 10:00:00', '2024-02-09 09:00:00', '2024-02-09 08:00:00', '2024-02-09 07:00:00', '2024-02-09 06:00:00', '2024-02-09 05:00:00', '2024-02-09 04:00:00', '2024-02-09 03:00:00', '2024-02-09 02:00:00', '2024-02-09 01:00:00', '2024-02-09 00:00:00', '2024-02-08 23:00:00', '2024-02-08 22:00:00', '2024-02-08 21:00:00', '2024-02-08 20:00:00', '2024-02-08 19:00:00', '2024-02-08 18:00:00', '2024-02-08 17:00:00', '2024-02-08 16:00:00', '2024-02-08 15:00:00', '2024-02-08 14:00:00', '2024-02-08 12:00:00', '2024-02-08 11:00:00', '2024-02-08 10:00:00', '2024-02-08 09:00:00', '2024-02-08 08:00:00', '2024-02-08 07:00:00', '2024-02-08 06:01:00', '2024-02-08 05:00:00', '2024-02-08 04:00:00', '2024-02-08 03:00:00', '2024-02-08 02:00:00', '2024-02-08 01:01:00', '2024-02-08 00:00:00', '2024-02-07 23:00:00', '2024-02-07 22:00:00', '2024-02-07 21:00:00', '2024-02-07 20:00:00', '2024-02-07 19:01:00', '2024-02-07 18:00:00']"
Iraq, Basra International Airport (BSR/ORMM) ,"['ORMM 101700Z 12012KT 9999 FEW030 SCT040 BKN100 19/10 Q1017 NOSIG', 'ORMM 101500Z 15016KT 9999 FEW030 SCT040 BKN100 21/08 Q1017 NOSIG', 'ORMM 101400Z 14010KT 9999 FEW040 SCT100 23/01 Q1017 NOSIG', 'ORMM 101300Z 13010KT 9999 FEW040 SCT100 24/M02 Q1017 NOSIG', 'ORMM 101200Z 16010KT 9999 FEW040 SCT100 24/M01 Q1017 NOSIG', 'ORMM 101100Z 15012KT 9999 FEW040 SCT100 25/00 Q1018 NOSIG', 'ORMM 101000Z 12010KT 9999 FEW040 SCT100 24/02 Q1019 NOSIG', 'ORMM 100900Z 12012KT 8000 FEW040 SCT100 24/03 Q1020 NOSIG', 'ORMM 100800Z 15008KT 6000 FEW040 SCT100 22/04 Q1020 NOSIG', 'ORMM 100800Z 15008KT 6000 FEW040 SCT100 22/04 Q1020 NOSIG', 'ORMM 100700Z 15004KT 5000 HZ FEW040 SCT100 18/04 Q1021 NOSIG', 'ORMM 100700Z 15004KT 5000 HZ FEW040 SCT100 18/04 Q1021 NOSIG', 'ORMM 100600Z 19004KT 5000 HZ FEW040 SCT100 15/05 Q1021 NOSIG', 'ORMM 100600Z 19004KT 5000 HZ FEW040 SCT100 15/05 Q1021 NOSIG', 'ORMM 100500Z 13005KT 7000 NSC 12/04 Q1020 NOSIG', 'ORMM 100400Z 14005KT 8000 NSC 09/03 Q1019 NOSIG', 'ORMM 100100Z 17004KT CAVOK 12/05 Q1018 NOSIG', 'ORMM 100000Z 15008KT CAVOK 12/05 Q1018 NOSIG', 'ORMM 092300Z 11004KT CAVOK 13/05 Q1019 NOSIG', 'ORMM 092300Z 11004KT CAVOK 13/05 Q1019 NOSIG', 'ORMM 092100Z VRB02KT CAVOK 15/05 Q1019 NOSIG', 'ORMM 092100Z VRB02KT CAVOK 15/05 Q1019 NOSIG', 'ORMM 092000Z 00000KT CAVOK 16/05 Q1020 NOSIG', 'ORMM 092000Z 00000KT CAVOK 16/05 Q1020 NOSIG', 'ORMM 091900Z 00000KT CAVOK 17/05 Q1020 NOSIG', 'ORMM 091700Z VRB02KT CAVOK 19/03 Q1019 NOSIG', 'ORMM 091700Z VRB02KT CAVOK 19/03 Q1019 NOSIG', 'ORMM 091600Z VRB02KT CAVOK 20/05 Q1019 NOSIG', 'ORMM 091600Z VRB02KT CAVOK 20/05 Q1019 NOSIG', 'ORMM 091500Z 36006KT CAVOK 21/05 Q1019 NOSIG', 'ORMM 091400Z 33008KT CAVOK 23/03 Q1019 NOSIG', 'ORMM 091200Z 34006KT CAVOK 23/04 Q1019 NOSIG', 'ORMM 091200Z 34006KT CAVOK 23/04 Q1019 NOSIG', 'ORMM 091100Z 01006KT CAVOK 23/04 Q1020 NOSIG', 'ORMM 091100Z 01006KT CAVOK 23/04 Q1020 NOSIG', 'ORMM 091000Z 35008KT CAVOK 22/04 Q1020 NOSIG', 'ORMM 091000Z 35008KT CAVOK 22/04 Q1020 NOSIG', 'ORMM 090900Z 33005KT CAVOK 21/06 Q1022 NOSIG', 'ORMM 090900Z 33005KT CAVOK 21/06 Q1022 NOSIG', 'ORMM 090800Z 27006KT CAVOK 20/06 Q1022 NOSIG', 'ORMM 090700Z 27005KT CAVOK 18/06 Q1023 NOSIG', 'ORMM 090600Z 26006KT CAVOK 14/03 Q1023 NOSIG', 'ORMM 090600Z 26006KT CAVOK 14/03 Q1023 NOSIG', 'ORMM 090500Z 25004KT CAVOK 10/04 Q1022 NOSIG', 'ORMM 090415Z 26004KT CAVOK 09/03 Q1021 NOSIG', 'ORMM 090315Z 26004KT CAVOK 09/03 Q1021 NOSIG', 'ORMM 090200Z 24004KT CAVOK 09/05 Q1022 NOSIG', 'ORMM 082300Z 25004KT CAVOK 11/05 Q1021 NOSIG', 'ORMM 082300Z 25004KT CAVOK 11/05 Q1021 NOSIG', 'ORMM 082200Z 25006KT CAVOK 12/05 Q1022 NOSIG', 'ORMM 082200Z 25006KT CAVOK 12/05 Q1022 NOSIG', 'ORMM 082100Z 25006KT CAVOK 12/07 Q1021 NOSIG', 'ORMM 082100Z 25006KT CAVOK 12/07 Q1021 NOSIG', 'ORMM 082000Z 29003KT CAVOK 14/07 Q1022 NOSIG', 'ORMM 082000Z 29003KT CAVOK 14/07 Q1022 NOSIG', 'ORMM 081900Z 29003KT CAVOK 14/07 Q1022 NOSIG', 'ORMM 081800Z 29004KT CAVOK 15/07 Q1022 NOSIG', 'ORMM 081800Z 29004KT CAVOK 15/07 Q1022 NOSIG', 'ORMM 081600Z 34004KT CAVOK 18/07 Q1021 NOSIG', 'ORMM 081600Z 34004KT CAVOK 18/07 Q1021 NOSIG', 'ORMM 081500Z 32008KT CAVOK 20/06 Q1021 NOSIG', 'ORMM 081500Z 32008KT CAVOK 20/06 Q1021 NOSIG', 'ORMM 081300Z 28012KT CAVOK 21/05 Q1021 NOSIG', 'ORMM 081300Z 28012KT CAVOK 21/05 Q1021 NOSIG', 'ORMM 081200Z 28014KT CAVOK 22/05 Q1022 NOSIG', 'ORMM 081200Z 28014KT CAVOK 22/05 Q1022 NOSIG', 'ORMM 081100Z 27012KT CAVOK 22/05 Q1022 NOSIG', 'ORMM 081100Z 27012KT CAVOK 22/05 Q1022 NOSIG', 'ORMM 081000Z 27012KT CAVOK 22/06 Q1024 NOSIG', 'ORMM 081000Z 27012KT CAVOK 22/06 Q1024 NOSIG', 'ORMM 080930Z 29010KT CAVOK 21/06 Q1024 NOSIG', 'ORMM 080700Z 29010KT CAVOK 16/05 Q1026 NOSIG', 'ORMM 080600Z 26004KT CAVOK 12/04 Q1026 NOSIG', 'ORMM 080600Z 26004KT CAVOK 12/04 Q1026 NOSIG', 'ORMM 080500Z 27004KT CAVOK 10/04 Q1026 NOSIG', 'ORMM 080400Z 27006KT CAVOK 08/03 Q1025 NOSIG', 'ORMM 080400Z 27006KT CAVOK 08/03 Q1025 NOSIG', 'ORMM 080300Z 27006KT CAVOK 09/04 Q1024 NOSIG', 'ORMM 080300Z 27006KT CAVOK 09/04 Q1024 NOSIG', 'ORMM 080000Z 27006KT CAVOK 10/05 Q1024 NOSIG', 'ORMM 072200Z 29008KT CAVOK 12/05 Q1024 NOSIG', 'ORMM 072200Z 29008KT CAVOK 12/05 Q1024 NOSIG', 'ORMM 072000Z 28007KT CAVOK 13/05 Q1024 NOSIG', 'ORMM 071900Z 29008KT CAVOK 13/05 Q1024 NOSIG', 'ORMM 071800Z 29008KT CAVOK 14/06 Q1024 NOSIG']","['2024-02-10 17:00:00', '2024-02-10 15:00:00', '2024-02-10 14:00:00', '2024-02-10 13:00:00', '2024-02-10 12:00:00', '2024-02-10 11:00:00', '2024-02-10 10:00:00', '2024-02-10 09:00:00', '2024-02-10 08:00:00', '2024-02-10 07:55:00', '2024-02-10 07:00:00', '2024-02-10 06:57:00', '2024-02-10 06:00:00', '2024-02-10 05:59:00', '2024-02-10 05:00:00', '2024-02-10 04:00:00', '2024-02-10 01:00:00', '2024-02-10 00:00:00', '2024-02-09 23:00:00', '2024-02-09 22:59:00', '2024-02-09 21:00:00', '2024-02-09 20:57:00', '2024-02-09 20:00:00', '2024-02-09 19:51:00', '2024-02-09 19:00:00', '2024-02-09 17:00:00', '2024-02-09 16:56:00', '2024-02-09 16:00:00', '2024-02-09 15:57:00', '2024-02-09 15:00:00', '2024-02-09 14:00:00', '2024-02-09 12:00:00', '2024-02-09 11:53:00', '2024-02-09 11:00:00', '2024-02-09 10:56:00', '2024-02-09 10:00:00', '2024-02-09 09:53:00', '2024-02-09 09:00:00', '2024-02-09 08:54:00', '2024-02-09 08:00:00', '2024-02-09 07:00:00', '2024-02-09 06:00:00', '2024-02-09 05:58:00', '2024-02-09 05:00:00', '2024-02-09 04:15:00', '2024-02-09 03:15:00', '2024-02-09 02:00:00', '2024-02-08 23:00:00', '2024-02-08 22:59:00', '2024-02-08 22:00:00', '2024-02-08 21:55:00', '2024-02-08 21:00:00', '2024-02-08 20:59:00', '2024-02-08 20:00:00', '2024-02-08 19:58:00', '2024-02-08 19:00:00', '2024-02-08 18:00:00', '2024-02-08 17:55:00', '2024-02-08 16:00:00', '2024-02-08 15:53:00', '2024-02-08 15:00:00', '2024-02-08 14:55:00', '2024-02-08 13:00:00', '2024-02-08 12:58:00', '2024-02-08 12:00:00', '2024-02-08 11:55:00', '2024-02-08 11:00:00', '2024-02-08 10:59:00', '2024-02-08 10:00:00', '2024-02-08 09:52:00', '2024-02-08 09:30:00', '2024-02-08 07:00:00', '2024-02-08 06:00:00', '2024-02-08 05:52:00', '2024-02-08 05:00:00', '2024-02-08 04:00:00', '2024-02-08 03:59:00', '2024-02-08 03:00:00', '2024-02-08 02:57:00', '2024-02-08 00:00:00', '2024-02-07 22:00:00', '2024-02-07 21:56:00', '2024-02-07 20:00:00', '2024-02-07 19:00:00', '2024-02-07 18:00:00']"
Iraq, Erbil International Airport (EBL/ORER) ,"['ORER 101700Z 24004KT CAVOK 10/07 Q1023', 'ORER 101600Z VRB02KT CAVOK 11/07 Q1022', 'ORER 101600Z VRB02KT CAVOK 11/07 Q1022', 'ORER 101500Z 02006KT 9000 FEW045 SCT080 13/08 Q1022', 'ORER 101400Z 34004KT 9999 FEW040 SCT070 16/09 Q1022', 'ORER 101300Z 32004KT 9999 FEW040 SCT070 19/06 Q1022', 'ORER 101300Z 32004KT 9999 FEW040 SCT070 19/06 Q1022', 'ORER 101100Z 18005KT 9000 SCT040 SCT098 17/05 Q1022', 'ORER 100900Z 14009KT 9000 FEW050 BKN090 19/04 Q1023', 'ORER 100700Z 12008KT 8000 FEW050 SCT110 16/04 Q1023', 'ORER 100600Z 00000KT 8000 BKN050 12/07 Q1023', 'ORER 100500Z 02004KT 8000 BKN040 10/07 Q1022', 'ORER 100400Z 34003KT 8000 BKN040 06/06 Q1022', 'ORER 100300Z 33004KT 8000 FEW040 07/07 Q1022', 'ORER 100200Z 33003KT 9000 FEW030 SCT080 07/07 Q1021', 'ORER 100200Z 33003KT 9000 FEW030 SCT080 07/07 Q1021', 'ORER 100100Z 34003KT 9000 FEW030 SCT080 08/08 Q1022', 'ORER 100000Z 31004KT 9000 FEW030 SCT080 07/07 Q1022', 'ORER 092100Z VRB02KT 8000 FEW040 SCT090 10/07 Q1022', 'ORER 091900Z 00000KT 8000 NSC 10/07 Q1022', 'ORER 091800Z 08003KT 9000 NSC 11/07 Q1022', 'ORER 091800Z 08003KT 9000 NSC 11/07 Q1022', 'ORER 091700Z VRB02KT 9000 FEW040 10/07 Q1022', 'ORER 091600Z VRB02KT 9000 FEW035 10/07 Q1022', 'ORER 091500Z 34004KT 9000 FEW035 12/09 Q1022', 'ORER 091400Z 35004KT 9000 FEW035 15/08 Q1022', 'ORER 091300Z 35004KT 9000 SCT035 16/06 Q1022', 'ORER 091300Z 35004KT 9000 SCT035 16/06 Q1022', 'ORER 091200Z 33004KT 8000 SCT035 17/07 Q1022', 'ORER 091100Z 35003KT 8000 FEW035 16/06 Q1023', 'ORER 090900Z 36003KT 7000 FEW035 15/08 Q1024', 'ORER 090900Z 36003KT 7000 FEW035 15/08 Q1024', 'ORER 090800Z 36004KT 6000 FEW040 12/09 Q1025', 'ORER 090700Z 01003KT 6000 NSC 12/08 Q1025', 'ORER 090600Z VRB02KT 4000 BR NSC 09/07 Q1025', 'ORER 090420Z 32004KT 1400 0800S MIFG NSC 04/04 Q1024', 'ORER 090400Z 34005KT 1500 0700N NSC 03/03 Q1024', 'ORER 090300Z 33003KT 6000 NSC 04/04 Q1024', 'ORER 090200Z VRB02KT 6000 NSC 05/05 Q1023', 'ORER 090100Z VRB01KT 6000 NSC 05/05 Q1024', 'ORER 082300Z 31004KT 2500 BR NSC 05/05 Q1025', 'ORER 082200Z VRB02KT 6000 NSC 06/06 Q1025', 'ORER 082100Z VRB01KT 7000 NSC 08/08 Q1025', 'ORER 082100Z VRB01KT 7000 NSC 08/08 Q1025', 'ORER 081900Z VRB02KT 7000 NSC 07/07 Q1025', 'ORER 081800Z VRB01KT 6000 NSC 08/07 Q1025', 'ORER 081700Z VRB02KT 7000 NSC 09/07 Q1025', 'ORER 081600Z 36003KT 7000 NSC 10/08 Q1025', 'ORER 081400Z VRB02KT 9000 FEW040 14/07 Q1025', 'ORER 081300Z 00000KT 9000 FEW035 15/07 Q1026', 'ORER 081200Z 25003KT 210V020 9000 FEW035 SCT100 15/07 Q1026', 'ORER 081100Z VRB01KT 9000 FEW030 SCT080 15/06 Q1027', 'ORER 081000Z VRB02KT 9000 FEW030 SCT080 14/07 Q1027', 'ORER 080900Z 32004KT 6000 FEW030 SCT045 12/08 Q1028', 'ORER 080900Z 32004KT 6000 FEW030 SCT045 12/08 Q1028', 'ORER 080800Z 00000KT 4000 BR FEW030 SCT050 11/07 Q1028', 'ORER 080800Z 00000KT 4000 BR FEW030 SCT050 11/07 Q1028', 'ORER 080700Z 00000KT 3000 BR FEW030 SCT050 10/06 Q1028', 'ORER 080600Z VRB02KT 2500 BR FEW030 SCT050 08/08 Q1028', 'ORER 080600Z VRB02KT 2500 BR FEW030 SCT050 08/08 Q1028', 'ORER 080430Z VRB01KT 2000 BR NSC 03/03 Q1028', 'ORER 080400Z VRB02KT 3000 BR NSC 03/03 Q1027', 'ORER 080400Z VRB02KT 3000 BR NSC 03/03 Q1027', 'ORER 080300Z VRB01KT 4000 BR NSC 03/03 Q1027', 'ORER 080230Z 00000KT 4000 BR NSC 04/04 Q1027', 'ORER 080100Z VRB01KT 4500 BR NSC 06/06 Q1027', 'ORER 072300Z VRB02KT 6000 NSC 06/06 Q1027', 'ORER 072200Z VRB02KT 6000 NSC 07/07 Q1027', 'ORER 072100Z 04003KT 8000 NSC 07/07 Q1028', 'ORER 072100Z 04003KT 8000 NSC 07/07 Q1028', 'ORER 072000Z VRB02KT 7000 NSC 07/07 Q1028', 'ORER 071900Z VRB02KT 7000 NSC 07/06 Q1028', 'ORER 071800Z 02003KT 7000 NSC 08/07 Q1027']","['2024-02-10 17:00:00', '2024-02-10 16:00:00', '2024-02-10 15:57:00', '2024-02-10 15:00:00', '2024-02-10 14:00:00', '2024-02-10 13:00:00', '2024-02-10 12:59:00', '2024-02-10 11:00:00', '2024-02-10 09:00:00', '2024-02-10 07:00:00', '2024-02-10 06:00:00', '2024-02-10 05:00:00', '2024-02-10 04:00:00', '2024-02-10 03:00:00', '2024-02-10 02:00:00', '2024-02-10 01:59:00', '2024-02-10 01:00:00', '2024-02-10 00:00:00', '2024-02-09 21:00:00', '2024-02-09 19:00:00', '2024-02-09 18:00:00', '2024-02-09 17:59:00', '2024-02-09 17:00:00', '2024-02-09 16:00:00', '2024-02-09 15:00:00', '2024-02-09 14:00:00', '2024-02-09 13:00:00', '2024-02-09 12:58:00', '2024-02-09 12:00:00', '2024-02-09 11:00:00', '2024-02-09 09:00:00', '2024-02-09 08:59:00', '2024-02-09 08:00:00', '2024-02-09 07:00:00', '2024-02-09 06:00:00', '2024-02-09 04:20:00', '2024-02-09 04:00:00', '2024-02-09 03:00:00', '2024-02-09 02:00:00', '2024-02-09 01:00:00', '2024-02-08 23:00:00', '2024-02-08 22:00:00', '2024-02-08 21:00:00', '2024-02-08 20:59:00', '2024-02-08 19:00:00', '2024-02-08 18:00:00', '2024-02-08 17:00:00', '2024-02-08 16:00:00', '2024-02-08 14:00:00', '2024-02-08 13:00:00', '2024-02-08 12:00:00', '2024-02-08 11:00:00', '2024-02-08 10:00:00', '2024-02-08 09:00:00', '2024-02-08 08:59:00', '2024-02-08 08:00:00', '2024-02-08 07:58:00', '2024-02-08 07:00:00', '2024-02-08 06:00:00', '2024-02-08 05:59:00', '2024-02-08 04:30:00', '2024-02-08 04:00:00', '2024-02-08 03:59:00', '2024-02-08 03:00:00', '2024-02-08 02:30:00', '2024-02-08 01:00:00', '2024-02-07 23:00:00', '2024-02-07 22:00:00', '2024-02-07 21:00:00', '2024-02-07 20:59:00', '2024-02-07 20:00:00', '2024-02-07 19:00:00', '2024-02-07 18:00:00']"
Iraq, Al Najaf International Airport (NJF/ORNI) ,"['ORNI 101700Z 03009KT 6000 OVC040 18/09 Q1017', 'ORNI 101600Z 02011KT 5000 HZ OVC040 18/08 Q1018', 'ORNI 101400Z 04011KT 6000 -RA OVC040 17/09 Q1017', 'ORNI 101300Z 34010KT 6000 OVC040 17/08 Q1017', 'ORNI 101000Z 01005KT 7000 OVC040 18/07 Q1018', 'ORNI 100900Z 06010KT 7000 OVC040 17/07 Q1018', 'ORNI 100800Z 06011KT 7000 OVC040 15/07 Q1019', 'ORNI 100700Z 00000KT 6000 OVC040 15/07 Q1020', 'ORNI 100600Z 02007KT 6000 OVC040 14/07 Q1020', 'ORNI 100500Z 08007KT 6000 RA BKN040 14/06 Q1019', 'ORNI 100400Z 13007KT 7000 BKN040 14/04 Q1018', 'ORNI 100200Z 10005KT 8000 BKN040 15/03 Q1017', 'ORNI 100100Z 13012KT 7000 BKN040 16/03 Q1017', 'ORNI 092300Z 12008KT 7000 BKN040 16/04 Q1017', 'ORNI 092200Z 12008KT 8000 BKN040 15/04 Q1017', 'ORNI 092100Z 11008KT 8000 FEW040 15/04 Q1017', 'ORNI 091900Z 11006KT 8000 FEW040 16/04 Q1018', 'ORNI 091800Z 11006KT 8000 FEW040 16/04 Q1018', 'ORNI 091500Z 08006KT 8000 BKN040 20/05 Q1018', 'ORNI 091400Z 08006KT 8000 BKN040 21/05 Q1018', 'ORNI 091300Z 11007KT 8000 BKN040 22/04 Q1019', 'ORNI 091100Z 14005KT 8000 SCT040 22/03 Q1020', 'ORNI 090900Z 15010KT 8000 NSC 21/07 Q1022', 'ORNI 090800Z 17005KT 8000 NSC 19/06 Q1023', 'ORNI 090600Z 00000KT 7000 NSC 13/05 Q1023', 'ORNI 090500Z 00000KT 7000 NSC 08/05 Q1022', 'ORNI 090400Z 00000KT 7000 NSC 08/03 Q1022', 'ORNI 090300Z 23005KT 7000 NSC 08/03 Q1021', 'ORNI 090200Z 00000KT 7000 NSC 08/04 Q1021', 'ORNI 090100Z 00000KT 7000 NSC 08/04 Q1021', 'ORNI 090000Z 00000KT 7000 NSC 09/03 Q1022', 'ORNI 082300Z 00000KT 7000 NSC 09/03 Q1022', 'ORNI 082200Z 00000KT 7000 NSC 09/04 Q1022', 'ORNI 082100Z 23005KT 8000 NSC 11/03 Q1022', 'ORNI 082000Z 00000KT 8000 NSC 13/02 Q1022', 'ORNI 081900Z 00000KT 7000 NSC 13/04 Q1023', 'ORNI 081800Z 00000KT 8000 NSC 13/03 Q1023', 'ORNI 081300Z 36005KT CAVOK 22/02 Q1023', 'ORNI 081200Z 30006KT CAVOK 22/02 Q1023', 'ORNI 081100Z 29006KT CAVOK 22/02 Q1024', 'ORNI 081000Z 29006KT CAVOK 21/02 Q1025', 'ORNI 080900Z 26007KT CAVOK 20/02 Q1026', 'ORNI 080800Z 29007KT CAVOK 19/01 Q1027', 'ORNI 080700Z 27008KT 7000 NSC 17/01 Q1027', 'ORNI 080600Z 24004KT 6000 NSC 13/03 Q1027', 'ORNI 080400Z 00000KT 6000 NSC 07/04 Q1026', 'ORNI 080300Z 00000KT 6000 NSC 08/03 Q1025', 'ORNI 080100Z 00000KT 7000 NSC 09/04 Q1025', 'ORNI 080000Z 00000KT 7000 NSC 10/04 Q1025', 'ORNI 072300Z 00000KT 7000 NSC 11/05 Q1025', 'ORNI 072200Z 00000KT 7000 NSC 11/05 Q1025', 'ORNI 072100Z 22003KT 7000 NSC 10/03 Q1025', 'ORNI 072000Z 00000KT 7000 NSC 12/06 Q1025', 'ORNI 071900Z 00000KT 7000 NSC 12/04 Q1025', 'ORNI 071800Z 00000KT 7000 NSC 15/06 Q1025']","['2024-02-10 17:00:00', '2024-02-10 15:57:00', '2024-02-10 14:00:00', '2024-02-10 12:59:00', '2024-02-10 09:56:00', '2024-02-10 09:00:00', '2024-02-10 07:55:00', '2024-02-10 06:57:00', '2024-02-10 05:59:00', '2024-02-10 04:54:00', '2024-02-10 03:56:00', '2024-02-10 01:59:00', '2024-02-10 00:56:00', '2024-02-09 22:59:00', '2024-02-09 21:59:00', '2024-02-09 21:00:00', '2024-02-09 19:00:00', '2024-02-09 17:59:00', '2024-02-09 15:00:00', '2024-02-09 14:00:00', '2024-02-09 12:58:00', '2024-02-09 11:00:00', '2024-02-09 08:59:00', '2024-02-09 07:57:00', '2024-02-09 05:58:00', '2024-02-09 05:00:00', '2024-02-09 03:58:00', '2024-02-09 02:55:00', '2024-02-09 01:57:00', '2024-02-09 01:00:00', '2024-02-09 00:00:00', '2024-02-08 22:59:00', '2024-02-08 22:00:00', '2024-02-08 21:00:00', '2024-02-08 19:58:00', '2024-02-08 19:00:00', '2024-02-08 18:00:00', '2024-02-08 12:58:00', '2024-02-08 12:00:00', '2024-02-08 10:59:00', '2024-02-08 10:00:00', '2024-02-08 08:59:00', '2024-02-08 07:58:00', '2024-02-08 07:00:00', '2024-02-08 05:59:00', '2024-02-08 03:59:00', '2024-02-08 02:57:00', '2024-02-08 00:57:00', '2024-02-08 00:00:00', '2024-02-07 22:38:00', '2024-02-07 22:00:00', '2024-02-07 20:59:00', '2024-02-07 19:56:00', '2024-02-07 19:00:00', '2024-02-07 18:00:00']"
Iraq, Sulaimaniyah International Airport (ISU/ORSU) ,"['ORSU 101700Z 30006KT CAVOK 10/08 Q1023', 'ORSU 101600Z 05003KT CAVOK 12/08 Q1023', 'ORSU 101500Z VRB02KT CAVOK 12/07 Q1023', 'ORSU 101400Z 14004KT 9999 FEW045 SCT180 13/06 Q1023', 'ORSU 101300Z 15006KT 9999 FEW045 BKN180 16/04 Q1023', 'ORSU 101200Z 12006KT 9999 FEW045 BKN180 16/05 Q1023', 'ORSU 101100Z 15004KT 9999 FEW045 BKN180 15/06 Q1023', 'ORSU 101000Z 10006KT 9999 FEW045 SCT080 BKN180 14/06 Q1023', 'ORSU 100900Z 13008KT 9999 FEW045 SCT080 BKN180 13/06 Q1024', 'ORSU 100800Z 15006KT 9999 FEW045 SCT070 BKN180 13/07 Q1024', 'ORSU 100700Z VRB01KT 9999 FEW045 SCT070 BKN180 10/08 Q1024', 'ORSU 100600Z VRB02KT 9999 FEW045 BKN080 BKN180 09/09 Q1024', 'ORSU 100500Z 26005KT 9999 FEW045 BKN070 07/07 Q1024', 'ORSU 100400Z 34003KT 9999 SCT045 BKN070 06/06 Q1023', 'ORSU 100300Z 20004KT 9999 FEW045 BKN070 05/05 Q1023', 'ORSU 100200Z 02004KT 9999 FEW045 BKN070 06/06 Q1022', 'ORSU 100100Z 24004KT 9999 FEW045 SCT070 05/05 Q1022', 'ORSU 100000Z 34004KT 8000 SCT045 BKN070 07/07 Q1023', 'ORSU 092300Z 27004KT 7000 FEW045 BKN070 06/06 Q1023', 'ORSU 092200Z 30004KT 8000 FEW045 BKN070 06/06 Q1023', 'ORSU 092100Z 34003KT 8000 FEW045 BKN080 BKN200 06/06 Q1023', 'ORSU 092000Z 32003KT CAVOK 05/05 Q1023', 'ORSU 091900Z 29003KT CAVOK 05/05 Q1023', 'ORSU 091800Z 33006KT CAVOK 05/05 Q1023', 'ORSU 091700Z VRB02KT CAVOK 06/05 Q1023', 'ORSU 091600Z VRB02KT CAVOK 07/04 Q1022', 'ORSU 091500Z VRB02KT 9999 FEW045 BKN180 11/06 Q1022', 'ORSU 091400Z VRB02KT 9999 FEW045 BKN180 14/05 Q1022', 'ORSU 091300Z 17004KT 9999 SCT045 BKN180 15/04 Q1022', 'ORSU 091200Z VRB02KT 9999 SCT045 SCT180 15/05 Q1022', 'ORSU 091100Z VRB02KT 8000 SCT045 SCT180 15/06 Q1023', 'ORSU 091000Z 14004KT 8000 SCT045 SCT180 14/07 Q1024', 'ORSU 090900Z 14004KT 6000 FEW045 BKN180 13/08 Q1025', 'ORSU 090800Z 12004KT 6000 FEW045 BKN180 11/08 Q1025', 'ORSU 090700Z VRB02KT 6000 FEW045 BKN200 08/08 Q1025', 'ORSU 090600Z VRB02KT 6000 NSC 06/06 Q1026', 'ORSU 090500Z VRB02KT 4000 BR NSC 01/01 Q1025', 'ORSU 090400Z 29003KT 3000 BR NSC 00/00 Q1024', 'ORSU 090300Z 31003KT 2000 BR NSC 00/00 Q1024', 'ORSU 090200Z 30005KT 1500 BR NSC 00/00 Q1024', 'ORSU 090100Z 30005KT 4000 BR NSC 01/01 Q1024', 'ORSU 090000Z 30005KT 5000 BR NSC 01/01 Q1025', 'ORSU 082300Z 31005KT 5000 BR NSC 01/01 Q1025', 'ORSU 082100Z 30004KT 8000 NSC 02/02 Q1025', 'ORSU 082000Z 31005KT 8000 NSC 03/03 Q1025', 'ORSU 081900Z 29004KT CAVOK 04/04 Q1026', 'ORSU 081800Z 26003KT CAVOK 05/05 Q1025', 'ORSU 081700Z 33004KT CAVOK 06/06 Q1025', 'ORSU 081600Z VRB02KT CAVOK 07/05 Q1025', 'ORSU 081500Z 27005KT CAVOK 09/07 Q1025', 'ORSU 081400Z 34004KT 8000 SCT040 13/06 Q1025', 'ORSU 081300Z 32008KT 8000 BKN045 14/06 Q1025', 'ORSU 081200Z VRB02KT 8000 BKN045 14/06 Q1025', 'ORSU 081100Z VRB02KT 8000 BKN045 13/06 Q1026', 'ORSU 081000Z 20005KT 8000 FEW045 13/05 Q1027', 'ORSU 080900Z 14004KT 7000 FEW045 13/06 Q1027', 'ORSU 080800Z 16004KT 6000 FEW045 11/07 Q1028', 'ORSU 080700Z VRB02KT 6000 FEW045 09/09 Q1028', 'ORSU 080600Z 31003KT 4000 BR NSC 06/06 Q1028', 'ORSU 080500Z 28005KT 4000 BR NSC 01/01 Q1028', 'ORSU 080400Z 32005KT 3500 BR NSC 00/00 Q1028', 'ORSU 080300Z 34005KT 5000 BR NSC 01/01 Q1027', 'ORSU 080200Z 02005KT 5000 BR NSC 03/03 Q1027', 'ORSU 080100Z 34003KT 4000 BR NSC 01/01 Q1027', 'ORSU 080000Z VRB02KT 8000 NSC 04/04 Q1027', 'ORSU 072300Z VRB02KT 8000 NSC 05/05 Q1027', 'ORSU 072200Z 30004KT 8000 NSC 04/04 Q1028', 'ORSU 072100Z VRB02KT 8000 NSC 04/04 Q1028', 'ORSU 072000Z 30004KT 7000 NSC 03/03 Q1028', 'ORSU 071900Z 30005KT 4000 NSC 02/02 Q1028', 'ORSU 071800Z 29004KT 7000 NSC 04/04 Q1027']","['2024-02-10 17:00:00', '2024-02-10 16:00:00', '2024-02-10 15:00:00', '2024-02-10 14:00:00', '2024-02-10 13:00:00', '2024-02-10 12:00:00', '2024-02-10 11:00:00', '2024-02-10 10:00:00', '2024-02-10 09:00:00', '2024-02-10 08:00:00', '2024-02-10 07:00:00', '2024-02-10 06:00:00', '2024-02-10 05:00:00', '2024-02-10 04:00:00', '2024-02-10 03:00:00', '2024-02-10 02:00:00', '2024-02-10 01:00:00', '2024-02-10 00:00:00', '2024-02-09 23:00:00', '2024-02-09 22:00:00', '2024-02-09 21:00:00', '2024-02-09 20:00:00', '2024-02-09 19:00:00', '2024-02-09 18:00:00', '2024-02-09 17:00:00', '2024-02-09 15:57:00', '2024-02-09 15:00:00', '2024-02-09 14:00:00', '2024-02-09 13:00:00', '2024-02-09 12:00:00', '2024-02-09 11:00:00', '2024-02-09 10:00:00', '2024-02-09 08:59:00', '2024-02-09 08:00:00', '2024-02-09 07:00:00', '2024-02-09 06:00:00', '2024-02-09 05:00:00', '2024-02-09 04:00:00', '2024-02-09 03:00:00', '2024-02-09 02:00:00', '2024-02-09 01:00:00', '2024-02-09 00:00:00', '2024-02-08 23:00:00', '2024-02-08 21:00:00', '2024-02-08 20:00:00', '2024-02-08 19:00:00', '2024-02-08 18:00:00', '2024-02-08 17:00:00', '2024-02-08 16:00:00', '2024-02-08 15:00:00', '2024-02-08 14:00:00', '2024-02-08 13:00:00', '2024-02-08 12:00:00', '2024-02-08 11:00:00', '2024-02-08 10:00:00', '2024-02-08 08:59:00', '2024-02-08 08:00:00', '2024-02-08 07:00:00', '2024-02-08 06:00:00', '2024-02-08 05:00:00', '2024-02-08 04:00:00', '2024-02-08 03:00:00', '2024-02-08 02:00:00', '2024-02-08 01:00:00', '2024-02-08 00:00:00', '2024-02-07 23:00:00', '2024-02-07 22:00:00', '2024-02-07 21:00:00', '2024-02-07 20:00:00', '2024-02-07 19:00:00', '2024-02-07 18:00:00']"
Ireland, Cork Airport (ORK/EICK) ,"['EICK 101630Z 34013KT 6000 -SHRA BKN006 BKN020 08/07 Q0980 TEMPO 3000', 'EICK 101600Z 33013KT 9999 -SHRA SCT008 SCT018CB BKN024 08/07 Q0979 TEMPO 3000', 'EICK 101530Z 32010KT 9999 SCT008 SCT018CB BKN024 08/07 Q0979 TEMPO 3000', 'EICK 101500Z 35010KT 9999 -SHRA FEW008 SCT018CB BKN023 08/07 Q0978 TEMPO 3000', 'EICK 101430Z 35013KT 9999 SCT008 SCT018CB BKN023 09/07 Q0978 TEMPO 3000', 'EICK 101400Z 01014KT 9999 SCT008 SCT018CB BKN023 09/08 Q0977 TEMPO 3000', 'EICK 101330Z 35010KT 9999 FEW007 SCT018CB BKN023 08/07 Q0977 TEMPO 3000', 'EICK 101300Z 36013KT 9999 SCT007 SCT018CB BKN022 08/07 Q0976 TEMPO 3000', 'EICK 101230Z 01006KT 9999 BKN006 BKN020 09/08 Q0976 TEMPO 3000', 'EICK 101200Z 04008KT 9999 SCT005 SCT018CB BKN021 08/08 Q0975 TEMPO 3000', 'EICK 101130Z 35006KT 9000 BKN006 BKN020 08/07 Q0975 TEMPO 3000', 'EICK 101100Z 04007KT 9999 -SHRA SCT018CB BKN022 08/08 Q0975 TEMPO 3000', 'EICK 101030Z 05008KT 6000 -SHRA BKN003 BKN018 08/08 Q0974 TEMPO 3000', 'EICK 101000Z 04005KT 5000 -SHRA SCT004 SCT018CB BKN022 08/07 Q0974 TEMPO BKN005', 'EICK 100930Z 04007KT 5000 -SHRA BKN003 BKN020 08/08 Q0974 TEMPO BKN010', 'EICK 100900Z 06010KT 7000 BKN003 07/07 Q0973 TEMPO BKN010', 'EICK 100830Z 06009KT 3500 -SHRA BKN004 BKN020 07/07 Q0973 TEMPO BKN010', 'EICK 100800Z 08008KT 8000 -SHRA SCT004 SCT018CB BKN021 08/07 Q0972 TEMPO BKN010', 'EICK 100730Z 11006KT 9000 -RA BKN004 08/07 Q0972 TEMPO BKN010', 'EICK 100700Z 11007KT 3000 -RA BKN004 08/07 Q0971 TEMPO 6000', 'EICK 100630Z 12008KT 9000 BKN005 07/07 Q0971 TEMPO BKN015', 'EICK 100600Z 12011KT 9999 BKN004 FEW016CB 07/07 Q0971 TEMPO BKN015', 'EICK 100530Z 14014KT 6000 -SHRA BKN004 BKN016CB 08/07 Q0970 BECMG 9999 BKN015', 'EICK 100500Z 13012KT 3000 -SHRA FEW004 BKN005 BKN016CB 08/07 Q0970 BECMG 9999 BKN015', 'EICK 100430Z 12012KT 2000 SHRA SCT004 BKN005 BKN016CB 07/07 Q0970 BECMG 9999 BKN015', 'EICK 100400Z 13011KT 6000 -SHRA SCT004 BKN006 SCT018CB 07/07 Q0970 TEMPO BKN015', 'EICK 100330Z 14012KT 9999 BKN006 FEW018CB 07/07 Q0970 TEMPO BKN015', 'EICK 100300Z 13013KT 9999 BKN007 FEW018CB 07/07 Q0971 TEMPO BKN015', 'EICK 100230Z 15014KT 9999 -SHRA BKN012 BKN016 07/06 Q0971 NOSIG', 'EICK 100200Z 15016KT 9999 BKN012 BKN016 07/06 Q0971 NOSIG', 'EICK 100130Z 15015KT 9999 BKN015 BKN025 07/06 Q0971 NOSIG', 'EICK 100100Z 15015KT 9999 BKN015 BKN030 07/06 Q0971 NOSIG', 'EICK 100030Z 15013KT 9999 FEW009 BKN017 BKN032 07/06 Q0972 NOSIG', 'EICK 100000Z 16014KT 9999 FEW016 BKN018 BKN032 07/05 Q0972 NOSIG', 'EICK 092330Z 16013KT 9999 FEW016 SCT019 BKN030 07/05 Q0972 NOSIG', 'EICK 092300Z 16013KT 9999 FEW016 BKN020 BKN030 07/05 Q0972 NOSIG', 'EICK 092230Z 16012KT 9999 FEW016 SCT020 06/05 Q0972 NOSIG', 'EICK 092200Z 16012KT 9999 FEW016 BKN019 07/05 Q0972 NOSIG', 'EICK 092130Z 17012KT 9999 FEW018 SCT020 06/05 Q0972 NOSIG', 'EICK 092100Z 16009KT 9999 SCT018 06/05 Q0973 NOSIG', 'EICK 092030Z 17006KT 9999 FEW017 05/04 Q0972 NOSIG', 'EICK 092000Z 17006KT 9999 FEW017 05/04 Q0973 NOSIG', 'EICK 091930Z 17006KT 9999 FEW017 05/04 Q0973 NOSIG', 'EICK 091900Z 18007KT 9999 FEW017 05/04 Q0973 NOSIG', 'EICK 091830Z 18006KT 9999 FEW017 06/04 Q0973 NOSIG', 'EICK 091800Z 20004KT 160V230 9999 FEW017 06/04 Q0972 NOSIG', 'EICK 091730Z 20006KT 9999 FEW017 07/05 Q0972 NOSIG', 'EICK 091700Z 21009KT 9999 FEW018 08/05 Q0972 NOSIG', 'EICK 091630Z 22011KT 9999 FEW018 08/05 Q0972 NOSIG', 'EICK 091600Z 22008KT 9999 FEW018 09/06 Q0972 NOSIG', 'EICK 091530Z 24011KT 200V270 9999 VCSH FEW017 BKN020 07/05 Q0972 NOSIG', 'EICK 091500Z 23009KT 9999 FEW018 SCT028 10/06 Q0972 NOSIG', 'EICK 091430Z 23011KT 9999 VCSH FEW017 BKN030 09/06 Q0972 NOSIG', 'EICK 091400Z 23009KT 200V260 9999 FEW018 SCT030 10/06 Q0972 NOSIG', 'EICK 091330Z 22011KT 9999 VCSH FEW018 BKN020 09/06 Q0973 NOSIG', 'EICK 091300Z 23010KT 9999 SCT017 SCT023 09/06 Q0972 NOSIG', 'EICK 091230Z 24008KT 210V280 9999 FEW015 SCT024 09/06 Q0972 NOSIG', 'EICK 091200Z 24009KT 220V280 9999 FEW013 SCT018 BKN024 09/06 Q0973 NOSIG', 'EICK 091130Z 24011KT 9999 SCT010 SCT018 08/06 Q0973 NOSIG', 'EICK 091100Z 24008KT 9999 FEW005 SCT010 09/06 Q0973 NOSIG', 'EICK 091030Z 24010KT 9999 FEW003 SCT010 08/06 Q0972 NOSIG', 'EICK 091000Z 24010KT 9999 FEW003 SCT200 08/07 Q0972 NOSIG', 'EICK 090930Z 24008KT 8000 FEW002 SCT004 BKN015 07/07 Q0972 BECMG 9999 BKN020', 'EICK 090900Z 24008KT 6000 FEW001 BKN003 BKN010 08/08 Q0972 BECMG 9999 BKN020', 'EICK 090830Z 23008KT 6000 -DZ FEW001 BKN003 BKN006 08/08 Q0971 BECMG 9999 BKN020', 'EICK 090800Z 23005KT 1200 R16/P2000 R34/1200U -DZ FEW002 BKN004 BKN008 09/09 Q0971 TEMPO 3000', 'EICK 090730Z 22004KT 0800 R16/1200D R34/0800N FG FEW002 BKN004 09/09 Q0971 TEMPO 3000', 'EICK 090700Z 23003KT 1600 BR BKN003 09/09 Q0970 TEMPO 0500 FG', 'EICK 090630Z 28002KT 1200 R16/1400D R34/P2000 BR BKN003 09/09 Q0970 TEMPO 0500 FG', 'EICK 090600Z 35001KT 2000 BR BKN008 09/09 Q0970 TEMPO 0500 FG', 'EICK 090530Z 32002KT 0900 R16/0800N R34/P2000 FG OVC001 09/09 Q0970 NOSIG', 'EICK 090500Z 31001KT 0900 R16/1700N R34/1200D FG OVC001 09/09 Q0970 NOSIG', 'EICK 090430Z 28001KT 0600 R16/1100N R34/0700N FG OVC001 09/09 Q0970 NOSIG', 'EICK 090400Z 21001KT 1600 BR SCT002 BKN020 09/09 Q0970 TEMPO 0500', 'EICK 090330Z 09001KT 1600 BR SCT002 BKN020 09/09 Q0970 TEMPO 0500', 'EICK 090300Z 34001KT 0800 R16/0900N R34/1600U FG OVC001 09/09 Q0970 NOSIG', 'EICK 090230Z 00000KT 0600 R16/0700N R34/0800N -RA FG OVC001 09/09 Q0970 NOSIG', 'EICK 090200Z 17002KT 0600 R16/0750N R34/0600N FG OVC001 09/09 Q0970 NOSIG', 'EICK 090130Z 21002KT 0800 R16/0900N R34/1000N FG OVC001 09/09 Q0970 NOSIG', 'EICK 090100Z 18003KT 0600 R16/0700N R34/0900U FG OVC001 09/09 Q0970 NOSIG', 'EICK 090030Z 17004KT 0500 R16/0600N R34/0600N FG OVC001 09/09 Q0970 NOSIG', 'EICK 090000Z 16004KT 0600 R16/0900N R34/0750N FG OVC001 09/09 Q0970 NOSIG', 'EICK 082330Z 17004KT 0600 R16/0800N R34/0800N FG OVC001 09/09 Q0970 TEMPO 1500', 'EICK 082300Z 15005KT 0400 R16/0550N R34/0550N FG OVC001 09/09 Q0971 TEMPO 1500', 'EICK 082230Z 14005KT 0400 R16/0550N R34/0450N FG OVC001 09/09 Q0971 TEMPO 1500', 'EICK 082200Z 11006KT 0400 R16/0500N R34/0500N -RA FG OVC001 09/09 Q0971 TEMPO 1500', 'EICK 082130Z 08006KT 0400 R16/0500N R34/0500U FG OVC001 09/09 Q0971 TEMPO 1500', 'EICK 082100Z 09008KT 0500 R16/1000D R34/0600N -RA FG OVC001 09/09 Q0971 TEMPO 1500', 'EICK 082030Z 07009KT 2000 -RA BKN002 09/09 Q0972 TEMPO 0600 FG', 'EICK 082000Z 09007KT 1200 R16/P2000 R34/1600D -RA BKN002 09/09 Q0972 NOSIG', 'EICK 081930Z 09007KT 0600 R16/1200D R34/0650D FG OVC001 10/09 Q0972 NOSIG', 'EICK 081900Z 10009KT 0400 R16/0600N R34/0400N FG OVC001 10/10 Q0973 NOSIG', 'EICK 081830Z 10008KT 0400 R16/0500N R34/0450N FG SCT001 OVC002 10/10 Q0973 NOSIG', 'EICK 081800Z 12006KT 0400 R16/0550N R34/0500N FG SCT001 OVC002 10/10 Q0973 NOSIG', 'EICK 081730Z 11007KT 0500 R16/0650N R34/0650U FG OVC002 10/10 Q0974 NOSIG', 'EICK 081700Z 11009KT 0500 R16/1800U R34/0750D -RA FG OVC002 10/10 Q0974 NOSIG', 'EICK 081630Z 14008KT 0600 R16/1400D R34/0900N -RA FG OVC002 10/10 Q0975 NOSIG', 'EICK 081600Z 15008KT 0900 R16/P2000 R34/P2000 FG OVC002 10/10 Q0976 NOSIG', 'EICK 081530Z 17007KT 1500 BR BKN002 10/10 Q0976 TEMPO 0800 FG', 'EICK 081500Z 18008KT 4000 BR BKN003 10/10 Q0977 TEMPO 2000', 'EICK 081430Z 18008KT 7000 BKN005 BKN009 10/10 Q0977 NOSIG', 'EICK 081400Z 19008KT 9999 BKN004 BKN014 11/10 Q0978 NOSIG', 'EICK 081330Z 20010KT 6000 BKN002 BKN003 10/10 Q0978 TEMPO 0800 FG', 'EICK 081300Z 20013KT 4000 BR OVC002 10/10 Q0979 TEMPO 0800 FG', 'EICK 081230Z 20013KT 0900 R16/1700U R34/1600D FG -RA OVC002 10/10 Q0979 NOSIG', 'EICK 081200Z 20009KT 0800 R16/1600D R34/1100U FG -RA OVC002 10/10 Q0980 NOSIG', 'EICK 081130Z 12007KT 0800 R16/1800U R34/0750D -RA FG FEW001 OVC002 09/09 Q0980 TEMPO BKN001', 'EICK 081100Z 12009KT 0500 R16/1000N R34/0550N -RA FG FEW001 OVC002 08/08 Q0980 TEMPO BKN001', 'EICK 081030Z 11006KT 0500 R16/0550N R34/0400N FG FEW001 BKN002 09/09 Q0981 TEMPO BKN001', 'EICK 081000Z 11006KT 0500 R16/1100N R34/0650N FG FEW001 BKN002 09/09 Q0981 TEMPO BKN001', 'EICK 080930Z 12006KT 0300 R16/0400N R34/0400N FG FEW001 BKN002 09/09 Q0981 TEMPO BKN001', 'EICK 080900Z 11004KT 0400 R16/0550N R34/0450N FG FEW001 BKN002 08/08 Q0982 TEMPO BKN001', 'EICK 080830Z 10006KT 0600 R16/1900D R34/0700N FG FEW001 BKN002 08/08 Q0982 TEMPO BKN001', 'EICK 080800Z 09007KT 1100 R16/P2000 R34/1300D BR FEW001 OVC003 08/08 Q0982 TEMPO 0800 FG BKN001', 'EICK 080730Z 10007KT 1800 -DZ FEW002 OVC003 08/08 Q0982 NOSIG', 'EICK 080700Z 09008KT 2000 -RA FEW002 BKN003 BKN006 08/08 Q0983 TEMPO 4000 BKN008', 'EICK 080630Z 10007KT 2000 -RA FEW002 BKN003 BKN009 07/07 Q0983 RERA TEMPO 4000 BKN008', 'EICK 080600Z 09013KT 2000 RA SCT003 BKN008 BKN014 07/07 Q0983 BECMG 5000 -RA', 'EICK 080530Z 09014KT 3000 RA FEW004 BKN006 BKN012 08/07 Q0983 BECMG 5000 -RA', 'EICK 080500Z 13011G22KT 030V180 2000 RA FEW002 BKN003 BKN014 08/07 Q0984 BECMG 4000 -RA', 'EICK 080430Z 10022KT 2000 RA FEW002 BKN003 07/07 Q0985 BECMG 4000 -RA', 'EICK 080400Z 09021KT 4000 RA SCT002 BKN003 06/06 Q0985 TEMPO 2000', 'EICK 080330Z 09022KT 4000 RA SCT002 BKN003 06/06 Q0986 TEMPO 2000', 'EICK 080300Z 09021KT 4000 RA SCT002 BKN003 06/06 Q0988 TEMPO 2000', 'EICK 080230Z 09022KT 4000 RA FEW002 BKN003 06/05 Q0989 TEMPO 2000', 'EICK 080200Z 10021G31KT 5000 RA SCT003 BKN004 05/05 Q0990 TEMPO 2000', 'EICK 080130Z 10021KT 4000 RA FEW003 BKN004 BKN012 05/05 Q0991 TEMPO 2000', 'EICK 080100Z 10021KT 6000 -RA FEW003 BKN004 BKN010 05/05 Q0993 RERA TEMPO 4000', 'EICK 080030Z 11018KT 5000 RA FEW005 BKN008 BKN012 05/05 Q0994 NOSIG', 'EICK 080000Z 10022KT 4000 -RA FEW005 BKN007 BKN012 06/05 Q0994 RERA NOSIG', 'EICK 072330Z 11019KT 9999 -RA FEW013 BKN018 06/03 Q0996 TEMPO BKN013', 'EICK 072300Z 10020KT 9999 SCT016 BKN020 06/03 Q0996 TEMPO BKN013', 'EICK 072230Z 11018G29KT 9999 BKN016 BKN024 06/03 Q0997 TEMPO BKN013', 'EICK 072200Z 10020G30KT 9999 SCT013 BKN050 06/04 Q0997 TEMPO BKN013', 'EICK 072130Z 10017KT 9999 -RA BKN012 BKN030 06/04 Q0998 TEMPO BKN018', 'EICK 072100Z 10015KT 9999 -RA SCT013 BKN018 BKN033 06/04 Q0999 NOSIG', 'EICK 072030Z 10014KT 9999 FEW014 SCT033 BKN050 06/03 Q1000 NOSIG', 'EICK 072000Z 10012KT 9999 -RA BKN015 BKN040 05/03 Q1000 NOSIG', 'EICK 071930Z 09009KT 9999 BKN015 BKN030 05/03 Q1001 NOSIG', 'EICK 071900Z 09009KT 9999 FEW015 BKN035 05/03 Q1001 NOSIG', 'EICK 071830Z 09009KT 9999 FEW015 BKN035 05/03 Q1002 NOSIG', 'EICK 071800Z 10009KT 9999 FEW015 BKN040 05/03 Q1002 NOSIG', 'EICK 071730Z 09011KT 9999 BKN040 06/03 Q1003 NOSIG']","['2024-02-10 16:30:00', '2024-02-10 16:00:00', '2024-02-10 15:30:00', '2024-02-10 15:00:00', '2024-02-10 14:30:00', '2024-02-10 14:00:00', '2024-02-10 13:30:00', '2024-02-10 13:00:00', '2024-02-10 12:30:00', '2024-02-10 12:00:00', '2024-02-10 11:30:00', '2024-02-10 11:00:00', '2024-02-10 10:30:00', '2024-02-10 10:00:00', '2024-02-10 09:30:00', '2024-02-10 09:00:00', '2024-02-10 08:30:00', '2024-02-10 08:00:00', '2024-02-10 07:30:00', '2024-02-10 07:00:00', '2024-02-10 06:30:00', '2024-02-10 06:00:00', '2024-02-10 05:30:00', '2024-02-10 05:00:00', '2024-02-10 04:30:00', '2024-02-10 04:00:00', '2024-02-10 03:30:00', '2024-02-10 03:00:00', '2024-02-10 02:30:00', '2024-02-10 02:00:00', '2024-02-10 01:30:00', '2024-02-10 01:00:00', '2024-02-10 00:30:00', '2024-02-10 00:00:00', '2024-02-09 23:30:00', '2024-02-09 23:00:00', '2024-02-09 22:30:00', '2024-02-09 22:00:00', '2024-02-09 21:30:00', '2024-02-09 21:00:00', '2024-02-09 20:30:00', '2024-02-09 20:00:00', '2024-02-09 19:30:00', '2024-02-09 19:00:00', '2024-02-09 18:30:00', '2024-02-09 18:00:00', '2024-02-09 17:30:00', '2024-02-09 17:00:00', '2024-02-09 16:30:00', '2024-02-09 16:00:00', '2024-02-09 15:30:00', '2024-02-09 15:00:00', '2024-02-09 14:30:00', '2024-02-09 14:00:00', '2024-02-09 13:30:00', '2024-02-09 13:00:00', '2024-02-09 12:30:00', '2024-02-09 12:00:00', '2024-02-09 11:30:00', '2024-02-09 11:00:00', '2024-02-09 10:30:00', '2024-02-09 10:00:00', '2024-02-09 09:30:00', '2024-02-09 09:00:00', '2024-02-09 08:30:00', '2024-02-09 08:00:00', '2024-02-09 07:30:00', '2024-02-09 07:00:00', '2024-02-09 06:30:00', '2024-02-09 06:00:00', '2024-02-09 05:30:00', '2024-02-09 05:00:00', '2024-02-09 04:30:00', '2024-02-09 04:00:00', '2024-02-09 03:30:00', '2024-02-09 03:00:00', '2024-02-09 02:30:00', '2024-02-09 02:00:00', '2024-02-09 01:30:00', '2024-02-09 01:00:00', '2024-02-09 00:30:00', '2024-02-09 00:00:00', '2024-02-08 23:30:00', '2024-02-08 23:00:00', '2024-02-08 22:30:00', '2024-02-08 22:00:00', '2024-02-08 21:30:00', '2024-02-08 21:00:00', '2024-02-08 20:30:00', '2024-02-08 20:00:00', '2024-02-08 19:30:00', '2024-02-08 19:00:00', '2024-02-08 18:30:00', '2024-02-08 18:00:00', '2024-02-08 17:30:00', '2024-02-08 17:00:00', '2024-02-08 16:30:00', '2024-02-08 16:00:00', '2024-02-08 15:30:00', '2024-02-08 15:00:00', '2024-02-08 14:30:00', '2024-02-08 14:00:00', '2024-02-08 13:30:00', '2024-02-08 13:00:00', '2024-02-08 12:30:00', '2024-02-08 12:00:00', '2024-02-08 11:30:00', '2024-02-08 11:00:00', '2024-02-08 10:30:00', '2024-02-08 10:00:00', '2024-02-08 09:30:00', '2024-02-08 09:00:00', '2024-02-08 08:30:00', '2024-02-08 08:00:00', '2024-02-08 07:30:00', '2024-02-08 07:00:00', '2024-02-08 06:30:00', '2024-02-08 06:00:00', '2024-02-08 05:30:00', '2024-02-08 05:00:00', '2024-02-08 04:30:00', '2024-02-08 04:00:00', '2024-02-08 03:30:00', '2024-02-08 03:00:00', '2024-02-08 02:30:00', '2024-02-08 02:00:00', '2024-02-08 01:30:00', '2024-02-08 01:00:00', '2024-02-08 00:30:00', '2024-02-08 00:00:00', '2024-02-07 23:30:00', '2024-02-07 23:00:00', '2024-02-07 22:30:00', '2024-02-07 22:00:00', '2024-02-07 21:30:00', '2024-02-07 21:00:00', '2024-02-07 20:30:00', '2024-02-07 20:00:00', '2024-02-07 19:30:00', '2024-02-07 19:00:00', '2024-02-07 18:30:00', '2024-02-07 18:00:00', '2024-02-07 17:30:00']"
Ireland, Donegal Airport (CFN/EIDL) ,"['EIDL 101630Z 15007KT 9999 BKN024 BKN029 08/04 Q0982', 'EIDL 101600Z 18005KT 9999 FEW020 BKN023 BKN029 08/04 Q0982', 'EIDL 101530Z 17004KT 9999 BKN023 09/04 Q0982', 'EIDL 101500Z 16005KT 9999 SCT019 BKN026 08/04 Q0982', 'EIDL 101430Z 16004KT 9999 SCT017 BKN023 BKN026 08/04 Q0982', 'EIDL 101400Z 16006KT 9999 SCT017 09/04 Q0982', 'EIDL 101330Z 16005KT 140V200 9999 BKN017 08/03 Q0981', 'EIDL 101300Z 19005KT 150V210 9999 BKN016 08/04 Q0981', 'EIDL 101230Z 16005KT 140V200 CAVOK 08/03 Q0981', 'EIDL 101200Z 16009KT CAVOK 07/04 Q0981', 'EIDL 101130Z 16008KT 9999 FEW012 07/03 Q0980', 'EIDL 101100Z 16008KT 9999 FEW012 BKN040 BKN048 07/04 Q0980', 'EIDL 101030Z 16009KT 9999 FEW010 BKN013 BKN044 07/04 Q0980', 'EIDL 101000Z 17006KT 150V210 9999 BKN009 BKN032 OVC044 07/05 Q0980', 'EIDL 100930Z 16007KT 9999 -RA SCT011 BKN018 06/05 Q0979', 'EIDL 100900Z 12003KT 090V150 9999 -RA FEW008 BKN012 06/04 Q0979', 'EIDL 100830Z 00000KT 9999 FEW008 SCT033 06/04 Q0979', 'EIDL 100800Z 10006KT 9999 BKN027 06/05 Q0978', 'EIDL 091930Z 09012KT 9999 SCT018 05/02 Q0975', 'EIDL 091900Z 08013KT 9999 BKN019 06/02 Q0975', 'EIDL 091830Z 09016KT 9999 SCT021 06/01 Q0974', 'EIDL 091800Z 09016KT 9999 BKN021 06/01 Q0975', 'EIDL 091730Z 07014KT 9999 -RA OVC021 06/01 Q0975', 'EIDL 091700Z 07014KT 9999 -RA BKN021 BKN025 06/01 Q0975', 'EIDL 091630Z 07010KT 9999 -RA OVC020 06/01 Q0975', 'EIDL 091600Z 05009KT 9999 -RA BKN019 05/01 Q0975', 'EIDL 091530Z 05010G20KT 010V080 9999 -RA SCT020 06/01 Q0974', 'EIDL 091500Z 09015KT 050V160 9999 -RA FEW019 06/01 Q0974', 'EIDL 091430Z 07018G28KT 020V100 9999 -RA FEW025 06/01 Q0974', 'EIDL 091400Z 08015KT 030V120 9999 -RA FEW023 05/02 Q0974', 'EIDL 091330Z 07016KT 040V100 9999 -RA NSC 06/01 Q0975', 'EIDL 091300Z 09016KT 060V120 9999 -RA NSC 05/02 Q0975', 'EIDL 091230Z 09014KT 060V130 9999 -RA NSC 05/01 Q0975', 'EIDL 091200Z 09015KT 9999 -RA NSC 05/01 Q0975', 'EIDL 091130Z 10019KT 9999 -RA NSC 05/00 Q0975', 'EIDL 091100Z 11017KT 9999 -RA NSC 05/01 Q0975', 'EIDL 091030Z 11019KT 9999 -RA FEW047 05/01 Q0975', 'EIDL 091000Z 10009KT 340V150 9999 -RA FEW019 OVC049 05/01 Q0975', 'EIDL 090930Z 11015KT 9999 -RA BKN046 04/01 Q0975', 'EIDL 090900Z 11015G28KT 080V140 9999 -RA SCT047 04/01 Q0974', 'EIDL 090830Z 11017G27KT 9999 -RA SCT049 04/01 Q0974', 'EIDL 090800Z 12013KT 090V150 9999 -RA FEW049 04/01 Q0974', 'EIDL 090730Z 12015G25KT 9999 -RA NSC 04/01 Q0974', 'EIDL 082000Z 10013G24KT 070V130 9999 BKN019 OVC045 04/M01 Q0980', 'EIDL 081930Z 09018KT 9999 SCT019 OVC046 04/M01 Q0980', 'EIDL 081900Z 10017G28KT 070V130 9999 BKN020 OVC046 04/M01 Q0980', 'EIDL 081830Z 09019KT 9999 SCT021 OVC046 03/M00 Q0980', 'EIDL 081800Z 09021KT 9999 -RA FEW020 OVC048 03/M00 Q0981', 'EIDL 081700Z 10023KT 9999 -RA SCT018 SCT048 03/00 Q0981', 'EIDL 081630Z 10022G33KT 9999 SCT018 03/00 Q0982', 'EIDL 081600Z 10019G29KT 9999 FEW017 BKN020 03/M01 Q0982', 'EIDL 081530Z 09016G26KT 060V130 9999 BKN020 03/M00 Q0983', 'EIDL 081500Z 09015G29KT 060V130 9999 -RA SCT021 03/M00 Q0984', 'EIDL 081430Z 09021G33KT 060V120 9999 -RA SCT020 BKN028 OVC043 03/M00 Q0984', 'EIDL 081400Z 09018KT 9999 -RA SCT021 03/00 Q0985', 'EIDL 081330Z 09018KT 9999 -RA BKN023 03/00 Q0985', 'EIDL 081300Z 07016KT 040V120 9999 -RA OVC023 03/00 Q0986', 'EIDL 081230Z 09015G25KT 9999 -RA BKN022 03/M00 Q0987', 'EIDL 081200Z 09018KT 9999 -RA FEW018 BKN023 02/M01 Q0988', 'EIDL 081130Z 10010KT 050V140 9999 -RA FEW014 BKN021 OVC028 02/M01 Q0989', 'EIDL 081100Z VRB05KT 9999 -RA BKN017 OVC039 02/M02 Q0989', 'EIDL 081030Z 08012KT 9999 -RA BKN023 03/M02 Q0989', 'EIDL 081000Z 09017KT 060V120 9999 SCT026 03/M01 Q0990', 'EIDL 080930Z 09018G28KT 070V130 9999 SCT031 03/M01 Q0990', 'EIDL 080900Z 10017KT 9999 FEW049 03/M01 Q0991', 'EIDL 080830Z 10017KT 070V130 CAVOK 03/M01 Q0991', 'EIDL 080800Z 09020KT CAVOK 04/M01 Q0991', 'EIDL 080730Z 09020KT CAVOK 04/M01 Q0991', 'EIDL 071930Z 11006KT CAVOK 03/M01 Q1004', 'EIDL 071900Z 10009G44KT 040V160 CAVOK 04/M01 Q1005', 'EIDL 071830Z 09012KT CAVOK 04/M01 Q1005', 'EIDL 071800Z 07008KT CAVOK 04/M01 Q1005', 'EIDL 071730Z 10004G30KT 050V150 CAVOK 04/M00 Q1005']","['2024-02-10 16:30:00', '2024-02-10 16:00:00', '2024-02-10 15:30:00', '2024-02-10 15:00:00', '2024-02-10 14:30:00', '2024-02-10 14:00:00', '2024-02-10 13:30:00', '2024-02-10 13:00:00', '2024-02-10 12:30:00', '2024-02-10 12:00:00', '2024-02-10 11:30:00', '2024-02-10 11:00:00', '2024-02-10 10:30:00', '2024-02-10 10:00:00', '2024-02-10 09:30:00', '2024-02-10 09:00:00', '2024-02-10 08:30:00', '2024-02-10 08:00:00', '2024-02-09 19:30:00', '2024-02-09 19:00:00', '2024-02-09 18:30:00', '2024-02-09 18:00:00', '2024-02-09 17:30:00', '2024-02-09 17:00:00', '2024-02-09 16:30:00', '2024-02-09 16:00:00', '2024-02-09 15:30:00', '2024-02-09 15:00:00', '2024-02-09 14:30:00', '2024-02-09 14:00:00', '2024-02-09 13:30:00', '2024-02-09 13:00:00', '2024-02-09 12:30:00', '2024-02-09 12:00:00', '2024-02-09 11:30:00', '2024-02-09 11:00:00', '2024-02-09 10:30:00', '2024-02-09 10:00:00', '2024-02-09 09:30:00', '2024-02-09 09:00:00', '2024-02-09 08:30:00', '2024-02-09 08:00:00', '2024-02-09 07:30:00', '2024-02-08 20:00:00', '2024-02-08 19:30:00', '2024-02-08 19:00:00', '2024-02-08 18:30:00', '2024-02-08 18:00:00', '2024-02-08 17:00:00', '2024-02-08 16:30:00', '2024-02-08 16:00:00', '2024-02-08 15:30:00', '2024-02-08 15:00:00', '2024-02-08 14:30:00', '2024-02-08 14:00:00', '2024-02-08 13:30:00', '2024-02-08 13:00:00', '2024-02-08 12:30:00', '2024-02-08 12:00:00', '2024-02-08 11:30:00', '2024-02-08 11:00:00', '2024-02-08 10:30:00', '2024-02-08 10:00:00', '2024-02-08 09:30:00', '2024-02-08 09:00:00', '2024-02-08 08:30:00', '2024-02-08 08:00:00', '2024-02-08 07:30:00', '2024-02-07 19:30:00', '2024-02-07 19:00:00', '2024-02-07 18:30:00', '2024-02-07 18:00:00', '2024-02-07 17:30:00']"
Ireland, Dublin Airport (DUB/EIDW) ,"['EIDW 101630Z 07006KT 9999 FEW013 SCT037 BKN090 08/06 Q0982 NOSIG', 'EIDW 101600Z 08006KT 9999 VCSH FEW013 SCT036 BKN100 08/06 Q0982 NOSIG', 'EIDW 101530Z 09007KT 9999 FEW013 SCT036 BKN110 09/05 Q0981 NOSIG', 'EIDW 101500Z 11007KT 090V160 9999 FEW013 SCT030 BKN110 09/05 Q0981 NOSIG', 'EIDW 101430Z 12007KT 090V160 9999 VCSH FEW011 SCT013 BKN030 09/06 Q0981 NOSIG', 'EIDW 101400Z 13009KT 100V160 9999 SCT011 BKN013 BKN015 09/06 Q0981 NOSIG', 'EIDW 101330Z 13009KT 100V160 9999 SCT010 BKN012 BKN016 09/06 Q0980 NOSIG', 'EIDW 101300Z 12008KT 090V160 9999 FEW008 BKN011 BKN013 09/06 Q0980 TEMPO -SHRA BKN010', 'EIDW 101230Z 14009KT 100V180 9999 FEW008 SCT010 BKN012 09/07 Q0980 TEMPO -SHRA BKN010', 'EIDW 101200Z 13009KT 100V170 9999 FEW007 SCT009 BKN011 09/07 Q0980 TEMPO -SHRA BKN010', 'EIDW 101130Z 14008KT 110V180 9999 FEW007 BKN010 09/06 Q0980 TEMPO -SHRA BKN010', 'EIDW 101100Z 12009KT 100V160 9999 FEW007 SCT009 09/07 Q0980 TEMPO -SHRA BKN010', 'EIDW 101030Z 14010KT 9999 VCSH FEW007 SCT009 08/07 Q0979 BECMG BKN015', 'EIDW 101000Z 14008KT 100V160 9999 -SHRA FEW007 BKN009 07/07 Q0979 BECMG BKN015', 'EIDW 100930Z VRB03KT 9999 -SHRA FEW007 BKN009 FEW018CB 06/06 Q0979 BECMG BKN015', 'EIDW 100900Z 12004KT 080V170 9999 VCSH FEW007 SCT009 FEW018CB 05/05 Q0979 NOSIG', 'EIDW 100830Z 10004KT 9999 VCSH FEW010 SCT016 FEW018CB 02/02 Q0978 NOSIG', 'EIDW 100800Z 10003KT 9999 VCSH FEW010 SCT016 FEW018CB 02/01 Q0978 NOSIG', 'EIDW 100730Z 11004KT 9999 -RADZ FEW010 SCT016 03/02 Q0978 NOSIG', 'EIDW 100700Z 12003KT 9999 FEW010 SCT024 02/02 Q0977 NOSIG', 'EIDW 100630Z 10003KT 9999 FEW012 SCT021 02/02 Q0977 NOSIG', 'EIDW 100600Z 11004KT 9999 FEW011 02/02 Q0977 NOSIG', 'EIDW 100530Z 11004KT 080V140 9999 FEW008 SCT038 02/02 Q0977 NOSIG', 'EIDW 100500Z 09005KT 9999 FEW007 SCT011 BKN022 02/01 Q0976 NOSIG', 'EIDW 100430Z 10005KT 9999 FEW007 01/01 Q0976 NOSIG', 'EIDW 100400Z 11004KT 9999 FEW008 01/01 Q0976 NOSIG', 'EIDW 100330Z VRB03KT 9999 FEW010 02/01 Q0976 NOSIG', 'EIDW 100300Z 14004KT 9999 FEW010 01/01 Q0976 NOSIG', 'EIDW 100230Z VRB03KT 9999 FEW010 02/02 Q0976 NOSIG', 'EIDW 100200Z 14004KT 9999 FEW005 01/01 Q0976 NOSIG', 'EIDW 100130Z 14004KT 100V170 9999 FEW005 02/01 Q0976 NOSIG', 'EIDW 100100Z 13002KT 9999 FEW008 02/01 Q0976 NOSIG', 'EIDW 100030Z VRB01KT 9999 FEW010 03/02 Q0976 NOSIG', 'EIDW 100000Z 15003KT 9999 FEW015 SCT050 05/04 Q0975 NOSIG', 'EIDW 092330Z 15004KT 9999 FEW015 SCT022 BKN048 06/06 Q0975 NOSIG', 'EIDW 092300Z 15005KT 110V170 9999 FEW012 SCT017 BKN042 06/06 Q0975 NOSIG', 'EIDW 092230Z 13005KT 080V170 9999 FEW005 SCT017 BKN042 06/05 Q0975 NOSIG', 'EIDW 092200Z 13005KT 100V180 9999 FEW005 SCT017 BKN036 06/06 Q0975 NOSIG', 'EIDW 092130Z 11004KT 9999 FEW005 SCT008 BKN020 06/06 Q0975 TEMPO 3000', 'EIDW 092100Z VRB02KT 9999 FEW005 SCT007 BKN018 06/06 Q0974 TEMPO 3000', 'EIDW 092030Z VRB02KT 9999 FEW005 BKN007 BKN016 06/06 Q0974 TEMPO 3000', 'EIDW 092000Z 13002KT 6000 -DZ FEW007 SCT009 BKN011 06/06 Q0974 NOSIG', 'EIDW 091930Z 10003KT 9999 SCT007 BKN011 06/06 Q0974 NOSIG', 'EIDW 091900Z VRB03KT 9999 FEW005 BKN007 06/06 Q0974 NOSIG', 'EIDW 091830Z VRB03KT 9999 FEW004 BKN007 06/06 Q0974 TEMPO 3000', 'EIDW 091800Z 06005KT 020V100 8000 FEW003 SCT005 BKN007 06/06 Q0973 TEMPO 3000', 'EIDW 091730Z 05005KT 020V080 7000 FEW003 BKN005 06/06 Q0973 TEMPO 3000', 'EIDW 091700Z 04006KT 010V090 7000 -DZ FEW004 BKN006 BKN009 06/06 Q0973 NOSIG', 'EIDW 091630Z 04006KT 010V110 4000 -RA FEW004 SCT005 BKN007 06/06 Q0973 NOSIG', 'EIDW 091600Z 05006KT 6000 -RA SCT004 SCT005 BKN006 06/06 Q0973 TEMPO 4000', 'EIDW 091530Z 06008KT 5000 -RADZ FEW003 BKN005 BKN007 06/06 Q0973 TEMPO 4000', 'EIDW 091500Z 05007KT 020V100 9999 FEW005 SCT007 BKN008 06/06 Q0973 TEMPO 4000', 'EIDW 091430Z 05008KT 9999 FEW007 BKN008 07/05 Q0973 TEMPO 4000', 'EIDW 091400Z 06009KT 9999 FEW006 BKN009 06/05 Q0973 TEMPO 4000', 'EIDW 091330Z 06008KT 8000 FEW006 SCT008 BKN009 06/05 Q0973 TEMPO 4000', 'EIDW 091300Z 07010KT 9999 FEW006 BKN008 06/05 Q0973 TEMPO 4000', 'EIDW 091230Z 06009KT 7000 FEW005 BKN007 06/05 Q0973 TEMPO 3000', 'EIDW 091200Z 07008KT 040V110 7000 -DZ FEW005 SCT007 BKN008 06/05 Q0974 TEMPO 3000', 'EIDW 091130Z 07009KT 4500 -RADZ BR FEW004 BKN005 BKN006 06/05 Q0974 TEMPO 3000', 'EIDW 091100Z 06010KT 4000 -DZ BR FEW006 BKN009 BKN011 06/05 Q0974 TEMPO 3000', 'EIDW 091030Z 07010KT 5000 -DZ FEW006 BKN008 06/05 Q0974 TEMPO 4000', 'EIDW 091000Z 07010KT 7000 FEW006 BKN007 06/05 Q0974 TEMPO 4000', 'EIDW 090930Z 07010KT 9999 -DZ FEW006 BKN007 06/05 Q0974 TEMPO 4000', 'EIDW 090900Z 07011KT 030V090 9999 FEW006 BKN007 06/05 Q0974 TEMPO 4000', 'EIDW 090830Z 07012KT 9999 FEW006 BKN008 06/05 Q0973 TEMPO 4000', 'EIDW 090800Z 08014KT 9999 -RA FEW004 SCT005 BKN006 06/05 Q0973 TEMPO 4000', 'EIDW 090730Z 08014KT 9999 FEW004 SCT005 BKN006 06/05 Q0973 TEMPO 4000', 'EIDW 090700Z 08014KT 9999 FEW004 SCT005 BKN006 06/05 Q0973 TEMPO 4000', 'EIDW 090630Z 08015KT 9999 FEW004 SCT006 BKN007 06/05 Q0973 TEMPO 4000', 'EIDW 090600Z 08016KT 9999 -RA FEW004 SCT005 BKN006 05/05 Q0973 TEMPO 4000', 'EIDW 090530Z 08014KT 9999 -RA FEW004 SCT005 BKN006 05/05 Q0973 TEMPO 4000', 'EIDW 090500Z 08016KT 9999 -RA FEW004 SCT005 BKN006 05/05 Q0973 TEMPO 4000', 'EIDW 090430Z 07017KT 6000 -RA FEW003 SCT004 BKN006 05/05 Q0973 TEMPO 4000', 'EIDW 090400Z 08015KT 9999 -RA FEW004 SCT006 BKN007 05/05 Q0973 TEMPO 4000', 'EIDW 090330Z 08014KT 9999 -RA FEW003 SCT005 BKN006 05/05 Q0973 TEMPO 4000', 'EIDW 090300Z 08017KT 9999 -RA FEW003 SCT005 BKN006 05/05 Q0974 TEMPO 4000', 'EIDW 090230Z 08016KT 5000 -RA FEW003 SCT004 BKN006 05/05 Q0974 TEMPO 1500', 'EIDW 090200Z 08017KT 6000 -RA FEW003 SCT004 BKN006 05/05 Q0974 TEMPO 1500', 'EIDW 090130Z 08016KT 5000 -RA FEW002 SCT003 BKN005 05/05 Q0974 TEMPO 1500', 'EIDW 090100Z 08018KT 2500 RA FEW002 SCT003 BKN004 05/05 Q0974 TEMPO 1500', 'EIDW 090030Z 09017KT 2500 -RA BR FEW002 SCT003 BKN004 05/05 Q0975 TEMPO 1500', 'EIDW 090000Z 09013KT 2000 -RA BR FEW002 SCT003 BKN004 06/05 Q0975 TEMPO 1500', 'EIDW 082330Z 08013KT 5000 -RA FEW002 SCT004 BKN005 06/05 Q0975 TEMPO 1500', 'EIDW 082300Z 09016KT 5000 -RA FEW002 SCT004 BKN005 06/05 Q0975 TEMPO 1500', 'EIDW 082230Z 09018KT 1800 -RA BR SCT002 BKN003 06/06 Q0976 TEMPO 3000', 'EIDW 082200Z 09016KT 1700 -RA BR SCT002 BKN003 06/06 Q0976 TEMPO 3000', 'EIDW 082130Z 09017KT 1400 -RA BR SCT001 BKN002 07/06 Q0976 TEMPO 3000', 'EIDW 082100Z 08015KT 1300 -RA BR SCT001 BKN002 07/07 Q0976 TEMPO 1500 BR', 'EIDW 082030Z 09012KT 0600 R10R/P2000 R28L/1900U R10L/1900U -RA FG SCT001 BKN002 07/07 Q0976 TEMPO 1500 BR', 'EIDW 082000Z 08011KT 0900 -RADZ FG SCT001 BKN002 07/07 Q0976 TEMPO 1500 BR', 'EIDW 081930Z 08013KT 1500 -RADZ BR FEW001 BKN002 07/07 Q0977 TEMPO 0800 FG', 'EIDW 081900Z 08015KT 1500 -RADZ BR FEW001 BKN002 07/06 Q0977 TEMPO 0800 FG', 'EIDW 081830Z 08016KT 0900 -RADZ FG SCT001 BKN002 07/06 Q0977 TEMPO 1500', 'EIDW 081800Z 07016KT 1200 -DZ BR SCT001 BKN002 06/06 Q0978 TEMPO 0800 FG BKN001', 'EIDW 081730Z 08015KT 0800 R10R/P2000 R28L/P2000 R10L/1800D -RA FG FEW001 BKN002 06/06 Q0978 TEMPO BKN001', 'EIDW 081700Z 08015KT 1500 -RADZ BR SCT002 BKN003 06/06 Q0979 RERA TEMPO 0800 FG BKN001', 'EIDW 081630Z 08015KT 2000 R10R/P2000 R28L/P2000 R10L/1800U RA FEW002 BKN003 06/05 Q0979 TEMPO 0800 FG BKN001', 'EIDW 081600Z 08016KT 0900 R10R/P2000 R28L/P2000 R10L/1500 DZ FG SCT002 BKN003 06/05 Q0980 TEMPO BKN001', 'EIDW 081530Z 09016KT 1000 R10R/P2000 R28L/P2000 R10L/1600D DZ BR SCT002 BKN003 05/05 Q0980 NOSIG', 'EIDW 081500Z 08017KT 2000 R10R/P2000 R28L/P2000 R10L/1700D -DZ BR SCT002 BKN003 05/05 Q0981 NOSIG', 'EIDW 081430Z 09016KT 2800 R10R/P2000N R28L/P2000N R10L/1500D -DZ SCT002 BKN003 05/05 Q0981 NOSIG', 'EIDW 081400Z 09015KT 1500 R10R/P2000 R28L/P2000 R10L/1500 DZ BKN002 BKN003 05/05 Q0982 NOSIG', 'EIDW 081330Z 09016KT 1200 R10R/P2000N R28L/1700 R10L/1200 -RADZ BR FEW002 BKN003 05/05 Q0983 NOSIG', 'EIDW 081300Z 09017KT 1800 R10R/P2000N R28L/1800 R10L/1200 -RADZ BR FEW002 BKN003 05/05 Q0983 NOSIG', 'EIDW 081230Z 09016KT 2500 R10R/P2000N R28L/1900U R10L/1300U -RADZ BR SCT002 BKN003 05/05 Q0984 NOSIG', 'EIDW 081200Z 09018KT 1200 R28L/1900U R10L/1200 -RADZ BR FEW002 SCT003 BKN004 05/04 Q0984 NOSIG', 'EIDW 081130Z 09020G30KT 2200 -RADZ BR FEW003 SCT004 BKN005 05/04 Q0985 NOSIG', 'EIDW 081100Z 09020G30KT 2500 -RADZ BR FEW004 BKN005 05/04 Q0985 TEMPO 2000', 'EIDW 081030Z 09022KT 6000 -RA SCT005 BKN006 05/04 Q0985 TEMPO 3000', 'EIDW 081000Z 09022KT 7000 -RA FEW006 BKN007 BKN011 05/04 Q0986 RERA TEMPO 3000', 'EIDW 080930Z 09019KT 5000 RA FEW006 SCT010 BKN014 05/04 Q0986 TEMPO 3000 BKN010', 'EIDW 080900Z 09017KT 5000 RA FEW009 BKN012 BKN015 04/03 Q0987 TEMPO 3000 BKN010', 'EIDW 080830Z 08018KT 4000 -RA FEW010 BKN012 03/02 Q0988 RERA TEMPO 3000 BKN010', 'EIDW 080800Z 09019KT 9000 RA FEW010 SCT012 BKN016 03/02 Q0988 TEMPO BKN012', 'EIDW 080730Z 09016KT 9999 -RA FEW010 SCT012 BKN016 03/01 Q0989 TEMPO BKN012', 'EIDW 080700Z 09019KT 9999 -RA FEW011 SCT015 BKN018 04/02 Q0990 TEMPO BKN012', 'EIDW 080630Z 09020KT 9999 -RA FEW011 SCT013 BKN018 04/02 Q0991 TEMPO BKN012', 'EIDW 080600Z 09017KT 9999 -RA FEW011 SCT013 BKN016 03/02 Q0992 TEMPO BKN012', 'EIDW 080530Z 08019KT 9999 -RA FEW011 SCT014 BKN018 03/01 Q0992 TEMPO BKN012', 'EIDW 080500Z 08017KT 9999 -RA FEW011 SCT015 BKN022 03/01 Q0993 NOSIG', 'EIDW 080430Z 08017KT 9999 -RA FEW011 SCT022 BKN035 03/01 Q0994 NOSIG', 'EIDW 080400Z 10014KT 9999 -RA FEW011 SCT018 BKN022 03/01 Q0995 NOSIG', 'EIDW 080330Z 09014KT 9999 -RA FEW011 SCT018 BKN027 03/01 Q0996 NOSIG', 'EIDW 080300Z 11014KT 9999 -RA FEW011 SCT017 BKN022 04/01 Q0997 NOSIG', 'EIDW 080230Z 09015KT 9999 -RA FEW011 SCT018 BKN025 05/02 Q0997 NOSIG', 'EIDW 080200Z 10013KT 9999 FEW013 SCT020 BKN026 05/02 Q0998 NOSIG', 'EIDW 080130Z 10012KT 9999 FEW013 SCT020 BKN025 05/02 Q0999 NOSIG', 'EIDW 080100Z 10013KT 9999 FEW013 SCT020 BKN025 05/02 Q0999 NOSIG', 'EIDW 080030Z 09011KT 9999 FEW013 SCT020 BKN025 05/02 Q1000 NOSIG', 'EIDW 080000Z 09011KT 9999 FEW015 SCT024 BKN033 04/01 Q1000 NOSIG', 'EIDW 072330Z 10011KT 9999 FEW015 SCT022 BKN028 04/01 Q1001 NOSIG', 'EIDW 072300Z 09009KT 9999 FEW015 SCT022 BKN030 04/01 Q1002 NOSIG', 'EIDW 072230Z 10008KT 9999 FEW015 SCT028 BKN140 03/01 Q1002 NOSIG', 'EIDW 072200Z 09008KT 9999 FEW015 SCT025 BKN120 02/01 Q1002 NOSIG', 'EIDW 072130Z 08006KT 9999 FEW017 SCT025 BKN060 02/M00 Q1003 NOSIG', 'EIDW 072100Z 09006KT 9999 FEW017 BKN120 02/M00 Q1003 NOSIG', 'EIDW 072030Z 09006KT 9999 FEW017 BKN120 01/M01 Q1003 NOSIG', 'EIDW 072000Z 08006KT 9999 FEW017 BKN120 01/M01 Q1004 NOSIG', 'EIDW 071930Z 08006KT 9999 FEW017 BKN120 01/M00 Q1004 NOSIG', 'EIDW 071900Z 06005KT 020V080 9999 FEW017 BKN120 02/M00 Q1005 NOSIG', 'EIDW 071830Z 04004KT 010V080 9999 FEW017 BKN120 02/M00 Q1005 NOSIG', 'EIDW 071800Z 02004KT 340V050 9999 FEW017 BKN120 03/M00 Q1005 NOSIG', 'EIDW 071730Z 03004KT 9999 FEW017 BKN120 03/00 Q1005 NOSIG']","['2024-02-10 16:30:00', '2024-02-10 16:00:00', '2024-02-10 15:30:00', '2024-02-10 15:00:00', '2024-02-10 14:30:00', '2024-02-10 14:00:00', '2024-02-10 13:30:00', '2024-02-10 13:00:00', '2024-02-10 12:30:00', '2024-02-10 12:00:00', '2024-02-10 11:30:00', '2024-02-10 11:00:00', '2024-02-10 10:30:00', '2024-02-10 10:00:00', '2024-02-10 09:30:00', '2024-02-10 09:00:00', '2024-02-10 08:30:00', '2024-02-10 08:00:00', '2024-02-10 07:30:00', '2024-02-10 07:00:00', '2024-02-10 06:30:00', '2024-02-10 06:00:00', '2024-02-10 05:30:00', '2024-02-10 05:00:00', '2024-02-10 04:30:00', '2024-02-10 04:00:00', '2024-02-10 03:30:00', '2024-02-10 03:00:00', '2024-02-10 02:30:00', '2024-02-10 02:00:00', '2024-02-10 01:30:00', '2024-02-10 01:00:00', '2024-02-10 00:30:00', '2024-02-10 00:00:00', '2024-02-09 23:30:00', '2024-02-09 23:00:00', '2024-02-09 22:30:00', '2024-02-09 22:00:00', '2024-02-09 21:30:00', '2024-02-09 21:00:00', '2024-02-09 20:30:00', '2024-02-09 20:00:00', '2024-02-09 19:30:00', '2024-02-09 19:00:00', '2024-02-09 18:30:00', '2024-02-09 18:00:00', '2024-02-09 17:30:00', '2024-02-09 17:00:00', '2024-02-09 16:30:00', '2024-02-09 16:00:00', '2024-02-09 15:30:00', '2024-02-09 15:00:00', '2024-02-09 14:30:00', '2024-02-09 14:00:00', '2024-02-09 13:30:00', '2024-02-09 13:00:00', '2024-02-09 12:30:00', '2024-02-09 12:00:00', '2024-02-09 11:30:00', '2024-02-09 11:00:00', '2024-02-09 10:30:00', '2024-02-09 10:00:00', '2024-02-09 09:30:00', '2024-02-09 09:00:00', '2024-02-09 08:30:00', '2024-02-09 08:00:00', '2024-02-09 07:30:00', '2024-02-09 07:00:00', '2024-02-09 06:30:00', '2024-02-09 06:00:00', '2024-02-09 05:30:00', '2024-02-09 05:00:00', '2024-02-09 04:30:00', '2024-02-09 04:00:00', '2024-02-09 03:30:00', '2024-02-09 03:00:00', '2024-02-09 02:30:00', '2024-02-09 02:00:00', '2024-02-09 01:30:00', '2024-02-09 01:00:00', '2024-02-09 00:30:00', '2024-02-09 00:00:00', '2024-02-08 23:30:00', '2024-02-08 23:00:00', '2024-02-08 22:30:00', '2024-02-08 22:00:00', '2024-02-08 21:30:00', '2024-02-08 21:00:00', '2024-02-08 20:30:00', '2024-02-08 20:00:00', '2024-02-08 19:30:00', '2024-02-08 19:00:00', '2024-02-08 18:30:00', '2024-02-08 18:00:00', '2024-02-08 17:30:00', '2024-02-08 17:00:00', '2024-02-08 16:30:00', '2024-02-08 16:00:00', '2024-02-08 15:30:00', '2024-02-08 15:00:00', '2024-02-08 14:30:00', '2024-02-08 14:00:00', '2024-02-08 13:30:00', '2024-02-08 13:00:00', '2024-02-08 12:30:00', '2024-02-08 12:00:00', '2024-02-08 11:30:00', '2024-02-08 11:00:00', '2024-02-08 10:30:00', '2024-02-08 10:00:00', '2024-02-08 09:30:00', '2024-02-08 09:00:00', '2024-02-08 08:30:00', '2024-02-08 08:00:00', '2024-02-08 07:30:00', '2024-02-08 07:00:00', '2024-02-08 06:30:00', '2024-02-08 06:00:00', '2024-02-08 05:30:00', '2024-02-08 05:00:00', '2024-02-08 04:30:00', '2024-02-08 04:00:00', '2024-02-08 03:30:00', '2024-02-08 03:00:00', '2024-02-08 02:30:00', '2024-02-08 02:00:00', '2024-02-08 01:30:00', '2024-02-08 01:00:00', '2024-02-08 00:30:00', '2024-02-08 00:00:00', '2024-02-07 23:30:00', '2024-02-07 23:00:00', '2024-02-07 22:30:00', '2024-02-07 22:00:00', '2024-02-07 21:30:00', '2024-02-07 21:00:00', '2024-02-07 20:30:00', '2024-02-07 20:00:00', '2024-02-07 19:30:00', '2024-02-07 19:00:00', '2024-02-07 18:30:00', '2024-02-07 18:00:00', '2024-02-07 17:30:00']"
Ireland, Kerry Airport (KIR/EIKY) ,"['EIKY 101630Z 31006KT 270V350 9999 BKN011 BKN013 08/07 Q0982', 'EIKY 101600Z 32008KT 270V350 9999 -SHRA BKN008 BKN017 08/07 Q0982', 'EIKY 101500Z 32006KT 270V350 9999 BKN016 OVC025 09/07 Q0981', 'EIKY 101430Z 34008KT 290V010 9999 BKN011 BKN017 OVC029 09/07 Q0980', 'EIKY 101400Z 32006KT 290V360 9999 FEW009 OVC011 08/07 Q0980', 'EIKY 101330Z 32004KT 9999 SCT008 BKN010 OVC013 08/07 Q0979', 'EIKY 101300Z 33005KT 300V010 9999 OVC010 08/07 Q0979', 'EIKY 101230Z 32005KT 290V350 9999 OVC010 08/07 Q0979', 'EIKY 101200Z 33006KT 290V360 9999 -RA OVC009 07/07 Q0978', 'EIKY 101130Z 34006KT 9999 -RA OVC009 07/06 Q0978', 'EIKY 101100Z 33006KT 300V360 9999 -RA OVC009 07/07 Q0977 RERA', 'EIKY 101030Z 01006KT 330V040 9000 RA OVC009 07/06 Q0977', 'EIKY 101000Z 02006KT 360V060 9999 -RA BKN011 OVC044 07/06 Q0976', 'EIKY 100930Z 02005KT 9999 -RA FEW011 SCT036 OVC041 07/06 Q0976 RERA', 'EIKY 100900Z 03007KT 360V060 9999 RA BKN036 OVC049 07/06 Q0975', 'EIKY 091800Z 09005KT 060V130 9999 SCT020 07/04 Q0971', 'EIKY 091730Z 11004KT 9999 FEW029 SCT045 08/05 Q0971', 'EIKY 091700Z 12004KT 090V160 9999 SCT035 09/05 Q0971', 'EIKY 091630Z 17006KT 130V220 9999 SCT039 BKN044 10/05 Q0971', 'EIKY 091600Z 17007KT 110V200 9999 BKN033 10/05 Q0971', 'EIKY 091530Z 25005KT 210V270 9999 FEW025 BKN035 10/06 Q0971', 'EIKY 091500Z 20004KT 160V230 9999 SCT025 10/06 Q0971', 'EIKY 091400Z 22005KT 9999 FEW025 BKN035 11/06 Q0972', 'EIKY 091330Z 23006KT 210V270 9999 -SHRA SCT025 BKN032 10/06 Q0972', 'EIKY 091300Z 21006KT 9999 BKN023 10/06 Q0972', 'EIKY 091230Z 23005KT 190V310 9999 -RA BKN024 10/07 Q0972', 'EIKY 091200Z 15003KT 9999 FEW020 BKN036 10/07 Q0972', 'EIKY 091130Z 18004KT 110V220 9999 SCT021 BKN043 10/06 Q0972', 'EIKY 091100Z 21006KT 160V230 9999 BKN029 09/07 Q0972', 'EIKY 091030Z 20006KT 9999 FEW010 BKN023 09/06 Q0972', 'EIKY 091000Z 19006KT 9999 FEW010 SCT022 08/07 Q0972', 'EIKY 090930Z 22007KT 9999 FEW010 BKN028 08/07 Q0972', 'EIKY 090900Z 21007KT 9999 OVC023 08/07 Q0972', 'EIKY 090830Z 21005KT 9999 BKN020 08/07 Q0971', 'EIKY 090800Z 26004KT 230V290 9999 BKN016 OVC024 08/07 Q0971', 'EIKY 090730Z 26008KT 9999 FEW005 BKN018 OVC025 08/08 Q0971', 'EIKY 090700Z 25010KT 9999 BKN005 OVC023 08/08 Q0971', 'EIKY 090630Z 26011KT 9999 -SHRA BKN005 OVC017 08/08 Q0970', 'EIKY 090600Z 25008KT 9999 -SHRA SCT004 09/08 Q0970', 'EIKY 081800Z 11008KT 9999 SCT016 11/09 Q0973', 'EIKY 081730Z 06005KT 9999 SCT020 11/10 Q0973', 'EIKY 081700Z 04004KT 010V090 9999 FEW014 BKN019 11/09 Q0974', 'EIKY 081630Z VRB02KT 9999 SCT021 12/10 Q0974', 'EIKY 081600Z 16008KT 9999 FEW010 BKN018 12/10 Q0975', 'EIKY 081530Z 16008KT 9999 BKN015 12/11 Q0975', 'EIKY 081500Z 16008KT 9999 SCT024 12/11 Q0976', 'EIKY 081430Z 13008KT 9999 FEW013 BKN027 12/11 Q0976', 'EIKY 081400Z 10004KT 350V150 9999 BKN021 12/11 Q0977', 'EIKY 081330Z 12007KT 090V150 9999 FEW010 BKN020 11/10 Q0977', 'EIKY 081300Z 09005KT 060V120 9999 -SHRA BKN021 10/09 Q0978', 'EIKY 081230Z 09006KT 060V120 9999 RA SCT010 BKN027 09/08 Q0978 RERA', 'EIKY 081200Z 09008KT 9999 RA BKN009 OVC016 09/08 Q0979', 'EIKY 081130Z 09009KT 9999 -RA BKN022 09/08 Q0979', 'EIKY 081100Z 12012KT 9999 BKN024 08/07 Q0979', 'EIKY 081030Z 12012KT 9999 FEW009 BKN022 08/07 Q0979', 'EIKY 081000Z 12010KT 9999 FEW009 BKN022 08/07 Q0980', 'EIKY 080900Z 12013KT 9999 SCT010 BKN024 07/06 Q0981']","['2024-02-10 16:30:00', '2024-02-10 16:00:00', '2024-02-10 15:00:00', '2024-02-10 14:30:00', '2024-02-10 14:00:00', '2024-02-10 13:30:00', '2024-02-10 13:00:00', '2024-02-10 12:30:00', '2024-02-10 12:00:00', '2024-02-10 11:30:00', '2024-02-10 11:00:00', '2024-02-10 10:30:00', '2024-02-10 10:00:00', '2024-02-10 09:30:00', '2024-02-10 09:00:00', '2024-02-09 18:00:00', '2024-02-09 17:30:00', '2024-02-09 17:00:00', '2024-02-09 16:30:00', '2024-02-09 16:00:00', '2024-02-09 15:30:00', '2024-02-09 15:00:00', '2024-02-09 14:00:00', '2024-02-09 13:30:00', '2024-02-09 13:00:00', '2024-02-09 12:30:00', '2024-02-09 12:00:00', '2024-02-09 11:30:00', '2024-02-09 11:00:00', '2024-02-09 10:30:00', '2024-02-09 10:00:00', '2024-02-09 09:30:00', '2024-02-09 09:00:00', '2024-02-09 08:30:00', '2024-02-09 08:00:00', '2024-02-09 07:30:00', '2024-02-09 07:00:00', '2024-02-09 06:30:00', '2024-02-09 06:00:00', '2024-02-08 18:00:00', '2024-02-08 17:30:00', '2024-02-08 17:00:00', '2024-02-08 16:30:00', '2024-02-08 16:00:00', '2024-02-08 15:30:00', '2024-02-08 15:00:00', '2024-02-08 14:30:00', '2024-02-08 14:00:00', '2024-02-08 13:30:00', '2024-02-08 13:00:00', '2024-02-08 12:30:00', '2024-02-08 12:00:00', '2024-02-08 11:30:00', '2024-02-08 11:00:00', '2024-02-08 10:30:00', '2024-02-08 10:00:00', '2024-02-08 09:00:00']"
Ireland, Knock Ireland West Airport (NOC/EIKN) ,"['EIKN 101630Z 04002KT 9999 FEW012 BKN034 07/06 Q0982 NOSIG', 'EIKN 101530Z 34005KT 9999 FEW009 BKN034 07/05 Q0982 NOSIG', 'EIKN 101500Z 35004KT 290V020 9999 FEW007 SCT010 BKN032 07/06 Q0982 NOSIG', 'EIKN 101430Z 35004KT 320V030 9999 FEW005 BKN008 BKN032 07/06 Q0981 TEMPO BKN007', 'EIKN 101400Z 01004KT 330V060 9999 FEW006 BKN008 BKN034 07/05 Q0981 TEMPO BKN007', 'EIKN 101330Z 03006KT 9999 FEW007 BKN034 07/06 Q0981 TEMPO BKN007', 'EIKN 101300Z 03004KT 9999 SCT006 SCT016 BKN032 06/05 Q0981 TEMPO BKN004', 'EIKN 101230Z 05003KT 9999 BKN005 BKN032 06/06 Q0980 TEMPO BKN004', 'EIKN 101200Z 04004KT 330V090 9999 FEW003 SCT006 BKN028 05/05 Q0980 TEMPO BKN004', 'EIKN 101130Z 08004KT 050V110 9999 FEW003 SCT006 BKN030 06/05 Q0980 TEMPO BKN004', 'EIKN 101100Z 08004KT 060V120 9999 SCT002 BKN004 05/05 Q0980 BECMG BKN010', 'EIKN 101030Z 09005KT 060V130 1200 BR BKN002 BKN007 05/05 Q0979 BECMG 3000 BKN005', 'EIKN 101000Z 09005KT 050V170 0900 FG BKN002 BKN006 04/04 Q0979 BECMG 3000 BKN005', 'EIKN 100930Z 10006KT 060V140 0700 FG SCT001 BKN002 BKN006 04/04 Q0979 BECMG 3000 BKN005', 'EIKN 100900Z 09006KT 060V140 1100 BR BKN002 BKN006 04/04 Q0978 BECMG 3000 BKN005', 'EIKN 100830Z 07006KT 040V100 0500 FG BKN002 BKN007 04/04 Q0978 NOSIG', 'EIKN 100800Z 07005KT 0400 FG OVC002 04/04 Q0978 NOSIG', 'EIKN 100700Z 09005KT 060V120 0400 FG BKN001 BKN006 04/04 Q0977 NOSIG', 'EIKN 100630Z 07006KT 020V100 0400 FG BKN001 BKN006 04/04 Q0976 NOSIG', 'EIKN 091830Z 10009KT 2000 -DZ BKN002 BKN007 04/04 Q0973 NOSIG', 'EIKN 091800Z 10009KT 070V140 2200 -DZ BKN002 BKN007 04/04 Q0973 NOSIG', 'EIKN 091730Z 10008KT 070V140 2500 BR BKN002 BKN008 04/04 Q0972 TEMPO 2500', 'EIKN 091700Z 11010KT 090V150 2500 -DZ OVC003 04/04 Q0972 TEMPO 1500', 'EIKN 091630Z 11010KT 060V160 3000 -DZ OVC003 04/04 Q0972 NOSIG', 'EIKN 091600Z 11009KT 080V150 3000 BR OVC003 04/04 Q0972 TEMPO 5000', 'EIKN 091530Z 11012KT 070V150 3000 BR OVC004 05/04 Q0972 TEMPO 5000', 'EIKN 091500Z 11010KT 080V150 7000 BKN003 BKN010 05/04 Q0972 NOSIG', 'EIKN 091430Z 11011KT 090V160 3000 -RADZ OVC004 05/04 Q0972 TEMPO 1500', 'EIKN 091400Z 11010KT 090V160 4000 -DZ OVC004 05/05 Q0972 TEMPO 1500', 'EIKN 091330Z 11010KT 7000 -DZ BKN005 BKN009 05/04 Q0972 TEMPO 1500', 'EIKN 091300Z 11013KT 5000 -DZ OVC005 05/04 Q0972 TEMPO 1500', 'EIKN 091230Z 11011KT 090V150 3000 -DZ OVC004 04/04 Q0972 TEMPO 1500', 'EIKN 091200Z 11013KT 080V140 8000 OVC005 04/04 Q0972 TEMPO 3000', 'EIKN 091130Z 11013G23KT 080V150 7000 OVC004 04/04 Q0972 TEMPO 3000', 'EIKN 091100Z 11014KT 090V150 6000 -DZ OVC004 04/04 Q0972 TEMPO 3000', 'EIKN 091030Z 11013KT 9999 OVC004 04/04 Q0972 NOSIG', 'EIKN 091000Z 11014KT 070V150 9999 -DZ OVC004 04/04 Q0972 NOSIG', 'EIKN 090930Z 11016G26KT 070V140 9999 OVC004 04/03 Q0972 NOSIG', 'EIKN 090900Z 10014KT 070V150 9999 -DZ OVC005 04/03 Q0972 NOSIG', 'EIKN 090800Z 10014KT 070V140 9999 -RA BKN005 BKN034 03/03 Q0972 NOSIG', 'EIKN 081730Z 08014G24KT 6000 -RA OVC003 02/02 Q0977 TEMPO 3000', 'EIKN 081700Z 08014KT 6000 -RA OVC003 02/01 Q0978 TEMPO 3000', 'EIKN 081630Z 09013KT 060V130 5000 BR FEW002 OVC003 02/02 Q0978 TEMPO 3000', 'EIKN 081600Z 09013KT 060V130 5000 -RA FEW002 OVC003 01/01 Q0978 TEMPO 3000', 'EIKN 081500Z 09013KT 050V130 3000 -DZ OVC003 01/01 Q0979 TEMPO 6000', 'EIKN 081400Z 10013KT 6000 -DZ OVC004 01/01 Q0981 NOSIG', 'EIKN 081330Z 09015KT 060V130 5000 -DZ OVC004 01/00 Q0981 NOSIG', 'EIKN 081300Z 09015G25KT 060V120 3500 -DZ OVC004 01/00 Q0982 NOSIG', 'EIKN 081230Z 09013KT 060V120 5000 -DZ OVC004 01/00 Q0982 NOSIG', 'EIKN 081200Z 09016KT 060V130 3500 -RA OVC004 00/00 Q0983 NOSIG', 'EIKN 081130Z 09015KT 050V130 3000 -RASN OVC004 00/M00 Q0983 NOSIG', 'EIKN 081100Z 09014KT 060V120 4000 OVC004 00/M00 Q0984 NOSIG', 'EIKN 081030Z 09013KT 2200 -SN OVC005 00/M00 Q0984 NOSIG', 'EIKN 081000Z 09013KT 060V120 1200 -SN OVC004 00/00 Q0985 NOSIG', 'EIKN 080930Z 09015KT 060V120 2000 -SN OVC004 00/00 Q0985 NOSIG', 'EIKN 080900Z 09013KT 060V130 1500 -SN OVC003 00/00 Q0985 TEMPO 0800 SN', 'EIKN 080830Z 09016G26KT 060V130 1200 -RASN OVC003 00/00 Q0986 TEMPO 0800 SN', 'EIKN 080800Z 08016KT 1200 -SN OVC003 M00/M00 Q0986 TEMPO 0800 SN', 'EIKN 080730Z 08016KT 2000 -SN OVC004 M00/M00 Q0987 NOSIG', 'EIKN 071900Z 08005KT CAVOK 02/M01 Q1003 NOSIG', 'EIKN 071830Z 07006KT CAVOK 03/M01 Q1004 NOSIG', 'EIKN 071800Z 07005KT CAVOK 03/M00 Q1004 NOSIG', 'EIKN 071730Z 09003KT 9999 FEW024 SCT080 BKN130 03/M00 Q1004 NOSIG']","['2024-02-10 16:30:00', '2024-02-10 15:30:00', '2024-02-10 15:00:00', '2024-02-10 14:30:00', '2024-02-10 14:00:00', '2024-02-10 13:30:00', '2024-02-10 13:00:00', '2024-02-10 12:30:00', '2024-02-10 12:00:00', '2024-02-10 11:30:00', '2024-02-10 11:00:00', '2024-02-10 10:30:00', '2024-02-10 10:00:00', '2024-02-10 09:30:00', '2024-02-10 09:00:00', '2024-02-10 08:30:00', '2024-02-10 08:00:00', '2024-02-10 07:00:00', '2024-02-10 06:30:00', '2024-02-09 18:30:00', '2024-02-09 18:00:00', '2024-02-09 17:30:00', '2024-02-09 17:00:00', '2024-02-09 16:30:00', '2024-02-09 16:00:00', '2024-02-09 15:30:00', '2024-02-09 15:00:00', '2024-02-09 14:30:00', '2024-02-09 14:00:00', '2024-02-09 13:30:00', '2024-02-09 13:00:00', '2024-02-09 12:30:00', '2024-02-09 12:00:00', '2024-02-09 11:30:00', '2024-02-09 11:00:00', '2024-02-09 10:30:00', '2024-02-09 10:00:00', '2024-02-09 09:30:00', '2024-02-09 09:00:00', '2024-02-09 08:00:00', '2024-02-08 17:30:00', '2024-02-08 17:00:00', '2024-02-08 16:30:00', '2024-02-08 16:00:00', '2024-02-08 15:00:00', '2024-02-08 14:00:00', '2024-02-08 13:30:00', '2024-02-08 13:00:00', '2024-02-08 12:30:00', '2024-02-08 12:00:00', '2024-02-08 11:30:00', '2024-02-08 11:00:00', '2024-02-08 10:30:00', '2024-02-08 10:00:00', '2024-02-08 09:30:00', '2024-02-08 09:00:00', '2024-02-08 08:30:00', '2024-02-08 08:00:00', '2024-02-08 07:30:00', '2024-02-07 19:00:00', '2024-02-07 18:30:00', '2024-02-07 18:00:00', '2024-02-07 17:30:00']"
Ireland, Shannon Airport (SNN/EINN) ,"['EINN 101630Z 34009KT 9999 -RADZ FEW017 BKN029 08/07 Q0982 TEMPO BKN012', 'EINN 101600Z 33010KT 9999 FEW017 BKN033 09/07 Q0981 TEMPO BKN012', 'EINN 101530Z 33009KT 9999 -RA FEW012 SCT017 BKN046 08/07 Q0981 NOSIG', 'EINN 101500Z 33010KT 9999 -DZ FEW010 SCT017 BKN036 08/07 Q0980 TEMPO BKN012', 'EINN 101430Z 35009KT 9999 FEW012 BKN019 BKN036 09/07 Q0980 TEMPO BKN012', 'EINN 101400Z 35008KT 330V050 9999 -SHRA FEW009 SCT015 BKN019 09/07 Q0980 TEMPO BKN012', 'EINN 101330Z 36008KT 9999 FEW009 SCT013 BKN016 09/08 Q0979 TEMPO 4000 SHRA BKN010', 'EINN 101300Z 35008KT 320V020 9999 FEW009 SCT013 BKN018 08/07 Q0979 TEMPO 4000 SHRA BKN010', 'EINN 101230Z 35007KT 9999 FEW010 FEW018CB BKN021 08/07 Q0979 TEMPO 4000 SHRA BKN010', 'EINN 101200Z 36009KT 8000 -SHRA FEW018CB BKN021 07/06 Q0978 TEMPO 4000 SHRA BKN010', 'EINN 101130Z 36010KT 8000 -SHRA FEW018CB BKN037 07/06 Q0978 TEMPO 4000 SHRA BKN010', 'EINN 101100Z 02010KT 8000 -SHRA FEW018CB BKN031 07/06 Q0978 TEMPO 4000 SHRA BKN010', 'EINN 101030Z 01011KT 9999 FEW018CB BKN030 07/05 Q0977 NOSIG', 'EINN 101000Z 02011KT 9999 FEW018 BKN044 07/06 Q0977 NOSIG', 'EINN 100930Z 03011KT 9999 FEW018 SCT029 BKN045 06/05 Q0976 NOSIG', 'EINN 100900Z 03012KT 9999 FEW018 BKN043 BKN090 06/05 Q0976 NOSIG', 'EINN 100830Z 02009KT 9999 FEW018 SCT040 BKN100 05/04 Q0975 NOSIG', 'EINN 100800Z 03012KT 9999 FEW030 BKN050 BKN090 06/05 Q0975 NOSIG', 'EINN 100730Z 03011KT 9999 FEW030 SCT040 BKN070 06/04 Q0974 NOSIG', 'EINN 100700Z 01008KT 9999 FEW032 BKN040 BKN090 05/04 Q0974 NOSIG', 'EINN 100630Z 03008KT 9999 FEW020 BKN034 06/04 Q0974 NOSIG', 'EINN 100600Z 04010KT 9999 FEW020 BKN036 BKN100 06/04 Q0973 NOSIG', 'EINN 100530Z 04010KT 9999 FEW020 BKN030 06/04 Q0973 NOSIG', 'EINN 100500Z 05010KT 9999 SCT020 BKN024 06/05 Q0973 NOSIG', 'EINN 100430Z 02008KT 9999 BKN024 BKN032 05/04 Q0972 NOSIG', 'EINN 100400Z 04007KT 9999 FEW024 BKN032 07/05 Q0972 NOSIG', 'EINN 100330Z 02005KT 360V080 9999 FEW024 BKN032 05/04 Q0972 NOSIG', 'EINN 100300Z 03007KT 9999 FEW024 BKN034 06/04 Q0972 NOSIG', 'EINN 100230Z 02007KT 9999 FEW024 SCT032 05/04 Q0972 NOSIG', 'EINN 100200Z 07009KT 9999 FEW024 06/04 Q0972 NOSIG', 'EINN 100130Z 08008KT 9999 FEW024 06/04 Q0972 NOSIG', 'EINN 100100Z 10011KT 9999 FEW024 06/04 Q0972 NOSIG', 'EINN 100030Z 10012KT 9999 FEW024 06/04 Q0972 NOSIG', 'EINN 100000Z 09010KT 9999 FEW024 06/04 Q0972 NOSIG', 'EINN 092330Z 09010KT 9999 FEW020 06/04 Q0972 NOSIG', 'EINN 092300Z 09011KT CAVOK 06/04 Q0972 NOSIG', 'EINN 092230Z 09009KT CAVOK 06/04 Q0972 NOSIG', 'EINN 092200Z 09009KT CAVOK 06/04 Q0972 NOSIG', 'EINN 092130Z 09008KT CAVOK 06/04 Q0972 NOSIG', 'EINN 092100Z 09007KT CAVOK 06/04 Q0972 NOSIG', 'EINN 092030Z 10006KT CAVOK 07/05 Q0972 NOSIG', 'EINN 092000Z 11007KT 9999 FEW040 07/05 Q0972 NOSIG', 'EINN 091930Z 12007KT 9999 FEW046 08/05 Q0972 NOSIG', 'EINN 091900Z 12006KT 9999 FEW046 08/05 Q0972 NOSIG', 'EINN 091830Z 14007KT 9999 SCT046 08/05 Q0972 NOSIG', 'EINN 091800Z 15006KT 9999 FEW027 BKN045 09/06 Q0972 NOSIG', 'EINN 091730Z 11005KT 9999 FEW026 SCT039 09/07 Q0971 NOSIG', 'EINN 091700Z 08005KT 9999 FEW029 SCT043 09/08 Q0971 NOSIG', 'EINN 091630Z 10004KT 9999 FEW033 BKN050 09/07 Q0971 NOSIG', 'EINN 091600Z 11004KT 050V140 9999 FEW033 SCT050 09/08 Q0971 NOSIG', 'EINN 091530Z 11004KT 9999 FEW010 BKN048 10/08 Q0971 NOSIG', 'EINN 091500Z 12005KT 9999 -RA FEW012 SCT029 BKN043 09/08 Q0972 NOSIG', 'EINN 091430Z 10004KT 9999 -DZ FEW012 BKN043 09/08 Q0972 NOSIG', 'EINN 091400Z 10005KT 9999 FEW007 SCT033 BKN042 09/08 Q0972 NOSIG', 'EINN 091330Z 10005KT 9999 FEW007 BKN035 09/08 Q0972 NOSIG', 'EINN 091300Z VRB03KT 9999 FEW005 SCT025 BKN035 09/08 Q0972 NOSIG', 'EINN 091230Z VRB01KT 6000 -DZ FEW006 SCT016 BKN025 08/08 Q0972 NOSIG', 'EINN 091200Z VRB03KT 9999 -DZ FEW004 BKN014 BKN021 08/08 Q0972 TEMPO 4000', 'EINN 091130Z 13004KT 110V170 2500 -DZ BRF FEW003 SCT014 OVC017 08/08 Q0972 TEMPO 4000', 'EINN 091100Z 12006KT 6000 -RADZ FEW003 BKN005 OVC008 08/07 Q0972 NOSIG', 'EINN 091030Z 12005KT 4500 -RADZ BR FEW003 BKN005 OVC007 08/07 Q0972 NOSIG', 'EINN 091000Z VRB03KT 2000 -DZ BR BKN003 OVC005 08/07 Q0972 NOSIG', 'EINN 090930Z 13006KT 1500 R24/2000P R06/2000P -DZ BR SCT002 OVC003 07/07 Q0972 TEMPO 4000', 'EINN 090900Z 10006KT 1200 R24/1900D R06/2000P -DZ BR SCT002 OVC003 07/07 Q0971 TEMPO 4000', 'EINN 090830Z 10005KT 3500 -DZ FEW002 OVC003 07/07 Q0971 TEMPO 4000', 'EINN 090800Z 10007KT 2000 -RADZ FEW001 OVC003 08/07 Q0971 TEMPO 4000', 'EINN 090730Z 10006KT 4000 -DZ FEW002 BKN004 OVC009 08/07 Q0971 TEMPO 8000', 'EINN 090700Z 10005KT 4000 -DZ BR FEW001 BKN006 OVC009 08/07 Q0970 TEMPO 8000', 'EINN 090630Z 10007KT 3000 -DZ OVC003 08/08 Q0970 TEMPO 8000', 'EINN 090600Z 10005KT 3000 DZ BR FEW001 OVC005 08/08 Q0970 TEMPO 8000', 'EINN 090530Z 09006KT 3500 BR FEW001 OVC004 08/08 Q0970 TEMPO 8000', 'EINN 090500Z 08005KT 2500 BR FEW001 OVC004 08/08 Q0970 TEMPO 8000', 'EINN 090430Z VRB02KT 2500 BR FEW001 OVC003 08/08 Q0970 TEMPO 8000', 'EINN 090400Z 00000KT 2500 DZ BR FEW001 OVC003 08/07 Q0970 TEMPO 8000', 'EINN 090330Z 00000KT 3000 -DZ OVC003 08/07 Q0970 TEMPO 8000', 'EINN 090300Z VRB01KT 4000 BR FEW003 OVC005 08/07 Q0970 NOSIG', 'EINN 090230Z 36002KT 6000 FEW003 OVC006 08/07 Q0970 NOSIG', 'EINN 090200Z 04005KT 9999 FEW003 OVC008 08/07 Q0970 NOSIG', 'EINN 090130Z 04006KT 4000 BR FEW003 BKN008 OVC010 08/07 Q0971 TEMPO 8000', 'EINN 090100Z 04006KT 4500 BR FEW003 OVC009 07/07 Q0971 TEMPO 8000', 'EINN 090030Z 03008KT 3000 -DZ FEW003 BKN008 OVC010 07/07 Q0971 TEMPO 8000', 'EINN 090000Z 03008KT 3000 -DZ FEW005 OVC011 07/07 Q0971 TEMPO 8000', 'EINN 082330Z 02007KT 4000 -DZ FEW008 OVC016 07/07 Q0971 TEMPO 3000', 'EINN 082300Z 04008KT 4000 -RADZ FEW008 SCT010 BKN015 08/07 Q0972 TEMPO 3000', 'EINN 082230Z 04007KT 6000 -DZ FEW008 BKN011 OVC044 07/07 Q0972 TEMPO 3000', 'EINN 082200Z 03007KT 9999 -RA FEW009 SCT050 BKN080 07/07 Q0972 NOSIG', 'EINN 082130Z 03008KT 9999 SCT010 BKN045 07/07 Q0972 NOSIG', 'EINN 082100Z 03008KT 9999 -RA FEW009 SCT014 BKN060 08/07 Q0972 NOSIG', 'EINN 082030Z 04008KT 9999 FEW009 SCT016 BKN042 09/08 Q0973 NOSIG', 'EINN 082000Z 05007KT 9999 SCT009 BKN019 09/08 Q0973 NOSIG', 'EINN 081930Z 04006KT 9999 FEW008 BKN015 09/08 Q0974 NOSIG', 'EINN 081900Z 05005KT 9999 FEW007 SCT015 BKN025 09/08 Q0974 NOSIG', 'EINN 081830Z 08008KT 9999 FEW006 SCT014 BKN024 09/08 Q0974 NOSIG', 'EINN 081800Z 09008KT 9999 FEW005 SCT014 BKN019 09/08 Q0974 NOSIG', 'EINN 081730Z 08009KT 9999 SCT005 BKN019 08/08 Q0974 NOSIG', 'EINN 081700Z 07008KT 9000 OVC004 08/08 Q0975 NOSIG', 'EINN 081630Z 08007KT 7000 -DZ OVC005 08/07 Q0975 NOSIG', 'EINN 081600Z 07004KT 9000 FEW004 BKN006 08/07 Q0976 NOSIG', 'EINN 081530Z 05003KT 9999 FEW004 BKN006 07/07 Q0976 NOSIG', 'EINN 081500Z 03003KT 9999 FEW003 BKN006 07/06 Q0977 NOSIG', 'EINN 081430Z 03005KT 9000 FEW003 BKN005 06/06 Q0978 NOSIG', 'EINN 081400Z 03005KT 9000 -RA FEW003 SCT005 BKN007 06/06 Q0978 NOSIG', 'EINN 081330Z 03005KT 7000 -RA FEW003 SCT005 OVC006 06/05 Q0979 NOSIG', 'EINN 081300Z 01003KT 9000 -RA SCT005 OVC007 06/05 Q0980 NOSIG', 'EINN 081230Z 05005KT 020V080 7000 -RA FEW005 OVC007 06/05 Q0980 NOSIG', 'EINN 081200Z 04006KT 7000 SCT003 OVC006 06/05 Q0981 NOSIG', 'EINN 081130Z 04005KT 5000 -DZ FEW003 SCT004 OVC006 05/05 Q0981 NOSIG', 'EINN 081100Z 05006KT 5000 -DZ FEW004 OVC006 05/04 Q0981 TEMPO 3000', 'EINN 081030Z 05004KT 5000 -DZ FEW003 OVC006 05/04 Q0982 TEMPO 3000', 'EINN 081000Z 04004KT 4000 -DZ FEW004 OVC006 05/04 Q0982 TEMPO 3000', 'EINN 080930Z 05006KT 4000 -DZ FEW003 SCT004 OVC006 05/04 Q0982 TEMPO 3000', 'EINN 080900Z 04006KT 010V070 5000 -DZ SCT006 OVC008 05/04 Q0983 TEMPO 4000', 'EINN 080830Z 07006KT 6000 -DZ SCT007 OVC009 05/04 Q0983 TEMPO 4000', 'EINN 080800Z 04005KT 6000 -RADZ FEW006 BKN009 OVC011 05/04 Q0984 TEMPO 4000', 'EINN 080730Z 07007KT 010V100 8000 -RADZ FEW008 OVC012 05/03 Q0984 TEMPO 4000', 'EINN 080700Z 08007KT 9000 RA OVC011 05/03 Q0984 TEMPO 4000', 'EINN 080630Z 06006KT 010V090 8000 RA FEW008 OVC011 05/03 Q0985 TEMPO 4000', 'EINN 080600Z 06009KT 020V100 9000 RA FEW008 OVC011 05/03 Q0985 TEMPO 4000', 'EINN 080530Z 07009KT 9999 RA FEW009 BKN012 OVC021 05/03 Q0986 TEMPO 4000', 'EINN 080500Z 07010KT 8000 RA FEW009 BKN012 OVC018 05/03 Q0986 TEMPO 4000', 'EINN 080430Z 07013KT 9000 -RA FEW010 SCT013 OVC018 05/03 Q0987 TEMPO RA BKN012', 'EINN 080400Z 07010KT 9999 -RA FEW012 OVC017 05/03 Q0988 TEMPO RA BKN012', 'EINN 080330Z 07012KT 9000 -RA FEW011 BKN016 OVC020 05/03 Q0989 TEMPO RA BKN012', 'EINN 080300Z 06010KT 9000 -RA FEG011 OVC018 05/03 Q0991 TEMPO RA BKN012', 'EINN 080230Z 06010KT 9000 -RA FEW014 BKN018 OVC033 05/03 Q0992 TEMPO RA BKN012', 'EINN 080200Z 07013KT 9999 -RA FEW012 SCT022 OVC035 05/03 Q0993 NOSIG', 'EINN 080130Z 08008KT 9999 -RA FEW012 SCT016 OVC036 05/03 Q0994 NOSIG', 'EINN 080100Z 06015KT 9999 -RA FEW011 SCT014 OVC038 04/03 Q0995 NOSIG', 'EINN 080030Z 07009KT 9999 -RA FEW014 SCT018 OVC038 04/03 Q0996 NOSIG', 'EINN 080000Z 09010KT 8000 -RA FEW016 OVC042 05/02 Q0996 NOSIG', 'EINN 072330Z 08009KT 9999 -RA FEW024 OVC040 05/01 Q0997 NOSIG', 'EINN 072300Z 08008KT 9999 -RA FEW026 OVC050 05/01 Q0998 NOSIG', 'EINN 072230Z 08011KT 9999 FEW028 OVC046 05/01 Q0998 NOSIG', 'EINN 072200Z 08007KT 9999 FEW030 OVC045 05/01 Q0999 NOSIG', 'EINN 072130Z 09009KT 9999 FEW030 BKN050 05/01 Q1000 NOSIG', 'EINN 072100Z 09007KT 9999 -RA FEW040 BKN055 BKN100 05/01 Q1001 NOSIG', 'EINN 072030Z 07008KT 9999 FEW040 BKN055 BKN120 05/00 Q1001 NOSIG', 'EINN 072000Z 08008KT CAVOK 05/01 Q1001 NOSIG', 'EINN 071930Z 08006KT CAVOK 05/03 Q1002 NOSIG', 'EINN 071900Z 07007KT CAVOK 06/03 Q1002 NOSIG', 'EINN 071830Z 06008KT CAVOK 06/03 Q1003 NOSIG', 'EINN 071800Z 06009KT CAVOK 06/03 Q1003 NOSIG', 'EINN 071730Z 06007KT 040V120 CAVOK 06/03 Q1003 NOSIG']","['2024-02-10 16:30:00', '2024-02-10 16:00:00', '2024-02-10 15:30:00', '2024-02-10 15:00:00', '2024-02-10 14:30:00', '2024-02-10 14:00:00', '2024-02-10 13:30:00', '2024-02-10 13:00:00', '2024-02-10 12:30:00', '2024-02-10 12:00:00', '2024-02-10 11:30:00', '2024-02-10 11:00:00', '2024-02-10 10:30:00', '2024-02-10 10:00:00', '2024-02-10 09:30:00', '2024-02-10 09:00:00', '2024-02-10 08:30:00', '2024-02-10 08:00:00', '2024-02-10 07:30:00', '2024-02-10 07:00:00', '2024-02-10 06:30:00', '2024-02-10 06:00:00', '2024-02-10 05:30:00', '2024-02-10 05:00:00', '2024-02-10 04:30:00', '2024-02-10 04:00:00', '2024-02-10 03:30:00', '2024-02-10 03:00:00', '2024-02-10 02:30:00', '2024-02-10 02:00:00', '2024-02-10 01:30:00', '2024-02-10 01:00:00', '2024-02-10 00:30:00', '2024-02-10 00:00:00', '2024-02-09 23:30:00', '2024-02-09 23:00:00', '2024-02-09 22:30:00', '2024-02-09 22:00:00', '2024-02-09 21:30:00', '2024-02-09 21:00:00', '2024-02-09 20:30:00', '2024-02-09 20:00:00', '2024-02-09 19:30:00', '2024-02-09 19:00:00', '2024-02-09 18:30:00', '2024-02-09 18:00:00', '2024-02-09 17:30:00', '2024-02-09 17:00:00', '2024-02-09 16:30:00', '2024-02-09 16:00:00', '2024-02-09 15:30:00', '2024-02-09 15:00:00', '2024-02-09 14:30:00', '2024-02-09 14:00:00', '2024-02-09 13:30:00', '2024-02-09 13:00:00', '2024-02-09 12:30:00', '2024-02-09 12:00:00', '2024-02-09 11:30:00', '2024-02-09 11:00:00', '2024-02-09 10:30:00', '2024-02-09 10:00:00', '2024-02-09 09:30:00', '2024-02-09 09:00:00', '2024-02-09 08:30:00', '2024-02-09 08:00:00', '2024-02-09 07:30:00', '2024-02-09 07:00:00', '2024-02-09 06:30:00', '2024-02-09 06:00:00', '2024-02-09 05:30:00', '2024-02-09 05:00:00', '2024-02-09 04:30:00', '2024-02-09 04:00:00', '2024-02-09 03:30:00', '2024-02-09 03:00:00', '2024-02-09 02:30:00', '2024-02-09 02:00:00', '2024-02-09 01:30:00', '2024-02-09 01:00:00', '2024-02-09 00:30:00', '2024-02-09 00:00:00', '2024-02-08 23:30:00', '2024-02-08 23:00:00', '2024-02-08 22:30:00', '2024-02-08 22:00:00', '2024-02-08 21:30:00', '2024-02-08 21:00:00', '2024-02-08 20:30:00', '2024-02-08 20:00:00', '2024-02-08 19:30:00', '2024-02-08 19:00:00', '2024-02-08 18:30:00', '2024-02-08 18:00:00', '2024-02-08 17:30:00', '2024-02-08 17:00:00', '2024-02-08 16:30:00', '2024-02-08 16:00:00', '2024-02-08 15:30:00', '2024-02-08 15:00:00', '2024-02-08 14:30:00', '2024-02-08 14:00:00', '2024-02-08 13:30:00', '2024-02-08 13:00:00', '2024-02-08 12:30:00', '2024-02-08 12:00:00', '2024-02-08 11:30:00', '2024-02-08 11:00:00', '2024-02-08 10:30:00', '2024-02-08 10:00:00', '2024-02-08 09:30:00', '2024-02-08 09:00:00', '2024-02-08 08:30:00', '2024-02-08 08:00:00', '2024-02-08 07:30:00', '2024-02-08 07:00:00', '2024-02-08 06:30:00', '2024-02-08 06:00:00', '2024-02-08 05:30:00', '2024-02-08 05:00:00', '2024-02-08 04:30:00', '2024-02-08 04:00:00', '2024-02-08 03:30:00', '2024-02-08 03:00:00', '2024-02-08 02:30:00', '2024-02-08 02:00:00', '2024-02-08 01:30:00', '2024-02-08 01:00:00', '2024-02-08 00:30:00', '2024-02-08 00:00:00', '2024-02-07 23:30:00', '2024-02-07 23:00:00', '2024-02-07 22:30:00', '2024-02-07 22:00:00', '2024-02-07 21:30:00', '2024-02-07 21:00:00', '2024-02-07 20:30:00', '2024-02-07 20:00:00', '2024-02-07 19:30:00', '2024-02-07 19:00:00', '2024-02-07 18:30:00', '2024-02-07 18:00:00', '2024-02-07 17:30:00']"
Ireland, Sligo Airport (SXL/EISG) ,"['EISG 101630Z 27003KT 9999 OVC046 07/06 Q0982', 'EISG 101600Z 29003KT 9999 BKN045 07/06 Q0982', 'EISG 101530Z 31004KT 9999 OVC045 07/06 Q0982', 'EISG 101500Z 33004KT 9999 BKN042 07/06 Q0982', 'EISG 101430Z VRB03KT 9999 BKN042 07/06 Q0982', 'EISG 101400Z VRB03KT 9999 OVC040 07/06 Q0981', 'EISG 101330Z 33003KT 9999 OVC040 07/06 Q0981', 'EISG 101300Z 33004KT 9999 BKN012 OVC039 06/05 Q0981', 'EISG 101230Z 35004KT 9999 SCT010 06/05 Q0981', 'EISG 101200Z VRB03KT 9999 OVC012 07/06 Q0981', 'EISG 101130Z 10004KT 060V130 9999 OVC011 06/05 Q0980', 'EISG 101100Z VRB03KT 9999 OVC010 06/05 Q0980', 'EISG 101030Z 09004KT 9999 OVC010 06/05 Q0980', 'EISG 101000Z VRB01KT 9999 OVC012 06/05 Q0980', 'EISG 100930Z VRB02KT 9999 OVC011 05/05 Q0979', 'EISG 100900Z 11004KT 080V170 9999 OVC009 05/05 Q0979', 'EISG 100830Z 13004KT 100V170 9999 OVC007 05/05 Q0979', 'EISG 100800Z 12005KT 9999 OVC007 05/05 Q0978', 'EISG 092030Z 10011KT 6000 OVC030 05/04 Q0974', 'EISG 092000Z 10011KT 9000 OVC032 05/04 Q0974', 'EISG 091930Z 10011KT 9999 OVC032 05/04 Q0974', 'EISG 091900Z 10012KT 9000 OVC031 05/04 Q0974', 'EISG 091830Z 10013KT 9999 SCT031 OVC038 05/04 Q0973', 'EISG 091800Z 10013KT 9999 FEW011 OVC033 05/04 Q0973', 'EISG 091730Z 10013KT 9999 FEW017 OVC033 05/04 Q0973', 'EISG 091700Z 10012KT 9000 BR BKN014 BKN024 OVC031 05/04 Q0973', 'EISG 091630Z 11008KT 7000 BKN013 OVC022 05/04 Q0973', 'EISG 091600Z 11007KT 3500 BR BKN009 05/04 Q0973', 'EISG 091530Z 10011KT 5000 BR BKN013 OVC018 05/04 Q0973', 'EISG 091500Z 10010KT 4100 BR OVC016 05/04 Q0973', 'EISG 091430Z 10011KT 9999 OVC016 05/04 Q0973', 'EISG 091400Z 10010KT 9999 FEW013 BKN018 OVC041 05/04 Q0973', 'EISG 091330Z 10014KT 9999 SCT015 OVC044 05/03 Q0973', 'EISG 091300Z 10013KT 9999 FEW015 OVC042 05/04 Q0973', 'EISG 091230Z 10015KT 9999 FEW014 OVC043 05/03 Q0973', 'EISG 091200Z 11015KT 9999 FEW013 OVC045 05/03 Q0973', 'EISG 091130Z 10015KT 9999 FEW013 OVC046 04/03 Q0973', 'EISG 091100Z 10015KT 9999 SCT013 BKN050 04/03 Q0973', 'EISG 091030Z 10017KT 9999 FEW010 BKN017 BKN050 04/03 Q0973', 'EISG 091000Z 10017KT 9999 -RA OVC020 04/03 Q0973', 'EISG 090930Z 10017KT 9999 -RA BKN017 OVC024 04/03 Q0973', 'EISG 090900Z 10015KT 6000 -RA FEW011 OVC018 04/03 Q0973', 'EISG 090830Z 10013KT 9999 -RA SCT012 OVC018 04/03 Q0973', 'EISG 090800Z 11012KT 9000 -RA SCT014 OVC020 04/03 Q0973', 'EISG 090730Z 11011KT 9999 -RA FEW012 BKN019 OVC046 04/03 Q0973', 'EISG 082030Z 10020KT 9000 FEW015 BKN029 OVC045 03/02 Q0976', 'EISG 082000Z 10020KT 8000 -RA FEW014 SCT019 OVC042 03/02 Q0977', 'EISG 081930Z 10020KT 9999 -RA FEW024 OVC048 03/02 Q0977', 'EISG 081900Z 10020KT 8000 -RA SCT013 BKN023 OVC048 03/02 Q0977', 'EISG 081830Z 10019KT 7000 -RA BKN016 BKN026 OVC041 03/02 Q0977', 'EISG 081800Z 10018KT 9000 -RA BKN015 OVC029 03/02 Q0978', 'EISG 081730Z 10020KT 7000 BKN015 OVC030 03/01 Q0978', 'EISG 081700Z 10019KT 9999 OVC016 03/01 Q0979', 'EISG 081630Z 10019KT 9999 BKN016 OVC031 03/01 Q0979', 'EISG 081600Z 10020KT 9999 BKN031 OVC037 03/01 Q0979', 'EISG 081530Z 10020KT 9999 BKN032 OVC041 03/01 Q0980', 'EISG 081500Z 10022KT 9999 FEW034 BKN040 OVC060 03/01 Q0980', 'EISG 081430Z 10023G33KT 9999 BKN041 BKN060 03/01 Q0981', 'EISG 081400Z 10018G31KT 9999 FEW010 SCT035 OVC041 03/01 Q0982', 'EISG 081330Z 10021KT 9999 FEW015 OVC043 03/01 Q0982', 'EISG 081300Z 10021KT 9999 FEW013 BKN038 BKN045 03/01 Q0983', 'EISG 081230Z 10018KT 9999 SCT012 OVC040 02/01 Q0984', 'EISG 081200Z 10019KT 9999 -RA BKN012 BKN022 OVC027 02/01 Q0984', 'EISG 081130Z 10018KT 9999 -RA OVC015 02/01 Q0985', 'EISG 081100Z 10017KT 8000 -RA OVC014 02/01 Q0985', 'EISG 081030Z 10018G28KT 9999 -RA OVC014 02/01 Q0986', 'EISG 081000Z 10018KT 9000 -RASN OVC014 02/01 Q0986 RERA', 'EISG 080930Z 10019KT 9000 -RA OVC012 02/00 Q0986', 'EISG 080900Z 10017KT 9999 -RA OVC011 02/00 Q0987 RERA', 'EISG 080830Z 10016KT 6000 -RASN OVC012 01/00 Q0988', 'EISG 080800Z 10017G28KT 9000 -RASN OVC011 01/00 Q0988', 'EISG 080730Z 10016KT 9999 -RA OVC013 02/00 Q0989', 'EISG 072030Z 10003KT CAVOK 03/M01 Q1003', 'EISG 072000Z 11004KT CAVOK 03/M01 Q1003', 'EISG 071930Z 10003KT CAVOK 03/M01 Q1004', 'EISG 071900Z 10002KT CAVOK 03/M01 Q1004', 'EISG 071830Z 10002KT CAVOK 04/M01 Q1005', 'EISG 071800Z 09004KT 050V120 CAVOK 04/M01 Q1005', 'EISG 071730Z 09004KT CAVOK 04/M01 Q1005']","['2024-02-10 16:30:00', '2024-02-10 16:00:00', '2024-02-10 15:30:00', '2024-02-10 15:00:00', '2024-02-10 14:30:00', '2024-02-10 14:00:00', '2024-02-10 13:30:00', '2024-02-10 13:00:00', '2024-02-10 12:30:00', '2024-02-10 12:00:00', '2024-02-10 11:30:00', '2024-02-10 11:00:00', '2024-02-10 10:30:00', '2024-02-10 10:00:00', '2024-02-10 09:30:00', '2024-02-10 09:00:00', '2024-02-10 08:30:00', '2024-02-10 08:00:00', '2024-02-09 20:30:00', '2024-02-09 20:00:00', '2024-02-09 19:30:00', '2024-02-09 19:00:00', '2024-02-09 18:30:00', '2024-02-09 18:00:00', '2024-02-09 17:30:00', '2024-02-09 17:00:00', '2024-02-09 16:30:00', '2024-02-09 16:00:00', '2024-02-09 15:30:00', '2024-02-09 15:00:00', '2024-02-09 14:30:00', '2024-02-09 14:00:00', '2024-02-09 13:30:00', '2024-02-09 13:00:00', '2024-02-09 12:30:00', '2024-02-09 12:00:00', '2024-02-09 11:30:00', '2024-02-09 11:00:00', '2024-02-09 10:30:00', '2024-02-09 10:00:00', '2024-02-09 09:30:00', '2024-02-09 09:00:00', '2024-02-09 08:30:00', '2024-02-09 08:00:00', '2024-02-09 07:30:00', '2024-02-08 20:30:00', '2024-02-08 20:00:00', '2024-02-08 19:30:00', '2024-02-08 19:00:00', '2024-02-08 18:30:00', '2024-02-08 18:00:00', '2024-02-08 17:30:00', '2024-02-08 17:00:00', '2024-02-08 16:30:00', '2024-02-08 16:00:00', '2024-02-08 15:30:00', '2024-02-08 15:00:00', '2024-02-08 14:30:00', '2024-02-08 14:00:00', '2024-02-08 13:30:00', '2024-02-08 13:00:00', '2024-02-08 12:30:00', '2024-02-08 12:00:00', '2024-02-08 11:30:00', '2024-02-08 11:00:00', '2024-02-08 10:30:00', '2024-02-08 10:00:00', '2024-02-08 09:30:00', '2024-02-08 09:00:00', '2024-02-08 08:30:00', '2024-02-08 08:00:00', '2024-02-08 07:30:00', '2024-02-07 20:30:00', '2024-02-07 20:00:00', '2024-02-07 19:30:00', '2024-02-07 19:00:00', '2024-02-07 18:30:00', '2024-02-07 18:00:00', '2024-02-07 17:30:00']"
Ireland, Waterford Airport (WAT/EIWF) ,"['EIWF 101630Z 07007KT 8000 RA SCT004 BKN018 07/07 Q0980', 'EIWF 101600Z 08008KT 4300 -RA BKN006 07/07 Q0979', 'EIWF 101530Z 10013KT 5000 RA BKN005 08/08 Q0979', 'EIWF 101500Z 10009KT 9000 BKN006 08/08 Q0978', 'EIWF 101430Z 10010KT 060V130 6000 BR SCT004 BKN008 08/08 Q0978 RERA', 'EIWF 101400Z 12009KT 080V150 4000 RA BKN007 09/08 Q0978', 'EIWF 101300Z 11012KT 080V140 3000 RA BKN004 08/08 Q0977', 'EIWF 101230Z 11008KT 070V140 3000 RA SCT005 BKN012 08/08 Q0977', 'EIWF 101200Z 12012KT 3000 RA BKN011 08/07 Q0977', 'EIWF 101130Z 13014KT 100V160 5000 BR SCT009 BKN019 08/07 Q0977', 'EIWF 101100Z 13011KT 100V160 9000 SCT011 BKN032 08/08 Q0976 REDZ', 'EIWF 101030Z 13013KT 100V170 5000 DZ SCT008 BKN016 09/08 Q0976', 'EIWF 101000Z 13013KT 100V170 9999 SCT014 SCT026 09/08 Q0976', 'EIWF 100930Z 13011KT 9999 SCT013 BKN034 08/07 Q0976', 'EIWF 100900Z 13013KT 100V160 9999 SCT017 BKN030 08/07 Q0976', 'EIWF 100830Z 13011KT 9999 SCT018 SCT020 08/07 Q0975', 'EIWF 100800Z 13013KT 110V170 9999 FEW015 SCT025 BKN039 08/07 Q0975', 'EIWF 092030Z 21007KT 9999 FEW020 07/06 Q0974', 'EIWF 092000Z 23004KT 9999 FEW020 06/06 Q0974', 'EIWF 091930Z 22009KT CAVOK 07/06 Q0974', 'EIWF 091830Z 24006KT 210V280 9999 FEW045 07/06 Q0974', 'EIWF 091800Z 24004KT 160V330 9999 FEW045 07/06 Q0973', 'EIWF 091730Z 24007KT 210V270 9999 FEW011 SCT049 07/06 Q0973', 'EIWF 091700Z 25006KT 210V290 9999 FEW011 BKN038 08/07 Q0973', 'EIWF 091630Z 24010KT 200V280 9999 FEW010 BKN039 09/08 Q0973', 'EIWF 091600Z 24009KT 170V270 9999 FEW020 BKN043 09/08 Q0973', 'EIWF 091530Z 24009KT 190V280 9999 FEW007 SCT032 10/09 Q0973', 'EIWF 091500Z 23007KT 200V260 8000 FEW007 SCT013 09/08 Q0973', 'EIWF 091430Z VRB02KT 6000 FEW003 BKN006 08/08 Q0973', 'EIWF 091400Z 12005KT 080V150 5000 BR FEW002 BKN004 09/08 Q0973', 'EIWF 091300Z 10005KT 3000 BR OVC002 08/07 Q0973', 'EIWF 091230Z VRB03KT 2000 BR OVC002 08/08 Q0973', 'EIWF 091200Z 10006KT 3000 BR OVC002 08/08 Q0973', 'EIWF 091130Z 10005KT 070V130 5000 BR SCT002 BKN004 08/08 Q0973', 'EIWF 091100Z 09006KT 050V130 5000 BR BKN003 07/07 Q0973', 'EIWF 091030Z 09005KT 5000 BR BKN004 07/07 Q0973', 'EIWF 091000Z 09004KT 050V130 5000 BR BKN003 07/07 Q0972', 'EIWF 090930Z 08004KT 050V110 3000 BR BKN003 07/07 Q0972', 'EIWF 090900Z 08004KT 4000 BR BKN004 07/07 Q0972', 'EIWF 090830Z 08004KT 050V110 8000 BR BKN003 07/07 Q0972', 'EIWF 082030Z 12008KT 090V160 2100 -RA BKN002 09/09 Q0973', 'EIWF 082000Z 10010KT 070V130 1500 BR OVC002 09/09 Q0974', 'EIWF 081930Z 10007KT 070V130 6000 -RA BKN002 09/09 Q0974', 'EIWF 081830Z 13006KT 3400 -RA BKN001 10/09 Q0975', 'EIWF 081800Z 13007KT 1100 BR SCT001 BKN003 10/09 Q0976', 'EIWF 081730Z 13005KT 1500 BR BKN002 09/09 Q0976', 'EIWF 081700Z 16007KT 0400 FG VV000 10/10 Q0977', 'EIWF 081630Z 16006KT 0350 FG OVC001 09/09 Q0977', 'EIWF 081600Z 17007KT 3200 BR BKN002 10/10 Q0978', 'EIWF 081530Z 17007KT 6000 SCT003 BKN008 10/09 Q0978', 'EIWF 081500Z 19007KT 7000 BKN003 10/10 Q0979', 'EIWF 081430Z 21007KT 6000 BKN002 10/10 Q0979', 'EIWF 081400Z 17006KT 140V200 2300 BR BKN002 10/09 Q0980', 'EIWF 081300Z 09005KT 2900 BR OVC002 09/09 Q0981', 'EIWF 081230Z 09006KT 7000 BKN004 09/08 Q0981', 'EIWF 081200Z 08005KT 7000 -RA FEW004 BKN008 08/07 Q0982', 'EIWF 081130Z 08007KT 9999 FEW004 BKN009 08/08 Q0982', 'EIWF 081100Z 08008KT 050V110 9999 FEW004 BKN007 08/07 Q0982', 'EIWF 081030Z 07008KT 040V100 9999 SCT005 BKN009 07/07 Q0982', 'EIWF 081000Z 07008KT 9999 FEW005 BKN012 07/07 Q0983', 'EIWF 080930Z 03006KT 330V070 9999 BKN005 06/06 Q0983', 'EIWF 080900Z 08013KT 040V120 9999 SCT004 BKN006 06/06 Q0983 REDZ', 'EIWF 080830Z 09016KT 2500 DZ SCT002 BKN004 06/05 Q0983 RERA', 'EIWF 080800Z 07014G25KT 040V100 0600 RA BKN004 06/06 Q0984 REDZ', 'EIWF 072330Z 09009KT 9999 FEW020 SCT042 06/04 Q0998', 'EIWF 072030Z 08005KT CAVOK 04/03 Q1002', 'EIWF 072000Z 08006KT 040V110 9999 -RA NSC 05/03 Q1003', 'EIWF 071830Z 08006KT 060V120 CAVOK 05/03 Q1004', 'EIWF 071800Z 08004KT 050V110 9999 FEW025 06/04 Q1004', 'EIWF 071730Z 08002KT 9999 FEW022 06/04 Q1004']","['2024-02-10 16:30:00', '2024-02-10 16:00:00', '2024-02-10 15:30:00', '2024-02-10 15:00:00', '2024-02-10 14:30:00', '2024-02-10 14:00:00', '2024-02-10 13:00:00', '2024-02-10 12:30:00', '2024-02-10 12:00:00', '2024-02-10 11:30:00', '2024-02-10 11:00:00', '2024-02-10 10:30:00', '2024-02-10 10:00:00', '2024-02-10 09:30:00', '2024-02-10 09:00:00', '2024-02-10 08:30:00', '2024-02-10 08:00:00', '2024-02-09 20:30:00', '2024-02-09 20:00:00', '2024-02-09 19:30:00', '2024-02-09 18:30:00', '2024-02-09 18:00:00', '2024-02-09 17:30:00', '2024-02-09 17:00:00', '2024-02-09 16:30:00', '2024-02-09 16:00:00', '2024-02-09 15:30:00', '2024-02-09 15:00:00', '2024-02-09 14:30:00', '2024-02-09 14:00:00', '2024-02-09 13:00:00', '2024-02-09 12:30:00', '2024-02-09 12:00:00', '2024-02-09 11:30:00', '2024-02-09 11:00:00', '2024-02-09 10:30:00', '2024-02-09 10:00:00', '2024-02-09 09:30:00', '2024-02-09 09:00:00', '2024-02-09 08:30:00', '2024-02-08 20:30:00', '2024-02-08 20:00:00', '2024-02-08 19:30:00', '2024-02-08 18:30:00', '2024-02-08 18:00:00', '2024-02-08 17:30:00', '2024-02-08 17:00:00', '2024-02-08 16:30:00', '2024-02-08 16:00:00', '2024-02-08 15:30:00', '2024-02-08 15:00:00', '2024-02-08 14:30:00', '2024-02-08 14:00:00', '2024-02-08 13:00:00', '2024-02-08 12:30:00', '2024-02-08 12:00:00', '2024-02-08 11:30:00', '2024-02-08 11:00:00', '2024-02-08 10:30:00', '2024-02-08 10:00:00', '2024-02-08 09:30:00', '2024-02-08 09:00:00', '2024-02-08 08:30:00', '2024-02-08 08:00:00', '2024-02-07 23:30:00', '2024-02-07 20:30:00', '2024-02-07 20:00:00', '2024-02-07 18:30:00', '2024-02-07 18:00:00', '2024-02-07 17:30:00']"
Isle-of-man, Isle of Man Airport (IOM/EGNS) ,"['EGNS 101650Z 10011KT 9999 SCT007 07/06 Q0983 NOSIG', 'EGNS 101620Z 09011KT 9999 SCT007 07/06 Q0983 NOSIG', 'EGNS 101550Z 09010KT 9999 SCT007 08/06 Q0983 TEMPO BKN007', 'EGNS 101520Z 09008KT 9999 FEW009 08/07 Q0982 NOSIG', 'EGNS 101450Z 08009KT 9999 FEW008 08/06 Q0982 NOSIG', 'EGNS 101420Z 09008KT 9999 FEW009 09/06 Q0982 NOSIG', 'EGNS 101350Z 09009KT 9999 FEW009 09/06 Q0982 NOSIG', 'EGNS 101320Z 09009KT 9999 FEW008 09/07 Q0982 NOSIG', 'EGNS 101250Z 10008KT 9999 FEW015 09/06 Q0982 NOSIG', 'EGNS 101220Z 11009KT 9999 FEW012 09/07 Q0982 NOSIG', 'EGNS 101150Z 11008KT 9999 FEW012 09/07 Q0982 NOSIG', 'EGNS 101120Z 12007KT 9999 FEW015 09/07 Q0982 NOSIG', 'EGNS 101050Z 11006KT 9999 FEW012 09/08 Q0981 NOSIG', 'EGNS 101020Z 12007KT 9999 FEW008 09/07 Q0981 NOSIG', 'EGNS 100950Z 13007KT 9999 FEW008 09/08 Q0981 NOSIG', 'EGNS 100920Z 12007KT 9999 FEW008 08/07 Q0981 NOSIG', 'EGNS 100850Z 14007KT 9999 FEW006 SCT045 08/07 Q0981 NOSIG', 'EGNS 100820Z 15006KT 9999 FEW005 07/06 Q0980 NOSIG', 'EGNS 100750Z 16007KT 9999 FEW010 07/06 Q0980 NOSIG', 'EGNS 100720Z 15007KT 9999 FEW012 06/05 Q0979 NOSIG', 'EGNS 100650Z 17006KT 9999 FEW012 SCT016 06/05 Q0979 NOSIG', 'EGNS 100620Z 17006KT 9999 FEW012 SCT016 06/05 Q0978', 'EGNS 100550Z 17007KT 9999 FEW008 SCT016 07/06 Q0978', 'EGNS 100520Z 16008KT 9999 FEW008 SCT012 BKN020 06/06 Q0978', 'EGNS 100450Z 16002KT 9999 SCT016 BKN030 05/04 Q0978', 'EGNS 100250Z 21006KT 9999 BKN012 BKN040 07/06 Q0977', 'EGNS 100150Z 21008KT 5000 -DZ SCT004 BKN008 08/07 Q0977', 'EGNS 100050Z 21007KT 9999 BKN008 08/07 Q0976', 'EGNS 092350Z 20010KT 9999 -DZ FEW006 SCT008 OVC012 08/07 Q0976', 'EGNS 092250Z 19007KT 9999 FEW010 BKN012 08/07 Q0976', 'EGNS 092150Z 18005KT 9999 OVC010 08/07 Q0975', 'EGNS 092120Z 18005KT 9999 SCT012 BKN045 08/07 Q0975 NOSIG', 'EGNS 092050Z 17007KT 9999 SCT012 OVC045 08/07 Q0974 TEMPO BKN007', 'EGNS 092020Z 17006KT 9999 SCT005 OVC013 08/07 Q0974 TEMPO BKN007', 'EGNS 091950Z 13009KT 4000 -DZ BKN003 OVC006 08/08 Q0974 NOSIG', 'EGNS 091920Z 13010KT 6000 OVC003 08/08 Q0974 NOSIG', 'EGNS 091850Z 11010KT 6000 BKN002 OVC003 08/07 Q0973 NOSIG', 'EGNS 091820Z 07011KT 2000 RADZ SCT002 OVC003 07/07 Q0973 NOSIG', 'EGNS 091750Z 08012KT 2500 DZ OVC003 07/07 Q0973 NOSIG', 'EGNS 091720Z 07013KT 2500 -DZ OVC003 07/07 Q0973 NOSIG', 'EGNS 091650Z 07014KT 4000 -DZ SCT003 OVC004 07/06 Q0973 NOSIG', 'EGNS 091620Z 07014KT 3200 -DZ OVC004 07/06 Q0973 NOSIG', 'EGNS 091550Z 07014KT 3200 -DZ OVC004 07/06 Q0973 TEMPO BKN002', 'EGNS 091520Z 07014KT 2500 -DZ OVC004 06/05 Q0973 TEMPO BKN002', 'EGNS 091450Z 06014KT 3000 -DZ OVC004 06/06 Q0973 NOSIG', 'EGNS 091420Z 06013KT 5000 -DZ FEW004 OVC006 06/05 Q0973 NOSIG', 'EGNS 091350Z 06013KT 5000 -DZ FEW004 OVC006 06/05 Q0973 NOSIG', 'EGNS 091320Z 06013KT 4000 -DZ BKN006 OVC010 06/05 Q0973 NOSIG', 'EGNS 091250Z 06015KT 4000 -DZ BKN006 OVC009 06/05 Q0973 NOSIG', 'EGNS 091220Z 05014KT 5000 -DZ BKN006 OVC010 06/04 Q0973 NOSIG', 'EGNS 091150Z 06016KT 5000 -DZ BKN006 OVC012 05/04 Q0974 NOSIG', 'EGNS 091120Z 06016KT 5000 -DZ BKN006 OVC012 05/04 Q0974 BECMG 9999 NSW', 'EGNS 091050Z 06017KT 5000 -DZ BKN007 OVC015 05/04 Q0974 BECMG 9999 NSW', 'EGNS 091020Z 06018KT 3000 -DZ BKN007 OVC020 05/04 Q0974 BECMG 9999 NSW', 'EGNS 090950Z 06017KT 9999 SCT013 OVC020 06/03 Q0974 NOSIG', 'EGNS 090920Z 06019KT 9999 SCT014 OVC020 06/03 Q0974 NOSIG', 'EGNS 090850Z 07016KT 9999 -DZ BKN013 OVC020 05/03 Q0974 NOSIG', 'EGNS 090820Z 05015KT 9999 8000N -DZ FEW014 OVC020 05/02 Q0974 NOSIG', 'EGNS 090750Z 07019KT 9999 8000N -DZ FEW014 OVC020 06/02 Q0974 NOSIG', 'EGNS 090720Z 06022KT 9999 -DZ FEW012 OVC020 05/03 Q0974 NOSIG', 'EGNS 090650Z 06022KT 9999 -RA FEW012 OVC016 05/03 Q0974 NOSIG', 'EGNS 090620Z 07026KT 9999 -RA FEW012 OVC016 05/02 Q0974 NOSIG', 'EGNS 090550Z 07024KT 9999 -RA OVC016 05/02 Q0974', 'EGNS 090520Z 07024KT 9999 -RA OVC016 05/03 Q0974', 'EGNS 090450Z 07024KT 9999 -RA OVC016 05/02 Q0975', 'EGNS 090250Z 08027KT 9999 FEW012 BKN018 05/02 Q0976', 'EGNS 090150Z 07029KT 9999 OVC018 05/02 Q0977', 'EGNS 090050Z 09032KT 4000 -RA BKN012 OVC018 04/02 Q0978', 'EGNS 082350Z 09033KT 8000 -RADZ FEW008 OVC012 04/03 Q0978', 'EGNS 082250Z 08030KT 8000 -RADZ FEW008 OVC012 04/03 Q0979', 'EGNS 082150Z 09029KT 3000 RADZ FEW006 OVC008 04/03 Q0980', 'EGNS 082050Z 09030KT 3000 RADZ FEW006 BKN008 OVC014 04/03 Q0981 TEMPO 6000 -RADZ', 'EGNS 082020Z 09032KT 3000 RADZ FEW006 BKN008 OVC014 04/03 Q0981 TEMPO 6000 -RADZ', 'EGNS 081950Z 09031KT 3000 RADZ FEW006 BKN008 OVC011 04/03 Q0982 TEMPO 6000 -RADZ', 'EGNS 081920Z 09030KT 3000 RADZ SCT006 BKN008 04/03 Q0982 TEMPO 6000 -RADZ', 'EGNS 081850Z 09031G42KT 8000 -DZ FEW006 SCT008 BKN009 04/03 Q0982 TEMPO 3000 RADZ BKN008', 'EGNS 081820Z 09031KT 3000 RADZ SCT006 BKN008 04/03 Q0983 TEMPO 6000 -RADZ', 'EGNS 081720Z 09031G41KT 3500 -RADZ BKN006 OVC010 04/02 Q0983 NOSIG', 'EGNS 081650Z 09031KT 3500 -RADZ FEW005 OVC008 04/02 Q0984 NOSIG', 'EGNS 081620Z 09030KT 5000 -RA FEW005 OVC008 04/02 Q0984 NOSIG', 'EGNS 081550Z 09031KT 3500 RA FEW005 OVC008 04/01 Q0984 NOSIG', 'EGNS 081520Z 09031KT 3500 RA FEW005 BKN008 OVC015 03/02 Q0985 NOSIG', 'EGNS 081450Z 09029G39KT 3500 -RADZ FEW005 BKN008 OVC015 03/02 Q0986 NOSIG', 'EGNS 081420Z 09031KT 6000 -RA FEW005 BKN009 OVC016 03/02 Q0986 NOSIG', 'EGNS 081350Z 09032KT 7000 -RA FEW005 BKN008 OVC015 03/02 Q0987 NOSIG', 'EGNS 081320Z 08031KT 6000 RA FEW005 BKN008 OVC016 03/01 Q0987 NOSIG', 'EGNS 081250Z 09032KT 6000 RA FEW005 BKN008 OVC016 03/01 Q0988 NOSIG', 'EGNS 081220Z 09034KT 6000 RA FEW005 BKN009 OVC016 03/01 Q0988 NOSIG', 'EGNS 081150Z 09033KT 5000 RASN FEW005 BKN009 OVC016 03/M01 Q0989 NOSIG', 'EGNS 081120Z 09033KT 5000 RA FEW005 BKN008 OVC016 03/02 Q0989 NOSIG', 'EGNS 081050Z 09032KT 5000 RA FEW005 BKN009 OVC015 03/02 Q0990 NOSIG', 'EGNS 081020Z 09031KT 5000 RA FEW005 BKN008 OVC015 03/02 Q0990 NOSIG', 'EGNS 080950Z 09032KT 5000 RA FEW005 BKN008 OVC015 03/02 Q0991 NOSIG', 'EGNS 080920Z 09031KT 5000 RASN FEW006 BKN012 OVC020 03/01 Q0991 TEMPO BKN008', 'EGNS 080850Z 09030G40KT 7000 RASN FEW007 BKN013 OVC025 03/01 Q0992 TEMPO 5000 BKN008', 'EGNS 080820Z 10030KT 8000 RA FEW008 BKN015 OVC028 03/00 Q0992 TEMPO 5000 RASN BKN008', 'EGNS 080750Z 10028G39KT 9999 -RA FEW008 BKN018 OVC040 03/M00 Q0993 TEMPO 5000 RA BKN008', 'EGNS 080720Z 10025KT 8000 RA FEW008 OVC014 04/02 Q0993 TEMPO 3000 BKN004', 'EGNS 080650Z 10025KT 9999 -RA FEW012 SCT017 BKN035 04/02 Q0994 BECMG 6000 RA BKN008', 'EGNS 080620Z 10023KT 9999 -RA FEW012 SCT018 BKN040 04/00 Q0995 BECMG 8000 RA BKN014', 'EGNS 080550Z 09021KT 9999 -RA FEW012 SCT020 BKN040 04/01 Q0995 BECMG 8000 RA BKN014', 'EGNS 080520Z 09021KT 9999 FEW015 05/02 Q0996 TEMPO BKN012', 'EGNS 080450Z 09021KT 9999 SCT015 05/02 Q0997', 'EGNS 080250Z 08016KT 9999 FEW022 04/00 Q0999', 'EGNS 080150Z 08014KT 9999 FEW022 04/00 Q1000', 'EGNS 080050Z 07009KT 030V090 9999 FEW030 03/M01 Q1002', 'EGNS 072350Z 02009KT 9999 FEW027 03/M00 Q1003', 'EGNS 072250Z 02007KT 9999 FEW027 03/M00 Q1003', 'EGNS 072150Z 02007KT CAVOK 03/00 Q1004', 'EGNS 072120Z 02007KT CAVOK 03/00 Q1004 NOSIG', 'EGNS 072050Z 02007KT 9999 FEW020 03/M00 Q1004 NOSIG', 'EGNS 071950Z 02005KT 9999 FEW020 03/00 Q1005 NOSIG', 'EGNS 071920Z 36006KT 310V010 9999 FEW020 03/00 Q1005 NOSIG', 'EGNS 071850Z 04005KT 9999 FEW020 03/00 Q1005 NOSIG', 'EGNS 071820Z 01004KT 340V040 9999 FEW020 04/00 Q1005 NOSIG', 'EGNS 071750Z 35004KT 9999 FEW020 04/01 Q1005 NOSIG']","['2024-02-10 16:50:00', '2024-02-10 16:20:00', '2024-02-10 15:50:00', '2024-02-10 15:20:00', '2024-02-10 14:50:00', '2024-02-10 14:20:00', '2024-02-10 13:50:00', '2024-02-10 13:20:00', '2024-02-10 12:50:00', '2024-02-10 12:20:00', '2024-02-10 11:50:00', '2024-02-10 11:20:00', '2024-02-10 10:50:00', '2024-02-10 10:20:00', '2024-02-10 09:50:00', '2024-02-10 09:20:00', '2024-02-10 08:50:00', '2024-02-10 08:20:00', '2024-02-10 07:50:00', '2024-02-10 07:20:00', '2024-02-10 06:50:00', '2024-02-10 06:20:00', '2024-02-10 05:50:00', '2024-02-10 05:20:00', '2024-02-10 04:50:00', '2024-02-10 02:50:00', '2024-02-10 01:50:00', '2024-02-10 00:50:00', '2024-02-09 23:50:00', '2024-02-09 22:50:00', '2024-02-09 21:50:00', '2024-02-09 21:20:00', '2024-02-09 20:50:00', '2024-02-09 20:20:00', '2024-02-09 19:50:00', '2024-02-09 19:20:00', '2024-02-09 18:50:00', '2024-02-09 18:20:00', '2024-02-09 17:50:00', '2024-02-09 17:20:00', '2024-02-09 16:50:00', '2024-02-09 16:20:00', '2024-02-09 15:50:00', '2024-02-09 15:20:00', '2024-02-09 14:50:00', '2024-02-09 14:20:00', '2024-02-09 13:50:00', '2024-02-09 13:20:00', '2024-02-09 12:50:00', '2024-02-09 12:20:00', '2024-02-09 11:50:00', '2024-02-09 11:20:00', '2024-02-09 10:50:00', '2024-02-09 10:20:00', '2024-02-09 09:50:00', '2024-02-09 09:20:00', '2024-02-09 08:50:00', '2024-02-09 08:20:00', '2024-02-09 07:50:00', '2024-02-09 07:20:00', '2024-02-09 06:50:00', '2024-02-09 06:20:00', '2024-02-09 05:50:00', '2024-02-09 05:20:00', '2024-02-09 04:50:00', '2024-02-09 02:50:00', '2024-02-09 01:50:00', '2024-02-09 00:50:00', '2024-02-08 23:50:00', '2024-02-08 22:50:00', '2024-02-08 21:50:00', '2024-02-08 20:50:00', '2024-02-08 20:20:00', '2024-02-08 19:50:00', '2024-02-08 19:20:00', '2024-02-08 18:50:00', '2024-02-08 18:20:00', '2024-02-08 17:20:00', '2024-02-08 16:50:00', '2024-02-08 16:20:00', '2024-02-08 15:50:00', '2024-02-08 15:20:00', '2024-02-08 14:50:00', '2024-02-08 14:20:00', '2024-02-08 13:50:00', '2024-02-08 13:20:00', '2024-02-08 12:50:00', '2024-02-08 12:20:00', '2024-02-08 11:50:00', '2024-02-08 11:20:00', '2024-02-08 10:50:00', '2024-02-08 10:20:00', '2024-02-08 09:50:00', '2024-02-08 09:20:00', '2024-02-08 08:50:00', '2024-02-08 08:20:00', '2024-02-08 07:50:00', '2024-02-08 07:20:00', '2024-02-08 06:50:00', '2024-02-08 06:20:00', '2024-02-08 05:50:00', '2024-02-08 05:20:00', '2024-02-08 04:50:00', '2024-02-08 02:50:00', '2024-02-08 01:50:00', '2024-02-08 00:50:00', '2024-02-07 23:50:00', '2024-02-07 22:50:00', '2024-02-07 21:50:00', '2024-02-07 21:20:00', '2024-02-07 20:50:00', '2024-02-07 19:50:00', '2024-02-07 19:20:00', '2024-02-07 18:50:00', '2024-02-07 18:20:00', '2024-02-07 17:50:00']"
Israel, Eilat Ramon Airport (ETM/LLER) ,"['LLER 101650Z 36012KT CAVOK 18/04 Q1019', 'LLER 101550Z 02013KT CAVOK 19/04 Q1018', 'LLER 101450Z 01015KT CAVOK 20/04 Q1018', 'LLER 101350Z 02015KT CAVOK 21/04 Q1018', 'LLER 101250Z 01016KT CAVOK 21/05 Q1017', 'LLER 101150Z 01017KT CAVOK 20/06 Q1018', 'LLER 101050Z 01018KT CAVOK 20/06 Q1018', 'LLER 100950Z 01013KT CAVOK 19/07 Q1019 RMK FEW060', 'LLER 100850Z 02013KT CAVOK 18/08 Q1019', 'LLER 100750Z 36011KT 9999 FEW040 17/08 Q1020', 'LLER 100650Z 01009KT 9999 FEW040 15/08 Q1020', 'LLER 100550Z 36010KT 9999 FEW040 12/08 Q1019', 'LLER 091550Z 34008KT CAVOK 22/00 Q1015', 'LLER 091450Z 01010KT CAVOK 23/05 Q1015', 'LLER 091350Z 02008KT CAVOK 24/04 Q1015', 'LLER 091250Z 02010KT CAVOK 23/06 Q1015', 'LLER 091150Z 02011KT CAVOK 23/06 Q1015', 'LLER 091050Z 03011KT CAVOK 22/07 Q1016', 'LLER 090950Z 02012KT CAVOK 21/07 Q1017', 'LLER 090850Z 02013KT CAVOK 19/06 Q1017', 'LLER 090750Z 02012KT CAVOK 18/07 Q1018', 'LLER 090650Z 36013KT CAVOK 16/07 Q1018', 'LLER 090550Z 34012KT CAVOK 14/06 Q1017', 'LLER 090450Z 35011KT CAVOK 13/04 Q1017', 'LLER 082050Z 02009KT CAVOK 16/03 Q1017', 'LLER 081950Z 35010KT CAVOK 17/03 Q1017', 'LLER 081850Z 36012KT CAVOK 18/03 Q1017', 'LLER 081750Z 01011KT CAVOK 19/03 Q1017', 'LLER 081650Z 01012KT CAVOK 20/02 Q1016', 'LLER 081550Z 02011KT CAVOK 22/02 Q1016', 'LLER 081450Z 02011KT CAVOK 25/02 Q1015', 'LLER 081350Z 03006KT 360V060 CAVOK 27/M00 Q1015', 'LLER 081250Z 36008KT CAVOK 26/00 Q1016', 'LLER 081150Z 35008KT CAVOK 26/00 Q1016', 'LLER 081050Z 36009KT CAVOK 24/02 Q1017', 'LLER 080950Z 01009KT CAVOK 22/04 Q1019', 'LLER 080850Z 01011KT CAVOK 20/06 Q1020', 'LLER 080750Z 01011KT CAVOK 18/08 Q1021', 'LLER 080650Z 36012KT CAVOK 15/08 Q1022', 'LLER 080550Z 35011KT CAVOK 13/08 Q1021', 'LLER 080450Z 34011KT CAVOK 12/08 Q1021', 'LLER 080350Z 34011KT CAVOK 12/09 Q1021', 'LLER 072050Z 35011KT CAVOK 15/06 Q1022', 'LLER 071950Z 36011KT CAVOK 15/04 Q1022', 'LLER 071850Z 02011KT CAVOK 16/04 Q1022', 'LLER 071750Z 02011KT CAVOK 17/05 Q1022']","['2024-02-10 16:50:00', '2024-02-10 15:50:00', '2024-02-10 14:50:00', '2024-02-10 13:50:00', '2024-02-10 12:50:00', '2024-02-10 11:50:00', '2024-02-10 10:50:00', '2024-02-10 09:50:00', '2024-02-10 08:50:00', '2024-02-10 07:50:00', '2024-02-10 06:50:00', '2024-02-10 05:50:00', '2024-02-09 15:50:00', '2024-02-09 14:50:00', '2024-02-09 13:50:00', '2024-02-09 12:50:00', '2024-02-09 11:50:00', '2024-02-09 10:50:00', '2024-02-09 09:50:00', '2024-02-09 08:50:00', '2024-02-09 07:50:00', '2024-02-09 06:50:00', '2024-02-09 05:50:00', '2024-02-09 04:50:00', '2024-02-08 20:50:00', '2024-02-08 19:50:00', '2024-02-08 18:50:00', '2024-02-08 17:50:00', '2024-02-08 16:50:00', '2024-02-08 15:50:00', '2024-02-08 14:50:00', '2024-02-08 13:50:00', '2024-02-08 12:50:00', '2024-02-08 11:50:00', '2024-02-08 10:50:00', '2024-02-08 09:50:00', '2024-02-08 08:50:00', '2024-02-08 07:50:00', '2024-02-08 06:50:00', '2024-02-08 05:50:00', '2024-02-08 04:50:00', '2024-02-08 03:50:00', '2024-02-07 20:50:00', '2024-02-07 19:50:00', '2024-02-07 18:50:00', '2024-02-07 17:50:00']"
Israel, Haifa Airport (HFA/LLHA) ,"['LLHA 101650Z 34006KT CAVOK 17/11 Q1020', 'LLHA 101550Z 33005KT CAVOK 17/11 Q1020', 'LLHA 101450Z 32005KT 290V360 9999 FEW030 18/10 Q1019', 'LLHA 101350Z 31006KT 9999 FEW030 19/12 Q1019', 'LLHA 101250Z 31007KT 280V340 9999 FEW030 19/10 Q1019', 'LLHA 101150Z 31006KT 9999 FEW030TCU SCT035 19/12 Q1019', 'LLHA 101050Z 32007KT 9999 FEW030TCU SCT035 19/12 Q1019', 'LLHA 100950Z 32006KT 9999 FEW030TCU SCT035 19/12 Q1019', 'LLHA 100850Z 32004KT 270V020 9999 FEW027 SCT035 18/13 Q1020', 'LLHA 100750Z 16004KT 9999 SCT031 17/13 Q1020', 'LLHA 100650Z 17005KT 9999 FEW025TCU BKN027 14/12 Q1019', 'LLHA 100550Z 13005KT 9999 BKN032 13/11 Q1019', 'LLHA 100450Z AUTO 16005KT 9000 FEW028 11/10 Q1018', 'LLHA 100350Z AUTO 15004KT 8000 NSC 11/10 Q1018 RERA', 'LLHA 100250Z AUTO 17006KT 8000 RA SCT020 11/10 Q1017 RMK BKN075', 'LLHA 091650Z VRB02KT 9999 FEW030 17/11 Q1017', 'LLHA 091550Z VRB03KT 9999 SCT032 17/11 Q1017', 'LLHA 091450Z 31006KT 9999 SCT037 18/10 Q1017', 'LLHA 091350Z 30008KT 9999 FEW038 18/10 Q1017', 'LLHA 091250Z 30007KT 9999 SCT035 18/11 Q1017', 'LLHA 091150Z 30007KT 9999 SCT029 19/11 Q1017', 'LLHA 091050Z 27007KT 9999 SCT032 20/10 Q1017', 'LLHA 090950Z 29006KT 250V330 9999 SCT031 20/12 Q1017', 'LLHA 090850Z 28007KT 9999 SCT029 19/12 Q1018', 'LLHA 090750Z VRB03KT 9999 SCT026 18/13 Q1017', 'LLHA 090650Z VRB02KT 9000 FEW020 16/13 Q1017', 'LLHA 090550Z 15004KT 8000 FEW016 13/11 Q1017', 'LLHA 090450Z VRB01KT 8000 FEW017 11/10 Q1016', 'LLHA 081750Z VRB03KT CAVOK 18/14 Q1017', 'LLHA 081650Z 35005KT CAVOK 18/14 Q1017', 'LLHA 081550Z 34006KT CAVOK 18/15 Q1017', 'LLHA 081450Z VRB02KT CAVOK 22/07 Q1017', 'LLHA 081350Z 19006KT CAVOK 23/07 Q1017', 'LLHA 081250Z 17007KT CAVOK 23/07 Q1018', 'LLHA 081150Z 13007KT 090V170 CAVOK 23/07 Q1018', 'LLHA 081050Z 13008KT 100V160 CAVOK 22/07 Q1019', 'LLHA 080950Z 15007KT 120V180 CAVOK 20/10 Q1020', 'LLHA 080850Z 13010KT CAVOK 19/09 Q1021', 'LLHA 080750Z 14008KT CAVOK 18/08 Q1022', 'LLHA 080650Z 15008KT CAVOK 16/08 Q1022', 'LLHA 080550Z 16007KT CAVOK 15/08 Q1022', 'LLHA 080450Z AUTO 17008KT CAVOK 13/10 Q1022', 'LLHA 080350Z AUTO 17008KT CAVOK 13/10 Q1022', 'LLHA 080250Z AUTO 17007KT CAVOK 13/10 Q1022', 'LLHA 071750Z VRB03KT 9999 FEW027 17/13 Q1024 RMK SCT070']","['2024-02-10 16:50:00', '2024-02-10 15:50:00', '2024-02-10 14:50:00', '2024-02-10 13:50:00', '2024-02-10 12:50:00', '2024-02-10 11:50:00', '2024-02-10 10:50:00', '2024-02-10 09:50:00', '2024-02-10 08:50:00', '2024-02-10 07:50:00', '2024-02-10 06:50:00', '2024-02-10 05:50:00', '2024-02-10 04:50:00', '2024-02-10 03:50:00', '2024-02-10 02:50:00', '2024-02-09 16:50:00', '2024-02-09 15:50:00', '2024-02-09 14:50:00', '2024-02-09 13:50:00', '2024-02-09 12:50:00', '2024-02-09 11:50:00', '2024-02-09 10:50:00', '2024-02-09 09:50:00', '2024-02-09 08:50:00', '2024-02-09 07:50:00', '2024-02-09 06:50:00', '2024-02-09 05:50:00', '2024-02-09 04:50:00', '2024-02-08 17:50:00', '2024-02-08 16:50:00', '2024-02-08 15:50:00', '2024-02-08 14:50:00', '2024-02-08 13:50:00', '2024-02-08 12:50:00', '2024-02-08 11:50:00', '2024-02-08 10:50:00', '2024-02-08 09:50:00', '2024-02-08 08:50:00', '2024-02-08 07:50:00', '2024-02-08 06:50:00', '2024-02-08 05:50:00', '2024-02-08 04:50:00', '2024-02-08 03:50:00', '2024-02-08 02:50:00', '2024-02-07 17:50:00']"
Israel, Tel Aviv Ben Gurion International Airport (TLV/LLBG) ,"['LLBG 101650Z VRB02KT CAVOK 16/11 Q1020 NOSIG', 'LLBG 101620Z 33004KT CAVOK 16/11 Q1020 NOSIG', 'LLBG 101550Z 31005KT 9999 FEW030 17/11 Q1020 NOSIG', 'LLBG 101520Z 31005KT 9999 FEW030 17/11 Q1019 NOSIG', 'LLBG 101450Z 29006KT 9999 FEW035 18/11 Q1019 NOSIG', 'LLBG 101420Z 30008KT 9999 FEW035 18/11 Q1019 NOSIG', 'LLBG 101350Z 29009KT 9999 FEW035 18/11 Q1019 NOSIG', 'LLBG 101320Z 29009KT 9999 FEW030 19/12 Q1019 NOSIG', 'LLBG 101250Z 31008KT 9999 SCT040 19/11 Q1019 NOSIG', 'LLBG 101220Z 30010KT 9999 FEW035TCU BKN042 18/11 Q1019 NOSIG', 'LLBG 101150Z 31009KT 9999 FEW035TCU BKN042 19/11 Q1019 BECMG 7000 RA FEW025TCU', 'LLBG 101120Z 30009KT 9999 FEW035TCU BKN045 19/10 Q1019 BECMG 7000 RA FEW025TCU', 'LLBG 101050Z 31007KT 9999 FEW035TCU BKN045 19/11 Q1019 BECMG 7000 RA FEW025TCU', 'LLBG 101020Z 29006KT 250V330 9999 FEW033TCU BKN048 20/12 Q1019 NOSIG', 'LLBG 100950Z VRB03KT 9999 FEW033TCU BKN048 18/11 Q1019 NOSIG', 'LLBG 100920Z VRB03KT 9999 FEW028 SCT048 19/11 Q1020 NOSIG', 'LLBG 100850Z VRB03KT 9999 FEW025TCU SCT035 19/11 Q1020 NOSIG', 'LLBG 100820Z 22004KT 160V280 9999 FEW025TCU SCT035 18/11 Q1020 NOSIG', 'LLBG 100750Z 21004KT 9999 FEW025TCU SCT035 18/12 Q1020 NOSIG', 'LLBG 100720Z VRB03KT 9999 FEW035 16/11 Q1020 NOSIG', 'LLBG 100650Z VRB02KT 9999 FEW035 15/10 Q1020 NOSIG', 'LLBG 100620Z VRB01KT 9999 FEW035 14/10 Q1019 NOSIG', 'LLBG 100550Z VRB02KT 9999 FEW035 13/10 Q1019 NOSIG', 'LLBG 100520Z VRB02KT 9999 FEW035 12/09 Q1019 NOSIG', 'LLBG 100450Z 14004KT 9999 FEW028 11/09 Q1019 NOSIG', 'LLBG 100420Z VRB02KT 9999 SCT029 11/09 Q1018 NOSIG', 'LLBG 100350Z VRB02KT 9999 SCT031 11/09 Q1018 NOSIG RMK SCT062', 'LLBG 100320Z VRB02KT 9999 FEW030 SCT037 11/09 Q1018 NOSIG', 'LLBG 100250Z VRB02KT 9999 FEW033 BKN037 11/09 Q1018 NOSIG', 'LLBG 100220Z VRB03KT 9999 FEW036 SCT041 11/09 Q1018 NOSIG', 'LLBG 100150Z VRB03KT 9999 SCT040 10/09 Q1018 NOSIG', 'LLBG 100120Z VRB02KT 9999 SCT041 10/09 Q1017 NOSIG', 'LLBG 100050Z VRB02KT CAVOK 11/09 Q1017 NOSIG', 'LLBG 100020Z VRB03KT CAVOK 12/09 Q1018 NOSIG', 'LLBG 092350Z 14004KT CAVOK 11/09 Q1018 NOSIG', 'LLBG 092320Z VRB03KT 9999 FEW027 12/10 Q1018 NOSIG', 'LLBG 092250Z VRB03KT 9999 SCT027 12/10 Q1018 NOSIG', 'LLBG 092220Z VRB02KT 9999 BKN027 12/09 Q1018 NOSIG', 'LLBG 092150Z VRB02KT 9999 SCT030 13/10 Q1018 NOSIG', 'LLBG 092120Z VRB02KT 9999 SCT030 13/10 Q1018 NOSIG', 'LLBG 092050Z VRB02KT 9999 BKN030 13/10 Q1018 NOSIG', 'LLBG 092020Z 13005KT 9999 SCT030 13/10 Q1018 NOSIG', 'LLBG 091950Z 13006KT 9999 FEW032 13/10 Q1018 NOSIG', 'LLBG 091920Z 12004KT 9999 FEW030 13/10 Q1018 NOSIG', 'LLBG 091850Z 13004KT 9999 FEW030 14/10 Q1018 NOSIG', 'LLBG 091820Z 14004KT 9999 FEW030 13/11 Q1018 NOSIG', 'LLBG 091750Z VRB03KT CAVOK 15/11 Q1018 NOSIG', 'LLBG 091720Z VRB02KT CAVOK 15/10 Q1018 NOSIG', 'LLBG 091650Z VRB01KT CAVOK 16/10 Q1018 NOSIG', 'LLBG 091620Z VRB03KT CAVOK 16/10 Q1017 NOSIG', 'LLBG 091550Z 30006KT 9999 FEW035 16/11 Q1017 NOSIG', 'LLBG 091520Z 30007KT 9999 FEW033 17/11 Q1017 NOSIG', 'LLBG 091450Z 30009KT 9999 FEW033 17/11 Q1017 NOSIG', 'LLBG 091420Z 29010KT 9999 FEW030 18/10 Q1017 NOSIG', 'LLBG 091350Z 28009KT 9999 FEW028 18/12 Q1017 NOSIG', 'LLBG 091320Z 27009KT 9999 FEW030 19/12 Q1017 NOSIG', 'LLBG 091250Z 27010KT 9999 FEW028 19/12 Q1017 NOSIG', 'LLBG 091220Z 27010KT 9999 FEW028 19/12 Q1017 NOSIG', 'LLBG 091150Z 28009KT 9999 SCT028 19/12 Q1017 NOSIG', 'LLBG 091120Z 28010KT 240V300 9999 FEW020TCU SCT030 19/11 Q1017 NOSIG', 'LLBG 091050Z 26008KT 9999 SCT030 19/11 Q1017 NOSIG', 'LLBG 091020Z 27006KT 240V300 9999 SCT028 SCT042 19/12 Q1017 NOSIG', 'LLBG 090950Z 29004KT 260V320 9999 SCT023 19/11 Q1017 NOSIG', 'LLBG 090920Z 28005KT 200V330 9999 SCT020 19/12 Q1018 NOSIG', 'LLBG 090850Z 22005KT 9999 BKN017 19/13 Q1018 BECMG SCT025', 'LLBG 090820Z 21006KT 9999 SCT014 18/13 Q1018 BECMG SCT025', 'LLBG 090750Z VRB03KT 9000 FEW015 17/12 Q1018 NOSIG', 'LLBG 090720Z 24005KT 8000 BKN015 15/12 Q1018 BECMG 9999 SCT020', 'LLBG 090650Z VRB03KT 7000 BKN014 15/12 Q1018 NOSIG', 'LLBG 090620Z 21004KT 7000 BKN014 13/11 Q1018 NOSIG', 'LLBG 090550Z 15004KT 8000 FEW015 SCT025 13/10 Q1017 TEMPO 5000 HZ BKN015', 'LLBG 090520Z VRB03KT 8000 SCT012 12/10 Q1017 NOSIG', 'LLBG 090450Z VRB01KT 7000 SCT015 12/10 Q1017 NOSIG', 'LLBG 090420Z VRB02KT 8000 SCT015 12/10 Q1017 NOSIG', 'LLBG 090350Z VRB03KT 9000 SCT020 12/10 Q1017 NOSIG', 'LLBG 090320Z 14004KT 8000 SCT018 12/10 Q1016 NOSIG', 'LLBG 090250Z 13005KT 9000 SCT019 12/10 Q1016 TEMPO BKN012', 'LLBG 090220Z VRB02KT 9000 SCT015 12/10 Q1017 TEMPO BKN012', 'LLBG 090150Z VRB03KT 9000 SCT013 11/10 Q1017 BECMG BKN012', 'LLBG 090120Z VRB02KT 9000 FEW015 11/10 Q1016 BECMG BKN012', 'LLBG 090050Z 14004KT 9000 FEW014 12/10 Q1016 BECMG 5000 BR BKN012', 'LLBG 090020Z 14004KT 9000 SCT014 13/10 Q1017 BECMG 5000 BR BKN012', 'LLBG 082350Z 13005KT 9000 FEW015 13/10 Q1017 BECMG 5000 BR BKN012', 'LLBG 082320Z VRB02KT 8000 FEW014 13/11 Q1017 BECMG 5000 BR BKN012', 'LLBG 082250Z VRB03KT 9000 FEW016 13/11 Q1017 NOSIG', 'LLBG 082220Z 15004KT 9000 SCT015 13/11 Q1017 TEMPO BKN012', 'LLBG 082150Z 15004KT 9000 FEW014 13/11 Q1017 TEMPO BKN012', 'LLBG 082120Z 15004KT 9000 NSC 13/11 Q1018 NOSIG', 'LLBG 082050Z 13005KT 9000 NSC 14/11 Q1017 NOSIG', 'LLBG 082020Z VRB03KT 9000 NSC 15/12 Q1017 NOSIG', 'LLBG 081950Z VRB03KT CAVOK 13/12 Q1018 NOSIG', 'LLBG 081920Z VRB03KT CAVOK 13/12 Q1018 NOSIG', 'LLBG 081850Z VRB03KT CAVOK 15/12 Q1017 NOSIG', 'LLBG 081820Z VRB03KT CAVOK 15/12 Q1017 NOSIG', 'LLBG 081750Z VRB02KT CAVOK 15/12 Q1018 NOSIG', 'LLBG 081720Z 08004KT CAVOK 15/12 Q1018 NOSIG', 'LLBG 081650Z VRB03KT CAVOK 16/12 Q1018 NOSIG', 'LLBG 081620Z VRB03KT CAVOK 17/13 Q1018 NOSIG', 'LLBG 081550Z 28005KT CAVOK 17/13 Q1018 NOSIG', 'LLBG 081520Z 29006KT CAVOK 18/12 Q1017 NOSIG', 'LLBG 081450Z 28007KT CAVOK 19/12 Q1017 NOSIG', 'LLBG 081420Z 29005KT CAVOK 20/13 Q1017 NOSIG', 'LLBG 081350Z 29007KT CAVOK 20/13 Q1017 NOSIG', 'LLBG 081320Z 28008KT CAVOK 20/13 Q1017 NOSIG', 'LLBG 081250Z 29008KT CAVOK 20/12 Q1018 NOSIG', 'LLBG 081220Z 29009KT CAVOK 20/10 Q1018 NOSIG', 'LLBG 081150Z 29009KT CAVOK 20/12 Q1018 NOSIG', 'LLBG 081120Z 30009KT CAVOK 21/11 Q1018 NOSIG', 'LLBG 081050Z 29006KT 250V320 CAVOK 21/11 Q1019 NOSIG', 'LLBG 081020Z 29005KT 230V350 CAVOK 22/07 Q1019 NOSIG', 'LLBG 080950Z VRB02KT CAVOK 21/08 Q1020 NOSIG', 'LLBG 080920Z VRB02KT CAVOK 21/09 Q1020 NOSIG', 'LLBG 080850Z VRB03KT CAVOK 20/08 Q1021 NOSIG', 'LLBG 080820Z VRB03KT CAVOK 19/08 Q1021 NOSIG', 'LLBG 080750Z VRB03KT CAVOK 17/09 Q1022 NOSIG', 'LLBG 080720Z 21004KT CAVOK 16/08 Q1022 NOSIG', 'LLBG 080650Z VRB02KT CAVOK 15/09 Q1022 NOSIG', 'LLBG 080620Z VRB03KT CAVOK 13/08 Q1022 NOSIG', 'LLBG 080550Z 14005KT CAVOK 11/08 Q1022 NOSIG', 'LLBG 080520Z VRB03KT CAVOK 10/08 Q1021 NOSIG', 'LLBG 080450Z 16004KT CAVOK 10/08 Q1021 NOSIG', 'LLBG 080420Z VRB03KT CAVOK 09/07 Q1021 NOSIG', 'LLBG 080350Z VRB03KT CAVOK 09/08 Q1021 NOSIG', 'LLBG 080320Z VRB02KT CAVOK 09/08 Q1021 NOSIG', 'LLBG 080250Z VRB01KT 9000 NSC 09/08 Q1021 NOSIG RMK REP AT 0155Z 1000FT-WIND 120/17KT', 'LLBG 080220Z VRB01KT CAVOK 09/08 Q1021 NOSIG RMK REP AT 0155Z 1000FT-WIND 120/17KT', 'LLBG 080150Z 00000KT CAVOK 10/09 Q1021 NOSIG', 'LLBG 080120Z VRB01KT CAVOK 10/09 Q1021 NOSIG RMK REP AT 0040Z 1000FT-WIND 120/19KT', 'LLBG 080050Z VRB02KT CAVOK 11/09 Q1021 NOSIG RMK REP AT 0040Z 1000FT-WIND 120/19KT', 'LLBG 080020Z VRB02KT CAVOK 11/09 Q1022 NOSIG', 'LLBG 072350Z VRB02KT CAVOK 11/10 Q1022 NOSIG', 'LLBG 072320Z VRB02KT CAVOK 11/10 Q1022 NOSIG', 'LLBG 072250Z VRB02KT CAVOK 12/10 Q1022 NOSIG', 'LLBG 072220Z VRB02KT CAVOK 11/09 Q1022 NOSIG', 'LLBG 072150Z VRB02KT 9000 NSC 12/11 Q1023 NOSIG', 'LLBG 072120Z VRB02KT 8000 NSC 12/12 Q1023 NOSIG', 'LLBG 072050Z VRB02KT 8000 NSC 13/12 Q1023 NOSIG', 'LLBG 072020Z VRB02KT 8000 NSC 13/12 Q1023 NOSIG', 'LLBG 071950Z VRB01KT CAVOK 14/13 Q1023 NOSIG', 'LLBG 071920Z VRB03KT CAVOK 14/12 Q1023 NOSIG', 'LLBG 071850Z VRB03KT CAVOK 14/13 Q1024 NOSIG', 'LLBG 071820Z VRB01KT CAVOK 15/13 Q1024 NOSIG', 'LLBG 071750Z VRB03KT CAVOK 15/13 Q1024 NOSIG']","['2024-02-10 16:50:00', '2024-02-10 16:20:00', '2024-02-10 15:50:00', '2024-02-10 15:20:00', '2024-02-10 14:50:00', '2024-02-10 14:20:00', '2024-02-10 13:50:00', '2024-02-10 13:20:00', '2024-02-10 12:50:00', '2024-02-10 12:20:00', '2024-02-10 11:50:00', '2024-02-10 11:20:00', '2024-02-10 10:50:00', '2024-02-10 10:20:00', '2024-02-10 09:50:00', '2024-02-10 09:20:00', '2024-02-10 08:50:00', '2024-02-10 08:20:00', '2024-02-10 07:50:00', '2024-02-10 07:20:00', '2024-02-10 06:50:00', '2024-02-10 06:20:00', '2024-02-10 05:50:00', '2024-02-10 05:20:00', '2024-02-10 04:50:00', '2024-02-10 04:20:00', '2024-02-10 03:50:00', '2024-02-10 03:20:00', '2024-02-10 02:50:00', '2024-02-10 02:20:00', '2024-02-10 01:50:00', '2024-02-10 01:20:00', '2024-02-10 00:50:00', '2024-02-10 00:20:00', '2024-02-09 23:50:00', '2024-02-09 23:20:00', '2024-02-09 22:50:00', '2024-02-09 22:20:00', '2024-02-09 21:50:00', '2024-02-09 21:20:00', '2024-02-09 20:50:00', '2024-02-09 20:20:00', '2024-02-09 19:50:00', '2024-02-09 19:20:00', '2024-02-09 18:50:00', '2024-02-09 18:20:00', '2024-02-09 17:50:00', '2024-02-09 17:20:00', '2024-02-09 16:50:00', '2024-02-09 16:20:00', '2024-02-09 15:50:00', '2024-02-09 15:20:00', '2024-02-09 14:50:00', '2024-02-09 14:20:00', '2024-02-09 13:50:00', '2024-02-09 13:20:00', '2024-02-09 12:50:00', '2024-02-09 12:20:00', '2024-02-09 11:50:00', '2024-02-09 11:20:00', '2024-02-09 10:50:00', '2024-02-09 10:20:00', '2024-02-09 09:50:00', '2024-02-09 09:20:00', '2024-02-09 08:50:00', '2024-02-09 08:20:00', '2024-02-09 07:50:00', '2024-02-09 07:20:00', '2024-02-09 06:50:00', '2024-02-09 06:20:00', '2024-02-09 05:50:00', '2024-02-09 05:20:00', '2024-02-09 04:50:00', '2024-02-09 04:20:00', '2024-02-09 03:50:00', '2024-02-09 03:20:00', '2024-02-09 02:50:00', '2024-02-09 02:20:00', '2024-02-09 01:50:00', '2024-02-09 01:20:00', '2024-02-09 00:50:00', '2024-02-09 00:20:00', '2024-02-08 23:50:00', '2024-02-08 23:20:00', '2024-02-08 22:50:00', '2024-02-08 22:20:00', '2024-02-08 21:50:00', '2024-02-08 21:20:00', '2024-02-08 20:50:00', '2024-02-08 20:20:00', '2024-02-08 19:50:00', '2024-02-08 19:20:00', '2024-02-08 18:50:00', '2024-02-08 18:20:00', '2024-02-08 17:50:00', '2024-02-08 17:20:00', '2024-02-08 16:50:00', '2024-02-08 16:20:00', '2024-02-08 15:50:00', '2024-02-08 15:20:00', '2024-02-08 14:50:00', '2024-02-08 14:20:00', '2024-02-08 13:50:00', '2024-02-08 13:20:00', '2024-02-08 12:50:00', '2024-02-08 12:20:00', '2024-02-08 11:50:00', '2024-02-08 11:20:00', '2024-02-08 10:50:00', '2024-02-08 10:20:00', '2024-02-08 09:50:00', '2024-02-08 09:20:00', '2024-02-08 08:50:00', '2024-02-08 08:20:00', '2024-02-08 07:50:00', '2024-02-08 07:20:00', '2024-02-08 06:50:00', '2024-02-08 06:20:00', '2024-02-08 05:50:00', '2024-02-08 05:20:00', '2024-02-08 04:50:00', '2024-02-08 04:20:00', '2024-02-08 03:50:00', '2024-02-08 03:20:00', '2024-02-08 02:50:00', '2024-02-08 02:20:00', '2024-02-08 01:50:00', '2024-02-08 01:20:00', '2024-02-08 00:50:00', '2024-02-08 00:20:00', '2024-02-07 23:50:00', '2024-02-07 23:20:00', '2024-02-07 22:50:00', '2024-02-07 22:20:00', '2024-02-07 21:50:00', '2024-02-07 21:20:00', '2024-02-07 20:50:00', '2024-02-07 20:20:00', '2024-02-07 19:50:00', '2024-02-07 19:20:00', '2024-02-07 18:50:00', '2024-02-07 18:20:00', '2024-02-07 17:50:00']"
Italy, Albenga Clemente Panero International Airport (ALL/LIMG) ,"['LIMG 101550Z VRB02KT 7000 RA FEW005 BKN030 10/09 Q0989', 'LIMG 101450Z 13003KT 020V180 5000 RA BKN030 10/08 Q0989', 'LIMG 101350Z 35012KT 330V030 4000 RA SCT014 BKN030 11/09 Q0989', 'LIMG 101250Z 06012KT 5000 RA SCT010 BKN015 13/12 Q0989', 'LIMG 101150Z 08003KT 040V180 5000 RA BKN014 12/12 Q0991', 'LIMG 101050Z 09008KT 4000 RA OVC015 12/11 Q0992', 'LIMG 100950Z 09007KT 060V120 4000 RA OVC015 12/12 Q0992', 'LIMG 100850Z 05006KT 010V110 5000 RA OVC016 12/12 Q0992', 'LIMG 100750Z VRB01KT 6000 RA BKN020 12/11 Q0992', 'LIMG 091650Z 21008KT 180V240 7000 -RA BKN025 13/08 Q0997 RERA', 'LIMG 091550Z 22004KT 160V270 6000 RA FEW020 BKN028 13/10 Q0997', 'LIMG 091450Z VRB03KT 5000 -RA BKN020CB 14/12 Q0997', 'LIMG 091350Z 14009G23KT 100V190 5000 -RA BKN020CB 14/11 Q0998 RESHRA', 'LIMG 091250Z 16010KT 130V200 5000 SHRA BKN020CB 14/11 Q0999', 'LIMG 091150Z 15010G20KT 110V240 6000 RA BKN020 15/12 Q1000', 'LIMG 091057Z 17011KT 130V210 6000 +RA BKN020 15/12 Q1001', 'LIMG 090950Z 20009G20KT 140V270 9000 BKN020 15/12 Q1001', 'LIMG 090850Z 30006KT 9000 -RA BKN020 12/10 Q1002', 'LIMG 090750Z 28008KT 3000 RA BKN020 12/10 Q1002', 'LIMG 081650Z VRB02KT 9999 BKN025 13/09 Q1008', 'LIMG 081550Z 07006KT 9999 BKN025 13/08 Q1008', 'LIMG 081450Z 06007KT 9999 BKN025 13/09 Q1008', 'LIMG 081350Z 07007KT 9999 BKN028 14/09 Q1009', 'LIMG 081250Z 08007KT 9999 FEW045 BKN080 14/09 Q1009', 'LIMG 081150Z 07009KT 9999 FEW045 BKN080 14/08 Q1009', 'LIMG 081050Z 07004KT 9999 FEW045 SCT080 15/07 Q1010', 'LIMG 080950Z VRB01KT 9999 FEW040 BKN080 13/12 Q1010', 'LIMG 080850Z VRB02KT 9999 FEW030 SCT080 10/10 Q1010', 'LIMG 080750Z 26004KT 9999 BKN050 08/08 Q1010', 'LIMG 080650Z 24003KT 200V310 9999 FEW040 06/06 Q1010']","['2024-02-10 15:50:00', '2024-02-10 14:50:00', '2024-02-10 13:50:00', '2024-02-10 12:50:00', '2024-02-10 11:50:00', '2024-02-10 10:50:00', '2024-02-10 09:50:00', '2024-02-10 08:50:00', '2024-02-10 07:50:00', '2024-02-09 16:50:00', '2024-02-09 15:50:00', '2024-02-09 14:50:00', '2024-02-09 13:50:00', '2024-02-09 12:50:00', '2024-02-09 11:50:00', '2024-02-09 10:57:00', '2024-02-09 09:50:00', '2024-02-09 08:50:00', '2024-02-09 07:50:00', '2024-02-08 16:50:00', '2024-02-08 15:50:00', '2024-02-08 14:50:00', '2024-02-08 13:50:00', '2024-02-08 12:50:00', '2024-02-08 11:50:00', '2024-02-08 10:50:00', '2024-02-08 09:50:00', '2024-02-08 08:50:00', '2024-02-08 07:50:00', '2024-02-08 06:50:00']"
Italy, Alghero Fertilia Airport (AHO/LIEA) ,"['LIEA 101650Z 25010KT 9999 SCT020 15/11 Q0991', 'LIEA 101620Z 24007KT 220V280 9999 SCT020 SCT025 15/11 Q0991', 'LIEA 101550Z 23012KT 9999 SCT020 SCT028 15/11 Q0990', 'LIEA 101520Z 23013KT 210V280 9999 SCT030 15/11 Q0990', 'LIEA 101450Z 22015KT 9999 BKN020 16/13 Q0990', 'LIEA 101420Z 22014KT 200V260 9999 SCT020 16/13 Q0990', 'LIEA 101350Z 22014KT 9999 FEW015 SCT030 16/13 Q0990', 'LIEA 101320Z 22013KT 9999 FEW015 SCT028 16/14 Q0991', 'LIEA 101250Z 23014KT 9999 FEW015 SCT028 16/13 Q0991', 'LIEA 101220Z 23016KT 9999 FEW018 BKN026 16/13 Q0991', 'LIEA 101150Z 23014KT 9999 -RA FEW015 BKN026 16/14 Q0991', 'LIEA 101120Z 23017G27KT 8000 -RA FEW015 BKN030 15/14 Q0991', 'LIEA 101050Z 23013KT 6000 -RA FEW010 BKN020 15/15 Q0991', 'LIEA 101020Z 22016G26KT 6000 -RA SCT008 BKN018 15/15 Q0991', 'LIEA 100950Z 20018KT 5000 -RA BR SCT008 BKN015 15/15 Q0991', 'LIEA 100920Z 20020G30KT 4000 -RA BR SCT008 BKN015 15/15 Q0991', 'LIEA 100850Z 20020KT 3000 -RA BR SCT006 BKN015 14/14 Q0991 RERA', 'LIEA 100820Z 19018KT 5000 -RA BR SCT006 BKN015 15/15 Q0991', 'LIEA 100750Z 18015KT 5000 -RA BR SCT006 BKN015 15/14 Q0991', 'LIEA 100720Z 18014G28KT 5000 -RA SCT006 BKN015 14/13 Q0991', 'LIEA 100650Z 18014KT 5000 -RA SCT006 BKN015 13/13 Q0991', 'LIEA 100620Z 20019KT 5000 -RA SCT006 BKN015 13/13 Q0991', 'LIEA 100550Z 20025G38KT 8000 -RA BKN030 14/13 Q0991', 'LIEA 100520Z 19014KT 8000 NSC 17/08 Q0991', 'LIEA 100450Z 19011KT 8000 NSC 16/08 Q0991', 'LIEA 100420Z 19010KT 9999 -RA NSC 16/08 Q0992', 'LIEA 100350Z 21013KT 9999 -RA NSC 16/08 Q0992', 'LIEA 100320Z 21007G19KT 130V280 9999 -RA NSC 15/08 Q0993', 'LIEA 100250Z VRB02KT 9999 -RA NSC 12/09 Q0993', 'LIEA 100220Z VRB03KT 9999 -RA NSC 13/09 Q0993', 'LIEA 100150Z 01004KT CAVOK 12/09 Q0994', 'LIEA 100120Z VRB01KT CAVOK 12/09 Q0994', 'LIEA 100050Z 04003KT 360V080 CAVOK 12/09 Q0995', 'LIEA 100020Z 05004KT CAVOK 12/10 Q0996', 'LIEA 092350Z 03004KT CAVOK 12/09 Q0996', 'LIEA 092320Z 02003KT 350V050 CAVOK 14/08 Q0996', 'LIEA 092250Z 03004KT CAVOK 13/09 Q0996', 'LIEA 092220Z 04004KT CAVOK 13/09 Q0997', 'LIEA 092150Z 04004KT CAVOK 13/09 Q0997', 'LIEA 092120Z 36003KT CAVOK 13/09 Q0997', 'LIEA 092050Z VRB02KT CAVOK 15/08 Q0998', 'LIEA 092020Z 19005KT CAVOK 15/09 Q0998', 'LIEA 091950Z 24003KT CAVOK 13/10 Q0999', 'LIEA 091920Z VRB01KT CAVOK 14/10 Q0999', 'LIEA 091850Z 14005KT CAVOK 14/10 Q0999', 'LIEA 091820Z 18005KT CAVOK 15/10 Q1000', 'LIEA 091750Z 19006KT CAVOK 15/12 Q1000', 'LIEA 091720Z 21009KT 9999 FEW030 15/12 Q1000', 'LIEA 091650Z 17004KT 9999 FEW030 15/11 Q1000', 'LIEA 091620Z 22007KT 9999 FEW030 16/11 Q1001', 'LIEA 091550Z 21012KT 190V260 9999 FEW030 16/11 Q1001', 'LIEA 091520Z 22010KT CAVOK 16/11 Q1001', 'LIEA 091450Z 21010KT CAVOK 16/10 Q1001', 'LIEA 091420Z 22011KT CAVOK 17/10 Q1002', 'LIEA 091350Z 21015KT CAVOK 17/09 Q1002', 'LIEA 091320Z 22014KT CAVOK 17/09 Q1002', 'LIEA 091250Z 21013KT CAVOK 17/10 Q1002', 'LIEA 091220Z 20016KT CAVOK 17/09 Q1002', 'LIEA 091150Z 21015KT CAVOK 17/09 Q1003', 'LIEA 091120Z 20017KT CAVOK 18/08 Q1003', 'LIEA 091050Z 20018KT CAVOK 17/08 Q1003', 'LIEA 091020Z 19017G27KT CAVOK 18/06 Q1003', 'LIEA 090950Z 19016KT CAVOK 17/06 Q1004', 'LIEA 090920Z 19019KT CAVOK 18/06 Q1004', 'LIEA 090850Z 20022KT CAVOK 17/06 Q1005', 'LIEA 090820Z 19014KT CAVOK 17/06 Q1005', 'LIEA 090750Z 19015KT CAVOK 16/06 Q1005', 'LIEA 090720Z 19018KT CAVOK 16/07 Q1005', 'LIEA 090650Z 20018KT CAVOK 16/08 Q1005', 'LIEA 090620Z 20015KT CAVOK 16/07 Q1005', 'LIEA 090550Z 20015KT CAVOK 15/08 Q1006', 'LIEA 090520Z 20016KT 9999 FEW015 15/09 Q1006', 'LIEA 090450Z 20017KT 9999 FEW015 15/10 Q1006', 'LIEA 090420Z 20018KT 9999 FEW015 15/10 Q1006', 'LIEA 090350Z 20020KT 9999 FEW015 14/12 Q1006', 'LIEA 090320Z 20020KT 9999 FEW012 14/12 Q1007', 'LIEA 090250Z 20019KT 9999 FEW012 14/12 Q1007', 'LIEA 090220Z 19016KT 9999 FEW012 14/12 Q1008', 'LIEA 090150Z 19017KT 9999 FEW010 14/13 Q1008', 'LIEA 090120Z 19011KT 9999 SCT010 14/13 Q1008', 'LIEA 090050Z 19012KT 9999 SCT010 14/13 Q1009', 'LIEA 090020Z 19013KT 9999 SCT011 14/14 Q1009', 'LIEA 082350Z 19013KT 9999 SCT009 14/14 Q1010', 'LIEA 082320Z 19013KT 9999 SCT009 14/14 Q1010', 'LIEA 082250Z 20012KT 9999 SCT009 14/14 Q1011', 'LIEA 082220Z 21013KT 9999 SCT009 14/14 Q1011', 'LIEA 082150Z 20013KT 9999 SCT007 14/14 Q1011', 'LIEA 082120Z 19013KT 9999 SCT010 BKN025 14/14 Q1011', 'LIEA 082050Z 20013KT 9999 FEW010 SCT020 14/14 Q1011', 'LIEA 081950Z 20011KT 9999 FEW015 14/14 Q1011', 'LIEA 081920Z 20014KT 9999 FEW009 SCT020 15/14 Q1012', 'LIEA 081850Z 20013KT 9999 SCT009 BKN025 15/14 Q1012', 'LIEA 081820Z 19012KT 9999 SCT008 BKN025 15/14 Q1012', 'LIEA 081750Z 19012KT 9999 FEW007 SCT025 14/14 Q1012', 'LIEA 081720Z 19011KT 9999 FEW013 14/14 Q1011', 'LIEA 081650Z 20010KT 9999 FEW020 BKN035 15/14 Q1011', 'LIEA 081620Z 21011KT 9999 FEW015 BKN030 15/13 Q1012', 'LIEA 081550Z 21013KT 9999 SCT015 BKN030 15/14 Q1012', 'LIEA 081520Z 21011KT 9999 FEW008 SCT025 BKN035 16/15 Q1012', 'LIEA 081450Z 22015KT 9999 SCT010 BKN025 16/14 Q1013', 'LIEA 081420Z 20016KT 9999 SCT008 BKN018 16/14 Q1012', 'LIEA 081350Z 20016KT 9999 SCT008 BKN018 16/15 Q1013', 'LIEA 081320Z 20016KT 9999 SCT010 BKN020 16/14 Q1013', 'LIEA 081250Z 19017KT 9999 SCT013 16/14 Q1013', 'LIEA 081220Z 19015KT 9999 BKN010 16/14 Q1013', 'LIEA 081150Z 19018KT 9999 BKN015 15/13 Q1014', 'LIEA 081120Z 20016KT 9999 BKN014 16/14 Q1014', 'LIEA 081050Z 19017KT 9999 BKN013 16/13 Q1015', 'LIEA 081020Z 20017KT 9999 FEW010 SCT016 15/13 Q1015', 'LIEA 080950Z 19018G28KT 9999 SCT011 15/13 Q1015', 'LIEA 080920Z 19018KT 9999 FEW010 SCT014 15/13 Q1015', 'LIEA 080850Z 19017KT 9999 SCT013 15/13 Q1015', 'LIEA 080820Z 19016KT 9999 SCT016 14/13 Q1015', 'LIEA 080750Z 19014KT 9999 SCT015 14/13 Q1015', 'LIEA 080720Z 19011KT 9999 SCT015 14/12 Q1015', 'LIEA 080650Z 19010KT 9999 BKN018 13/13 Q1015', 'LIEA 080620Z 20010KT 9999 BKN016 14/12 Q1015', 'LIEA 080550Z 21010KT 9999 BKN015 13/12 Q1014', 'LIEA 080520Z 21009KT 9999 SCT014 13/12 Q1015', 'LIEA 080450Z 22007KT 9999 FEW018 13/12 Q1015', 'LIEA 080420Z 21007KT 9999 FEW018 12/11 Q1015', 'LIEA 080350Z 19005KT 9999 FEW018 13/12 Q1015', 'LIEA 080320Z 20008KT 9999 FEW020 13/12 Q1015', 'LIEA 080250Z 20010KT 9999 FEW020 13/12 Q1016', 'LIEA 080220Z 19008KT 9999 SCT020 13/11 Q1016', 'LIEA 080150Z 21005KT 9999 SCT018 12/11 Q1016', 'LIEA 080120Z 22006KT 9999 SCT018 12/11 Q1016', 'LIEA 080050Z 23007KT 9999 SCT020 12/11 Q1016', 'LIEA 080020Z 21007KT 9999 FEW020 12/11 Q1016', 'LIEA 072350Z 21008KT 9999 FEW020 13/11 Q1017', 'LIEA 072320Z 21009KT 9999 SCT020 12/10 Q1017', 'LIEA 072250Z 22009KT 9999 SCT020 12/10 Q1017', 'LIEA 072220Z 22010KT 9999 FEW020 12/10 Q1017', 'LIEA 072150Z 23006KT 9999 SCT028 12/10 Q1017', 'LIEA 072120Z 23007KT 9999 SCT030 12/09 Q1017', 'LIEA 072050Z 22008KT 9999 SCT030 12/09 Q1017', 'LIEA 072020Z 22006KT 9999 SCT028 12/09 Q1017', 'LIEA 071950Z 22006KT 9999 SCT030 12/09 Q1018', 'LIEA 071920Z 21005KT 9999 SCT026 12/09 Q1018', 'LIEA 071850Z 22005KT 9999 SCT030 12/09 Q1018', 'LIEA 071820Z 22004KT 200V270 9999 SCT028 12/09 Q1018', 'LIEA 071750Z 23003KT 200V260 9999 SCT027 12/08 Q1017']","['2024-02-10 16:50:00', '2024-02-10 16:20:00', '2024-02-10 15:50:00', '2024-02-10 15:20:00', '2024-02-10 14:50:00', '2024-02-10 14:20:00', '2024-02-10 13:50:00', '2024-02-10 13:20:00', '2024-02-10 12:50:00', '2024-02-10 12:20:00', '2024-02-10 11:50:00', '2024-02-10 11:20:00', '2024-02-10 10:50:00', '2024-02-10 10:20:00', '2024-02-10 09:50:00', '2024-02-10 09:20:00', '2024-02-10 08:50:00', '2024-02-10 08:20:00', '2024-02-10 07:50:00', '2024-02-10 07:20:00', '2024-02-10 06:50:00', '2024-02-10 06:20:00', '2024-02-10 05:50:00', '2024-02-10 05:20:00', '2024-02-10 04:50:00', '2024-02-10 04:20:00', '2024-02-10 03:50:00', '2024-02-10 03:20:00', '2024-02-10 02:50:00', '2024-02-10 02:20:00', '2024-02-10 01:50:00', '2024-02-10 01:20:00', '2024-02-10 00:50:00', '2024-02-10 00:20:00', '2024-02-09 23:50:00', '2024-02-09 23:20:00', '2024-02-09 22:50:00', '2024-02-09 22:20:00', '2024-02-09 21:50:00', '2024-02-09 21:20:00', '2024-02-09 20:50:00', '2024-02-09 20:20:00', '2024-02-09 19:50:00', '2024-02-09 19:20:00', '2024-02-09 18:50:00', '2024-02-09 18:20:00', '2024-02-09 17:50:00', '2024-02-09 17:20:00', '2024-02-09 16:50:00', '2024-02-09 16:20:00', '2024-02-09 15:50:00', '2024-02-09 15:20:00', '2024-02-09 14:50:00', '2024-02-09 14:20:00', '2024-02-09 13:50:00', '2024-02-09 13:20:00', '2024-02-09 12:50:00', '2024-02-09 12:20:00', '2024-02-09 11:50:00', '2024-02-09 11:20:00', '2024-02-09 10:50:00', '2024-02-09 10:20:00', '2024-02-09 09:50:00', '2024-02-09 09:20:00', '2024-02-09 08:50:00', '2024-02-09 08:20:00', '2024-02-09 07:50:00', '2024-02-09 07:20:00', '2024-02-09 06:50:00', '2024-02-09 06:20:00', '2024-02-09 05:50:00', '2024-02-09 05:20:00', '2024-02-09 04:50:00', '2024-02-09 04:20:00', '2024-02-09 03:50:00', '2024-02-09 03:20:00', '2024-02-09 02:50:00', '2024-02-09 02:20:00', '2024-02-09 01:50:00', '2024-02-09 01:20:00', '2024-02-09 00:50:00', '2024-02-09 00:20:00', '2024-02-08 23:50:00', '2024-02-08 23:20:00', '2024-02-08 22:50:00', '2024-02-08 22:20:00', '2024-02-08 21:50:00', '2024-02-08 21:20:00', '2024-02-08 20:50:00', '2024-02-08 19:50:00', '2024-02-08 19:20:00', '2024-02-08 18:50:00', '2024-02-08 18:20:00', '2024-02-08 17:50:00', '2024-02-08 17:20:00', '2024-02-08 16:50:00', '2024-02-08 16:20:00', '2024-02-08 15:50:00', '2024-02-08 15:20:00', '2024-02-08 14:50:00', '2024-02-08 14:20:00', '2024-02-08 13:50:00', '2024-02-08 13:20:00', '2024-02-08 12:50:00', '2024-02-08 12:20:00', '2024-02-08 11:50:00', '2024-02-08 11:20:00', '2024-02-08 10:50:00', '2024-02-08 10:20:00', '2024-02-08 09:50:00', '2024-02-08 09:20:00', '2024-02-08 08:50:00', '2024-02-08 08:20:00', '2024-02-08 07:50:00', '2024-02-08 07:20:00', '2024-02-08 06:50:00', '2024-02-08 06:20:00', '2024-02-08 05:50:00', '2024-02-08 05:20:00', '2024-02-08 04:50:00', '2024-02-08 04:20:00', '2024-02-08 03:50:00', '2024-02-08 03:20:00', '2024-02-08 02:50:00', '2024-02-08 02:20:00', '2024-02-08 01:50:00', '2024-02-08 01:20:00', '2024-02-08 00:50:00', '2024-02-08 00:20:00', '2024-02-07 23:50:00', '2024-02-07 23:20:00', '2024-02-07 22:50:00', '2024-02-07 22:20:00', '2024-02-07 21:50:00', '2024-02-07 21:20:00', '2024-02-07 20:50:00', '2024-02-07 20:20:00', '2024-02-07 19:50:00', '2024-02-07 19:20:00', '2024-02-07 18:50:00', '2024-02-07 18:20:00', '2024-02-07 17:50:00']"
Italy, Ancona Airport (AOI/LIPY) ,"['LIPY 101650Z AUTO 23005KT 9999 -RA OVC063/// 11/11 Q0993', 'LIPY 101620Z AUTO 19004KT 9999 -RA OVC064/// 12/10 Q0993', 'LIPY 101550Z AUTO 18004KT 150V210 9999 -RA OVC062/// 12/10 Q0993 RERA', 'LIPY 101520Z AUTO 16004KT 130V200 9999 -RA OVC064/// 13/10 Q0994', 'LIPY 101450Z AUTO VRB02KT 9999 -RA OVC056/// 13/10 Q0994', 'LIPY 101420Z AUTO VRB01KT 9999 -RA OVC061/// 13/10 Q0994', 'LIPY 101350Z AUTO VRB01KT 9999 -RA OVC062/// 13/10 Q0994', 'LIPY 101320Z AUTO VRB02KT 9999 -RA OVC062/// 13/10 Q0994', 'LIPY 101250Z AUTO 09003KT 040V130 9999 -RA OVC067/// 14/09 Q0995', 'LIPY 101220Z AUTO 04005KT 9999 -RA OVC078/// 13/09 Q0995', 'LIPY 101150Z AUTO VRB02KT 9999 -RA OVC067/// 14/10 Q0995', 'LIPY 101120Z AUTO 19003KT 150V230 9999 -RA OVC071/// 14/08 Q0996', 'LIPY 101050Z AUTO 24004KT 9999 BKN079/// 13/08 Q0996', 'LIPY 101020Z AUTO VRB02KT 9999 BKN080/// 14/08 Q0996', 'LIPY 100950Z AUTO VRB03KT 9999 OVC088/// 12/07 Q0996', 'LIPY 100920Z AUTO 09003KT 060V140 9999 -RA OVC081/// 12/07 Q0996', 'LIPY 100850Z AUTO 29004KT 260V320 9999 OVC100/// 12/07 Q0996', 'LIPY 100820Z AUTO VRB02KT 9999 BKN100/// 11/08 Q0996', 'LIPY 100750Z AUTO 19003KT 140V220 9999 BKN098/// 12/06 Q0996', 'LIPY 100720Z AUTO VRB01KT 9999 OVC110/// 11/07 Q0996', 'LIPY 100650Z AUTO 21005KT 160V270 9999 BKN120/// OVC170/// 10/07 Q0996', 'LIPY 100620Z AUTO VRB01KT 9999 SCT130/// OVC180/// 11/06 Q0996', 'LIPY 100550Z AUTO 21003KT 140V250 9999 FEW120/// BKN130/// BKN200/// 11/06 Q0995', 'LIPY 100520Z AUTO 18004KT 9999 FEW120/// BKN140/// BKN210/// 12/06 Q0996', 'LIPY 100450Z AUTO 16005KT 130V190 9999 BKN130/// BKN210/// 13/06 Q0996', 'LIPY 100420Z AUTO 14005KT 110V180 9999 BKN100/// BKN190/// OVC220/// 13/06 Q0996', 'LIPY 100350Z AUTO 17003KT 120V200 9999 OVC100/// 12/06 Q0996', 'LIPY 100320Z AUTO VRB01KT 9999 SCT100/// BKN120/// 12/07 Q0997', 'LIPY 100250Z AUTO 11003KT 060V160 9999 SCT100/// BKN130/// 13/08 Q0997', 'LIPY 100220Z AUTO 16005KT 130V200 9999 OVC120/// 13/07 Q0998', 'LIPY 100150Z AUTO 19004KT 160V220 9999 OVC110/// 13/07 Q0999', 'LIPY 100120Z AUTO 16006KT 110V200 9999 OVC110/// 14/08 Q0999', 'LIPY 100050Z AUTO 16004KT 070V190 9999 OVC110/// 14/06 Q0999', 'LIPY 100020Z AUTO 13004KT 090V200 9999 OVC110/// 14/05 Q0999', 'LIPY 092350Z AUTO 13006KT 110V170 9999 OVC110/// 14/05 Q1000', 'LIPY 092320Z AUTO 14003KT 9999 OVC100/// 14/06 Q1000', 'LIPY 092250Z AUTO VRB02KT 9999 OVC100/// 14/06 Q1000', 'LIPY 092220Z AUTO 20007KT 9999 BKN110/// OVC140/// 16/06 Q1001', 'LIPY 092150Z AUTO 21009KT 9999 BKN110/// 16/06 Q1002', 'LIPY 092120Z AUTO 20007KT 150V230 9999 OVC100/// 15/06 Q1002', 'LIPY 092050Z AUTO 22006KT 9999 FEW081/// OVC110/// 14/06 Q1002', 'LIPY 092020Z AUTO VRB01KT 9999 OVC100/// 11/06 Q1002', 'LIPY 091950Z AUTO 21003KT 140V250 9999 BKN100/// 12/05 Q1002', 'LIPY 091920Z AUTO 22005KT 170V270 9999 FEW084/// BKN120/// 12/06 Q1002', 'LIPY 091850Z AUTO 17005KT 9999 FEW100/// BKN130/// 13/05 Q1002', 'LIPY 091820Z AUTO 20005KT 150V230 9999 OVC100/// 13/06 Q1002', 'LIPY 091750Z AUTO 21006KT 9999 BKN110/// 12/06 Q1002', 'LIPY 091720Z AUTO 21004KT 9999 OVC110/// 12/07 Q1002', 'LIPY 091650Z AUTO VRB02KT 9999 OVC120/// 11/07 Q1002', 'LIPY 091620Z AUTO VRB02KT 9999 OVC110/// 12/07 Q1002', 'LIPY 091550Z AUTO 23003KT 9999 OVC100/// 12/07 Q1002', 'LIPY 091520Z AUTO 36003KT 320V020 9999 OVC130/// 12/07 Q1002', 'LIPY 091450Z AUTO 19003KT 160V220 9999 OVC120/// 13/07 Q1003', 'LIPY 091420Z AUTO 22003KT 150V280 9999 BKN110/// BKN140/// 13/08 Q1003', 'LIPY 091350Z AUTO 23005KT 9999 FEW120/// BKN140/// 12/08 Q1003', 'LIPY 091320Z AUTO VRB02KT 9999 BKN140/// 14/07 Q1004', 'LIPY 091250Z AUTO 34003KT 300V050 9999 BKN160/// 13/08 Q1004', 'LIPY 091220Z AUTO VRB02KT 9999 SCT065/// BKN150/// BKN180/// 12/08 Q1004', 'LIPY 091150Z AUTO VRB03KT 9999 FEW140/// BKN160/// 11/07 Q1005', 'LIPY 091120Z AUTO 13003KT 090V210 9999 BKN180/// 11/07 Q1005', 'LIPY 091050Z AUTO 22003KT 140V260 9999 BKN150/// 11/07 Q1006', 'LIPY 091020Z AUTO VRB02KT 9999 OVC140/// 11/07 Q1006', 'LIPY 090950Z AUTO VRB01KT 9999 OVC150/// 10/07 Q1006', 'LIPY 090920Z AUTO VRB02KT 9999 OVC170/// 11/06 Q1006', 'LIPY 090850Z AUTO VRB02KT 9999 OVC160/// 11/07 Q1006', 'LIPY 090820Z AUTO 18003KT 140V230 9999 OVC170/// 11/06 Q1006', 'LIPY 090750Z AUTO 24003KT 9999 BKN180/// 09/06 Q1006', 'LIPY 090720Z AUTO VRB02KT 9999 OVC180/// 11/06 Q1006', 'LIPY 090650Z AUTO VRB01KT 9999 BKN200/// 10/05 Q1006', 'LIPY 090620Z AUTO 19003KT 160V250 9999 BKN210/// 11/06 Q1006', 'LIPY 090550Z AUTO 03003KT 360V060 9999 BKN220/// 09/06 Q1006', 'LIPY 090520Z AUTO 18005KT 9999 OVC230/// 11/06 Q1006', 'LIPY 090450Z AUTO 19004KT 9999 BKN230/// 10/07 Q1007', 'LIPY 090420Z AUTO 18005KT 150V230 9999 BKN220/// 10/06 Q1007', 'LIPY 090350Z AUTO 19005KT 9999 FEW180/// BKN240/// 10/05 Q1007', 'LIPY 090320Z AUTO 17003KT 130V190 9999 BKN160/// 09/05 Q1007', 'LIPY 090250Z AUTO VRB02KT 9999 SCT170/// 08/05 Q1007', 'LIPY 090220Z AUTO VRB01KT 9999 FEW060/// 08/05 Q1007', 'LIPY 090150Z AUTO VRB02KT 9999 FEW059/// 09/05 Q1008', 'LIPY 090120Z AUTO 22003KT 190V300 9999 BKN054/// BKN130/// BKN150/// 07/04 Q1008', 'LIPY 090050Z AUTO VRB02KT 9999 SCT053/// 08/05 Q1008', 'LIPY 090020Z AUTO 19003KT 150V260 9999 BKN054/// 08/05 Q1009', 'LIPY 082350Z AUTO VRB01KT 9999 FEW053/// 09/05 Q1009', 'LIPY 082320Z AUTO VRB01KT 9999 FEW094/// 10/05 Q1009', 'LIPY 082250Z AUTO 15002KT 9999 SCT092/// 10/06 Q1009', 'LIPY 082220Z AUTO VRB01KT 9999 BKN089/// 10/06 Q1009', 'LIPY 082150Z AUTO 20003KT 160V250 9999 FEW083/// 12/05 Q1009', 'LIPY 082120Z AUTO 17003KT 9999 NCD 12/05 Q1009', 'LIPY 082050Z AUTO 17003KT 150V210 9999 NCD 13/05 Q1009', 'LIPY 081950Z AUTO 17004KT 9999 SCT083/// BKN240/// 13/06 Q1010', 'LIPY 081920Z AUTO 18004KT 9999 SCT086/// BKN240/// 14/06 Q1010', 'LIPY 081850Z AUTO 18005KT 9999 SCT090/// BKN240/// 14/06 Q1009', 'LIPY 081820Z AUTO 16005KT 9999 BKN090/// 14/06 Q1009', 'LIPY 081750Z AUTO 17005KT 9999 BKN084/// 14/06 Q1009', 'LIPY 081720Z AUTO 16002KT 9999 SCT084/// 14/06 Q1009', 'LIPY 081650Z AUTO 18004KT 130V220 9999 BKN082/// 15/06 Q1009', 'LIPY 081620Z AUTO 26007KT 9999 FEW084/// 16/06 Q1009', 'LIPY 081550Z AUTO 26010KT 9999 OVC083/// 18/05 Q1009', 'LIPY 081520Z AUTO 25009KT 9999 OVC080/// 18/05 Q1009', 'LIPY 081450Z AUTO 23005KT 200V290 9999 OVC059/// 19/05 Q1009', 'LIPY 081420Z AUTO 27008KT 220V340 9999 BKN062/// 19/05 Q1009', 'LIPY 081350Z AUTO 27008KT 240V300 9999 BKN057/// 18/06 Q1010', 'LIPY 081320Z AUTO 26005KT 220V300 9999 BKN058/// 18/06 Q1010', 'LIPY 081250Z AUTO 27009KT 230V300 9999 BKN061/// 18/06 Q1010', 'LIPY 081220Z AUTO 26009KT 230V290 9999 FEW051/// 19/06 Q1010', 'LIPY 081150Z AUTO 25010KT 220V290 9999 NCD 18/06 Q1011', 'LIPY 081120Z AUTO 24012KT 9999 NCD 18/06 Q1011', 'LIPY 081050Z AUTO 24010KT 9999 NCD 16/06 Q1011', 'LIPY 081020Z AUTO 23011KT 9999 NCD 17/06 Q1011', 'LIPY 080950Z AUTO 22009KT 9999 FEW220/// 16/07 Q1011', 'LIPY 080920Z AUTO 23008KT 9999 SCT220/// 15/07 Q1011', 'LIPY 080850Z AUTO 20003KT 150V230 9999 NCD 15/06 Q1011', 'LIPY 080820Z AUTO 20004KT 170V230 9999 NCD 14/06 Q1011', 'LIPY 080750Z AUTO 17003KT 9999 NCD 12/06 Q1011', 'LIPY 080720Z AUTO 20003KT 9999 NCD 06/05 Q1011', 'LIPY 080650Z AUTO 18002KT 9999 NCD 05/04 Q1011', 'LIPY 080620Z AUTO 21002KT 9999 NCD 04/03 Q1011', 'LIPY 080550Z AUTO 18003KT 9999 BKN210/// 05/03 Q1010', 'LIPY 080520Z AUTO 18002KT 9999 FEW240/// 05/04 Q1010', 'LIPY 080450Z AUTO VRB02KT 9999 FEW240/// 04/04 Q1010', 'LIPY 080420Z AUTO 25003KT 210V300 9999 SCT220/// 04/03 Q1010', 'LIPY 080350Z AUTO 20003KT 9999 BKN220/// 05/05 Q1010', 'LIPY 080320Z AUTO 20003KT 9999 SCT230/// 05/05 Q1010', 'LIPY 080250Z AUTO VRB02KT 9999 NCD 05/03 Q1010', 'LIPY 080220Z AUTO 21003KT 9999 NCD 05/04 Q1011', 'LIPY 080150Z AUTO 21004KT 9999 NCD 05/04 Q1011', 'LIPY 080120Z AUTO 19003KT 150V230 9999 NCD 06/03 Q1011', 'LIPY 080050Z AUTO 18004KT 9999 NCD 08/05 Q1011', 'LIPY 080020Z AUTO 19004KT 9999 NCD 07/05 Q1011', 'LIPY 072350Z AUTO 20003KT 9999 NCD 08/05 Q1011', 'LIPY 072320Z AUTO 19004KT 9999 NCD 08/05 Q1011', 'LIPY 072250Z AUTO 21003KT 180V260 9999 NCD 08/05 Q1011', 'LIPY 072220Z AUTO 19003KT 9999 NCD 10/06 Q1011', 'LIPY 072150Z AUTO VRB02KT 9999 FEW073/// 10/06 Q1011', 'LIPY 072120Z AUTO 25003KT 9999 BKN071/// 10/06 Q1012', 'LIPY 072050Z AUTO 20004KT 170V230 9999 OVC070/// 13/06 Q1012', 'LIPY 072020Z AUTO 19004KT 9999 BKN068/// 13/06 Q1012', 'LIPY 071950Z AUTO 19005KT 160V220 9999 OVC073/// 13/06 Q1012', 'LIPY 071920Z AUTO 18006KT 9999 BKN072/// 14/06 Q1012', 'LIPY 071850Z AUTO 18006KT 9999 OVC073/// 14/06 Q1012', 'LIPY 071820Z AUTO 18004KT 9999 BKN076/// 14/06 Q1012', 'LIPY 071750Z AUTO 16004KT 130V190 9999 BKN072/// 13/06 Q1012']","['2024-02-10 16:50:00', '2024-02-10 16:20:00', '2024-02-10 15:50:00', '2024-02-10 15:20:00', '2024-02-10 14:50:00', '2024-02-10 14:20:00', '2024-02-10 13:50:00', '2024-02-10 13:20:00', '2024-02-10 12:50:00', '2024-02-10 12:20:00', '2024-02-10 11:50:00', '2024-02-10 11:20:00', '2024-02-10 10:50:00', '2024-02-10 10:20:00', '2024-02-10 09:50:00', '2024-02-10 09:20:00', '2024-02-10 08:50:00', '2024-02-10 08:20:00', '2024-02-10 07:50:00', '2024-02-10 07:20:00', '2024-02-10 06:50:00', '2024-02-10 06:20:00', '2024-02-10 05:50:00', '2024-02-10 05:20:00', '2024-02-10 04:50:00', '2024-02-10 04:20:00', '2024-02-10 03:50:00', '2024-02-10 03:20:00', '2024-02-10 02:50:00', '2024-02-10 02:20:00', '2024-02-10 01:50:00', '2024-02-10 01:20:00', '2024-02-10 00:50:00', '2024-02-10 00:20:00', '2024-02-09 23:50:00', '2024-02-09 23:20:00', '2024-02-09 22:50:00', '2024-02-09 22:20:00', '2024-02-09 21:50:00', '2024-02-09 21:20:00', '2024-02-09 20:50:00', '2024-02-09 20:20:00', '2024-02-09 19:50:00', '2024-02-09 19:20:00', '2024-02-09 18:50:00', '2024-02-09 18:20:00', '2024-02-09 17:50:00', '2024-02-09 17:20:00', '2024-02-09 16:50:00', '2024-02-09 16:20:00', '2024-02-09 15:50:00', '2024-02-09 15:20:00', '2024-02-09 14:50:00', '2024-02-09 14:20:00', '2024-02-09 13:50:00', '2024-02-09 13:20:00', '2024-02-09 12:50:00', '2024-02-09 12:20:00', '2024-02-09 11:50:00', '2024-02-09 11:20:00', '2024-02-09 10:50:00', '2024-02-09 10:20:00', '2024-02-09 09:50:00', '2024-02-09 09:20:00', '2024-02-09 08:50:00', '2024-02-09 08:20:00', '2024-02-09 07:50:00', '2024-02-09 07:20:00', '2024-02-09 06:50:00', '2024-02-09 06:20:00', '2024-02-09 05:50:00', '2024-02-09 05:20:00', '2024-02-09 04:50:00', '2024-02-09 04:20:00', '2024-02-09 03:50:00', '2024-02-09 03:20:00', '2024-02-09 02:50:00', '2024-02-09 02:20:00', '2024-02-09 01:50:00', '2024-02-09 01:20:00', '2024-02-09 00:50:00', '2024-02-09 00:20:00', '2024-02-08 23:50:00', '2024-02-08 23:20:00', '2024-02-08 22:50:00', '2024-02-08 22:20:00', '2024-02-08 21:50:00', '2024-02-08 21:20:00', '2024-02-08 20:50:00', '2024-02-08 19:50:00', '2024-02-08 19:20:00', '2024-02-08 18:50:00', '2024-02-08 18:20:00', '2024-02-08 17:50:00', '2024-02-08 17:20:00', '2024-02-08 16:50:00', '2024-02-08 16:20:00', '2024-02-08 15:50:00', '2024-02-08 15:20:00', '2024-02-08 14:50:00', '2024-02-08 14:20:00', '2024-02-08 13:50:00', '2024-02-08 13:20:00', '2024-02-08 12:50:00', '2024-02-08 12:20:00', '2024-02-08 11:50:00', '2024-02-08 11:20:00', '2024-02-08 10:50:00', '2024-02-08 10:20:00', '2024-02-08 09:50:00', '2024-02-08 09:20:00', '2024-02-08 08:50:00', '2024-02-08 08:20:00', '2024-02-08 07:50:00', '2024-02-08 07:20:00', '2024-02-08 06:50:00', '2024-02-08 06:20:00', '2024-02-08 05:50:00', '2024-02-08 05:20:00', '2024-02-08 04:50:00', '2024-02-08 04:20:00', '2024-02-08 03:50:00', '2024-02-08 03:20:00', '2024-02-08 02:50:00', '2024-02-08 02:20:00', '2024-02-08 01:50:00', '2024-02-08 01:20:00', '2024-02-08 00:50:00', '2024-02-08 00:20:00', '2024-02-07 23:50:00', '2024-02-07 23:20:00', '2024-02-07 22:50:00', '2024-02-07 22:20:00', '2024-02-07 21:50:00', '2024-02-07 21:20:00', '2024-02-07 20:50:00', '2024-02-07 20:20:00', '2024-02-07 19:50:00', '2024-02-07 19:20:00', '2024-02-07 18:50:00', '2024-02-07 18:20:00', '2024-02-07 17:50:00']"
Italy, Aosta Airport (AOT/LIMW) ,"['LIMW 101650Z AUTO VRB02KT 9999 -RA ///////// 07/06 Q0991', 'LIMW 101620Z AUTO 11005KT 9999 ///////// 07/07 Q0991', 'LIMW 101550Z AUTO 11006KT 9999 ///////// 07/07 Q0991', 'LIMW 101520Z AUTO 10009KT 9999 ///////// 08/08 Q0991', 'LIMW 101450Z AUTO 09011KT 9999 ///////// 08/07 Q0991', 'LIMW 101420Z AUTO 11011KT 9999 -RA ///////// 07/07 Q0991', 'LIMW 101350Z AUTO 10009KT 9999 -RA ///////// 07/07 Q0991', 'LIMW 101320Z AUTO 10009KT 9999 -RA ///////// 07/07 Q0991', 'LIMW 101220Z AUTO 10009KT 9999 -RA ///////// 08/06 Q0991', 'LIMW 101120Z AUTO 09005KT 060V130 9999 -RA ///////// 07/07 Q0922', 'LIMW 101050Z AUTO 10005KT 020V140 9999 -RA ///////// 07/07 Q0992', 'LIMW 101020Z AUTO 11008KT 9999 ///////// 07/06 Q0992', 'LIMW 100950Z AUTO 10009KT 060V120 9999 -RA ///////// 07/07 Q0993', 'LIMW 100920Z AUTO 11009KT 080V150 9999 -RA ///////// 07/07 Q0992', 'LIMW 100850Z AUTO 11008KT 9999 -RA ///////// 07/07 Q0993', 'LIMW 100820Z AUTO 09013KT 9999 -RA ///////// 07/06 Q0992', 'LIMW 100750Z AUTO 11009KT 9999 -RA ///////// 07/07 Q0993', 'LIMW 100720Z AUTO 11009KT 9999 -RA ///////// 07/07 Q0992', 'LIMW 100620Z AUTO VRB02KT 9999 -RA ///////// 07/07 Q0992', 'LIMW 100550Z AUTO VRB02KT 9999 -RA ///////// 06/06 Q0992', 'LIMW 100520Z AUTO VRB02KT 9999 -RA ///////// 06/06 Q0992', 'LIMW 100450Z AUTO 00000KT 9999 -RA ///////// 06/06 Q0993', 'LIMW 100420Z AUTO 00000KT 9999 -RA ///////// 06/06 Q0993', 'LIMW 091650Z AUTO VRB01KT 9999 -RA ///////// 07/07 Q0996', 'LIMW 091620Z AUTO VRB01KT 9999 ///////// 07/07 Q0997', 'LIMW 091550Z AUTO 00000KT 9999 ///////// 07/07 Q0997', 'LIMW 091520Z AUTO VRB01KT 9999 ///////// 07/07 Q0997', 'LIMW 091450Z AUTO VRB01KT 9999 ///////// 07/07 Q0997', 'LIMW 091420Z AUTO VRB01KT 9999 -RA ///////// 06/06 Q0997', 'LIMW 091350Z AUTO VRB02KT 9999 -RA ///////// 06/06 Q0998', 'LIMW 091320Z AUTO 00000KT 9999 ///////// 07/07 Q0998', 'LIMW 091250Z AUTO 00000KT 9999 ///////// 07/07 Q0999', 'LIMW 091220Z AUTO VRB02KT 9999 ///////// 07/07 Q0999', 'LIMW 091150Z AUTO 00000KT 9999 ///////// 07/07 Q1000', 'LIMW 091120Z AUTO 00000KT 9999 ///////// 06/06 Q1000', 'LIMW 091050Z AUTO 00000KT 9999 ///////// 06/06 Q1001', 'LIMW 090920Z AUTO VRB01KT 9999 -RA ///////// 06/06 Q1001 REDZ', 'LIMW 090850Z AUTO VRB01KT 9999 -RA 06/06 Q1002 REDZ', 'LIMW 090820Z AUTO 23001KT 9000 DZ ///////// 06/06 Q1002', 'LIMW 090750Z AUTO VRB01KT 9000 DZ ///////// 06/06 Q1002', 'LIMW 090720Z AUTO VRB01KT 9000 DZ ///////// 06/06 Q1002', 'LIMW 090650Z AUTO VRB01KT 7000 DZ ///////// 06/06 Q1002', 'LIMW 090620Z AUTO VRB02KT 6000 -RA ///////// 06/06 Q1002', 'LIMW 090550Z AUTO 00000KT 9000 -RA ///////// 06/06 Q1002', 'LIMW 090520Z AUTO VRB01KT 5000 -RA ///////// 06/06 Q1002', 'LIMW 090450Z AUTO VRB01KT 9999 -RA ///////// 06/06 Q1002', 'LIMW 090420Z AUTO 00000KT 9999 ///////// 06/06 Q1002', 'LIMW 081720Z AUTO 10007KT 070V130 9999 ///////// 09/04 Q1006', 'LIMW 081650Z AUTO 10006KT 9999 ///////// 10/03 Q1006', 'LIMW 081620Z AUTO 10008KT 080V140 9999 ///////// 10/04 Q1006', 'LIMW 081550Z AUTO 10011KT 9999 ///////// 10/04 Q1006', 'LIMW 081520Z AUTO 10007KT 9999 ///////// 10/04 Q1007', 'LIMW 081450Z AUTO 10010KT 9999 ///////// 10/04 Q1007', 'LIMW 081420Z AUTO 09007KT 050V110 9999 ///////// 11/04 Q1007', 'LIMW 081320Z AUTO 09006KT 9999 ///////// 11/04 Q1007', 'LIMW 081250Z AUTO 09007KT 060V120 9999 ///////// 10/04 Q1008', 'LIMW 081220Z AUTO 08008KT 050V110 9999 ///////// 10/03 Q1008', 'LIMW 081150Z AUTO 09007KT 040V110 9999 ///////// 09/02 Q1008', 'LIMW 081120Z AUTO VRB03KT 9999 ///////// 09/02 Q1009', 'LIMW 081050Z AUTO 10006KT 9999 ///////// 08/02 Q1010', 'LIMW 081020Z AUTO VRB01KT 9999 ///////// 07/02 Q1010', 'LIMW 080920Z AUTO 00000KT 9999 ///////// 05/02 Q1010', 'LIMW 080850Z AUTO 00000KT 9999 ///////// 04/02 Q1010', 'LIMW 080820Z AUTO 20004KT 9999 ///////// 02/02 Q1011', 'LIMW 080750Z AUTO VRB01KT 9999 ///////// 01/01 Q1011', 'LIMW 080720Z AUTO VRB02KT 9999 ///////// 01/01 Q1010', 'LIMW 080650Z AUTO 20005KT 190V320 9999 ///////// 01/01 Q1010', 'LIMW 080620Z AUTO VRB02KT 9999 ///////// 01/01 Q1010', 'LIMW 080550Z AUTO VRB02KT 9999 ///////// 01/01 Q1009', 'LIMW 080520Z AUTO VRB02KT 9999 ///////// 01/01 Q1010', 'LIMW 080450Z AUTO VRB01KT 9999 ///////// 00/00 Q1010', 'LIMW 080420Z AUTO VRB02KT 9999 ///////// 01/01 Q1010']","['2024-02-10 16:50:00', '2024-02-10 16:20:00', '2024-02-10 15:50:00', '2024-02-10 15:20:00', '2024-02-10 14:50:00', '2024-02-10 14:20:00', '2024-02-10 13:50:00', '2024-02-10 13:20:00', '2024-02-10 12:20:00', '2024-02-10 11:20:00', '2024-02-10 10:50:00', '2024-02-10 10:20:00', '2024-02-10 09:50:00', '2024-02-10 09:20:00', '2024-02-10 08:50:00', '2024-02-10 08:20:00', '2024-02-10 07:50:00', '2024-02-10 07:20:00', '2024-02-10 06:20:00', '2024-02-10 05:50:00', '2024-02-10 05:20:00', '2024-02-10 04:50:00', '2024-02-10 04:20:00', '2024-02-09 16:50:00', '2024-02-09 16:20:00', '2024-02-09 15:50:00', '2024-02-09 15:20:00', '2024-02-09 14:50:00', '2024-02-09 14:20:00', '2024-02-09 13:50:00', '2024-02-09 13:20:00', '2024-02-09 12:50:00', '2024-02-09 12:20:00', '2024-02-09 11:50:00', '2024-02-09 11:20:00', '2024-02-09 10:50:00', '2024-02-09 09:20:00', '2024-02-09 08:50:00', '2024-02-09 08:20:00', '2024-02-09 07:50:00', '2024-02-09 07:20:00', '2024-02-09 06:50:00', '2024-02-09 06:20:00', '2024-02-09 05:50:00', '2024-02-09 05:20:00', '2024-02-09 04:50:00', '2024-02-09 04:20:00', '2024-02-08 17:20:00', '2024-02-08 16:50:00', '2024-02-08 16:20:00', '2024-02-08 15:50:00', '2024-02-08 15:20:00', '2024-02-08 14:50:00', '2024-02-08 14:20:00', '2024-02-08 13:20:00', '2024-02-08 12:50:00', '2024-02-08 12:20:00', '2024-02-08 11:50:00', '2024-02-08 11:20:00', '2024-02-08 10:50:00', '2024-02-08 10:20:00', '2024-02-08 09:20:00', '2024-02-08 08:50:00', '2024-02-08 08:20:00', '2024-02-08 07:50:00', '2024-02-08 07:20:00', '2024-02-08 06:50:00', '2024-02-08 06:20:00', '2024-02-08 05:50:00', '2024-02-08 05:20:00', '2024-02-08 04:50:00', '2024-02-08 04:20:00']"
Italy, Aviano Air Base (AVB/LIPA) ,"['LIPA 101555Z 04003KT 7000 RA SCT015 BKN035 10/09 Q0995', 'LIPA 101455Z 36006KT 6000 RA SCT015 BKN030 10/09 Q0995', 'LIPA 101355Z 02007KT 8000 RA SCT020 BKN035 10/09 Q0995', 'LIPA 101255Z 02008KT 8000 RA SCT020 BKN035 10/09 Q0995', 'LIPA 101155Z 02010KT 8000 RA SCT015 BKN035 10/09 Q0996', 'LIPA 101055Z 03010KT 8000 -RA SCT010 BKN040 11/10 Q0997', 'LIPA 100955Z 02010KT 3100 RA BR SCT010 BKN030 11/10 Q0997', 'LIPA 100855Z 01009KT 4800 RA BR SCT025 BKN030 10/08 Q0997', 'LIPA 100755Z 03007KT 9999 -RA SCT025 BKN030 10/08 Q0998', 'LIPA 100655Z 05007KT 9999 -RA SCT025 BKN030 09/07 Q0998', 'LIPA 100555Z 05008KT 9999 SCT025 BKN030 09/07 Q0998', 'LIPA 100455Z 01007KT 9000 -RA SCT025 BKN040 09/08 Q0998', 'LIPA 100355Z 02007KT 9999 -RA SCT025 BKN040 09/09 Q0998', 'LIPA 092055Z 17003KT 1900 -RA BR SCT025 BKN030 09/08 Q1000', 'LIPA 091955Z 10002KT 1800 -RA BR SCT020 BKN030 09/08 Q1001', 'LIPA 091855Z 03002KT 9999 -RA BR SCT050 09/08 Q1001', 'LIPA 091755Z 04004KT 1600 -RA BR SCT020 BKN030 09/08 Q1001', 'LIPA 091655Z 09002KT 1700 -RA BR SCT015 BKN030 09/07 Q1001', 'LIPA 091555Z 07004KT 1600 -RA BR SCT015 BKN030 09/08 Q1001', 'LIPA 091455Z 02004KT 1800 -RA BR SCT020 BKN030 09/08 Q1002', 'LIPA 091355Z 05003KT 1700 -RA BR SCT020 BKN030 09/08 Q1002', 'LIPA 091255Z 04005KT 3000 -RA BR SCT020 BKN030 09/08 Q1003', 'LIPA 091155Z 01003KT 2500 -RA BR SCT015 BKN025 09/07 Q1003', 'LIPA 091055Z 04004KT 2000 -RA BR SCT015 BKN025 08/06 Q1004', 'LIPA 090955Z 02003KT 2500 -RA BR SCT030 BKN040 08/06 Q1004', 'LIPA 090855Z 04004KT 3000 -RA BR FEW010 SCT020 BKN030 08/06 Q1004', 'LIPA 090755Z 02004KT 1800 1400SW BR SCT020 BKN030 08/07 Q1004 RMK OVC VIS MIN 1400SW WIND THR05 /////KT WIND THR23 /////KT A2968 AMB', 'LIPA 090655Z 01003KT 1400 1100SW BR SCT010 BKN020 08/06 Q1005', 'LIPA 090555Z 02002KT 1800 1400SW -RA BR SCT015 BKN025 08/06 Q1005', 'LIPA 090455Z 01002KT 0600 -RA FG SCT005 BKN025 08/08 Q1005', 'LIPA 090355Z 03004KT 0600 -RA FG SCT005 OVC020 08/07 Q1005 RMK OVC VIS MIN 0600 WIND THR05 /////KT WIND THR23 /////KT A2969 RED', 'LIPA 082055Z 08001KT 1700 BR SCT015 BKN025 07/06 Q1009', 'LIPA 081955Z 04005KT 1700 BR SCT015 BKN030 08/06 Q1008 RMK OVC VIS MIN 1700 WIND THR05 /////KT WIND THR23 /////KT A2979 YLO', 'LIPA 081855Z 32001KT 2000 BR SCT020 BKN030 08/06 Q1009', 'LIPA 081755Z 11002KT 2000 BR SCT025 BKN040 09/08 Q1009', 'LIPA 081655Z 14002KT 2000 BR SCT020 BKN040 09/07 Q1009', 'LIPA 081555Z 02002KT 2600 BR SCT020 BKN035 10/07 Q1008', 'LIPA 081455Z 35002KT 2200 BR SCT020 BKN035 10/07 Q1009', 'LIPA 081355Z 01003KT 2000 BR SCT020 BKN035 10/07 Q1009', 'LIPA 081255Z 02002KT 1800 BR SCT020 BKN035 10/07 Q1010', 'LIPA 081155Z 11002KT 1800 BR SCT020 BKN040 10/07 Q1010', 'LIPA 081055Z 20002KT 1800 BR SCT020 BKN040 10/07 Q1010', 'LIPA 080955Z 27001KT 1800 BR SCT030 BKN060 09/07 Q1010', 'LIPA 080855Z 16002KT 2200 BR SCT040 BKN070 08/07 Q1010', 'LIPA 080755Z 04004KT 2400 BR SCT050 BKN080 06/05 Q1010', 'LIPA 080655Z 01002KT 2200 BR SCT040 BKN120 05/04 Q1009', 'LIPA 080555Z 02004KT 2200 BR FEW020 BKN040 05/04 Q1009', 'LIPA 080455Z 11002KT 2500 BR SCT020 BKN040 07/07 Q1009', 'LIPA 080355Z 02002KT 2200 BR SCT020 BKN040 07/07 Q1009', 'LIPA 072055Z 18001KT 1600 BR SCT020 BKN045 08/07 Q1011', 'LIPA 071955Z 34002KT 1800 BR SCT025 BKN050 08/07 Q1011', 'LIPA 071855Z 03002KT 2000 BR FEW030 BKN050 08/07 Q1011', 'LIPA 071755Z 19002KT 2000 BR FEW020 BKN040 08/07 Q1011']","['2024-02-10 15:55:00', '2024-02-10 14:55:00', '2024-02-10 13:55:00', '2024-02-10 12:55:00', '2024-02-10 11:55:00', '2024-02-10 10:55:00', '2024-02-10 09:55:00', '2024-02-10 08:55:00', '2024-02-10 07:55:00', '2024-02-10 06:55:00', '2024-02-10 05:55:00', '2024-02-10 04:55:00', '2024-02-10 03:55:00', '2024-02-09 20:55:00', '2024-02-09 19:55:00', '2024-02-09 18:55:00', '2024-02-09 17:55:00', '2024-02-09 16:55:00', '2024-02-09 15:55:00', '2024-02-09 14:55:00', '2024-02-09 13:55:00', '2024-02-09 12:55:00', '2024-02-09 11:55:00', '2024-02-09 10:55:00', '2024-02-09 09:55:00', '2024-02-09 08:55:00', '2024-02-09 07:55:00', '2024-02-09 06:55:00', '2024-02-09 05:55:00', '2024-02-09 04:55:00', '2024-02-09 03:55:00', '2024-02-08 20:55:00', '2024-02-08 19:55:00', '2024-02-08 18:55:00', '2024-02-08 17:55:00', '2024-02-08 16:55:00', '2024-02-08 15:55:00', '2024-02-08 14:55:00', '2024-02-08 13:55:00', '2024-02-08 12:55:00', '2024-02-08 11:55:00', '2024-02-08 10:55:00', '2024-02-08 09:55:00', '2024-02-08 08:55:00', '2024-02-08 07:55:00', '2024-02-08 06:55:00', '2024-02-08 05:55:00', '2024-02-08 04:55:00', '2024-02-08 03:55:00', '2024-02-07 20:55:00', '2024-02-07 19:55:00', '2024-02-07 18:55:00', '2024-02-07 17:55:00']"
Italy, Bari Karol Wojtyla Airport (BRI/LIBD) ,"['LIBD 101650Z 15014KT CAVOK 15/10 Q0999', 'LIBD 101620Z 14010G23KT 120V180 CAVOK 16/07 Q0999', 'LIBD 101550Z 13006KT 080V190 CAVOK 17/05 Q0999', 'LIBD 101520Z 19007G17KT 9999 FEW045 18/05 Q0999', 'LIBD 101450Z 19009KT 9999 SCT045 18/05 Q0999', 'LIBD 101420Z 16007KT 9000 FEW045 16/08 Q1000', 'LIBD 101350Z 13006KT 9000 FEW045 16/09 Q1000', 'LIBD 101320Z 13005KT 9000 FEW045 16/10 Q1000', 'LIBD 101250Z 14007KT 9999 FEW045 16/10 Q1001', 'LIBD 101220Z 14011KT 9999 FEW045 16/10 Q1001', 'LIBD 101150Z 14009KT CAVOK 16/10 Q1002', 'LIBD 101120Z 11007KT CAVOK 16/10 Q1002', 'LIBD 101050Z 13007KT CAVOK 16/10 Q1003', 'LIBD 101020Z 14007KT 9000 NSC 15/10 Q1003', 'LIBD 100950Z 15010KT 9000 NSC 15/10 Q1004', 'LIBD 100920Z 17007KT 9000 NSC 15/09 Q1004', 'LIBD 100850Z 17007KT 9000 NSC 15/08 Q1003', 'LIBD 100820Z 17005KT 9000 NSC 15/07 Q1003', 'LIBD 100750Z 17005KT 9000 NSC 15/08 Q1003', 'LIBD 100720Z 18006KT 9000 NSC 15/09 Q1003', 'LIBD 100650Z 18005KT CAVOK 14/09 Q1003', 'LIBD 100620Z 17005KT CAVOK 15/08 Q1003', 'LIBD 100550Z 17004KT CAVOK 15/06 Q1003', 'LIBD 100520Z 14005KT CAVOK 14/09 Q1003', 'LIBD 100450Z 13009KT CAVOK 14/10 Q1003', 'LIBD 100420Z 14009KT CAVOK 14/10 Q1003', 'LIBD 100350Z 15008KT CAVOK 14/11 Q1004', 'LIBD 100320Z 17004KT CAVOK 14/11 Q1004', 'LIBD 100250Z 16005KT CAVOK 14/11 Q1004', 'LIBD 100220Z 14008KT CAVOK 14/11 Q1004', 'LIBD 100150Z 17005KT CAVOK 14/11 Q1004', 'LIBD 100120Z 17005KT CAVOK 14/11 Q1004', 'LIBD 100050Z 17005KT CAVOK 14/11 Q1005', 'LIBD 100020Z 17005KT CAVOK 14/11 Q1005', 'LIBD 092350Z 18006KT CAVOK 14/11 Q1005', 'LIBD 092320Z 17006KT CAVOK 14/11 Q1005', 'LIBD 092250Z 17007KT CAVOK 14/11 Q1006', 'LIBD 092220Z 17007KT CAVOK 14/11 Q1006', 'LIBD 092150Z AUTO 17006KT 9999 BKN160/// 14/11 Q1006', 'LIBD 092120Z AUTO 17006KT 9999 BKN170/// 13/10 Q1006', 'LIBD 092050Z AUTO 18006KT 9999 BKN160/// 13/10 Q1006', 'LIBD 092020Z AUTO 16005KT 9999 SCT170/// SCT190/// 13/10 Q1006', 'LIBD 091950Z AUTO 16006KT 9999 FEW170/// 12/10 Q1006', 'LIBD 091920Z AUTO 16005KT 140V200 9999 BKN200/// 13/10 Q1006', 'LIBD 091850Z AUTO 17006KT 9999 BKN190/// 13/10 Q1006', 'LIBD 091820Z AUTO 19008KT 9999 BKN200/// 13/10 Q1007', 'LIBD 091750Z AUTO 18007KT 9999 NCD 13/10 Q1007', 'LIBD 091720Z AUTO 18006KT 9999 NCD 13/08 Q1006', 'LIBD 091650Z AUTO 18007KT 9999 FEW190/// 14/08 Q1006', 'LIBD 091620Z AUTO 18007KT 9999 NCD 15/06 Q1006', 'LIBD 091550Z AUTO 18007KT 9999 NCD 15/06 Q1007', 'LIBD 091520Z AUTO 17005KT 9999 NCD 16/06 Q1007', 'LIBD 091450Z AUTO 18007KT 9999 NCD 17/06 Q1007', 'LIBD 091420Z AUTO 17005KT 9999 NCD 17/07 Q1008', 'LIBD 091350Z 15009KT CAVOK 17/06 Q1008', 'LIBD 091320Z 18004KT CAVOK 17/05 Q1008', 'LIBD 091250Z 19006KT CAVOK 18/05 Q1008', 'LIBD 091220Z 19004KT 140V210 CAVOK 18/05 Q1009', 'LIBD 091150Z 20008KT CAVOK 17/05 Q1009', 'LIBD 091120Z 21013KT CAVOK 17/06 Q1010', 'LIBD 091050Z 20011KT CAVOK 17/05 Q1010', 'LIBD 091020Z 19008KT CAVOK 17/07 Q1010', 'LIBD 090950Z 20010KT CAVOK 16/06 Q1011', 'LIBD 090920Z 21008KT CAVOK 16/06 Q1011', 'LIBD 090850Z 21008KT CAVOK 14/05 Q1011', 'LIBD 090820Z 19007KT CAVOK 14/05 Q1010', 'LIBD 090750Z 20008KT CAVOK 12/05 Q1010', 'LIBD 090720Z 19007KT CAVOK 10/04 Q1011', 'LIBD 090650Z 19008KT CAVOK 09/04 Q1011', 'LIBD 090620Z 20010KT CAVOK 08/03 Q1011', 'LIBD 090550Z 19007KT CAVOK 07/03 Q1011', 'LIBD 090520Z 19005KT CAVOK 07/03 Q1010', 'LIBD 090450Z 19005KT CAVOK 07/03 Q1011', 'LIBD 090420Z 18002KT CAVOK 08/03 Q1011', 'LIBD 090350Z 19004KT CAVOK 08/03 Q1011', 'LIBD 090320Z 18003KT CAVOK 08/04 Q1011', 'LIBD 090250Z 20005KT CAVOK 08/04 Q1011', 'LIBD 090220Z 22008KT CAVOK 09/04 Q1011', 'LIBD 090150Z 21007KT CAVOK 08/04 Q1011', 'LIBD 090120Z 20006KT CAVOK 08/04 Q1012', 'LIBD 090050Z 21009KT CAVOK 09/05 Q1011', 'LIBD 090020Z 20006KT CAVOK 09/05 Q1012', 'LIBD 082350Z 21006KT CAVOK 09/05 Q1012', 'LIBD 082320Z 21007KT CAVOK 10/05 Q1012', 'LIBD 082250Z 21008KT CAVOK 10/05 Q1012', 'LIBD 082220Z 21008KT CAVOK 10/06 Q1012', 'LIBD 082150Z 21007KT CAVOK 10/05 Q1012', 'LIBD 082120Z 21008G18KT CAVOK 10/05 Q1012', 'LIBD 082050Z 22009KT CAVOK 10/06 Q1012', 'LIBD 081950Z 21006KT CAVOK 09/06 Q1012', 'LIBD 081920Z 21006KT CAVOK 09/06 Q1012', 'LIBD 081850Z 17003KT CAVOK 10/06 Q1012', 'LIBD 081820Z 23007KT CAVOK 10/06 Q1012', 'LIBD 081750Z 21006KT CAVOK 10/06 Q1012', 'LIBD 081720Z VRB02KT CAVOK 13/07 Q1012', 'LIBD 081650Z 14004KT CAVOK 12/07 Q1012', 'LIBD 081620Z 12004KT CAVOK 14/07 Q1012', 'LIBD 081550Z 08005KT CAVOK 14/08 Q1012', 'LIBD 081520Z 06004KT 020V090 9999 FEW040 16/08 Q1012', 'LIBD 081450Z 36004KT 320V040 9999 FEW040 17/06 Q1012', 'LIBD 081420Z 31005KT 270V350 9999 FEW040 18/06 Q1012', 'LIBD 081350Z 31005KT 260V360 9999 FEW030 18/06 Q1011', 'LIBD 081320Z 31006KT 270V020 9999 FEW030 18/06 Q1011', 'LIBD 081250Z 28010KT 9999 FEW030 19/05 Q1012', 'LIBD 081220Z 27011KT 250V310 9999 FEW035 19/04 Q1012', 'LIBD 081150Z 27009KT 230V310 9999 FEW035 18/05 Q1012', 'LIBD 081120Z 28009KT 250V320 9999 FEW035 18/06 Q1012', 'LIBD 081050Z 27010KT CAVOK 18/07 Q1013', 'LIBD 081020Z 28008KT 240V360 CAVOK 17/06 Q1013', 'LIBD 080950Z 29006KT 230V340 CAVOK 17/07 Q1013', 'LIBD 080920Z 24005KT 200V270 CAVOK 16/07 Q1013', 'LIBD 080850Z 24005KT 210V270 CAVOK 15/07 Q1013', 'LIBD 080820Z 24005KT CAVOK 14/08 Q1013', 'LIBD 080750Z 22006KT CAVOK 12/07 Q1013', 'LIBD 080720Z 23006KT CAVOK 10/07 Q1012', 'LIBD 080650Z 21006KT CAVOK 07/05 Q1012', 'LIBD 080620Z 20005KT CAVOK 06/04 Q1012', 'LIBD 080550Z 22007KT CAVOK 07/05 Q1012', 'LIBD 080520Z 21006KT CAVOK 06/04 Q1011', 'LIBD 080450Z 21005KT CAVOK 07/04 Q1011', 'LIBD 080420Z 23007KT CAVOK 07/05 Q1011', 'LIBD 080350Z 22007KT CAVOK 07/05 Q1011', 'LIBD 080320Z 21007KT CAVOK 07/05 Q1011', 'LIBD 080250Z 22007KT CAVOK 06/05 Q1012', 'LIBD 080220Z 21007KT CAVOK 06/05 Q1012', 'LIBD 080120Z 21008KT CAVOK 07/07 Q1012', 'LIBD 080050Z 21008KT CAVOK 08/07 Q1013', 'LIBD 080020Z 22008KT CAVOK 08/07 Q1013', 'LIBD 072350Z 21006KT CAVOK 06/06 Q1013', 'LIBD 072320Z 20006KT CAVOK 07/06 Q1013', 'LIBD 072250Z 20004KT CAVOK 08/07 Q1013', 'LIBD 072220Z 25004KT CAVOK 09/07 Q1013', 'LIBD 072150Z 25006KT CAVOK 10/08 Q1013', 'LIBD 072120Z 23006KT CAVOK 09/07 Q1013', 'LIBD 072050Z 21007KT CAVOK 10/09 Q1013', 'LIBD 072020Z 22009KT CAVOK 10/09 Q1013', 'LIBD 071950Z 20008KT CAVOK 10/08 Q1013', 'LIBD 071920Z 19003KT CAVOK 10/08 Q1013', 'LIBD 071850Z 19007KT CAVOK 10/08 Q1013', 'LIBD 071820Z 15003KT 120V200 CAVOK 11/08 Q1013', 'LIBD 071750Z 14003KT 090V160 CAVOK 10/07 Q1013']","['2024-02-10 16:50:00', '2024-02-10 16:20:00', '2024-02-10 15:50:00', '2024-02-10 15:20:00', '2024-02-10 14:50:00', '2024-02-10 14:20:00', '2024-02-10 13:50:00', '2024-02-10 13:20:00', '2024-02-10 12:50:00', '2024-02-10 12:20:00', '2024-02-10 11:50:00', '2024-02-10 11:20:00', '2024-02-10 10:50:00', '2024-02-10 10:20:00', '2024-02-10 09:50:00', '2024-02-10 09:20:00', '2024-02-10 08:50:00', '2024-02-10 08:20:00', '2024-02-10 07:50:00', '2024-02-10 07:20:00', '2024-02-10 06:50:00', '2024-02-10 06:20:00', '2024-02-10 05:50:00', '2024-02-10 05:20:00', '2024-02-10 04:50:00', '2024-02-10 04:20:00', '2024-02-10 03:50:00', '2024-02-10 03:20:00', '2024-02-10 02:50:00', '2024-02-10 02:20:00', '2024-02-10 01:50:00', '2024-02-10 01:20:00', '2024-02-10 00:50:00', '2024-02-10 00:20:00', '2024-02-09 23:50:00', '2024-02-09 23:20:00', '2024-02-09 22:50:00', '2024-02-09 22:20:00', '2024-02-09 21:50:00', '2024-02-09 21:20:00', '2024-02-09 20:50:00', '2024-02-09 20:20:00', '2024-02-09 19:50:00', '2024-02-09 19:20:00', '2024-02-09 18:50:00', '2024-02-09 18:20:00', '2024-02-09 17:50:00', '2024-02-09 17:20:00', '2024-02-09 16:50:00', '2024-02-09 16:20:00', '2024-02-09 15:50:00', '2024-02-09 15:20:00', '2024-02-09 14:50:00', '2024-02-09 14:20:00', '2024-02-09 13:50:00', '2024-02-09 13:20:00', '2024-02-09 12:50:00', '2024-02-09 12:20:00', '2024-02-09 11:50:00', '2024-02-09 11:20:00', '2024-02-09 10:50:00', '2024-02-09 10:20:00', '2024-02-09 09:50:00', '2024-02-09 09:20:00', '2024-02-09 08:50:00', '2024-02-09 08:20:00', '2024-02-09 07:50:00', '2024-02-09 07:20:00', '2024-02-09 06:50:00', '2024-02-09 06:20:00', '2024-02-09 05:50:00', '2024-02-09 05:20:00', '2024-02-09 04:50:00', '2024-02-09 04:20:00', '2024-02-09 03:50:00', '2024-02-09 03:20:00', '2024-02-09 02:50:00', '2024-02-09 02:20:00', '2024-02-09 01:50:00', '2024-02-09 01:20:00', '2024-02-09 00:50:00', '2024-02-09 00:20:00', '2024-02-08 23:50:00', '2024-02-08 23:20:00', '2024-02-08 22:50:00', '2024-02-08 22:20:00', '2024-02-08 21:50:00', '2024-02-08 21:20:00', '2024-02-08 20:50:00', '2024-02-08 19:50:00', '2024-02-08 19:20:00', '2024-02-08 18:50:00', '2024-02-08 18:20:00', '2024-02-08 17:50:00', '2024-02-08 17:20:00', '2024-02-08 16:50:00', '2024-02-08 16:20:00', '2024-02-08 15:50:00', '2024-02-08 15:20:00', '2024-02-08 14:50:00', '2024-02-08 14:20:00', '2024-02-08 13:50:00', '2024-02-08 13:20:00', '2024-02-08 12:50:00', '2024-02-08 12:20:00', '2024-02-08 11:50:00', '2024-02-08 11:20:00', '2024-02-08 10:50:00', '2024-02-08 10:20:00', '2024-02-08 09:50:00', '2024-02-08 09:20:00', '2024-02-08 08:50:00', '2024-02-08 08:20:00', '2024-02-08 07:50:00', '2024-02-08 07:20:00', '2024-02-08 06:50:00', '2024-02-08 06:20:00', '2024-02-08 05:50:00', '2024-02-08 05:20:00', '2024-02-08 04:50:00', '2024-02-08 04:20:00', '2024-02-08 03:50:00', '2024-02-08 03:20:00', '2024-02-08 02:50:00', '2024-02-08 02:20:00', '2024-02-08 01:20:00', '2024-02-08 00:50:00', '2024-02-08 00:20:00', '2024-02-07 23:50:00', '2024-02-07 23:20:00', '2024-02-07 22:50:00', '2024-02-07 22:20:00', '2024-02-07 21:50:00', '2024-02-07 21:20:00', '2024-02-07 20:50:00', '2024-02-07 20:20:00', '2024-02-07 19:50:00', '2024-02-07 19:20:00', '2024-02-07 18:50:00', '2024-02-07 18:20:00', '2024-02-07 17:50:00']"
Italy, Bologna Guglielmo Marconi Airport (BLQ/LIPE) ,"['LIPE 101650Z 10010KT 6000 -RA FEW006 BKN045 11/10 Q0991', 'LIPE 101620Z 09008KT 6000 -RA BKN045 11/10 Q0991', 'LIPE 101550Z 08006KT 6000 SCT050 11/10 Q0991', 'LIPE 101520Z 09005KT 6000 FEW050 11/11 Q0991', 'LIPE 101450Z 11009KT 5000 BR FEW004 BKN050 11/11 Q0992', 'LIPE 101420Z 10007KT 5000 BR SCT004 SCT008 11/11 Q0992', 'LIPE 101350Z 09005KT 5000 -RA BR BKN004 BKN008 11/11 Q0993', 'LIPE 101320Z 07006KT 5000 -RA BR BKN005 BKN035 11/10 Q0993', 'LIPE 101250Z 08006KT 040V100 5000 -RA BR FEW006 BKN040 11/10 Q0993', 'LIPE 101220Z 09005KT 050V120 7000 -RA BKN050 11/10 Q0994', 'LIPE 101150Z 07005KT 030V110 8000 -RA BKN050 11/10 Q0994', 'LIPE 101120Z 06003KT 8000 -RA BKN050 11/10 Q0994', 'LIPE 101050Z 07004KT 010V120 9999 -RA BKN040 11/10 Q0994', 'LIPE 101020Z VRB03KT 9999 BKN045 11/09 Q0995', 'LIPE 100950Z 09008KT 9999 BKN060 11/09 Q0994', 'LIPE 100920Z 11008KT 9999 BKN050 11/09 Q0995', 'LIPE 100850Z 12006KT 9999 BKN060 11/09 Q0995', 'LIPE 100820Z 11009KT 9999 -DZ BKN060 11/09 Q0995', 'LIPE 100750Z 10009KT 9999 -DZ FEW050 BKN070 11/09 Q0995', 'LIPE 100720Z 10007KT 9999 -RA BKN070 10/09 Q0994', 'LIPE 100650Z 09006KT 9999 -RA BKN040 10/09 Q0994', 'LIPE 100620Z 09004KT 8000 -RA BKN040 10/08 Q0994', 'LIPE 100550Z 11007KT 9999 -RA SCT040 11/08 Q0994', 'LIPE 100520Z 11007KT 9999 -DZ FEW040 SCT074 11/08 Q0994', 'LIPE 100450Z 11007KT 9999 -DZ FEW040 11/07 Q0994', 'LIPE 100420Z 10008KT CAVOK 11/07 Q0995', 'LIPE 100350Z 09007KT CAVOK 12/07 Q0995', 'LIPE 100320Z 12009KT CAVOK 11/07 Q0996', 'LIPE 100250Z VRB03KT CAVOK 10/07 Q0996', 'LIPE 100220Z 10005KT 060V170 CAVOK 12/06 Q0996', 'LIPE 100150Z 11005KT 060V160 CAVOK 12/06 Q0997', 'LIPE 100120Z 07005KT 040V110 CAVOK 13/06 Q0997', 'LIPE 100050Z 11004KT 050V190 CAVOK 13/06 Q0997', 'LIPE 100020Z 18005KT CAVOK 14/06 Q0997', 'LIPE 092350Z 16005KT CAVOK 14/07 Q0998', 'LIPE 092320Z 15006KT CAVOK 13/07 Q0998', 'LIPE 092250Z 15007KT CAVOK 13/07 Q0998', 'LIPE 092220Z 17006KT CAVOK 13/07 Q0998', 'LIPE 092150Z 13007KT 100V180 9999 SCT070 13/08 Q0999', 'LIPE 092120Z 13006KT 9999 SCT070 13/08 Q0999', 'LIPE 092050Z 14007KT 9999 SCT070 13/08 Q0999', 'LIPE 092020Z 17006KT 9999 BKN070 13/08 Q0999', 'LIPE 091950Z 17008KT 140V200 9999 SCT070 13/08 Q0999', 'LIPE 091920Z 16007KT 9999 SCT070 13/07 Q0999', 'LIPE 091850Z 16006KT 9999 SCT070 14/06 Q1000', 'LIPE 091820Z 18005KT 9999 SCT070 14/06 Q0999', 'LIPE 091750Z 18006KT 140V220 9999 FEW050 15/07 Q0999', 'LIPE 091720Z 15008KT 9999 FEW050 15/07 Q0999', 'LIPE 091650Z 15007KT 9999 SCT050 15/07 Q0999', 'LIPE 091620Z 17005KT 9999 SCT070 16/07 Q0999', 'LIPE 091550Z 16005KT 9999 SCT070 16/08 Q0999', 'LIPE 091520Z 19005KT 9999 SCT070 16/08 Q1000', 'LIPE 091450Z 17005KT 130V200 9999 SCT070 16/08 Q1000', 'LIPE 091420Z 18005KT 140V200 CAVOK 16/08 Q1000', 'LIPE 091350Z 17005KT 140V220 CAVOK 16/08 Q1000', 'LIPE 091320Z 19005KT 150V210 CAVOK 16/08 Q1000', 'LIPE 091250Z 19009KT CAVOK 16/08 Q1001', 'LIPE 091220Z 19011KT CAVOK 16/08 Q1001', 'LIPE 091150Z 19012KT CAVOK 16/08 Q1002', 'LIPE 091120Z 18009KT CAVOK 16/08 Q1002', 'LIPE 091050Z 18008KT 150V210 CAVOK 16/08 Q1003', 'LIPE 091020Z 18010KT CAVOK 15/08 Q1003', 'LIPE 090950Z 18011KT CAVOK 15/09 Q1003', 'LIPE 090920Z 19013G24KT CAVOK 15/08 Q1003', 'LIPE 090850Z 19010KT CAVOK 15/08 Q1003', 'LIPE 090820Z 19010KT CAVOK 15/08 Q1003', 'LIPE 090750Z 18006KT 130V210 CAVOK 15/08 Q1003', 'LIPE 090720Z 19005KT CAVOK 14/08 Q1004', 'LIPE 090650Z 18006KT 150V210 CAVOK 14/08 Q1003', 'LIPE 090620Z 15006KT 120V180 CAVOK 14/08 Q1003', 'LIPE 090550Z 15004KT CAVOK 14/08 Q1003', 'LIPE 090520Z 16004KT 130V200 CAVOK 14/08 Q1003', 'LIPE 090450Z 19007KT 140V220 CAVOK 14/08 Q1004', 'LIPE 090420Z 15008KT CAVOK 14/08 Q1004', 'LIPE 090350Z VRB04KT CAVOK 12/08 Q1004', 'LIPE 090320Z 11003KT 020V130 CAVOK 09/07 Q1004', 'LIPE 090250Z 10004KT CAVOK 06/06 Q1004', 'LIPE 090220Z VRB01KT CAVOK 06/05 Q1005', 'LIPE 090150Z VRB03KT CAVOK 06/05 Q1005', 'LIPE 090120Z 12003KT CAVOK 05/04 Q1006', 'LIPE 090050Z VRB02KT CAVOK 05/05 Q1006', 'LIPE 090020Z VRB01KT CAVOK 06/05 Q1007', 'LIPE 082350Z VRB02KT CAVOK 06/06 Q1007', 'LIPE 082320Z 30002KT 9999 FEW055 06/05 Q1007', 'LIPE 082250Z 26003KT CAVOK 06/05 Q1007', 'LIPE 082220Z 24003KT 210V300 CAVOK 06/05 Q1007', 'LIPE 082150Z VRB02KT 9999 FEW070 06/06 Q1007', 'LIPE 082120Z VRB01KT CAVOK 06/06 Q1007', 'LIPE 082050Z VRB02KT CAVOK 06/06 Q1008', 'LIPE 081950Z VRB01KT CAVOK 07/07 Q1008', 'LIPE 081920Z VRB02KT CAVOK 08/06 Q1008', 'LIPE 081850Z 14003KT CAVOK 08/05 Q1008', 'LIPE 081820Z VRB01KT CAVOK 09/06 Q1008', 'LIPE 081750Z 33003KT 290V360 CAVOK 11/07 Q1008', 'LIPE 081720Z 02003KT CAVOK 11/08 Q1008', 'LIPE 081650Z 01006KT CAVOK 13/08 Q1008', 'LIPE 081620Z 36004KT 9999 SCT055 14/07 Q1008', 'LIPE 081550Z 01004KT 330V030 9999 BKN055 14/07 Q1008', 'LIPE 081520Z 02006KT 9999 FEW055 14/07 Q1008', 'LIPE 081420Z 06007KT CAVOK 15/07 Q1008', 'LIPE 081350Z 08006KT 040V110 CAVOK 15/07 Q1008', 'LIPE 081320Z 07005KT 030V110 CAVOK 15/07 Q1009', 'LIPE 081250Z VRB04KT CAVOK 14/06 Q1009', 'LIPE 081220Z 05004KT 350V140 CAVOK 15/07 Q1010', 'LIPE 081150Z 35003KT 310V050 CAVOK 14/07 Q1010', 'LIPE 081120Z 32003KT 240V030 CAVOK 14/06 Q1011', 'LIPE 081050Z 02003KT 330V090 9999 FEW055 13/07 Q1011', 'LIPE 081020Z 29004KT 250V350 9999 FEW055 12/06 Q1011', 'LIPE 080950Z 34004KT 310V020 CAVOK 11/06 Q1011', 'LIPE 080920Z 33003KT 290V010 CAVOK 10/05 Q1011', 'LIPE 080850Z VRB02KT CAVOK 09/04 Q1010', 'LIPE 080820Z VRB01KT CAVOK 07/04 Q1011', 'LIPE 080750Z 28002KT CAVOK 05/04 Q1010', 'LIPE 080720Z 32002KT CAVOK 03/02 Q1010', 'LIPE 080650Z VRB02KT CAVOK 04/03 Q1010', 'LIPE 080620Z VRB02KT CAVOK 03/03 Q1010', 'LIPE 080550Z VRB02KT CAVOK 04/03 Q1009', 'LIPE 080520Z 19004KT 140V220 CAVOK 05/03 Q1009', 'LIPE 080450Z 21002KT CAVOK 04/03 Q1009', 'LIPE 080420Z 20003KT CAVOK 04/03 Q1009', 'LIPE 080350Z 20003KT CAVOK 06/04 Q1009', 'LIPE 080320Z 19003KT CAVOK 05/03 Q1009', 'LIPE 080250Z VRB02KT CAVOK 05/04 Q1010', 'LIPE 080220Z 19004KT CAVOK 05/03 Q1010', 'LIPE 080150Z 20003KT CAVOK 04/03 Q1010', 'LIPE 080120Z 24002KT CAVOK 05/04 Q1010', 'LIPE 080050Z 25003KT CAVOK 05/04 Q1011', 'LIPE 080020Z 26002KT CAVOK 04/04 Q1011', 'LIPE 072350Z 32003KT CAVOK 04/03 Q1011', 'LIPE 072320Z VRB02KT CAVOK 05/04 Q1011', 'LIPE 072250Z 21002KT CAVOK 06/05 Q1011', 'LIPE 072220Z 22003KT CAVOK 06/04 Q1011', 'LIPE 072150Z 21003KT 170V240 CAVOK 07/05 Q1011', 'LIPE 072120Z 20004KT CAVOK 08/06 Q1011', 'LIPE 072050Z VRB02KT CAVOK 07/06 Q1011', 'LIPE 072020Z VRB01KT CAVOK 07/06 Q1011', 'LIPE 071950Z 17002KT CAVOK 09/06 Q1011', 'LIPE 071920Z 20004KT 9999 FEW055 09/06 Q1012', 'LIPE 071850Z 18001KT 9999 BKN055 09/07 Q1012', 'LIPE 071820Z 14002KT 9999 BKN053 09/07 Q1011', 'LIPE 071750Z 15002KT 9999 BKN056 09/06 Q1011']","['2024-02-10 16:50:00', '2024-02-10 16:20:00', '2024-02-10 15:50:00', '2024-02-10 15:20:00', '2024-02-10 14:50:00', '2024-02-10 14:20:00', '2024-02-10 13:50:00', '2024-02-10 13:20:00', '2024-02-10 12:50:00', '2024-02-10 12:20:00', '2024-02-10 11:50:00', '2024-02-10 11:20:00', '2024-02-10 10:50:00', '2024-02-10 10:20:00', '2024-02-10 09:50:00', '2024-02-10 09:20:00', '2024-02-10 08:50:00', '2024-02-10 08:20:00', '2024-02-10 07:50:00', '2024-02-10 07:20:00', '2024-02-10 06:50:00', '2024-02-10 06:20:00', '2024-02-10 05:50:00', '2024-02-10 05:20:00', '2024-02-10 04:50:00', '2024-02-10 04:20:00', '2024-02-10 03:50:00', '2024-02-10 03:20:00', '2024-02-10 02:50:00', '2024-02-10 02:20:00', '2024-02-10 01:50:00', '2024-02-10 01:20:00', '2024-02-10 00:50:00', '2024-02-10 00:20:00', '2024-02-09 23:50:00', '2024-02-09 23:20:00', '2024-02-09 22:50:00', '2024-02-09 22:20:00', '2024-02-09 21:50:00', '2024-02-09 21:20:00', '2024-02-09 20:50:00', '2024-02-09 20:20:00', '2024-02-09 19:50:00', '2024-02-09 19:20:00', '2024-02-09 18:50:00', '2024-02-09 18:20:00', '2024-02-09 17:50:00', '2024-02-09 17:20:00', '2024-02-09 16:50:00', '2024-02-09 16:20:00', '2024-02-09 15:50:00', '2024-02-09 15:20:00', '2024-02-09 14:50:00', '2024-02-09 14:20:00', '2024-02-09 13:50:00', '2024-02-09 13:20:00', '2024-02-09 12:50:00', '2024-02-09 12:20:00', '2024-02-09 11:50:00', '2024-02-09 11:20:00', '2024-02-09 10:50:00', '2024-02-09 10:20:00', '2024-02-09 09:50:00', '2024-02-09 09:20:00', '2024-02-09 08:50:00', '2024-02-09 08:20:00', '2024-02-09 07:50:00', '2024-02-09 07:20:00', '2024-02-09 06:50:00', '2024-02-09 06:20:00', '2024-02-09 05:50:00', '2024-02-09 05:20:00', '2024-02-09 04:50:00', '2024-02-09 04:20:00', '2024-02-09 03:50:00', '2024-02-09 03:20:00', '2024-02-09 02:50:00', '2024-02-09 02:20:00', '2024-02-09 01:50:00', '2024-02-09 01:20:00', '2024-02-09 00:50:00', '2024-02-09 00:20:00', '2024-02-08 23:50:00', '2024-02-08 23:20:00', '2024-02-08 22:50:00', '2024-02-08 22:20:00', '2024-02-08 21:50:00', '2024-02-08 21:20:00', '2024-02-08 20:50:00', '2024-02-08 19:50:00', '2024-02-08 19:20:00', '2024-02-08 18:50:00', '2024-02-08 18:20:00', '2024-02-08 17:50:00', '2024-02-08 17:20:00', '2024-02-08 16:50:00', '2024-02-08 16:20:00', '2024-02-08 15:50:00', '2024-02-08 15:20:00', '2024-02-08 14:20:00', '2024-02-08 13:50:00', '2024-02-08 13:20:00', '2024-02-08 12:50:00', '2024-02-08 12:20:00', '2024-02-08 11:50:00', '2024-02-08 11:20:00', '2024-02-08 10:50:00', '2024-02-08 10:20:00', '2024-02-08 09:50:00', '2024-02-08 09:20:00', '2024-02-08 08:50:00', '2024-02-08 08:20:00', '2024-02-08 07:50:00', '2024-02-08 07:20:00', '2024-02-08 06:50:00', '2024-02-08 06:20:00', '2024-02-08 05:50:00', '2024-02-08 05:20:00', '2024-02-08 04:50:00', '2024-02-08 04:20:00', '2024-02-08 03:50:00', '2024-02-08 03:20:00', '2024-02-08 02:50:00', '2024-02-08 02:20:00', '2024-02-08 01:50:00', '2024-02-08 01:20:00', '2024-02-08 00:50:00', '2024-02-08 00:20:00', '2024-02-07 23:50:00', '2024-02-07 23:20:00', '2024-02-07 22:50:00', '2024-02-07 22:20:00', '2024-02-07 21:50:00', '2024-02-07 21:20:00', '2024-02-07 20:50:00', '2024-02-07 20:20:00', '2024-02-07 19:50:00', '2024-02-07 19:20:00', '2024-02-07 18:50:00', '2024-02-07 18:20:00', '2024-02-07 17:50:00']"
Italy, Bolzano Airport (BZO/LIPB) ,"['LIPB 101650Z 20001KT 8000 FEW006 SCT035 BKN050 09/08 Q0993', 'LIPB 101550Z VRB01KT 8000 FEW005 SCT030 BKN040 10/08 Q0994', 'LIPB 101450Z VRB01KT 7000 FEW005 BKN040 OVC080 10/08 Q0994', 'LIPB 101350Z VRB02KT 7000 SCT008 BKN040 OVC080 10/08 Q0994', 'LIPB 101250Z VRB01KT 7000 FEW010 BKN050 OVC085 10/08 Q0995', 'LIPB 101150Z VRB02KT 5000 -DZ SCT010 BKN050 OVC085 10/08 Q0995', 'LIPB 101050Z VRB02KT 5000 DZ FEW005 BKN045 OVC085 09/08 Q0996', 'LIPB 100950Z 00000KT 5000 -DZ BR FEW005 BKN045 OVC085 09/08 Q0997', 'LIPB 100850Z VRB01KT 4000 -DZ BR FEW005 BKN045 OVC085 08/08 Q0997', 'LIPB 100750Z VRB01KT 8000 -DZ BKN045 OVC085 07/07 Q0997', 'LIPB 100650Z VRB01KT 8000 -DZ BKN045 OVC085 07/07 Q0997', 'LIPB 100550Z 23002KT 8000 -RA BKN040 07/07 Q0997', 'LIPB 092150Z VRB02KT 8000 -DZ SCT035 BKN065 10/07 Q0998', 'LIPB 092050Z 14005KT 110V180 8000 -RA FEW035 BKN070 10/07 Q0999 RERA', 'LIPB 091950Z 17004KT 8000 RA FEW035 BKN065 10/08 Q0999', 'LIPB 091850Z 15003KT 110V210 8000 -RA SCT035 BKN060 10/08 Q0999', 'LIPB 091750Z 21003KT 150V260 8000 -RA SCT035 BKN070 11/08 Q0998', 'LIPB 091650Z 17004KT 100V200 8000 FEW035 BKN070 12/07 Q0998', 'LIPB 091550Z VRB02KT 9000 SCT045 BKN070 11/08 Q0998', 'LIPB 091450Z VRB01KT 9000 FEW030 BKN060 11/08 Q0999', 'LIPB 091350Z VRB02KT 9000 SCT030 BKN065 11/08 Q0999', 'LIPB 091310Z 34005KT 8000 SCT030 BKN070 11/09 Q1000', 'LIPB 091250Z 01003KT 340V040 5000 BR SCT030 BKN065 10/08 Q1000', 'LIPB 091150Z 34003KT 290V360 3500 BR FEW010 SCT035 BKN060 09/08 Q1001', 'LIPB 091050Z VRB02KT 2500 1000S BR FEW008 BKN030 BKN050 09/08 Q1002', 'LIPB 090950Z VRB02KT 2000 BR SCT030 BKN060 08/08 Q1002', 'LIPB 090850Z VRB02KT 2200 1000S BR FEW015 BKN030 OVC050 08/07 Q1002', 'LIPB 090750Z VRB01KT 1500 -DZ BR SCT015 BKN025 OVC050 07/07 Q1003', 'LIPB 090650Z VRB02KT 1500 BR SCT005 BKN025 OVC050 07/07 Q1002', 'LIPB 090550Z 33004KT 270V350 1500 -DZ BR SCT010 OVC030 07/07 Q1002', 'LIPB 082150Z VRB02KT 9000 BKN060 09/04 Q1006', 'LIPB 082050Z VRB02KT 9000 BKN060 09/04 Q1006', 'LIPB 081950Z VRB01KT 9000 SCT060 10/03 Q1007', 'LIPB 081850Z VRB02KT 9000 SCT060 10/03 Q1007', 'LIPB 081750Z 36004KT 9000 SCT060 11/03 Q1007', 'LIPB 081650Z 36005KT 9000 SCT060 11/03 Q1006', 'LIPB 081550Z 29003KT 250V320 9000 FEW100 12/03 Q1006', 'LIPB 081450Z VRB02KT 9000 NSC 13/03 Q1007', 'LIPB 081350Z VRB02KT 9000 SCT120 13/03 Q1007', 'LIPB 081250Z VRB02KT 9000 NSC 13/03 Q1008', 'LIPB 081150Z 16005KT 130V200 9000 NSC 12/02 Q1009', 'LIPB 081050Z 17003KT 100V210 9000 NSC 10/02 Q1010', 'LIPB 080950Z VRB02KT 9000 NSC 09/02 Q1010', 'LIPB 080850Z VRB02KT 9000 FEW040 08/01 Q1010', 'LIPB 080750Z 02003KT 350V050 8000 SCT040 06/02 Q1010', 'LIPB 080650Z 36003KT 8000 SCT040 06/02 Q1010', 'LIPB 080550Z VRB01KT 9999 BKN060 05/02 Q1010', 'LIPB 072150Z 01003KT 9000 FEW035 SCT050 08/02 Q1010', 'LIPB 072050Z 01004KT 9000 FEW035 SCT045 08/02 Q1011', 'LIPB 071950Z VRB01KT 9000 FEW040 07/02 Q1010', 'LIPB 071850Z 28001KT 9000 FEW060 BKN120 07/02 Q1011', 'LIPB 071750Z VRB02KT 8000 FEW060 SCT120 07/01 Q1011']","['2024-02-10 16:50:00', '2024-02-10 15:50:00', '2024-02-10 14:50:00', '2024-02-10 13:50:00', '2024-02-10 12:50:00', '2024-02-10 11:50:00', '2024-02-10 10:50:00', '2024-02-10 09:50:00', '2024-02-10 08:50:00', '2024-02-10 07:50:00', '2024-02-10 06:50:00', '2024-02-10 05:50:00', '2024-02-09 21:50:00', '2024-02-09 20:50:00', '2024-02-09 19:50:00', '2024-02-09 18:50:00', '2024-02-09 17:50:00', '2024-02-09 16:50:00', '2024-02-09 15:50:00', '2024-02-09 14:50:00', '2024-02-09 13:50:00', '2024-02-09 13:10:00', '2024-02-09 12:50:00', '2024-02-09 11:50:00', '2024-02-09 10:50:00', '2024-02-09 09:50:00', '2024-02-09 08:50:00', '2024-02-09 07:50:00', '2024-02-09 06:50:00', '2024-02-09 05:50:00', '2024-02-08 21:50:00', '2024-02-08 20:50:00', '2024-02-08 19:50:00', '2024-02-08 18:50:00', '2024-02-08 17:50:00', '2024-02-08 16:50:00', '2024-02-08 15:50:00', '2024-02-08 14:50:00', '2024-02-08 13:50:00', '2024-02-08 12:50:00', '2024-02-08 11:50:00', '2024-02-08 10:50:00', '2024-02-08 09:50:00', '2024-02-08 08:50:00', '2024-02-08 07:50:00', '2024-02-08 06:50:00', '2024-02-08 05:50:00', '2024-02-07 21:50:00', '2024-02-07 20:50:00', '2024-02-07 19:50:00', '2024-02-07 18:50:00', '2024-02-07 17:50:00']"
Italy, Brescia Montichiari Airport (VBS/LIPO) ,"['LIPO 101650Z AUTO 04013KT 9999 -RA SCT015/// BKN060/// 10/09 Q0991', 'LIPO 101620Z AUTO 04011KT 9999 -RA OVC064/// 10/09 Q0992', 'LIPO 101550Z AUTO 03012KT 9999 -RA OVC070/// 10/09 Q0992', 'LIPO 101520Z AUTO 03011KT 9999 -RA FEW030/// BKN060/// 10/09 Q0992', 'LIPO 101450Z AUTO 03012KT 9999 -RA OVC063/// 10/09 Q0992', 'LIPO 101420Z AUTO 03011KT 9999 -RA FEW013/// BKN047/// 10/09 Q0992', 'LIPO 101350Z AUTO 04010KT 9999 -RA FEW022/// BKN049/// 10/09 Q0993', 'LIPO 101320Z AUTO 03011KT 9999 -RA FEW026/// BKN047/// 10/09 Q0993', 'LIPO 101250Z AUTO 03010KT 9999 -RA FEW026/// BKN058/// 10/09 Q0993', 'LIPO 101220Z AUTO 03012KT 9999 -RA SCT029/// BKN090/// 10/09 Q0993', 'LIPO 101150Z AUTO 04012KT 9999 -RA FEW020/// BKN035/// 10/09 Q0994', 'LIPO 101120Z AUTO 04011KT 9999 -RA FEW024/// BKN037/// BKN053/// 10/08 Q0994', 'LIPO 101050Z AUTO 03011KT 9999 -RA BKN037/// 10/09 Q0994', 'LIPO 101020Z AUTO 04014KT 9999 -RA OVC032/// 10/09 Q0995', 'LIPO 100950Z AUTO 03012KT 9999 -RA OVC032/// 10/09 Q0995 RERA', 'LIPO 100920Z AUTO 03012KT 9000 RA SCT022/// OVC048/// 10/09 Q0995', 'LIPO 100850Z AUTO 04013KT 9999 -RA OVC054/// 10/09 Q0995 RERA', 'LIPO 100820Z AUTO 03011KT 9999 -RA BKN049/// OVC066/// 10/09 Q0995', 'LIPO 100750Z AUTO 03013KT 9999 -RA OVC052/// 10/09 Q0995', 'LIPO 100720Z AUTO 03013KT 9999 -RA OVC051/// 09/09 Q0995', 'LIPO 100650Z AUTO 03013KT 9000 -RA BKN051/// 09/09 Q0995', 'LIPO 100620Z AUTO 03012KT 9999 -RA OVC051/// 09/08 Q0995', 'LIPO 100550Z AUTO 03012KT 9999 -RA OVC054/// 10/08 Q0995', 'LIPO 100520Z AUTO 03013KT 9999 -RA OVC058/// 10/08 Q0995', 'LIPO 100450Z AUTO 04012KT 9999 -RA BKN057/// 10/08 Q0995', 'LIPO 100420Z AUTO 03013KT 9999 -RA OVC054/// 10/08 Q0995', 'LIPO 100350Z AUTO 04012KT 9999 -RA BKN056/// BKN091/// 10/08 Q0996', 'LIPO 100320Z AUTO 04010KT 9999 BKN071/// 10/08 Q0996', 'LIPO 100250Z AUTO 04010KT 9999 FEW048/// BKN061/// 10/08 Q0996', 'LIPO 100220Z AUTO 03012KT 9999 OVC047/// 10/09 Q0996', 'LIPO 100150Z AUTO 03011KT 9999 -RA OVC047/// 10/09 Q0997', 'LIPO 100120Z AUTO 03012KT 9999 -RA OVC045/// 10/09 Q0997', 'LIPO 100050Z AUTO 03008KT 9999 -RA BKN041/// 10/09 Q0997', 'LIPO 100020Z AUTO 05008KT 9999 -RA OVC047/// 10/10 Q0997', 'LIPO 092350Z AUTO 04007KT 9999 -RA OVC051/// 10/10 Q0998', 'LIPO 092320Z AUTO 04007KT 9999 -RA OVC054/// 10/10 Q0998', 'LIPO 092250Z AUTO 03007KT 9999 -RA OVC052/// 10/10 Q0998', 'LIPO 092220Z AUTO 04007KT 9000 -RA OVC057/// 10/10 Q0998', 'LIPO 092150Z AUTO 04008KT 9999 -RA OVC062/// 10/10 Q0999', 'LIPO 092120Z AUTO 03009KT 9999 -RA OVC064/// 10/10 Q0999', 'LIPO 092050Z AUTO 04009KT 9000 -RA OVC063/// 10/10 Q0999', 'LIPO 092020Z AUTO 06007KT 8000 -RA FEW020/// BKN057/// 11/10 Q0999', 'LIPO 091950Z AUTO 07008KT 040V100 5000 -RA BKN004/// BKN033/// 10/10 Q0999', 'LIPO 091920Z AUTO 07009KT 4900 -RA BR BKN044/// 11/10 Q0999', 'LIPO 091850Z AUTO 06009KT 5000 -RA BKN044/// 11/10 Q0999', 'LIPO 091820Z AUTO 05009KT 4900 -RA BR OVC052/// 11/10 Q0999', 'LIPO 091750Z AUTO 05008KT 4900 -RA BR OVC044/// 11/10 Q0999', 'LIPO 091720Z AUTO 05010KT 5000 -RA BKN053/// 11/10 Q0999 RERA', 'LIPO 091650Z AUTO 06008KT 3900 RA BR OVC040/// 11/10 Q0999', 'LIPO 091620Z AUTO 03010KT 7000 -RA OVC053/// 11/10 Q0999', 'LIPO 091550Z AUTO 04010KT 8000 -RA OVC051/// 11/10 Q1000', 'LIPO 091520Z AUTO 04008KT 8000 -RA BKN058/// 11/10 Q1000', 'LIPO 091450Z AUTO 04008KT 6000 -RA BKN051/// 11/10 Q1000', 'LIPO 091420Z AUTO 04007KT 4600 -RA BR OVC045/// 11/10 Q1000', 'LIPO 091350Z AUTO 04008KT 4800 -RA BR OVC050/// 11/10 Q1000', 'LIPO 091320Z AUTO 03008KT 5000 -RA OVC057/// 11/10 Q1001', 'LIPO 091250Z AUTO 03009KT 5000 -RA BKN056/// 11/10 Q1001', 'LIPO 091220Z AUTO 03008KT 4900 -RA BR FEW024/// BKN060/// 11/10 Q1001', 'LIPO 091150Z AUTO 04010KT 4500 -RA BR BKN051/// 11/10 Q1002', 'LIPO 091120Z AUTO 05011KT 4400 -RA BR BKN050/// 10/10 Q1002', 'LIPO 091050Z AUTO 04009KT 3800 -RA BR BKN051/// 10/10 Q1003', 'LIPO 091020Z AUTO 04010KT 3700 -RA BR OVC058/// 10/09 Q1003', 'LIPO 090950Z AUTO 04009KT 4100 -RA BR OVC051/// 10/09 Q1003', 'LIPO 090920Z AUTO 05008KT 3200 -RA BR OVC043/// 10/09 Q1003', 'LIPO 090850Z AUTO 04007KT 2800 -RA BR OVC040/// 10/09 Q1003', 'LIPO 090820Z AUTO 04007KT 2800 -RA BR OVC042/// 09/09 Q1003', 'LIPO 090750Z AUTO 04008KT 3500 -RA BR OVC056/// 10/09 Q1003', 'LIPO 090720Z AUTO 03008KT 4300 -RA BR OVC059/// 10/08 Q1003', 'LIPO 090650Z AUTO 04007KT 4800 -RA BR OVC060/// 10/08 Q1003', 'LIPO 090620Z AUTO 05007KT 5000 -RA BKN061/// 10/08 Q1003', 'LIPO 090550Z AUTO 05007KT 5000 BR BKN068/// 10/08 Q1003', 'LIPO 090520Z AUTO 05007KT 5000 -RA OVC065/// 10/08 Q1003', 'LIPO 090450Z AUTO 04007KT 020V080 6000 -RA BKN055/// 10/08 Q1004', 'LIPO 090420Z AUTO 04007KT 6000 BKN063/// 10/08 Q1004', 'LIPO 090350Z AUTO 04007KT 6000 BKN068/// 09/08 Q1004', 'LIPO 090320Z AUTO 05006KT 5000 BR BKN062/// 09/08 Q1004', 'LIPO 090250Z AUTO 06006KT 4900 BR BKN059/// 09/08 Q1004', 'LIPO 090220Z AUTO 07005KT 4600 BR BKN040/// BKN062/// BKN140/// 09/08 Q1005', 'LIPO 090150Z AUTO 03006KT 4000 BR FEW053/// BKN140/// 09/08 Q1005', 'LIPO 090120Z AUTO 03008KT 3300 BR BKN055/// 09/08 Q1005', 'LIPO 090050Z AUTO 03006KT 2900 BR BKN033/// 09/08 Q1006', 'LIPO 090020Z AUTO 03007KT 2300 BR BKN033/// 09/09 Q1006', 'LIPO 082350Z AUTO 03007KT 1600 BR BKN027/// 09/09 Q1007', 'LIPO 082320Z AUTO 03007KT 1300 R32/P2000N BR BKN031/// OVC037/// 09/09 Q1007', 'LIPO 082250Z AUTO 03007KT 1100 R32/P2000N -DZ BR BKN031/// 09/09 Q1007', 'LIPO 082220Z AUTO 02006KT 1000 R32/P2000N -DZ BR OVC033/// 09/09 Q1007 REDZ RERA', 'LIPO 082150Z AUTO 03007KT 0900 R32/P2000N DZRA FG OVC029/// 09/09 Q1008', 'LIPO 082120Z AUTO 04006KT 1100 R32/P2000N DZRA BR OVC031/// 09/09 Q1008', 'LIPO 082050Z AUTO 03005KT 1700 -DZRA BR OVC035/// 10/09 Q1008 REDZ RERA', 'LIPO 081950Z AUTO 02005KT 2400 -RA BR OVC039/// 10/08 Q1008', 'LIPO 081920Z AUTO 03005KT 2800 BR OVC040/// 10/08 Q1008', 'LIPO 081850Z AUTO 03005KT 2900 BR OVC040/// 10/08 Q1008', 'LIPO 081820Z AUTO 04006KT 3100 BR OVC039/// 10/08 Q1008', 'LIPO 081750Z AUTO 04005KT 3100 BR OVC039/// 10/08 Q1009', 'LIPO 081720Z AUTO 06005KT 2900 BR OVC040/// 10/08 Q1008', 'LIPO 081650Z AUTO 05004KT 4000 BR BKN041/// 10/08 Q1008', 'LIPO 081620Z AUTO 06004KT 3800 BR BKN041/// 10/08 Q1008', 'LIPO 081550Z AUTO 09005KT 4000 BR BKN040/// 10/08 Q1008', 'LIPO 081520Z AUTO 09004KT 3800 BR BKN042/// 11/08 Q1009', 'LIPO 081450Z AUTO 10005KT 4400 HZ NCD 11/08 Q1009', 'LIPO 081420Z AUTO 11006KT 4000 BR FEW041/// 11/08 Q1009', 'LIPO 081350Z AUTO 12005KT 4100 BR BKN042/// 11/08 Q1009', 'LIPO 081320Z AUTO 13006KT 3600 BR BKN042/// 10/08 Q1009', 'LIPO 081250Z AUTO 12006KT 2900 HZ FEW007/// 11/08 Q1009', 'LIPO 081220Z AUTO 09003KT 040V140 3200 BR SCT004/// 10/08 Q1009', 'LIPO 081150Z AUTO 11003KT 060V160 2200 BR SCT002/// 09/08 Q1010', 'LIPO 081120Z AUTO 11005KT 070V140 0900 R32/1000D FG VV002 09/08 Q1010', 'LIPO 081050Z AUTO 14004KT 070V170 1200 R32/1200U BR BKN002/// 09/09 Q1011', 'LIPO 081020Z AUTO 16003KT 130V200 1000 R32/1000N BR OVC002/// 08/08 Q1011', 'LIPO 080950Z AUTO 20003KT 150V230 0350 R32/0800U FG BKN002/// 08/08 Q1011', 'LIPO 080920Z AUTO 19004KT 0150 R32/0450U FG VV002 07/07 Q1011', 'LIPO 080850Z AUTO 15004KT 0050 R32/0200N FG VV002 07/07 Q1010', 'LIPO 080820Z AUTO 33003KT 0200 R32/0750U FG VV002 07/07 Q1010', 'LIPO 080750Z AUTO VRB02KT 0050 R32/0125N FG VV001 06/06 Q1010', 'LIPO 080720Z AUTO 14002KT 0000 R32/0150N FG VV000 05/05 Q1010', 'LIPO 080650Z AUTO VRB01KT 0000 R32/0125N FG VV002 05/05 Q1010', 'LIPO 080620Z AUTO VRB01KT 0000 R32/0100N FG VV000 06/06 Q1009', 'LIPO 080550Z AUTO 21002KT 0050 R32/0225D FG VV004 06/06 Q1009', 'LIPO 080520Z AUTO 31002KT 0900 R32/P2000N FG BKN046/// 07/07 Q1009', 'LIPO 080450Z AUTO 34002KT 0900 R32/P2000N FG FEW005/// BKN048/// 07/07 Q1009', 'LIPO 080420Z AUTO 01001KT 0800 R32/P2000N FG FEW005/// SCT047/// 08/07 Q1009', 'LIPO 080350Z AUTO 09001KT 0800 R32/P2000N FG BKN046/// 08/07 Q1009', 'LIPO 080320Z AUTO VRB02KT 1000 R32/P2000N BR BKN046/// 08/08 Q1009', 'LIPO 080250Z AUTO 05003KT 1000 R32/P2000N BR BKN046/// 08/08 Q1009', 'LIPO 080220Z AUTO 06002KT 1000 R32/P2000N BR BKN046/// 08/08 Q1010', 'LIPO 080150Z AUTO 10003KT 1000 R32/P2000N BR BKN046/// 08/07 Q1010', 'LIPO 080120Z AUTO 10002KT 1100 R32/P2000N BR OVC047/// 08/08 Q1010', 'LIPO 080050Z AUTO 06002KT 1200 R32/P2000N BR OVC048/// 08/08 Q1010', 'LIPO 080020Z AUTO 09003KT 1200 R32/P2000N BR BKN047/// 08/08 Q1010', 'LIPO 072350Z AUTO 10002KT 1200 R32/P2000N BR FEW029/// BKN049/// 08/08 Q1011', 'LIPO 072320Z AUTO 10003KT 1300 R32/P2000N BR BKN050/// 09/08 Q1011', 'LIPO 072250Z AUTO 09004KT 1500 BR OVC049/// 09/08 Q1011', 'LIPO 072220Z AUTO 11003KT 1500 BR OVC049/// 09/08 Q1011', 'LIPO 072150Z AUTO 11003KT 1800 BR OVC048/// 09/08 Q1011', 'LIPO 072120Z AUTO 10003KT 2400 BR BKN049/// 09/08 Q1011', 'LIPO 072050Z AUTO 05003KT 2200 BR OVC050/// 09/08 Q1011', 'LIPO 072020Z AUTO 05002KT 2500 BR OVC048/// 10/08 Q1011', 'LIPO 071950Z AUTO 05003KT 2800 BR BKN049/// 10/08 Q1011', 'LIPO 071920Z AUTO 35003KT 6000 BKN052/// 10/08 Q1011', 'LIPO 071850Z AUTO 01003KT 7000 OVC051/// 10/08 Q1011', 'LIPO 071820Z AUTO 23003KT 8000 BKN053/// 10/08 Q1011', 'LIPO 071750Z AUTO 22005KT 8000 BKN053/// 10/08 Q1011']","['2024-02-10 16:50:00', '2024-02-10 16:20:00', '2024-02-10 15:50:00', '2024-02-10 15:20:00', '2024-02-10 14:50:00', '2024-02-10 14:20:00', '2024-02-10 13:50:00', '2024-02-10 13:20:00', '2024-02-10 12:50:00', '2024-02-10 12:20:00', '2024-02-10 11:50:00', '2024-02-10 11:20:00', '2024-02-10 10:50:00', '2024-02-10 10:20:00', '2024-02-10 09:50:00', '2024-02-10 09:20:00', '2024-02-10 08:50:00', '2024-02-10 08:20:00', '2024-02-10 07:50:00', '2024-02-10 07:20:00', '2024-02-10 06:50:00', '2024-02-10 06:20:00', '2024-02-10 05:50:00', '2024-02-10 05:20:00', '2024-02-10 04:50:00', '2024-02-10 04:20:00', '2024-02-10 03:50:00', '2024-02-10 03:20:00', '2024-02-10 02:50:00', '2024-02-10 02:20:00', '2024-02-10 01:50:00', '2024-02-10 01:20:00', '2024-02-10 00:50:00', '2024-02-10 00:20:00', '2024-02-09 23:50:00', '2024-02-09 23:20:00', '2024-02-09 22:50:00', '2024-02-09 22:20:00', '2024-02-09 21:50:00', '2024-02-09 21:20:00', '2024-02-09 20:50:00', '2024-02-09 20:20:00', '2024-02-09 19:50:00', '2024-02-09 19:20:00', '2024-02-09 18:50:00', '2024-02-09 18:20:00', '2024-02-09 17:50:00', '2024-02-09 17:20:00', '2024-02-09 16:50:00', '2024-02-09 16:20:00', '2024-02-09 15:50:00', '2024-02-09 15:20:00', '2024-02-09 14:50:00', '2024-02-09 14:20:00', '2024-02-09 13:50:00', '2024-02-09 13:20:00', '2024-02-09 12:50:00', '2024-02-09 12:20:00', '2024-02-09 11:50:00', '2024-02-09 11:20:00', '2024-02-09 10:50:00', '2024-02-09 10:20:00', '2024-02-09 09:50:00', '2024-02-09 09:20:00', '2024-02-09 08:50:00', '2024-02-09 08:20:00', '2024-02-09 07:50:00', '2024-02-09 07:20:00', '2024-02-09 06:50:00', '2024-02-09 06:20:00', '2024-02-09 05:50:00', '2024-02-09 05:20:00', '2024-02-09 04:50:00', '2024-02-09 04:20:00', '2024-02-09 03:50:00', '2024-02-09 03:20:00', '2024-02-09 02:50:00', '2024-02-09 02:20:00', '2024-02-09 01:50:00', '2024-02-09 01:20:00', '2024-02-09 00:50:00', '2024-02-09 00:20:00', '2024-02-08 23:50:00', '2024-02-08 23:20:00', '2024-02-08 22:50:00', '2024-02-08 22:20:00', '2024-02-08 21:50:00', '2024-02-08 21:20:00', '2024-02-08 20:50:00', '2024-02-08 19:50:00', '2024-02-08 19:20:00', '2024-02-08 18:50:00', '2024-02-08 18:20:00', '2024-02-08 17:50:00', '2024-02-08 17:20:00', '2024-02-08 16:50:00', '2024-02-08 16:20:00', '2024-02-08 15:50:00', '2024-02-08 15:20:00', '2024-02-08 14:50:00', '2024-02-08 14:20:00', '2024-02-08 13:50:00', '2024-02-08 13:20:00', '2024-02-08 12:50:00', '2024-02-08 12:20:00', '2024-02-08 11:50:00', '2024-02-08 11:20:00', '2024-02-08 10:50:00', '2024-02-08 10:20:00', '2024-02-08 09:50:00', '2024-02-08 09:20:00', '2024-02-08 08:50:00', '2024-02-08 08:20:00', '2024-02-08 07:50:00', '2024-02-08 07:20:00', '2024-02-08 06:50:00', '2024-02-08 06:20:00', '2024-02-08 05:50:00', '2024-02-08 05:20:00', '2024-02-08 04:50:00', '2024-02-08 04:20:00', '2024-02-08 03:50:00', '2024-02-08 03:20:00', '2024-02-08 02:50:00', '2024-02-08 02:20:00', '2024-02-08 01:50:00', '2024-02-08 01:20:00', '2024-02-08 00:50:00', '2024-02-08 00:20:00', '2024-02-07 23:50:00', '2024-02-07 23:20:00', '2024-02-07 22:50:00', '2024-02-07 22:20:00', '2024-02-07 21:50:00', '2024-02-07 21:20:00', '2024-02-07 20:50:00', '2024-02-07 20:20:00', '2024-02-07 19:50:00', '2024-02-07 19:20:00', '2024-02-07 18:50:00', '2024-02-07 18:20:00', '2024-02-07 17:50:00']"
Italy, Brindisi Airport (BDS/LIBR) ,"['LIBR 101650Z 16012KT 9999 SCT020 16/13 Q1001', 'LIBR 101620Z 17013KT 9999 -RA BKN020 16/13 Q1002', 'LIBR 101550Z 17012KT 9999 BKN025 16/13 Q1002', 'LIBR 101520Z 17013KT 9999 BKN025 16/13 Q1003', 'LIBR 101450Z 17014KT 9999 SCT020 16/13 Q1003', 'LIBR 101420Z 17014KT 9999 SCT020 16/13 Q1003', 'LIBR 101350Z 17014KT 9999 SCT020 17/13 Q1003', 'LIBR 101320Z 17014KT 9999 SCT020 17/13 Q1004', 'LIBR 101250Z 17016KT 9999 FEW025 SCT035 17/13 Q1004', 'LIBR 101220Z 18019KT 9999 FEW025 17/14 Q1005', 'LIBR 101150Z 17020KT 9999 FEW025 17/14 Q1004', 'LIBR 101120Z 18020KT 9999 FEW025 17/14 Q1005', 'LIBR 101050Z 18019KT 9999 FEW030 17/14 Q1005', 'LIBR 101020Z 18017G27KT 9999 FEW020 17/14 Q1006', 'LIBR 100950Z 18017KT 9999 FEW020 17/14 Q1006', 'LIBR 100920Z 16014KT 9999 FEW020 17/14 Q1006', 'LIBR 100850Z 16012KT 9999 FEW020 16/13 Q1006', 'LIBR 100820Z 15011KT 9999 FEW018 15/12 Q1006', 'LIBR 100750Z 16011KT 9999 FEW018 15/12 Q1006', 'LIBR 100720Z 16011KT 9999 FEW018 15/11 Q1006', 'LIBR 100650Z 16011KT 9999 FEW018 14/11 Q1006', 'LIBR 100620Z 17010KT 9999 FEW018 14/11 Q1006', 'LIBR 100550Z 16009KT 9999 FEW017 14/11 Q1006', 'LIBR 100520Z 15010KT 9999 SCT020 15/11 Q1005', 'LIBR 100450Z 16008KT 9999 SCT020 15/12 Q1006', 'LIBR 100420Z 15008KT 9999 SCT020 15/11 Q1006', 'LIBR 100350Z 15008KT 9999 SCT020 14/11 Q1006', 'LIBR 100320Z 14008KT 9999 SCT020 14/11 Q1006', 'LIBR 100250Z 14009KT 9999 SCT020 14/11 Q1006', 'LIBR 100220Z 14008KT 100V160 9999 SCT020 14/11 Q1007', 'LIBR 100150Z 15009KT 9999 SCT020 14/11 Q1007', 'LIBR 100120Z 15009KT 9999 SCT020 14/11 Q1007', 'LIBR 100050Z 15009KT 9999 FEW015 14/11 Q1007', 'LIBR 100020Z 15010KT 9999 FEW023 14/11 Q1007', 'LIBR 092350Z 15007KT 9999 FEW015 14/11 Q1008', 'LIBR 092320Z 16010KT 9999 FEW016 14/11 Q1008', 'LIBR 092250Z 16011KT 9999 FEW017 14/11 Q1008', 'LIBR 092220Z 17009KT 9999 FEW018 13/10 Q1008', 'LIBR 092150Z 16008KT 9999 FEW015 13/10 Q1008', 'LIBR 092120Z 17009KT 9999 FEW015 13/10 Q1008', 'LIBR 092050Z 16010KT 9999 FEW015 13/10 Q1009', 'LIBR 092020Z 16010KT 9999 FEW015 13/10 Q1009', 'LIBR 091950Z 16009KT 9999 FEW015 13/10 Q1009', 'LIBR 091920Z 16010KT CAVOK 13/10 Q1009', 'LIBR 091850Z 16009KT CAVOK 13/10 Q1009', 'LIBR 091820Z 17009KT CAVOK 13/10 Q1009', 'LIBR 091750Z 16010KT CAVOK 13/10 Q1009', 'LIBR 091720Z 16011KT CAVOK 14/11 Q1009', 'LIBR 091650Z 16010KT CAVOK 14/11 Q1009', 'LIBR 091620Z 16009KT CAVOK 15/12 Q1009', 'LIBR 091550Z 18009KT CAVOK 15/12 Q1009', 'LIBR 091520Z 18012KT CAVOK 16/13 Q1010', 'LIBR 091450Z 19011KT CAVOK 16/13 Q1010', 'LIBR 091420Z 19016KT CAVOK 16/13 Q1009', 'LIBR 091350Z 19017KT CAVOK 16/13 Q1010', 'LIBR 091320Z 20017KT CAVOK 16/13 Q1010', 'LIBR 091250Z 19018KT CAVOK 17/14 Q1010', 'LIBR 091220Z 20012KT CAVOK 18/15 Q1011', 'LIBR 091150Z 19013KT CAVOK 18/15 Q1011', 'LIBR 091120Z 18012KT CAVOK 18/15 Q1011', 'LIBR 091050Z 19010KT CAVOK 17/14 Q1011', 'LIBR 091020Z 19013KT CAVOK 17/14 Q1012', 'LIBR 090950Z 18010KT CAVOK 17/14 Q1012', 'LIBR 090920Z 19011KT CAVOK 16/13 Q1012', 'LIBR 090850Z 18010KT CAVOK 15/12 Q1012', 'LIBR 090820Z 18008KT CAVOK 14/11 Q1012', 'LIBR 090750Z 21009KT CAVOK 13/11 Q1013', 'LIBR 090720Z 22010KT CAVOK 13/10 Q1013', 'LIBR 090650Z 23010KT CAVOK 11/08 Q1012', 'LIBR 090620Z 23010KT CAVOK 11/08 Q1012', 'LIBR 090550Z 20004KT 140V240 CAVOK 09/07 Q1012', 'LIBR 090520Z VRB01KT CAVOK 09/06 Q1012', 'LIBR 090450Z 20005KT 160V230 CAVOK 10/07 Q1012', 'LIBR 090420Z 24006KT CAVOK 10/07 Q1012', 'LIBR 090350Z 22008KT CAVOK 11/08 Q1012', 'LIBR 090320Z 22008KT CAVOK 11/08 Q1012', 'LIBR 090250Z 23005KT CAVOK 09/06 Q1012', 'LIBR 090220Z 22006KT CAVOK 10/07 Q1012', 'LIBR 090150Z 23007KT CAVOK 10/07 Q1012', 'LIBR 090120Z 24009KT CAVOK 10/07 Q1012', 'LIBR 090050Z 24009KT CAVOK 09/06 Q1013', 'LIBR 090020Z 24011KT CAVOK 10/07 Q1013', 'LIBR 082350Z 24009KT CAVOK 10/07 Q1013', 'LIBR 082320Z 23009KT CAVOK 10/07 Q1013', 'LIBR 082250Z 24008KT CAVOK 10/07 Q1013', 'LIBR 082220Z 23007KT CAVOK 11/08 Q1013', 'LIBR 082150Z 17004KT CAVOK 10/07 Q1013', 'LIBR 082120Z 19005KT CAVOK 11/08 Q1013', 'LIBR 082050Z 18004KT CAVOK 11/08 Q1013', 'LIBR 081950Z 16005KT CAVOK 12/09 Q1013', 'LIBR 081920Z 20005KT CAVOK 13/10 Q1013', 'LIBR 081850Z 21006KT CAVOK 13/10 Q1013', 'LIBR 081820Z 21006KT CAVOK 14/11 Q1013', 'LIBR 081750Z 22007KT CAVOK 14/11 Q1013', 'LIBR 081720Z 22008KT CAVOK 15/12 Q1012', 'LIBR 081650Z 22009KT CAVOK 15/12 Q1012', 'LIBR 081620Z 22007KT 9999 FEW045 16/13 Q1012', 'LIBR 081550Z VRB02KT 9999 FEW045 15/12 Q1012', 'LIBR 081520Z 12006KT 9999 FEW045 15/12 Q1012', 'LIBR 081450Z 11007KT 9999 FEW045 15/12 Q1012', 'LIBR 081420Z 10007KT 9999 FEW045 15/12 Q1012', 'LIBR 081350Z 08008KT 9999 FEW045 15/12 Q1012', 'LIBR 081320Z 09008KT 9999 FEW045 16/13 Q1012', 'LIBR 081250Z 08007KT 9999 FEW045 16/13 Q1012', 'LIBR 081220Z 10005KT 070V160 9999 FEW045 17/14 Q1012', 'LIBR 081150Z 08005KT 9999 FEW040 16/14 Q1013', 'LIBR 081120Z VRB03KT 9999 FEW035 18/15 Q1013', 'LIBR 081050Z VRB04KT 9999 FEW035 18/15 Q1013', 'LIBR 081020Z 22004KT 170V270 CAVOK 17/14 Q1013', 'LIBR 080950Z 20005KT 170V250 CAVOK 17/14 Q1014', 'LIBR 080920Z 22005KT CAVOK 16/13 Q1014', 'LIBR 080850Z 22003KT 180V240 CAVOK 14/11 Q1013', 'LIBR 080820Z 23005KT CAVOK 13/10 Q1013', 'LIBR 080750Z 21004KT 5000 BR NSC 11/08 Q1013', 'LIBR 080720Z 23004KT 0300 R31/1500D FG NSC 10/07 Q1013', 'LIBR 080650Z 24005KT 0300 R31/0650D FG NSC 09/06 Q1013', 'LIBR 080620Z 20003KT 1500 BR BCFG NSC 10/07 Q1013', 'LIBR 080550Z 16003KT 3500 0800NW R31/0450D BR NSC 10/08 Q1012', 'LIBR 080520Z 17002KT 5000 1500NW R31/0650D BCFG NSC 11/08 Q1012', 'LIBR 080450Z 19002KT 7000 1000NW R31/1400D BCFG SCT010 11/08 Q1012', 'LIBR 080420Z 25003KT 9999 FEW005 SCT010 11/08 Q1012', 'LIBR 080320Z 21006KT 9999 SCT005 12/09 Q1012', 'LIBR 080250Z 23006KT 9999 SCT005 12/09 Q1012', 'LIBR 080220Z 22005KT 9999 SCT005 12/09 Q1012', 'LIBR 080150Z 18005KT 150V210 9999 SCT005 12/09 Q1013', 'LIBR 080120Z VRB02KT 7000 SCT005 12/09 Q1013', 'LIBR 080050Z VRB02KT 7000 SCT005 11/08 Q1013', 'LIBR 072350Z 15005KT 8000 SCT006 11/08 Q1013', 'LIBR 072320Z 16005KT 130V190 9999 SCT005 12/09 Q1013', 'LIBR 072250Z 16005KT 9999 SCT007 12/09 Q1013', 'LIBR 072220Z 18008KT 8000 SCT005 BKN010 12/09 Q1013', 'LIBR 072150Z 19011KT 9999 SCT005 BKN010 12/09 Q1013', 'LIBR 072120Z 19008KT 9999 BKN010 12/09 Q1013', 'LIBR 072050Z 19005KT 9999 SCT008 12/09 Q1013', 'LIBR 072020Z 20006KT CAVOK 12/09 Q1014', 'LIBR 071950Z 20005KT CAVOK 12/09 Q1014', 'LIBR 071920Z 18003KT CAVOK 12/09 Q1014', 'LIBR 071850Z 18004KT CAVOK 12/09 Q1014', 'LIBR 071820Z 18005KT CAVOK 13/09 Q1014', 'LIBR 071750Z 20008KT CAVOK 13/10 Q1014']","['2024-02-10 16:50:00', '2024-02-10 16:20:00', '2024-02-10 15:50:00', '2024-02-10 15:20:00', '2024-02-10 14:50:00', '2024-02-10 14:20:00', '2024-02-10 13:50:00', '2024-02-10 13:20:00', '2024-02-10 12:50:00', '2024-02-10 12:20:00', '2024-02-10 11:50:00', '2024-02-10 11:20:00', '2024-02-10 10:50:00', '2024-02-10 10:20:00', '2024-02-10 09:50:00', '2024-02-10 09:20:00', '2024-02-10 08:50:00', '2024-02-10 08:20:00', '2024-02-10 07:50:00', '2024-02-10 07:20:00', '2024-02-10 06:50:00', '2024-02-10 06:20:00', '2024-02-10 05:50:00', '2024-02-10 05:20:00', '2024-02-10 04:50:00', '2024-02-10 04:20:00', '2024-02-10 03:50:00', '2024-02-10 03:20:00', '2024-02-10 02:50:00', '2024-02-10 02:20:00', '2024-02-10 01:50:00', '2024-02-10 01:20:00', '2024-02-10 00:50:00', '2024-02-10 00:20:00', '2024-02-09 23:50:00', '2024-02-09 23:20:00', '2024-02-09 22:50:00', '2024-02-09 22:20:00', '2024-02-09 21:50:00', '2024-02-09 21:20:00', '2024-02-09 20:50:00', '2024-02-09 20:20:00', '2024-02-09 19:50:00', '2024-02-09 19:20:00', '2024-02-09 18:50:00', '2024-02-09 18:20:00', '2024-02-09 17:50:00', '2024-02-09 17:20:00', '2024-02-09 16:50:00', '2024-02-09 16:20:00', '2024-02-09 15:50:00', '2024-02-09 15:20:00', '2024-02-09 14:50:00', '2024-02-09 14:20:00', '2024-02-09 13:50:00', '2024-02-09 13:20:00', '2024-02-09 12:50:00', '2024-02-09 12:20:00', '2024-02-09 11:50:00', '2024-02-09 11:20:00', '2024-02-09 10:50:00', '2024-02-09 10:20:00', '2024-02-09 09:50:00', '2024-02-09 09:20:00', '2024-02-09 08:50:00', '2024-02-09 08:20:00', '2024-02-09 07:50:00', '2024-02-09 07:20:00', '2024-02-09 06:50:00', '2024-02-09 06:20:00', '2024-02-09 05:50:00', '2024-02-09 05:20:00', '2024-02-09 04:50:00', '2024-02-09 04:20:00', '2024-02-09 03:50:00', '2024-02-09 03:20:00', '2024-02-09 02:50:00', '2024-02-09 02:20:00', '2024-02-09 01:50:00', '2024-02-09 01:20:00', '2024-02-09 00:50:00', '2024-02-09 00:20:00', '2024-02-08 23:50:00', '2024-02-08 23:20:00', '2024-02-08 22:50:00', '2024-02-08 22:20:00', '2024-02-08 21:50:00', '2024-02-08 21:20:00', '2024-02-08 20:50:00', '2024-02-08 19:50:00', '2024-02-08 19:20:00', '2024-02-08 18:50:00', '2024-02-08 18:20:00', '2024-02-08 17:50:00', '2024-02-08 17:20:00', '2024-02-08 16:50:00', '2024-02-08 16:20:00', '2024-02-08 15:50:00', '2024-02-08 15:20:00', '2024-02-08 14:50:00', '2024-02-08 14:20:00', '2024-02-08 13:50:00', '2024-02-08 13:20:00', '2024-02-08 12:50:00', '2024-02-08 12:20:00', '2024-02-08 11:50:00', '2024-02-08 11:20:00', '2024-02-08 10:50:00', '2024-02-08 10:20:00', '2024-02-08 09:50:00', '2024-02-08 09:20:00', '2024-02-08 08:50:00', '2024-02-08 08:20:00', '2024-02-08 07:50:00', '2024-02-08 07:20:00', '2024-02-08 06:50:00', '2024-02-08 06:20:00', '2024-02-08 05:50:00', '2024-02-08 05:20:00', '2024-02-08 04:50:00', '2024-02-08 04:20:00', '2024-02-08 03:20:00', '2024-02-08 02:50:00', '2024-02-08 02:20:00', '2024-02-08 01:50:00', '2024-02-08 01:20:00', '2024-02-08 00:50:00', '2024-02-07 23:50:00', '2024-02-07 23:20:00', '2024-02-07 22:50:00', '2024-02-07 22:20:00', '2024-02-07 21:50:00', '2024-02-07 21:20:00', '2024-02-07 20:50:00', '2024-02-07 20:20:00', '2024-02-07 19:50:00', '2024-02-07 19:20:00', '2024-02-07 18:50:00', '2024-02-07 18:20:00', '2024-02-07 17:50:00']"
Italy, Cagliari Elmas Airport (CAG/LIEE) ,"['LIEE 101650Z VRB02KT 9999 -RA FEW020 SCT060 13/10 Q0993 RERA', 'LIEE 101620Z 25009KT 220V280 6000 RA SCT020 BKN050 14/10 Q0994', 'LIEE 101550Z 31005KT 270V340 9999 -RA FEW020 SCT060 15/11 Q0993', 'LIEE 101520Z VRB02KT 9999 -RA FEW020 SCT060 15/12 Q0993', 'LIEE 101450Z 25004KT 210V280 9000 -RA FEW020 BKN040 15/12 Q0993 RERA', 'LIEE 101420Z 26006KT 210V280 6000 RA FEW020 BKN040 15/12 Q0993', 'LIEE 101350Z VRB02KT 9999 RA FEW025 BKN040 16/12 Q0993', 'LIEE 101320Z 11005KT 9999 -RA FEW025 BKN040 15/13 Q0993', 'LIEE 101250Z 06005KT 8000 BKN040 15/13 Q0994', 'LIEE 101220Z VRB01KT 8000 BKN040 15/13 Q0994', 'LIEE 101150Z 22008KT 190V260 6000 -SHRA SCT020 BKN050 14/12 Q0994', 'LIEE 101120Z VRB03KT 8000 -SHRA BKN050 16/12 Q0994', 'LIEE 101050Z VRB02KT 8000 -SHRA BKN050 16/12 Q0995', 'LIEE 101020Z 15006KT 8000 -RA BKN050 15/13 Q0995', 'LIEE 100950Z 20009KT 5000 -RA BR BKN040 15/12 Q0995', 'LIEE 100920Z 19008KT 5000 BR NSC 15/12 Q0995', 'LIEE 100850Z 22011KT 190V250 5000 -RA BR BKN040 15/11 Q0995', 'LIEE 100820Z 24007KT 3000 BR BKN030 16/11 Q0995', 'LIEE 100750Z 18004KT 080V250 3000 BR BKN030 16/11 Q0994', 'LIEE 100720Z 25006KT 3000 BR BKN030 16/11 Q0994', 'LIEE 100650Z 25010KT 3000 BR BKN030 16/11 Q0994', 'LIEE 100620Z 25007KT 4000 BR FEW030 16/10 Q0994', 'LIEE 100550Z 19004KT 130V230 4500 BR FEW035 16/10 Q0994', 'LIEE 100520Z 14007KT 7000 SCT040 16/11 Q0994', 'LIEE 100450Z 15007KT 130V190 7000 -RA SCT040 16/11 Q0995', 'LIEE 100420Z 15009KT 8000 -RA NSC 15/11 Q0994', 'LIEE 100350Z 11006KT 9000 NSC 15/11 Q0994', 'LIEE 100320Z 07006KT 9000 NSC 15/11 Q0995', 'LIEE 100250Z 12005KT 9000 NSC 15/11 Q0995', 'LIEE 100220Z 13008KT 9999 -RA NSC 15/12 Q0995', 'LIEE 100150Z 15010KT 9999 -RA NSC 15/12 Q0996', 'LIEE 100120Z 15010KT CAVOK 15/13 Q0996', 'LIEE 100050Z 15009KT CAVOK 15/13 Q0997', 'LIEE 100020Z 13006KT CAVOK 14/12 Q0998', 'LIEE 092350Z 13008KT CAVOK 14/12 Q0998', 'LIEE 092320Z 14006KT CAVOK 14/12 Q0998', 'LIEE 092250Z VRB01KT CAVOK 14/11 Q0998', 'LIEE 092220Z 20004KT CAVOK 14/11 Q0999', 'LIEE 092150Z 22004KT CAVOK 13/11 Q0999', 'LIEE 092120Z 22002KT CAVOK 13/10 Q0999', 'LIEE 092050Z VRB01KT CAVOK 13/09 Q1000', 'LIEE 092020Z VRB01KT CAVOK 12/09 Q1000', 'LIEE 091950Z VRB02KT CAVOK 14/09 Q1000', 'LIEE 091920Z VRB02KT CAVOK 14/10 Q1000', 'LIEE 091850Z 35004KT 330V040 CAVOK 14/10 Q1001', 'LIEE 091820Z 09004KT 030V120 CAVOK 14/09 Q1000', 'LIEE 091750Z VRB04KT CAVOK 16/10 Q1000', 'LIEE 091720Z 17004KT 110V200 CAVOK 16/10 Q1001', 'LIEE 091650Z 12006KT CAVOK 16/10 Q1001', 'LIEE 091620Z 14006KT CAVOK 16/10 Q1001', 'LIEE 091550Z 09008KT CAVOK 17/10 Q1001', 'LIEE 091520Z VRB02KT CAVOK 17/10 Q1003', 'LIEE 091450Z 15008KT CAVOK 17/10 Q1002', 'LIEE 091420Z 15009KT CAVOK 17/10 Q1003', 'LIEE 091350Z 15009KT CAVOK 17/11 Q1003', 'LIEE 091320Z 15010KT CAVOK 18/10 Q1003', 'LIEE 091250Z 15010KT CAVOK 18/11 Q1004', 'LIEE 091220Z 15010KT CAVOK 17/11 Q1004', 'LIEE 091150Z 16008KT CAVOK 18/11 Q1005', 'LIEE 091120Z 15010KT CAVOK 17/12 Q1005', 'LIEE 091050Z 14013KT CAVOK 16/12 Q1005', 'LIEE 091020Z 15008KT CAVOK 16/12 Q1007', 'LIEE 090950Z 15007KT CAVOK 16/11 Q1007', 'LIEE 090920Z VRB02KT CAVOK 15/11 Q1007', 'LIEE 090850Z VRB01KT CAVOK 13/11 Q1008', 'LIEE 090820Z 33003KT 270V350 CAVOK 12/10 Q1008', 'LIEE 090750Z 17006KT 130V200 CAVOK 14/11 Q1008', 'LIEE 090720Z 13008KT CAVOK 13/10 Q1008', 'LIEE 090650Z 13009KT 9000 NSC 13/11 Q1008', 'LIEE 090620Z VRB02KT CAVOK 09/09 Q1008', 'LIEE 090550Z 33002KT 9999 MIFG NSC 09/09 Q1008', 'LIEE 090520Z VRB01KT 9999 MIFG NSC 09/08 Q1008', 'LIEE 090450Z VRB02KT 8000 MIFG NSC 09/08 Q1009', 'LIEE 090420Z 33003KT 8000 MIFG NSC 08/08 Q1009', 'LIEE 090350Z 33003KT 8000 MIFG FEW006 09/08 Q1009', 'LIEE 090320Z 01003KT 9999 FEW006 10/10 Q1009', 'LIEE 090250Z 10004KT 9999 FEW006 10/09 Q1010', 'LIEE 090220Z 08003KT 040V110 9999 FEW006 10/09 Q1010', 'LIEE 090150Z 08003KT 9999 FEW006 09/08 Q1011', 'LIEE 090120Z 04003KT 340V080 9999 FEW006 10/09 Q1011', 'LIEE 090050Z 07004KT 040V100 9999 FEW008 10/09 Q1012', 'LIEE 090020Z 03004KT 9999 FEW008 10/09 Q1012', 'LIEE 082350Z VRB01KT 9999 MIFG NSC 10/10 Q1012', 'LIEE 082320Z 12001KT CAVOK 10/08 Q1012', 'LIEE 082250Z VRB02KT CAVOK 11/10 Q1012', 'LIEE 082220Z 27003KT 9999 MIFG NSC 11/10 Q1013', 'LIEE 082150Z VRB01KT CAVOK 11/09 Q1013', 'LIEE 082120Z 28002KT CAVOK 12/11 Q1013', 'LIEE 082050Z VRB02KT CAVOK 13/10 Q1013', 'LIEE 081950Z 35007KT CAVOK 13/11 Q1013', 'LIEE 081920Z 34007KT CAVOK 14/11 Q1013', 'LIEE 081850Z 34006KT CAVOK 14/11 Q1013', 'LIEE 081820Z 33007KT CAVOK 15/11 Q1013', 'LIEE 081750Z 33006KT CAVOK 15/11 Q1013', 'LIEE 081720Z 32009KT CAVOK 16/11 Q1013', 'LIEE 081650Z 31011KT CAVOK 16/10 Q1013', 'LIEE 081620Z 31011KT CAVOK 17/10 Q1013', 'LIEE 081550Z 30006KT 250V330 CAVOK 18/09 Q1013', 'LIEE 081520Z 27005KT 210V330 CAVOK 19/09 Q1013', 'LIEE 081450Z VRB02KT CAVOK 20/09 Q1013', 'LIEE 081420Z 19003KT 160V220 CAVOK 19/10 Q1014', 'LIEE 081350Z 21004KT 140V260 CAVOK 19/10 Q1014', 'LIEE 081320Z 21003KT 180V240 CAVOK 19/09 Q1014', 'LIEE 081250Z 22005KT CAVOK 19/10 Q1015', 'LIEE 081220Z 23004KT 190V260 CAVOK 19/10 Q1015', 'LIEE 081150Z 21004KT 170V240 CAVOK 18/10 Q1016', 'LIEE 081120Z 16003KT 120V190 CAVOK 18/10 Q1016', 'LIEE 081050Z 13004KT CAVOK 16/08 Q1017', 'LIEE 081020Z VRB02KT CAVOK 16/09 Q1017', 'LIEE 080950Z VRB02KT CAVOK 14/10 Q1017', 'LIEE 080920Z VRB01KT CAVOK 13/10 Q1017', 'LIEE 080850Z VRB02KT CAVOK 11/09 Q1017', 'LIEE 080820Z 26003KT 210V300 CAVOK 10/08 Q1017', 'LIEE 080750Z 35006KT CAVOK 08/06 Q1017', 'LIEE 080720Z 36007KT CAVOK 07/06 Q1017', 'LIEE 080650Z 35007KT CAVOK 06/05 Q1017', 'LIEE 080620Z 34007KT CAVOK 06/05 Q1017', 'LIEE 080550Z 33006KT CAVOK 07/06 Q1016', 'LIEE 080520Z 36005KT 9999 FEW020 06/05 Q1016', 'LIEE 080450Z 02005KT 340V050 9999 FEW020 05/04 Q1016', 'LIEE 080420Z 35006KT 9999 FEW020 06/05 Q1016', 'LIEE 080350Z 36006KT 9999 FEW020 07/06 Q1017', 'LIEE 080320Z 34005KT 9999 FEW020 07/06 Q1017', 'LIEE 080250Z 36004KT 330V030 CAVOK 07/06 Q1017', 'LIEE 080220Z 35006KT CAVOK 09/07 Q1017', 'LIEE 080150Z 02006KT CAVOK 09/07 Q1017', 'LIEE 080120Z 02007KT CAVOK 09/07 Q1018', 'LIEE 080050Z 01007KT CAVOK 08/07 Q1018', 'LIEE 080020Z 35006KT CAVOK 09/07 Q1018', 'LIEE 072350Z 01006KT CAVOK 09/07 Q1018', 'LIEE 072250Z 36005KT CAVOK 09/08 Q1018', 'LIEE 072220Z 35006KT CAVOK 10/08 Q1018', 'LIEE 072150Z 01006KT CAVOK 10/08 Q1018', 'LIEE 072120Z 01009KT CAVOK 10/08 Q1018', 'LIEE 072050Z 36008KT CAVOK 10/08 Q1018', 'LIEE 072020Z 35007KT CAVOK 10/08 Q1018', 'LIEE 071950Z 35008KT CAVOK 11/08 Q1018', 'LIEE 071920Z 35008KT CAVOK 11/08 Q1018', 'LIEE 071850Z 34008KT CAVOK 12/08 Q1018', 'LIEE 071820Z 33010KT CAVOK 13/08 Q1018', 'LIEE 071750Z 33008KT CAVOK 13/08 Q1018']","['2024-02-10 16:50:00', '2024-02-10 16:20:00', '2024-02-10 15:50:00', '2024-02-10 15:20:00', '2024-02-10 14:50:00', '2024-02-10 14:20:00', '2024-02-10 13:50:00', '2024-02-10 13:20:00', '2024-02-10 12:50:00', '2024-02-10 12:20:00', '2024-02-10 11:50:00', '2024-02-10 11:20:00', '2024-02-10 10:50:00', '2024-02-10 10:20:00', '2024-02-10 09:50:00', '2024-02-10 09:20:00', '2024-02-10 08:50:00', '2024-02-10 08:20:00', '2024-02-10 07:50:00', '2024-02-10 07:20:00', '2024-02-10 06:50:00', '2024-02-10 06:20:00', '2024-02-10 05:50:00', '2024-02-10 05:20:00', '2024-02-10 04:50:00', '2024-02-10 04:20:00', '2024-02-10 03:50:00', '2024-02-10 03:20:00', '2024-02-10 02:50:00', '2024-02-10 02:20:00', '2024-02-10 01:50:00', '2024-02-10 01:20:00', '2024-02-10 00:50:00', '2024-02-10 00:20:00', '2024-02-09 23:50:00', '2024-02-09 23:20:00', '2024-02-09 22:50:00', '2024-02-09 22:20:00', '2024-02-09 21:50:00', '2024-02-09 21:20:00', '2024-02-09 20:50:00', '2024-02-09 20:20:00', '2024-02-09 19:50:00', '2024-02-09 19:20:00', '2024-02-09 18:50:00', '2024-02-09 18:20:00', '2024-02-09 17:50:00', '2024-02-09 17:20:00', '2024-02-09 16:50:00', '2024-02-09 16:20:00', '2024-02-09 15:50:00', '2024-02-09 15:20:00', '2024-02-09 14:50:00', '2024-02-09 14:20:00', '2024-02-09 13:50:00', '2024-02-09 13:20:00', '2024-02-09 12:50:00', '2024-02-09 12:20:00', '2024-02-09 11:50:00', '2024-02-09 11:20:00', '2024-02-09 10:50:00', '2024-02-09 10:20:00', '2024-02-09 09:50:00', '2024-02-09 09:20:00', '2024-02-09 08:50:00', '2024-02-09 08:20:00', '2024-02-09 07:50:00', '2024-02-09 07:20:00', '2024-02-09 06:50:00', '2024-02-09 06:20:00', '2024-02-09 05:50:00', '2024-02-09 05:20:00', '2024-02-09 04:50:00', '2024-02-09 04:20:00', '2024-02-09 03:50:00', '2024-02-09 03:20:00', '2024-02-09 02:50:00', '2024-02-09 02:20:00', '2024-02-09 01:50:00', '2024-02-09 01:20:00', '2024-02-09 00:50:00', '2024-02-09 00:20:00', '2024-02-08 23:50:00', '2024-02-08 23:20:00', '2024-02-08 22:50:00', '2024-02-08 22:20:00', '2024-02-08 21:50:00', '2024-02-08 21:20:00', '2024-02-08 20:50:00', '2024-02-08 19:50:00', '2024-02-08 19:20:00', '2024-02-08 18:50:00', '2024-02-08 18:20:00', '2024-02-08 17:50:00', '2024-02-08 17:20:00', '2024-02-08 16:50:00', '2024-02-08 16:20:00', '2024-02-08 15:50:00', '2024-02-08 15:20:00', '2024-02-08 14:50:00', '2024-02-08 14:20:00', '2024-02-08 13:50:00', '2024-02-08 13:20:00', '2024-02-08 12:50:00', '2024-02-08 12:20:00', '2024-02-08 11:50:00', '2024-02-08 11:20:00', '2024-02-08 10:50:00', '2024-02-08 10:20:00', '2024-02-08 09:50:00', '2024-02-08 09:20:00', '2024-02-08 08:50:00', '2024-02-08 08:20:00', '2024-02-08 07:50:00', '2024-02-08 07:20:00', '2024-02-08 06:50:00', '2024-02-08 06:20:00', '2024-02-08 05:50:00', '2024-02-08 05:20:00', '2024-02-08 04:50:00', '2024-02-08 04:20:00', '2024-02-08 03:50:00', '2024-02-08 03:20:00', '2024-02-08 02:50:00', '2024-02-08 02:20:00', '2024-02-08 01:50:00', '2024-02-08 01:20:00', '2024-02-08 00:50:00', '2024-02-08 00:20:00', '2024-02-07 23:50:00', '2024-02-07 22:50:00', '2024-02-07 22:20:00', '2024-02-07 21:50:00', '2024-02-07 21:20:00', '2024-02-07 20:50:00', '2024-02-07 20:20:00', '2024-02-07 19:50:00', '2024-02-07 19:20:00', '2024-02-07 18:50:00', '2024-02-07 18:20:00', '2024-02-07 17:50:00']"
Italy, Catania Fontanarossa Airport (CTA/LICC) ,"['LICC 101650Z 24018KT 9999 FEW050 BKN100 19/07 Q1002', 'LICC 101620Z 24013KT 9999 FEW050 BKN100 20/07 Q1001', 'LICC 101550Z 25013KT 9999 FEW050 BKN110 20/06 Q1001', 'LICC 101520Z 25008KT 9999 FEW050 SCT110 20/08 Q1001', 'LICC 101450Z 24010KT 9999 FEW050 19/09 Q1002', 'LICC 101420Z 20011KT 9999 FEW050 SCT080 BKN100 19/09 Q1002', 'LICC 101350Z 20012KT 9999 FEW050 BKN080 19/08 Q1003', 'LICC 101320Z 22013KT 9999 FEW050 BKN080 18/08 Q1003', 'LICC 101250Z 23026G37KT 9999 -DZ FEW050 SCT080 BKN120 20/08 Q1004', 'LICC 101220Z 21009KT 9999 SCT080 BKN120 19/08 Q1003', 'LICC 101150Z 24011G24KT 9999 SCT080 BKN120 19/08 Q1004', 'LICC 101120Z 25013KT 9999 SCT080 BKN120 18/10 Q1005', 'LICC 101050Z 26015KT 9999 SCT080 BKN120 18/09 Q1005', 'LICC 101020Z 25016KT 9999 SCT080 BKN120 18/07 Q1006', 'LICC 100950Z 26015KT 9999 SCT070 BKN120 19/07 Q1006', 'LICC 100920Z 26013KT 9999 SCT070 BKN120 20/07 Q1006', 'LICC 100850Z 26014KT 9999 SCT070 BKN120 19/06 Q1006', 'LICC 100820Z 27012KT 9999 SCT080 BKN120 19/07 Q1006', 'LICC 100750Z 28010KT 9999 BKN100 18/08 Q1006', 'LICC 100720Z 23007KT 9999 BKN100 17/08 Q1006', 'LICC 100650Z VRB03KT 9999 BKN120 17/07 Q1006', 'LICC 100620Z VRB02KT 9999 BKN110 17/07 Q1006', 'LICC 100550Z 32010KT 220V360 9999 BKN110 17/07 Q1005', 'LICC 100520Z 13007KT 100V160 9999 BKN100 16/08 Q1006', 'LICC 100450Z 26008KT 9999 BKN110 17/08 Q1006', 'LICC 100420Z VRB02KT 9999 SCT120 14/09 Q1007', 'LICC 100350Z 27003KT 210V320 9999 FEW120 14/09 Q1007', 'LICC 100320Z 20003KT 150V260 CAVOK 15/09 Q1007', 'LICC 100250Z 19005KT CAVOK 15/09 Q1007', 'LICC 100220Z 23006KT 170V270 CAVOK 16/08 Q1007', 'LICC 100150Z 27009KT CAVOK 17/07 Q1007', 'LICC 100120Z 26008KT CAVOK 17/08 Q1008', 'LICC 100050Z 27012KT CAVOK 17/08 Q1008', 'LICC 100020Z 27012KT CAVOK 17/09 Q1008', 'LICC 092350Z 28012KT CAVOK 17/09 Q1009', 'LICC 092320Z 27010KT CAVOK 17/09 Q1009', 'LICC 092250Z 27010KT CAVOK 16/10 Q1009', 'LICC 092220Z 27010KT CAVOK 16/10 Q1009', 'LICC 092150Z 27009KT CAVOK 16/10 Q1010', 'LICC 092120Z 29010KT CAVOK 16/10 Q1010', 'LICC 092050Z 26008KT CAVOK 15/10 Q1010', 'LICC 092020Z 26009KT CAVOK 16/10 Q1010', 'LICC 091950Z 27011KT CAVOK 16/09 Q1010', 'LICC 091920Z 28009KT CAVOK 16/09 Q1010', 'LICC 091850Z 27007KT CAVOK 15/09 Q1010', 'LICC 091820Z 27008KT CAVOK 15/08 Q1010', 'LICC 091750Z 26010KT CAVOK 16/08 Q1010', 'LICC 091720Z 26010KT CAVOK 17/08 Q1010', 'LICC 091650Z 25009KT CAVOK 17/08 Q1010', 'LICC 091620Z 25009KT 9999 SCT120 19/07 Q1010', 'LICC 091550Z 25011KT CAVOK 20/07 Q1010', 'LICC 091520Z 27013KT CAVOK 20/06 Q1010', 'LICC 091450Z 26012KT CAVOK 20/07 Q1011', 'LICC 091420Z 26011KT CAVOK 20/07 Q1011', 'LICC 091350Z 26012KT CAVOK 21/06 Q1011', 'LICC 091320Z 25012KT CAVOK 21/06 Q1011', 'LICC 091250Z 26015KT CAVOK 22/06 Q1012', 'LICC 091220Z 26012KT CAVOK 22/08 Q1012', 'LICC 091150Z 26013KT 230V290 CAVOK 21/06 Q1012', 'LICC 091120Z 27014KT CAVOK 21/07 Q1013', 'LICC 091050Z 26014KT CAVOK 21/06 Q1013', 'LICC 091020Z 27014KT CAVOK 20/05 Q1014', 'LICC 090950Z 27013KT 230V290 CAVOK 20/03 Q1014', 'LICC 090920Z 27011KT CAVOK 19/02 Q1014', 'LICC 090850Z 26011KT CAVOK 17/02 Q1014', 'LICC 090820Z 26013KT CAVOK 16/04 Q1015', 'LICC 090750Z 26012KT CAVOK 15/03 Q1015', 'LICC 090720Z 26014KT CAVOK 13/02 Q1015', 'LICC 090650Z 25012KT CAVOK 11/03 Q1015', 'LICC 090620Z 24013KT CAVOK 08/03 Q1014', 'LICC 090550Z 23013KT CAVOK 09/03 Q1014', 'LICC 090520Z 23010KT CAVOK 08/03 Q1014', 'LICC 090450Z 24010KT CAVOK 08/03 Q1014', 'LICC 090420Z 27010KT CAVOK 10/05 Q1014', 'LICC 090350Z 28011KT CAVOK 10/05 Q1014', 'LICC 090320Z 27008KT CAVOK 08/05 Q1014', 'LICC 090250Z 29004KT CAVOK 09/05 Q1014', 'LICC 090220Z 28005KT CAVOK 09/06 Q1015', 'LICC 090150Z 29006KT CAVOK 10/06 Q1015', 'LICC 090120Z 28008KT CAVOK 11/06 Q1015', 'LICC 090050Z 27008KT CAVOK 11/07 Q1015', 'LICC 090020Z 27010KT CAVOK 12/08 Q1015', 'LICC 082350Z 28008KT CAVOK 12/09 Q1016', 'LICC 082320Z 27008KT CAVOK 12/09 Q1016', 'LICC 082250Z 26009KT CAVOK 11/09 Q1016', 'LICC 082220Z 25009KT CAVOK 10/09 Q1016', 'LICC 082150Z 26009KT CAVOK 10/08 Q1016', 'LICC 082120Z 27007KT CAVOK 10/08 Q1016', 'LICC 082050Z 23005KT CAVOK 09/07 Q1016', 'LICC 081950Z VRB02KT CAVOK 11/09 Q1016', 'LICC 081920Z VRB01KT CAVOK 12/09 Q1016', 'LICC 081850Z VRB02KT CAVOK 14/10 Q1016', 'LICC 081820Z 04002KT CAVOK 14/11 Q1015', 'LICC 081750Z 09002KT CAVOK 14/10 Q1015', 'LICC 081720Z 11003KT CAVOK 14/10 Q1015', 'LICC 081650Z 10003KT CAVOK 15/10 Q1015', 'LICC 081620Z 11004KT CAVOK 16/10 Q1015', 'LICC 081550Z 09006KT CAVOK 16/10 Q1015', 'LICC 081520Z 10007KT CAVOK 17/09 Q1015', 'LICC 081450Z 10008KT CAVOK 17/09 Q1015', 'LICC 081420Z 08010KT CAVOK 17/09 Q1015', 'LICC 081350Z 11009KT CAVOK 18/10 Q1015 WS R08', 'LICC 081320Z 11009KT 080V140 CAVOK 18/08 Q1015 WS R08', 'LICC 081250Z 10010KT CAVOK 18/07 Q1015', 'LICC 081220Z 10010KT CAVOK 19/07 Q1015', 'LICC 081150Z VRB06KT CAVOK 20/07 Q1015', 'LICC 081120Z 21007KT 180V250 CAVOK 20/07 Q1015', 'LICC 081050Z 22006KT 160V260 CAVOK 19/08 Q1016', 'LICC 081020Z 23006KT 180V300 CAVOK 18/07 Q1016', 'LICC 080920Z 25007KT CAVOK 17/07 Q1016', 'LICC 080850Z 26009KT CAVOK 16/07 Q1016', 'LICC 080820Z 25008KT CAVOK 15/07 Q1016', 'LICC 080750Z 28006KT CAVOK 13/06 Q1016', 'LICC 080720Z 27008KT CAVOK 11/06 Q1016', 'LICC 080650Z 26008KT CAVOK 08/05 Q1015', 'LICC 080620Z 23006KT CAVOK 08/05 Q1015', 'LICC 080550Z 22005KT CAVOK 07/05 Q1015', 'LICC 080520Z 25006KT CAVOK 06/04 Q1015', 'LICC 080450Z 24006KT CAVOK 06/04 Q1015', 'LICC 080420Z 26007KT CAVOK 07/04 Q1014', 'LICC 080350Z 26008KT CAVOK 08/05 Q1014', 'LICC 080320Z 26009KT CAVOK 08/05 Q1014', 'LICC 080250Z 27010KT CAVOK 08/05 Q1014', 'LICC 080220Z 26007KT CAVOK 10/05 Q1014', 'LICC 080150Z 26008KT CAVOK 10/06 Q1014', 'LICC 080120Z 30006KT CAVOK 11/05 Q1015', 'LICC 080050Z 28008KT CAVOK 10/05 Q1015', 'LICC 080020Z 27010KT CAVOK 10/05 Q1014', 'LICC 072350Z 26010KT CAVOK 10/05 Q1014', 'LICC 072320Z 26009KT CAVOK 09/05 Q1015', 'LICC 072250Z 26007KT CAVOK 09/05 Q1015', 'LICC 072220Z 26006KT CAVOK 09/06 Q1015', 'LICC 072150Z 25008KT CAVOK 10/08 Q1015', 'LICC 072120Z 25009KT CAVOK 10/08 Q1015', 'LICC 072050Z 24005KT CAVOK 10/08 Q1015', 'LICC 072020Z 26005KT CAVOK 12/09 Q1015', 'LICC 071950Z 28005KT CAVOK 12/09 Q1015', 'LICC 071920Z 28008KT CAVOK 14/10 Q1015', 'LICC 071850Z 28011KT CAVOK 15/11 Q1015', 'LICC 071820Z 31012KT 9999 SCT120 15/10 Q1015', 'LICC 071750Z 27009KT 9999 SCT120 15/09 Q1015']","['2024-02-10 16:50:00', '2024-02-10 16:20:00', '2024-02-10 15:50:00', '2024-02-10 15:20:00', '2024-02-10 14:50:00', '2024-02-10 14:20:00', '2024-02-10 13:50:00', '2024-02-10 13:20:00', '2024-02-10 12:50:00', '2024-02-10 12:20:00', '2024-02-10 11:50:00', '2024-02-10 11:20:00', '2024-02-10 10:50:00', '2024-02-10 10:20:00', '2024-02-10 09:50:00', '2024-02-10 09:20:00', '2024-02-10 08:50:00', '2024-02-10 08:20:00', '2024-02-10 07:50:00', '2024-02-10 07:20:00', '2024-02-10 06:50:00', '2024-02-10 06:20:00', '2024-02-10 05:50:00', '2024-02-10 05:20:00', '2024-02-10 04:50:00', '2024-02-10 04:20:00', '2024-02-10 03:50:00', '2024-02-10 03:20:00', '2024-02-10 02:50:00', '2024-02-10 02:20:00', '2024-02-10 01:50:00', '2024-02-10 01:20:00', '2024-02-10 00:50:00', '2024-02-10 00:20:00', '2024-02-09 23:50:00', '2024-02-09 23:20:00', '2024-02-09 22:50:00', '2024-02-09 22:20:00', '2024-02-09 21:50:00', '2024-02-09 21:20:00', '2024-02-09 20:50:00', '2024-02-09 20:20:00', '2024-02-09 19:50:00', '2024-02-09 19:20:00', '2024-02-09 18:50:00', '2024-02-09 18:20:00', '2024-02-09 17:50:00', '2024-02-09 17:20:00', '2024-02-09 16:50:00', '2024-02-09 16:20:00', '2024-02-09 15:50:00', '2024-02-09 15:20:00', '2024-02-09 14:50:00', '2024-02-09 14:20:00', '2024-02-09 13:50:00', '2024-02-09 13:20:00', '2024-02-09 12:50:00', '2024-02-09 12:20:00', '2024-02-09 11:50:00', '2024-02-09 11:20:00', '2024-02-09 10:50:00', '2024-02-09 10:20:00', '2024-02-09 09:50:00', '2024-02-09 09:20:00', '2024-02-09 08:50:00', '2024-02-09 08:20:00', '2024-02-09 07:50:00', '2024-02-09 07:20:00', '2024-02-09 06:50:00', '2024-02-09 06:20:00', '2024-02-09 05:50:00', '2024-02-09 05:20:00', '2024-02-09 04:50:00', '2024-02-09 04:20:00', '2024-02-09 03:50:00', '2024-02-09 03:20:00', '2024-02-09 02:50:00', '2024-02-09 02:20:00', '2024-02-09 01:50:00', '2024-02-09 01:20:00', '2024-02-09 00:50:00', '2024-02-09 00:20:00', '2024-02-08 23:50:00', '2024-02-08 23:20:00', '2024-02-08 22:50:00', '2024-02-08 22:20:00', '2024-02-08 21:50:00', '2024-02-08 21:20:00', '2024-02-08 20:50:00', '2024-02-08 19:50:00', '2024-02-08 19:20:00', '2024-02-08 18:50:00', '2024-02-08 18:20:00', '2024-02-08 17:50:00', '2024-02-08 17:20:00', '2024-02-08 16:50:00', '2024-02-08 16:20:00', '2024-02-08 15:50:00', '2024-02-08 15:20:00', '2024-02-08 14:50:00', '2024-02-08 14:20:00', '2024-02-08 13:50:00', '2024-02-08 13:20:00', '2024-02-08 12:50:00', '2024-02-08 12:20:00', '2024-02-08 11:50:00', '2024-02-08 11:20:00', '2024-02-08 10:50:00', '2024-02-08 10:20:00', '2024-02-08 09:20:00', '2024-02-08 08:50:00', '2024-02-08 08:20:00', '2024-02-08 07:50:00', '2024-02-08 07:20:00', '2024-02-08 06:50:00', '2024-02-08 06:20:00', '2024-02-08 05:50:00', '2024-02-08 05:20:00', '2024-02-08 04:50:00', '2024-02-08 04:20:00', '2024-02-08 03:50:00', '2024-02-08 03:20:00', '2024-02-08 02:50:00', '2024-02-08 02:20:00', '2024-02-08 01:50:00', '2024-02-08 01:20:00', '2024-02-08 00:50:00', '2024-02-08 00:20:00', '2024-02-07 23:50:00', '2024-02-07 23:20:00', '2024-02-07 22:50:00', '2024-02-07 22:20:00', '2024-02-07 21:50:00', '2024-02-07 21:20:00', '2024-02-07 20:50:00', '2024-02-07 20:20:00', '2024-02-07 19:50:00', '2024-02-07 19:20:00', '2024-02-07 18:50:00', '2024-02-07 18:20:00', '2024-02-07 17:50:00']"
Italy, Comiso Airport (CIY/LICB) ,"['LICB 101650Z AUTO 24018KT 9999 -RA BKN034/// 15/10 Q1004', 'LICB 101620Z AUTO 23012KT 9999 -RA BKN085/// 17/08 Q1003', 'LICB 101550Z AUTO 21012KT 9999 -RA BKN085/// 17/07 Q1002', 'LICB 101520Z AUTO 21011G21KT 180V240 9999 FEW100/// 18/07 Q1002', 'LICB 101450Z AUTO 20013KT 9999 NCD 17/08 Q1002', 'LICB 101420Z AUTO 20014G26KT 9999 FEW110/// 17/08 Q1002', 'LICB 101350Z AUTO 20016G27KT 9999 NCD 17/08 Q1003', 'LICB 101320Z AUTO 20015G25KT 9999 FEW075/// SCT100/// 17/09 Q1003', 'LICB 101250Z AUTO 19013G23KT 9999 BKN067/// 16/09 Q1003', 'LICB 101220Z AUTO 21012G22KT 180V240 9999 -RA BKN049/// 15/10 Q1004', 'LICB 101150Z AUTO 21014KT 9999 FEW071/// 18/08 Q1005', 'LICB 101120Z AUTO 20011G21KT 160V230 9999 SCT054/// SCT086/// 18/07 Q1004', 'LICB 101050Z AUTO 20007KT 160V240 9999 -RA BKN071/// 16/07 Q1006', 'LICB 101020Z AUTO 21005KT 160V270 9999 FEW031/// SCT050/// 15/08 Q1006', 'LICB 100950Z AUTO 24009KT 190V260 9999 FEW041/// SCT067/// 15/08 Q1007', 'LICB 100920Z AUTO 24015KT 9999 -RA BKN057/// 16/08 Q1007', 'LICB 100850Z AUTO 22010KT 9999 BKN072/// 17/11 Q1007', 'LICB 100820Z AUTO 22008KT 9999 SCT075/// SCT140/// 18/07 Q1007', 'LICB 100750Z AUTO 20009KT 170V230 9999 BKN073/// 17/06 Q1007', 'LICB 100720Z AUTO 24012KT 9999 BKN083/// 17/06 Q1007', 'LICB 100650Z AUTO 17007KT 150V210 9999 BKN092/// 17/06 Q1006', 'LICB 100620Z AUTO 17008KT 140V200 9999 BKN110/// 16/07 Q1006', 'LICB 100550Z AUTO 22007KT 180V250 9999 BKN097/// 16/08 Q1007', 'LICB 100520Z AUTO 17007KT 130V240 9999 BKN100/// 16/07 Q1005', 'LICB 100450Z AUTO 14006KT 110V170 9999 BKN091/// 15/09 Q1006', 'LICB 100420Z AUTO 19005KT 150V230 9999 -RA BKN070/// 15/09 Q1007', 'LICB 100350Z AUTO 22005KT 190V260 9999 -RA BKN082/// BKN100/// 16/07 Q1008', 'LICB 100320Z AUTO 21007KT 180V240 9999 BKN094/// BKN130/// 17/06 Q1008', 'LICB 100250Z AUTO 21009KT 170V240 9999 FEW097/// BKN140/// 17/05 Q1008', 'LICB 100220Z AUTO 20010G20KT 170V230 9999 BKN140/// 17/03 Q1008', 'LICB 100150Z AUTO 20012KT 9999 BKN140/// 17/04 Q1008', 'LICB 100120Z AUTO 20009KT 170V240 9999 SCT130/// 17/05 Q1008', 'LICB 100050Z AUTO 22006KT 180V260 9999 NCD 16/05 Q1009', 'LICB 100020Z AUTO 21007KT 170V230 9999 FEW210/// 16/05 Q1009', 'LICB 092350Z AUTO 21007KT 9999 BKN210/// 16/05 Q1010', 'LICB 092320Z AUTO 22008KT 180V240 9999 FEW210/// BKN240/// 16/05 Q1010', 'LICB 092250Z AUTO 21008KT 180V240 9999 SCT200/// BKN240/// 17/05 Q1010', 'LICB 092220Z AUTO 20009KT 9999 BKN200/// 17/05 Q1010', 'LICB 092150Z AUTO 21007KT 170V240 9999 BKN190/// 16/07 Q1010', 'LICB 092120Z AUTO 20008KT 170V230 9999 BKN190/// 16/07 Q1010', 'LICB 092050Z AUTO 22007KT 9999 FEW240/// 16/08 Q1011', 'LICB 092020Z AUTO 21006KT 190V250 9999 NCD 15/08 Q1011', 'LICB 091950Z AUTO 21006KT 180V240 9999 NCD 15/08 Q1011', 'LICB 091920Z AUTO 20006KT 170V240 9999 BKN200/// 15/09 Q1011', 'LICB 091850Z AUTO 20007KT 9999 BKN200/// BKN250/// 15/09 Q1011', 'LICB 091820Z AUTO 20006KT 9999 BKN210/// 15/10 Q1011', 'LICB 091750Z AUTO 20006KT 160V240 9999 BKN240/// 15/09 Q1011', 'LICB 091720Z AUTO 20006KT 160V230 9999 BKN230/// 15/09 Q1011', 'LICB 091650Z AUTO 20005KT 9999 BKN230/// 15/08 Q1011', 'LICB 091620Z AUTO 21005KT 180V250 9999 FEW250/// 16/08 Q1011', 'LICB 091550Z AUTO 21007KT 180V250 9999 NCD 17/08 Q1011', 'LICB 091520Z AUTO 21010KT 9999 NCD 17/06 Q1011', 'LICB 091450Z AUTO 22009KT 9999 NCD 18/07 Q1012', 'LICB 091420Z AUTO 21011KT 180V240 9999 NCD 18/07 Q1012', 'LICB 091350Z AUTO 22010KT 190V250 9999 NCD 18/08 Q1012', 'LICB 091320Z AUTO 21009KT 140V250 9999 NCD 18/08 Q1012', 'LICB 091250Z AUTO 22010KT 180V250 9999 NCD 18/08 Q1013', 'LICB 091220Z AUTO 21010KT 170V240 9999 NCD 18/08 Q1013', 'LICB 091150Z AUTO 22010KT 190V250 9999 NCD 18/08 Q1014', 'LICB 091120Z AUTO 21009KT 180V250 9999 NCD 18/09 Q1014', 'LICB 091050Z AUTO 23010KT 9999 NCD 18/09 Q1014', 'LICB 091020Z AUTO 20009KT 160V240 9999 NCD 17/09 Q1015', 'LICB 090950Z AUTO 21007KT 170V250 9999 NCD 17/09 Q1015', 'LICB 090920Z AUTO 21008KT 150V250 9999 NCD 17/09 Q1015', 'LICB 090850Z AUTO 22007KT 190V250 9999 NCD 16/08 Q1015', 'LICB 090820Z AUTO 22004KT 190V250 9999 NCD 16/07 Q1016', 'LICB 090750Z AUTO VRB02KT 9999 NCD 15/06 Q1016', 'LICB 090720Z AUTO 11004KT 9999 NCD 13/06 Q1016', 'LICB 090650Z AUTO 10004KT 9999 NCD 09/07 Q1016', 'LICB 090620Z AUTO 10004KT 9999 NCD 06/06 Q1015', 'LICB 090550Z AUTO 10004KT 9999 NCD 06/05 Q1015', 'LICB 090520Z AUTO 06004KT 9999 NCD 06/06 Q1015', 'LICB 090450Z AUTO 06004KT 9999 NCD 07/06 Q1015', 'LICB 090420Z AUTO 09003KT 9999 NCD 08/07 Q1015', 'LICB 090350Z AUTO 07003KT 9999 FEW011/// 08/07 Q1015', 'LICB 090320Z AUTO 07003KT 030V090 9999 SCT010/// 10/09 Q1015', 'LICB 090250Z AUTO 09003KT 9999 FEW011/// 10/09 Q1015', 'LICB 090220Z AUTO 10003KT 8000 BKN013/// 11/10 Q1016', 'LICB 090150Z AUTO 07003KT 9999 BKN015/// 10/09 Q1016', 'LICB 090120Z AUTO 11003KT 0200 R05/0175D FG BKN011/// 11/10 Q1016', 'LICB 090050Z AUTO VRB01KT 9999 BKN012/// 11/10 Q1017', 'LICB 090020Z AUTO VRB02KT 9999 BKN012/// 11/10 Q1017', 'LICB 082350Z AUTO VRB02KT 9999 BKN013/// 11/10 Q1017', 'LICB 082320Z AUTO VRB02KT 9999 BKN014/// 12/11 Q1017', 'LICB 082250Z AUTO 11002KT 9999 BKN014/// 12/11 Q1017', 'LICB 082220Z AUTO 17002KT 9999 BKN012/// 12/12 Q1017', 'LICB 082150Z AUTO VRB02KT 9999 BKN008/// BKN018/// 12/11 Q1017', 'LICB 082120Z AUTO 24003KT 200V270 9999 BKN008/// 13/12 Q1017', 'LICB 082050Z AUTO VRB02KT 9999 BKN007/// 13/12 Q1017', 'LICB 081950Z AUTO 21004KT 170V250 9999 BKN010/// 14/12 Q1017', 'LICB 081920Z AUTO 21004KT 170V240 9999 OVC010/// 14/11 Q1017', 'LICB 081850Z AUTO 18003KT 120V240 9999 BKN010/// 13/11 Q1017', 'LICB 081820Z AUTO 22006KT 180V270 9999 BKN010/// 14/11 Q1017', 'LICB 081750Z AUTO 20005KT 170V230 9999 BKN009/// 14/11 Q1017', 'LICB 081720Z AUTO 21004KT 160V250 9999 BKN010/// 14/11 Q1016', 'LICB 081650Z AUTO 21003KT 160V250 9999 NCD 13/11 Q1016', 'LICB 081620Z AUTO 24007KT 9999 NCD 14/10 Q1016', 'LICB 081550Z AUTO 26010KT 9999 FEW017/// 15/10 Q1016', 'LICB 081520Z AUTO 27010KT 9999 FEW019/// 16/10 Q1016', 'LICB 081450Z AUTO 25010KT 9999 FEW019/// 15/10 Q1016', 'LICB 081420Z AUTO 25011KT 9999 NCD 16/10 Q1016', 'LICB 081350Z AUTO 23009KT 190V260 9999 NCD 16/10 Q1016', 'LICB 081320Z AUTO 24009KT 9999 NCD 17/10 Q1016', 'LICB 081250Z AUTO 27009KT 9999 FEW021/// 16/10 Q1016', 'LICB 081220Z AUTO 26010KT 230V290 9999 FEW023/// 16/09 Q1017', 'LICB 081150Z AUTO 26009KT 230V290 9999 NCD 17/10 Q1017', 'LICB 081120Z AUTO 24010KT 9999 NCD 16/09 Q1017', 'LICB 081050Z AUTO 24007KT 210V280 9999 NCD 15/09 Q1018', 'LICB 081020Z AUTO 24005KT 200V280 9999 NCD 15/08 Q1018', 'LICB 080950Z AUTO 27005KT 240V310 9999 NCD 15/08 Q1018', 'LICB 080920Z AUTO 23003KT 160V300 9999 FEW016/// 14/09 Q1018', 'LICB 080850Z AUTO VRB02KT 9999 NCD 13/08 Q1018', 'LICB 080820Z AUTO VRB01KT 9999 NCD 13/09 Q1018', 'LICB 080750Z AUTO VRB02KT 9999 NCD 12/09 Q1017', 'LICB 080720Z AUTO 11002KT 9999 NCD 10/09 Q1017', 'LICB 080650Z AUTO 06004KT 030V090 9999 NCD 06/06 Q1017', 'LICB 080620Z AUTO 09003KT 9999 NCD 05/05 Q1017', 'LICB 080550Z AUTO 08003KT 050V110 9000 NCD 05/04 Q1016', 'LICB 080520Z AUTO 08002KT 9999 NCD 06/05 Q1016', 'LICB 080450Z AUTO 08003KT 050V110 9999 NCD 05/05 Q1016', 'LICB 080420Z AUTO 09004KT 9999 NCD 05/05 Q1016', 'LICB 080350Z AUTO 09002KT 9000 NCD 06/05 Q1016', 'LICB 080320Z AUTO 11004KT 9999 NCD 07/06 Q1015', 'LICB 080250Z AUTO 08003KT 020V100 9000 NCD 07/07 Q1016', 'LICB 080220Z AUTO VRB02KT 9999 NCD 09/08 Q1016', 'LICB 080150Z AUTO 20003KT 9999 NCD 10/09 Q1016', 'LICB 080120Z AUTO 18003KT 9999 FEW037/// 10/09 Q1016', 'LICB 080050Z AUTO 20004KT 150V230 9999 SCT037/// 11/09 Q1016', 'LICB 080020Z AUTO 17003KT 9999 FEW035/// 10/09 Q1016', 'LICB 072350Z AUTO 18003KT 150V210 9999 FEW230/// 10/09 Q1016', 'LICB 072320Z AUTO 19005KT 160V220 9999 NCD 10/09 Q1016', 'LICB 072250Z AUTO 16002KT 9999 NCD 08/08 Q1016', 'LICB 072220Z AUTO 09004KT 030V110 9999 NCD 07/07 Q1016', 'LICB 072150Z AUTO VRB02KT 9999 FEW011/// 08/07 Q1016', 'LICB 072120Z AUTO 29002KT 9999 NCD 07/06 Q1016', 'LICB 072050Z AUTO 08004KT 9999 NCD 08/07 Q1016', 'LICB 072020Z AUTO 05003KT 9999 NCD 08/07 Q1016', 'LICB 071950Z AUTO 06003KT 9999 NCD 09/08 Q1016', 'LICB 071920Z AUTO 09005KT 9999 NCD 10/09 Q1016', 'LICB 071850Z AUTO 11004KT 9999 NCD 10/09 Q1016', 'LICB 071820Z AUTO VRB02KT 9999 NCD 10/08 Q1016', 'LICB 071750Z AUTO 08002KT 9999 FEW015/// 11/09 Q1016']","['2024-02-10 16:50:00', '2024-02-10 16:20:00', '2024-02-10 15:50:00', '2024-02-10 15:20:00', '2024-02-10 14:50:00', '2024-02-10 14:20:00', '2024-02-10 13:50:00', '2024-02-10 13:20:00', '2024-02-10 12:50:00', '2024-02-10 12:20:00', '2024-02-10 11:50:00', '2024-02-10 11:20:00', '2024-02-10 10:50:00', '2024-02-10 10:20:00', '2024-02-10 09:50:00', '2024-02-10 09:20:00', '2024-02-10 08:50:00', '2024-02-10 08:20:00', '2024-02-10 07:50:00', '2024-02-10 07:20:00', '2024-02-10 06:50:00', '2024-02-10 06:20:00', '2024-02-10 05:50:00', '2024-02-10 05:20:00', '2024-02-10 04:50:00', '2024-02-10 04:20:00', '2024-02-10 03:50:00', '2024-02-10 03:20:00', '2024-02-10 02:50:00', '2024-02-10 02:20:00', '2024-02-10 01:50:00', '2024-02-10 01:20:00', '2024-02-10 00:50:00', '2024-02-10 00:20:00', '2024-02-09 23:50:00', '2024-02-09 23:20:00', '2024-02-09 22:50:00', '2024-02-09 22:20:00', '2024-02-09 21:50:00', '2024-02-09 21:20:00', '2024-02-09 20:50:00', '2024-02-09 20:20:00', '2024-02-09 19:50:00', '2024-02-09 19:20:00', '2024-02-09 18:50:00', '2024-02-09 18:20:00', '2024-02-09 17:50:00', '2024-02-09 17:20:00', '2024-02-09 16:50:00', '2024-02-09 16:20:00', '2024-02-09 15:50:00', '2024-02-09 15:20:00', '2024-02-09 14:50:00', '2024-02-09 14:20:00', '2024-02-09 13:50:00', '2024-02-09 13:20:00', '2024-02-09 12:50:00', '2024-02-09 12:20:00', '2024-02-09 11:50:00', '2024-02-09 11:20:00', '2024-02-09 10:50:00', '2024-02-09 10:20:00', '2024-02-09 09:50:00', '2024-02-09 09:20:00', '2024-02-09 08:50:00', '2024-02-09 08:20:00', '2024-02-09 07:50:00', '2024-02-09 07:20:00', '2024-02-09 06:50:00', '2024-02-09 06:20:00', '2024-02-09 05:50:00', '2024-02-09 05:20:00', '2024-02-09 04:50:00', '2024-02-09 04:20:00', '2024-02-09 03:50:00', '2024-02-09 03:20:00', '2024-02-09 02:50:00', '2024-02-09 02:20:00', '2024-02-09 01:50:00', '2024-02-09 01:20:00', '2024-02-09 00:50:00', '2024-02-09 00:20:00', '2024-02-08 23:50:00', '2024-02-08 23:20:00', '2024-02-08 22:50:00', '2024-02-08 22:20:00', '2024-02-08 21:50:00', '2024-02-08 21:20:00', '2024-02-08 20:50:00', '2024-02-08 19:50:00', '2024-02-08 19:20:00', '2024-02-08 18:50:00', '2024-02-08 18:20:00', '2024-02-08 17:50:00', '2024-02-08 17:20:00', '2024-02-08 16:50:00', '2024-02-08 16:20:00', '2024-02-08 15:50:00', '2024-02-08 15:20:00', '2024-02-08 14:50:00', '2024-02-08 14:20:00', '2024-02-08 13:50:00', '2024-02-08 13:20:00', '2024-02-08 12:50:00', '2024-02-08 12:20:00', '2024-02-08 11:50:00', '2024-02-08 11:20:00', '2024-02-08 10:50:00', '2024-02-08 10:20:00', '2024-02-08 09:50:00', '2024-02-08 09:20:00', '2024-02-08 08:50:00', '2024-02-08 08:20:00', '2024-02-08 07:50:00', '2024-02-08 07:20:00', '2024-02-08 06:50:00', '2024-02-08 06:20:00', '2024-02-08 05:50:00', '2024-02-08 05:20:00', '2024-02-08 04:50:00', '2024-02-08 04:20:00', '2024-02-08 03:50:00', '2024-02-08 03:20:00', '2024-02-08 02:50:00', '2024-02-08 02:20:00', '2024-02-08 01:50:00', '2024-02-08 01:20:00', '2024-02-08 00:50:00', '2024-02-08 00:20:00', '2024-02-07 23:50:00', '2024-02-07 23:20:00', '2024-02-07 22:50:00', '2024-02-07 22:20:00', '2024-02-07 21:50:00', '2024-02-07 21:20:00', '2024-02-07 20:50:00', '2024-02-07 20:20:00', '2024-02-07 19:50:00', '2024-02-07 19:20:00', '2024-02-07 18:50:00', '2024-02-07 18:20:00', '2024-02-07 17:50:00']"
Italy, Crotone Airport (CRV/LIBC) ,"['LIBC 101550Z 18013KT 8000 BKN020 OVC040 15/14 Q1001', 'LIBC 101450Z 18008KT 8000 SCT015 OVC040 15/14 Q1003 RERA', 'LIBC 101411Z 18011KT 9999 RA SCT015 OVC045 15/14 Q1003', 'LIBC 101250Z 17012KT 8000 SCT050 15/14 Q1004', 'LIBC 101150Z 17013KT 8000 FEW020 15/14 Q1005', 'LIBC 101050Z 18012KT 9000 FEW040 16/15 Q1007', 'LIBC 100950Z 18012KT 9000 FEW040 15/14 Q1007', 'LIBC 100850Z 20011KT 9000 FEW050 15/13 Q1007', 'LIBC 100750Z 19011KT 9000 SCT040 15/13 Q1007', 'LIBC 100650Z 19009KT 9000 SCT040 14/13 Q1007', 'LIBC 091750Z 20012KT 170V230 8000 BKN020 14/12 Q1009', 'LIBC 091650Z 20011KT 9999 SCT015 BKN025 14/13 Q1009', 'LIBC 091550Z 20013KT CAVOK 14/10 Q1010', 'LIBC 091450Z 19012KT CAVOK 15/11 Q1010', 'LIBC 091350Z 19014KT CAVOK 16/10 Q1010', 'LIBC 091250Z 20016KT CAVOK 17/10 Q1011', 'LIBC 091150Z 20016KT CAVOK 16/11 Q1011', 'LIBC 091050Z 19012KT CAVOK 16/09 Q1012', 'LIBC 090950Z 21015KT CAVOK 16/09 Q1012', 'LIBC 090850Z 21014KT CAVOK 15/10 Q1013', 'LIBC 090750Z 21009KT CAVOK 13/09 Q1013', 'LIBC 090650Z 23009KT CAVOK 11/06 Q1013', 'LIBC 090600Z 25006KT CAVOK 07/03 Q1012', 'LIBC 081750Z 32004KT CAVOK 12/09 Q1014', 'LIBC 081650Z 24005KT 220V290 CAVOK 13/09 Q1013', 'LIBC 081550Z 33004KT CAVOK 15/09 Q1013', 'LIBC 081450Z 01006KT 330V040 CAVOK 17/10 Q1012', 'LIBC 081350Z 24011KT CAVOK 19/09 Q1012', 'LIBC 081250Z 22009KT 190V260 CAVOK 19/09 Q1012', 'LIBC 081150Z 12010KT CAVOK 17/11 Q1013', 'LIBC 081050Z 13007KT 090V160 CAVOK 17/11 Q1014', 'LIBC 080950Z 15006KT 120V210 CAVOK 16/10 Q1014', 'LIBC 080850Z 12007KT CAVOK 15/12 Q1014', 'LIBC 080750Z VRB02KT CAVOK 15/12 Q1014', 'LIBC 080650Z 05003KT 010V080 CAVOK 11/10 Q1014', 'LIBC 071750Z 22008KT CAVOK 14/06 Q1014']","['2024-02-10 15:50:00', '2024-02-10 14:50:00', '2024-02-10 14:11:00', '2024-02-10 12:50:00', '2024-02-10 11:50:00', '2024-02-10 10:50:00', '2024-02-10 09:50:00', '2024-02-10 08:50:00', '2024-02-10 07:50:00', '2024-02-10 06:50:00', '2024-02-09 17:50:00', '2024-02-09 16:50:00', '2024-02-09 15:50:00', '2024-02-09 14:50:00', '2024-02-09 13:50:00', '2024-02-09 12:50:00', '2024-02-09 11:50:00', '2024-02-09 10:50:00', '2024-02-09 09:50:00', '2024-02-09 08:50:00', '2024-02-09 07:50:00', '2024-02-09 06:50:00', '2024-02-09 06:00:00', '2024-02-08 17:50:00', '2024-02-08 16:50:00', '2024-02-08 15:50:00', '2024-02-08 14:50:00', '2024-02-08 13:50:00', '2024-02-08 12:50:00', '2024-02-08 11:50:00', '2024-02-08 10:50:00', '2024-02-08 09:50:00', '2024-02-08 08:50:00', '2024-02-08 07:50:00', '2024-02-08 06:50:00', '2024-02-07 17:50:00']"
Italy, Cuneo Levaldigi Airport (CUF/LIMZ) ,"['LIMZ 101650Z AUTO VRB03KT 9999 -RA BKN012/// 07/07 Q0990 RERA', 'LIMZ 101620Z AUTO 25005KT 9999 RA OVC010/// 07/07 Q0991', 'LIMZ 101550Z AUTO 29005KT 260V320 9999 -RA OVC004/// 07/07 Q0991 RERA', 'LIMZ 101520Z AUTO 29005KT 270V330 9999 RA OVC003/// 07/07 Q0991', 'LIMZ 101450Z AUTO 33005KT 9999 -RA OVC003/// 08/08 Q0991', 'LIMZ 101420Z AUTO 33004KT 300V010 9999 -RA OVC002/// 08/08 Q0991 RERA', 'LIMZ 101350Z AUTO 33006KT 300V360 9999 RA OVC002/// 08/08 Q0991', 'LIMZ 101320Z AUTO 32007KT 280V340 9999 RA OVC002/// 08/08 Q0991', 'LIMZ 101250Z AUTO 32007KT 290V350 9999 -RA OVC002/// 08/08 Q0992', 'LIMZ 101220Z AUTO 32006KT 290V350 9999 -RA OVC003/// 08/08 Q0992', 'LIMZ 101150Z AUTO 33005KT 290V360 9999 -RA BKN003/// 08/08 Q0992', 'LIMZ 101120Z AUTO 31006KT 280V340 9999 -RA BKN002/// 07/07 Q0992 RERA', 'LIMZ 101050Z AUTO 31004KT 280V340 7000 RA BKN002/// 08/08 Q0993', 'LIMZ 101020Z AUTO 34004KT 310V010 4600 -RA OVC002/// 08/08 Q0993 REDZ', 'LIMZ 100950Z AUTO 34005KT 8000 DZ OVC002/// 07/07 Q0993', 'LIMZ 100920Z AUTO 33004KT 290V360 3500 -DZ BR OVC002/// 08/08 Q0993 REDZ', 'LIMZ 100850Z AUTO 32005KT 300V360 2200 DZ BR BKN002/// 07/07 Q0993', 'LIMZ 100820Z AUTO VRB02KT 4900 -DZ BR OVC002/// 08/08 Q0993 REDZ', 'LIMZ 100750Z AUTO VRB02KT 2300 DZ OVC002/// 07/07 Q0993', 'LIMZ 100720Z AUTO VRB02KT 6000 DZ OVC002/// 07/07 Q0993', 'LIMZ 100650Z AUTO 32004KT 290V350 6000 DZ OVC002/// 07/07 Q0993', 'LIMZ 100620Z AUTO 32003KT 300V360 5000 -RA BKN002/// 07/07 Q0993 REDZ', 'LIMZ 100550Z AUTO 32004KT 290V350 1400 R21/P2000N DZ BR VV002 07/07 Q0993', 'LIMZ 100520Z AUTO VRB02KT 6000 DZ OVC002/// 07/07 Q0993', 'LIMZ 100450Z AUTO 28002KT 4600 -RA OVC002/// 07/07 Q0993 REDZ', 'LIMZ 100420Z AUTO VRB01KT 2500 DZ OVC002/// 07/07 Q0993', 'LIMZ 100350Z AUTO VRB01KT 2000 -RA BR OVC002/// 07/07 Q0994 REDZ', 'LIMZ 100320Z AUTO 27001KT 2200 DZ BR OVC002/// 07/07 Q0994', 'LIMZ 100250Z AUTO VRB01KT 2000 -RA BR OVC003/// 07/07 Q0994 REDZ', 'LIMZ 100220Z AUTO 27002KT 1500 1400NE DZ BR OVC003/// 07/07 Q0995', 'LIMZ 100150Z AUTO VRB01KT 1600 -RA BR OVC010/// 07/07 Q0995', 'LIMZ 100120Z AUTO 28002KT 2800 -RA BR OVC010/// 07/07 Q0995', 'LIMZ 100050Z AUTO VRB02KT 4500 -RA BR OVC011/// 07/07 Q0996', 'LIMZ 100020Z AUTO VRB02KT 5000 BR OVC010/// 07/07 Q0996', 'LIMZ 092350Z AUTO 29003KT 270V010 5000 -RA OVC010/// 07/07 Q0996', 'LIMZ 092320Z AUTO 27003KT 240V310 4300 BR OVC009/// 07/07 Q0996', 'LIMZ 092250Z AUTO 27003KT 6000 OVC008/// 07/07 Q0996', 'LIMZ 092220Z AUTO 26003KT 240V300 6000 OVC009/// 07/07 Q0996', 'LIMZ 092150Z AUTO 30003KT 260V350 8000 OVC002/// 08/08 Q0996', 'LIMZ 092120Z AUTO 28003KT 4700 BR OVC002/// 08/08 Q0997', 'LIMZ 092050Z AUTO VRB01KT 3800 BR OVC002/// 08/08 Q0996', 'LIMZ 092020Z AUTO 31003KT 270V330 3800 BR BKN002/// 08/08 Q0997', 'LIMZ 091950Z AUTO VRB02KT 2000 BR OVC002/// 08/08 Q0997', 'LIMZ 091920Z AUTO VRB01KT 0900 R21/P2000N FG OVC002/// 08/08 Q0997', 'LIMZ 091850Z AUTO VRB02KT 0700 0650SW R21/1800D FG OVC002/// 08/08 Q0997', 'LIMZ 091820Z AUTO VRB02KT 0900 0700NE R21/1800U FG OVC002/// 08/08 Q0997', 'LIMZ 091750Z AUTO 01003KT 0700 0550SW R21/1900N FG OVC002/// 07/07 Q0997', 'LIMZ 091720Z AUTO 35004KT 1000 0650NE R21/1700D -DZ BR OVC002/// 08/08 Q0997', 'LIMZ 091650Z AUTO 35003KT 320V020 1600 0900NE -DZ BR BKN002/// 08/08 Q0997', 'LIMZ 091620Z AUTO 34005KT 290V360 1700 0900SW -DZ BR OVC002/// 08/08 Q0997', 'LIMZ 091550Z AUTO 35005KT 0600 0500SW R21/1100D -DZ FG OVC002/// 08/08 Q0997', 'LIMZ 091520Z AUTO 36004KT 330V030 2700 BR OVC002/// 08/08 Q0997', 'LIMZ 091450Z AUTO 35003KT 330V030 6000 BKN003/// 08/08 Q0998', 'LIMZ 091420Z AUTO 35005KT 320V020 7000 -DZ OVC004/// 08/08 Q0998 REDZ', 'LIMZ 091350Z AUTO 36004KT 6000 -RA OVC003/// 08/08 Q0998 REDZ', 'LIMZ 091320Z AUTO 34005KT 310V010 5000 DZ OVC003/// 08/08 Q0998', 'LIMZ 091250Z AUTO 35004KT 310V020 5000 DZ OVC003/// 08/08 Q0999', 'LIMZ 091220Z AUTO 34004KT 5000 -RA OVC005/// 08/08 Q0999', 'LIMZ 091150Z AUTO 35004KT 310V020 6000 -RA BKN004/// 08/08 Q1000', 'LIMZ 091120Z AUTO 34003KT 300V030 8000 -RA OVC004/// 08/08 Q1000', 'LIMZ 091050Z AUTO 35003KT 9000 -DZ OVC003/// 08/08 Q1001', 'LIMZ 091020Z AUTO VRB02KT 5000 BR OVC002/// 08/08 Q1001', 'LIMZ 090950Z AUTO VRB01KT 5000 BR BKN002/// 08/08 Q1001', 'LIMZ 090920Z AUTO 34004KT 310V020 2300 BR VV002 08/08 Q1001', 'LIMZ 090850Z AUTO 36004KT 1400 1200NE R21/1400D -DZ BR BKN002/// 08/08 Q1001 REDZ', 'LIMZ 090820Z AUTO 35003KT 310V020 1000 0800NE R21/1200U -DZ BCFG VV002 08/08 Q1002', 'LIMZ 090750Z AUTO 34004KT 300V010 0650 0600SW R21/1200D FG VV002 08/08 Q1002', 'LIMZ 090720Z AUTO 33004KT 300V010 1100 0800NE R21/1600N BR VV002 08/08 Q1002', 'LIMZ 090650Z AUTO 32004KT 1000 0900NE R21/P2000N BR VV002 08/08 Q1002', 'LIMZ 090620Z AUTO VRB02KT 1400 1300NE R21/P2000N -DZ BR VV002 08/08 Q1002', 'LIMZ 090550Z AUTO VRB02KT 1300 0800NE R21/P2000N BR VV002 08/08 Q1002', 'LIMZ 090520Z AUTO VRB02KT 1100 0900SW R21/P2000N BR OVC002/// 08/08 Q1002', 'LIMZ 090450Z AUTO VRB01KT 1900 -DZ BR OVC003/// 08/08 Q1002 REDZ', 'LIMZ 090420Z AUTO VRB02KT 3200 DZ BR OVC004/// 08/08 Q1002', 'LIMZ 090350Z AUTO VRB02KT 2800 -DZ BR OVC003/// 08/08 Q1002 REDZ', 'LIMZ 090320Z AUTO VRB02KT 2000 DZ BR OVC003/// 08/08 Q1002', 'LIMZ 090250Z AUTO 33003KT 280V010 2100 -RA BR OVC002/// 08/08 Q1003 REDZ', 'LIMZ 090220Z AUTO 32003KT 2100 -DZ BR OVC002/// 08/08 Q1003', 'LIMZ 090150Z AUTO VRB02KT 1800 BR BKN002/// 08/08 Q1004', 'LIMZ 090120Z AUTO 34003KT 310V020 1600 BR BKN002/// 08/08 Q1004 REDZ', 'LIMZ 090050Z AUTO 31003KT 270V350 1300 1100NE R21/P2000N DZ BR BKN002/// 08/08 Q1005', 'LIMZ 090020Z AUTO 27003KT 240V300 0650 0550NE R21/1500U -DZ FG VV002 08/08 Q1005', 'LIMZ 082350Z AUTO 32004KT 0300 0200SW R21/0900U FG VV002 08/08 Q1005', 'LIMZ 082320Z AUTO 34003KT 290V020 0300 R21/1000D FG VV002 08/08 Q1006', 'LIMZ 082250Z AUTO 35003KT 320V020 1000 0650SW R21/P2000N BR BKN002/// OVC016/// 08/08 Q1006', 'LIMZ 082220Z AUTO 32005KT 290V350 3400 BR OVC018/// 08/08 Q1006', 'LIMZ 082150Z AUTO 34003KT 5000 BR OVC020/// 08/07 Q1006', 'LIMZ 082120Z AUTO 01003KT 8000 BKN018/// OVC033/// 08/06 Q1007', 'LIMZ 082050Z AUTO 36003KT 9000 OVC018/// 09/06 Q1007', 'LIMZ 081950Z AUTO VRB02KT 9000 OVC031/// 09/07 Q1007', 'LIMZ 081920Z AUTO 25002KT 8000 OVC030/// 08/07 Q1007', 'LIMZ 081850Z AUTO VRB02KT 9000 OVC028/// 09/07 Q1007', 'LIMZ 081820Z AUTO VRB02KT 9000 OVC028/// 09/07 Q1008', 'LIMZ 081750Z AUTO VRB02KT 9999 OVC027/// 09/07 Q1008', 'LIMZ 081720Z AUTO 32003KT 9999 OVC025/// 09/07 Q1007', 'LIMZ 081650Z AUTO 35002KT 9999 BKN022/// 09/07 Q1007', 'LIMZ 081620Z AUTO 34003KT 9999 OVC022/// 10/07 Q1007', 'LIMZ 081550Z AUTO 01004KT 9999 BKN024/// 10/07 Q1007', 'LIMZ 081520Z AUTO 01005KT 9999 OVC024/// 10/07 Q1007', 'LIMZ 081450Z AUTO 01005KT 9999 OVC024/// 10/07 Q1008', 'LIMZ 081420Z AUTO 01006KT 340V040 9999 OVC024/// 11/06 Q1008', 'LIMZ 081350Z AUTO 02006KT 9999 OVC024/// 11/07 Q1008', 'LIMZ 081320Z AUTO 02007KT 340V050 9999 OVC024/// 11/07 Q1008', 'LIMZ 081250Z AUTO 02005KT 350V050 9999 BKN023/// 11/06 Q1008', 'LIMZ 081220Z AUTO 03004KT 350V060 9999 SCT023/// BKN240/// 11/06 Q1009', 'LIMZ 081150Z AUTO 35003KT 320V030 9999 BKN024/// 11/06 Q1009', 'LIMZ 081120Z AUTO 04003KT 360V070 9999 OVC022/// 11/06 Q1009', 'LIMZ 081050Z AUTO VRB02KT 9999 BKN026/// 11/06 Q1010', 'LIMZ 081020Z AUTO VRB01KT 9999 FEW230/// 11/06 Q1010', 'LIMZ 080950Z AUTO 24004KT 210V270 9999 FEW023/// SCT230/// 10/06 Q1010', 'LIMZ 080920Z AUTO 24005KT 9999 BKN023/// BKN240/// 09/06 Q1010', 'LIMZ 080850Z AUTO 23005KT 9999 OVC023/// 08/06 Q1010', 'LIMZ 080820Z AUTO 20005KT 9999 OVC023/// 07/05 Q1010', 'LIMZ 080750Z AUTO 22004KT 8000 OVC023/// 05/04 Q1010', 'LIMZ 080720Z AUTO 23003KT 8000 OVC022/// 05/04 Q1010', 'LIMZ 080650Z AUTO 25004KT 8000 OVC022/// 04/04 Q1010', 'LIMZ 080620Z AUTO 21003KT 8000 OVC020/// 04/03 Q1009', 'LIMZ 080550Z AUTO 22003KT 7000 BKN018/// 04/03 Q1009', 'LIMZ 080520Z AUTO 22003KT 210V310 8000 BKN020/// 03/03 Q1009', 'LIMZ 080450Z AUTO 23004KT 8000 BKN017/// 03/02 Q1009', 'LIMZ 080420Z AUTO 23004KT 8000 SCT017/// 02/02 Q1009', 'LIMZ 080350Z AUTO 22005KT 7000 BKN022/// 01/00 Q1009', 'LIMZ 080320Z AUTO 25004KT 7000 FEW021/// 01/01 Q1009', 'LIMZ 080250Z AUTO 21005KT 6000 FEW021/// 02/01 Q1009', 'LIMZ 080220Z AUTO 24004KT 7000 FEW022/// SCT180/// 02/02 Q1010', 'LIMZ 080150Z AUTO 22003KT 6000 NCD 01/00 Q1010', 'LIMZ 080120Z AUTO 26003KT 210V300 7000 FEW180/// SCT240/// 01/01 Q1010', 'LIMZ 080050Z AUTO 21004KT 6000 NCD 01/01 Q1010', 'LIMZ 080020Z AUTO VRB02KT 6000 NCD 01/01 Q1010', 'LIMZ 072350Z AUTO 29004KT 270V330 7000 SCT200/// 03/02 Q1010', 'LIMZ 072320Z AUTO 26003KT 240V320 7000 SCT200/// 03/03 Q1010', 'LIMZ 072250Z AUTO VRB01KT 7000 FEW190/// 03/02 Q1010', 'LIMZ 072220Z AUTO 25004KT 8000 FEW190/// BKN230/// 05/04 Q1010', 'LIMZ 072150Z AUTO 22004KT 8000 BKN210/// 04/03 Q1010', 'LIMZ 072120Z AUTO 27004KT 9000 BKN210/// 05/04 Q1010', 'LIMZ 072050Z AUTO 25005KT 8000 BKN190/// 05/03 Q1011', 'LIMZ 072020Z AUTO 25003KT 220V300 9000 FEW029/// BKN200/// BKN230/// 05/04 Q1011', 'LIMZ 071950Z AUTO 21004KT 180V240 8000 BKN028/// BKN210/// 05/03 Q1011', 'LIMZ 071920Z AUTO 22003KT 9000 BKN028/// 05/03 Q1011', 'LIMZ 071850Z AUTO 27003KT 9999 BKN029/// BKN200/// 06/05 Q1011', 'LIMZ 071820Z AUTO VRB02KT 9999 BKN210/// 07/04 Q1011', 'LIMZ 071750Z AUTO 33002KT 9999 SCT240/// 07/04 Q1011']","['2024-02-10 16:50:00', '2024-02-10 16:20:00', '2024-02-10 15:50:00', '2024-02-10 15:20:00', '2024-02-10 14:50:00', '2024-02-10 14:20:00', '2024-02-10 13:50:00', '2024-02-10 13:20:00', '2024-02-10 12:50:00', '2024-02-10 12:20:00', '2024-02-10 11:50:00', '2024-02-10 11:20:00', '2024-02-10 10:50:00', '2024-02-10 10:20:00', '2024-02-10 09:50:00', '2024-02-10 09:20:00', '2024-02-10 08:50:00', '2024-02-10 08:20:00', '2024-02-10 07:50:00', '2024-02-10 07:20:00', '2024-02-10 06:50:00', '2024-02-10 06:20:00', '2024-02-10 05:50:00', '2024-02-10 05:20:00', '2024-02-10 04:50:00', '2024-02-10 04:20:00', '2024-02-10 03:50:00', '2024-02-10 03:20:00', '2024-02-10 02:50:00', '2024-02-10 02:20:00', '2024-02-10 01:50:00', '2024-02-10 01:20:00', '2024-02-10 00:50:00', '2024-02-10 00:20:00', '2024-02-09 23:50:00', '2024-02-09 23:20:00', '2024-02-09 22:50:00', '2024-02-09 22:20:00', '2024-02-09 21:50:00', '2024-02-09 21:20:00', '2024-02-09 20:50:00', '2024-02-09 20:20:00', '2024-02-09 19:50:00', '2024-02-09 19:20:00', '2024-02-09 18:50:00', '2024-02-09 18:20:00', '2024-02-09 17:50:00', '2024-02-09 17:20:00', '2024-02-09 16:50:00', '2024-02-09 16:20:00', '2024-02-09 15:50:00', '2024-02-09 15:20:00', '2024-02-09 14:50:00', '2024-02-09 14:20:00', '2024-02-09 13:50:00', '2024-02-09 13:20:00', '2024-02-09 12:50:00', '2024-02-09 12:20:00', '2024-02-09 11:50:00', '2024-02-09 11:20:00', '2024-02-09 10:50:00', '2024-02-09 10:20:00', '2024-02-09 09:50:00', '2024-02-09 09:20:00', '2024-02-09 08:50:00', '2024-02-09 08:20:00', '2024-02-09 07:50:00', '2024-02-09 07:20:00', '2024-02-09 06:50:00', '2024-02-09 06:20:00', '2024-02-09 05:50:00', '2024-02-09 05:20:00', '2024-02-09 04:50:00', '2024-02-09 04:20:00', '2024-02-09 03:50:00', '2024-02-09 03:20:00', '2024-02-09 02:50:00', '2024-02-09 02:20:00', '2024-02-09 01:50:00', '2024-02-09 01:20:00', '2024-02-09 00:50:00', '2024-02-09 00:20:00', '2024-02-08 23:50:00', '2024-02-08 23:20:00', '2024-02-08 22:50:00', '2024-02-08 22:20:00', '2024-02-08 21:50:00', '2024-02-08 21:20:00', '2024-02-08 20:50:00', '2024-02-08 19:50:00', '2024-02-08 19:20:00', '2024-02-08 18:50:00', '2024-02-08 18:20:00', '2024-02-08 17:50:00', '2024-02-08 17:20:00', '2024-02-08 16:50:00', '2024-02-08 16:20:00', '2024-02-08 15:50:00', '2024-02-08 15:20:00', '2024-02-08 14:50:00', '2024-02-08 14:20:00', '2024-02-08 13:50:00', '2024-02-08 13:20:00', '2024-02-08 12:50:00', '2024-02-08 12:20:00', '2024-02-08 11:50:00', '2024-02-08 11:20:00', '2024-02-08 10:50:00', '2024-02-08 10:20:00', '2024-02-08 09:50:00', '2024-02-08 09:20:00', '2024-02-08 08:50:00', '2024-02-08 08:20:00', '2024-02-08 07:50:00', '2024-02-08 07:20:00', '2024-02-08 06:50:00', '2024-02-08 06:20:00', '2024-02-08 05:50:00', '2024-02-08 05:20:00', '2024-02-08 04:50:00', '2024-02-08 04:20:00', '2024-02-08 03:50:00', '2024-02-08 03:20:00', '2024-02-08 02:50:00', '2024-02-08 02:20:00', '2024-02-08 01:50:00', '2024-02-08 01:20:00', '2024-02-08 00:50:00', '2024-02-08 00:20:00', '2024-02-07 23:50:00', '2024-02-07 23:20:00', '2024-02-07 22:50:00', '2024-02-07 22:20:00', '2024-02-07 21:50:00', '2024-02-07 21:20:00', '2024-02-07 20:50:00', '2024-02-07 20:20:00', '2024-02-07 19:50:00', '2024-02-07 19:20:00', '2024-02-07 18:50:00', '2024-02-07 18:20:00', '2024-02-07 17:50:00']"
Italy, Florence Peretola Airport (FLR/LIRQ) ,"['LIRQ 101650Z 11010KT 3000 RA SCT020 OVC035 12/11 Q0990', 'LIRQ 101620Z 11009KT 4000 -RA OVC040 12/11 Q0990', 'LIRQ 101550Z 10008KT 4000 -RA OVC035 12/11 Q0991', 'LIRQ 101520Z 11009KT 5000 -RA BKN035 12/11 Q0991', 'LIRQ 101450Z 10009KT 6000 -DZ SCT035 BKN055 12/11 Q0991', 'LIRQ 101420Z 10011KT 4000 -RA FEW015 OVC045 12/11 Q0992', 'LIRQ 101350Z 09009KT 4000 -RA BR FEW020 BKN040 12/11 Q0992', 'LIRQ 101320Z 10007KT 5000 -RA BR FEW020 OVC050 12/12 Q0993', 'LIRQ 101250Z VRB02KT 6000 -RA FEW006 BKN040 12/12 Q0993', 'LIRQ 101220Z VRB01KT 8000 -RA FEW006 BKN040 12/12 Q0993 RERA', 'LIRQ 101150Z VRB02KT 5000 RA BR FEW008 BKN030 12/12 Q0994', 'LIRQ 101120Z VRB03KT 5000 RA BR FEW010 BKN030 12/12 Q0994', 'LIRQ 101050Z VRB02KT 4000 RA BR FEW010 BKN025 12/12 Q0994', 'LIRQ 101020Z VRB01KT 6000 -RA FEW008 SCT020 BKN050 12/12 Q0995 RERA', 'LIRQ 100950Z VRB02KT 4000 RA BR SCT020 BKN050 12/12 Q0995', 'LIRQ 100920Z 30003KT 260V350 4000 RA BR FEW010 BKN020 12/11 Q0995', 'LIRQ 100850Z 34003KT 310V020 4000 -RA BR FEW010 BKN020 12/11 Q0995', 'LIRQ 100820Z 35003KT 270V040 5000 -RA BR FEW010 BKN020 12/11 Q0995', 'LIRQ 100750Z 30003KT 250V030 7000 -RA FEW010 BKN025 12/11 Q0995 RERA', 'LIRQ 100720Z 27006KT 7000 RA FEW010 BKN025 11/11 Q0995', 'LIRQ 100650Z 11003KT 7000 -RA SCT025 BKN035 12/11 Q0995', 'LIRQ 100620Z 11004KT 8000 -RA BKN050 12/10 Q0995 REDZ', 'LIRQ 100550Z 11006KT 9000 DZ BKN060 12/10 Q0995', 'LIRQ 100520Z 11004KT 9000 RA SCT060 12/10 Q0995', 'LIRQ 100450Z 10005KT 9000 RA BKN035 12/10 Q0996', 'LIRQ 100420Z 13005KT 9999 -RA BKN035 13/10 Q0996', 'LIRQ 100350Z 12006KT 9999 SCT040 13/09 Q0996', 'LIRQ 100320Z 10005KT 9999 FEW040 12/10 Q0996', 'LIRQ 100250Z VRB02KT 9999 SCT040 11/10 Q0997', 'LIRQ 100220Z 14003KT 110V230 9999 SCT035 12/10 Q0997', 'LIRQ 100150Z 10006KT CAVOK 12/10 Q0997', 'LIRQ 100120Z VRB02KT 9999 SCT040 11/10 Q0998', 'LIRQ 100050Z 08002KT 9999 SCT040 11/10 Q0998', 'LIRQ 100020Z VRB01KT CAVOK 11/10 Q0999', 'LIRQ 092350Z 24003KT CAVOK 12/10 Q0999', 'LIRQ 092320Z VRB02KT 9999 BKN085 12/08 Q0999', 'LIRQ 092250Z 14005KT 100V180 9999 BKN085 13/08 Q0999', 'LIRQ 092220Z 17006KT 9999 BKN080 14/08 Q0999', 'LIRQ 092150Z 14005KT 9999 BKN080 14/08 Q0999', 'LIRQ 092120Z 17004KT 130V220 9999 BKN080 14/07 Q1000', 'LIRQ 092050Z 17005KT 9999 BKN070 14/08 Q1000', 'LIRQ 092020Z 15005KT 110V200 9999 -DZ BKN070 14/08 Q1000', 'LIRQ 091950Z 17005KT 120V210 9999 BKN060 14/09 Q1001', 'LIRQ 091920Z 20007KT 170V230 9999 -RA BKN060 14/09 Q1001', 'LIRQ 091850Z 21009KT 160V230 9999 BKN060 14/10 Q1001 RERA', 'LIRQ 091820Z 21008KT 8000 RA BKN060 13/11 Q1001', 'LIRQ 091750Z VRB02KT 9999 -RA FEW030 BKN060 12/11 Q1001', 'LIRQ 091720Z 27005KT 9999 -RA BKN050 14/11 Q1001', 'LIRQ 091650Z 20008KT 9999 -RA BKN050 15/10 Q1000', 'LIRQ 091620Z 19013KT 9999 -DZ FEW030 BKN060 16/09 Q1000', 'LIRQ 091550Z 21009KT 180V260 9999 BKN070 16/08 Q1000', 'LIRQ 091520Z 21006KT 180V240 9999 BKN080 16/08 Q1000', 'LIRQ 091450Z 18004KT 140V230 9999 FEW040 BKN080 17/08 Q1001', 'LIRQ 091420Z 19009KT 150V220 9999 FEW040 BKN080 17/08 Q1001', 'LIRQ 091350Z 15003KT 120V210 9999 FEW040 BKN080 17/10 Q1001', 'LIRQ 091320Z 11004KT 9999 FEW040 BKN070 16/11 Q1001', 'LIRQ 091250Z 08006KT 9999 SCT035 BKN060 15/11 Q1002', 'LIRQ 091220Z 10008KT 9999 SCT035 BKN060 15/10 Q1003', 'LIRQ 091150Z 12008KT 9999 BKN040 15/10 Q1003', 'LIRQ 091120Z 12006KT 090V160 9999 BKN030 15/10 Q1004', 'LIRQ 091050Z 15004KT 9999 SCT030 BKN060 15/10 Q1005', 'LIRQ 091020Z 13007KT 100V160 9999 -RA FEW035 BKN060 15/11 Q1005', 'LIRQ 090950Z 14005KT 9999 SCT035 BKN060 15/10 Q1005', 'LIRQ 090920Z 13004KT 9999 SCT030 BKN050 14/10 Q1005', 'LIRQ 090850Z 13005KT 9999 SCT030 BKN040 14/10 Q1005', 'LIRQ 090820Z 12007KT 9999 SCT030 BKN040 13/10 Q1005', 'LIRQ 090750Z 12008KT 9999 FEW030 BKN045 13/10 Q1005', 'LIRQ 090720Z 12005KT 9999 FEW030 BKN040 13/10 Q1006', 'LIRQ 090650Z 11004KT 9999 FEW030 BKN040 12/10 Q1006', 'LIRQ 090620Z 11005KT 9999 BKN045 13/10 Q1006', 'LIRQ 090550Z 12005KT 9999 BKN045 12/10 Q1006', 'LIRQ 090520Z 12006KT 9999 SCT035 SCT070 12/11 Q1006', 'LIRQ 090450Z 12004KT 9999 SCT035 SCT070 09/09 Q1006', 'LIRQ 090420Z VRB01KT 9999 SCT035 SCT070 10/09 Q1006', 'LIRQ 090350Z VRB01KT 9999 SCT030 SCT060 09/09 Q1007', 'LIRQ 090320Z VRB02KT 9999 SCT035 BKN070 09/08 Q1007', 'LIRQ 090250Z VRB02KT 9999 SCT035 BKN070 10/09 Q1007', 'LIRQ 090220Z 20002KT 9999 BKN040 10/10 Q1007', 'LIRQ 090150Z 23002KT 9999 BKN040 10/09 Q1008', 'LIRQ 090120Z 14002KT 9999 BKN040 10/09 Q1008', 'LIRQ 090050Z VRB01KT 9999 BKN040 10/09 Q1008', 'LIRQ 090020Z VRB02KT 9999 BKN040 10/09 Q1009', 'LIRQ 082350Z 12002KT 9999 SCT060 10/09 Q1009', 'LIRQ 082320Z 11004KT 9999 SCT060 11/09 Q1009', 'LIRQ 082250Z 07004KT 9999 SCT070 09/08 Q1009', 'LIRQ 082220Z 08003KT 9999 SCT070 10/08 Q1009', 'LIRQ 082150Z 12003KT 9999 SCT070 11/09 Q1009', 'LIRQ 082120Z 12003KT 090V150 9999 BKN070 11/09 Q1009', 'LIRQ 082050Z 10004KT 9999 BKN070 11/09 Q1010', 'LIRQ 081950Z 10004KT 9999 FEW035 BKN065 12/10 Q1010', 'LIRQ 081920Z 10005KT 9999 FEW035 BKN065 12/10 Q1010', 'LIRQ 081850Z 10005KT 9999 SCT035 BKN065 12/10 Q1010', 'LIRQ 081820Z 10004KT 9999 BKN065 12/10 Q1010', 'LIRQ 081750Z 15004KT 9999 BKN065 12/10 Q1010', 'LIRQ 081720Z 17003KT 140V200 9999 BKN065 13/10 Q1010', 'LIRQ 081650Z 17002KT 9999 BKN065 12/10 Q1010', 'LIRQ 081620Z 23001KT 9999 OVC060 13/10 Q1010', 'LIRQ 081550Z 32002KT 9999 OVC060 13/10 Q1010', 'LIRQ 081520Z VRB02KT 9999 FEW030 BKN060 13/10 Q1010', 'LIRQ 081450Z VRB02KT 9999 FEW030 BKN060 13/10 Q1011', 'LIRQ 081420Z 25003KT 220V280 9999 BKN060 13/10 Q1011', 'LIRQ 081350Z 31004KT 270V330 9999 BKN050 13/10 Q1011', 'LIRQ 081320Z 30004KT 270V340 9999 BKN050 13/10 Q1011', 'LIRQ 081250Z 28004KT 240V300 9999 BKN045 13/10 Q1011', 'LIRQ 081220Z 31004KT 280V340 9999 BKN045 13/10 Q1012', 'LIRQ 081150Z 33005KT 9999 BKN040 13/10 Q1012', 'LIRQ 081120Z 34005KT 9999 BKN040 13/10 Q1012', 'LIRQ 081050Z 31003KT 210V350 9999 FEW030 BKN040 13/10 Q1012', 'LIRQ 081020Z 21005KT 180V250 9999 BKN035 14/09 Q1012', 'LIRQ 080950Z 23004KT 9999 BKN045 14/09 Q1012', 'LIRQ 080920Z VRB02KT 9999 BKN045 14/10 Q1012', 'LIRQ 080850Z 13005KT 9999 SCT030 SCT060 13/09 Q1012', 'LIRQ 080820Z 14003KT 9999 -DZ BKN035 12/09 Q1012 REDZ', 'LIRQ 080750Z 13004KT 9999 BKN040 12/09 Q1012', 'LIRQ 080720Z 13004KT 9999 BKN040 11/08 Q1012', 'LIRQ 080650Z VRB02KT 9999 BKN040 11/09 Q1012', 'LIRQ 080620Z 15005KT 9999 SCT030 11/09 Q1011', 'LIRQ 080550Z 11004KT 070V140 9999 BKN030 12/09 Q1011', 'LIRQ 080520Z 16003KT 130V190 9999 BKN030 12/09 Q1011', 'LIRQ 080450Z VRB02KT 9999 BKN030 11/09 Q1011', 'LIRQ 080420Z 18003KT 9999 BKN030 11/09 Q1011', 'LIRQ 080350Z 20003KT 9999 BKN040 11/09 Q1011', 'LIRQ 080320Z 21004KT 9999 BKN040 12/10 Q1011', 'LIRQ 080250Z VRB02KT 9999 BKN040 12/10 Q1012', 'LIRQ 080220Z VRB02KT 9999 BKN040 12/10 Q1012', 'LIRQ 080150Z 21003KT 9999 BKN040 12/10 Q1012', 'LIRQ 080120Z 22003KT 9999 BKN030 11/10 Q1012', 'LIRQ 080050Z 21003KT 9999 BKN030 11/10 Q1012', 'LIRQ 080020Z 22004KT 9999 BKN040 11/10 Q1012', 'LIRQ 072350Z 20003KT 170V230 8000 -RA BKN030 11/10 Q1013', 'LIRQ 072320Z 14002KT 9999 -RA BKN030 11/10 Q1013', 'LIRQ 072250Z 12003KT 090V150 9999 BKN040 11/10 Q1013', 'LIRQ 072220Z 10004KT 9999 BKN050 11/09 Q1013', 'LIRQ 072150Z VRB02KT 9999 BKN050 11/09 Q1013', 'LIRQ 072120Z VRB02KT 9999 BKN050 11/09 Q1013', 'LIRQ 072050Z VRB02KT 9999 BKN050 11/09 Q1013', 'LIRQ 072020Z VRB02KT 9999 BKN050 11/09 Q1013', 'LIRQ 071950Z VRB01KT 9999 BKN050 10/09 Q1013', 'LIRQ 071850Z VRB02KT 9999 FEW050 09/09 Q1013', 'LIRQ 071820Z 13002KT 9999 FEW050 10/09 Q1013', 'LIRQ 071750Z VRB02KT 9999 FEW055 12/10 Q1013']","['2024-02-10 16:50:00', '2024-02-10 16:20:00', '2024-02-10 15:50:00', '2024-02-10 15:20:00', '2024-02-10 14:50:00', '2024-02-10 14:20:00', '2024-02-10 13:50:00', '2024-02-10 13:20:00', '2024-02-10 12:50:00', '2024-02-10 12:20:00', '2024-02-10 11:50:00', '2024-02-10 11:20:00', '2024-02-10 10:50:00', '2024-02-10 10:20:00', '2024-02-10 09:50:00', '2024-02-10 09:20:00', '2024-02-10 08:50:00', '2024-02-10 08:20:00', '2024-02-10 07:50:00', '2024-02-10 07:20:00', '2024-02-10 06:50:00', '2024-02-10 06:20:00', '2024-02-10 05:50:00', '2024-02-10 05:20:00', '2024-02-10 04:50:00', '2024-02-10 04:20:00', '2024-02-10 03:50:00', '2024-02-10 03:20:00', '2024-02-10 02:50:00', '2024-02-10 02:20:00', '2024-02-10 01:50:00', '2024-02-10 01:20:00', '2024-02-10 00:50:00', '2024-02-10 00:20:00', '2024-02-09 23:50:00', '2024-02-09 23:20:00', '2024-02-09 22:50:00', '2024-02-09 22:20:00', '2024-02-09 21:50:00', '2024-02-09 21:20:00', '2024-02-09 20:50:00', '2024-02-09 20:20:00', '2024-02-09 19:50:00', '2024-02-09 19:20:00', '2024-02-09 18:50:00', '2024-02-09 18:20:00', '2024-02-09 17:50:00', '2024-02-09 17:20:00', '2024-02-09 16:50:00', '2024-02-09 16:20:00', '2024-02-09 15:50:00', '2024-02-09 15:20:00', '2024-02-09 14:50:00', '2024-02-09 14:20:00', '2024-02-09 13:50:00', '2024-02-09 13:20:00', '2024-02-09 12:50:00', '2024-02-09 12:20:00', '2024-02-09 11:50:00', '2024-02-09 11:20:00', '2024-02-09 10:50:00', '2024-02-09 10:20:00', '2024-02-09 09:50:00', '2024-02-09 09:20:00', '2024-02-09 08:50:00', '2024-02-09 08:20:00', '2024-02-09 07:50:00', '2024-02-09 07:20:00', '2024-02-09 06:50:00', '2024-02-09 06:20:00', '2024-02-09 05:50:00', '2024-02-09 05:20:00', '2024-02-09 04:50:00', '2024-02-09 04:20:00', '2024-02-09 03:50:00', '2024-02-09 03:20:00', '2024-02-09 02:50:00', '2024-02-09 02:20:00', '2024-02-09 01:50:00', '2024-02-09 01:20:00', '2024-02-09 00:50:00', '2024-02-09 00:20:00', '2024-02-08 23:50:00', '2024-02-08 23:20:00', '2024-02-08 22:50:00', '2024-02-08 22:20:00', '2024-02-08 21:50:00', '2024-02-08 21:20:00', '2024-02-08 20:50:00', '2024-02-08 19:50:00', '2024-02-08 19:20:00', '2024-02-08 18:50:00', '2024-02-08 18:20:00', '2024-02-08 17:50:00', '2024-02-08 17:20:00', '2024-02-08 16:50:00', '2024-02-08 16:20:00', '2024-02-08 15:50:00', '2024-02-08 15:20:00', '2024-02-08 14:50:00', '2024-02-08 14:20:00', '2024-02-08 13:50:00', '2024-02-08 13:20:00', '2024-02-08 12:50:00', '2024-02-08 12:20:00', '2024-02-08 11:50:00', '2024-02-08 11:20:00', '2024-02-08 10:50:00', '2024-02-08 10:20:00', '2024-02-08 09:50:00', '2024-02-08 09:20:00', '2024-02-08 08:50:00', '2024-02-08 08:20:00', '2024-02-08 07:50:00', '2024-02-08 07:20:00', '2024-02-08 06:50:00', '2024-02-08 06:20:00', '2024-02-08 05:50:00', '2024-02-08 05:20:00', '2024-02-08 04:50:00', '2024-02-08 04:20:00', '2024-02-08 03:50:00', '2024-02-08 03:20:00', '2024-02-08 02:50:00', '2024-02-08 02:20:00', '2024-02-08 01:50:00', '2024-02-08 01:20:00', '2024-02-08 00:50:00', '2024-02-08 00:20:00', '2024-02-07 23:50:00', '2024-02-07 23:20:00', '2024-02-07 22:50:00', '2024-02-07 22:20:00', '2024-02-07 21:50:00', '2024-02-07 21:20:00', '2024-02-07 20:50:00', '2024-02-07 20:20:00', '2024-02-07 19:50:00', '2024-02-07 18:50:00', '2024-02-07 18:20:00', '2024-02-07 17:50:00']"
Italy, Foggia Gino Lisa Airport (FOG/LIBF) ,"['LIBF 101551Z 18015G25KT 9999 FEW030 BKN045 15/07 Q0997', 'LIBF 101450Z 17010KT 9999 FEW030 BKN045 15/08 Q0998', 'LIBF 101350Z 19016KT 9999 FEW030 BKN045 15/08 Q0998', 'LIBF 101250Z 19020G31KT 9999 SCT045 16/08 Q0999', 'LIBF 101207Z 17015G30KT 9999 SCT030 16/08 Q0999', 'LIBF 101050Z 14012KT 9999 FEW030 SCT040 17/09 Q1001', 'LIBF 100950Z 18015KT 9999 FEW020 SCT060 16/09 Q1002', 'LIBF 100850Z 18013KT 9999 FEW030 SCT060 16/07 Q1002', 'LIBF 100750Z 20009KT CAVOK 15/06 Q1002', 'LIBF 100650Z 16008KT 9999 FEW060 15/06 Q1001', 'LIBF 092150Z 17005KT CAVOK 11/06 Q1005', 'LIBF 092050Z 11006KT CAVOK 12/06 Q1006', 'LIBF 091950Z VRB02KT 9999 FEW060 12/06 Q1006', 'LIBF 091850Z 25004KT 9999 FEW060 12/07 Q1006', 'LIBF 091750Z VRB02KT 9999 FEW060 13/07 Q1006', 'LIBF 091650Z 29004KT 9999 FEW060 14/07 Q1006', 'LIBF 091550Z 26005KT 9999 FEW060 15/07 Q1006', 'LIBF 091450Z 25007KT 9999 FEW060 17/07 Q1007', 'LIBF 091350Z 25012KT CAVOK 17/07 Q1007', 'LIBF 091250Z 24014KT CAVOK 19/06 Q1007', 'LIBF 091150Z 25007KT 190V280 CAVOK 19/04 Q1008', 'LIBF 091050Z VRB05KT CAVOK 18/06 Q1009', 'LIBF 090950Z 22015KT 9999 FEW030 18/07 Q1009', 'LIBF 090850Z 29005KT 220V330 9999 FEW030 15/07 Q1010', 'LIBF 090835Z 28013KT 9999 FEW030 14/07 Q1010', 'LIBF 090826Z 25023G34KT 9999 FEW030 15/08 Q1010', 'LIBF 090710Z 24010KT 9999 FEW035 13/07 Q1010', 'LIBF 090600Z 21006KT 180V240 9999 FEW035 10/06 Q1009', 'LIBF 082150Z 22004KT 160V310 CAVOK 11/07 Q1012', 'LIBF 082050Z 25008KT 210V270 CAVOK 12/07 Q1012', 'LIBF 081950Z VRB05KT CAVOK 12/07 Q1012', 'LIBF 081850Z VRB04KT CAVOK 12/07 Q1012', 'LIBF 081808Z 10004KT 060V140 CAVOK 13/07 Q1012', 'LIBF 081650Z 25011KT CAVOK 14/07 Q1011', 'LIBF 081550Z 24012KT CAVOK 17/08 Q1011', 'LIBF 081450Z 25017KT CAVOK 18/07 Q1011', 'LIBF 081350Z 25015KT 9999 FEW040 18/06 Q1011', 'LIBF 081250Z 25011KT CAVOK 19/06 Q1011', 'LIBF 081150Z 27016KT CAVOK 18/06 Q1012', 'LIBF 081050Z 26017KT CAVOK 18/06 Q1012', 'LIBF 080950Z VRB08KT CAVOK 18/08 Q1013', 'LIBF 080850Z 26014G24KT CAVOK 15/08 Q1012', 'LIBF 080750Z 26012KT CAVOK 14/08 Q1012', 'LIBF 080734Z 26010KT CAVOK 13/08 Q1012', 'LIBF 080650Z 35003KT 290V040 CAVOK 11/08 Q1012', 'LIBF 080600Z 30005KT CAVOK 11/08 Q1011', 'LIBF 072150Z 07003KT 360V140 CAVOK 06/06 Q1013', 'LIBF 072050Z 24008KT CAVOK 07/06 Q1013', 'LIBF 071950Z 32004KT CAVOK 08/06 Q1013', 'LIBF 071850Z VRB01KT CAVOK 11/08 Q1013', 'LIBF 071750Z 30005KT 270V330 CAVOK 12/08 Q1013']","['2024-02-10 15:51:00', '2024-02-10 14:50:00', '2024-02-10 13:50:00', '2024-02-10 12:50:00', '2024-02-10 12:07:00', '2024-02-10 10:50:00', '2024-02-10 09:50:00', '2024-02-10 08:50:00', '2024-02-10 07:50:00', '2024-02-10 06:50:00', '2024-02-09 21:50:00', '2024-02-09 20:50:00', '2024-02-09 19:50:00', '2024-02-09 18:50:00', '2024-02-09 17:50:00', '2024-02-09 16:50:00', '2024-02-09 15:50:00', '2024-02-09 14:50:00', '2024-02-09 13:50:00', '2024-02-09 12:50:00', '2024-02-09 11:50:00', '2024-02-09 10:50:00', '2024-02-09 09:50:00', '2024-02-09 08:50:00', '2024-02-09 08:35:00', '2024-02-09 08:26:00', '2024-02-09 07:10:00', '2024-02-09 06:00:00', '2024-02-08 21:50:00', '2024-02-08 20:50:00', '2024-02-08 19:50:00', '2024-02-08 18:50:00', '2024-02-08 18:08:00', '2024-02-08 16:50:00', '2024-02-08 15:50:00', '2024-02-08 14:50:00', '2024-02-08 13:50:00', '2024-02-08 12:50:00', '2024-02-08 11:50:00', '2024-02-08 10:50:00', '2024-02-08 09:50:00', '2024-02-08 08:50:00', '2024-02-08 07:50:00', '2024-02-08 07:34:00', '2024-02-08 06:50:00', '2024-02-08 06:00:00', '2024-02-07 21:50:00', '2024-02-07 20:50:00', '2024-02-07 19:50:00', '2024-02-07 18:50:00', '2024-02-07 17:50:00']"
Italy, Forli Airport (FRL/LIPK) ,"['LIPK 101650Z 10010KT 3000 RA BR BKN020 12/09 Q0992', 'LIPK 101550Z 09010KT 3000 RA FEW015 BKN025 12/09 Q0992', 'LIPK 101450Z 09005KT 4000 -RA FEW020 BKN030 12/10 Q0993', 'LIPK 101350Z 11005KT 4000 -RA FEW020 BKN030 13/08 Q0993', 'LIPK 101250Z VRB03KT 7000 -RA FEW020 BKN030 14/08 Q0993', 'LIPK 101150Z VRB02KT 7000 FEW020 BKN030 16/09 Q0994', 'LIPK 101050Z 18007KT 9999 FEW020 BKN040 16/09 Q0994', 'LIPK 100950Z 00000KT 9999 FEW020 SCT030 13/09 Q0994', 'LIPK 100850Z 00000KT 9999 FEW020 SCT030 13/09 Q0995', 'LIPK 100750Z VRB01KT 9999 BKN030 11/08 Q0995 RERA', 'LIPK 100700Z VRB01KT 9999 FEW020 SCT060 11/07 Q0995 RERA', 'LIPK 091850Z 13004KT 8000 -RA FEW030 13/07 Q1000', 'LIPK 091750Z VRB03KT 9999 FEW030 14/05 Q1001', 'LIPK 091650Z 16005KT 9999 FEW030 16/05 Q1000', 'LIPK 091550Z 20011KT 9999 SCT030 17/05 Q1000', 'LIPK 091450Z VRB02KT 9999 FEW020 SCT050 16/07 Q1000', 'LIPK 091350Z 15009KT 9999 FEW020 SCT050 16/08 Q1001', 'LIPK 091250Z VRB02KT 9999 FEW020 SCT040 16/08 Q1002', 'LIPK 091150Z 16006KT 9999 FEW020 SCT060 16/08 Q1003', 'LIPK 091050Z 19006KT 9999 FEW020 15/08 Q1004', 'LIPK 090950Z VRB02KT 9999 FEW020 SCT040 15/07 Q1005', 'LIPK 090850Z 16004KT 9999 FEW020 SCT040 15/07 Q1005', 'LIPK 090750Z 19006KT 9999 SCT040 15/08 Q1005', 'LIPK 090700Z 19008KT 9999 SCT040 15/08 Q1005', 'LIPK 081850Z 00000KT CAVOK 08/02 Q1008', 'LIPK 081750Z VRB01KT CAVOK 10/07 Q1008', 'LIPK 081650Z VRB03KT CAVOK 13/08 Q1009', 'LIPK 081550Z VRB03KT 9999 FEW050 15/05 Q1008', 'LIPK 081450Z 23007KT 9999 FEW040 18/07 Q1009', 'LIPK 081350Z 26014KT 9999 SCT040 17/07 Q1009', 'LIPK 081150Z VRB02KT 9999 SCT030 15/08 Q1010', 'LIPK 081050Z 34004KT 9999 SCT025 14/07 Q1011', 'LIPK 080950Z VRB02KT CAVOK 12/07 Q1010', 'LIPK 080850Z 00000KT CAVOK 09/07 Q1010', 'LIPK 080750Z 00000KT CAVOK 05/03 Q1010', 'LIPK 080700Z 00000KT CAVOK 02/02 Q1010', 'LIPK 071850Z VRB01KT 9999 FEW050 10/05 Q1011', 'LIPK 071750Z VRB01KT 9999 FEW040 12/06 Q1011']","['2024-02-10 16:50:00', '2024-02-10 15:50:00', '2024-02-10 14:50:00', '2024-02-10 13:50:00', '2024-02-10 12:50:00', '2024-02-10 11:50:00', '2024-02-10 10:50:00', '2024-02-10 09:50:00', '2024-02-10 08:50:00', '2024-02-10 07:50:00', '2024-02-10 07:00:00', '2024-02-09 18:50:00', '2024-02-09 17:50:00', '2024-02-09 16:50:00', '2024-02-09 15:50:00', '2024-02-09 14:50:00', '2024-02-09 13:50:00', '2024-02-09 12:50:00', '2024-02-09 11:50:00', '2024-02-09 10:50:00', '2024-02-09 09:50:00', '2024-02-09 08:50:00', '2024-02-09 07:50:00', '2024-02-09 07:00:00', '2024-02-08 18:50:00', '2024-02-08 17:50:00', '2024-02-08 16:50:00', '2024-02-08 15:50:00', '2024-02-08 14:50:00', '2024-02-08 13:50:00', '2024-02-08 11:50:00', '2024-02-08 10:50:00', '2024-02-08 09:50:00', '2024-02-08 08:50:00', '2024-02-08 07:50:00', '2024-02-08 07:00:00', '2024-02-07 18:50:00', '2024-02-07 17:50:00']"
Italy, Genoa Cristoforo Colombo Airport (GOA/LIMJ) ,"['LIMJ 101650Z 17009KT 080V200 3000 RA SCT008 BKN013 OVC030 13/12 Q0988 WS R28', 'LIMJ 101620Z 13011KT 090V150 2800 1100W +RA FEW008 BKN013 OVC030 13/12 Q0988', 'LIMJ 101550Z 10011KT 2500 RADZ FEW008 BKN015 BKN030 13/11 Q0988', 'LIMJ 101520Z 10013KT 2500 RADZ FEW008 BKN016 BKN030 13/11 Q0988', 'LIMJ 101450Z 06009KT 3000 RADZ FEW010 BKN016 BKN030 12/11 Q0989', 'LIMJ 101420Z 07007KT 040V100 3500 RADZ FEW012 BKN020 BKN032 12/11 Q0989', 'LIMJ 101350Z 07010KT 3500 RADZ FEW010 BKN020 BKN032 12/10 Q0989', 'LIMJ 101320Z 10009KT 3500 RADZ FEW010 BKN022 BKN032 13/10 Q0990', 'LIMJ 101250Z 10012KT 3500 RA FEW010 BKN022 BKN032 12/10 Q0990', 'LIMJ 101220Z 10011KT 4000 RA FEW010 BKN022 BKN035 12/10 Q0991', 'LIMJ 101150Z 11011KT 3000 RA BR FEW005 BKN017 BKN035 13/10 Q0992', 'LIMJ 101120Z 10009KT 5000 -RA BR FEW005 BKN018 BKN038 13/10 Q0992', 'LIMJ 101050Z 09009KT 5000 -RA BR FEW005 BKN018 BKN040 13/10 Q0992', 'LIMJ 101020Z 10010KT 5000 -RA BR FEW005 BKN012 BKN035 13/10 Q0993', 'LIMJ 100950Z 11012KT 8000 -RA FEW006 BKN013 BKN035 13/10 Q0993', 'LIMJ 100920Z 13023KT 5000 -RA BR FEW005 BKN010 BKN028 13/11 Q0993', 'LIMJ 100850Z 12020KT 4000 -RA BR FEW005 BKN011 BKN028 13/11 Q0993', 'LIMJ 100820Z 12019KT 5000 -RA BR FEW005 BKN011 BKN028 13/11 Q0993', 'LIMJ 100750Z 12017KT 5000 -RA BR FEW005 BKN011 BKN028 13/11 Q0993 RERA', 'LIMJ 100720Z 12019KT 6000 RA FEW005 BKN011 BKN028 13/11 Q0993', 'LIMJ 100650Z 14015KT 7000 -RA FEW005 BKN012 BKN028 13/11 Q0993 RERA', 'LIMJ 100620Z 15013G24KT 6000 RA FEW005 BKN010 BKN028 13/12 Q0993', 'LIMJ 100550Z AUTO 15015KT 7000 -RA SCT025/// OVC051/// 13/12 Q0993 RERA', 'LIMJ 100520Z AUTO 16018KT 4900 +RA BKN008/// BKN065/// 13/12 Q0992', 'LIMJ 100450Z AUTO 11008KT 040V170 4500 RA FEW008/// BKN023/// 12/11 Q0993 REDZ', 'LIMJ 100420Z AUTO 09003KT 060V120 6000 DZ SCT006/// SCT016/// BKN029/// 13/12 Q0993', 'LIMJ 100350Z AUTO 12007KT 6000 -RA BKN010/// 13/12 Q0993 REDZ', 'LIMJ 100320Z AUTO 17006KT 6000 DZ FEW007/// BKN023/// 13/12 Q0994', 'LIMJ 100250Z AUTO 17009KT 6000 DZ FEW005/// BKN011/// 13/12 Q0994', 'LIMJ 100220Z AUTO 19013KT 4500 DZ BKN013/// 13/12 Q0995', 'LIMJ 100150Z AUTO 15016KT 3900 -RA BKN009/// 13/12 Q0995 REDZ', 'LIMJ 100120Z AUTO 12015KT 5000 -RA OVC021/// 14/12 Q0995', 'LIMJ 100050Z AUTO 14012KT 9999 OVC022/// 14/12 Q0995', 'LIMJ 100020Z AUTO 15015KT 5000 -RA BKN013/// 14/12 Q0996', 'LIMJ 092350Z AUTO 14017KT 9999 -RA OVC008/// 13/12 Q0996', 'LIMJ 092320Z AUTO 15016KT 6000 -RA BKN007/// 13/12 Q0996', 'LIMJ 092250Z AUTO 16018KT 5000 -RA BKN007/// 13/12 Q0996', 'LIMJ 092220Z AUTO 16017KT 6000 -RA BKN007/// 13/12 Q0996 RERA', 'LIMJ 092150Z AUTO 16019KT 2600 RA BKN007/// 13/12 Q0997 REDZ', 'LIMJ 092120Z AUTO 16018KT 6000 2500W -DZ BKN011/// 13/11 Q0997 REDZ', 'LIMJ 092050Z AUTO 16018KT 4200 DZ BR BKN011/// 13/11 Q0997 RERA', 'LIMJ 092020Z AUTO 15020KT 3900 RA BKN013/// 13/12 Q0997', 'LIMJ 091950Z 15020KT 5000 RA BR BKN012 BKN022 13/11 Q0997', 'LIMJ 091920Z 15019KT 4000 RA BR FEW009 BKN012 BKN024 13/12 Q0997', 'LIMJ 091850Z 16017KT 6000 -RA FEW010 BKN015 BKN028 14/11 Q0998', 'LIMJ 091820Z 19015KT 9000 FEW010 BKN018 BKN030 14/11 Q0998', 'LIMJ 091750Z 19018KT 8000 -RA FEW010 BKN015 BKN030 13/11 Q0999', 'LIMJ 091720Z 19022G32KT 8000 RA FEW010 BKN018 BKN038 13/11 Q0998', 'LIMJ 091650Z 20020KT 9999 -RA FEW009 BKN020 BKN038 14/10 Q0998', 'LIMJ 091620Z 20026G37KT 5000 -RA BR FEW004 SCT009 BKN024 13/11 Q0998', 'LIMJ 091550Z 15019G29KT 2500 RA BR FEW004 SCT009 BKN024 14/12 Q0998', 'LIMJ 091520Z 15012KT 5000 RA BR FEW005 SCT009 BKN035 14/12 Q0998', 'LIMJ 091450Z 14020KT 5000 -RA BR FEW006 SCT010 BKN050 14/12 Q0998', 'LIMJ 091420Z 14021KT 6000 -RA FEW006 SCT011 BKN050 15/13 Q0998', 'LIMJ 091350Z 14021KT 7000 FEW006 SCT010 BKN045 15/13 Q0998', 'LIMJ 091320Z 13019KT 8000 FEW006 SCT010 BKN045 15/13 Q0999', 'LIMJ 091250Z 13018KT 9999 SCT012 BKN040 14/13 Q0999', 'LIMJ 091220Z 14017KT 9999 FEW011 SCT020 BKN055 15/12 Q1000', 'LIMJ 091150Z 13019KT 9999 FEW011 SCT023 OVC070 15/13 Q1001', 'LIMJ 091120Z 14018KT 9999 SCT023 BKN032 15/13 Q1001', 'LIMJ 091050Z 16013KT 9999 SCT023 BKN032 15/12 Q1002', 'LIMJ 091020Z 17013KT 9999 FEW018 SCT025 BKN040 15/12 Q1002', 'LIMJ 090950Z 17014KT 9999 FEW018 SCT025 BKN040 15/12 Q1002', 'LIMJ 090920Z 17016KT 9000 FEW016 SCT025 BKN040 15/12 Q1002', 'LIMJ 090850Z 16015KT 9000 FEW016 SCT025 BKN040 15/12 Q1002', 'LIMJ 090820Z 17016KT 9000 -RA FEW016 SCT023 BKN045 15/12 Q1003', 'LIMJ 090750Z 17016KT 7000 -RA FEW016 BKN023 15/12 Q1003', 'LIMJ 090720Z 16017KT 7000 -RA FEW011 BKN020 14/12 Q1002', 'LIMJ 090650Z 18018KT 8000 -DZ FEW011 BKN020 15/12 Q1003', 'LIMJ 090620Z 19023KT 8000 -DZ SCT010 BKN030 15/12 Q1003', 'LIMJ 090550Z 19021KT 9000 -DZ SCT010 BKN030 14/13 Q1003 REDZ', 'LIMJ 090520Z 19020KT 7000 DZ SCT010 BKN025 15/13 Q1003', 'LIMJ 090450Z 19017KT 8000 DZ SCT010 BKN025 15/13 Q1003', 'LIMJ 090420Z 19014KT 8000 DZ SCT010 BKN020 15/12 Q1004', 'LIMJ 090350Z 18009KT 9000 -DZ SCT010 BKN030 14/12 Q1004', 'LIMJ 090320Z 20014KT 9999 FEW010 BKN050 14/12 Q1004', 'LIMJ 090250Z 19013KT 9999 SCT010 BKN040 14/13 Q1004', 'LIMJ 090220Z 19017KT 9999 SCT010 BKN035 14/13 Q1005', 'LIMJ 090150Z 19016KT 9999 SCT012 BKN035 14/12 Q1005', 'LIMJ 090120Z 19018KT 9999 SCT012 BKN030 14/12 Q1005', 'LIMJ 090050Z 19017KT 9999 SCT012 BKN030 14/12 Q1006', 'LIMJ 090020Z 19015KT 9999 FEW010 BKN035 14/12 Q1006', 'LIMJ 082350Z 19016KT 9999 SCT010 BKN030 14/12 Q1006', 'LIMJ 082320Z 19017KT 9999 SCT010 BKN030 14/12 Q1007', 'LIMJ 082250Z 19014KT 9999 FEW010 SCT022 BKN030 14/12 Q1007', 'LIMJ 082220Z 18014KT 9999 FEW010 SCT022 BKN035 14/12 Q1007', 'LIMJ 082150Z 19015KT 9999 SCT010 BKN022 14/12 Q1007', 'LIMJ 082120Z 19013KT 6000 -RADZ SCT010 BKN020 14/12 Q1007', 'LIMJ 082050Z 18013KT 9000 -RA SCT010 BKN020 14/11 Q1007', 'LIMJ 081950Z 17013KT 9999 FEW013 SCT022 BKN030 14/12 Q1008', 'LIMJ 081920Z 17013KT 8000 -DZ SCT022 BKN030 14/12 Q1008', 'LIMJ 081850Z 17010KT 9000 SCT022 BKN033 14/12 Q1008', 'LIMJ 081820Z 16012KT 9999 FEW012 SCT021 BKN039 14/12 Q1008', 'LIMJ 081750Z 16011KT 9999 FEW012 SCT021 BKN040 14/12 Q1008', 'LIMJ 081720Z 17013KT 9999 FEW012 SCT024 14/12 Q1008', 'LIMJ 081650Z 16012KT 9999 FEW012 SCT024 14/12 Q1008', 'LIMJ 081620Z 15014KT 9999 FEW012 SCT024 14/12 Q1008', 'LIMJ 081550Z 16010KT 9999 FEW012 SCT024 BKN030 14/11 Q1008', 'LIMJ 081520Z 16009KT 9999 FEW012 SCT022 BKN030 14/12 Q1008', 'LIMJ 081450Z 14009KT 9000 -DZ FEW010 SCT022 BKN030 14/12 Q1009', 'LIMJ 081420Z 12017KT 9000 FEW010 SCT022 BKN028 14/12 Q1009', 'LIMJ 081350Z 13016KT 9999 FEW022 SCT028 14/12 Q1009', 'LIMJ 081320Z 13016KT 9999 FEW022 SCT028 14/12 Q1009', 'LIMJ 081250Z 13017KT 9999 SCT022 14/10 Q1009', 'LIMJ 081220Z 12015KT 9999 SCT022 14/10 Q1010', 'LIMJ 081150Z 14013KT 9999 SCT022 14/11 Q1010', 'LIMJ 081120Z 13014KT 9999 SCT020 SCT040 14/10 Q1010', 'LIMJ 081050Z 14008KT 9999 SCT020 SCT040 14/09 Q1011', 'LIMJ 081020Z 14010KT 9999 SCT020 SCT050 14/10 Q1011', 'LIMJ 080950Z 13008KT 9999 FEW018 BKN025 14/11 Q1011', 'LIMJ 080920Z 13007KT 9999 SCT018 BKN030 14/10 Q1011', 'LIMJ 080850Z 13007KT 9999 FEW018 SCT045 14/10 Q1010', 'LIMJ 080820Z 14010KT 9999 FEW018 SCT045 14/10 Q1010', 'LIMJ 080750Z 14013KT 9999 SCT018 SCT045 14/10 Q1010', 'LIMJ 080720Z 13013KT 9999 SCT018 SCT045 14/10 Q1010', 'LIMJ 080650Z 10011KT 070V130 9999 VCFC FEW020TCU SCT025 BKN040 13/11 Q1009', 'LIMJ 080620Z 08006KT 040V120 9999 FEW018 BKN025 12/09 Q1009', 'LIMJ 080550Z VRB02KT 9999 SCT025 BKN050 12/08 Q1009', 'LIMJ 080520Z VRB02KT 9999 FEW018 BKN040 12/08 Q1009', 'LIMJ 080450Z 02006KT CAVOK 11/08 Q1009', 'LIMJ 080420Z 02005KT CAVOK 11/08 Q1009', 'LIMJ 080350Z 36002KT 9999 FEW018 13/08 Q1009', 'LIMJ 080320Z 09003KT 9999 BKN004 13/08 Q1009', 'LIMJ 080220Z 11010KT 9999 SCT016 BKN040 13/09 Q1010', 'LIMJ 080150Z 13008KT 9999 SCT016 BKN040 13/10 Q1010', 'LIMJ 080120Z 13008KT 9999 FEW018 BKN040 13/10 Q1011', 'LIMJ 080050Z 12009KT 9999 SCT018 SCT040 13/10 Q1011', 'LIMJ 080020Z 14007KT 9999 SCT018 SCT040 13/10 Q1011', 'LIMJ 072350Z 12010KT 9999 FEW018 SCT040 13/10 Q1011', 'LIMJ 072320Z 12012KT 9999 FEW018 SCT045 13/10 Q1011', 'LIMJ 072250Z 12010KT 9999 SCT018 BKN045 14/10 Q1011', 'LIMJ 072220Z 13011KT 9999 SCT018 BKN040 14/10 Q1011', 'LIMJ 072150Z 13008KT 9999 BKN018 SCT045 14/10 Q1012', 'LIMJ 072120Z 13008KT 9999 SCT018 SCT025 BKN042 13/10 Q1012', 'LIMJ 072050Z 14010KT 9999 BKN020 SCT030 13/09 Q1012', 'LIMJ 072020Z 15007KT 9999 SCT022 BKN040 14/10 Q1012', 'LIMJ 071950Z 17005KT 9999 SCT022 BKN040 14/10 Q1012', 'LIMJ 071920Z 16005KT 9999 SCT018 BKN040 14/10 Q1012', 'LIMJ 071850Z 14007KT 9999 SCT018 SCT045 14/10 Q1012', 'LIMJ 071820Z 13008KT 9999 SCT018 SCT045 14/10 Q1012', 'LIMJ 071750Z 13008KT 9999 SCT018 SCT045 14/10 Q1012']","['2024-02-10 16:50:00', '2024-02-10 16:20:00', '2024-02-10 15:50:00', '2024-02-10 15:20:00', '2024-02-10 14:50:00', '2024-02-10 14:20:00', '2024-02-10 13:50:00', '2024-02-10 13:20:00', '2024-02-10 12:50:00', '2024-02-10 12:20:00', '2024-02-10 11:50:00', '2024-02-10 11:20:00', '2024-02-10 10:50:00', '2024-02-10 10:20:00', '2024-02-10 09:50:00', '2024-02-10 09:20:00', '2024-02-10 08:50:00', '2024-02-10 08:20:00', '2024-02-10 07:50:00', '2024-02-10 07:20:00', '2024-02-10 06:50:00', '2024-02-10 06:20:00', '2024-02-10 05:50:00', '2024-02-10 05:20:00', '2024-02-10 04:50:00', '2024-02-10 04:20:00', '2024-02-10 03:50:00', '2024-02-10 03:20:00', '2024-02-10 02:50:00', '2024-02-10 02:20:00', '2024-02-10 01:50:00', '2024-02-10 01:20:00', '2024-02-10 00:50:00', '2024-02-10 00:20:00', '2024-02-09 23:50:00', '2024-02-09 23:20:00', '2024-02-09 22:50:00', '2024-02-09 22:20:00', '2024-02-09 21:50:00', '2024-02-09 21:20:00', '2024-02-09 20:50:00', '2024-02-09 20:20:00', '2024-02-09 19:50:00', '2024-02-09 19:20:00', '2024-02-09 18:50:00', '2024-02-09 18:20:00', '2024-02-09 17:50:00', '2024-02-09 17:20:00', '2024-02-09 16:50:00', '2024-02-09 16:20:00', '2024-02-09 15:50:00', '2024-02-09 15:20:00', '2024-02-09 14:50:00', '2024-02-09 14:20:00', '2024-02-09 13:50:00', '2024-02-09 13:20:00', '2024-02-09 12:50:00', '2024-02-09 12:20:00', '2024-02-09 11:50:00', '2024-02-09 11:20:00', '2024-02-09 10:50:00', '2024-02-09 10:20:00', '2024-02-09 09:50:00', '2024-02-09 09:20:00', '2024-02-09 08:50:00', '2024-02-09 08:20:00', '2024-02-09 07:50:00', '2024-02-09 07:20:00', '2024-02-09 06:50:00', '2024-02-09 06:20:00', '2024-02-09 05:50:00', '2024-02-09 05:20:00', '2024-02-09 04:50:00', '2024-02-09 04:20:00', '2024-02-09 03:50:00', '2024-02-09 03:20:00', '2024-02-09 02:50:00', '2024-02-09 02:20:00', '2024-02-09 01:50:00', '2024-02-09 01:20:00', '2024-02-09 00:50:00', '2024-02-09 00:20:00', '2024-02-08 23:50:00', '2024-02-08 23:20:00', '2024-02-08 22:50:00', '2024-02-08 22:20:00', '2024-02-08 21:50:00', '2024-02-08 21:20:00', '2024-02-08 20:50:00', '2024-02-08 19:50:00', '2024-02-08 19:20:00', '2024-02-08 18:50:00', '2024-02-08 18:20:00', '2024-02-08 17:50:00', '2024-02-08 17:20:00', '2024-02-08 16:50:00', '2024-02-08 16:20:00', '2024-02-08 15:50:00', '2024-02-08 15:20:00', '2024-02-08 14:50:00', '2024-02-08 14:20:00', '2024-02-08 13:50:00', '2024-02-08 13:20:00', '2024-02-08 12:50:00', '2024-02-08 12:20:00', '2024-02-08 11:50:00', '2024-02-08 11:20:00', '2024-02-08 10:50:00', '2024-02-08 10:20:00', '2024-02-08 09:50:00', '2024-02-08 09:20:00', '2024-02-08 08:50:00', '2024-02-08 08:20:00', '2024-02-08 07:50:00', '2024-02-08 07:20:00', '2024-02-08 06:50:00', '2024-02-08 06:20:00', '2024-02-08 05:50:00', '2024-02-08 05:20:00', '2024-02-08 04:50:00', '2024-02-08 04:20:00', '2024-02-08 03:50:00', '2024-02-08 03:20:00', '2024-02-08 02:20:00', '2024-02-08 01:50:00', '2024-02-08 01:20:00', '2024-02-08 00:50:00', '2024-02-08 00:20:00', '2024-02-07 23:50:00', '2024-02-07 23:20:00', '2024-02-07 22:50:00', '2024-02-07 22:20:00', '2024-02-07 21:50:00', '2024-02-07 21:20:00', '2024-02-07 20:50:00', '2024-02-07 20:20:00', '2024-02-07 19:50:00', '2024-02-07 19:20:00', '2024-02-07 18:50:00', '2024-02-07 18:20:00', '2024-02-07 17:50:00']"
Italy, Grosseto Airport (GRS/LIRS) ,"['LIRS 101555Z 14014KT 2000 RA SCT010 SCT015 BKN020 13/09 Q0990', 'LIRS 101455Z 14015KT 2000 RA FEW010 SCT015 BKN024 13/10 Q0990', 'LIRS 101355Z 14021KT 4000 -RA FEW010 SCT024 BKN040 14/11 Q0990', 'LIRS 101255Z 15014KT 4000 -RA FEW010 SCT024 BKN040 14/11 Q0991 RMK OVC VIS MIN 3000N WIND THR03 15012KT WIND THR21 15013G24KT YLO', 'LIRS 101155Z 15009KT 4000 -RA FEW010 BKN020 14/10 Q0993', 'LIRS 101055Z 15014KT 5000 -RA SCT010 SCT024 BKN060 14/10 Q0994', 'LIRS 100955Z VRB03KT 7000 -RA FEW010 SCT024 BKN060 13/10 Q0994', 'LIRS 100855Z 34004KT 9000 -RA FEW013 SCT024 BKN060 13/10 Q0994', 'LIRS 100755Z 29004KT 7000 -RA FEW010 SCT025 13/10 Q0994', 'LIRS 100655Z 13004KT 8000 -RA FEW005 SCT020 BKN060 14/11 Q0994', 'LIRS 100555Z 13009KT 8000 -RA FEW001 SCT035 14/11 Q0994', 'LIRS 100455Z 14012KT 9999 -DZ FEW020 SCT045 14/11 Q0995', 'LIRS 100355Z 14011KT 9999 SCT030 14/11 Q0994', 'LIRS 100255Z 13018KT 9999 SCT030 14/12 Q0996', 'LIRS 100055Z 15012KT 9999 SCT030 14/11 Q0997', 'LIRS 092355Z 15014KT 9999 SCT030 14/11 Q0998', 'LIRS 092255Z 14014KT 9999 SCT030 14/11 Q0999', 'LIRS 092155Z 14007KT 9999 FEW010 SCT040 14/11 Q0999', 'LIRS 092055Z 11009KT 9999 FEW010 SCT040 13/10 Q0999', 'LIRS 091955Z 11006KT 8000 SCT010 13/11 Q1001', 'LIRS 091855Z 18005KT 8000 -RA SCT010 SCT040 13/11 Q1002', 'LIRS 091755Z 19012KT 6000 -RA SCT010 SCT040 14/12 Q1002', 'LIRS 091655Z 16014KT 8000 SCT010 15/13 Q1002', 'LIRS 091555Z 15016KT 8000 SCT010 15/13 Q1001', 'LIRS 091510Z 14018G28KT 8000 SCT010 15/13 Q1001', 'LIRS 091355Z 14018KT 8000 SCT010 16/13 Q1002', 'LIRS 091255Z 15017KT 9999 SCT010 16/13 Q1003', 'LIRS 091155Z 14020KT 9999 SCT010 16/13 Q1004', 'LIRS 091055Z 15019G29KT 9000 SCT007 16/13 Q1005', 'LIRS 090955Z 15019KT 8000 SCT007 SCT020 15/12 Q1006', 'LIRS 090855Z 15014KT 8000 FEW010 SCT020 15/12 Q1006', 'LIRS 090755Z 14014KT 8000 FEW010 SCT018 14/11 Q1006', 'LIRS 090655Z 14012KT 7000 FEW010 SCT030 14/11 Q1006', 'LIRS 090555Z 15012KT 7000 FEW010 13/10 Q1006', 'LIRS 090455Z 15011KT 8000 FEW015 SCT060 13/10 Q1006', 'LIRS 090355Z 14013KT 8000 FEW010 SCT060 14/11 Q1009', 'LIRS 090255Z 14009KT 8000 FEW010 SCT018 14/11 Q1009', 'LIRS 090155Z 12005KT 8000 FEW010 SCT030 14/11 Q1010', 'LIRS 090055Z 14012KT 8000 SCT018 SCT026TCU 15/12 Q1009', 'LIRS 082355Z 15012KT 8000 SCT015 SCT026 14/11 Q1009', 'LIRS 082255Z 17009KT 8000 SCT015 SCT025 14/11 Q1009', 'LIRS 082155Z 12012KT 9999 FEW018 SCT060 14/11 Q1010', 'LIRS 082055Z 15011KT 9999 FEW020 SCT040 14/11 Q1009', 'LIRS 081955Z 14011KT 9999 SCT030 09/07 Q1010', 'LIRS 081855Z 14009KT 9999 FEW020 SCT030 09/07 Q1010', 'LIRS 081755Z 13009KT 9999 FEW020 09/07 Q1010', 'LIRS 081655Z 14011KT 9999 SCT020 14/12 Q1010', 'LIRS 081555Z 14010KT 9999 SCT020 14/12 Q1010', 'LIRS 081455Z 15014KT 9999 SCT020 15/13 Q1010', 'LIRS 081355Z 17008KT 9999 SCT020 15/13 Q1010', 'LIRS 081255Z 14014KT 9999 FEW025 SCT040 16/13 Q1011', 'LIRS 081155Z 13012KT 9999 FEW040 17/10 Q1011', 'LIRS 081055Z 14010KT 9999 FEW050 15/11 Q1012', 'LIRS 080955Z 13007KT CAVOK 14/10 Q1013', 'LIRS 080855Z VRB02KT CAVOK 09/06 Q1012', 'LIRS 080755Z 03003KT CAVOK 07/04 Q1013', 'LIRS 080655Z 06002KT CAVOK 06/02 Q1012', 'LIRS 080555Z 03005KT 9999 FEW004 05/02 Q1012', 'LIRS 080455Z 07004KT 9999 FEW004 06/02 Q1012', 'LIRS 080355Z 07006KT 9999 SCT020 05/02 Q1012', 'LIRS 080255Z 07005KT 9999 FEW004 SCT020 06/03 Q1012', 'LIRS 080155Z 07005KT 9999 FEW004 BKN020 06/03 Q1012', 'LIRS 080055Z 07004KT 9999 FEW004 BKN020 07/04 Q1012', 'LIRS 072355Z 07004KT 9999 FEW004 BKN020 08/05 Q1013', 'LIRS 072255Z 06003KT 9999 FEW004 BKN020 09/05 Q1013', 'LIRS 072155Z 02003KT 9999 SCT004 BKN020 08/05 Q1013', 'LIRS 072055Z 34003KT 7000 SCT002 SCT020 09/06 Q1013', 'LIRS 071955Z 12001KT 9999 VCFG FEW020 09/07 Q1013', 'LIRS 071855Z 10001KT 9999 FEW020 11/08 Q1013', 'LIRS 071755Z 11003KT 9999 FEW020 11/09 Q1013']","['2024-02-10 15:55:00', '2024-02-10 14:55:00', '2024-02-10 13:55:00', '2024-02-10 12:55:00', '2024-02-10 11:55:00', '2024-02-10 10:55:00', '2024-02-10 09:55:00', '2024-02-10 08:55:00', '2024-02-10 07:55:00', '2024-02-10 06:55:00', '2024-02-10 05:55:00', '2024-02-10 04:55:00', '2024-02-10 03:55:00', '2024-02-10 02:55:00', '2024-02-10 00:55:00', '2024-02-09 23:55:00', '2024-02-09 22:55:00', '2024-02-09 21:55:00', '2024-02-09 20:55:00', '2024-02-09 19:55:00', '2024-02-09 18:55:00', '2024-02-09 17:55:00', '2024-02-09 16:55:00', '2024-02-09 15:55:00', '2024-02-09 15:10:00', '2024-02-09 13:55:00', '2024-02-09 12:55:00', '2024-02-09 11:55:00', '2024-02-09 10:55:00', '2024-02-09 09:55:00', '2024-02-09 08:55:00', '2024-02-09 07:55:00', '2024-02-09 06:55:00', '2024-02-09 05:55:00', '2024-02-09 04:55:00', '2024-02-09 03:55:00', '2024-02-09 02:55:00', '2024-02-09 01:55:00', '2024-02-09 00:55:00', '2024-02-08 23:55:00', '2024-02-08 22:55:00', '2024-02-08 21:55:00', '2024-02-08 20:55:00', '2024-02-08 19:55:00', '2024-02-08 18:55:00', '2024-02-08 17:55:00', '2024-02-08 16:55:00', '2024-02-08 15:55:00', '2024-02-08 14:55:00', '2024-02-08 13:55:00', '2024-02-08 12:55:00', '2024-02-08 11:55:00', '2024-02-08 10:55:00', '2024-02-08 09:55:00', '2024-02-08 08:55:00', '2024-02-08 07:55:00', '2024-02-08 06:55:00', '2024-02-08 05:55:00', '2024-02-08 04:55:00', '2024-02-08 03:55:00', '2024-02-08 02:55:00', '2024-02-08 01:55:00', '2024-02-08 00:55:00', '2024-02-07 23:55:00', '2024-02-07 22:55:00', '2024-02-07 21:55:00', '2024-02-07 20:55:00', '2024-02-07 19:55:00', '2024-02-07 18:55:00', '2024-02-07 17:55:00']"
Italy, Lampedusa Airport (LMP/LICD) ,"['LICD 101650Z AUTO 19013KT 9999 SCT049/// 18/13 Q1001', 'LICD 101620Z AUTO 20008KT 9999 FEW049/// SCT097/// 17/13 Q1002', 'LICD 101550Z AUTO 21008KT 9999 FEW091/// 18/13 Q1002', 'LICD 101520Z AUTO 20010KT 9999 FEW051/// 18/12 Q1001', 'LICD 101450Z AUTO 21013KT 9999 FEW036/// BKN068/// 18/11 Q1002', 'LICD 101420Z AUTO 22014KT 9999 BKN078/// 18/12 Q1002', 'LICD 101350Z AUTO 21011KT 9999 BKN073/// 18/13 Q1001', 'LICD 101320Z AUTO 20015KT 9999 BKN065/// 18/12 Q1002', 'LICD 101250Z AUTO 19016KT 9999 NCD 18/12 Q1002', 'LICD 101220Z AUTO 19018KT 9999 NCD 18/13 Q1002', 'LICD 101150Z AUTO 20018KT 9999 NCD 18/12 Q1003', 'LICD 101120Z AUTO 21015KT 9999 NCD 18/13 Q1003', 'LICD 101050Z AUTO 21019KT 9999 FEW065/// 19/11 Q1003', 'LICD 101020Z AUTO 21019KT 9999 BKN074/// 18/10 Q1005', 'LICD 100950Z AUTO 22019KT 9999 BKN068/// 18/13 Q1005', 'LICD 100920Z AUTO 22018KT 9999 FEW098/// 19/12 Q1004', 'LICD 100850Z AUTO 20017KT 9999 FEW110/// 19/12 Q1004', 'LICD 100820Z AUTO 19018KT 9999 BKN100/// 18/12 Q1005', 'LICD 100750Z AUTO 18014KT 9999 BKN082/// 18/12 Q1005', 'LICD 100720Z AUTO 21014KT 9999 -RA BKN071/// 18/11 Q1006', 'LICD 100650Z AUTO 21015KT 9999 BKN087/// 18/13 Q1006', 'LICD 100620Z AUTO 20016KT 9999 BKN120/// 18/12 Q1005', 'LICD 100550Z AUTO 19016KT 9999 BKN100/// 18/12 Q1004', 'LICD 100520Z AUTO 19018KT 9999 BKN110/// 18/12 Q1004', 'LICD 100450Z AUTO 18015KT 9999 BKN110/// 18/13 Q1004', 'LICD 100420Z AUTO 19014KT 9999 BKN093/// 18/12 Q1004', 'LICD 100350Z AUTO 19016KT 9999 BKN110/// 18/12 Q1005', 'LICD 100320Z AUTO 18014KT 9999 BKN120/// 18/13 Q1005', 'LICD 100250Z AUTO 19014KT 9999 OVC130/// 18/13 Q1005', 'LICD 100220Z AUTO 19015KT 9999 BKN100/// 18/13 Q1006', 'LICD 100150Z AUTO 19014KT 9999 BKN120/// 18/13 Q1006', 'LICD 100120Z AUTO 19013KT 9999 OVC130/// 18/13 Q1007', 'LICD 100050Z AUTO 19015KT 9999 OVC120/// 18/13 Q1007', 'LICD 100020Z AUTO 19013KT 9999 BKN110/// 18/13 Q1008', 'LICD 092350Z AUTO 19014KT 9999 BKN120/// 18/14 Q1008', 'LICD 092320Z AUTO 19014KT 9999 FEW150/// BKN180/// 18/14 Q1008', 'LICD 092250Z AUTO 19016KT 9999 BKN150/// 18/13 Q1008', 'LICD 092220Z AUTO 19016KT 9999 BKN160/// BKN210/// 18/13 Q1009', 'LICD 092150Z AUTO 19016KT 9999 BKN160/// BKN220/// 18/13 Q1009', 'LICD 092120Z AUTO 19015KT 9999 FEW180/// BKN210/// 18/12 Q1009', 'LICD 092050Z AUTO 19017KT 9999 BKN170/// 18/13 Q1010', 'LICD 092020Z AUTO 19016KT 9999 SCT190/// SCT220/// 18/12 Q1010', 'LICD 091950Z AUTO 19016KT 9999 BKN180/// 18/13 Q1010', 'LICD 091920Z AUTO 19017KT 9999 BKN180/// BKN210/// 18/12 Q1010', 'LICD 091850Z AUTO 20015KT 9999 BKN190/// 18/13 Q1010', 'LICD 091820Z AUTO 20016KT 9999 BKN200/// 18/13 Q1010', 'LICD 091750Z AUTO 20017KT 9999 FEW200/// BKN230/// 18/12 Q1010', 'LICD 091720Z AUTO 20018KT 9999 FEW210/// BKN240/// 18/12 Q1009', 'LICD 091650Z AUTO 20017KT 9999 BKN210/// 17/13 Q1010', 'LICD 091620Z AUTO 20017KT 9999 SCT220/// 18/13 Q1009', 'LICD 091550Z AUTO 20016KT 9999 FEW220/// 18/12 Q1010', 'LICD 091520Z AUTO 20017KT 9999 FEW230/// 18/12 Q1010', 'LICD 091450Z AUTO 20016KT 9999 NCD 18/12 Q1010', 'LICD 091420Z AUTO 20017KT 9999 NCD 18/12 Q1010', 'LICD 091350Z AUTO 21016KT 9999 NCD 18/11 Q1011', 'LICD 091320Z AUTO 21017KT 9999 NCD 18/11 Q1011', 'LICD 091250Z AUTO 21016KT 9999 NCD 18/12 Q1011', 'LICD 091220Z AUTO 21016KT 9999 NCD 18/12 Q1012', 'LICD 091150Z AUTO 21018KT 9999 NCD 19/12 Q1012', 'LICD 091120Z AUTO 21017KT 9999 NCD 19/12 Q1013', 'LICD 091050Z AUTO 21016KT 9999 NCD 19/12 Q1013', 'LICD 091020Z AUTO 21016KT 9999 NCD 18/12 Q1014', 'LICD 090950Z AUTO 21017KT 9999 NCD 18/12 Q1014', 'LICD 090920Z AUTO 21016KT 9999 NCD 18/12 Q1014', 'LICD 090850Z AUTO 21016KT 9999 NCD 18/12 Q1014', 'LICD 090820Z AUTO 21016KT 9999 NCD 18/12 Q1014', 'LICD 090750Z AUTO 21015KT 9999 NCD 17/12 Q1014', 'LICD 090720Z AUTO 21015KT 9999 NCD 17/12 Q1014', 'LICD 090650Z AUTO 20013KT 9999 NCD 17/13 Q1014', 'LICD 090620Z AUTO 20014KT 9999 NCD 17/13 Q1014', 'LICD 090550Z AUTO 20013KT 9999 NCD 17/13 Q1014', 'LICD 090520Z AUTO 21014KT 9999 NCD 17/13 Q1014', 'LICD 090450Z AUTO 20014KT 9999 NCD 17/13 Q1014', 'LICD 090420Z AUTO 20015KT 9999 NCD 17/13 Q1014', 'LICD 090350Z AUTO 20014KT 9999 NCD 17/13 Q1014', 'LICD 090320Z AUTO 20014KT 9999 NCD 17/13 Q1014', 'LICD 090250Z AUTO 20013KT 9999 NCD 16/13 Q1015', 'LICD 090220Z AUTO 20012KT 9999 NCD 16/13 Q1015', 'LICD 090150Z AUTO 19012KT 9999 NCD 16/13 Q1015', 'LICD 090120Z AUTO 19011KT 9999 NCD 16/13 Q1016', 'LICD 090050Z AUTO 20011KT 9999 NCD 16/13 Q1016', 'LICD 090020Z AUTO 20010KT 9999 NCD 16/13 Q1016', 'LICD 082350Z AUTO 20009KT 9999 NCD 16/14 Q1017', 'LICD 082320Z AUTO 19009KT 9999 NCD 16/13 Q1017', 'LICD 082250Z AUTO 19007KT 9999 NCD 16/13 Q1017', 'LICD 082220Z AUTO 20007KT 9999 NCD 16/13 Q1017', 'LICD 082150Z AUTO 21007KT 9999 NCD 16/13 Q1017', 'LICD 082120Z AUTO 21007KT 9999 NCD 16/13 Q1017', 'LICD 082050Z AUTO 22007KT 9999 NCD 16/13 Q1018', 'LICD 081950Z AUTO 22007KT 9999 NCD 16/13 Q1017', 'LICD 081920Z AUTO 23006KT 9999 NCD 16/12 Q1018', 'LICD 081850Z AUTO 24007KT 9999 NCD 16/12 Q1018', 'LICD 081820Z AUTO 23006KT 9999 NCD 16/11 Q1018', 'LICD 081750Z AUTO 23007KT 9999 NCD 16/11 Q1018', 'LICD 081720Z AUTO 23005KT 9999 NCD 16/11 Q1017', 'LICD 081650Z AUTO 23005KT 9999 NCD 16/11 Q1017', 'LICD 081620Z AUTO 24005KT 9999 NCD 17/11 Q1017', 'LICD 081550Z AUTO 24005KT 9999 NCD 17/11 Q1017', 'LICD 081520Z AUTO 25008KT 9999 NCD 17/11 Q1018', 'LICD 081450Z AUTO 26010KT 9999 NCD 17/11 Q1018', 'LICD 081420Z AUTO 25009KT 9999 NCD 17/11 Q1018', 'LICD 081350Z AUTO 26010KT 9999 NCD 18/12 Q1018', 'LICD 081320Z AUTO 25011KT 9999 NCD 18/11 Q1018', 'LICD 081250Z AUTO 26010KT 9999 NCD 18/11 Q1018', 'LICD 081220Z AUTO 25009KT 220V280 9999 NCD 18/11 Q1019', 'LICD 081150Z AUTO 25010KT 9999 NCD 18/11 Q1019', 'LICD 081120Z AUTO 30008KT 270V340 9999 NCD 18/09 Q1019', 'LICD 081050Z AUTO 31012KT 9999 NCD 18/08 Q1020', 'LICD 081020Z AUTO 29013KT 9999 NCD 18/09 Q1020', 'LICD 080950Z AUTO 30012KT 9999 FEW033/// 18/09 Q1020', 'LICD 080920Z AUTO 29010KT 260V320 9999 FEW032/// 17/10 Q1020', 'LICD 080850Z AUTO 30011KT 9999 BKN034/// 17/09 Q1020', 'LICD 080820Z AUTO 29009KT 9999 SCT033/// 17/10 Q1020', 'LICD 080750Z AUTO 29007KT 9999 FEW034/// 16/10 Q1020', 'LICD 080720Z AUTO 29010KT 9999 BKN031/// 16/10 Q1020', 'LICD 080650Z AUTO 29008KT 9999 BKN034/// 15/10 Q1019', 'LICD 080620Z AUTO 28009KT 9999 BKN029/// 15/10 Q1019', 'LICD 080550Z AUTO 30008KT 9999 FEW028/// 15/10 Q1019', 'LICD 080520Z AUTO 30010KT 9999 BKN035/// 15/10 Q1019', 'LICD 080450Z AUTO 31011KT 9999 BKN026/// 15/10 Q1019', 'LICD 080420Z AUTO 28009KT 9999 FEW029/// 15/10 Q1019', 'LICD 080350Z AUTO 29010KT 9999 NCD 15/10 Q1018', 'LICD 080320Z AUTO 29008KT 9999 NCD 15/10 Q1018', 'LICD 080250Z AUTO 29008KT 9999 NCD 15/10 Q1018', 'LICD 080220Z AUTO 30011KT 9999 NCD 15/10 Q1019', 'LICD 080150Z AUTO 31014KT 9999 NCD 15/10 Q1019', 'LICD 080120Z AUTO 30012KT 9999 SCT024/// 15/11 Q1019', 'LICD 080050Z AUTO 30008KT 9999 FEW018/// 15/11 Q1019', 'LICD 080020Z AUTO 26010KT 9999 FEW024/// SCT047/// 15/13 Q1019', 'LICD 072350Z AUTO 25012KT 9999 FEW017/// 16/14 Q1019', 'LICD 072320Z AUTO 25010KT 9999 FEW009/// SCT036/// 16/14 Q1019', 'LICD 072250Z AUTO 25009KT 9999 SCT011/// BKN040/// 16/14 Q1019', 'LICD 072220Z AUTO 25009KT 9999 FEW012/// 15/14 Q1019', 'LICD 072150Z AUTO 26006KT 9999 BKN013/// 15/13 Q1019', 'LICD 072120Z AUTO 27006KT 9999 NCD 14/13 Q1019', 'LICD 072050Z AUTO 27006KT 9999 NCD 14/12 Q1020', 'LICD 072020Z AUTO 29005KT 9999 NCD 15/13 Q1020', 'LICD 071950Z AUTO 30005KT 9999 NCD 15/13 Q1019', 'LICD 071920Z AUTO 32007KT 9999 NCD 16/13 Q1019', 'LICD 071850Z AUTO 33008KT 9999 NCD 16/13 Q1019', 'LICD 071820Z AUTO 33010KT 9999 NCD 16/13 Q1019', 'LICD 071750Z AUTO 33011KT 9999 NCD 16/13 Q1019']","['2024-02-10 16:50:00', '2024-02-10 16:20:00', '2024-02-10 15:50:00', '2024-02-10 15:20:00', '2024-02-10 14:50:00', '2024-02-10 14:20:00', '2024-02-10 13:50:00', '2024-02-10 13:20:00', '2024-02-10 12:50:00', '2024-02-10 12:20:00', '2024-02-10 11:50:00', '2024-02-10 11:20:00', '2024-02-10 10:50:00', '2024-02-10 10:20:00', '2024-02-10 09:50:00', '2024-02-10 09:20:00', '2024-02-10 08:50:00', '2024-02-10 08:20:00', '2024-02-10 07:50:00', '2024-02-10 07:20:00', '2024-02-10 06:50:00', '2024-02-10 06:20:00', '2024-02-10 05:50:00', '2024-02-10 05:20:00', '2024-02-10 04:50:00', '2024-02-10 04:20:00', '2024-02-10 03:50:00', '2024-02-10 03:20:00', '2024-02-10 02:50:00', '2024-02-10 02:20:00', '2024-02-10 01:50:00', '2024-02-10 01:20:00', '2024-02-10 00:50:00', '2024-02-10 00:20:00', '2024-02-09 23:50:00', '2024-02-09 23:20:00', '2024-02-09 22:50:00', '2024-02-09 22:20:00', '2024-02-09 21:50:00', '2024-02-09 21:20:00', '2024-02-09 20:50:00', '2024-02-09 20:20:00', '2024-02-09 19:50:00', '2024-02-09 19:20:00', '2024-02-09 18:50:00', '2024-02-09 18:20:00', '2024-02-09 17:50:00', '2024-02-09 17:20:00', '2024-02-09 16:50:00', '2024-02-09 16:20:00', '2024-02-09 15:50:00', '2024-02-09 15:20:00', '2024-02-09 14:50:00', '2024-02-09 14:20:00', '2024-02-09 13:50:00', '2024-02-09 13:20:00', '2024-02-09 12:50:00', '2024-02-09 12:20:00', '2024-02-09 11:50:00', '2024-02-09 11:20:00', '2024-02-09 10:50:00', '2024-02-09 10:20:00', '2024-02-09 09:50:00', '2024-02-09 09:20:00', '2024-02-09 08:50:00', '2024-02-09 08:20:00', '2024-02-09 07:50:00', '2024-02-09 07:20:00', '2024-02-09 06:50:00', '2024-02-09 06:20:00', '2024-02-09 05:50:00', '2024-02-09 05:20:00', '2024-02-09 04:50:00', '2024-02-09 04:20:00', '2024-02-09 03:50:00', '2024-02-09 03:20:00', '2024-02-09 02:50:00', '2024-02-09 02:20:00', '2024-02-09 01:50:00', '2024-02-09 01:20:00', '2024-02-09 00:50:00', '2024-02-09 00:20:00', '2024-02-08 23:50:00', '2024-02-08 23:20:00', '2024-02-08 22:50:00', '2024-02-08 22:20:00', '2024-02-08 21:50:00', '2024-02-08 21:20:00', '2024-02-08 20:50:00', '2024-02-08 19:50:00', '2024-02-08 19:20:00', '2024-02-08 18:50:00', '2024-02-08 18:20:00', '2024-02-08 17:50:00', '2024-02-08 17:20:00', '2024-02-08 16:50:00', '2024-02-08 16:20:00', '2024-02-08 15:50:00', '2024-02-08 15:20:00', '2024-02-08 14:50:00', '2024-02-08 14:20:00', '2024-02-08 13:50:00', '2024-02-08 13:20:00', '2024-02-08 12:50:00', '2024-02-08 12:20:00', '2024-02-08 11:50:00', '2024-02-08 11:20:00', '2024-02-08 10:50:00', '2024-02-08 10:20:00', '2024-02-08 09:50:00', '2024-02-08 09:20:00', '2024-02-08 08:50:00', '2024-02-08 08:20:00', '2024-02-08 07:50:00', '2024-02-08 07:20:00', '2024-02-08 06:50:00', '2024-02-08 06:20:00', '2024-02-08 05:50:00', '2024-02-08 05:20:00', '2024-02-08 04:50:00', '2024-02-08 04:20:00', '2024-02-08 03:50:00', '2024-02-08 03:20:00', '2024-02-08 02:50:00', '2024-02-08 02:20:00', '2024-02-08 01:50:00', '2024-02-08 01:20:00', '2024-02-08 00:50:00', '2024-02-08 00:20:00', '2024-02-07 23:50:00', '2024-02-07 23:20:00', '2024-02-07 22:50:00', '2024-02-07 22:20:00', '2024-02-07 21:50:00', '2024-02-07 21:20:00', '2024-02-07 20:50:00', '2024-02-07 20:20:00', '2024-02-07 19:50:00', '2024-02-07 19:20:00', '2024-02-07 18:50:00', '2024-02-07 18:20:00', '2024-02-07 17:50:00']"
Italy, Lecce Galatina Airport (LCC/LIBN) ,"['LIBN 101555Z 16023G34KT 9999 SCT015 SCT020 16/15 Q1004', 'LIBN 101455Z 16019KT 9999 SCT015 SCT020 16/15 Q1004', 'LIBN 101355Z 16020KT 9999 BKN018 16/15 Q1005', 'LIBN 101255Z 16019G29KT 9999 BKN018 16/15 Q1005 RMK OVC BKN100 VIS MIN 9999 WIND THR14 17020KT WIND THR32 17017G27KT WHT', 'LIBN 101155Z 16021G31KT 9999 BKN020 16/15 Q1006', 'LIBN 101055Z 16021G31KT 9999 SCT020 17/15 Q1007', 'LIBN 100955Z 16020KT 9999 SCT020 16/14 Q1007', 'LIBN 100855Z 16019G29KT 9999 BKN020 16/14 Q1007', 'LIBN 100755Z 16016KT 9999 BKN020 16/14 Q1007', 'LIBN 100655Z 14010KT 9999 BKN020 15/14 Q1007', 'LIBN 100555Z 15012KT 9999 BKN020 15/14 Q1007', 'LIBN 100455Z 16012KT 9999 BKN020 15/14 Q1007', 'LIBN 100355Z 16012KT 9999 BKN020 15/14 Q1007', 'LIBN 100255Z 15011KT 9999 BKN015 14/14 Q1007', 'LIBN 100155Z 15011KT 9999 BKN015 14/14 Q1007', 'LIBN 100055Z 14011KT 9999 FEW040 14/13 Q1008', 'LIBN 092355Z 14011KT 9999 SCT040 14/14 Q1008', 'LIBN 092255Z 15012KT 9999 BKN015 13/13 Q1009', 'LIBN 092155Z 15012KT 9999 SCT015 14/13 Q1009', 'LIBN 092055Z 15014KT 9999 SCT015 14/13 Q1009', 'LIBN 091955Z 15014KT 9999 SCT015 13/13 Q1010', 'LIBN 091855Z 15012KT 9999 FEW030 13/13 Q1010', 'LIBN 091755Z 14013KT 9999 FEW030 13/12 Q1010', 'LIBN 091655Z 15013KT 9999 FEW030 14/13 Q1010', 'LIBN 091555Z 15014KT 9999 FEW030 15/13 Q1010', 'LIBN 091455Z 15014KT 9999 FEW030 16/13 Q1011', 'LIBN 091355Z 16015KT CAVOK 16/12 Q1011', 'LIBN 091255Z 17013KT CAVOK 16/11 Q1011', 'LIBN 091155Z 18015KT CAVOK 17/12 Q1012', 'LIBN 091055Z 17014KT CAVOK 18/13 Q1012', 'LIBN 090955Z 16014KT CAVOK 18/12 Q1012', 'LIBN 090855Z 15013KT CAVOK 16/13 Q1013', 'LIBN 090755Z 14009KT CAVOK 09/09 Q1013', 'LIBN 090655Z 13003KT CAVOK 09/09 Q1013', 'LIBN 090555Z 15004KT CAVOK 07/07 Q1013', 'LIBN 090455Z 15005KT CAVOK 08/08 Q1013', 'LIBN 090355Z 15004KT CAVOK 08/08 Q1013', 'LIBN 090255Z 20005KT CAVOK 09/09 Q1013', 'LIBN 090155Z 20006KT CAVOK 09/09 Q1013', 'LIBN 090055Z 22007KT CAVOK 11/11 Q1014', 'LIBN 082355Z 17004KT CAVOK 10/10 Q1013', 'LIBN 082255Z 22005KT CAVOK 10/10 Q1013', 'LIBN 082155Z 22007KT CAVOK 11/11 Q1013', 'LIBN 082055Z 21007KT CAVOK 11/11 Q1013', 'LIBN 081955Z 15006KT CAVOK 10/10 Q1013', 'LIBN 081855Z 13005KT CAVOK 11/10 Q1013', 'LIBN 081755Z 18005KT CAVOK 11/10 Q1013', 'LIBN 081655Z 21005KT 8000 FEW035 13/12 Q1013', 'LIBN 081555Z 23006KT 9999 FEW035 15/11 Q1013', 'LIBN 081455Z 26007KT 9999 FEW035 17/11 Q1013', 'LIBN 081355Z 24008KT 9999 FEW040 18/10 Q1013', 'LIBN 081255Z 25007KT 9999 FEW035 18/09 Q1013', 'LIBN 081155Z 26008KT 9999 FEW035 17/09 Q1013', 'LIBN 081055Z 26006KT 9999 FEW040 18/09 Q1014', 'LIBN 080955Z 22004KT CAVOK 17/11 Q1014', 'LIBN 080855Z 22003KT CAVOK 15/13 Q1013', 'LIBN 080755Z 19003KT 8000 NSC 13/13 Q1013', 'LIBN 080716Z 00000KT 5000 BR NSC 12/11 Q1014 RMK SKC VIS MIN 5000 WIND THR14 00000KT WIND THR32 00000KT WHT', 'LIBN 080612Z 15003KT 1500 BR NSC 09/09 Q1013 RMK SKC VIS MIN 1500 WIND THR14 16004KT WIND THR32 16003KT AMB', 'LIBN 080455Z 14004KT 7000 NSC 10/10 Q1013', 'LIBN 080355Z 14004KT CAVOK 11/11 Q1013', 'LIBN 080255Z 14005KT CAVOK 11/11 Q1013', 'LIBN 080155Z 16005KT CAVOK 12/12 Q1013', 'LIBN 080055Z 15008KT CAVOK 12/12 Q1013', 'LIBN 072355Z 15008KT CAVOK 13/13 Q1013', 'LIBN 072255Z 14006KT CAVOK 13/13 Q1014', 'LIBN 072155Z 16007KT CAVOK 13/13 Q1014', 'LIBN 072055Z 17005KT CAVOK 13/13 Q1014', 'LIBN 071955Z 15009KT CAVOK 13/13 Q1014', 'LIBN 071855Z 13006KT CAVOK 13/13 Q1014 RMK BKN BKN180 VIS MIN 9999 WIND THR14 14007KT WIND THR32 14007KT BLU', 'LIBN 071755Z 15009KT 9999 FEW008 13/13 Q1014']","['2024-02-10 15:55:00', '2024-02-10 14:55:00', '2024-02-10 13:55:00', '2024-02-10 12:55:00', '2024-02-10 11:55:00', '2024-02-10 10:55:00', '2024-02-10 09:55:00', '2024-02-10 08:55:00', '2024-02-10 07:55:00', '2024-02-10 06:55:00', '2024-02-10 05:55:00', '2024-02-10 04:55:00', '2024-02-10 03:55:00', '2024-02-10 02:55:00', '2024-02-10 01:55:00', '2024-02-10 00:55:00', '2024-02-09 23:55:00', '2024-02-09 22:55:00', '2024-02-09 21:55:00', '2024-02-09 20:55:00', '2024-02-09 19:55:00', '2024-02-09 18:55:00', '2024-02-09 17:55:00', '2024-02-09 16:55:00', '2024-02-09 15:55:00', '2024-02-09 14:55:00', '2024-02-09 13:55:00', '2024-02-09 12:55:00', '2024-02-09 11:55:00', '2024-02-09 10:55:00', '2024-02-09 09:55:00', '2024-02-09 08:55:00', '2024-02-09 07:55:00', '2024-02-09 06:55:00', '2024-02-09 05:55:00', '2024-02-09 04:55:00', '2024-02-09 03:55:00', '2024-02-09 02:55:00', '2024-02-09 01:55:00', '2024-02-09 00:55:00', '2024-02-08 23:55:00', '2024-02-08 22:55:00', '2024-02-08 21:55:00', '2024-02-08 20:55:00', '2024-02-08 19:55:00', '2024-02-08 18:55:00', '2024-02-08 17:55:00', '2024-02-08 16:55:00', '2024-02-08 15:55:00', '2024-02-08 14:55:00', '2024-02-08 13:55:00', '2024-02-08 12:55:00', '2024-02-08 11:55:00', '2024-02-08 10:55:00', '2024-02-08 09:55:00', '2024-02-08 08:55:00', '2024-02-08 07:55:00', '2024-02-08 07:16:00', '2024-02-08 06:12:00', '2024-02-08 04:55:00', '2024-02-08 03:55:00', '2024-02-08 02:55:00', '2024-02-08 01:55:00', '2024-02-08 00:55:00', '2024-02-07 23:55:00', '2024-02-07 22:55:00', '2024-02-07 21:55:00', '2024-02-07 20:55:00', '2024-02-07 19:55:00', '2024-02-07 18:55:00', '2024-02-07 17:55:00']"
Italy, Milan Bergamo Orio al Serio International Airport (BGY/LIME) ,"['LIME 101650Z 03006KT 8000 -RA BKN030 OVC050 10/08 Q0991 NOSIG', 'LIME 101620Z 03004KT 7000 -RA OVC025 09/09 Q0991 NOSIG', 'LIME 101550Z 05003KT 7000 -RA OVC025 09/08 Q0992 NOSIG', 'LIME 101520Z 07003KT 030V100 9000 -RA OVC025 10/08 Q0992 NOSIG', 'LIME 101450Z 03005KT 9999 -RA BKN025 OVC050 10/09 Q0992 NOSIG', 'LIME 101420Z 04006KT 8000 -RA BKN025 OVC050 09/08 Q0992 NOSIG', 'LIME 101350Z 07004KT 7000 -RA BKN025 OVC050 10/08 Q0992 NOSIG', 'LIME 101320Z 09004KT 7000 -RA FEW015 BKN025 OVC050 10/08 Q0993 NOSIG', 'LIME 101250Z AUTO 08005KT 9999 -RA OVC030/// 10/08 Q0993', 'LIME 101220Z AUTO 04002KT 9999 -RA OVC031/// 10/08 Q0993', 'LIME 101150Z AUTO 25003KT 9999 -RA OVC033/// 10/08 Q0993', 'LIME 101120Z AUTO 24004KT 9999 -RA FEW033/// BKN042/// 10/08 Q0994', 'LIME 101050Z AUTO 02003KT 350V050 9999 -RA FEW033/// BKN046/// 09/08 Q0994', 'LIME 101020Z AUTO VRB01KT 9999 -RA BKN035/// 09/08 Q0994', 'LIME 100950Z AUTO VRB01KT 9999 -RA OVC034/// 09/08 Q0994', 'LIME 100920Z AUTO 09003KT 060V120 9999 -RA BKN040/// 09/08 Q0994', 'LIME 100850Z AUTO 08003KT 030V140 9999 -RA OVC039/// 10/08 Q0994', 'LIME 100820Z AUTO 04007KT 9999 -RA OVC047/// 10/07 Q0995', 'LIME 100750Z AUTO 07007KT 9999 -RA OVC045/// 09/08 Q0995', 'LIME 100720Z AUTO 05004KT 9000 -RA SCT026/// OVC043/// 09/08 Q0995 RERA', 'LIME 100650Z AUTO 04005KT 5000 RA OVC028/// 08/08 Q0995', 'LIME 100620Z AUTO 04005KT 7000 -RA OVC034/// 09/08 Q0994', 'LIME 100550Z 05006KT 9000 -RA BKN035 09/07 Q0994 NOSIG', 'LIME 100520Z 07005KT 9999 -RA BKN035 09/07 Q0994 NOSIG', 'LIME 100450Z 04007KT 9999 -RA BKN035 09/07 Q0994 NOSIG', 'LIME 100420Z 05005KT 020V100 9999 BKN035 09/06 Q0995 NOSIG', 'LIME 100350Z 03009KT 9999 BKN035 10/06 Q0995 NOSIG', 'LIME 100320Z 03009KT 9999 BKN035 09/06 Q0995 NOSIG', 'LIME 100250Z 03009KT 9999 SCT035 09/06 Q0995 NOSIG', 'LIME 100150Z 05006KT 9000 -EA BKN035 09/07 Q0996 NOSIG', 'LIME 100120Z 04006KT 9999 BKN040 09/07 Q0996 NOSIG', 'LIME 100050Z 04007KT 9000 -RA BKN040 09/07 Q0997 NOSIG', 'LIME 100020Z 05005KT 9000 -RA BKN040 08/08 Q0997 NOSIG', 'LIME 092350Z 03005KT 9000 -RA FEW025 BKN040 09/07 Q0997 NOSIG', 'LIME 092320Z 04006KT 9999 -RA BKN040 09/08 Q0998 NOSIG', 'LIME 092250Z 04005KT 9000 -RA BKN040 09/08 Q0998 NOSIG', 'LIME 092220Z 05006KT 8000 -RA FEW015 BKN040 09/08 Q0998 NOSIG', 'LIME 092150Z 06006KT 7000 -RA FEW015 BKN035 09/08 Q0998 NOSIG', 'LIME 092120Z 04005KT 020V090 7000 -RA SCT015 BKN035 09/08 Q0998 NOSIG', 'LIME 092050Z 04006KT 360V060 6000 -RA SCT015 BKN035 09/09 Q0998 NOSIG', 'LIME 092020Z 08004KT 360V170 6000 -RA FEW010 BKN035 09/08 Q0999 NOSIG', 'LIME 091950Z 04005KT 020V080 5000 -RA BR BKN025 OVC040 09/08 Q0998 NOSIG', 'LIME 091920Z 03004KT 350V070 7000 -RA BKN025 OVC040 09/09 Q0998 NOSIG', 'LIME 091850Z 07007KT 6000 -RA BKN025 OVC040 09/08 Q0999 NOSIG', 'LIME 091820Z 06007KT 7000 -RA BKN025 OVC040 09/08 Q0999 NOSIG', 'LIME 091750Z 07006KT 6000 -RA BKN025 OVC040 10/09 Q0999 NOSIG', 'LIME 091720Z 03005KT 7000 -RA OVC045 10/09 Q0999 NOSIG', 'LIME 091650Z 05007KT 7000 -RA OVC045 10/09 Q0999 NOSIG', 'LIME 091620Z 04007KT 7000 -RA OVC040 10/10 Q0999 NOSIG', 'LIME 091550Z 04005KT 6000 -RA BKN030 OVC050 10/10 Q0999 NOSIG', 'LIME 091520Z 03005KT 6000 -RA BKN030 OVC050 10/10 Q0999 NOSIG', 'LIME 091450Z 06006KT 5000 -RA BR BKN030 BKN050 10/10 Q1000 NOSIG', 'LIME 091420Z 05005KT 6000 -RA SCT030 SCT050 11/10 Q1000 NOSIG', 'LIME 091350Z 04005KT 7000 -RA SCT030 BKN050 11/10 Q1000 NOSIG', 'LIME 091320Z 06005KT 5000 -RA BR BKN030 11/10 Q1000 NOSIG', 'LIME 091250Z 05005KT 9000 -RA SCT030 BKN050 11/10 Q1000 NOSIG', 'LIME 091220Z 06006KT 9000 -RA SCT025 BKN050 11/10 Q1001 NOSIG', 'LIME 091150Z 06005KT 9000 -RA SCT025 BKN050 11/10 Q1001 NOSIG', 'LIME 091120Z 06004KT 7000 -RA SCT025 BKN040 11/10 Q1002 NOSIG', 'LIME 091050Z 08006KT 030V100 5000 -RA BR SCT020 BKN045 11/10 Q1002 NOSIG', 'LIME 091020Z 09006KT 6000 -RA SCT015 BKN040 10/10 Q1002 NOSIG', 'LIME 090950Z 08005KT 4000 -RA BR SCT015 BKN035 10/09 Q1003 NOSIG', 'LIME 090920Z 08005KT 040V100 4000 -RA BR SCT015 BKN025 10/09 Q1003 NOSIG', 'LIME 090850Z VRB02KT 6000 -RA SCT015 BKN035 10/09 Q1003 NOSIG', 'LIME 090820Z 06003KT 020V100 5000 -RA BR SCT015 BKN025 10/09 Q1003 NOSIG', 'LIME 090750Z 08005KT 5000 -RA BR SCT030 BKN045 10/09 Q1003 NOSIG', 'LIME 090720Z 05004KT 7000 -RA SCT035 BKN050 10/09 Q1003 NOSIG', 'LIME 090650Z 07003KT 8000 -RA SCT025 BKN040 09/09 Q1003 NOSIG', 'LIME 090620Z 03004KT 7000 -RA FEW020 BKN035 09/09 Q1002 NOSIG', 'LIME 090550Z 02003KT 7000 -RA FEW020 BKN035 09/09 Q1003 NOSIG', 'LIME 090520Z 04003KT 8000 -RA FEW015 BKN030 09/09 Q1003 RERA NOSIG', 'LIME 090450Z VRB01KT 4000 RA FEW020 BKN030 09/09 Q1003 NOSIG', 'LIME 090420Z 03003KT 5000 RA BKN035 09/09 Q1004 NOSIG', 'LIME 090350Z 06003KT 8000 -RA BKN035 09/09 Q1004 NOSIG', 'LIME 090320Z 03005KT 9000 -RA BKN045 09/09 Q1004 NOSIG', 'LIME 090250Z 01004KT 7000 -RA SCT035 BKN045 09/09 Q1004 NOSIG', 'LIME 090220Z 03004KT 4500 -DZ BR SCT035 BKN045 09/09 Q1004 REDZ NOSIG', 'LIME 090150Z 03003KT 350V050 1800 DZ BR FEW010 SCT015 BKN035 09/09 Q1005 NOSIG', 'LIME 090120Z VRB02KT 0700 R28/1600U RA FG VV002 09/09 Q1005 REDZ NOSIG', 'LIME 090050Z 10004KT 0800 R28/1600D DZRA FG BKN002 09/09 Q1005 NOSIG', 'LIME 090020Z 10005KT 0800 R28/1500D +DZ FG BKN002 09/09 Q1006 RERA NOSIG', 'LIME 082350Z 10003KT 1000 R28/1400D +DZRA BR SCT002 BKN010 09/09 Q1006 BECMG 0800', 'LIME 082320Z 09005KT 1200 R28/P2000N DZRA BR SCT006 BKN015 09/09 Q1006 BECMG 0800', 'LIME 082250Z 10005KT 1400 R28/P2000N DZRA BR SCT006 BKN010 09/09 Q1007 BECMG 0800', 'LIME 082220Z 11006KT 2000 DZRA BR SCT007 BKN010 09/09 Q1007 NOSIG', 'LIME 082150Z 11005KT 2200 DZRA BR FEW007 BKN015 09/08 Q1007 NOSIG', 'LIME 082120Z 09003KT 3500 -DZ BR BKN040 09/08 Q1007 NOSIG', 'LIME 082050Z 10003KT 3500 -DZ BR FEW030 BKN040 09/08 Q1008 NOSIG', 'LIME 081950Z 08003KT 050V110 3500 -DZ BR SCT035 BKN045 10/08 Q1008 NOSIG', 'LIME 081920Z 12006KT 100V160 4000 -DZ BR SCT030 BKN045 10/08 Q1008 NOSIG', 'LIME 081850Z 12008KT 8000 BKN040 10/08 Q1008 NOSIG', 'LIME 081820Z 14004KT 120V180 9999 BKN040 12/06 Q1008 NOSIG', 'LIME 081750Z VRB02KT 9999 BKN040 12/06 Q1008 NOSIG', 'LIME 081720Z 36003KT 9999 BKN040 12/06 Q1008 NOSIG', 'LIME 081650Z 03001KT 9999 BKN040 13/05 Q1007 NOSIG', 'LIME 081620Z 25005KT 9999 BKN045 12/05 Q1008 NOSIG', 'LIME 081550Z 26005KT CAVOK 13/05 Q1008 NOSIG', 'LIME 081520Z 24006KT 200V260 CAVOK 14/06 Q1008 NOSIG', 'LIME 081450Z 23009KT 190V260 CAVOK 14/05 Q1008 NOSIG', 'LIME 081420Z 24007KT CAVOK 14/06 Q1008 NOSIG', 'LIME 081350Z 27004KT 240V310 CAVOK 14/05 Q1008 NOSIG', 'LIME 081320Z 29004KT 260V330 CAVOK 13/05 Q1008 NOSIG', 'LIME 081250Z 29007KT 9999 SCT035 13/05 Q1009 NOSIG', 'LIME 081220Z 29005KT 9999 BKN035 12/05 Q1009 NOSIG', 'LIME 081150Z 31003KT 280V340 9999 BKN035 11/05 Q1009 NOSIG', 'LIME 081120Z 24005KT 190V310 9999 BKN035 11/05 Q1010 NOSIG', 'LIME 081050Z 02004KT 340V050 9999 SCT040 11/05 Q1010 NOSIG', 'LIME 081020Z 03004KT 340V080 9999 BKN040 10/05 Q1010 NOSIG', 'LIME 080950Z VRB01KT 9999 BKN037 10/05 Q1010 NOSIG', 'LIME 080920Z VRB02KT 9999 BKN040 10/05 Q1010 NOSIG', 'LIME 080850Z VRB02KT 9999 BKN040 09/05 Q1010 NOSIG', 'LIME 080820Z VRB02KT 9999 BKN040 09/05 Q1010 NOSIG', 'LIME 080750Z VRB02KT 9999 BKN040 09/04 Q1009 NOSIG', 'LIME 080720Z VRB02KT 9999 SCT040 08/04 Q1009 NOSIG', 'LIME 080650Z 35003KT 310V020 9999 SCT040 07/04 Q1009 NOSIG', 'LIME 080620Z 01005KT 9999 SCT040 07/04 Q1009 NOSIG', 'LIME 080550Z VRB01KT 9999 BKN045 07/04 Q1009 NOSIG', 'LIME 080520Z VRB02KT 9999 SCT045 06/04 Q1009 NOSIG', 'LIME 080450Z 03003KT 9999 SCT045 07/04 Q1009 NOSIG', 'LIME 080420Z VRB02KT 9999 SCT045 05/04 Q1009 NOSIG', 'LIME 080250Z 35003KT 290V020 CAVOK 06/04 Q1009 NOSIG', 'LIME 080220Z 01004KT CAVOK 06/04 Q1009 NOSIG', 'LIME 080150Z 35003KT 240V030 9999 FEW045 06/04 Q1010 NOSIG', 'LIME 080120Z VRB02KT 9999 SCT045 06/05 Q1010 NOSIG', 'LIME 080050Z 01003KT 9999 SCT045 07/05 Q1010 NOSIG', 'LIME 080020Z 01003KT 9999 BKN045 07/05 Q1010 NOSIG', 'LIME 072350Z VRB01KT 9999 SCT045 07/05 Q1010 NOSIG', 'LIME 072320Z 35002KT 9999 SCT045 07/05 Q1010 NOSIG', 'LIME 072250Z 02002KT 9999 FEW045 07/05 Q1010 NOSIG', 'LIME 072220Z 02002KT CAVOK 07/05 Q1010 NOSIG', 'LIME 072150Z VRB01KT CAVOK 08/05 Q1011 NOSIG', 'LIME 072120Z 01004KT CAVOK 08/05 Q1011 NOSIG', 'LIME 072050Z 36004KT CAVOK 08/05 Q1011 NOSIG', 'LIME 072020Z 02003KT CAVOK 07/05 Q1011 NOSIG', 'LIME 071950Z 01003KT CAVOK 08/05 Q1011 NOSIG', 'LIME 071920Z VRB02KT CAVOK 09/05 Q1011 NOSIG', 'LIME 071850Z VRB02KT CAVOK 09/06 Q1011 NOSIG', 'LIME 071820Z VRB02KT CAVOK 09/05 Q1011 NOSIG', 'LIME 071750Z VRB02KT 9999 FEW060 10/05 Q1011 NOSIG']","['2024-02-10 16:50:00', '2024-02-10 16:20:00', '2024-02-10 15:50:00', '2024-02-10 15:20:00', '2024-02-10 14:50:00', '2024-02-10 14:20:00', '2024-02-10 13:50:00', '2024-02-10 13:20:00', '2024-02-10 12:50:00', '2024-02-10 12:20:00', '2024-02-10 11:50:00', '2024-02-10 11:20:00', '2024-02-10 10:50:00', '2024-02-10 10:20:00', '2024-02-10 09:50:00', '2024-02-10 09:20:00', '2024-02-10 08:50:00', '2024-02-10 08:20:00', '2024-02-10 07:50:00', '2024-02-10 07:20:00', '2024-02-10 06:50:00', '2024-02-10 06:20:00', '2024-02-10 05:50:00', '2024-02-10 05:20:00', '2024-02-10 04:50:00', '2024-02-10 04:20:00', '2024-02-10 03:50:00', '2024-02-10 03:20:00', '2024-02-10 02:50:00', '2024-02-10 01:50:00', '2024-02-10 01:20:00', '2024-02-10 00:50:00', '2024-02-10 00:20:00', '2024-02-09 23:50:00', '2024-02-09 23:20:00', '2024-02-09 22:50:00', '2024-02-09 22:20:00', '2024-02-09 21:50:00', '2024-02-09 21:20:00', '2024-02-09 20:50:00', '2024-02-09 20:20:00', '2024-02-09 19:50:00', '2024-02-09 19:20:00', '2024-02-09 18:50:00', '2024-02-09 18:20:00', '2024-02-09 17:50:00', '2024-02-09 17:20:00', '2024-02-09 16:50:00', '2024-02-09 16:20:00', '2024-02-09 15:50:00', '2024-02-09 15:20:00', '2024-02-09 14:50:00', '2024-02-09 14:20:00', '2024-02-09 13:50:00', '2024-02-09 13:20:00', '2024-02-09 12:50:00', '2024-02-09 12:20:00', '2024-02-09 11:50:00', '2024-02-09 11:20:00', '2024-02-09 10:50:00', '2024-02-09 10:20:00', '2024-02-09 09:50:00', '2024-02-09 09:20:00', '2024-02-09 08:50:00', '2024-02-09 08:20:00', '2024-02-09 07:50:00', '2024-02-09 07:20:00', '2024-02-09 06:50:00', '2024-02-09 06:20:00', '2024-02-09 05:50:00', '2024-02-09 05:20:00', '2024-02-09 04:50:00', '2024-02-09 04:20:00', '2024-02-09 03:50:00', '2024-02-09 03:20:00', '2024-02-09 02:50:00', '2024-02-09 02:20:00', '2024-02-09 01:50:00', '2024-02-09 01:20:00', '2024-02-09 00:50:00', '2024-02-09 00:20:00', '2024-02-08 23:50:00', '2024-02-08 23:20:00', '2024-02-08 22:50:00', '2024-02-08 22:20:00', '2024-02-08 21:50:00', '2024-02-08 21:20:00', '2024-02-08 20:50:00', '2024-02-08 19:50:00', '2024-02-08 19:20:00', '2024-02-08 18:50:00', '2024-02-08 18:20:00', '2024-02-08 17:50:00', '2024-02-08 17:20:00', '2024-02-08 16:50:00', '2024-02-08 16:20:00', '2024-02-08 15:50:00', '2024-02-08 15:20:00', '2024-02-08 14:50:00', '2024-02-08 14:20:00', '2024-02-08 13:50:00', '2024-02-08 13:20:00', '2024-02-08 12:50:00', '2024-02-08 12:20:00', '2024-02-08 11:50:00', '2024-02-08 11:20:00', '2024-02-08 10:50:00', '2024-02-08 10:20:00', '2024-02-08 09:50:00', '2024-02-08 09:20:00', '2024-02-08 08:50:00', '2024-02-08 08:20:00', '2024-02-08 07:50:00', '2024-02-08 07:20:00', '2024-02-08 06:50:00', '2024-02-08 06:20:00', '2024-02-08 05:50:00', '2024-02-08 05:20:00', '2024-02-08 04:50:00', '2024-02-08 04:20:00', '2024-02-08 02:50:00', '2024-02-08 02:20:00', '2024-02-08 01:50:00', '2024-02-08 01:20:00', '2024-02-08 00:50:00', '2024-02-08 00:20:00', '2024-02-07 23:50:00', '2024-02-07 23:20:00', '2024-02-07 22:50:00', '2024-02-07 22:20:00', '2024-02-07 21:50:00', '2024-02-07 21:20:00', '2024-02-07 20:50:00', '2024-02-07 20:20:00', '2024-02-07 19:50:00', '2024-02-07 19:20:00', '2024-02-07 18:50:00', '2024-02-07 18:20:00', '2024-02-07 17:50:00']"
Italy, Milan Linate Airport (LIN/LIML) ,"['LIML 101650Z 08006KT 9000 -RA SCT007 BKN015 10/09 Q0991 NOSIG', 'LIML 101620Z 08007KT 9999 -RA SCT007 BKN015 10/09 Q0991 NOSIG', 'LIML 101550Z 09007KT 8000 -RA SCT010 BKN030 10/09 Q0991 NOSIG', 'LIML 101520Z 10010KT 8000 -RA SCT010 BKN030 10/09 Q0991 NOSIG', 'LIML 101450Z 10010KT 8000 -RA SCT010 BKN030 11/09 Q0992 NOSIG', 'LIML 101420Z 09008KT 050V120 9999 -RA SCT010 BKN030 10/09 Q0992 NOSIG', 'LIML 101350Z 08007KT 040V120 8000 -RA SCT010 BKN030 10/09 Q0992 NOSIG', 'LIML 101320Z 08006KT 8000 -RA SCT010 BKN030 10/09 Q0992 NOSIG', 'LIML 101250Z 08009KT 050V110 9999 -RA SCT010 BKN030 10/09 Q0992 NOSIG', 'LIML 101220Z 10009KT 9999 -RA SCT015 BKN030 10/09 Q0992 NOSIG', 'LIML 101150Z 10009KT 060V120 6000 -RA SCT010 BKN030 10/09 Q0993 NOSIG', 'LIML 101120Z 11010KT 6000 -RA SCT010 BKN030 10/09 Q0993 RERA NOSIG', 'LIML 101050Z 11011KT 080V140 9999 -RA SCT015 BKN025 10/09 Q0994 RERA NOSIG', 'LIML 101020Z 12008KT 9999 RA SCT010 BKN030 10/09 Q0994 NOSIG', 'LIML 100950Z 12007KT 9999 RA SCT010 BKN030 10/09 Q0994 NOSIG', 'LIML 100920Z 10006KT 9999 RA SCT010 BKN030 10/09 Q0994 NOSIG', 'LIML 100850Z 11006KT 9999 RA SCT015 BKN030 09/08 Q0994 NOSIG', 'LIML 100820Z 09006KT 050V120 9999 RA SCT015 BKN030 09/08 Q0994 NOSIG', 'LIML 100750Z 09007KT 6000 RA SCT020 BKN035 09/08 Q0994 NOSIG', 'LIML 100720Z 08006KT 8000 RA SCT020 BKN035 09/08 Q0994 NOSIG', 'LIML 100650Z 08006KT 9999 RA SCT020 BKN035 09/08 Q0994 NOSIG', 'LIML 100620Z 10005KT 070V130 9999 RA SCT020 BKN035 09/08 Q0994 NOSIG', 'LIML 100550Z 10005KT 9999 RA FEW020 BKN035 09/07 Q0994 NOSIG', 'LIML 100520Z 11004KT 9999 -RA FEW020 BKN035 09/07 Q0994 NOSIG', 'LIML 100450Z 09003KT 9999 FEW020 BKN035 09/07 Q0994 NOSIG', 'LIML 100420Z 08005KT 9999 FEW025 BKN040 09/07 Q0994 NOSIG', 'LIML 100350Z 08005KT 9999 FEW020 BKN040 09/07 Q0995 NOSIG', 'LIML 100320Z 08006KT 9999 FEW015 BKN030 09/08 Q0995 NOSIG', 'LIML 100250Z 07005KT 9999 FEW015 BKN030 09/08 Q0995 NOSIG', 'LIML 100220Z 07006KT 9999 -RA SCT015 BKN025 09/08 Q0995 NOSIG', 'LIML 100150Z 08006KT 9999 -RA SCT015 BKN035 09/08 Q0996 RERA NOSIG', 'LIML 100120Z 07006KT 9999 RA SCT015 BKN035 09/08 Q0996 NOSIG', 'LIML 100050Z 09007KT 8000 RA SCT012 BKN040 10/08 Q0996 NOSIG', 'LIML 100020Z 09008KT 6000 -RA SCT008 BKN040 10/08 Q0996 NOSIG', 'LIML 092350Z 09008KT 5000 -RA BR SCT007 BKN040 10/09 Q0997 NOSIG', 'LIML 092320Z 08007KT 5000 -RA BR SCT006 BKN030 10/09 Q0997 RERA NOSIG', 'LIML 092250Z 09008KT 5000 RA BR SCT007 BKN040 10/09 Q0997 NOSIG', 'LIML 092220Z 09010KT 5000 RA BR SCT010 BKN040 10/09 Q0997 NOSIG', 'LIML 092150Z 09009KT 5000 RA SCT010 BKN030 10/09 Q0997 NOSIG', 'LIML 092120Z 10009KT 5000 RA SCT008 BKN030 10/09 Q0997 NOSIG', 'LIML 092050Z 10012KT 5000 RA SCT008 BKN030 11/10 Q0997 NOSIG', 'LIML 092020Z 10010KT 5000 -RA SCT008 BKN030 11/10 Q0997 RERA NOSIG', 'LIML 091950Z 11010KT 5000 RA SCT008 BKN020 11/10 Q0998 NOSIG', 'LIML 091920Z 11009KT 5000 RA SCT008 BKN020 11/10 Q0998 NOSIG', 'LIML 091850Z 11009KT 080V140 5000 RA SCT005 BKN020 11/10 Q0998 NOSIG', 'LIML 091820Z 11009KT 060V140 5000 -RA SCT008 BKN030 11/10 Q0998 NOSIG', 'LIML 091750Z 09009KT 5000 -RA SCT008 BKN030 11/10 Q0998 NOSIG', 'LIML 091720Z 10010KT 5000 -RA SCT008 BKN030 11/10 Q0998 NOSIG', 'LIML 091650Z 10007KT 060V130 5000 -RA SCT008 BKN030 11/10 Q0998 NOSIG', 'LIML 091620Z 10008KT 3500 -RA BR SCT008 BKN030 11/10 Q0998 NOSIG', 'LIML 091550Z 10009KT 060V120 3500 -RA BR SCT008 BKN030 11/10 Q0998 NOSIG', 'LIML 091520Z 08008KT 060V120 3000 -RA BR SCT008 BKN035 11/10 Q0998 NOSIG', 'LIML 091450Z 10011KT 2500 -RA BR SCT005 BKN020 11/10 Q0998 NOSIG', 'LIML 091420Z 11010KT 2500 -RA BR FEW005 BKN025 11/09 Q0999 NOSIG', 'LIML 091350Z 10009KT 2500 -RA BR FEW005 BKN025 11/10 Q0999 RERA NOSIG', 'LIML 091320Z 11008KT 2500 RA BR FEW006 BKN030 10/09 Q1000 NOSIG', 'LIML 091250Z 11009KT 060V130 2000 RA BR FEW005 BKN035 10/09 Q1000 NOSIG', 'LIML 091220Z 11010KT 2500 RA BR FEW006 BKN030 10/09 Q1000 NOSIG', 'LIML 091150Z 11009KT 2500 BR FEW006 BKN035 10/09 Q1001 NOSIG', 'LIML 091120Z 11009KT 080V140 2000 BR SCT006 BKN040 10/09 Q1001 NOSIG', 'LIML 091050Z 11010KT 2000 -RA BR SCT006 BKN040 10/09 Q1001 NOSIG', 'LIML 091020Z 11010KT 1800 -RA BR SCT004 BKN020 10/09 Q1002 NOSIG', 'LIML 090950Z 12008KT 090V150 1800 RA BR SCT004 BKN020 09/08 Q1002 NOSIG', 'LIML 090920Z 11007KT 2000 -RA BR SCT005 BKN025 09/08 Q1002 NOSIG', 'LIML 090850Z 11007KT 070V140 2000 -RA BR SCT005 BKN020 09/08 Q1002 NOSIG', 'LIML 090820Z 11008KT 070V130 2000 RA BR SCT005 BKN030 09/08 Q1002 NOSIG', 'LIML 090750Z 09006KT 2000 -RA BR SCT006 BKN030 09/08 Q1002 NOSIG', 'LIML 090720Z 09008KT 2000 -RA BR SCT006 BKN030 09/08 Q1002 NOSIG', 'LIML 090650Z 10008KT 4000 -RA BR SCT015 BKN035 09/08 Q1002 NOSIG', 'LIML 090620Z 09009KT 5000 -RA BR SCT015 BKN030 09/08 Q1002 NOSIG', 'LIML 090550Z 09008KT 5000 BR SCT010 BKN035 09/08 Q1002 NOSIG', 'LIML 090520Z 08006KT 040V120 5000 BR BKN007 09/08 Q1003 NOSIG', 'LIML 090450Z 09008KT 5000 -DZ BR BKN007 09/08 Q1003 NOSIG', 'LIML 090420Z 10009KT 5000 BR BKN005 09/08 Q1003 NOSIG', 'LIML 090350Z 11008KT 5000 BR SCT010 BKN035 10/08 Q1003 NOSIG', 'LIML 090320Z 11011KT 4000 BR SCT010 BKN035 10/08 Q1003 NOSIG', 'LIML 090250Z 11009KT 4000 -DZ BR SCT010 BKN035 10/08 Q1003 NOSIG', 'LIML 090220Z 11007KT 3000 -DZ BR SCT015 BKN035 10/08 Q1004 NOSIG', 'LIML 090150Z 10008KT 3000 -DZ BR SCT025 BKN035 10/08 Q1004 NOSIG', 'LIML 090120Z 09011KT 2500 -DZ BR FEW003 BKN025 10/08 Q1004 NOSIG', 'LIML 090050Z 11009KT 1500 -DZ BR BKN003 09/09 Q1005 NOSIG', 'LIML 090020Z 10008KT 1500 -RA BR BKN003 09/09 Q1005 NOSIG', 'LIML 082350Z 11007KT 1500 -DZ BR BKN003 09/09 Q1006 NOSIG', 'LIML 082320Z 09005KT 1200 R35/1900N -DZ BR BKN003 09/09 Q1006 NOSIG', 'LIML 082250Z 09005KT 1200 R35/P2000N -DZ BR BKN003 09/09 Q1007 NOSIG', 'LIML 082220Z 09006KT 060V120 2000 -DZRA BR BKN003 10/09 Q1007 NOSIG', 'LIML 082150Z 08004KT 5000 -RA BR SCT010 BKN030 10/09 Q1007 NOSIG', 'LIML 082120Z 06002KT 6000 -RA SCT020 BKN040 10/09 Q1007 NOSIG', 'LIML 082050Z VRB02KT 9999 -DZ FEW020 BKN040 11/08 Q1007 NOSIG', 'LIML 081950Z 25003KT 210V290 9999 -DZ FEW020 BKN040 11/08 Q1008 NOSIG', 'LIML 081920Z 26003KT 9999 FEW020 BKN040 12/07 Q1008 NOSIG', 'LIML 081850Z VRB02KT 9999 FEW030 BKN040 12/06 Q1008 NOSIG', 'LIML 081820Z 16003KT 9999 FEW030 BKN040 12/06 Q1008 NOSIG', 'LIML 081750Z VRB02KT 9999 FEW030 BKN040 13/06 Q1008 NOSIG', 'LIML 081720Z VRB01KT 9999 FEW030 BKN040 12/06 Q1007 NOSIG', 'LIML 081650Z 07003KT 9999 SCT030 BKN040 13/06 Q1007 NOSIG', 'LIML 081620Z VRB02KT 9999 SCT030 BKN040 13/06 Q1007 NOSIG', 'LIML 081550Z VRB01KT 9999 SCT030 BKN040 13/06 Q1008 NOSIG', 'LIML 081520Z 06003KT 9999 BKN035 14/06 Q1008 NOSIG', 'LIML 081450Z 01003KT 340V040 9999 BKN035 13/06 Q1008 NOSIG', 'LIML 081420Z VRB02KT 9999 BKN040 13/07 Q1008 NOSIG', 'LIML 081350Z 36003KT 290V040 9999 FEW035 SCT045 13/07 Q1008 NOSIG', 'LIML 081320Z 36003KT 320V030 9999 SCT035 13/07 Q1008 NOSIG', 'LIML 081250Z VRB02KT 9999 SCT035 13/07 Q1009 NOSIG', 'LIML 081220Z VRB01KT 9999 BKN035 12/07 Q1009 NOSIG', 'LIML 081150Z VRB02KT 8000 BKN035 12/07 Q1010 NOSIG', 'LIML 081120Z VRB02KT 8000 BKN035 11/07 Q1010 NOSIG', 'LIML 081050Z VRB01KT 8000 BKN035 11/08 Q1010 NOSIG', 'LIML 081020Z 17004KT 130V190 9000 SCT035 11/08 Q1010 NOSIG', 'LIML 080950Z 16003KT 110V190 9000 SCT040 11/07 Q1010 NOSIG', 'LIML 080920Z VRB01KT 9999 SCT040 11/07 Q1010 NOSIG', 'LIML 080850Z 26003KT 9999 SCT035 09/07 Q1010 NOSIG', 'LIML 080820Z VRB02KT 9999 SCT035 09/07 Q1010 NOSIG', 'LIML 080750Z 17002KT 9999 SCT035 09/07 Q1010 NOSIG', 'LIML 080720Z 26002KT 9999 SCT035 07/06 Q1010 NOSIG', 'LIML 080650Z VRB01KT 9000 SCT035 08/06 Q1009 NOSIG', 'LIML 080620Z 19002KT 9999 SCT035 SCT050 08/06 Q1009 NOSIG', 'LIML 080550Z 24002KT 9999 SCT050 07/06 Q1009 NOSIG', 'LIML 080520Z VRB01KT 9999 SCT050 08/07 Q1009 NOSIG', 'LIML 080420Z 21001KT 9999 SCT050 09/07 Q1009 NOSIG', 'LIML 080350Z 17001KT 9999 BKN050 09/07 Q1009 NOSIG', 'LIML 080320Z 14002KT 9999 BKN050 09/07 Q1009 NOSIG', 'LIML 080250Z VRB01KT 9999 BKN050 09/07 Q1009 NOSIG', 'LIML 080220Z VRB01KT 9999 BKN050 09/07 Q1010 NOSIG', 'LIML 080150Z 00000KT 9999 BKN050 09/07 Q1010 NOSIG', 'LIML 080120Z VRB01KT 9999 BKN050 09/07 Q1010 NOSIG', 'LIML 080050Z 04002KT 9999 BKN050 10/07 Q1010 NOSIG', 'LIML 080020Z VRB02KT 9999 SCT050 10/07 Q1010 NOSIG', 'LIML 072350Z 27002KT 9999 SCT050 11/07 Q1010 NOSIG', 'LIML 072320Z 31003KT 9999 SCT050 11/07 Q1010 NOSIG', 'LIML 072250Z VRB02KT 9999 SCT050 11/07 Q1010 NOSIG', 'LIML 072220Z 25003KT 9999 SCT050 11/07 Q1010 NOSIG', 'LIML 072150Z VRB02KT 9999 FEW035 SCT050 11/07 Q1011 NOSIG', 'LIML 072120Z 26003KT 9999 SCT035 SCT050 11/07 Q1011 NOSIG', 'LIML 072050Z 24002KT 9999 SCT035 SCT050 10/07 Q1011 NOSIG', 'LIML 072020Z 22002KT 9999 FEW035 SCT050 09/06 Q1011 NOSIG', 'LIML 071950Z VRB01KT 9999 SCT050 09/06 Q1011 NOSIG', 'LIML 071920Z VRB01KT 9999 FEW050 09/06 Q1011 NOSIG', 'LIML 071850Z VRB01KT 9999 FEW050 09/06 Q1011 NOSIG', 'LIML 071820Z 25002KT 9999 FEW090 09/06 Q1011 NOSIG', 'LIML 071750Z 26002KT 9999 FEW090 10/06 Q1011 NOSIG']","['2024-02-10 16:50:00', '2024-02-10 16:20:00', '2024-02-10 15:50:00', '2024-02-10 15:20:00', '2024-02-10 14:50:00', '2024-02-10 14:20:00', '2024-02-10 13:50:00', '2024-02-10 13:20:00', '2024-02-10 12:50:00', '2024-02-10 12:20:00', '2024-02-10 11:50:00', '2024-02-10 11:20:00', '2024-02-10 10:50:00', '2024-02-10 10:20:00', '2024-02-10 09:50:00', '2024-02-10 09:20:00', '2024-02-10 08:50:00', '2024-02-10 08:20:00', '2024-02-10 07:50:00', '2024-02-10 07:20:00', '2024-02-10 06:50:00', '2024-02-10 06:20:00', '2024-02-10 05:50:00', '2024-02-10 05:20:00', '2024-02-10 04:50:00', '2024-02-10 04:20:00', '2024-02-10 03:50:00', '2024-02-10 03:20:00', '2024-02-10 02:50:00', '2024-02-10 02:20:00', '2024-02-10 01:50:00', '2024-02-10 01:20:00', '2024-02-10 00:50:00', '2024-02-10 00:20:00', '2024-02-09 23:50:00', '2024-02-09 23:20:00', '2024-02-09 22:50:00', '2024-02-09 22:20:00', '2024-02-09 21:50:00', '2024-02-09 21:20:00', '2024-02-09 20:50:00', '2024-02-09 20:20:00', '2024-02-09 19:50:00', '2024-02-09 19:20:00', '2024-02-09 18:50:00', '2024-02-09 18:20:00', '2024-02-09 17:50:00', '2024-02-09 17:20:00', '2024-02-09 16:50:00', '2024-02-09 16:20:00', '2024-02-09 15:50:00', '2024-02-09 15:20:00', '2024-02-09 14:50:00', '2024-02-09 14:20:00', '2024-02-09 13:50:00', '2024-02-09 13:20:00', '2024-02-09 12:50:00', '2024-02-09 12:20:00', '2024-02-09 11:50:00', '2024-02-09 11:20:00', '2024-02-09 10:50:00', '2024-02-09 10:20:00', '2024-02-09 09:50:00', '2024-02-09 09:20:00', '2024-02-09 08:50:00', '2024-02-09 08:20:00', '2024-02-09 07:50:00', '2024-02-09 07:20:00', '2024-02-09 06:50:00', '2024-02-09 06:20:00', '2024-02-09 05:50:00', '2024-02-09 05:20:00', '2024-02-09 04:50:00', '2024-02-09 04:20:00', '2024-02-09 03:50:00', '2024-02-09 03:20:00', '2024-02-09 02:50:00', '2024-02-09 02:20:00', '2024-02-09 01:50:00', '2024-02-09 01:20:00', '2024-02-09 00:50:00', '2024-02-09 00:20:00', '2024-02-08 23:50:00', '2024-02-08 23:20:00', '2024-02-08 22:50:00', '2024-02-08 22:20:00', '2024-02-08 21:50:00', '2024-02-08 21:20:00', '2024-02-08 20:50:00', '2024-02-08 19:50:00', '2024-02-08 19:20:00', '2024-02-08 18:50:00', '2024-02-08 18:20:00', '2024-02-08 17:50:00', '2024-02-08 17:20:00', '2024-02-08 16:50:00', '2024-02-08 16:20:00', '2024-02-08 15:50:00', '2024-02-08 15:20:00', '2024-02-08 14:50:00', '2024-02-08 14:20:00', '2024-02-08 13:50:00', '2024-02-08 13:20:00', '2024-02-08 12:50:00', '2024-02-08 12:20:00', '2024-02-08 11:50:00', '2024-02-08 11:20:00', '2024-02-08 10:50:00', '2024-02-08 10:20:00', '2024-02-08 09:50:00', '2024-02-08 09:20:00', '2024-02-08 08:50:00', '2024-02-08 08:20:00', '2024-02-08 07:50:00', '2024-02-08 07:20:00', '2024-02-08 06:50:00', '2024-02-08 06:20:00', '2024-02-08 05:50:00', '2024-02-08 05:20:00', '2024-02-08 04:20:00', '2024-02-08 03:50:00', '2024-02-08 03:20:00', '2024-02-08 02:50:00', '2024-02-08 02:20:00', '2024-02-08 01:50:00', '2024-02-08 01:20:00', '2024-02-08 00:50:00', '2024-02-08 00:20:00', '2024-02-07 23:50:00', '2024-02-07 23:20:00', '2024-02-07 22:50:00', '2024-02-07 22:20:00', '2024-02-07 21:50:00', '2024-02-07 21:20:00', '2024-02-07 20:50:00', '2024-02-07 20:20:00', '2024-02-07 19:50:00', '2024-02-07 19:20:00', '2024-02-07 18:50:00', '2024-02-07 18:20:00', '2024-02-07 17:50:00']"
Italy, Milan Malpensa Airport (MXP/LIMC) ,"['LIMC 101650Z 01008KT 4000 -RA BR OVC007 07/06 Q0991 RERA NOSIG', 'LIMC 101620Z 01010KT 4000 RA OVC010 07/06 Q0991 NOSIG', 'LIMC 101550Z 01009KT 4000 RA BR OVC010 07/06 Q0991 NOSIG', 'LIMC 101520Z 36008KT 4000 RA OVC010 07/06 Q0992 NOSIG', 'LIMC 101450Z 36008KT 4000 RA BR OVC010 07/06 Q0992 NOSIG', 'LIMC 101420Z 35008KT 4000 RA OVC010 08/06 Q0992 NOSIG', 'LIMC 101350Z 01007KT 4000 RA OVC010 08/06 Q0992 NOSIG', 'LIMC 101320Z 36008KT 7000 RA BKN009 OVC018 08/07 Q0992 NOSIG', 'LIMC 101250Z 02007KT 7000 RA BKN007 OVC010 08/07 Q0993 NOSIG', 'LIMC 101220Z 02008KT 7000 RA BKN004 OVC009 08/06 Q0993 NOSIG', 'LIMC 101150Z 01009KT 7000 RA BKN005 OVC012 08/06 Q0993 NOSIG', 'LIMC 101120Z 02009KT 6000 +RA BKN005 08/06 Q0994 NOSIG', 'LIMC 101050Z 06006KT 6000 +RA BKN005 09/08 Q0994 NOSIG', 'LIMC 101020Z 11006KT 6000 +RA BKN007 OVC010 09/08 Q0994 NOSIG', 'LIMC 100950Z 11007KT 6000 RA BKN009 09/08 Q0994 NOSIG', 'LIMC 100920Z 11009KT 8000 RA BKN008 09/08 Q0994 NOSIG', 'LIMC 100850Z 11009KT 8000 RA BKN008 09/07 Q0994 NOSIG', 'LIMC 100820Z 13004KT 090V190 9999 RA BKN006 09/07 Q0995 NOSIG', 'LIMC 100750Z 08007KT 050V110 9000 RA BKN007 09/07 Q0994 NOSIG', 'LIMC 100720Z 03007KT 8000 RA BKN008 08/06 Q0994 NOSIG', 'LIMC 100650Z 36006KT 300V040 8000 RA BKN007 08/07 Q0994 NOSIG', 'LIMC 100620Z 01005KT 330V030 9999 RA BKN010 07/06 Q0994 NOSIG', 'LIMC 100550Z 01006KT 6000 RA BKN010 07/06 Q0994 NOSIG', 'LIMC 100520Z 01007KT 5000 RA BKN008 07/06 Q0994 NOSIG', 'LIMC 100450Z 01007KT 6000 -RA BKN008 07/06 Q0994 NOSIG', 'LIMC 100420Z 01007KT 7000 -RA BKN008 07/06 Q0994 NOSIG', 'LIMC 100350Z 36006KT 6000 -RA BKN006 07/06 Q0995 NOSIG', 'LIMC 100320Z 01006KT 7000 RA BKN008 07/06 Q0995 NOSIG', 'LIMC 100250Z 34008KT 6000 RA BKN006 08/06 Q0995 NOSIG', 'LIMC 100220Z 35007KT 5000 RA BKN006 08/07 Q0996 NOSIG', 'LIMC 100150Z 04004KT 5000 RA BKN006 09/08 Q0996 NOSIG', 'LIMC 100120Z VRB02KT 5000 RA BKN006 09/08 Q0996 NOSIG', 'LIMC 100050Z 08005KT 5000 RA BKN006 09/08 Q0996 NOSIG', 'LIMC 100020Z 09007KT 7000 -RA BKN008 09/08 Q0997 RERA NOSIG', 'LIMC 092320Z 11010KT 5000 RA BKN006 09/08 Q0997 NOSIG', 'LIMC 092250Z 10008KT 5000 RA BKN006 09/08 Q0997 NOSIG', 'LIMC 092220Z 11008KT 5000 RA BKN006 10/08 Q0997 NOSIG', 'LIMC 092150Z 11009KT 5000 -RA BR BKN006 10/08 Q0997 NOSIG', 'LIMC 092120Z 11011KT 7000 -RA BKN006 10/08 Q0997 NOSIG', 'LIMC 092050Z 11010KT 7000 -RA BKN008 10/08 Q0997 RERA NOSIG', 'LIMC 092020Z 12012KT 6000 RA BKN006 10/08 Q0997 NOSIG', 'LIMC 091950Z 12011KT 090V150 5000 RA BR BKN006 OVC013 10/09 Q0997 NOSIG', 'LIMC 091920Z 11013KT 6000 RA BKN006 OVC015 10/09 Q0997 NOSIG', 'LIMC 091850Z 11013KT 6000 RA BKN006 BKN030 10/09 Q0997 NOSIG', 'LIMC 091820Z 11013KT 6000 RA BKN006 OVC015 10/09 Q0997 NOSIG', 'LIMC 091750Z 11011KT 6000 RA BKN006 BKN015 10/09 Q0997 NOSIG', 'LIMC 091720Z 11010KT 5000 RA BR BKN006 OVC014 10/09 Q0997 NOSIG', 'LIMC 091650Z 11012KT 5000 RA BR BKN005 OVC015 10/09 Q0997 NOSIG', 'LIMC 091620Z 12011KT 5000 RA BR BKN005 OVC015 10/09 Q0998 NOSIG', 'LIMC 091550Z 11011KT 4000 RA BR BKN005 OVC020 10/09 Q0998 NOSIG', 'LIMC 091520Z 11011KT 3000 RA BR BKN004 OVC015 10/09 Q0998 NOSIG', 'LIMC 091450Z 12009KT 3000 +RA BR BKN004 OVC010 10/08 Q0998 NOSIG', 'LIMC 091420Z 12009KT 2500 RA BR OVC004 10/08 Q0999 NOSIG', 'LIMC 091350Z 12010KT 2500 RA BR OVC004 10/08 Q0999 NOSIG', 'LIMC 091320Z 11009KT 1500 RA BR OVC004 10/08 Q0999 NOSIG', 'LIMC 091250Z 12010KT 2000 RA BR OVC004 10/08 Q0999 NOSIG', 'LIMC 091220Z 12009KT 2000 -RA BR OVC003 09/08 Q1000 NOSIG', 'LIMC 091150Z 14007KT 110V170 1800 -RA BR OVC003 09/08 Q1001 NOSIG', 'LIMC 091120Z 12006KT 2000 -RA BR OVC003 09/08 Q1001 NOSIG', 'LIMC 091050Z 10005KT 1800 -RA OVC004 09/08 Q1001 NOSIG', 'LIMC 091020Z 11006KT 080V140 1800 -RA BR OVC004 09/08 Q1001 RERA NOSIG', 'LIMC 090950Z 11006KT 070V130 1800 RA BR OVC004 09/07 Q1002 NOSIG', 'LIMC 090920Z 14004KT 090V180 1800 -RA BR OVC005 09/08 Q1002 RERA NOSIG', 'LIMC 090850Z 15003KT 100V190 1500 RA BR OVC004 09/07 Q1002 NOSIG', 'LIMC 090820Z 13006KT 1500 RA BR OVC004 09/07 Q1002 NOSIG', 'LIMC 090750Z 12006KT 1500 RA BR OVC004 09/07 Q1002 NOSIG', 'LIMC 090720Z 12005KT 090V150 1500 RA BR OVC005 09/07 Q1002 NOSIG', 'LIMC 090650Z 10006KT 2000 -DZ OVC006 09/07 Q1002 NOSIG', 'LIMC 090620Z 10005KT 4000 -DZ BR BKN006 09/07 Q1002 NOSIG', 'LIMC 090550Z 12007KT 4000 -DZ BR BKN006 09/07 Q1002 NOSIG', 'LIMC 090520Z 11008KT 4000 -DZ BR BKN006 09/07 Q1002 REDZ NOSIG', 'LIMC 090450Z 11009KT 2500 DZ BR SCT004 BKN010 09/08 Q1002 NOSIG', 'LIMC 090420Z 11007KT 1500 DZ BR SCT004 BKN010 09/07 Q1003 NOSIG', 'LIMC 090350Z 12005KT 080V150 2500 DZ BCFG SCT004 BKN010 09/07 Q1003 NOSIG', 'LIMC 090320Z 12005KT 090V160 1500 DZ BCFG SCT004 BKN010 09/08 Q1003 NOSIG', 'LIMC 090250Z 11004KT 070V150 1500 DZ BCFG SCT004 BKN010 09/08 Q1003 NOSIG', 'LIMC 090220Z 12003KT 090V150 1500 DZ BCFG SCT004 BKN010 09/08 Q1004 NOSIG', 'LIMC 090150Z 09004KT 070V130 1500 DZ BCFG SCT004 BKN010 09/08 Q1004 NOSIG', 'LIMC 090120Z 06004KT 1500 DZ BCFG SCT004 BKN010 09/08 Q1004 NOSIG', 'LIMC 090050Z 02005KT 1500 DZ BCFG SCT004 BKN010 09/08 Q1005 NOSIG', 'LIMC 090020Z 02003KT 1500 DZ BCFG SCT004 BKN010 09/08 Q1005 NOSIG', 'LIMC 082350Z 02004KT 1500 DZ BCFG SCT004 BKN010 09/08 Q1006 NOSIG', 'LIMC 082320Z 02004KT 1500 DZ BCFG SCT004 BKN010 09/08 Q1006 NOSIG', 'LIMC 082250Z 03004KT 1500 DZ BCFG SCT004 BKN010 09/08 Q1006 NOSIG', 'LIMC 082220Z VRB01KT 1500 DZ BCFG SCT004 BKN010 09/08 Q1007 NOSIG', 'LIMC 082150Z 03002KT 1500 DZ BCFG SCT004 BKN010 09/08 Q1007 NOSIG', 'LIMC 082120Z 06002KT 1500 DZ BCFG SCT004 BKN010 09/08 Q1007 NOSIG', 'LIMC 082050Z VRB01KT 1500 DZ SCT004 BKN010 09/08 Q1007 NOSIG', 'LIMC 081950Z VRB02KT 4000 DZ BKN040 09/07 Q1007 NOSIG', 'LIMC 081920Z 18004KT 4000 DZ BKN040 09/07 Q1008 NOSIG', 'LIMC 081850Z 19005KT 8000 DZ BKN035 10/06 Q1008 NOSIG', 'LIMC 081820Z 18004KT 130V250 9999 BKN030 11/05 Q1008 NOSIG', 'LIMC 081750Z 19004KT 9999 BKN040 11/04 Q1008 NOSIG', 'LIMC 081720Z 03005KT 010V110 9999 BKN040 11/04 Q1007 NOSIG', 'LIMC 081650Z 02002KT 9999 BKN040 11/04 Q1007 NOSIG', 'LIMC 081620Z 02002KT 9999 BKN040 12/04 Q1007 NOSIG', 'LIMC 081550Z 16003KT 130V210 9999 BKN040 12/04 Q1008 NOSIG', 'LIMC 081520Z VRB02KT 9999 BKN040 13/03 Q1008 NOSIG', 'LIMC 081450Z VRB01KT 9999 BKN040 13/03 Q1008 NOSIG', 'LIMC 081420Z VRB02KT 9999 BKN040 12/03 Q1009 NOSIG', 'LIMC 081350Z VRB01KT 9999 BKN040 12/03 Q1008 NOSIG', 'LIMC 081320Z VRB01KT 9999 BKN040 13/03 Q1009 NOSIG', 'LIMC 081250Z VRB02KT 9999 BKN040 13/04 Q1009 NOSIG', 'LIMC 081220Z 33003KT 300V010 9999 BKN040 12/04 Q1009 NOSIG', 'LIMC 081150Z 32003KT 280V360 9999 BKN040 11/03 Q1010 NOSIG', 'LIMC 081120Z VRB02KT 9999 BKN040 11/03 Q1010 NOSIG', 'LIMC 081050Z VRB02KT 9999 BKN030 12/03 Q1010 NOSIG', 'LIMC 081020Z VRB02KT 9999 SCT040 11/03 Q1010 NOSIG', 'LIMC 080950Z VRB01KT CAVOK 12/03 Q1010 NOSIG', 'LIMC 080920Z 02003KT 340V070 9999 SCT030 10/03 Q1010 NOSIG', 'LIMC 080850Z 01005KT 9999 BKN040 09/03 Q1010 NOSIG', 'LIMC 080820Z 36006KT 9999 BKN040 08/03 Q1010 NOSIG', 'LIMC 080750Z 35005KT 9999 BKN040 08/03 Q1010 NOSIG', 'LIMC 080720Z 36005KT 9999 BKN035 07/03 Q1009 NOSIG', 'LIMC 080650Z 35005KT 9999 BKN040 07/03 Q1009 NOSIG', 'LIMC 080620Z 35005KT 9999 BKN030 07/03 Q1009 NOSIG', 'LIMC 080550Z 01006KT 9999 BKN030 07/04 Q1009 NOSIG', 'LIMC 080520Z 01006KT 9999 BKN030 07/04 Q1009 NOSIG', 'LIMC 080450Z 01006KT 9999 BKN040 07/04 Q1009 NOSIG', 'LIMC 080420Z 36004KT 9999 BKN040 07/04 Q1009 NOSIG', 'LIMC 080350Z 36003KT 9999 BKN040 08/04 Q1009 NOSIG', 'LIMC 080320Z 01005KT 9999 BKN040 07/04 Q1009 NOSIG', 'LIMC 080250Z 01005KT 9999 BKN040 07/04 Q1009 NOSIG', 'LIMC 080220Z 34004KT 9999 BKN040 08/04 Q1010 NOSIG', 'LIMC 080150Z 35004KT 9999 BKN040 08/04 Q1010 NOSIG', 'LIMC 080120Z 01005KT 9999 BKN040 07/04 Q1010 NOSIG', 'LIMC 080050Z 34004KT 9999 BKN040 08/04 Q1010 NOSIG', 'LIMC 080020Z VRB02KT 9999 BKN030 08/05 Q1010 NOSIG', 'LIMC 072320Z 02004KT 9999 BKN030 08/05 Q1011 NOSIG', 'LIMC 072250Z 03003KT 9999 BKN030 08/05 Q1011 NOSIG', 'LIMC 072220Z 03003KT 9999 BKN030 08/05 Q1011 NOSIG', 'LIMC 072150Z 03003KT 9999 BKN040 08/05 Q1011 NOSIG', 'LIMC 072120Z 03004KT 9999 BKN040 08/05 Q1011 NOSIG', 'LIMC 072050Z 03003KT 9999 BKN040 07/04 Q1011 NOSIG', 'LIMC 072020Z VRB02KT 9999 BKN040 07/04 Q1011 NOSIG', 'LIMC 071950Z 03004KT 9999 SCT043 06/04 Q1011 NOSIG', 'LIMC 071920Z 03003KT 9999 FEW045 07/04 Q1011 NOSIG', 'LIMC 071850Z VRB02KT CAVOK 07/03 Q1011 NOSIG', 'LIMC 071820Z VRB01KT CAVOK 08/04 Q1011 NOSIG', 'LIMC 071750Z 23003KT 200V260 CAVOK 11/05 Q1011 NOSIG']","['2024-02-10 16:50:00', '2024-02-10 16:20:00', '2024-02-10 15:50:00', '2024-02-10 15:20:00', '2024-02-10 14:50:00', '2024-02-10 14:20:00', '2024-02-10 13:50:00', '2024-02-10 13:20:00', '2024-02-10 12:50:00', '2024-02-10 12:20:00', '2024-02-10 11:50:00', '2024-02-10 11:20:00', '2024-02-10 10:50:00', '2024-02-10 10:20:00', '2024-02-10 09:50:00', '2024-02-10 09:20:00', '2024-02-10 08:50:00', '2024-02-10 08:20:00', '2024-02-10 07:50:00', '2024-02-10 07:20:00', '2024-02-10 06:50:00', '2024-02-10 06:20:00', '2024-02-10 05:50:00', '2024-02-10 05:20:00', '2024-02-10 04:50:00', '2024-02-10 04:20:00', '2024-02-10 03:50:00', '2024-02-10 03:20:00', '2024-02-10 02:50:00', '2024-02-10 02:20:00', '2024-02-10 01:50:00', '2024-02-10 01:20:00', '2024-02-10 00:50:00', '2024-02-10 00:20:00', '2024-02-09 23:20:00', '2024-02-09 22:50:00', '2024-02-09 22:20:00', '2024-02-09 21:50:00', '2024-02-09 21:20:00', '2024-02-09 20:50:00', '2024-02-09 20:20:00', '2024-02-09 19:50:00', '2024-02-09 19:20:00', '2024-02-09 18:50:00', '2024-02-09 18:20:00', '2024-02-09 17:50:00', '2024-02-09 17:20:00', '2024-02-09 16:50:00', '2024-02-09 16:20:00', '2024-02-09 15:50:00', '2024-02-09 15:20:00', '2024-02-09 14:50:00', '2024-02-09 14:20:00', '2024-02-09 13:50:00', '2024-02-09 13:20:00', '2024-02-09 12:50:00', '2024-02-09 12:20:00', '2024-02-09 11:50:00', '2024-02-09 11:20:00', '2024-02-09 10:50:00', '2024-02-09 10:20:00', '2024-02-09 09:50:00', '2024-02-09 09:20:00', '2024-02-09 08:50:00', '2024-02-09 08:20:00', '2024-02-09 07:50:00', '2024-02-09 07:20:00', '2024-02-09 06:50:00', '2024-02-09 06:20:00', '2024-02-09 05:50:00', '2024-02-09 05:20:00', '2024-02-09 04:50:00', '2024-02-09 04:20:00', '2024-02-09 03:50:00', '2024-02-09 03:20:00', '2024-02-09 02:50:00', '2024-02-09 02:20:00', '2024-02-09 01:50:00', '2024-02-09 01:20:00', '2024-02-09 00:50:00', '2024-02-09 00:20:00', '2024-02-08 23:50:00', '2024-02-08 23:20:00', '2024-02-08 22:50:00', '2024-02-08 22:20:00', '2024-02-08 21:50:00', '2024-02-08 21:20:00', '2024-02-08 20:50:00', '2024-02-08 19:50:00', '2024-02-08 19:20:00', '2024-02-08 18:50:00', '2024-02-08 18:20:00', '2024-02-08 17:50:00', '2024-02-08 17:20:00', '2024-02-08 16:50:00', '2024-02-08 16:20:00', '2024-02-08 15:50:00', '2024-02-08 15:20:00', '2024-02-08 14:50:00', '2024-02-08 14:20:00', '2024-02-08 13:50:00', '2024-02-08 13:20:00', '2024-02-08 12:50:00', '2024-02-08 12:20:00', '2024-02-08 11:50:00', '2024-02-08 11:20:00', '2024-02-08 10:50:00', '2024-02-08 10:20:00', '2024-02-08 09:50:00', '2024-02-08 09:20:00', '2024-02-08 08:50:00', '2024-02-08 08:20:00', '2024-02-08 07:50:00', '2024-02-08 07:20:00', '2024-02-08 06:50:00', '2024-02-08 06:20:00', '2024-02-08 05:50:00', '2024-02-08 05:20:00', '2024-02-08 04:50:00', '2024-02-08 04:20:00', '2024-02-08 03:50:00', '2024-02-08 03:20:00', '2024-02-08 02:50:00', '2024-02-08 02:20:00', '2024-02-08 01:50:00', '2024-02-08 01:20:00', '2024-02-08 00:50:00', '2024-02-08 00:20:00', '2024-02-07 23:20:00', '2024-02-07 22:50:00', '2024-02-07 22:20:00', '2024-02-07 21:50:00', '2024-02-07 21:20:00', '2024-02-07 20:50:00', '2024-02-07 20:20:00', '2024-02-07 19:50:00', '2024-02-07 19:20:00', '2024-02-07 18:50:00', '2024-02-07 18:20:00', '2024-02-07 17:50:00']"
Italy, Naples Airport (NAP/LIRN) ,"['LIRN 101720Z 17008KT 080V230 7000 -RA SCT020 BKN060 14/11 Q0996 NOSIG', 'LIRN 101650Z VRB09G19KT 9999 SCT020 BKN060 14/10 Q0996 NOSIG', 'LIRN 101620Z VRB06KT 9999 SCT015 OVC060 13/11 Q0996 NOSIG', 'LIRN 101550Z 18008KT 130V230 6000 -RA SCT015 OVC060 13/11 Q0997 NOSIG', 'LIRN 101520Z 18008G18KT 130V230 7000 -RA SCT015 OVC060 13/11 Q0997 NOSIG', 'LIRN 101450Z 17016KT 6000 -RA SCT015 OVC060 13/11 Q0997 NOSIG', 'LIRN 101420Z 18009G23KT 140V220 6000 -RA SCT015 OVC060 13/12 Q0998 NOSIG', 'LIRN 101350Z 18013G23KT 130V210 6000 -RA SCT015 OVC060 13/11 Q0998 NOSIG', 'LIRN 101320Z 19012KT 140V210 6000 -RA SCT020 OVC070 13/11 Q0999 NOSIG', 'LIRN 101250Z 19010KT 150V210 6000 -RA SCT020 OVC070 13/11 Q0999 NOSIG', 'LIRN 101220Z 20013G27KT 160V220 7000 -RA SCT020 OVC070 13/11 Q1000 NOSIG', 'LIRN 101150Z 19014G24KT 6000 -RA SCT020 OVC070 14/11 Q1000 NOSIG', 'LIRN 101120Z 18011G22KT 130V230 6000 -RA SCT020 OVC070 14/10 Q1000 NOSIG', 'LIRN 101050Z 18011G21KT 120V220 9000 -RA SCT020 BKN070 16/10 Q1001 NOSIG', 'LIRN 101020Z 17011G25KT 100V230 7000 -RA SCT020 BKN070 17/09 Q1001 NOSIG', 'LIRN 100950Z 16009G22KT 070V230 9999 -RA BKN070 17/06 Q1000 NOSIG', 'LIRN 100920Z VRB08KT 9999 -RA BKN070 17/07 Q1001 NOSIG', 'LIRN 100850Z 17007KT 110V220 9999 -RA BKN070 16/08 Q1001 NOSIG', 'LIRN 100820Z VRB04KT 9000 -RA BKN070 16/09 Q1001 NOSIG', 'LIRN 100750Z 18010KT 150V220 7000 -RA SCT040 BKN070 15/10 Q1001 NOSIG', 'LIRN 100720Z 18013G26KT 140V210 8000 -RA BKN070 15/06 Q1001 NOSIG', 'LIRN 100650Z 18010G24KT 100V230 9000 -RA BKN070 17/06 Q1001 NOSIG', 'LIRN 100620Z 18008KT 100V240 9000 -RA BKN070 17/08 Q1001 NOSIG', 'LIRN 100550Z 19010KT 150V210 8000 -DZ BKN080 17/06 Q1001 NOSIG', 'LIRN 100520Z 19010G20KT 130V230 9999 -DZ SCT080 17/08 Q1001 NOSIG', 'LIRN 100450Z 19009KT 140V220 9999 -DZ SCT080 17/09 Q1001 NOSIG', 'LIRN 100420Z 18008KT 100V220 9999 SCT080 17/08 Q1001 NOSIG', 'LIRN 100350Z 19009KT 110V230 9999 SCT080 17/08 Q1002 NOSIG', 'LIRN 100320Z 18009KT 140V210 9999 SCT080 17/08 Q1002 NOSIG', 'LIRN 100250Z 18010KT 140V220 9999 SCT080 17/08 Q1002 NOSIG', 'LIRN 100220Z 19010KT 140V210 9999 SCT080 17/07 Q1002 NOSIG', 'LIRN 100150Z 18009KT 150V220 9999 SCT080 17/06 Q1002 NOSIG', 'LIRN 100120Z 19008KT 150V230 9999 SCT080 17/06 Q1002 NOSIG', 'LIRN 100050Z 18006KT 130V220 9999 SCT080 17/06 Q1003 NOSIG', 'LIRN 100020Z 18006KT 080V250 9999 BKN080 17/06 Q1003 NOSIG', 'LIRN 092350Z 21008KT 9999 BKN080 17/07 Q1003 NOSIG', 'LIRN 092320Z 20004KT 160V250 9999 BKN080 15/06 Q1004 NOSIG', 'LIRN 092250Z 19004KT 160V230 9999 BKN080 15/06 Q1004 NOSIG', 'LIRN 092220Z VRB02KT 9999 BKN080 14/05 Q1005 NOSIG', 'LIRN 092150Z VRB01KT 9999 BKN080 13/04 Q1005 NOSIG', 'LIRN 092120Z VRB03KT 9999 BKN080 14/04 Q1005 NOSIG', 'LIRN 092050Z 31003KT 250V010 9999 BKN080 13/04 Q1005 NOSIG', 'LIRN 092020Z 03005KT 360V060 9999 SCT080 16/04 Q1006 NOSIG', 'LIRN 091950Z 36003KT 9999 SCT080 14/04 Q1006 NOSIG', 'LIRN 091920Z VRB02KT 9999 BKN080 14/04 Q1006 NOSIG', 'LIRN 091850Z 34003KT 9999 BKN080 13/04 Q1006', 'LIRN 091820Z 30004KT 260V340 9999 BKN080 14/04 Q1007 NOSIG', 'LIRN 091750Z 06004KT 360V100 9999 BKN080 15/04 Q1006 NOSIG', 'LIRN 091720Z 15004KT 080V220 9999 BKN080 16/03 Q1006 NOSIG', 'LIRN 091650Z 16004KT 090V260 9999 BKN080 16/03 Q1006 NOSIG', 'LIRN 091620Z 18004KT 090V250 9999 BKN080 16/05 Q1006 NOSIG', 'LIRN 091550Z VRB05KT 9999 BKN080 16/04 Q1007 NOSIG', 'LIRN 091520Z 18006KT 150V210 9999 BKN080 16/06 Q1007 NOSIG', 'LIRN 091450Z 19009KT 150V210 CAVOK 16/08 Q1007 NOSIG', 'LIRN 091420Z 19010KT 160V220 CAVOK 16/08 Q1008 NOSIG', 'LIRN 091350Z 19010KT 170V230 CAVOK 16/09 Q1008 NOSIG', 'LIRN 091320Z 21009KT 9999 FEW020 15/10 Q1009 NOSIG', 'LIRN 091250Z 20009KT 170V240 9999 FEW025 15/10 Q1009 NOSIG', 'LIRN 091220Z 19009KT 130V240 9999 FEW025 16/10 Q1010 NOSIG', 'LIRN 091150Z 19008KT 150V220 9999 FEW025 16/10 Q1010 NOSIG', 'LIRN 091120Z 19009KT 9999 FEW025 16/10 Q1011 NOSIG', 'LIRN 091050Z 19009KT 150V220 9999 FEW025 15/11 Q1011 NOSIG', 'LIRN 091020Z 19007KT 160V220 9999 SCT025 16/10 Q1011 NOSIG', 'LIRN 090950Z 19008KT 160V230 9999 SCT020 15/11 Q1012 NOSIG', 'LIRN 090920Z 19009KT 160V220 9999 SCT020 15/11 Q1012 NOSIG', 'LIRN 090850Z 18007KT 140V210 9999 SCT025 15/11 Q1012 NOSIG', 'LIRN 090820Z 18007KT 130V230 9999 FEW015 SCT030 15/11 Q1012 NOSIG', 'LIRN 090750Z 18005KT 110V230 9999 FEW015 SCT030 15/11 Q1012 NOSIG', 'LIRN 090720Z VRB01KT 9999 FEW020 SCT030 12/09 Q1012 NOSIG', 'LIRN 090650Z VRB02KT 9999 BKN025 11/08 Q1012 NOSIG', 'LIRN 090620Z VRB02KT 9999 FEW015 SCT030 11/08 Q1012 NOSIG', 'LIRN 090550Z 06003KT 030V110 9999 FEW015 SCT025 11/08 Q1012 NOSIG', 'LIRN 090520Z 06003KT 040V100 9999 SCT035 10/07 Q1012 NOSIG', 'LIRN 090450Z VRB02KT 9999 FEW015 SCT035 12/08 Q1012 NOSIG', 'LIRN 090420Z 06003KT 030V100 9999 SCT015 10/07 Q1012 NOSIG', 'LIRN 090350Z VRB02KT 9999 SCT030 11/08 Q1012 NOSIG', 'LIRN 090320Z 05003KT 9999 SCT025 11/08 Q1013 NOSIG', 'LIRN 090250Z 08003KT 060V140 9999 SCT030 11/09 Q1013 NOSIG', 'LIRN 090220Z VRB02KT 9999 FEW025 11/09 Q1013 NOSIG', 'LIRN 090150Z VRB02KT 9999 FEW015 10/08 Q1013 NOSIG', 'LIRN 090120Z VRB02KT 9999 FEW015 10/08 Q1013 NOSIG', 'LIRN 090050Z VRB02KT 9999 FEW015 11/08 Q1013 NOSIG', 'LIRN 090020Z VRB02KT CAVOK 09/07 Q1014 NOSIG', 'LIRN 082350Z VRB01KT CAVOK 11/08 Q1014 NOSIG', 'LIRN 082320Z 18002KT 9999 FEW025 11/09 Q1014 NOSIG', 'LIRN 082250Z VRB02KT 9999 FEW025 10/08 Q1014 NOSIG', 'LIRN 082220Z VRB02KT 9999 FEW015 SCT025 12/09 Q1014 NOSIG', 'LIRN 082150Z VRB01KT 9999 BKN025 12/10 Q1015 NOSIG', 'LIRN 082120Z VRB01KT 9999 BKN020 12/10 Q1014 NOSIG', 'LIRN 082050Z VRB01KT 9999 BKN020 12/09 Q1015 NOSIG', 'LIRN 081950Z 21002KT 9999 BKN030 12/09 Q1014 NOSIG', 'LIRN 081920Z 23003KT 190V260 9999 FEW030 10/07 Q1014 NOSIG', 'LIRN 081850Z VRB02KT 9999 FEW035 12/09 Q1014 NOSIG', 'LIRN 081820Z 20003KT 160V230 9999 FEW035 13/09 Q1014 NOSIG', 'LIRN 081750Z 20004KT 9999 SCT035 13/09 Q1014 NOSIG', 'LIRN 081720Z 18003KT 9999 FEW035 13/09 Q1014 NOSIG', 'LIRN 081650Z 21004KT 9999 FEW030 13/09 Q1014 NOSIG', 'LIRN 081620Z 20004KT 170V230 9999 FEW030 14/09 Q1014 NOSIG', 'LIRN 081550Z 21006KT 9999 SCT030 14/09 Q1014 NOSIG', 'LIRN 081520Z 19008KT 160V220 9999 SCT035 15/09 Q1014 NOSIG', 'LIRN 081450Z 25005KT 220V340 9999 SCT030 16/08 Q1014 NOSIG', 'LIRN 081420Z 26007KT 250V040 9999 SCT030 15/08 Q1014 NOSIG', 'LIRN 081350Z 25008KT 9999 SCT035 15/08 Q1014 NOSIG', 'LIRN 081320Z 27009KT 9999 SCT045 16/09 Q1014 NOSIG', 'LIRN 081250Z 27010KT 9999 SCT045 16/08 Q1014 NOSIG', 'LIRN 081220Z 26008KT 210V300 9999 FEW030 SCT045 16/08 Q1014 NOSIG', 'LIRN 081150Z 25008KT 210V270 9999 FEW030 SCT045 16/08 Q1015 NOSIG', 'LIRN 081120Z 27007KT 240V300 9999 FEW030 SCT045 16/08 Q1015 NOSIG', 'LIRN 081050Z 26010KT 9999 SCT030 16/09 Q1015 NOSIG', 'LIRN 081020Z 27009KT 9999 FEW025 SCT035 15/09 Q1016 NOSIG', 'LIRN 080950Z 25008KT 9999 FEW030 SCT045 15/10 Q1016 NOSIG', 'LIRN 080920Z 26006KT 220V300 9999 FEW025 SCT050 15/09 Q1015 NOSIG', 'LIRN 080850Z VRB05KT 9999 FEW020 SCT045 15/10 Q1015 NOSIG', 'LIRN 080820Z 23005KT 9999 FEW040 SCT050 14/09 Q1015 NOSIG', 'LIRN 080750Z 22004KT 190V250 9999 FEW040 SCT050 13/09 Q1015 NOSIG', 'LIRN 080720Z 26004KT 9999 FEW040 SCT050 12/09 Q1015 NOSIG', 'LIRN 080650Z 26005KT 9999 FEW040 SCT050 12/09 Q1015 NOSIG', 'LIRN 080620Z 27006KT 240V310 9999 FEW030 SCT045 12/09 Q1014 NOSIG', 'LIRN 080550Z 28006KT 9999 SCT040 12/08 Q1014 NOSIG', 'LIRN 080520Z 29007KT 270V330 9999 SCT040 12/08 Q1014 NOSIG', 'LIRN 080450Z 28009KT 9999 SCT040 13/08 Q1014 NOSIG', 'LIRN 080420Z 29007KT 260V320 9999 SCT040 13/09 Q1014 NOSIG', 'LIRN 080350Z 29008KT 9999 FEW040 12/09 Q1014 NOSIG', 'LIRN 080320Z 28007KT CAVOK 12/09 Q1014 NOSIG', 'LIRN 080250Z 28007KT CAVOK 12/09 Q1014 NOSIG', 'LIRN 080220Z 27006KT CAVOK 13/10 Q1014 NOSIG', 'LIRN 080150Z 21005KT CAVOK 13/10 Q1014 NOSIG', 'LIRN 080120Z VRB01KT CAVOK 11/08 Q1014 NOSIG', 'LIRN 080050Z VRB02KT CAVOK 10/09 Q1014 NOSIG', 'LIRN 080020Z VRB01KT CAVOK 10/08 Q1014 NOSIG', 'LIRN 072350Z 18001KT CAVOK 10/08 Q1014 NOSIG', 'LIRN 072320Z 17002KT 9999 FEW040 11/09 Q1014 NOSIG', 'LIRN 072250Z VRB02KT 9999 FEW040 11/09 Q1014 NOSIG', 'LIRN 072220Z VRB02KT 9999 SCT040 12/10 Q1014 NOSIG', 'LIRN 072150Z 24002KT 9999 SCT045 11/08 Q1014 NOSIG', 'LIRN 072120Z 22003KT 200V260 9999 SCT040 10/07 Q1014 NOSIG', 'LIRN 072050Z 25002KT 9999 SCT040 10/09 Q1014 NOSIG', 'LIRN 072020Z 19003KT 160V230 9999 SCT035 13/09 Q1014 NOSIG', 'LIRN 071950Z 21002KT 9999 FEW025 SCT035 13/10 Q1015 NOSIG', 'LIRN 071920Z VRB02KT 9999 FEW025 SCT035 12/09 Q1015 NOSIG', 'LIRN 071850Z VRB01KT 9999 SCT035 13/10 Q1015 NOSIG', 'LIRN 071820Z VRB01KT 9999 SCT035 13/09 Q1015 NOSIG', 'LIRN 071750Z VRB02KT 9999 SCT035 13/10 Q1015 NOSIG']","['2024-02-10 17:20:00', '2024-02-10 16:50:00', '2024-02-10 16:20:00', '2024-02-10 15:50:00', '2024-02-10 15:20:00', '2024-02-10 14:50:00', '2024-02-10 14:20:00', '2024-02-10 13:50:00', '2024-02-10 13:20:00', '2024-02-10 12:50:00', '2024-02-10 12:20:00', '2024-02-10 11:50:00', '2024-02-10 11:20:00', '2024-02-10 10:50:00', '2024-02-10 10:20:00', '2024-02-10 09:50:00', '2024-02-10 09:20:00', '2024-02-10 08:50:00', '2024-02-10 08:20:00', '2024-02-10 07:50:00', '2024-02-10 07:20:00', '2024-02-10 06:50:00', '2024-02-10 06:20:00', '2024-02-10 05:50:00', '2024-02-10 05:20:00', '2024-02-10 04:50:00', '2024-02-10 04:20:00', '2024-02-10 03:50:00', '2024-02-10 03:20:00', '2024-02-10 02:50:00', '2024-02-10 02:20:00', '2024-02-10 01:50:00', '2024-02-10 01:20:00', '2024-02-10 00:50:00', '2024-02-10 00:20:00', '2024-02-09 23:50:00', '2024-02-09 23:20:00', '2024-02-09 22:50:00', '2024-02-09 22:20:00', '2024-02-09 21:50:00', '2024-02-09 21:20:00', '2024-02-09 20:50:00', '2024-02-09 20:20:00', '2024-02-09 19:50:00', '2024-02-09 19:20:00', '2024-02-09 18:50:00', '2024-02-09 18:20:00', '2024-02-09 17:50:00', '2024-02-09 17:20:00', '2024-02-09 16:50:00', '2024-02-09 16:20:00', '2024-02-09 15:50:00', '2024-02-09 15:20:00', '2024-02-09 14:50:00', '2024-02-09 14:20:00', '2024-02-09 13:50:00', '2024-02-09 13:20:00', '2024-02-09 12:50:00', '2024-02-09 12:20:00', '2024-02-09 11:50:00', '2024-02-09 11:20:00', '2024-02-09 10:50:00', '2024-02-09 10:20:00', '2024-02-09 09:50:00', '2024-02-09 09:20:00', '2024-02-09 08:50:00', '2024-02-09 08:20:00', '2024-02-09 07:50:00', '2024-02-09 07:20:00', '2024-02-09 06:50:00', '2024-02-09 06:20:00', '2024-02-09 05:50:00', '2024-02-09 05:20:00', '2024-02-09 04:50:00', '2024-02-09 04:20:00', '2024-02-09 03:50:00', '2024-02-09 03:20:00', '2024-02-09 02:50:00', '2024-02-09 02:20:00', '2024-02-09 01:50:00', '2024-02-09 01:20:00', '2024-02-09 00:50:00', '2024-02-09 00:20:00', '2024-02-08 23:50:00', '2024-02-08 23:20:00', '2024-02-08 22:50:00', '2024-02-08 22:20:00', '2024-02-08 21:50:00', '2024-02-08 21:20:00', '2024-02-08 20:50:00', '2024-02-08 19:50:00', '2024-02-08 19:20:00', '2024-02-08 18:50:00', '2024-02-08 18:20:00', '2024-02-08 17:50:00', '2024-02-08 17:20:00', '2024-02-08 16:50:00', '2024-02-08 16:20:00', '2024-02-08 15:50:00', '2024-02-08 15:20:00', '2024-02-08 14:50:00', '2024-02-08 14:20:00', '2024-02-08 13:50:00', '2024-02-08 13:20:00', '2024-02-08 12:50:00', '2024-02-08 12:20:00', '2024-02-08 11:50:00', '2024-02-08 11:20:00', '2024-02-08 10:50:00', '2024-02-08 10:20:00', '2024-02-08 09:50:00', '2024-02-08 09:20:00', '2024-02-08 08:50:00', '2024-02-08 08:20:00', '2024-02-08 07:50:00', '2024-02-08 07:20:00', '2024-02-08 06:50:00', '2024-02-08 06:20:00', '2024-02-08 05:50:00', '2024-02-08 05:20:00', '2024-02-08 04:50:00', '2024-02-08 04:20:00', '2024-02-08 03:50:00', '2024-02-08 03:20:00', '2024-02-08 02:50:00', '2024-02-08 02:20:00', '2024-02-08 01:50:00', '2024-02-08 01:20:00', '2024-02-08 00:50:00', '2024-02-08 00:20:00', '2024-02-07 23:50:00', '2024-02-07 23:20:00', '2024-02-07 22:50:00', '2024-02-07 22:20:00', '2024-02-07 21:50:00', '2024-02-07 21:20:00', '2024-02-07 20:50:00', '2024-02-07 20:20:00', '2024-02-07 19:50:00', '2024-02-07 19:20:00', '2024-02-07 18:50:00', '2024-02-07 18:20:00', '2024-02-07 17:50:00']"
Italy, Olbia Costa Smeralda Airport (OLB/LIEO) ,"['LIEO 101720Z 22005KT 9999 FEW040 14/11 Q0990', 'LIEO 101650Z VRB02KT 9999 FEW040 14/11 Q0990', 'LIEO 101620Z 18003KT 130V210 9999 FEW040 15/12 Q0990', 'LIEO 101550Z 17003KT 9999 SCT040 15/11 Q0991', 'LIEO 101520Z 21005KT 170V230 9999 SCT030 16/12 Q0991', 'LIEO 101450Z 23004KT 190V280 9999 SCT030 16/12 Q0991', 'LIEO 101420Z 21004KT 160V260 9999 SCT030 16/12 Q0991', 'LIEO 101350Z 22008KT 190V250 8000 -DZ SCT030 15/13 Q0991', 'LIEO 101320Z 22013KT 7000 -RA SCT030 15/13 Q0991', 'LIEO 101250Z 13003KT 100V160 6000 -SHRA SCT035 15/13 Q0991', 'LIEO 101220Z VRB02KT 6000 -SHRA SCT035 15/13 Q0991', 'LIEO 101150Z VRB02KT 6000 -SHRA SCT035 16/13 Q0991', 'LIEO 101120Z 12003KT 060V150 6000 -SHRA SCT040 15/13 Q0991', 'LIEO 101050Z VRB02KT 6000 -SHRA SCT040 14/12 Q0992', 'LIEO 101020Z VRB02KT 4000 -SHRA SCT040 13/12 Q0992', 'LIEO 100950Z 11004KT 080V150 8000 SCT045 13/12 Q0992', 'LIEO 100920Z VRB01KT 7000 -RA SCT045 13/11 Q0993', 'LIEO 100850Z VRB02KT 9999 -RA SCT050 12/11 Q0993', 'LIEO 100820Z VRB01KT 9999 SCT050 12/11 Q0993', 'LIEO 100750Z VRB02KT 9999 SCT050 12/10 Q0993', 'LIEO 100720Z 24003KT 210V280 9999 -RA SCT050 11/10 Q0993', 'LIEO 100650Z 14003KT 090V220 9999 -RA SCT050 11/10 Q0992', 'LIEO 100620Z VRB02KT 9999 -RA SCT050 12/10 Q0993', 'LIEO 100550Z 22002KT 9999 SCT050 12/10 Q0993', 'LIEO 100520Z VRB02KT 9999 SCT045 12/09 Q0993', 'LIEO 100450Z 32004KT 280V350 9999 -RA SCT040 13/09 Q0993', 'LIEO 100420Z 29003KT 250V320 9999 SCT045 12/09 Q0993', 'LIEO 100350Z VRB08KT 9999 SCT045 12/09 Q0994', 'LIEO 100250Z VRB03KT 9999 -DZ SCT045 12/09 Q0994', 'LIEO 100220Z 16004KT 090V250 9999 -DZ SCT045 11/09 Q0995', 'LIEO 100150Z 10004KT 050V130 9999 -RA SCT045 11/09 Q0995', 'LIEO 100120Z VRB04KT 9999 SCT045 11/09 Q0996', 'LIEO 100050Z 25003KT 9999 SCT045 12/08 Q0997', 'LIEO 100020Z 28003KT 260V010 9999 SCT040 12/08 Q0997', 'LIEO 092350Z 25004KT 9999 SCT045 12/08 Q0997', 'LIEO 092320Z 27003KT 9999 SCT045 12/08 Q0997', 'LIEO 092250Z 12003KT 070V150 9999 SCT045 12/07 Q0998', 'LIEO 092220Z VRB01KT 9999 SCT045 13/08 Q0998', 'LIEO 092150Z VRB01KT 9999 SCT045 13/07 Q0999', 'LIEO 092120Z 21003KT 170V230 9999 SCT045 13/07 Q0999', 'LIEO 092050Z VRB02KT 9999 SCT045 13/08 Q0999', 'LIEO 092020Z VRB02KT 9999 SCT045 13/08 Q1000', 'LIEO 091950Z 31002KT 9999 SCT045 13/08 Q1000', 'LIEO 091920Z VRB02KT 9999 SCT055 13/08 Q1000', 'LIEO 091850Z 26003KT 240V300 9999 SCT045 13/08 Q1000', 'LIEO 091820Z 15003KT 9999 SCT055 14/08 Q1000', 'LIEO 091750Z VRB02KT 9999 SCT055 15/08 Q1000', 'LIEO 091720Z VRB01KT 9999 FEW055 15/08 Q1001', 'LIEO 091650Z VRB02KT 9999 FEW055 15/09 Q1000', 'LIEO 091620Z VRB01KT 9999 FEW055 16/09 Q1001', 'LIEO 091550Z 21003KT 9999 FEW055 18/05 Q1001', 'LIEO 091520Z 23004KT 190V290 9999 FEW055 17/10 Q1001', 'LIEO 091450Z 09002KT 9999 FEW055 17/11 Q1002', 'LIEO 091420Z VRB02KT 9999 FEW055 17/11 Q1002', 'LIEO 091350Z 27001KT 9999 FEW055 17/10 Q1002', 'LIEO 091320Z 30004KT 250V320 9999 FEW055 16/11 Q1002', 'LIEO 091250Z 25005KT 190V320 9999 SCT055 18/08 Q1002', 'LIEO 091220Z VRB03KT 9999 FEW055 17/09 Q1003', 'LIEO 091150Z VRB01KT 9999 FEW055 15/10 Q1003', 'LIEO 091120Z 33003KT 9999 FEW055 14/10 Q1004', 'LIEO 091050Z 29004KT 9999 FEW055 13/11 Q1004', 'LIEO 091020Z 27003KT 200V310 9999 FEW055 12/10 Q1005', 'LIEO 090950Z VRB02KT 9999 SCT055 11/10 Q1005', 'LIEO 090920Z VRB01KT 9999 SCT055 11/10 Q1005', 'LIEO 090850Z VRB02KT 9999 FEW055 10/10 Q1006', 'LIEO 090820Z VRB02KT 9999 FEW055 09/09 Q1006', 'LIEO 090750Z VRB02KT 9999 FEW055 08/08 Q1007', 'LIEO 090720Z VRB02KT CAVOK 07/07 Q1007', 'LIEO 090650Z VRB02KT CAVOK 07/06 Q1006', 'LIEO 090620Z 20003KT CAVOK 06/05 Q1006', 'LIEO 090550Z VRB01KT CAVOK 06/05 Q1007', 'LIEO 090520Z 23003KT CAVOK 07/06 Q1007', 'LIEO 090450Z VRB01KT CAVOK 06/05 Q1007', 'LIEO 090420Z 26003KT CAVOK 06/05 Q1007', 'LIEO 090350Z VRB01KT CAVOK 05/05 Q1008', 'LIEO 090320Z VRB01KT CAVOK 06/05 Q1008', 'LIEO 090250Z VRB02KT CAVOK 07/06 Q1008', 'LIEO 090220Z VRB02KT CAVOK 07/06 Q1009', 'LIEO 090150Z VRB01KT CAVOK 08/07 Q1009', 'LIEO 090120Z 24004KT 200V270 CAVOK 08/07 Q1009', 'LIEO 090050Z VRB02KT CAVOK 09/07 Q1009', 'LIEO 090020Z 16003KT 110V210 CAVOK 09/07 Q1010', 'LIEO 082350Z 13005KT 120V180 CAVOK 09/07 Q1010', 'LIEO 082320Z 19003KT 100V240 CAVOK 11/08 Q1010', 'LIEO 082250Z VRB01KT CAVOK 11/08 Q1010', 'LIEO 082220Z 16003KT 080V210 CAVOK 11/08 Q1011', 'LIEO 082150Z 20005KT CAVOK 13/09 Q1011', 'LIEO 082120Z 18005KT CAVOK 13/09 Q1011', 'LIEO 082050Z 21009KT CAVOK 14/10 Q1011', 'LIEO 081950Z 20008KT 170V230 CAVOK 15/10 Q1011', 'LIEO 081920Z 21011KT CAVOK 15/10 Q1011', 'LIEO 081850Z 23013KT CAVOK 15/10 Q1011', 'LIEO 081820Z 23009KT CAVOK 15/10 Q1011', 'LIEO 081750Z 21008KT CAVOK 16/10 Q1011', 'LIEO 081720Z 23008KT 190V260 CAVOK 16/10 Q1011', 'LIEO 081650Z 24013KT CAVOK 17/10 Q1011', 'LIEO 081620Z 24016KT CAVOK 18/10 Q1011', 'LIEO 081550Z 24017G28KT CAVOK 18/09 Q1011', 'LIEO 081520Z 24018KT CAVOK 19/09 Q1011', 'LIEO 081450Z 24017KT CAVOK 20/09 Q1011', 'LIEO 081420Z 25018KT CAVOK 20/09 Q1011', 'LIEO 081350Z 23017G30KT CAVOK 20/09 Q1011', 'LIEO 081320Z 24023KT CAVOK 20/09 Q1012', 'LIEO 081250Z 24022KT CAVOK 20/09 Q1012', 'LIEO 081220Z 24020G34KT CAVOK 20/09 Q1012', 'LIEO 081150Z 23019KT CAVOK 19/09 Q1013', 'LIEO 081120Z 23016G29KT CAVOK 19/09 Q1013', 'LIEO 081050Z 23016KT 200V270 CAVOK 18/09 Q1014', 'LIEO 081020Z 23018KT CAVOK 17/09 Q1014', 'LIEO 080950Z 23015KT CAVOK 16/10 Q1014', 'LIEO 080920Z 23016KT CAVOK 15/10 Q1014', 'LIEO 080850Z 23017KT CAVOK 14/10 Q1014', 'LIEO 080820Z 23014KT CAVOK 14/10 Q1014', 'LIEO 080750Z 23015KT CAVOK 14/10 Q1014', 'LIEO 080720Z 24014KT CAVOK 13/10 Q1014', 'LIEO 080650Z 24013KT CAVOK 12/10 Q1014', 'LIEO 080620Z 23015KT CAVOK 13/10 Q1014', 'LIEO 080550Z 24018KT CAVOK 13/10 Q1013', 'LIEO 080520Z 24015KT CAVOK 12/09 Q1013', 'LIEO 080450Z 24015KT CAVOK 12/09 Q1014', 'LIEO 080420Z 23016KT CAVOK 12/09 Q1014', 'LIEO 080350Z 23014KT CAVOK 12/09 Q1014', 'LIEO 080250Z 25011KT CAVOK 12/09 Q1014', 'LIEO 080220Z 23010KT CAVOK 12/09 Q1015', 'LIEO 080150Z 24012KT CAVOK 12/09 Q1015', 'LIEO 080120Z 26012KT 230V290 CAVOK 12/09 Q1015', 'LIEO 080050Z 25012KT CAVOK 12/09 Q1015', 'LIEO 080020Z 24015G25KT CAVOK 12/09 Q1015', 'LIEO 072350Z 24011KT CAVOK 12/08 Q1015', 'LIEO 072320Z 25015KT CAVOK 12/08 Q1015', 'LIEO 072250Z 24019KT CAVOK 12/08 Q1015', 'LIEO 072220Z 24014KT CAVOK 12/08 Q1015', 'LIEO 072150Z 23012KT CAVOK 12/08 Q1015', 'LIEO 072120Z 24012KT CAVOK 12/08 Q1015', 'LIEO 072050Z 24012G23KT CAVOK 12/07 Q1016', 'LIEO 072020Z 24012KT 210V270 CAVOK 12/08 Q1016', 'LIEO 071950Z 23014KT CAVOK 12/07 Q1016', 'LIEO 071920Z 24014KT CAVOK 13/08 Q1016', 'LIEO 071850Z 24014KT 220V280 CAVOK 13/08 Q1016', 'LIEO 071820Z 23013KT 210V270 CAVOK 13/08 Q1016', 'LIEO 071750Z 24011KT CAVOK 13/08 Q1015']","['2024-02-10 17:20:00', '2024-02-10 16:50:00', '2024-02-10 16:20:00', '2024-02-10 15:50:00', '2024-02-10 15:20:00', '2024-02-10 14:50:00', '2024-02-10 14:20:00', '2024-02-10 13:50:00', '2024-02-10 13:20:00', '2024-02-10 12:50:00', '2024-02-10 12:20:00', '2024-02-10 11:50:00', '2024-02-10 11:20:00', '2024-02-10 10:50:00', '2024-02-10 10:20:00', '2024-02-10 09:50:00', '2024-02-10 09:20:00', '2024-02-10 08:50:00', '2024-02-10 08:20:00', '2024-02-10 07:50:00', '2024-02-10 07:20:00', '2024-02-10 06:50:00', '2024-02-10 06:20:00', '2024-02-10 05:50:00', '2024-02-10 05:20:00', '2024-02-10 04:50:00', '2024-02-10 04:20:00', '2024-02-10 03:50:00', '2024-02-10 02:50:00', '2024-02-10 02:20:00', '2024-02-10 01:50:00', '2024-02-10 01:20:00', '2024-02-10 00:50:00', '2024-02-10 00:20:00', '2024-02-09 23:50:00', '2024-02-09 23:20:00', '2024-02-09 22:50:00', '2024-02-09 22:20:00', '2024-02-09 21:50:00', '2024-02-09 21:20:00', '2024-02-09 20:50:00', '2024-02-09 20:20:00', '2024-02-09 19:50:00', '2024-02-09 19:20:00', '2024-02-09 18:50:00', '2024-02-09 18:20:00', '2024-02-09 17:50:00', '2024-02-09 17:20:00', '2024-02-09 16:50:00', '2024-02-09 16:20:00', '2024-02-09 15:50:00', '2024-02-09 15:20:00', '2024-02-09 14:50:00', '2024-02-09 14:20:00', '2024-02-09 13:50:00', '2024-02-09 13:20:00', '2024-02-09 12:50:00', '2024-02-09 12:20:00', '2024-02-09 11:50:00', '2024-02-09 11:20:00', '2024-02-09 10:50:00', '2024-02-09 10:20:00', '2024-02-09 09:50:00', '2024-02-09 09:20:00', '2024-02-09 08:50:00', '2024-02-09 08:20:00', '2024-02-09 07:50:00', '2024-02-09 07:20:00', '2024-02-09 06:50:00', '2024-02-09 06:20:00', '2024-02-09 05:50:00', '2024-02-09 05:20:00', '2024-02-09 04:50:00', '2024-02-09 04:20:00', '2024-02-09 03:50:00', '2024-02-09 03:20:00', '2024-02-09 02:50:00', '2024-02-09 02:20:00', '2024-02-09 01:50:00', '2024-02-09 01:20:00', '2024-02-09 00:50:00', '2024-02-09 00:20:00', '2024-02-08 23:50:00', '2024-02-08 23:20:00', '2024-02-08 22:50:00', '2024-02-08 22:20:00', '2024-02-08 21:50:00', '2024-02-08 21:20:00', '2024-02-08 20:50:00', '2024-02-08 19:50:00', '2024-02-08 19:20:00', '2024-02-08 18:50:00', '2024-02-08 18:20:00', '2024-02-08 17:50:00', '2024-02-08 17:20:00', '2024-02-08 16:50:00', '2024-02-08 16:20:00', '2024-02-08 15:50:00', '2024-02-08 15:20:00', '2024-02-08 14:50:00', '2024-02-08 14:20:00', '2024-02-08 13:50:00', '2024-02-08 13:20:00', '2024-02-08 12:50:00', '2024-02-08 12:20:00', '2024-02-08 11:50:00', '2024-02-08 11:20:00', '2024-02-08 10:50:00', '2024-02-08 10:20:00', '2024-02-08 09:50:00', '2024-02-08 09:20:00', '2024-02-08 08:50:00', '2024-02-08 08:20:00', '2024-02-08 07:50:00', '2024-02-08 07:20:00', '2024-02-08 06:50:00', '2024-02-08 06:20:00', '2024-02-08 05:50:00', '2024-02-08 05:20:00', '2024-02-08 04:50:00', '2024-02-08 04:20:00', '2024-02-08 03:50:00', '2024-02-08 02:50:00', '2024-02-08 02:20:00', '2024-02-08 01:50:00', '2024-02-08 01:20:00', '2024-02-08 00:50:00', '2024-02-08 00:20:00', '2024-02-07 23:50:00', '2024-02-07 23:20:00', '2024-02-07 22:50:00', '2024-02-07 22:20:00', '2024-02-07 21:50:00', '2024-02-07 21:20:00', '2024-02-07 20:50:00', '2024-02-07 20:20:00', '2024-02-07 19:50:00', '2024-02-07 19:20:00', '2024-02-07 18:50:00', '2024-02-07 18:20:00', '2024-02-07 17:50:00']"
Ivory-coast, Abidjan Port Bouet Airport (ABJ/DIAP) ,"['DIAP 101730Z 21009KT 6000 NSC 31/26 Q1009 NOSIG', 'DIAP 101700Z 21011KT 6000 NSC 31/26 Q1009 NOSIG', 'DIAP 101630Z 21011KT 6000 NSC 32/26 Q1009 NOSIG', 'DIAP 101600Z 21011KT 6000 NSC 32/26 Q1009 NOSIG', 'DIAP 101530Z 21011KT 6000 NSC 32/26 Q1009 NOSIG', 'DIAP 101500Z 22011KT 6000 NSC 33/26 Q1009 NOSIG', 'DIAP 101430Z 22011KT 180V240 6000 NSC 33/26 Q1010 NOSIG', 'DIAP 101400Z 22009KT 180V240 6000 FEW013 33/26 Q1010 NOSIG', 'DIAP 101330Z 22009KT 180V250 6000 SCT013 33/26 Q1011 NOSIG', 'DIAP 101300Z 22010KT 190V250 6000 SCT013 33/25 Q1011 NOSIG', 'DIAP 101230Z 22009KT 190V250 6000 SCT013 32/25 Q1012 NOSIG', 'DIAP 101200Z 22009KT 6000 SCT013 32/26 Q1013 NOSIG', 'DIAP 101130Z 20007KT 6000 SCT013 32/26 Q1013 NOSIG', 'DIAP 101100Z 22009KT 190V250 6000 SCT013 32/26 Q1013 NOSIG', 'DIAP 101030Z 20007KT 6000 FEW013 32/26 Q1013 NOSIG', 'DIAP 101000Z 22008KT 190V260 6000 FEW013 31/26 Q1013 NOSIG', 'DIAP 100930Z 23007KT 6000 FEW013 31/25 Q1013 NOSIG', 'DIAP 100900Z 22007KT 6000 FEW013 31/26 Q1013 NOSIG', 'DIAP 100830Z 22007KT 6000 FEW015 30/26 Q1013 NOSIG', 'DIAP 100800Z 21005KT 4500 BR FEW015 29/26 Q1012 BECMG 6000 NSW', 'DIAP 100730Z 23002KT 4500 BR FEW015 28/26 Q1012 NOSIG', 'DIAP 100700Z 24003KT 4000 BR FEW015 28/26 Q1012 NOSIG', 'DIAP 100630Z 24004KT 4500 BR FEW015 28/26 Q1011 NOSIG', 'DIAP 100600Z 21006KT 5000 BR FEW015 29/26 Q1011 NOSIG', 'DIAP 100530Z 21005KT 5000 BR FEW015 29/26 Q1011 NOSIG', 'DIAP 100500Z 21006KT 5000 BR FEW015 28/26 Q1011 NOSIG', 'DIAP 100430Z 22005KT 5000 BR FEW015 28/26 Q1010 NOSIG', 'DIAP 100400Z 21004KT 5000 BR FEW015 29/26 Q1010 NOSIG', 'DIAP 100330Z 21005KT 5000 BR FEW015 29/26 Q1011 NOSIG', 'DIAP 100300Z 21005KT 5000 BR FEW015 29/26 Q1011 NOSIG', 'DIAP 100230Z 21005KT 5000 BR FEW015 29/26 Q1011 NOSIG', 'DIAP 100200Z 21005KT 5000 BR FEW015 29/26 Q1011 NOSIG', 'DIAP 100100Z 20004KT 5000 BR NSC 29/26 Q1012 BECMG 3500 BR', 'DIAP 100030Z 20005KT 5000 BR NSC 29/26 Q1012 BECMG 3500 BR', 'DIAP 100000Z 20005KT 5000 BR NSC 29/26 Q1013 BECMG 3500 BR', 'DIAP 092330Z 21005KT 5000 BR NSC 29/26 Q1013 BECMG 3500 BR', 'DIAP 092300Z 20005KT 6000 NSC 29/26 Q1013 NOSIG', 'DIAP 092230Z 21005KT 6000 NSC 29/26 Q1013 NOSIG', 'DIAP 092200Z 20005KT 6000 NSC 29/26 Q1013 NOSIG', 'DIAP 092130Z 20006KT 6000 NSC 30/26 Q1012 NOSIG', 'DIAP 092100Z 21006KT 6000 NSC 30/26 Q1012 NOSIG', 'DIAP 092030Z 21006KT 6000 NSC 30/26 Q1011 NOSIG', 'DIAP 092000Z 21006KT 6000 NSC 30/26 Q1011 NOSIG', 'DIAP 091930Z 21006KT 6000 NSC 30/26 Q1010 NOSIG', 'DIAP 091900Z 21005KT 6000 NSC 30/26 Q1010 NOSIG', 'DIAP 091830Z 21007KT 6000 NSC 30/26 Q1010 NOSIG', 'DIAP 091800Z 21008KT 6000 NSC 31/26 Q1010 NOSIG', 'DIAP 091730Z 21008KT 6000 NSC 31/26 Q1009 NOSIG', 'DIAP 091700Z 21009KT 6000 NSC 31/26 Q1009 NOSIG', 'DIAP 091630Z 21010KT 7000 NSC 31/26 Q1009 NOSIG', 'DIAP 091600Z 21010KT 6000 NSC 31/26 Q1009 NOSIG', 'DIAP 091530Z 22011KT 6000 NSC 32/26 Q1009 NOSIG', 'DIAP 091500Z 22011KT 6000 NSC 32/26 Q1009 NOSIG', 'DIAP 091430Z 22010KT 6000 NSC 32/26 Q1010 NOSIG', 'DIAP 091400Z 21009KT 6000 NSC 33/25 Q1010 NOSIG', 'DIAP 091330Z 22008KT 190V250 6000 FEW015 32/26 Q1011 NOSIG', 'DIAP 091300Z 21008KT 6000 FEW015 33/25 Q1011 NOSIG', 'DIAP 091230Z 21007KT 180V240 6000 FEW015 33/25 Q1012 NOSIG', 'DIAP 091200Z 23006KT 180V260 6000 FEW013 32/25 Q1013 NOSIG', 'DIAP 091130Z 19006KT 130V250 6000 FEW013 32/26 Q1013 NOSIG', 'DIAP 091100Z 20006KT 6000 FEW013 31/25 Q1013 NOSIG', 'DIAP 091030Z 21005KT 150V250 6000 FEW013 31/25 Q1014 NOSIG', 'DIAP 091000Z 20005KT 150V240 6000 FEW013 31/26 Q1014 NOSIG', 'DIAP 090930Z 19005KT 140V220 6000 FEW013 31/26 Q1014 NOSIG', 'DIAP 090900Z 19004KT 150V220 6000 FEW013 30/26 Q1014 NOSIG', 'DIAP 090830Z VRB01KT 6000 FEW012 29/27 Q1014 NOSIG', 'DIAP 090800Z 00000KT 2200 BR FEW012 28/27 Q1013 NOSIG', 'DIAP 090730Z 11002KT 2200 BR SCT012 27/25 Q1013 NOSIG', 'DIAP 090700Z 11001KT 2200 BR SCT012 26/25 Q1013 NOSIG', 'DIAP 090630Z 16002KT 3200 BR SCT012 26/25 Q1012 TEMPO 2000 BR', 'DIAP 090600Z 15001KT 4000 DU FEW010 26/25 Q1012 TEMPO 2500', 'DIAP 090530Z 25001KT 4000 DU NSC 27/25 Q1011 NOSIG', 'DIAP 090500Z 22002KT 4000 DU NSC 27/25 Q1011 NOSIG', 'DIAP 090430Z 20002KT 4000 DU NSC 27/25 Q1011 NOSIG', 'DIAP 090400Z 20004KT 4000 DU NSC 28/25 Q1011 NOSIG', 'DIAP 090330Z 21004KT 4000 DU NSC 28/26 Q1011 NOSIG', 'DIAP 090300Z 20004KT 4000 DU NSC 28/26 Q1011 NOSIG', 'DIAP 090230Z 21005KT 4000 DU NSC 28/26 Q1011 NOSIG', 'DIAP 090200Z 21005KT 4000 DU NSC 28/26 Q1012 NOSIG', 'DIAP 090100Z 20005KT 4000 DU NSC 29/26 Q1012 NOSIG', 'DIAP 090030Z 20004KT 4000 DU NSC 28/26 Q1012 NOSIG', 'DIAP 090000Z 21003KT 4000 DU NSC 28/26 Q1012 NOSIG', 'DIAP 082330Z 20004KT 4000 DU NSC 28/26 Q1012 NOSIG', 'DIAP 082300Z 20004KT 4000 DU NSC 28/26 Q1012 NOSIG', 'DIAP 082230Z 20004KT 4000 DU NSC 29/26 Q1012 NOSIG', 'DIAP 082200Z 19004KT 4000 DU NSC 29/26 Q1012 NOSIG', 'DIAP 082130Z 19004KT 4000 DU NSC 29/26 Q1012 NOSIG', 'DIAP 082100Z 19004KT 4000 DU NSC 29/26 Q1011 NOSIG', 'DIAP 082030Z 20005KT 4000 DU NSC 29/26 Q1011 NOSIG', 'DIAP 082000Z 20004KT 4000 DU NSC 29/25 Q1011 NOSIG', 'DIAP 081930Z 21005KT 4300 DU NSC 29/25 Q1010 NOSIG', 'DIAP 081900Z 20005KT 4000 DU NSC 30/25 Q1010 NOSIG', 'DIAP 081830Z 23007KT 3500 DU NSC 30/25 Q1010 NOSIG', 'DIAP 081800Z 23007KT 3500 DU NSC 30/25 Q1009 NOSIG', 'DIAP 081730Z 23008KT 3500 DU NSC 31/25 Q1009 NOSIG', 'DIAP 081700Z 22009KT 4000 DU NSC 31/25 Q1009 NOSIG', 'DIAP 081630Z 21008KT 4000 DU NSC 32/24 Q1009 NOSIG', 'DIAP 081600Z 21009KT 3500 DU NSC 32/24 Q1009 NOSIG', 'DIAP 081530Z 21008KT 3500 DU NSC 32/25 Q1009 NOSIG', 'DIAP 081500Z 22010KT 2800 DU FEW020 32/24 Q1010 NOSIG', 'DIAP 081430Z 22009KT 2800 DU FEW020 32/24 Q1010 NOSIG', 'DIAP 081400Z 22009KT 2500 DU FEW020 32/24 Q1011 NOSIG', 'DIAP 081330Z 22009KT 190V260 2500 DU FEW020 33/24 Q1011 NOSIG', 'DIAP 081300Z 23008KT 190V260 2500 DU FEW020 32/24 Q1012 NOSIG', 'DIAP 081230Z 23009KT 190V260 2500 DU FEW020 32/24 Q1013 NOSIG', 'DIAP 081200Z 24006KT 200V290 2500 DU FEW020 32/24 Q1013 NOSIG', 'DIAP 081130Z VRB04KT 2800 DU SCT020 32/24 Q1014 NOSIG', 'DIAP 081100Z VRB02KT 2800 DU NSC 31/25 Q1014 NOSIG', 'DIAP 081030Z 03003KT 340V090 3500 DU NSC 30/26 Q1014 NOSIG', 'DIAP 081000Z 03004KT 340V070 3500 DU NSC 29/26 Q1015 NOSIG', 'DIAP 080930Z 03005KT 350V050 3500 DU NSC 28/26 Q1015 NOSIG', 'DIAP 080900Z 03004KT 350V070 3500 DU NSC 28/26 Q1014 NOSIG', 'DIAP 080830Z 02005KT 340V050 4000 BR NSC 27/26 Q1014 BECMG 6000 NSW', 'DIAP 080800Z 02005KT 4000 BR NSC 26/25 Q1014 BECMG 6000 NSW', 'DIAP 080730Z 03005KT 4000 BR NSC 26/26 Q1013 BECMG 6000 NSW', 'DIAP 080700Z 04003KT 4000 BR NSC 25/25 Q1013 NOSIG', 'DIAP 080630Z 06003KT 6000 NSC 25/25 Q1012 TEMPO 4000 BR', 'DIAP 080600Z 03002KT 6000 NSC 25/25 Q1012 TEMPO 4000 BR', 'DIAP 080530Z 04002KT 6000 NSC 26/25 Q1012 NOSIG', 'DIAP 080500Z 00000KT 6000 NSC 26/25 Q1012 NOSIG', 'DIAP 080430Z VRB02KT 6000 NSC 26/25 Q1011 NOSIG', 'DIAP 080400Z 09002KT 6000 NSC 26/25 Q1011 NOSIG', 'DIAP 080330Z 00000KT 6000 NSC 25/24 Q1012 NOSIG', 'DIAP 080300Z 19001KT 6000 NSC 26/25 Q1012 NOSIG', 'DIAP 080230Z 16002KT 6000 NSC 26/25 Q1012 NOSIG', 'DIAP 080200Z 17002KT 6000 NSC 27/26 Q1012 NOSIG', 'DIAP 080130Z 17003KT 6000 NSC 27/26 Q1012 NOSIG', 'DIAP 080100Z 17003KT 6000 NSC 27/26 Q1012 NOSIG', 'DIAP 080030Z 19004KT 6000 NSC 27/26 Q1013 NOSIG', 'DIAP 080000Z 18004KT 6000 NSC 27/26 Q1013 NOSIG', 'DIAP 072330Z 19004KT 6000 NSC 27/26 Q1013 NOSIG', 'DIAP 072300Z 20004KT 6000 NSC 27/26 Q1013 NOSIG', 'DIAP 072230Z 20004KT 7000 NSC 28/26 Q1013 NOSIG', 'DIAP 072200Z 20004KT 7000 NSC 28/26 Q1013 NOSIG', 'DIAP 072130Z 21004KT 7000 NSC 28/26 Q1012 NOSIG', 'DIAP 072100Z 20004KT 7000 NSC 28/26 Q1012 NOSIG', 'DIAP 072030Z 20004KT 7000 NSC 28/26 Q1012 NOSIG', 'DIAP 072000Z 21004KT 5000 DU NSC 28/26 Q1011 BECMG 6000 NSW', 'DIAP 071930Z 20004KT 5000 DU NSC 29/26 Q1011 BECMG 6000 NSW', 'DIAP 071900Z 21007KT 4000 DU NSC 29/26 Q1010 NOSIG', 'DIAP 071830Z 21006KT 4000 DU NSC 29/26 Q1010 NOSIG', 'DIAP 071800Z 23008KT 4000 DU NSC 30/25 Q1010 NOSIG']","['2024-02-10 17:30:00', '2024-02-10 17:00:00', '2024-02-10 16:30:00', '2024-02-10 16:00:00', '2024-02-10 15:30:00', '2024-02-10 15:00:00', '2024-02-10 14:30:00', '2024-02-10 14:00:00', '2024-02-10 13:30:00', '2024-02-10 13:00:00', '2024-02-10 12:30:00', '2024-02-10 12:00:00', '2024-02-10 11:30:00', '2024-02-10 11:00:00', '2024-02-10 10:30:00', '2024-02-10 10:00:00', '2024-02-10 09:30:00', '2024-02-10 09:00:00', '2024-02-10 08:30:00', '2024-02-10 08:00:00', '2024-02-10 07:30:00', '2024-02-10 07:00:00', '2024-02-10 06:30:00', '2024-02-10 06:00:00', '2024-02-10 05:30:00', '2024-02-10 05:00:00', '2024-02-10 04:30:00', '2024-02-10 04:00:00', '2024-02-10 03:30:00', '2024-02-10 03:00:00', '2024-02-10 02:30:00', '2024-02-10 02:00:00', '2024-02-10 01:00:00', '2024-02-10 00:30:00', '2024-02-10 00:00:00', '2024-02-09 23:30:00', '2024-02-09 23:00:00', '2024-02-09 22:30:00', '2024-02-09 22:00:00', '2024-02-09 21:30:00', '2024-02-09 21:00:00', '2024-02-09 20:30:00', '2024-02-09 20:00:00', '2024-02-09 19:30:00', '2024-02-09 19:00:00', '2024-02-09 18:30:00', '2024-02-09 18:00:00', '2024-02-09 17:30:00', '2024-02-09 17:00:00', '2024-02-09 16:30:00', '2024-02-09 16:00:00', '2024-02-09 15:30:00', '2024-02-09 15:00:00', '2024-02-09 14:30:00', '2024-02-09 14:00:00', '2024-02-09 13:30:00', '2024-02-09 13:00:00', '2024-02-09 12:30:00', '2024-02-09 12:00:00', '2024-02-09 11:30:00', '2024-02-09 11:00:00', '2024-02-09 10:30:00', '2024-02-09 10:00:00', '2024-02-09 09:30:00', '2024-02-09 09:00:00', '2024-02-09 08:30:00', '2024-02-09 08:00:00', '2024-02-09 07:30:00', '2024-02-09 07:00:00', '2024-02-09 06:30:00', '2024-02-09 06:00:00', '2024-02-09 05:30:00', '2024-02-09 05:00:00', '2024-02-09 04:30:00', '2024-02-09 04:00:00', '2024-02-09 03:30:00', '2024-02-09 03:00:00', '2024-02-09 02:30:00', '2024-02-09 02:00:00', '2024-02-09 01:00:00', '2024-02-09 00:30:00', '2024-02-09 00:00:00', '2024-02-08 23:30:00', '2024-02-08 23:00:00', '2024-02-08 22:30:00', '2024-02-08 22:00:00', '2024-02-08 21:30:00', '2024-02-08 21:00:00', '2024-02-08 20:30:00', '2024-02-08 20:00:00', '2024-02-08 19:30:00', '2024-02-08 19:00:00', '2024-02-08 18:30:00', '2024-02-08 18:00:00', '2024-02-08 17:30:00', '2024-02-08 17:00:00', '2024-02-08 16:30:00', '2024-02-08 16:00:00', '2024-02-08 15:30:00', '2024-02-08 15:00:00', '2024-02-08 14:30:00', '2024-02-08 14:00:00', '2024-02-08 13:30:00', '2024-02-08 13:00:00', '2024-02-08 12:30:00', '2024-02-08 12:00:00', '2024-02-08 11:30:00', '2024-02-08 11:00:00', '2024-02-08 10:30:00', '2024-02-08 10:00:00', '2024-02-08 09:30:00', '2024-02-08 09:00:00', '2024-02-08 08:30:00', '2024-02-08 08:00:00', '2024-02-08 07:30:00', '2024-02-08 07:00:00', '2024-02-08 06:30:00', '2024-02-08 06:00:00', '2024-02-08 05:30:00', '2024-02-08 05:00:00', '2024-02-08 04:30:00', '2024-02-08 04:00:00', '2024-02-08 03:30:00', '2024-02-08 03:00:00', '2024-02-08 02:30:00', '2024-02-08 02:00:00', '2024-02-08 01:30:00', '2024-02-08 01:00:00', '2024-02-08 00:30:00', '2024-02-08 00:00:00', '2024-02-07 23:30:00', '2024-02-07 23:00:00', '2024-02-07 22:30:00', '2024-02-07 22:00:00', '2024-02-07 21:30:00', '2024-02-07 21:00:00', '2024-02-07 20:30:00', '2024-02-07 20:00:00', '2024-02-07 19:30:00', '2024-02-07 19:00:00', '2024-02-07 18:30:00', '2024-02-07 18:00:00']"
Ivory-coast, Bouake Airport (BYK/DIBK) ,"['DIBK 101700Z 14002KT 6000 NSC 36/14 Q1010 NOSIG', 'DIBK 101600Z 12004KT 6000 NSC 36/14 Q1010 NOSIG', 'DIBK 101500Z 12006KT 6000 NSC 36/14 Q1011 NOSIG', 'DIBK 101400Z 10006KT 6000 NSC 35/14 Q1012 NOSIG', 'DIBK 101300Z 26004KT 6000 NSC 33/17 Q1013 NOSIG', 'DIBK 101200Z 24006KT 6000 NSC 31/21 Q1015 NOSIG', 'DIBK 101100Z 24008KT 6000 NSC 29/23 Q1015 NOSIG', 'DIBK 101000Z 22010KT 6000 SCT013 27/23 Q1016 NOSIG', 'DIBK 100900Z 24010KT 3000 BR BKN011 25/23 Q1016 NOSIG', 'DIBK 100800Z 24008KT 0500 FG FEW005 OVC010 23/23 Q1015 NOSIG', 'DIBK 100700Z 24006KT 6000 SCT010 22/22 Q1014 NOSIG', 'DIBK 100600Z 22008KT 6000 NSC 23/21 Q1013', 'DIBK 100500Z 20006KT 6000 NSC 24/22 Q1013', 'DIBK 100400Z 18006KT 6000 NSC 24/18 Q1012 NOSIG', 'DIBK 100300Z 16004KT 4000 HZ NSC 25/11 Q1012', 'DIBK 100200Z 12002KT 4000 HZ NSC 28/06 Q1012 NOSIG', 'DIBK 100100Z 02002KT 4000 HZ NSC 27/10 Q1013', 'DIBK 100000Z 02002KT 4000 HZ NSC 29/10 Q1014', 'DIBK 092300Z 04002KT 4000 HZ NSC 29/11 Q1014', 'DIBK 092200Z 02002KT 4000 HZ NSC 29/12 Q1014', 'DIBK 092100Z 36002KT 4000 HZ NSC 30/11 Q1011 NOSIG', 'DIBK 092000Z 02002KT 4000 HZ NSC 31/11 Q1013 NOSIG', 'DIBK 091900Z 04004KT 4000 HZ NSC 32/10 Q1012 NOSIG', 'DIBK 091800Z 04004KT 4000 HZ NSC 34/09 Q1012 NOSIG', 'DIBK 091700Z 06004KT 4000 HZ NSC 36/09 Q1011 NOSIG', 'DIBK 091600Z 14004KT 4000 HZ NSC 35/10 Q1011 NOSIG', 'DIBK 091500Z 30002KT 4000 HZ NSC 35/11 Q1011 NOSIG', 'DIBK 091400Z 08002KT 4000 HZ NSC 35/11 Q1012 NOSIG', 'DIBK 091300Z 16004KT 4000 HZ NSC 34/21 Q1013 NOSIG', 'DIBK 091100Z 18004KT 3000 HZ NSC 30/18 Q1016 NOSIG', 'DIBK 091000Z 22008KT 4000 HZ NSC 28/21 Q1016 NOSIG', 'DIBK 090900Z 24004KT 4000 BR NSC 26/19 Q1016 BECMG 5000 HZ', 'DIBK 090800Z 22004KT 3500 BR 25/18 Q1016 BECMG 5000 HZ', 'DIBK 090700Z 20004KT 2500 NSC 23/21 Q1014 TEMPO 2500', 'DIBK 090600Z 20004KT 3000 NSC 23/18 Q1014 TEMPO 2500', 'DIBK 090500Z 16004KT 3000 HZ NSC 24/12 Q1013 TEMPO 2500', 'DIBK 090400Z 16004KT 3000 HZ NSC 25/07 Q1013 NOSIG', 'DIBK 090300Z 14004KT 3000 HZ NSC 27/03 Q1013 NOSIG', 'DIBK 090200Z 14004KT 3000 HZ NSC 28/02 Q1013 NOSIG', 'DIBK 090100Z 14004KT 3000 HZ NSC 28/03 Q1014 NOSIG', 'DIBK 090000Z 10002KT 3000 HZ NSC 28/01 Q1014 NOSIG', 'DIBK 082300Z 12002KT 3000 HZ NSC 29/02 Q1014 NOSIG', 'DIBK 082200Z 00000KT 3000 HZ NSC 29/03 Q1014 NOSIG', 'DIBK 082100Z 06002KT 3000 HZ NSC 30/01 Q1013 NOSIG', 'DIBK 082000Z 00000KT 2500 HZ NSC 30/04 Q1012 NOSIG', 'DIBK 081900Z 08002KT 2500 HZ NSC 31/02 Q1012 BECMG 3000', 'DIBK 081800Z 06004KT 3000 HZ NSC 33/01 Q1011 NOSIG', 'DIBK 081700Z 10004KT 3000 HZ NSC 36/01 Q1011 NOSIG', 'DIBK 081600Z 04006KT 3000 HZ NSC 36/01 Q1013 NOSIG', 'DIBK 081500Z 10004KT 3000 HZ NSC 36/01 Q1012 NOSIG', 'DIBK 081400Z 04006KT 3000 HZ NSC 35/M01 Q1013 NOSIG', 'DIBK 081300Z 12008KT 3000 HZ NSC 34/00 Q1014 NOSIG', 'DIBK 081200Z 10008KT 3000 HZ NSC 33/01 Q1015 NOSIG', 'DIBK 081100Z 10010KT 3000 HZ NSC 31/00 Q1016 NOSIG', 'DIBK 081000Z 10010KT 3000 HZ NSC 29/M00 Q1017 NOSIG', 'DIBK 080900Z 10008KT 3000 HZ NSC 28/00 Q1017 NOSIG', 'DIBK 080800Z 06004KT 3000 HZ NSC 25/03 Q1016 NOSIG', 'DIBK 080700Z 02006KT 3000 HZ NSC 21/03 Q1015 NOSIG', 'DIBK 080600Z 02004KT 3000 HZ NSC 22/03 Q1014 NOSIG', 'DIBK 080500Z 02004KT 3000 HZ NSC 23/03 Q1014 NOSIG', 'DIBK 080300Z 02006KT 3000 HZ NSC 24/03 Q1014 NOSIG', 'DIBK 080200Z 02004KT 3000 HZ NSC 25/03 Q1014 NOSIG', 'DIBK 080100Z 02006KT 3000 HZ NSC 26/02 Q1012 NOSIG', 'DIBK 080000Z 02004KT 3000 HZ NSC 27/03 Q1015 NOSIG', 'DIBK 072300Z 02004KT 3000 HZ NSC 27/04 Q1015 NOSIG', 'DIBK 072200Z 02004KT 3000 HZ NSC 28/03 Q1015 NOSIG', 'DIBK 072100Z 02004KT 3000 HZ NSC 29/03 Q1014 NOSIG', 'DIBK 072000Z 04004KT 2500 HZ NSC 30/03 Q1013 NOSIG', 'DIBK 071900Z 02004KT 2500 HZ NSC 30/03 Q1013 NOSIG', 'DIBK 071800Z 02004KT 3000 HZ NSC 32/03 Q1012 TEMPO 2500 HZ']","['2024-02-10 17:00:00', '2024-02-10 16:00:00', '2024-02-10 15:00:00', '2024-02-10 14:00:00', '2024-02-10 13:00:00', '2024-02-10 12:00:00', '2024-02-10 11:00:00', '2024-02-10 10:00:00', '2024-02-10 09:00:00', '2024-02-10 08:00:00', '2024-02-10 07:00:00', '2024-02-10 06:00:00', '2024-02-10 05:00:00', '2024-02-10 04:00:00', '2024-02-10 03:00:00', '2024-02-10 02:00:00', '2024-02-10 01:00:00', '2024-02-10 00:00:00', '2024-02-09 23:00:00', '2024-02-09 22:00:00', '2024-02-09 21:00:00', '2024-02-09 20:00:00', '2024-02-09 19:00:00', '2024-02-09 18:00:00', '2024-02-09 17:00:00', '2024-02-09 16:00:00', '2024-02-09 15:00:00', '2024-02-09 14:00:00', '2024-02-09 13:00:00', '2024-02-09 11:00:00', '2024-02-09 10:00:00', '2024-02-09 09:00:00', '2024-02-09 08:00:00', '2024-02-09 07:00:00', '2024-02-09 06:00:00', '2024-02-09 05:00:00', '2024-02-09 04:00:00', '2024-02-09 03:00:00', '2024-02-09 02:00:00', '2024-02-09 01:00:00', '2024-02-09 00:00:00', '2024-02-08 23:00:00', '2024-02-08 22:00:00', '2024-02-08 21:00:00', '2024-02-08 20:00:00', '2024-02-08 19:00:00', '2024-02-08 18:00:00', '2024-02-08 17:00:00', '2024-02-08 16:00:00', '2024-02-08 15:00:00', '2024-02-08 14:00:00', '2024-02-08 13:00:00', '2024-02-08 12:00:00', '2024-02-08 11:00:00', '2024-02-08 10:00:00', '2024-02-08 09:00:00', '2024-02-08 08:00:00', '2024-02-08 07:00:00', '2024-02-08 06:00:00', '2024-02-08 05:00:00', '2024-02-08 03:00:00', '2024-02-08 02:00:00', '2024-02-08 01:00:00', '2024-02-08 00:00:00', '2024-02-07 23:00:00', '2024-02-07 22:00:00', '2024-02-07 21:00:00', '2024-02-07 20:00:00', '2024-02-07 19:00:00', '2024-02-07 18:00:00']"
Jamaica, Kingston Norman Manley International Airport (KIN/MKJP) ,"['MKJP 101700Z 14016KT 9999 FEW022 SCT034 29/21 Q1017', 'MKJP 101600Z 13014KT 9999 FEW022 29/19 Q1018', 'MKJP 101500Z 12008KT 9999 FEW020 BKN034 27/19 Q1018', 'MKJP 101400Z 32006KT 9999 FEW020 BKN034 27/22 Q1018', 'MKJP 101300Z 32005KT 9999 FEW020 BKN032 26/20 Q1017', 'MKJP 101200Z 01010KT 9999 FEW020 BKN032 25/20 Q1017', 'MKJP 101100Z 34011KT 9999 FEW020 SCT032 24/20 Q1016', 'MKJP 100900Z 04007KT 9999 FEW022 24/19 Q1014', 'MKJP 100800Z 01010KT 9999 FEW022 24/20 Q1014', 'MKJP 100700Z 02006KT 9999 FEW022 24/20 Q1015', 'MKJP 100600Z 30006KT 9999 FEW022 24/19 Q1016', 'MKJP 100500Z 34005KT 9999 FEW022 24/18 Q1016', 'MKJP 100400Z 34008KT 9999 FEW022 25/20 Q1016', 'MKJP 100300Z 28006KT 9999 FEW022 26/20 Q1016', 'MKJP 100200Z 25005KT 9999 FEW022 26/20 Q1015', 'MKJP 100100Z 35012KT 9999 FEW022 28/21 Q1014', 'MKJP 100000Z 35010KT 9999 FEW022 27/21 Q1014', 'MKJP 092300Z 35010KT 9999 FEW022 28/21 Q1014', 'MKJP 092200Z 32007KT 9999 FEW022 30/20 Q1014', 'MKJP 092100Z 32005KT 9999 FEW022 31/21 Q1014', 'MKJP 092000Z 09005KT 9999 SCT022 BKN034 30/18 Q1015', 'MKJP 091900Z 16008KT 9999 FEW022 BKN034 30/20 Q1016', 'MKJP 091800Z 14013KT 9999 FEW024 31/17 Q1017', 'MKJP 091700Z 14014KT 9999 FEW024 30/17 Q1017', 'MKJP 091600Z 03007KT 9999 FEW024 29/20 Q1016', 'MKJP 091500Z 03005KT 9999 FEW024 29/20 Q1016', 'MKJP 091400Z 01006KT 9999 FEW024 28/20 Q1017', 'MKJP 091300Z 13004KT 9999 FEW022 26/20 Q1016', 'MKJP 091200Z VRB02KT 9999 FEW022 23/20 Q1016', 'MKJP 091100Z 32004KT 9999 FEW022 22/18 Q1015', 'MKJP 091000Z 33004KT 9999 FEW022 23/19 Q1015', 'MKJP 090900Z 33004KT 9999 FEW022 23/19 Q1014', 'MKJP 090800Z 34006KT 9999 FEW022 24/18 Q1015', 'MKJP 090700Z 31005KT 9999 FEW022 23/17 Q1015', 'MKJP 090600Z 01006KT 9999 FEW022 24/20 Q1015', 'MKJP 090500Z 02005KT 9999 FEW022 24/19 Q1016', 'MKJP 090400Z 02007KT 9999 SCT022 25/19 Q1016', 'MKJP 090300Z 01009KT 9999 FEW022 25/19 Q1016', 'MKJP 090200Z 01010KT 9999 FEW022 25/19 Q1015', 'MKJP 090100Z 36011KT 9999 FEW022 25/19 Q1015', 'MKJP 090000Z 35011KT 9999 FEW022 26/19 Q1014', 'MKJP 082300Z 17003KT 9999 FEW022 27/19 Q1014', 'MKJP 082200Z 15007KT 9999 FEW022 28/19 Q1014', 'MKJP 082100Z 20006KT 9999 FEW022 28/19 Q1014', 'MKJP 082000Z 22006KT 9999 FEW022 28/19 Q1014', 'MKJP 081900Z 22008KT 9999 FEW022 28/19 Q1015', 'MKJP 081800Z 22007KT 9999 FEW022 28/19 Q1015', 'MKJP 081700Z 23006KT 9999 SCT022 27/18 Q1016', 'MKJP 081600Z 21006KT 9999 FEW022 27/18 Q1017', 'MKJP 081500Z 33005KT 9999 FEW022 27/18 Q1017', 'MKJP 081400Z 28005KT 9999 FEW022 26/19 Q1016', 'MKJP 081300Z 12006KT 9999 FEW022 23/17 Q1016', 'MKJP 081200Z 12004KT 9999 FEW024 21/16 Q1015', 'MKJP 081100Z 12003KT 9999 FEW024 21/17 Q1014', 'MKJP 081000Z 06003KT 9999 FEW024 22/17 Q1014', 'MKJP 080900Z 33004KT 9999 FEW024 23/17 Q1013', 'MKJP 080800Z 33004KT 9999 FEW024 23/17 Q1013', 'MKJP 080700Z 01008KT 9999 FEW024 23/17 Q1014', 'MKJP 080600Z 32010KT 9999 FEW024 23/16 Q1014', 'MKJP 080500Z 36008KT 9999 FEW024 24/17 Q1015', 'MKJP 080400Z 35010KT 9999 FEW024 24/17 Q1015', 'MKJP 080300Z 01013KT 9999 FEW024 24/17 Q1014', 'MKJP 080200Z 01018KT 9999 FEW024 24/17 Q1014', 'MKJP 080100Z 35020KT 9999 FEW024 24/18 Q1013', 'MKJP 080000Z 35020KT 9999 FEW024 24/18 Q1013', 'MKJP 072300Z 35018KT 9999 FEW022 25/19 Q1012', 'MKJP 072200Z 36019KT 9999 FEW022 26/19 Q1012', 'MKJP 072100Z 35021KT 9999 FEW022 26/19 Q1012', 'MKJP 072000Z 35021KT 9999 FEW022 26/19 Q1012', 'MKJP 071900Z 36018KT 9999 FEW022 27/19 Q1012', 'MKJP 071800Z 35015KT 9999 FEW022 28/16 Q1012']","['2024-02-10 17:00:00', '2024-02-10 16:00:00', '2024-02-10 15:00:00', '2024-02-10 14:00:00', '2024-02-10 13:00:00', '2024-02-10 12:00:00', '2024-02-10 11:00:00', '2024-02-10 09:00:00', '2024-02-10 08:00:00', '2024-02-10 07:00:00', '2024-02-10 06:00:00', '2024-02-10 05:00:00', '2024-02-10 04:00:00', '2024-02-10 03:00:00', '2024-02-10 02:00:00', '2024-02-10 01:00:00', '2024-02-10 00:00:00', '2024-02-09 23:00:00', '2024-02-09 22:00:00', '2024-02-09 21:00:00', '2024-02-09 20:00:00', '2024-02-09 19:00:00', '2024-02-09 18:00:00', '2024-02-09 17:00:00', '2024-02-09 16:00:00', '2024-02-09 15:00:00', '2024-02-09 14:00:00', '2024-02-09 13:00:00', '2024-02-09 12:00:00', '2024-02-09 11:00:00', '2024-02-09 10:00:00', '2024-02-09 09:00:00', '2024-02-09 08:00:00', '2024-02-09 07:00:00', '2024-02-09 06:00:00', '2024-02-09 05:00:00', '2024-02-09 04:00:00', '2024-02-09 03:00:00', '2024-02-09 02:00:00', '2024-02-09 01:00:00', '2024-02-09 00:00:00', '2024-02-08 23:00:00', '2024-02-08 22:00:00', '2024-02-08 21:00:00', '2024-02-08 20:00:00', '2024-02-08 19:00:00', '2024-02-08 18:00:00', '2024-02-08 17:00:00', '2024-02-08 16:00:00', '2024-02-08 15:00:00', '2024-02-08 14:00:00', '2024-02-08 13:00:00', '2024-02-08 12:00:00', '2024-02-08 11:00:00', '2024-02-08 10:00:00', '2024-02-08 09:00:00', '2024-02-08 08:00:00', '2024-02-08 07:00:00', '2024-02-08 06:00:00', '2024-02-08 05:00:00', '2024-02-08 04:00:00', '2024-02-08 03:00:00', '2024-02-08 02:00:00', '2024-02-08 01:00:00', '2024-02-08 00:00:00', '2024-02-07 23:00:00', '2024-02-07 22:00:00', '2024-02-07 21:00:00', '2024-02-07 20:00:00', '2024-02-07 19:00:00', '2024-02-07 18:00:00']"
Jamaica, Montego Bay Sangster International Airport (MBJ/MKJS) ,"['MKJS 101700Z 07017KT 9999 FEW022 28/21 Q1017', 'MKJS 101600Z 06013KT 9999 FEW022 27/21 Q1018', 'MKJS 101500Z 08009KT 9999 FEW022 26/20 Q1018', 'MKJS 101400Z 09008KT 9999 FEW022 SCT040 25/20 Q1018', 'MKJS 101300Z 14008KT 9999 FEW022 24/18 Q1017', 'MKJS 101200Z 13007KT 9999 FEW022 23/18 Q1017', 'MKJS 101100Z 11005KT 9999 FEW024 23/18 Q1016', 'MKJS 101000Z 12005KT 9999 FEW024 23/18 Q1015', 'MKJS 100900Z 14008KT 9999 FEW024 24/18 Q1015', 'MKJS 100800Z 15008KT 9999 FEW024 24/18 Q1015', 'MKJS 100700Z 14011KT 9999 FEW024 23/18 Q1015', 'MKJS 100600Z 13012KT 9999 FEW024 24/19 Q1015', 'MKJS 100500Z VRB02KT 9999 FEW024 SCT035 24/18 Q1017', 'MKJS 100400Z 10011KT 9999 FEW024 25/18 Q1017', 'MKJS 100300Z 11009KT 9999 FEW024 24/18 Q1017', 'MKJS 100200Z 12011KT 9999 FEW024 25/18 Q1016', 'MKJS 100100Z 12012KT 9999 FEW024 25/18 Q1015', 'MKJS 100000Z 11013KT 9999 FEW024 25/18 Q1015', 'MKJS 092300Z 09016KT 9999 FEW024 26/18 Q1015', 'MKJS 092200Z 09019KT 9999 FEW024 26/19 Q1015', 'MKJS 092100Z 08017KT 9999 FEW024 27/19 Q1015', 'MKJS 092000Z 08017KT 9999 FEW024 BKN050 27/19 Q1015', 'MKJS 091900Z 07018KT 9999 FEW022 27/20 Q1016', 'MKJS 091800Z 06015KT 9999 FEW022 SCT032 28/19 Q1017', 'MKJS 091700Z 06012KT 9999 FEW022 SCT032 27/18 Q1018', 'MKJS 091600Z 03005KT 9999 FEW022 SCT032 27/16 Q1018', 'MKJS 091500Z 15010KT 9999 FEW022 26/15 Q1016', 'MKJS 091400Z 16011KT 9999 FEW022 24/16 Q1016', 'MKJS 091300Z 14011KT 9999 SCT022 23/15 Q1016', 'MKJS 091200Z 14012KT 9999 FEW024 22/15 Q1015', 'MKJS 091100Z 10012KT 9999 BKN022 23/15 Q1015', 'MKJS 091000Z 10009KT 9999 BKN022 24/15 Q1015', 'MKJS 090900Z 09015KT 9999 BKN022 24/15 Q1015', 'MKJS 090800Z 08018KT 9999 BKN022 24/14 Q1015', 'MKJS 090700Z 07016KT 9999 BKN022 24/15 Q1015', 'MKJS 090600Z 08013KT 9999 BKN020 24/15 Q1016', 'MKJS 090500Z 09012KT 9999 BKN022 25/15 Q1016', 'MKJS 090400Z 11006KT 9999 BKN022 25/15 Q1016', 'MKJS 090300Z 08008KT 9999 FEW024 24/15 Q1016', 'MKJS 090200Z 09007KT 9999 FEW024 24/15 Q1016', 'MKJS 090100Z 11006KT 9999 FEW022 24/15 Q1016', 'MKJS 090000Z 10007KT 9999 BKN022 24/15 Q1015', 'MKJS 082300Z 09010KT 9999 SCT024 24/15 Q1015', 'MKJS 082200Z 09015KT 9999 FEW024 25/16 Q1015', 'MKJS 082100Z 08016KT 9999 FEW024 25/17 Q1015', 'MKJS 082000Z 08015KT 9999 FEW024 26/18 Q1015', 'MKJS 081900Z 07016KT 9999 FEW022 26/18 Q1015', 'MKJS 081800Z 04012KT 9999 FEW022 26/20 Q1016', 'MKJS 081700Z 05012KT 9999 SCT022 25/20 Q1017', 'MKJS 081600Z 03007KT 9999 -SHRA BKN022 23/20 Q1018', 'MKJS 081500Z 06005KT 7000 -RA VCSH SCT022 BKN045 22/19 Q1018', 'MKJS 081400Z 09006KT 7000 -SHRA VCSH BKN022 22/19 Q1017', 'MKJS 081300Z 06014KT 9999 -SHRA VCSH BKN022 22/18 Q1016', 'MKJS 081200Z 04015KT 9999 BKN022 24/18 Q1015', 'MKJS 081100Z 03017KT 9999 SCT022 23/18 Q1014', 'MKJS 081000Z 03019KT 9999 FEW022 23/18 Q1014', 'MKJS 080900Z 03023KT 9999 FEW022 23/18 Q1014', 'MKJS 080800Z 02025KT 9999 FEW022 23/18 Q1014', 'MKJS 080700Z 03021KT 9999 FEW022 23/18 Q1014', 'MKJS 080600Z 04020KT 9999 FEW022 23/18 Q1015', 'MKJS 080500Z 03021KT 9999 FEW022 24/18 Q1015', 'MKJS 080400Z 04018KT 9999 SCT022 24/18 Q1015', 'MKJS 080300Z 02018KT 9999 SCT022 24/18 Q1015', 'MKJS 080200Z 02017KT 9999 SCT022 24/16 Q1015', 'MKJS 080100Z 02015KT 9999 FEW022 24/16 Q1015', 'MKJS 080000Z 02012KT 9999 FEW022 23/15 Q1014', 'MKJS 072300Z 36011KT 9999 FEW022 23/14 Q1014', 'MKJS 072200Z 36012KT 9999 SCT022 24/15 Q1014', 'MKJS 072100Z 35013KT 9999 SCT022 24/15 Q1013', 'MKJS 072000Z 01011KT 9999 FEW022 25/14 Q1013', 'MKJS 071900Z 36013KT 9999 SCT022 25/15 Q1014', 'MKJS 071800Z 36013KT 9999 BKN022 25/15 Q1014']","['2024-02-10 17:00:00', '2024-02-10 16:00:00', '2024-02-10 15:00:00', '2024-02-10 14:00:00', '2024-02-10 13:00:00', '2024-02-10 12:00:00', '2024-02-10 11:00:00', '2024-02-10 10:00:00', '2024-02-10 09:00:00', '2024-02-10 08:00:00', '2024-02-10 07:00:00', '2024-02-10 06:00:00', '2024-02-10 05:00:00', '2024-02-10 04:00:00', '2024-02-10 03:00:00', '2024-02-10 02:00:00', '2024-02-10 01:00:00', '2024-02-10 00:00:00', '2024-02-09 23:00:00', '2024-02-09 22:00:00', '2024-02-09 21:00:00', '2024-02-09 20:00:00', '2024-02-09 19:00:00', '2024-02-09 18:00:00', '2024-02-09 17:00:00', '2024-02-09 16:00:00', '2024-02-09 15:00:00', '2024-02-09 14:00:00', '2024-02-09 13:00:00', '2024-02-09 12:00:00', '2024-02-09 11:00:00', '2024-02-09 10:00:00', '2024-02-09 09:00:00', '2024-02-09 08:00:00', '2024-02-09 07:00:00', '2024-02-09 06:00:00', '2024-02-09 05:00:00', '2024-02-09 04:00:00', '2024-02-09 03:00:00', '2024-02-09 02:00:00', '2024-02-09 01:00:00', '2024-02-09 00:00:00', '2024-02-08 23:00:00', '2024-02-08 22:00:00', '2024-02-08 21:00:00', '2024-02-08 20:00:00', '2024-02-08 19:00:00', '2024-02-08 18:00:00', '2024-02-08 17:00:00', '2024-02-08 16:00:00', '2024-02-08 15:00:00', '2024-02-08 14:00:00', '2024-02-08 13:00:00', '2024-02-08 12:00:00', '2024-02-08 11:00:00', '2024-02-08 10:00:00', '2024-02-08 09:00:00', '2024-02-08 08:00:00', '2024-02-08 07:00:00', '2024-02-08 06:00:00', '2024-02-08 05:00:00', '2024-02-08 04:00:00', '2024-02-08 03:00:00', '2024-02-08 02:00:00', '2024-02-08 01:00:00', '2024-02-08 00:00:00', '2024-02-07 23:00:00', '2024-02-07 22:00:00', '2024-02-07 21:00:00', '2024-02-07 20:00:00', '2024-02-07 19:00:00', '2024-02-07 18:00:00']"
Japan, Akita Airport (AXT/RJSK) ,"['RJSK 101200Z 10006KT 7000 -SHSN FEW005 SCT010 BKN025 01/01 Q1011', 'RJSK 101147Z 09004KT 020V120 4000 -TSSN FEW005 SCT010 BKN015 FEW020CB 01/00 Q1011 RMK 1ST005 3CU010 5CU015 1CB020 A2987 FBL TS OHD MOV E', 'RJSK 101100Z 13006KT 100V170 7000 -SHRA FEW001 SCT003 BKN013 01/00 Q1011', 'RJSK 101048Z 15007KT 120V210 4000 -SHGSSN FEW001 SCT004 BKN015 01/01 Q1011 RMK 1ST001 3ST004 5CU015 A2987 SMALL HAIL', 'RJSK 101020Z 14003KT 070V220 4000 -SHSN FEW001 SCT002 BKN004 01/00 Q1010 RMK 1ST001 3ST002 5ST004 A2985', 'RJSK 100945Z 11007KT 090V190 2000 R28/1400VP2000U -SHSN FEW001 SCT002 BKN004 00/00 Q1011 RMK 1ST001 3ST002 5ST004 A2987', 'RJSK 100909Z 12006KT 5000 -SHSN FEW004 SCT008 BKN012 01/00 Q1012 RMK 1ST004 3ST008 5CU012 A2988', 'RJSK 100844Z 11005KT 070V200 0600 R28/P2000N TSSN FEW003 SCT005 BKN007 FEW015CB 01/00 Q1012 RMK 1ST003 3ST005 5ST007 1CB015 A2990 FBL TS 10KM W MOV NE', 'RJSK 100814Z 07005KT 320V110 3000 -SHSN FEW001 SCT003 BKN006 00/M00 Q1012 RMK 1ST001 3ST003 5ST006 A2989', 'RJSK 100750Z 12007KT 1200 R28/1000VP2000N -SHSN FEW002 SCT005 BKN008 00/M00 Q1012 RMK 1ST002 3ST005 5ST008 A2989', 'RJSK 100722Z VRB01KT 0800 R28/P2000N SHSN FEW005 SCT008 BKN010 02/M01 Q1012 RMK 1ST005 3ST008 5CU010 A2989', 'RJSK 100600Z 14004KT 100V180 9999 FEW020 SCT030 BKN040 03/M02 Q1012', 'RJSK 100500Z 13004KT 090V160 9999 FEW020 SCT050 BKN070 04/M06 Q1013', 'RJSK 100400Z 14006KT 100V170 9999 FEW040 BKN070 BKN090 04/M06 Q1014', 'RJSK 100300Z 12007KT 090V160 9999 FEW050 BKN080 BKN100 04/M05 Q1014', 'RJSK 100200Z 13005KT 090V170 9999 FEW050 SCT070 BKN080 02/M04 Q1016', 'RJSK 100100Z 13005KT 100V160 9999 FEW050 SCT070 BKN090 00/M04 Q1017', 'RJSK 100000Z 14004KT 100V180 9999 FEW050 BKN100 BKN120 M01/M04 Q1017', 'RJSK 092300Z 13005KT 9999 FEW050 M03/M04 Q1017', 'RJSK 092200Z 12004KT 9999 FEW050 M04/M05 Q1017', 'RJSK 092140Z 15003KT 110V180 9999 FEW050 M04/M05 Q1018 RMK 1CU050 A3006', 'RJSK 091200Z VRB01KT 9999 FEW030 BKN050 00/M03 Q1019', 'RJSK 091100Z 31002KT 9999 FEW030 BKN050 BKN/// 01/M04 Q1019', 'RJSK 091000Z 31005KT 9999 FEW030 BKN050 BKN/// 01/M04 Q1019', 'RJSK 090900Z 33003KT 9999 -SHSN FEW020 SCT040 BKN/// 01/M04 Q1019', 'RJSK 090800Z 34004KT 300V010 9999 FEW020 BKN040 BKN/// 02/M04 Q1018', 'RJSK 090700Z 31006KT 280V340 9999 FEW030 SCT040 BKN/// 03/M05 Q1019', 'RJSK 090600Z 29011KT 9999 FEW030 SCT040 BKN/// 03/M07 Q1018', 'RJSK 090500Z 30009KT 9999 FEW030 BKN040 BKN/// 04/M06 Q1018', 'RJSK 090400Z 30006KT 260V340 9999 FEW030 BKN040 BKN/// 04/M05 Q1019', 'RJSK 090300Z 31005KT 270V360 9999 FEW030 BKN040 BKN/// 03/M04 Q1019', 'RJSK 090200Z VRB02KT 9999 FEW025 BKN040 02/M05 Q1020', 'RJSK 090100Z VRB01KT 9999 FEW030 BKN060 02/M04 Q1020', 'RJSK 090000Z 00000KT 9999 FEW030 BKN060 01/M04 Q1020', 'RJSK 082300Z 20003KT 9999 FEW030 BKN060 M00/M04 Q1019', 'RJSK 082200Z VRB01KT 9999 FEW030 BKN060 00/M05 Q1019', 'RJSK 082140Z VRB01KT 9999 FEW020 BKN060 M00/M05 Q1019 RMK 1CU020 5CU060 A3009', 'RJSK 081200Z 30005KT 9999 -SHSN FEW010 SCT020 BKN040 03/M04 Q1017', 'RJSK 081100Z 29010KT 9999 -SHSN FEW010 SCT030 BKN050 03/M04 Q1016', 'RJSK 081000Z 30004KT 270V340 9999 -SHSN FEW010 SCT020 BKN040 03/M03 Q1016', 'RJSK 080900Z 28006KT 9999 VCSH FEW006 SCT020 BKN035 02/M01 Q1016', 'RJSK 080825Z 30010KT 6000 -SHSNRA FEW005 SCT010 BKN015 01/M00 Q1015 RMK 1ST005 4ST010 5CU015 A3000', 'RJSK 080819Z 30014KT 2000 -SHSNRA FEW005 SCT008 BKN010 01/M00 Q1016 RMK 1ST005 4ST008 5ST010 A3000', 'RJSK 080700Z 28005KT 250V310 9999 FEW010 SCT030 BKN050 03/M02 Q1015', 'RJSK 080600Z 29008KT 9999 -SHSN FEW010 SCT030 BKN050 03/M02 Q1015', 'RJSK 080546Z 30010KT 4000 -SHSN FEW008 SCT020 BKN035 03/M02 Q1015 RMK 1ST008 3CU020 5CU035 A3000', 'RJSK 080500Z 28010KT 9999 VCSH FEW010 SCT030 BKN050 04/M03 Q1015', 'RJSK 080400Z 27014KT 9999 FEW020 SCT030 BKN040 04/M04 Q1015', 'RJSK 080300Z 28009KT 250V310 9999 FEW010 SCT030 BKN040 04/M02 Q1015', 'RJSK 080200Z 32004KT 290V020 9999 FEW005 SCT030 BKN050 02/M01 Q1016', 'RJSK 080100Z 00000KT 9999 FEW002 SCT030 01/M00 Q1016', 'RJSK 080034Z VRB02KT 8000 FEW001 SCT002 BKN020 M01/M01 Q1016 RMK 1ST001 3ST002 6CU020 A3001', 'RJSK 080018Z VRB02KT 4000 -SHSN BR FEW001 SCT002 BKN020 M01/M01 Q1016 RMK 1ST001 4ST002 5CU020 A3002', 'RJSK 072300Z 13003KT 110V180 3000 -SHSN BR FEW001 BKN002 BKN008 M02/M02 Q1016', 'RJSK 072247Z 15003KT 100V200 2000 BCFG BR FEW000 SCT001 BKN002 M02/M02 Q1016 RMK 2ST000 4ST001 6ST002 A3001 BCFG IS FREEZING', 'RJSK 072226Z 15003KT 0800 R28/P2000N FZFG SCT000 BKN001 M02/M02 Q1016 RMK 4ST000 6ST001 A3000', 'RJSK 072150Z 14003KT 110V180 0500 R28/1200V1700U FZFG BKN000 BKN001 M02/M02 Q1016 RMK 6ST000 7ST001 A3000']","['2024-02-10 12:00:00', '2024-02-10 11:47:00', '2024-02-10 11:00:00', '2024-02-10 10:48:00', '2024-02-10 10:20:00', '2024-02-10 09:45:00', '2024-02-10 09:09:00', '2024-02-10 08:44:00', '2024-02-10 08:14:00', '2024-02-10 07:50:00', '2024-02-10 07:22:00', '2024-02-10 06:00:00', '2024-02-10 05:00:00', '2024-02-10 04:00:00', '2024-02-10 03:00:00', '2024-02-10 02:00:00', '2024-02-10 01:00:00', '2024-02-10 00:00:00', '2024-02-09 23:00:00', '2024-02-09 22:00:00', '2024-02-09 21:40:00', '2024-02-09 12:00:00', '2024-02-09 11:00:00', '2024-02-09 10:00:00', '2024-02-09 09:00:00', '2024-02-09 08:00:00', '2024-02-09 07:00:00', '2024-02-09 06:00:00', '2024-02-09 05:00:00', '2024-02-09 04:00:00', '2024-02-09 03:00:00', '2024-02-09 02:00:00', '2024-02-09 01:00:00', '2024-02-09 00:00:00', '2024-02-08 23:00:00', '2024-02-08 22:00:00', '2024-02-08 21:40:00', '2024-02-08 12:00:00', '2024-02-08 11:00:00', '2024-02-08 10:00:00', '2024-02-08 09:00:00', '2024-02-08 08:25:00', '2024-02-08 08:19:00', '2024-02-08 07:00:00', '2024-02-08 06:00:00', '2024-02-08 05:46:00', '2024-02-08 05:00:00', '2024-02-08 04:00:00', '2024-02-08 03:00:00', '2024-02-08 02:00:00', '2024-02-08 01:00:00', '2024-02-08 00:34:00', '2024-02-08 00:18:00', '2024-02-07 23:00:00', '2024-02-07 22:47:00', '2024-02-07 22:26:00', '2024-02-07 21:50:00']"
Japan, Amami Airport (ASJ/RJKA) ,"['RJKA 101700Z AUTO 33007KT 300V020 9999 FEW049 BKN050 14/03 Q1024', 'RJKA 101600Z AUTO 34008KT 300V020 9999 SCT045 OVC050 14/05 Q1024', 'RJKA 101500Z AUTO 32008KT 290V010 9999 FEW047 BKN050 14/03 Q1024', 'RJKA 101400Z AUTO 33007KT 290V020 9999 FEW046 SCT050 BKN060 14/04 Q1024', 'RJKA 101300Z AUTO 34008KT 310V020 9999 FEW049 14/04 Q1024', 'RJKA 101200Z AUTO 34008KT 310V020 9999 NSC 14/04 Q1024', 'RJKA 101100Z AUTO 34008KT 310V010 9999 SCT048 BKN050 15/05 Q1023', 'RJKA 101000Z 33009KT 290V010 9999 FEW045 15/04 Q1023', 'RJKA 100900Z 34008KT 9999 FEW035 SCT045 14/06 Q1022', 'RJKA 100800Z 32009KT 300V360 9999 FEW040 SCT045 16/06 Q1022', 'RJKA 100700Z 31012KT 290V350 9999 FEW035 SCT045 16/05 Q1022', 'RJKA 100600Z 32009KT 280V360 9999 FEW040 SCT045 17/06 Q1022', 'RJKA 100500Z 32011KT 270V350 9999 FEW040 SCT050 18/05 Q1022', 'RJKA 100400Z 31012KT 270V360 9999 FEW040 SCT050 18/06 Q1022', 'RJKA 100300Z 32012KT 9999 FEW040 SCT060 18/05 Q1023', 'RJKA 100200Z 32009KT 280V010 9999 FEW040 SCT045 BKN050 17/06 Q1023', 'RJKA 100100Z 34009G19KT 310V010 9999 FEW040 17/04 Q1023', 'RJKA 100000Z 33007KT 290V360 9999 FEW040 BKN060 16/05 Q1023', 'RJKA 092300Z 34006KT 290V010 9999 FEW035 SCT050 BKN060 15/05 Q1022', 'RJKA 092200Z AUTO 33008KT 270V020 9999 SCT044 BKN047 BKN050 14/06 Q1022', 'RJKA 092100Z AUTO 34006KT 300V010 9999 BKN041 BKN048 BKN050 14/07 Q1021', 'RJKA 092000Z AUTO 33007KT 290V010 9999 NSC 14/05 Q1020', 'RJKA 091900Z AUTO 34008KT 310V010 9999 SCT046 OVC050 14/05 Q1020', 'RJKA 091800Z AUTO 34008KT 300V010 9999 SCT038 SCT044 BKN046 15/07 Q1020', 'RJKA 091700Z AUTO 33008KT 300V360 9999 FEW040 BKN044 OVC050 15/06 Q1021', 'RJKA 091600Z AUTO 32007KT 290V360 9999 FEW036 BKN047 OVC060 15/07 Q1021', 'RJKA 091500Z AUTO 33006KT 290V010 9999 NSC 14/04 Q1021', 'RJKA 091400Z AUTO 34005KT 310V010 9999 NSC 14/07 Q1021', 'RJKA 091300Z AUTO 33006KT 300V010 9999 SCT047 OVC050 15/06 Q1021', 'RJKA 091200Z AUTO 34007KT 310V010 9999 FEW042 OVC050 15/07 Q1021', 'RJKA 091100Z AUTO 33007KT 300V010 9999 FEW040 OVC044 15/07 Q1020', 'RJKA 091000Z 34007KT 300V020 9999 FEW030 BKN040 15/08 Q1019', 'RJKA 090900Z 34006KT 310V010 9999 FEW030 BKN040 15/08 Q1019', 'RJKA 090800Z 35009KT 310V020 9999 -SHRA FEW030 BKN040 15/08 Q1019', 'RJKA 090700Z 34008KT 310V020 9999 -SHRA FEW030 SCT035 BKN040 15/08 Q1019', 'RJKA 090600Z 31008KT 270V350 9999 -SHRA FEW030 BKN040 BKN050 15/08 Q1018', 'RJKA 090500Z 31006KT 9999 -SHRA FEW035 SCT040 BKN045 16/07 Q1018', 'RJKA 090400Z 31009KT 270V340 9999 -SHRA FEW030 SCT035 BKN045 16/09 Q1019', 'RJKA 090300Z 34008KT 300V030 9999 -SHRA FEW030 SCT040 BKN045 16/09 Q1019', 'RJKA 090200Z 33006KT 280V020 9999 -SHRA FEW030 SCT035 BKN050 15/09 Q1020', 'RJKA 090100Z 30006KT 260V340 9999 -RA FEW035 BKN050 16/08 Q1020', 'RJKA 090000Z 30007KT 270V340 9999 FEW030 SCT045 BKN050 15/08 Q1020', 'RJKA 082300Z 32006KT 290V360 9999 FEW035 SCT060 BKN130 15/08 Q1019', 'RJKA 082200Z AUTO 32003KT 270V020 9999 FEW037 SCT039 BKN160 15/07 Q1018', 'RJKA 082100Z AUTO 33006KT 290V010 9999 FEW044 SCT190 BKN200 14/08 Q1017', 'RJKA 082000Z AUTO 30007KT 250V340 9999 SCT034 BKN038 BKN041 14/09 Q1018', 'RJKA 081900Z AUTO 30003KT 270V340 9999 -RA BKN026 BKN030 BKN035 13/11 Q1018', 'RJKA 081800Z AUTO 34005KT 310V030 9999 FEW031 SCT036 BKN041 14/10 Q1017', 'RJKA 081700Z AUTO 31004KT 270V010 9999 BKN034 OVC040 15/08 Q1017', 'RJKA 081600Z AUTO 32004KT 280V010 9999 OVC033 15/09 Q1017', 'RJKA 081500Z AUTO 35007KT 9999 FEW033 OVC036 15/10 Q1017', 'RJKA 081400Z AUTO 35004KT 320V020 9999 FEW031 SCT034 OVC039 15/10 Q1017', 'RJKA 081300Z AUTO 33003KT 290V020 9999 OVC037 15/09 Q1017', 'RJKA 081200Z AUTO 34006KT 300V020 9999 OVC037 15/09 Q1017', 'RJKA 081100Z AUTO 35006KT 320V020 9999 BKN035 OVC040 15/09 Q1017', 'RJKA 081000Z 35008KT 9999 FEW025 BKN035 BKN040 15/09 Q1016', 'RJKA 080900Z 34007KT 9999 FEW025 BKN030 BKN035 15/10 Q1016', 'RJKA 080800Z 35008KT 9999 -SHRA FEW025 BKN030 BKN035 15/10 Q1015', 'RJKA 080700Z 34005KT 300V040 9999 FEW025 SCT030 BKN035 15/10 Q1015', 'RJKA 080600Z 35007KT 9999 FEW025 BKN035 BKN050 14/11 Q1014', 'RJKA 080500Z 34007KT 310V010 9999 -SHRA FEW025 SCT030 BKN035 14/11 Q1015', 'RJKA 080400Z 35006KT 320V020 9999 FEW025 BKN035 BKN080 14/11 Q1015', 'RJKA 080300Z 35007KT 9999 -SHRA FEW020 BKN040 BKN050 14/11 Q1016', 'RJKA 080200Z 36010KT 9999 -SHRA FEW015 SCT020 BKN025 14/12 Q1017', 'RJKA 080100Z 35007KT 9999 -SHRA FEW015 SCT020 BKN030 13/12 Q1017', 'RJKA 080000Z 34007KT 9999 -SHRA FEW020 SCT035 BKN040 13/12 Q1017', 'RJKA 072300Z 33004KT 300V360 9999 -RA FEW020 SCT040 BKN080 13/11 Q1016', 'RJKA 072200Z AUTO 33005KT 310V010 9999 -RA FEW024 BKN033 OVC036 13/11 Q1016', 'RJKA 072100Z AUTO 33003KT 9999 -RA FEW021 SCT028 BKN040 12/11 Q1015', 'RJKA 072000Z AUTO 34006KT 9999 -RA FEW018 SCT027 BKN032 13/11 Q1015', 'RJKA 071900Z AUTO 36006KT 9999 -RA FEW018 SCT022 BKN030 13/11 Q1015', 'RJKA 071800Z AUTO 35006KT 9999 -RA FEW017 BKN021 OVC035 13/11 Q1016']","['2024-02-10 17:00:00', '2024-02-10 16:00:00', '2024-02-10 15:00:00', '2024-02-10 14:00:00', '2024-02-10 13:00:00', '2024-02-10 12:00:00', '2024-02-10 11:00:00', '2024-02-10 10:00:00', '2024-02-10 09:00:00', '2024-02-10 08:00:00', '2024-02-10 07:00:00', '2024-02-10 06:00:00', '2024-02-10 05:00:00', '2024-02-10 04:00:00', '2024-02-10 03:00:00', '2024-02-10 02:00:00', '2024-02-10 01:00:00', '2024-02-10 00:00:00', '2024-02-09 23:00:00', '2024-02-09 22:00:00', '2024-02-09 21:00:00', '2024-02-09 20:00:00', '2024-02-09 19:00:00', '2024-02-09 18:00:00', '2024-02-09 17:00:00', '2024-02-09 16:00:00', '2024-02-09 15:00:00', '2024-02-09 14:00:00', '2024-02-09 13:00:00', '2024-02-09 12:00:00', '2024-02-09 11:00:00', '2024-02-09 10:00:00', '2024-02-09 09:00:00', '2024-02-09 08:00:00', '2024-02-09 07:00:00', '2024-02-09 06:00:00', '2024-02-09 05:00:00', '2024-02-09 04:00:00', '2024-02-09 03:00:00', '2024-02-09 02:00:00', '2024-02-09 01:00:00', '2024-02-09 00:00:00', '2024-02-08 23:00:00', '2024-02-08 22:00:00', '2024-02-08 21:00:00', '2024-02-08 20:00:00', '2024-02-08 19:00:00', '2024-02-08 18:00:00', '2024-02-08 17:00:00', '2024-02-08 16:00:00', '2024-02-08 15:00:00', '2024-02-08 14:00:00', '2024-02-08 13:00:00', '2024-02-08 12:00:00', '2024-02-08 11:00:00', '2024-02-08 10:00:00', '2024-02-08 09:00:00', '2024-02-08 08:00:00', '2024-02-08 07:00:00', '2024-02-08 06:00:00', '2024-02-08 05:00:00', '2024-02-08 04:00:00', '2024-02-08 03:00:00', '2024-02-08 02:00:00', '2024-02-08 01:00:00', '2024-02-08 00:00:00', '2024-02-07 23:00:00', '2024-02-07 22:00:00', '2024-02-07 21:00:00', '2024-02-07 20:00:00', '2024-02-07 19:00:00', '2024-02-07 18:00:00']"
Japan, Aomori Airport (AOJ/RJSA) ,"['RJSA 101200Z 26002KT 3000 BCFG -SN BR FEW001 BKN002 BKN025 M01/M01 Q1010', 'RJSA 101111Z 30003KT 270V340 3500 BCFG -SN BR FEW001 BKN002 BKN030 M01/M02 Q1010 RMK 1ST001 5ST002 7SC030 A2984 BCFG IS FREEZING', 'RJSA 101000Z 05003KT 030V100 9999 -SN FEW015 BKN035 BKN050 M01/M02 Q1011', 'RJSA 100925Z VRB02KT 5000 -SN BR FEW010 SCT025 BKN040 M01/M02 Q1011 RMK 1ST010 3SC025 6SC040 A2987', 'RJSA 100800Z VRB02KT 9999 -SN FEW010 SCT025 BKN050 M01/M02 Q1011', 'RJSA 100745Z VRB02KT 4000 R06/1600VP2000N -SN BR FEW010 SCT025 BKN060 M01/M02 Q1012 RMK 1ST010 4SC025 7SC060 A2988', 'RJSA 100727Z VRB02KT 3500 -SN BR FEW010 SCT020 BKN060 00/M03 Q1012 RMK 1ST010 3SC020 7SC060 A2989', 'RJSA 100600Z 36005KT 330V040 9999 FEW012 BKN080 00/M03 Q1012', 'RJSA 100500Z 04007KT 9999 -SHSN FEW010 SCT025 BKN040 01/M04 Q1012', 'RJSA 100400Z 08003KT 9999 FEW030 BKN050 01/M07 Q1014', 'RJSA 100300Z 05003KT 010V080 9999 FEW040 BKN060 01/M08 Q1015', 'RJSA 100200Z 07002KT 9999 FEW030 BKN060 00/M08 Q1016', 'RJSA 100100Z VRB02KT 9999 FEW040 BKN060 BKN080 M01/M08 Q1017', 'RJSA 100000Z 23003KT CAVOK M03/M07 Q1017', 'RJSA 092300Z 24005KT CAVOK M06/M08 Q1017', 'RJSA 092200Z VRB01KT CAVOK M08/M10 Q1017', 'RJSA 092140Z VRB01KT CAVOK M08/M09 Q1017 RMK A3003', 'RJSA 091200Z 15003KT 120V210 9999 FEW040 SCT160 BKN/// M06/M09 Q1019', 'RJSA 091100Z VRB02KT 9999 FEW040 BKN/// M05/M09 Q1019', 'RJSA 091000Z 00000KT 9999 FEW030 BKN/// M05/M08 Q1019', 'RJSA 090900Z VRB02KT 9999 FEW030 BKN045 BKN/// M04/M07 Q1019', 'RJSA 090800Z 27003KT 240V310 9999 FEW030 BKN045 BKN/// M01/M07 Q1018', 'RJSA 090700Z 28007KT 9999 FEW030 BKN045 BKN/// M00/M07 Q1018', 'RJSA 090600Z 27009KT 240V300 9999 FEW030 BKN/// 01/M07 Q1018', 'RJSA 090500Z 28009KT 240V310 9999 FEW030 BKN050 BKN/// 01/M07 Q1018', 'RJSA 090400Z 28009KT 260V320 9999 FEW025 SCT035 BKN050 01/M06 Q1018', 'RJSA 090300Z 27008KT 230V310 9999 -SHSN FEW020 SCT030 BKN050 00/M06 Q1019', 'RJSA 090200Z 23007KT 9999 -SHSN FEW010 SCT025 BKN050 M01/M03 Q1020', 'RJSA 090149Z 25008KT 6000 R24/1400VP2000U -SHSN FEW010 SCT025 BKN040 M01/M03 Q1020 RMK 1ST010 4CU025 7CU040 A3012', 'RJSA 090100Z 25008KT 9999 -SHSN FEW020 BKN040 M01/M05 Q1019', 'RJSA 090000Z VRB02KT 9999 FEW020 SCT050 00/M04 Q1019', 'RJSA 082300Z 23004KT 9999 FEW020 SCT050 M04/M07 Q1019', 'RJSA 082200Z 20005KT 9999 FEW025 BKN050 M04/M06 Q1018', 'RJSA 082140Z 22004KT 9999 FEW020 SCT030 BKN050 M02/M05 Q1018 RMK 1CU020 3CU030 5CU050 A3006', 'RJSA 081200Z 25007KT 6000 -SHSN FEW010 SCT015 BKN020 M01/M02 Q1015', 'RJSA 081100Z 26010KT 2500 R24/2000N -SHSN FEW010 SCT015 BKN020 M01/M02 Q1015', 'RJSA 081048Z 25012KT 1500 R24/P2000N -SHSN FEW010 BKN015 BKN020 M01/M03 Q1014 RMK 1ST010 5CU015 6CU020 A2997', 'RJSA 081000Z 24013KT 9999 FEW020 SCT040 BKN050 00/M06 Q1014', 'RJSA 080900Z 26011KT 9999 FEW020 SCT040 BKN050 00/M06 Q1013', 'RJSA 080800Z 25012KT 9999 FEW020 SCT040 BKN050 01/M04 Q1013', 'RJSA 080700Z 24014KT 9999 -SHSN FEW020 SCT030 BKN040 01/M04 Q1013', 'RJSA 080600Z 22012KT 9999 FEW030 SCT040 BKN060 01/M05 Q1012', 'RJSA 080500Z 24013KT 9999 FEW030 SCT040 BKN050 02/M05 Q1013', 'RJSA 080400Z 27012KT 230V300 9999 FEW030 BKN050 02/M05 Q1013', 'RJSA 080300Z 25012KT 9999 -SHSN FEW030 BKN050 BKN060 01/M06 Q1013', 'RJSA 080200Z 25012KT 9999 FEW030 SCT040 BKN050 02/M04 Q1014', 'RJSA 080100Z 24010KT 9999 FEW030 SCT040 BKN050 00/M04 Q1014', 'RJSA 080000Z 24009KT 9999 FEW030 SCT040 BKN050 00/M04 Q1014', 'RJSA 072300Z 23009KT 9999 -SHSN FEW030 SCT040 BKN050 M00/M04 Q1014', 'RJSA 072200Z 22009KT 9999 FEW030 SCT040 BKN050 M01/M05 Q1013', 'RJSA 072140Z 24008KT 9999 -SHSN FEW030 BKN040 M01/M05 Q1013 RMK 1CU030 7CU040 A2994']","['2024-02-10 12:00:00', '2024-02-10 11:11:00', '2024-02-10 10:00:00', '2024-02-10 09:25:00', '2024-02-10 08:00:00', '2024-02-10 07:45:00', '2024-02-10 07:27:00', '2024-02-10 06:00:00', '2024-02-10 05:00:00', '2024-02-10 04:00:00', '2024-02-10 03:00:00', '2024-02-10 02:00:00', '2024-02-10 01:00:00', '2024-02-10 00:00:00', '2024-02-09 23:00:00', '2024-02-09 22:00:00', '2024-02-09 21:40:00', '2024-02-09 12:00:00', '2024-02-09 11:00:00', '2024-02-09 10:00:00', '2024-02-09 09:00:00', '2024-02-09 08:00:00', '2024-02-09 07:00:00', '2024-02-09 06:00:00', '2024-02-09 05:00:00', '2024-02-09 04:00:00', '2024-02-09 03:00:00', '2024-02-09 02:00:00', '2024-02-09 01:49:00', '2024-02-09 01:00:00', '2024-02-09 00:00:00', '2024-02-08 23:00:00', '2024-02-08 22:00:00', '2024-02-08 21:40:00', '2024-02-08 12:00:00', '2024-02-08 11:00:00', '2024-02-08 10:48:00', '2024-02-08 10:00:00', '2024-02-08 09:00:00', '2024-02-08 08:00:00', '2024-02-08 07:00:00', '2024-02-08 06:00:00', '2024-02-08 05:00:00', '2024-02-08 04:00:00', '2024-02-08 03:00:00', '2024-02-08 02:00:00', '2024-02-08 01:00:00', '2024-02-08 00:00:00', '2024-02-07 23:00:00', '2024-02-07 22:00:00', '2024-02-07 21:40:00']"
Japan, Asahikawa Airport (AKJ/RJEC) ,"['RJEC 101700Z AUTO 20004KT 5000 -SN BKN012 OVC040 M07/M08 Q1012', 'RJEC 101600Z AUTO VRB01KT 9999 OVC013 M06/M08 Q1012', 'RJEC 101500Z AUTO 18004KT 9999 -SN OVC010 M07/M08 Q1012', 'RJEC 101400Z AUTO 17004KT 9999 FEW008 BKN031 OVC060 M06/M08 Q1013', 'RJEC 101300Z AUTO 21002KT 5000 BR BKN032 BKN044 OVC048 M08/M09 Q1013', 'RJEC 101215Z AUTO 00000KT 5000 -SN FEW043 SCT047 OVC048 M06/M07 Q1013 RMK A2993', 'RJEC 101100Z VRB02KT 9999 -SHSN FEW003 SCT020 BKN045 M07/M09 Q1013', 'RJEC 101000Z VRB01KT 9999 -SHSN FEW003 SCT020 BKN050 M06/M08 Q1013', 'RJEC 100900Z VRB01KT 9999 -SHSN FEW005 SCT020 BKN045 M06/M09 Q1013', 'RJEC 100800Z 35003KT 9999 -SHSN FEW005 SCT025 BKN045 M05/M08 Q1013', 'RJEC 100700Z 17005KT 9999 -SHSN FEW006 SCT025 BKN050 M03/M07 Q1013', 'RJEC 100600Z 19006KT 9999 -SHSN FEW004 SCT020 BKN040 M02/M07 Q1013', 'RJEC 100500Z 16008KT 9999 -SHSN FEW006 SCT020 BKN040 M02/M07 Q1014', 'RJEC 100400Z 17007KT 9999 -SHSN FEW006 SCT015 BKN040 M01/M06 Q1014', 'RJEC 100300Z 18007KT 9999 -SHSN FEW004 SCT015 BKN040 M02/M07 Q1015', 'RJEC 100200Z 17008KT 9999 -SHSN FEW006 SCT015 BKN040 M04/M08 Q1016', 'RJEC 100100Z 16010KT 9999 -SHSN FEW008 SCT015 BKN040 M05/M08 Q1017', 'RJEC 100000Z VRB02KT 9999 -SHSN FEW005 SCT020 BKN050 M10/M11 Q1017', 'RJEC 092300Z 16003KT 8000 -SHSN FEW003 SCT020 BKN040 M10/M12 Q1017', 'RJEC 092221Z AUTO VRB02KT 1500 R34/1500VP2000N BR BKN060 M14/M16 Q1017 RMK A3005', 'RJEC 092151Z AUTO 12002KT 9999 FEW030 SCT032 BKN038 M13/M15 Q1017 RMK A3004', 'RJEC 092100Z AUTO 05001KT 5000 -SN FEW037 BKN040 BKN043 M09/M10 Q1017', 'RJEC 092000Z AUTO VRB01KT 3100 -SN SCT022 SCT037 BKN038 M09/M10 Q1017', 'RJEC 091900Z AUTO 28001KT 3000 -SN FEW022 SCT023 BKN027 M09/M10 Q1017', 'RJEC 091800Z AUTO VRB02KT 9000 FEW042 BKN050 OVC070 M10/M11 Q1017', 'RJEC 091700Z AUTO 24003KT 9999 FEW027 SCT034 BKN038 M09/M10 Q1017', 'RJEC 091600Z AUTO 17010KT 9999 FEW031 SCT039 BKN044 M07/M09 Q1017', 'RJEC 091500Z AUTO 17011KT 9999 FEW034 SCT037 BKN043 M07/M09 Q1017', 'RJEC 091400Z AUTO 16011KT 9999 FEW035 SCT038 BKN044 M08/M10 Q1017', 'RJEC 091300Z AUTO 16009KT 9999 FEW039 BKN040 BKN048 M08/M11 Q1018', 'RJEC 091200Z AUTO 20006KT 9999 BKN036 BKN043 OVC060 M10/M12 Q1018', 'RJEC 091100Z 19006KT 9999 -SHSN FEW005 SCT012 BKN050 M09/M12 Q1018', 'RJEC 091000Z 18006KT 9999 -SHSN FEW007 SCT015 BKN040 M12/M14 Q1018', 'RJEC 090900Z 13002KT 9999 -SHSN FEW006 SCT015 BKN050 M11/M13 Q1018', 'RJEC 090800Z 10003KT 9999 -SHSN FEW003 SCT012 BKN030 M09/M11 Q1017', 'RJEC 090700Z 33007KT 9999 -SHSN FEW003 SCT012 BKN025 M06/M08 Q1017', 'RJEC 090600Z 30003KT 260V320 9999 -SHSN FEW006 SCT015 BKN030 M06/M08 Q1017', 'RJEC 090500Z 29007KT 9999 -SHSN FEW004 SCT010 BKN030 M04/M08 Q1017', 'RJEC 090400Z 29008KT 9999 -SHSN FEW004 SCT010 BKN050 M04/M09 Q1016', 'RJEC 090300Z 31007KT 9999 -SHSN FEW004 SCT010 BKN035 M04/M08 Q1017', 'RJEC 090200Z 36004KT 310V030 9999 -SHSN FEW002 SCT025 BKN040 M04/M08 Q1017', 'RJEC 090100Z VRB02KT 9999 -SHSN FEW005 SCT030 BKN050 M05/M09 Q1017', 'RJEC 090000Z 16007KT 9999 FEW012 SCT030 BKN090 M07/M10 Q1016', 'RJEC 082300Z 16009KT 9999 FEW008 SCT020 M08/M10 Q1016', 'RJEC 082200Z AUTO 16009KT 9999 FEW021 BKN026 BKN029 M11/M12 Q1015', 'RJEC 082139Z AUTO 18008KT 9000 -SN FEW020 SCT031 BKN036 M09/M10 Q1015 RMK A2999', 'RJEC 082100Z AUTO 20006KT 9999 FEW030 SCT035 BKN044 M08/M10 Q1015', 'RJEC 082000Z AUTO 16003KT 9000 -SN FEW020 SCT031 BKN038 M08/M09 Q1014', 'RJEC 081900Z AUTO 18006KT 9999 SCT020 BKN024 BKN038 M08/M09 Q1014', 'RJEC 081800Z AUTO 18005KT 9999 SCT042 BKN044 OVC060 M08/M09 Q1014', 'RJEC 081700Z AUTO 16003KT 9999 FEW031 SCT040 BKN060 M12/M13 Q1014', 'RJEC 081600Z AUTO 21003KT 190V250 9999 FEW016 SCT037 BKN042 M08/M10 Q1013', 'RJEC 081500Z AUTO 11002KT 1300 R34/P2000N -SN FEW018 SCT023 BKN026 M07/M08 Q1013', 'RJEC 081400Z AUTO 00000KT 5000 -SN FEW024 SCT030 BKN035 M07/M08 Q1012', 'RJEC 081300Z AUTO 22002KT 9999 FEW029 SCT038 BKN041 M08/M09 Q1012', 'RJEC 081200Z AUTO 30004KT 9999 FEW014 SCT038 BKN043 M07/M09 Q1012', 'RJEC 081100Z 30005KT 7000 -SHSN FEW002 SCT012 BKN025 M05/M07 Q1011', 'RJEC 081036Z 32003KT 5000 -SHSN FEW002 SCT012 BKN025 M06/M07 Q1011 RMK 1ST002 4ST012 6CU025 A2987', 'RJEC 081000Z 34006KT 3000 -SHSN FEW001 BKN007 BKN015 M04/M05 Q1011', 'RJEC 080921Z 29004KT 3200 -SHSN FEW001 SCT012 BKN025 M04/M05 Q1010 RMK 1ST001 4ST012 6CU025 A2984', 'RJEC 080909Z 29004KT 2400 -SHSN FEW001 SCT012 BKN025 M04/M05 Q1010 RMK 1ST001 4ST012 6CU025 A2984', 'RJEC 080847Z 32003KT 1600 -SHSN FEW001 SCT008 BKN015 M04/M05 Q1010 RMK 2ST001 4ST008 6ST015 A2984', 'RJEC 080815Z 33003KT 0700 R34/2000N SHSN FEW001 BKN006 BKN012 M04/M05 Q1010 RMK 2ST001 5ST006 7ST012 A2982', 'RJEC 080746Z 26005KT 1500 R34/1900D -SHSN FEW001 SCT008 BKN015 M04/M05 Q1009 RMK 2ST001 4ST008 6ST015 A2982', 'RJEC 080700Z 22008KT 9999 -SHSN FEW004 SCT020 BKN100 M03/M07 Q1009', 'RJEC 080600Z 21008KT 170V250 9999 -SHSN FEW002 SCT020 BKN100 M02/M05 Q1009', 'RJEC 080500Z 24010KT 9999 -SHSN FEW002 SCT015 BKN030 M02/M06 Q1008', 'RJEC 080400Z 21008KT 9999 -SHSN FEW001 SCT012 BKN025 M02/M06 Q1008', 'RJEC 080346Z 23010KT 5000 -SHSN FEW001 SCT015 BKN030 M02/M06 Q1008 RMK 1ST001 3ST015 5CU030 A2979 9999N', 'RJEC 080300Z 18011KT 9999 -SHSN FEW005 SCT015 BKN030 M02/M07 Q1008', 'RJEC 080200Z 19013KT 9999 -SHSN FEW003 SCT015 BKN040 M02/M07 Q1009', 'RJEC 080100Z 16009KT 9999 -SHSN FEW003 SCT020 BKN040 M05/M07 Q1010', 'RJEC 080000Z 15010KT 9999 -SHSN FEW003 SCT010 BKN025 M06/M08 Q1010', 'RJEC 072300Z 17007KT 9999 -SHSN FEW005 SCT012 BKN025 M07/M09 Q1010', 'RJEC 072200Z AUTO 17009KT 9999 FEW027 SCT030 BKN050 M07/M09 Q1010', 'RJEC 072145Z AUTO 17010KT 4600 -SN FEW030 SCT032 BKN035 M08/M10 Q1010 RMK A2985', 'RJEC 072100Z AUTO 18008KT 9999 BKN035 BKN047 OVC060 M09/M10 Q1010', 'RJEC 072000Z AUTO 19006KT 9999 FEW048 SCT050 OVC060 M12/M13 Q1011', 'RJEC 071900Z AUTO 17008KT 9999 FEW049 BKN050 BKN060 M10/M11 Q1011', 'RJEC 071800Z AUTO 20008KT 9999 FEW037 BKN050 OVC060 M09/M11 Q1011']","['2024-02-10 17:00:00', '2024-02-10 16:00:00', '2024-02-10 15:00:00', '2024-02-10 14:00:00', '2024-02-10 13:00:00', '2024-02-10 12:15:00', '2024-02-10 11:00:00', '2024-02-10 10:00:00', '2024-02-10 09:00:00', '2024-02-10 08:00:00', '2024-02-10 07:00:00', '2024-02-10 06:00:00', '2024-02-10 05:00:00', '2024-02-10 04:00:00', '2024-02-10 03:00:00', '2024-02-10 02:00:00', '2024-02-10 01:00:00', '2024-02-10 00:00:00', '2024-02-09 23:00:00', '2024-02-09 22:21:00', '2024-02-09 21:51:00', '2024-02-09 21:00:00', '2024-02-09 20:00:00', '2024-02-09 19:00:00', '2024-02-09 18:00:00', '2024-02-09 17:00:00', '2024-02-09 16:00:00', '2024-02-09 15:00:00', '2024-02-09 14:00:00', '2024-02-09 13:00:00', '2024-02-09 12:00:00', '2024-02-09 11:00:00', '2024-02-09 10:00:00', '2024-02-09 09:00:00', '2024-02-09 08:00:00', '2024-02-09 07:00:00', '2024-02-09 06:00:00', '2024-02-09 05:00:00', '2024-02-09 04:00:00', '2024-02-09 03:00:00', '2024-02-09 02:00:00', '2024-02-09 01:00:00', '2024-02-09 00:00:00', '2024-02-08 23:00:00', '2024-02-08 22:00:00', '2024-02-08 21:39:00', '2024-02-08 21:00:00', '2024-02-08 20:00:00', '2024-02-08 19:00:00', '2024-02-08 18:00:00', '2024-02-08 17:00:00', '2024-02-08 16:00:00', '2024-02-08 15:00:00', '2024-02-08 14:00:00', '2024-02-08 13:00:00', '2024-02-08 12:00:00', '2024-02-08 11:00:00', '2024-02-08 10:36:00', '2024-02-08 10:00:00', '2024-02-08 09:21:00', '2024-02-08 09:09:00', '2024-02-08 08:47:00', '2024-02-08 08:15:00', '2024-02-08 07:46:00', '2024-02-08 07:00:00', '2024-02-08 06:00:00', '2024-02-08 05:00:00', '2024-02-08 04:00:00', '2024-02-08 03:46:00', '2024-02-08 03:00:00', '2024-02-08 02:00:00', '2024-02-08 01:00:00', '2024-02-08 00:00:00', '2024-02-07 23:00:00', '2024-02-07 22:00:00', '2024-02-07 21:45:00', '2024-02-07 21:00:00', '2024-02-07 20:00:00', '2024-02-07 19:00:00', '2024-02-07 18:00:00']"
Japan, Fukue Airport (FUJ/RJFE) ,"['RJFE 101000Z 06002KT 8000 SCT040 BKN060 08/03 Q1023', 'RJFE 100900Z 36004KT 8000 -RA FEW035 SCT045 BKN060 08/03 Q1023', 'RJFE 100800Z 35006KT 310V020 8000 -RA FEW035 SCT040 BKN050 08/02 Q1023', 'RJFE 100700Z 35006KT 290V030 8000 -RA FEW035 SCT040 BKN050 09/02 Q1023', 'RJFE 100600Z 33010KT 300V020 9999 FEW040 SCT045 10/01 Q1023', 'RJFE 100500Z 34010KT 300V020 9000 FEW040 BKN070 10/00 Q1023', 'RJFE 100400Z 34008KT 310V030 9999 FEW045 10/00 Q1023', 'RJFE 100300Z 35010KT 320V020 9999 FEW040 SCT045 11/01 Q1024', 'RJFE 100200Z 33011KT 300V010 9999 FEW035 SCT045 10/00 Q1024', 'RJFE 100100Z 33008KT 270V350 9999 FEW035 SCT045 09/M00 Q1025', 'RJFE 100000Z 33008KT 290V360 9999 FEW035 SCT040 08/M00 Q1024', 'RJFE 092300Z 34005KT 290V010 9999 FEW030 SCT040 07/M00 Q1024', 'RJFE 091000Z 33008KT 300V010 9999 FEW030 BKN040 08/01 Q1021', 'RJFE 090900Z 32008KT 280V340 9999 FEW030 SCT035 BKN040 07/00 Q1020', 'RJFE 090800Z 32009KT 280V010 9999 FEW030 SCT040 07/00 Q1020', 'RJFE 090700Z 32011KT 290V360 9999 FEW035 SCT040 08/01 Q1020', 'RJFE 090600Z 31012KT 280V360 9999 FEW035 SCT040 09/01 Q1020', 'RJFE 090500Z 31012KT 280V350 9999 FEW030 BKN035 09/01 Q1020', 'RJFE 090400Z 31010KT 280V340 9999 FEW030 SCT035 10/03 Q1020', 'RJFE 090300Z 34011KT 310V020 9999 FEW030 SCT035 10/02 Q1021', 'RJFE 090200Z 33008KT 290V020 9999 FEW030 BKN/// 09/02 Q1021', 'RJFE 090100Z 34009KT 290V010 9999 FEW030 BKN/// 08/01 Q1021', 'RJFE 090000Z 33007KT 300V010 9999 FEW020 BKN/// 08/02 Q1020', 'RJFE 082300Z 34009KT 9999 FEW015 SCT025 BKN/// 07/02 Q1020', 'RJFE 081000Z 33005KT 9999 -SHRA FEW010 SCT025 BKN030 07/06 Q1018', 'RJFE 080900Z 32005KT 9999 FEW010 SCT020 BKN030 07/06 Q1017', 'RJFE 080800Z 36006KT 9999 FEW010 SCT015 BKN030 08/06 Q1017', 'RJFE 080700Z 34003KT 320V020 9999 -SHRA FEW008 SCT015 BKN020 08/06 Q1017', 'RJFE 080600Z 33005KT 300V010 9999 -SHRA FEW008 SCT015 BKN025 07/06 Q1017', 'RJFE 080500Z 32009KT 290V350 9999 -SHRA FEW020 SCT025 BKN030 09/05 Q1017', 'RJFE 080400Z 32010KT 270V010 9999 -SHRA FEW020 SCT030 BKN040 11/05 Q1017', 'RJFE 080300Z 33011KT 290V360 9999 FEW025 SCT040 BKN050 11/04 Q1018', 'RJFE 080200Z 34012KT 9999 FEW030 SCT040 BKN/// 10/03 Q1019', 'RJFE 080100Z 33009KT 290V360 9999 FEW030 SCT040 BKN/// 10/03 Q1019', 'RJFE 080000Z 35009KT 9999 FEW035 SCT040 08/03 Q1019', 'RJFE 072300Z 34006KT 9999 FEW030 SCT035 06/01 Q1019']","['2024-02-10 10:00:00', '2024-02-10 09:00:00', '2024-02-10 08:00:00', '2024-02-10 07:00:00', '2024-02-10 06:00:00', '2024-02-10 05:00:00', '2024-02-10 04:00:00', '2024-02-10 03:00:00', '2024-02-10 02:00:00', '2024-02-10 01:00:00', '2024-02-10 00:00:00', '2024-02-09 23:00:00', '2024-02-09 10:00:00', '2024-02-09 09:00:00', '2024-02-09 08:00:00', '2024-02-09 07:00:00', '2024-02-09 06:00:00', '2024-02-09 05:00:00', '2024-02-09 04:00:00', '2024-02-09 03:00:00', '2024-02-09 02:00:00', '2024-02-09 01:00:00', '2024-02-09 00:00:00', '2024-02-08 23:00:00', '2024-02-08 10:00:00', '2024-02-08 09:00:00', '2024-02-08 08:00:00', '2024-02-08 07:00:00', '2024-02-08 06:00:00', '2024-02-08 05:00:00', '2024-02-08 04:00:00', '2024-02-08 03:00:00', '2024-02-08 02:00:00', '2024-02-08 01:00:00', '2024-02-08 00:00:00', '2024-02-07 23:00:00']"
Japan, Fukuoka Airport (FUK/RJFF) ,"['RJFF 101700Z AUTO 15004KT 9999 NSC 05/M01 Q1023 NOSIG', 'RJFF 101630Z AUTO 16005KT 9999 NSC 05/M01 Q1023 NOSIG RMK A3021', 'RJFF 101600Z AUTO 13003KT 9999 NSC 05/M00 Q1023 NOSIG', 'RJFF 101530Z AUTO 16003KT 9999 NSC 05/M00 Q1023 NOSIG RMK A3023', 'RJFF 101500Z AUTO VRB02KT 9999 NSC 05/M01 Q1024 NOSIG', 'RJFF 101430Z AUTO 12003KT 070V150 9999 NSC 05/M00 Q1024 NOSIG', 'RJFF 101400Z AUTO 13004KT 9999 NSC 04/M00 Q1024 NOSIG', 'RJFF 101330Z 10003KT 080V140 9999 FEW035 SCT/// 04/M01 Q1024 NOSIG RMK 1CU035 A3024', 'RJFF 101300Z 10003KT 040V150 9999 FEW040 SCT070 04/M01 Q1024 NOSIG', 'RJFF 101230Z 16005KT 9999 FEW040 SCT080 05/M01 Q1024 NOSIG RMK 1CU040 3AC080 A3024', 'RJFF 101200Z 15007KT CAVOK 05/M01 Q1024 NOSIG', 'RJFF 101130Z 17006KT 150V220 CAVOK 05/M01 Q1024 NOSIG', 'RJFF 101100Z 21005KT 160V240 CAVOK 06/M01 Q1023 NOSIG', 'RJFF 101030Z 24004KT 160V310 9999 FEW030 06/M01 Q1023 BECMG 28006KT RMK 1CU030 A3023', 'RJFF 101000Z 27007KT 220V310 9999 FU FEW030 SCT/// 08/M02 Q1023 NOSIG', 'RJFF 100930Z 27008KT 210V290 9999 FEW030 SCT/// 08/M02 Q1023 NOSIG RMK 1CU030 A3022', 'RJFF 100900Z 28008KT 220V320 9999 FEW030 SCT/// 08/M02 Q1023 NOSIG', 'RJFF 100830Z 29005KT 240V320 9999 FEW030 SCT/// 09/M02 Q1023 NOSIG RMK 1CU030 A3021', 'RJFF 100800Z 30008KT 270V330 9999 FEW030 09/M01 Q1023 NOSIG', 'RJFF 100730Z 30009KT 270V340 9999 FEW030 09/M01 Q1023 NOSIG RMK 1CU030 A3021', 'RJFF 100700Z 31011KT 9999 FEW035 10/M00 Q1022 NOSIG', 'RJFF 100630Z 30009KT 270V340 9999 FEW035 10/M01 Q1022 NOSIG', 'RJFF 100600Z 31010KT 9999 FEW035 SCT045 10/M02 Q1022 NOSIG', 'RJFF 100530Z 30010KT 270V330 9999 FEW040 SCT045 09/M00 Q1022 NOSIG RMK 1CU040 3CU045 A3020', 'RJFF 100500Z 31009KT 270V350 9999 FEW040 SCT045 BKN050 10/M01 Q1022 NOSIG', 'RJFF 100430Z 31010KT 280V340 9999 FEW035 SCT045 09/M01 Q1023 NOSIG', 'RJFF 100400Z 33012KT 290V360 9999 FEW035 SCT045 09/M03 Q1023 NOSIG RMK 1CU035 4CU045 A3022', 'RJFF 100330Z 30011KT 270V340 9999 FEW025 SCT045 09/M02 Q1023 NOSIG', 'RJFF 100300Z 30010KT 270V360 9999 FEW040 SCT045 10/M02 Q1024 NOSIG', 'RJFF 100230Z 31010KT 9999 FEW040 SCT045 09/M02 Q1024 NOSIG RMK 1CU040 3CU045 A3024', 'RJFF 100200Z 30011KT 9999 FEW040 SCT045 09/M01 Q1024 NOSIG', 'RJFF 100130Z 30011KT 9999 FEW040 SCT045 09/M02 Q1024 NOSIG RMK 1CU040 3CU045 A3025', 'RJFF 100100Z 31009KT 9999 FEW040 SCT045 09/M02 Q1024 NOSIG', 'RJFF 100030Z 30011KT 270V340 9999 FEW040 SCT045 08/M01 Q1023 NOSIG RMK 1CU040 4CU045 A3023', 'RJFF 100000Z 30010KT 9999 FEW035 SCT040 07/00 Q1023 NOSIG', 'RJFF 092336Z 33010KT 300V010 9999 FEW035 SCT040 BKN/// 05/01 Q1023 RMK 1CU035 4CU040 A3022', 'RJFF 092300Z 15007KT 9999 FEW035 BKN040 BKN/// 05/01 Q1022 BECMG FM0000 30011KT', 'RJFF 092230Z 16008KT 9999 FEW030 SCT040 BKN/// 04/01 Q1022 BECMG FM0000 30011KT RMK 1CU030 3CU040 A3019', 'RJFF 092200Z 16006KT 9999 FEW030 BKN/// 04/01 Q1022 BECMG FM2300 30008KT', 'RJFF 092130Z 16006KT 9999 FEW025 BKN/// 04/01 Q1021 BECMG FM2300 30008KT RMK 1CU025 A3017', 'RJFF 092100Z 16008KT 9999 FEW035 BKN/// 04/01 Q1021 BECMG FM2200 27007KT', 'RJFF 092030Z AUTO 16008KT 9999 FEW049 SCT050 04/01 Q1021 BECMG FM2130 27008KT RMK A3016', 'RJFF 092000Z AUTO 16006KT 9999 FEW045 SCT240 05/01 Q1021 BECMG FM2130 27007KT', 'RJFF 091930Z AUTO 16008KT 9999 FEW038 SCT047 BKN049 05/01 Q1020 BECMG 27007KT', 'RJFF 091900Z AUTO 18006KT 9999 FEW038 BKN050 05/01 Q1020 NOSIG', 'RJFF 091830Z AUTO 16005KT 9999 NSC 05/01 Q1020 NOSIG RMK A3013', 'RJFF 091800Z AUTO 15004KT 9999 FEW042 BKN050 05/01 Q1020 NOSIG', 'RJFF 091730Z AUTO 14004KT 9999 NSC 04/01 Q1020 NOSIG RMK A3014', 'RJFF 091700Z AUTO 16006KT 9999 FEW047 SCT240 04/00 Q1020 NOSIG', 'RJFF 091630Z AUTO 15005KT 9999 NSC 05/01 Q1020 NOSIG', 'RJFF 091600Z AUTO 15006KT 9999 FEW046 BKN048 05/00 Q1020 NOSIG', 'RJFF 091530Z AUTO 16006KT 9999 FEW044 05/01 Q1020 NOSIG RMK A3014', 'RJFF 091500Z AUTO 16008KT 9999 FEW044 05/01 Q1020 NOSIG', 'RJFF 091430Z AUTO 17007KT 9999 SCT046 BKN049 04/00 Q1021 NOSIG RMK A3015', 'RJFF 091400Z AUTO 19005KT 160V230 9999 NSC 05/00 Q1021 NOSIG', 'RJFF 091330Z 21004KT 9999 FEW040 SCT/// 07/M00 Q1020 NOSIG', 'RJFF 091300Z 22004KT 9999 FEW030 07/M00 Q1021 NOSIG', 'RJFF 091230Z 24006KT 170V300 9999 FEW030 06/00 Q1020 BECMG 20004KT RMK 1CU030 A3015', 'RJFF 091200Z 25006G16KT 180V300 9999 FEW030 08/00 Q1020 NOSIG', 'RJFF 091130Z 27009KT 220V300 9999 FEW030 08/01 Q1020 NOSIG', 'RJFF 091100Z 28014KT 230V310 9999 FEW030 08/01 Q1020 NOSIG', 'RJFF 091030Z 28012KT 180V310 9999 FEW030 08/01 Q1020 NOSIG RMK 1CU030 A3012', 'RJFF 091000Z 28014KT 9999 FEW030 09/02 Q1019 NOSIG', 'RJFF 090930Z 29013KT 240V320 9999 FEW025 09/03 Q1019 NOSIG', 'RJFF 090900Z 28012KT 9999 FEW025 09/04 Q1019 NOSIG', 'RJFF 090830Z 28011KT 220V310 9999 FEW025 SCT060 10/03 Q1019 NOSIG', 'RJFF 090800Z 28010G20KT 210V310 9999 FEW025 SCT040 10/03 Q1018 NOSIG', 'RJFF 090730Z 25007KT 190V290 9999 VCSH FEW025 SCT035 BKN050 11/04 Q1018 NOSIG', 'RJFF 090700Z VRB07KT 9999 -SHRA FEW025 SCT035 BKN050 10/04 Q1018 BECMG 27009KT', 'RJFF 090630Z 27010KT 230V300 9999 -SHRA FEW025 SCT035 BKN050 11/03 Q1018 NOSIG RMK 1CU025 3CU035 5SC050 A3008', 'RJFF 090600Z 30006KT 9999 VCSH FEW025 SCT040 BKN070 11/03 Q1018 NOSIG', 'RJFF 090530Z 30010KT 9999 FEW025 SCT045 BKN060 11/02 Q1018 NOSIG', 'RJFF 090500Z 30010KT 260V330 9999 FEW025 SCT050 BKN070 11/01 Q1018 NOSIG', 'RJFF 090430Z 30006KT 250V330 9999 FEW025 SCT050 BKN070 12/M00 Q1018 NOSIG RMK 1CU025 4SC050 5AC070 A3008', 'RJFF 090400Z 25005KT 170V320 9999 FEW025 SCT050 BKN/// 12/M00 Q1019 NOSIG', 'RJFF 090330Z VRB02KT 9999 FEW020 SCT050 BKN/// 11/M01 Q1019 BECMG 25008KT RMK 1CU020 3SC050 A3010', 'RJFF 090300Z 20003KT 150V270 9999 FEW025 BKN/// 11/M00 Q1019 BECMG 25009KT', 'RJFF 090230Z 16005KT 120V200 9999 FEW030 BKN/// 10/00 Q1020 NOSIG RMK 1CU030 A3013', 'RJFF 090200Z 12003KT 050V190 9999 FEW030 BKN/// 09/M00 Q1020 NOSIG', 'RJFF 090130Z 07003KT 350V140 9999 FEW030 SCT050 BKN/// 08/01 Q1020 NOSIG RMK 1CU030 3SC050 A3015', 'RJFF 090100Z 10003KT 040V130 9999 FEW035 BKN050 07/01 Q1021 NOSIG', 'RJFF 090030Z 16006KT 130V220 9999 FEW045 BKN050 06/01 Q1021 NOSIG RMK 1CU045 7SC050 A3015', 'RJFF 090000Z 18005KT 130V210 9999 FEW045 BKN050 05/01 Q1020 NOSIG', 'RJFF 082330Z VRB01KT CAVOK 04/02 Q1020 NOSIG RMK A3014', 'RJFF 082300Z 11002KT CAVOK 03/01 Q1020 NOSIG', 'RJFF 082230Z 15005KT 130V190 CAVOK 02/00 Q1020 NOSIG RMK A3013', 'RJFF 082200Z VRB02KT CAVOK 02/00 Q1020 NOSIG', 'RJFF 082130Z 13003KT 090V160 CAVOK 02/00 Q1019 NOSIG RMK 5SC060 A3012', 'RJFF 082100Z 16002KT CAVOK 02/00 Q1019 NOSIG', 'RJFF 082030Z AUTO 12002KT 9999 NCD 02/00 Q1019 NOSIG RMK A3010', 'RJFF 082000Z AUTO VRB01KT 9999 NCD 02/00 Q1019 NOSIG RMK A3009', 'RJFF 081930Z AUTO 12004KT 9999 NCD 03/01 Q1019 NOSIG RMK A3009', 'RJFF 081900Z AUTO VRB02KT 9999 NCD 02/01 Q1019 NOSIG', 'RJFF 081830Z AUTO VRB01KT 9999 NCD 02/01 Q1018 NOSIG RMK A3009', 'RJFF 081800Z AUTO 05001KT 9999 NCD 03/01 Q1018 NOSIG', 'RJFF 081730Z AUTO 15002KT 9999 NSC 03/01 Q1018 NOSIG', 'RJFF 081700Z AUTO 14001KT 9999 NSC 03/01 Q1018 NOSIG', 'RJFF 081630Z AUTO VRB02KT 9999 NCD 04/01 Q1019 NOSIG', 'RJFF 081600Z AUTO 13003KT 080V160 9999 NCD 04/01 Q1018 NOSIG', 'RJFF 081530Z AUTO 15006KT 9999 NCD 04/02 Q1018 NOSIG RMK A3008', 'RJFF 081500Z AUTO VRB02KT 9999 NSC 05/01 Q1019 NOSIG', 'RJFF 081430Z AUTO 17003KT 130V210 9999 NSC 04/01 Q1019 NOSIG RMK A3009', 'RJFF 081400Z AUTO VRB02KT 9999 NSC 05/02 Q1019 NOSIG', 'RJFF 081330Z VRB02KT 9999 FEW030 SCT160 BKN/// 04/01 Q1019 NOSIG RMK 1CU030 3AC160 A3010', 'RJFF 081300Z VRB02KT 9999 FEW030 SCT/// 05/02 Q1019 NOSIG', 'RJFF 081230Z VRB02KT 9999 FEW030 SCT/// 06/01 Q1019 NOSIG RMK 1CU030 A3010', 'RJFF 081200Z 06005KT CAVOK 06/01 Q1019 BECMG 12003KT', 'RJFF 081130Z 04004KT 340V090 CAVOK 07/01 Q1019 NOSIG RMK A3010', 'RJFF 081100Z 05005KT 330V100 CAVOK 07/01 Q1018 BECMG 12004KT', 'RJFF 081030Z 05004KT 360V090 CAVOK 07/01 Q1018 NOSIG RMK A3007', 'RJFF 081000Z 05005KT 020V080 9999 FEW025 BKN180 BKN/// 08/01 Q1018 NOSIG', 'RJFF 080930Z 05005KT 9999 FEW020 BKN180 BKN/// 09/00 Q1017 NOSIG RMK 1CU020 6AC180 A3005', 'RJFF 080900Z 05006KT 340V100 9999 FEW020 SCT180 BKN/// 09/01 Q1017 NOSIG', 'RJFF 080830Z 04007KT 360V070 9999 FEW015 BKN/// 10/00 Q1017 NOSIG', 'RJFF 080800Z 07006KT 020V100 9999 FEW020 BKN/// 10/M01 Q1017 BECMG 03005KT RMK 1CU020 A3005', 'RJFF 080730Z 07007KT 020V090 9999 FEW015 BKN/// 10/M00 Q1017 BECMG 03007KT', 'RJFF 080700Z 05005KT 010V120 9999 FEW015 BKN/// 10/M01 Q1017 NOSIG', 'RJFF 080630Z 02006KT 320V080 9999 FEW025 BKN/// 10/M01 Q1017 NOSIG RMK 1CU025 A3003', 'RJFF 080600Z VRB07KT 9999 FEW030 BKN/// 11/02 Q1017 BECMG 01008KT RMK 1CU030 A3003', 'RJFF 080530Z 27006KT 240V340 9999 FEW030 BKN/// 10/M00 Q1017 NOSIG RMK 1CU030 A3004', 'RJFF 080500Z 01004KT 300V080 9999 FEW025 SCT040 BKN/// 11/00 Q1017 NOSIG', 'RJFF 080430Z VRB03KT 9999 FEW025 BKN040 BKN/// 10/01 Q1017 BECMG 01007KT RMK 1CU025 5CU040 A3005', 'RJFF 080400Z 03006KT 350V070 9999 FEW025 BKN035 BKN/// 10/01 Q1017 NOSIG', 'RJFF 080330Z 07006KT 020V130 9999 FEW020 SCT035 BKN/// 10/02 Q1018 BECMG 02007KT RMK 1CU020 3CU035 A3007', 'RJFF 080300Z 05008KT 360V090 9999 FEW020 SCT035 BKN/// 10/01 Q1018 NOSIG RMK 1CU020 3CU035 A3008', 'RJFF 080230Z 17004KT 120V280 9999 FEW015 SCT035 BKN/// 09/02 Q1018 BECMG 04006KT RMK 1CU015 3CU035 A3009', 'RJFF 080200Z 18005KT 130V230 9999 FEW012 BKN/// 08/02 Q1019 BECMG 04006KT', 'RJFF 080130Z 17005KT 130V220 9999 FEW010 BKN/// 08/03 Q1019 BECMG 04006KT', 'RJFF 080100Z VRB02KT 9999 FEW015 BKN/// 07/02 Q1019 BECMG 04006KT', 'RJFF 080030Z VRB02KT 9999 FEW015 SCT/// 06/03 Q1019 NOSIG RMK 1CU015 A3011', 'RJFF 080000Z 15004KT 070V210 9999 FEW015 SCT/// 04/02 Q1019 NOSIG', 'RJFF 072330Z VRB01KT 9999 FEW015 SCT/// 03/02 Q1019 NOSIG', 'RJFF 072300Z VRB01KT 9999 FEW015 SCT/// 03/02 Q1019 NOSIG', 'RJFF 072230Z VRB03KT 9999 FEW015 BKN/// 02/01 Q1019 NOSIG RMK 1CU015 A3011', 'RJFF 072200Z 13003KT 9999 FEW004 02/02 Q1019 NOSIG', 'RJFF 072130Z 13003KT 9999 FEW015 02/02 Q1019 NOSIG RMK 1CU015 A3009', 'RJFF 072100Z 14003KT 100V160 9999 FEW015 02/02 Q1018 NOSIG', 'RJFF 072030Z AUTO VRB02KT 9999 NSC 02/02 Q1018 NOSIG RMK A3007', 'RJFF 072000Z AUTO VRB01KT 9999 NSC 03/02 Q1017 NOSIG', 'RJFF 071930Z AUTO VRB02KT 9999 NSC 03/02 Q1018 NOSIG RMK A3007', 'RJFF 071900Z AUTO 11002KT 9999 NSC 03/02 Q1018 NOSIG', 'RJFF 071830Z AUTO VRB02KT 9999 SCT025 SCT033 BKN044 03/02 Q1018 NOSIG RMK A3008', 'RJFF 071800Z AUTO 13002KT 9999 SCT030 BKN070 OVC080 03/03 Q1019 NOSIG']","['2024-02-10 17:00:00', '2024-02-10 16:30:00', '2024-02-10 16:00:00', '2024-02-10 15:30:00', '2024-02-10 15:00:00', '2024-02-10 14:30:00', '2024-02-10 14:00:00', '2024-02-10 13:30:00', '2024-02-10 13:00:00', '2024-02-10 12:30:00', '2024-02-10 12:00:00', '2024-02-10 11:30:00', '2024-02-10 11:00:00', '2024-02-10 10:30:00', '2024-02-10 10:00:00', '2024-02-10 09:30:00', '2024-02-10 09:00:00', '2024-02-10 08:30:00', '2024-02-10 08:00:00', '2024-02-10 07:30:00', '2024-02-10 07:00:00', '2024-02-10 06:30:00', '2024-02-10 06:00:00', '2024-02-10 05:30:00', '2024-02-10 05:00:00', '2024-02-10 04:30:00', '2024-02-10 04:00:00', '2024-02-10 03:30:00', '2024-02-10 03:00:00', '2024-02-10 02:30:00', '2024-02-10 02:00:00', '2024-02-10 01:30:00', '2024-02-10 01:00:00', '2024-02-10 00:30:00', '2024-02-10 00:00:00', '2024-02-09 23:36:00', '2024-02-09 23:00:00', '2024-02-09 22:30:00', '2024-02-09 22:00:00', '2024-02-09 21:30:00', '2024-02-09 21:00:00', '2024-02-09 20:30:00', '2024-02-09 20:00:00', '2024-02-09 19:30:00', '2024-02-09 19:00:00', '2024-02-09 18:30:00', '2024-02-09 18:00:00', '2024-02-09 17:30:00', '2024-02-09 17:00:00', '2024-02-09 16:30:00', '2024-02-09 16:00:00', '2024-02-09 15:30:00', '2024-02-09 15:00:00', '2024-02-09 14:30:00', '2024-02-09 14:00:00', '2024-02-09 13:30:00', '2024-02-09 13:00:00', '2024-02-09 12:30:00', '2024-02-09 12:00:00', '2024-02-09 11:30:00', '2024-02-09 11:00:00', '2024-02-09 10:30:00', '2024-02-09 10:00:00', '2024-02-09 09:30:00', '2024-02-09 09:00:00', '2024-02-09 08:30:00', '2024-02-09 08:00:00', '2024-02-09 07:30:00', '2024-02-09 07:00:00', '2024-02-09 06:30:00', '2024-02-09 06:00:00', '2024-02-09 05:30:00', '2024-02-09 05:00:00', '2024-02-09 04:30:00', '2024-02-09 04:00:00', '2024-02-09 03:30:00', '2024-02-09 03:00:00', '2024-02-09 02:30:00', '2024-02-09 02:00:00', '2024-02-09 01:30:00', '2024-02-09 01:00:00', '2024-02-09 00:30:00', '2024-02-09 00:00:00', '2024-02-08 23:30:00', '2024-02-08 23:00:00', '2024-02-08 22:30:00', '2024-02-08 22:00:00', '2024-02-08 21:30:00', '2024-02-08 21:00:00', '2024-02-08 20:30:00', '2024-02-08 20:00:00', '2024-02-08 19:30:00', '2024-02-08 19:00:00', '2024-02-08 18:30:00', '2024-02-08 18:00:00', '2024-02-08 17:30:00', '2024-02-08 17:00:00', '2024-02-08 16:30:00', '2024-02-08 16:00:00', '2024-02-08 15:30:00', '2024-02-08 15:00:00', '2024-02-08 14:30:00', '2024-02-08 14:00:00', '2024-02-08 13:30:00', '2024-02-08 13:00:00', '2024-02-08 12:30:00', '2024-02-08 12:00:00', '2024-02-08 11:30:00', '2024-02-08 11:00:00', '2024-02-08 10:30:00', '2024-02-08 10:00:00', '2024-02-08 09:30:00', '2024-02-08 09:00:00', '2024-02-08 08:30:00', '2024-02-08 08:00:00', '2024-02-08 07:30:00', '2024-02-08 07:00:00', '2024-02-08 06:30:00', '2024-02-08 06:00:00', '2024-02-08 05:30:00', '2024-02-08 05:00:00', '2024-02-08 04:30:00', '2024-02-08 04:00:00', '2024-02-08 03:30:00', '2024-02-08 03:00:00', '2024-02-08 02:30:00', '2024-02-08 02:00:00', '2024-02-08 01:30:00', '2024-02-08 01:00:00', '2024-02-08 00:30:00', '2024-02-08 00:00:00', '2024-02-07 23:30:00', '2024-02-07 23:00:00', '2024-02-07 22:30:00', '2024-02-07 22:00:00', '2024-02-07 21:30:00', '2024-02-07 21:00:00', '2024-02-07 20:30:00', '2024-02-07 20:00:00', '2024-02-07 19:30:00', '2024-02-07 19:00:00', '2024-02-07 18:30:00', '2024-02-07 18:00:00']"
Japan, Hakodate Airport (HKD/RJCH) ,"['RJCH 101700Z AUTO 31007KT 270V340 9999 FEW005 SCT016 BKN024 M02/M03 Q1014', 'RJCH 101600Z AUTO 32006KT 1300 R12/P2000N -SN FEW012 BKN013 BKN022 M01/M03 Q1013', 'RJCH 101500Z AUTO VRB01KT 9999 FEW030 SCT043 BKN046 M02/M03 Q1013', 'RJCH 101400Z AUTO 31003KT 5000 BR FEW003 SCT022 OVC023 M01/M03 Q1013', 'RJCH 101300Z AUTO 05004KT 360V090 2300 -SN FEW014 BKN015 M01/M02 Q1013', 'RJCH 101215Z AUTO 05005KT 2000 -SN SCT013 BKN015 OVC019 M01/M02 Q1013 RMK A2992', 'RJCH 101100Z 05006KT 010V090 2300 -SHSN FEW003 SCT010 BKN015 M01/M02 Q1013', 'RJCH 101006Z 03004KT 330V080 4900 -SHSN FEW003 SCT015 BKN025 M01/M03 Q1013 RMK 1ST003 3ST015 5CU025 A2993', 'RJCH 100925Z 03005KT 350V070 5000 -SHSN FEW004 SCT012 BKN025 M01/M03 Q1014 RMK 1ST004 3ST012 5CU025 A2994', 'RJCH 100839Z 05005KT 010V080 1400 R12/P2000N -SHSN FEW003 SCT010 BKN012 M01/M03 Q1014 RMK 1ST003 3ST010 5ST012 A2995', 'RJCH 100810Z 08008KT 050V110 2300 -SHSN FEW003 SCT010 BKN018 M00/M04 Q1014 RMK 1ST003 3ST010 5ST018 A2995', 'RJCH 100700Z 08004KT 9999 FEW010 SCT025 BKN045 01/M06 Q1014', 'RJCH 100600Z VRB05KT 9999 -SHSN FEW010 SCT030 BKN050 01/M07 Q1014', 'RJCH 100500Z 17004KT 130V200 9999 FEW030 SCT060 BKN070 02/M09 Q1015', 'RJCH 100400Z VRB02KT 9999 FEW020 SCT060 BKN090 03/M08 Q1015', 'RJCH 100300Z 24004KT 180V260 9999 FEW020 BKN100 BKN/// 02/M09 Q1017', 'RJCH 100200Z 18004KT 130V230 9999 FEW030 SCT100 BKN/// 02/M09 Q1018', 'RJCH 100100Z VRB02KT 9999 FEW030 SCT060 02/M11 Q1018', 'RJCH 100000Z 01003KT 340V050 9999 FEW030 SCT050 BKN100 M01/M10 Q1018', 'RJCH 092300Z 02005KT 9999 FEW030 M04/M10 Q1018', 'RJCH 092215Z 02006KT 9999 FEW030 M06/M11 Q1018 RMK 1CU030 A3008', 'RJCH 092100Z AUTO 02007KT 9999 NCD M06/M11 Q1018', 'RJCH 092000Z AUTO 02006KT 9999 NCD M07/M11 Q1019', 'RJCH 091900Z AUTO 02005KT 9999 FEW041 M07/M11 Q1019', 'RJCH 091800Z AUTO 02006KT 9999 NCD M06/M10 Q1019', 'RJCH 091700Z AUTO 02004KT 9999 FEW037 SCT043 BKN044 M06/M10 Q1019', 'RJCH 091600Z AUTO 01007KT 9999 NCD M06/M10 Q1019', 'RJCH 091500Z AUTO 01004KT 9999 NSC M06/M10 Q1020', 'RJCH 091400Z AUTO 01005KT 9999 NSC M05/M10 Q1020', 'RJCH 091300Z AUTO 01005KT 9999 NSC M04/M09 Q1020', 'RJCH 091200Z AUTO 01003KT 9999 NSC M05/M08 Q1020', 'RJCH 091100Z 01003KT 9999 FEW030 BKN/// M03/M09 Q1020', 'RJCH 091000Z 01001KT 9999 FEW040 BKN/// M03/M09 Q1019', 'RJCH 090900Z VRB02KT 9999 FEW030 BKN/// M02/M09 Q1019', 'RJCH 090800Z 32005KT 300V360 9999 FEW030 BKN/// 00/M10 Q1019', 'RJCH 090700Z 32006KT 9999 FEW025 SCT040 BKN/// 01/M10 Q1019', 'RJCH 090600Z 30008KT 9999 FEW030 SCT040 BKN/// 02/M09 Q1018', 'RJCH 090500Z 27007KT 240V320 9999 FEW030 SCT050 BKN/// 01/M10 Q1018', 'RJCH 090400Z 28009KT 240V320 9999 FEW030 SCT050 01/M09 Q1019', 'RJCH 090300Z 26011KT 240V300 9999 FEW025 SCT050 02/M08 Q1019', 'RJCH 090200Z 27006KT 240V340 9999 FEW020 SCT050 01/M10 Q1020', 'RJCH 090100Z 28010KT 9999 FEW020 SCT050 00/M10 Q1020', 'RJCH 090000Z 29008KT 9999 FEW020 SCT050 00/M09 Q1019', 'RJCH 082300Z 01005KT 9999 FEW020 SCT050 M03/M09 Q1019', 'RJCH 082215Z 01006KT 9999 FEW020 SCT050 M06/M10 Q1019 RMK 1CU020 3CU050 A3010', 'RJCH 082100Z AUTO 01007KT 9999 FEW047 BKN050 M06/M10 Q1018', 'RJCH 082000Z AUTO 03004KT 9999 FEW044 BKN050 M05/M10 Q1018', 'RJCH 081900Z AUTO 02005KT 9999 FEW047 OVC050 M04/M09 Q1018', 'RJCH 081800Z AUTO 02006KT 9999 NSC M05/M09 Q1017', 'RJCH 081700Z AUTO 03003KT 360V060 9999 NSC M06/M09 Q1017', 'RJCH 081600Z AUTO 02005KT 9999 FEW041 SCT050 M05/M10 Q1017', 'RJCH 081500Z AUTO 01005KT 9999 FEW032 BKN048 OVC050 M04/M08 Q1017', 'RJCH 081400Z AUTO 35003KT 290V030 9999 FEW043 SCT048 OVC050 M02/M08 Q1016', 'RJCH 081300Z AUTO 31004KT 9999 FEW043 SCT047 BKN048 M02/M09 Q1016', 'RJCH 081212Z AUTO 36004KT 290V060 9999 FEW037 SCT043 BKN045 M02/M09 Q1015 RMK A2999', 'RJCH 081100Z 30011KT 9999 FEW030 SCT040 M01/M09 Q1015', 'RJCH 081000Z 30013KT 9999 FEW030 M01/M09 Q1014', 'RJCH 080900Z 30013KT 9999 FEW030 SCT040 00/M09 Q1014', 'RJCH 080800Z 31014KT 9999 FEW020 SCT040 BKN050 01/M08 Q1013', 'RJCH 080700Z 30012KT 9999 FEW020 SCT030 BKN050 01/M05 Q1013', 'RJCH 080600Z 31012KT 9999 -SHSN FEW010 SCT030 BKN040 01/M03 Q1012', 'RJCH 080500Z 29014KT 9999 -SHSN FEW015 SCT030 BKN050 02/M05 Q1012', 'RJCH 080400Z 29014KT 9999 FEW020 SCT040 04/M06 Q1012', 'RJCH 080300Z 30013KT 270V330 9999 FEW020 BKN040 04/M07 Q1012', 'RJCH 080200Z 27008KT 9999 FEW018 SCT040 02/M04 Q1013', 'RJCH 080100Z 26011KT 9999 -SHSN FEW008 SCT020 BKN040 01/M06 Q1013', 'RJCH 080000Z 26008KT 9999 FEW012 SCT020 BKN040 01/M07 Q1014', 'RJCH 072300Z 29006KT 250V320 9999 FEW012 SCT020 BKN040 M00/M07 Q1014', 'RJCH 072215Z 28009KT 9999 FEW015 SCT030 BKN050 M01/M07 Q1014 RMK 1ST015 3CU030 5CU050 A2995', 'RJCH 072100Z AUTO 30004KT 9999 FEW035 BKN038 OVC041 M01/M07 Q1013', 'RJCH 072000Z AUTO 29005KT 9999 FEW035 SCT039 BKN041 M00/M07 Q1013', 'RJCH 071900Z AUTO 29008KT 9999 FEW037 SCT043 OVC044 M00/M06 Q1013', 'RJCH 071800Z AUTO 34003KT 300V010 9999 FEW038 OVC047 M01/M06 Q1013']","['2024-02-10 17:00:00', '2024-02-10 16:00:00', '2024-02-10 15:00:00', '2024-02-10 14:00:00', '2024-02-10 13:00:00', '2024-02-10 12:15:00', '2024-02-10 11:00:00', '2024-02-10 10:06:00', '2024-02-10 09:25:00', '2024-02-10 08:39:00', '2024-02-10 08:10:00', '2024-02-10 07:00:00', '2024-02-10 06:00:00', '2024-02-10 05:00:00', '2024-02-10 04:00:00', '2024-02-10 03:00:00', '2024-02-10 02:00:00', '2024-02-10 01:00:00', '2024-02-10 00:00:00', '2024-02-09 23:00:00', '2024-02-09 22:15:00', '2024-02-09 21:00:00', '2024-02-09 20:00:00', '2024-02-09 19:00:00', '2024-02-09 18:00:00', '2024-02-09 17:00:00', '2024-02-09 16:00:00', '2024-02-09 15:00:00', '2024-02-09 14:00:00', '2024-02-09 13:00:00', '2024-02-09 12:00:00', '2024-02-09 11:00:00', '2024-02-09 10:00:00', '2024-02-09 09:00:00', '2024-02-09 08:00:00', '2024-02-09 07:00:00', '2024-02-09 06:00:00', '2024-02-09 05:00:00', '2024-02-09 04:00:00', '2024-02-09 03:00:00', '2024-02-09 02:00:00', '2024-02-09 01:00:00', '2024-02-09 00:00:00', '2024-02-08 23:00:00', '2024-02-08 22:15:00', '2024-02-08 21:00:00', '2024-02-08 20:00:00', '2024-02-08 19:00:00', '2024-02-08 18:00:00', '2024-02-08 17:00:00', '2024-02-08 16:00:00', '2024-02-08 15:00:00', '2024-02-08 14:00:00', '2024-02-08 13:00:00', '2024-02-08 12:12:00', '2024-02-08 11:00:00', '2024-02-08 10:00:00', '2024-02-08 09:00:00', '2024-02-08 08:00:00', '2024-02-08 07:00:00', '2024-02-08 06:00:00', '2024-02-08 05:00:00', '2024-02-08 04:00:00', '2024-02-08 03:00:00', '2024-02-08 02:00:00', '2024-02-08 01:00:00', '2024-02-08 00:00:00', '2024-02-07 23:00:00', '2024-02-07 22:15:00', '2024-02-07 21:00:00', '2024-02-07 20:00:00', '2024-02-07 19:00:00', '2024-02-07 18:00:00']"
Japan, Hanamaki Airport (HNA/RJSI) ,"['RJSI 101000Z 17007KT 9999 SCT040 BKN050 04/M02 Q1012', 'RJSI 100900Z 19015KT 9999 SCT040 BKN045 05/M02 Q1012', 'RJSI 100850Z 18013KT 9999 SCT045 BKN050 05/M03 Q1012 RMK 4SC045 7SC050 A2990', 'RJSI 100800Z VRB02KT 9999 BKN050 BKN070 05/M07 Q1012', 'RJSI 100700Z VRB02KT 9999 SCT060 BKN070 BKN080 06/M08 Q1012', 'RJSI 100600Z 18003KT 140V210 CAVOK 06/M08 Q1013', 'RJSI 100500Z 19007KT 150V220 CAVOK 06/M07 Q1013', 'RJSI 100400Z VRB02KT CAVOK 05/M07 Q1014', 'RJSI 100300Z VRB02KT CAVOK 04/M07 Q1016', 'RJSI 100200Z 36003KT 280V060 CAVOK 03/M06 Q1017', 'RJSI 100100Z 02004KT 310V100 CAVOK 02/M05 Q1017', 'RJSI 100000Z 03004KT 360V070 CAVOK M00/M05 Q1018', 'RJSI 092300Z VRB01KT 9999 FEW001 M04/M06 Q1018', 'RJSI 092240Z 02002KT 9999 FEW001 M04/M06 Q1018 RMK 1ST001 A3009', 'RJSI 091000Z VRB02KT 9999 FEW060 SCT160 BKN/// 02/M07 Q1018', 'RJSI 090900Z VRB02KT 9999 FEW060 SCT170 BKN/// 03/M08 Q1019', 'RJSI 090800Z 26004KT 220V310 9999 SCT050 SCT180 BKN/// 03/M07 Q1018', 'RJSI 090700Z 26005KT 230V300 9999 FEW050 SCT180 BKN/// 04/M07 Q1018', 'RJSI 090600Z 25008KT 220V290 9999 FEW050 BKN/// 05/M07 Q1017', 'RJSI 090500Z 29007KT 220V350 9999 FEW050 BKN/// 06/M08 Q1017', 'RJSI 090400Z 27009KT 240V310 9999 FEW040 SCT050 BKN/// 07/M07 Q1018', 'RJSI 090300Z 27009KT 220V310 9999 FEW040 SCT050 BKN/// 07/M07 Q1018', 'RJSI 090200Z 28008KT 230V330 9999 FEW040 SCT050 BKN/// 06/M09 Q1019', 'RJSI 090100Z 01008KT 320V060 9999 FEW040 SCT/// 05/M07 Q1019', 'RJSI 090000Z VRB01KT 9999 FEW030 SCT/// 02/M04 Q1019', 'RJSI 082300Z 14003KT 110V180 9999 FEW001 SCT050 M00/M03 Q1019', 'RJSI 082240Z VRB01KT 9999 FEW001 SCT050 00/M04 Q1019 RMK 1ST001 3SC050 A3010', 'RJSI 081000Z VRB01KT 9999 FEW030 BKN040 02/M05 Q1015', 'RJSI 080900Z VRB01KT 9999 FEW040 BKN050 02/M05 Q1015', 'RJSI 080800Z 32003KT 280V360 9999 FEW030 02/M06 Q1015', 'RJSI 080700Z 30009KT 260V340 9999 FEW040 BKN050 04/M05 Q1015', 'RJSI 080600Z 29008KT 240V330 9999 FEW040 BKN050 06/M06 Q1014', 'RJSI 080500Z 30011KT 260V350 9999 FEW040 BKN050 06/M06 Q1014', 'RJSI 080400Z 29008G19KT 210V340 9999 FEW040 SCT050 06/M06 Q1014', 'RJSI 080300Z VRB06KT 9999 VCSH FEW040 BKN050 05/M06 Q1014', 'RJSI 080200Z VRB04KT 9999 -SHSN FEW040 BKN050 05/M05 Q1015', 'RJSI 080100Z 18003KT 150V230 9999 -SHSN FEW040 SCT050 02/M04 Q1015', 'RJSI 080000Z VRB01KT 9999 FEW030 M02/M05 Q1016', 'RJSI 072300Z VRB02KT 9999 FEW040 SCT060 M04/M05 Q1016', 'RJSI 072240Z VRB01KT 9999 FEW040 M05/M06 Q1016 RMK 1SC040 A3001']","['2024-02-10 10:00:00', '2024-02-10 09:00:00', '2024-02-10 08:50:00', '2024-02-10 08:00:00', '2024-02-10 07:00:00', '2024-02-10 06:00:00', '2024-02-10 05:00:00', '2024-02-10 04:00:00', '2024-02-10 03:00:00', '2024-02-10 02:00:00', '2024-02-10 01:00:00', '2024-02-10 00:00:00', '2024-02-09 23:00:00', '2024-02-09 22:40:00', '2024-02-09 10:00:00', '2024-02-09 09:00:00', '2024-02-09 08:00:00', '2024-02-09 07:00:00', '2024-02-09 06:00:00', '2024-02-09 05:00:00', '2024-02-09 04:00:00', '2024-02-09 03:00:00', '2024-02-09 02:00:00', '2024-02-09 01:00:00', '2024-02-09 00:00:00', '2024-02-08 23:00:00', '2024-02-08 22:40:00', '2024-02-08 10:00:00', '2024-02-08 09:00:00', '2024-02-08 08:00:00', '2024-02-08 07:00:00', '2024-02-08 06:00:00', '2024-02-08 05:00:00', '2024-02-08 04:00:00', '2024-02-08 03:00:00', '2024-02-08 02:00:00', '2024-02-08 01:00:00', '2024-02-08 00:00:00', '2024-02-07 23:00:00', '2024-02-07 22:40:00']"
Japan, Hiroshima Airport (HIJ/RJOA) ,"['RJOA 101700Z AUTO 29003KT 270V350 9999 FEW042 SCT050 BKN060 02/M03 Q1021', 'RJOA 101600Z AUTO 27003KT 9999 FEW040 OVC050 02/M03 Q1021', 'RJOA 101500Z AUTO 28002KT 9999 SCT041 BKN043 OVC050 02/M03 Q1022', 'RJOA 101400Z AUTO 30004KT 9999 FEW037 SCT042 BKN045 02/M03 Q1022', 'RJOA 101300Z 29007KT 9999 FEW030 SCT045 02/M04 Q1021', 'RJOA 101200Z 29006KT 9999 FEW030 SCT050 02/M05 Q1021', 'RJOA 101100Z 30009KT 9999 FEW030 03/M05 Q1021', 'RJOA 101000Z 31006KT 280V350 9999 FEW030 04/M06 Q1021', 'RJOA 100900Z 31009KT 270V340 9999 FEW030 05/M06 Q1020', 'RJOA 100800Z 32011KT 9999 FEW030 07/M06 Q1019', 'RJOA 100700Z 33012KT 9999 FEW030 08/M07 Q1018', 'RJOA 100600Z 31014KT 280V350 9999 FEW030 SCT045 08/M05 Q1018', 'RJOA 100500Z 29015KT 9999 FEW030 SCT045 09/M05 Q1018', 'RJOA 100400Z 30014KT 9999 FEW030 BKN045 08/M04 Q1018', 'RJOA 100300Z 26010KT 230V290 9999 FEW030 BKN040 08/M03 Q1019', 'RJOA 100200Z 26013KT 9999 FEW020 SCT035 08/M01 Q1019', 'RJOA 100100Z 27005KT 240V300 9999 FEW025 SCT070 06/02 Q1019', 'RJOA 100000Z 30005KT 9999 FEW025 SCT045 BKN070 04/02 Q1019', 'RJOA 092300Z 26003KT 230V300 9999 -SHRA FEW025 SCT040 BKN060 03/01 Q1019', 'RJOA 092215Z 30004KT 9999 FEW020 BKN060 03/01 Q1018 RMK 1CU020 6SC060 A3009', 'RJOA 092100Z AUTO 30003KT 270V340 9999 BKN035 BKN039 OVC060 03/01 Q1018', 'RJOA 092000Z AUTO 33003KT 9999 FEW039 SCT240 02/M00 Q1017', 'RJOA 091900Z AUTO 28004KT 9999 BKN044 03/M00 Q1017', 'RJOA 091800Z AUTO 32003KT 9999 FEW033 SCT035 BKN043 04/M01 Q1017', 'RJOA 091700Z AUTO 27003KT 9999 FEW042 SCT044 OVC047 04/M01 Q1018', 'RJOA 091600Z AUTO 32004KT 9999 FEW044 SCT049 BKN060 03/M01 Q1018', 'RJOA 091500Z AUTO VRB02KT 9999 FEW042 BKN050 02/M01 Q1018', 'RJOA 091400Z AUTO 30005KT 9999 NSC 03/M02 Q1018', 'RJOA 091300Z 32004KT 9999 FEW025 BKN070 03/M02 Q1018', 'RJOA 091200Z VRB02KT 9999 FEW025 03/M03 Q1018', 'RJOA 091100Z VRB02KT 9999 FEW030 04/M02 Q1018', 'RJOA 091000Z 27002KT 9999 FEW030 04/M02 Q1017', 'RJOA 090900Z VRB02KT 9999 FEW030 05/M03 Q1017', 'RJOA 090800Z 17004KT 110V220 9999 FEW035 07/M03 Q1017', 'RJOA 090700Z 17005KT 120V230 9999 FEW040 08/M03 Q1016', 'RJOA 090600Z 13006KT 070V200 9999 FEW040 BKN/// 08/M03 Q1016', 'RJOA 090500Z VRB02KT 9999 FEW040 BKN/// 08/M03 Q1016', 'RJOA 090400Z 15005KT 090V210 9999 FEW035 BKN/// 06/M04 Q1017', 'RJOA 090300Z 10006KT 050V180 9999 FEW035 BKN/// 06/M04 Q1018', 'RJOA 090200Z 10007KT 050V170 9999 FEW035 SCT/// 06/M04 Q1019', 'RJOA 090100Z 08008KT 030V120 9999 FEW025 SCT050 05/M03 Q1019', 'RJOA 090000Z 05006KT 9999 FEW025 03/M04 Q1019', 'RJOA 082300Z 01005KT 350V070 9999 FEW020 02/M04 Q1019', 'RJOA 082215Z 03004KT 9999 FEW015 00/M04 Q1019 RMK 1CU015 A3010', 'RJOA 082100Z AUTO 02004KT 9999 NCD 00/M04 Q1018', 'RJOA 082000Z AUTO 03004KT 9999 NSC 00/M04 Q1018', 'RJOA 081900Z AUTO 05004KT 9999 NSC 01/M04 Q1018', 'RJOA 081800Z AUTO 03003KT 9999 NSC 01/M03 Q1018', 'RJOA 081700Z AUTO 06004KT 9999 NSC 02/M03 Q1018', 'RJOA 081600Z AUTO 02006KT 9999 BKN041 BKN180 02/M03 Q1018', 'RJOA 081500Z AUTO 05004KT 9999 OVC040 02/M02 Q1019', 'RJOA 081400Z AUTO 08004KT 9999 FEW032 SCT036 OVC038 03/M02 Q1019', 'RJOA 081300Z 04004KT 9999 FEW020 SCT/// 03/M02 Q1018', 'RJOA 081200Z 06006KT 9999 FEW020 SCT035 BKN/// 04/M02 Q1018', 'RJOA 081100Z 07004KT 9999 FEW020 BKN045 BKN/// 04/M01 Q1018', 'RJOA 081000Z 09006KT 9999 FEW020 SCT045 BKN/// 04/M01 Q1017', 'RJOA 080900Z 10005KT 9999 FEW020 SCT050 BKN/// 04/M01 Q1017', 'RJOA 080800Z 13004KT 100V170 9999 FEW025 SCT050 BKN/// 05/M01 Q1017', 'RJOA 080700Z 04006KT 330V090 9999 FEW030 SCT045 BKN/// 07/M04 Q1016', 'RJOA 080600Z 36008KT 320V060 9999 FEW030 SCT045 BKN/// 07/M04 Q1016', 'RJOA 080500Z 01007KT 310V110 9999 FEW030 SCT045 BKN/// 07/M04 Q1016', 'RJOA 080400Z 33007KT 280V090 9999 FEW030 SCT045 BKN/// 07/M04 Q1016', 'RJOA 080307Z 31010KT 9999 FEW030 SCT040 BKN/// 07/M02 Q1017 RMK 1CU030 4CU040 A3006', 'RJOA 080200Z 05010KT 020V080 9999 FEW030 BKN/// 07/M02 Q1018', 'RJOA 080100Z 02007KT 340V070 9999 FEW020 BKN/// 05/M02 Q1019', 'RJOA 080000Z 04003KT 360V090 9999 FEW020 BKN/// 04/M02 Q1019', 'RJOA 072300Z VRB04KT 9999 FEW015 02/M03 Q1018', 'RJOA 072215Z 04004KT 010V160 9999 FEW015 02/M03 Q1018 RMK 1CU015 A3006', 'RJOA 072100Z AUTO 01009KT 9999 NSC 02/M02 Q1017', 'RJOA 072000Z AUTO 36008KT 9999 NSC 02/M02 Q1017', 'RJOA 071900Z AUTO 02009KT 9999 NSC 02/M02 Q1017', 'RJOA 071800Z AUTO 36007KT 9999 NCD 01/M02 Q1017']","['2024-02-10 17:00:00', '2024-02-10 16:00:00', '2024-02-10 15:00:00', '2024-02-10 14:00:00', '2024-02-10 13:00:00', '2024-02-10 12:00:00', '2024-02-10 11:00:00', '2024-02-10 10:00:00', '2024-02-10 09:00:00', '2024-02-10 08:00:00', '2024-02-10 07:00:00', '2024-02-10 06:00:00', '2024-02-10 05:00:00', '2024-02-10 04:00:00', '2024-02-10 03:00:00', '2024-02-10 02:00:00', '2024-02-10 01:00:00', '2024-02-10 00:00:00', '2024-02-09 23:00:00', '2024-02-09 22:15:00', '2024-02-09 21:00:00', '2024-02-09 20:00:00', '2024-02-09 19:00:00', '2024-02-09 18:00:00', '2024-02-09 17:00:00', '2024-02-09 16:00:00', '2024-02-09 15:00:00', '2024-02-09 14:00:00', '2024-02-09 13:00:00', '2024-02-09 12:00:00', '2024-02-09 11:00:00', '2024-02-09 10:00:00', '2024-02-09 09:00:00', '2024-02-09 08:00:00', '2024-02-09 07:00:00', '2024-02-09 06:00:00', '2024-02-09 05:00:00', '2024-02-09 04:00:00', '2024-02-09 03:00:00', '2024-02-09 02:00:00', '2024-02-09 01:00:00', '2024-02-09 00:00:00', '2024-02-08 23:00:00', '2024-02-08 22:15:00', '2024-02-08 21:00:00', '2024-02-08 20:00:00', '2024-02-08 19:00:00', '2024-02-08 18:00:00', '2024-02-08 17:00:00', '2024-02-08 16:00:00', '2024-02-08 15:00:00', '2024-02-08 14:00:00', '2024-02-08 13:00:00', '2024-02-08 12:00:00', '2024-02-08 11:00:00', '2024-02-08 10:00:00', '2024-02-08 09:00:00', '2024-02-08 08:00:00', '2024-02-08 07:00:00', '2024-02-08 06:00:00', '2024-02-08 05:00:00', '2024-02-08 04:00:00', '2024-02-08 03:07:00', '2024-02-08 02:00:00', '2024-02-08 01:00:00', '2024-02-08 00:00:00', '2024-02-07 23:00:00', '2024-02-07 22:15:00', '2024-02-07 21:00:00', '2024-02-07 20:00:00', '2024-02-07 19:00:00', '2024-02-07 18:00:00']"
Japan, Iki Airport (IKI/RJDB) ,"['RJDB 101700Z AUTO 30003KT 7000 FEW047 SCT050 BKN060 03/00 Q1022', 'RJDB 101600Z AUTO 28003KT 250V310 8000 -RASN NSC 03/00 Q1022', 'RJDB 101500Z AUTO 27003KT 9000 NSC 02/M00 Q1023', 'RJDB 101400Z AUTO 28003KT 260V330 9999 NSC 02/M00 Q1023', 'RJDB 101300Z AUTO 31003KT 9999 NSC 03/M00 Q1023', 'RJDB 101200Z AUTO 29003KT 9999 NSC 03/M00 Q1023', 'RJDB 101100Z AUTO 26003KT 9999 NSC 03/M00 Q1023', 'RJDB 101000Z AUTO 27002KT 9999 NCD 04/M01 Q1023', 'RJDB 100900Z AUTO 27003KT 9999 NCD 06/M01 Q1023', 'RJDB 100800Z AUTO 28004KT 240V320 9999 NSC 09/M04 Q1023', 'RJDB 100700Z AUTO 27006KT 200V320 9999 NCD 09/M01 Q1022', 'RJDB 100600Z AUTO 28007KT 210V310 9999 NCD 10/M02 Q1022', 'RJDB 100500Z AUTO 31006KT 230V010 9999 NCD 10/M02 Q1022', 'RJDB 100400Z AUTO 30009KT 250V360 9999 FEW036 SCT040 09/M00 Q1023', 'RJDB 100300Z AUTO 29007KT 230V340 9999 FEW033 SCT035 BKN047 08/00 Q1024', 'RJDB 100200Z AUTO 30007KT 250V350 9999 FEW043 SCT045 09/M01 Q1024', 'RJDB 100100Z AUTO 32008KT 290V010 9999 NCD 08/M02 Q1024', 'RJDB 100000Z AUTO 30006KT 260V350 9999 NCD 07/M01 Q1023', 'RJDB 092300Z AUTO 31001KT 9999 FEW038 SCT040 04/M01 Q1023', 'RJDB 092200Z AUTO VRB02KT 9999 FEW039 SCT210 BKN220 05/M01 Q1022', 'RJDB 092100Z AUTO VRB02KT 9999 FEW036 BKN043 05/00 Q1021', 'RJDB 092000Z AUTO 26004KT 230V290 9999 FEW041 SCT044 03/00 Q1021', 'RJDB 091900Z AUTO 26004KT 9999 FEW042 05/01 Q1020', 'RJDB 091800Z AUTO 27004KT 230V300 9999 FEW038 SCT050 06/00 Q1020', 'RJDB 091700Z AUTO 28004KT 240V310 9999 FEW037 SCT043 OVC047 06/01 Q1020', 'RJDB 091600Z AUTO 26004KT 230V300 9999 FEW043 05/01 Q1020', 'RJDB 091500Z AUTO 26003KT 9999 FEW043 SCT047 BKN049 04/01 Q1020', 'RJDB 091400Z AUTO 27004KT 9999 FEW046 BKN230 BKN240 05/01 Q1021', 'RJDB 091300Z AUTO 27004KT 9999 FEW042 05/M00 Q1020', 'RJDB 091200Z AUTO 27005KT 240V300 9999 NCD 07/M01 Q1020', 'RJDB 091100Z AUTO 26006KT 9999 NCD 06/M01 Q1020', 'RJDB 091000Z AUTO 27005KT 210V300 9999 FEW034 07/01 Q1019', 'RJDB 090900Z AUTO 27006KT 220V310 9999 NCD 07/01 Q1019', 'RJDB 090800Z AUTO 28008KT 240V310 9999 NCD 09/02 Q1019', 'RJDB 090700Z AUTO 27009KT 220V320 9999 FEW028 SCT046 BKN050 09/03 Q1019', 'RJDB 090600Z AUTO 28009KT 230V330 9999 FEW030 SCT039 10/04 Q1018', 'RJDB 090500Z AUTO 25005KT 210V310 9999 FEW019 SCT029 BKN040 11/05 Q1018', 'RJDB 090400Z AUTO 21006KT 150V250 9999 FEW017 SCT021 OVC026 10/06 Q1019', 'RJDB 090300Z AUTO 20006KT 170V240 9999 FEW031 BKN038 BKN042 09/06 Q1019', 'RJDB 090200Z AUTO 20004KT 150V240 9999 FEW027 SCT032 OVC050 09/04 Q1020', 'RJDB 090100Z AUTO 17007KT 9999 BKN028 OVC042 08/04 Q1020', 'RJDB 090031Z AUTO 18010KT 9999 -RA OVC038 07/05 Q1020 RMK A3013', 'RJDB 090000Z AUTO 28004KT 250V310 9999 -RA FEW033 BKN037 OVC046 07/05 Q1020', 'RJDB 082300Z AUTO 31004KT 9999 SCT041 BKN050 OVC060 07/04 Q1019', 'RJDB 082200Z AUTO 26004KT 150V320 9999 -RA FEW012 BKN043 OVC046 06/04 Q1019', 'RJDB 082100Z AUTO 31004KT 9999 OVC043 06/04 Q1019', 'RJDB 082000Z AUTO 32003KT 280V090 9999 NSC 06/04 Q1018', 'RJDB 081900Z AUTO 10005KT 9999 FEW043 SCT048 OVC050 09/02 Q1018', 'RJDB 081800Z AUTO 09006KT 060V130 9999 FEW041 SCT042 OVC044 09/02 Q1018', 'RJDB 081700Z AUTO 12007KT 100V160 9999 FEW043 BKN050 09/02 Q1018', 'RJDB 081600Z AUTO 11006KT 060V140 9999 FEW036 BKN047 OVC050 09/02 Q1018', 'RJDB 081500Z AUTO 35004KT 320V020 9999 FEW034 BKN044 BKN046 07/05 Q1018', 'RJDB 081400Z AUTO 03009KT 9999 -RA FEW033 SCT038 BKN041 07/05 Q1019', 'RJDB 081300Z AUTO 03009KT 9999 -RA FEW036 SCT038 BKN046 08/05 Q1019', 'RJDB 081200Z AUTO 08007KT 040V110 9999 FEW033 BKN035 BKN041 09/02 Q1019', 'RJDB 081100Z AUTO 07006KT 040V120 9999 BKN030 OVC041 09/03 Q1018', 'RJDB 081000Z AUTO 04007KT 020V090 9999 FEW030 SCT043 BKN044 09/03 Q1018', 'RJDB 080900Z AUTO 04007KT 010V100 9999 SCT029 BKN035 BKN042 09/03 Q1017', 'RJDB 080800Z AUTO 05008KT 020V080 9999 NSC 09/03 Q1017', 'RJDB 080700Z AUTO 05006KT 020V100 9999 NSC 09/03 Q1017', 'RJDB 080600Z AUTO 06006KT 030V110 9999 FEW033 SCT180 BKN210 10/03 Q1017', 'RJDB 080500Z AUTO 07006KT 020V130 9999 SCT036 BKN038 OVC040 10/02 Q1017', 'RJDB 080400Z AUTO 07007KT 010V120 9999 FEW031 BKN038 BKN220 09/03 Q1018', 'RJDB 080300Z AUTO 08008KT 040V120 9999 FEW027 BKN036 10/05 Q1018', 'RJDB 080200Z AUTO VRB01KT 9999 FEW012 SCT015 BKN022 07/06 Q1019', 'RJDB 080143Z AUTO 34006KT 310V020 9999 -RA FEW010 SCT023 BKN027 07/05 Q1019 RMK A3010', 'RJDB 080100Z AUTO 02008KT 9999 -RA FEW014 SCT023 BKN033 07/05 Q1019', 'RJDB 080011Z AUTO VRB01KT 9999 FEW007 SCT019 BKN030 07/06 Q1019 RMK A3010', 'RJDB 072312Z AUTO 32004KT 290V360 9999 RA FEW006 SCT015 BKN019 06/05 Q1019 RMK A3010 RI004', 'RJDB 072200Z AUTO 10007KT 060V150 9999 FEW011 SCT030 BKN035 07/04 Q1019', 'RJDB 072100Z AUTO 34006KT 310V010 9999 -RA FEW013 SCT030 BKN036 06/05 Q1018', 'RJDB 072000Z AUTO 34005KT 310V010 9000 -RA FEW018 SCT020 BKN027 06/05 Q1018', 'RJDB 071900Z AUTO 34003KT 290V050 9999 -RA FEW009 SCT017 BKN022 06/05 Q1018', 'RJDB 071800Z AUTO 02010KT 9999 -RA FEW035 BKN036 BKN042 07/03 Q1018']","['2024-02-10 17:00:00', '2024-02-10 16:00:00', '2024-02-10 15:00:00', '2024-02-10 14:00:00', '2024-02-10 13:00:00', '2024-02-10 12:00:00', '2024-02-10 11:00:00', '2024-02-10 10:00:00', '2024-02-10 09:00:00', '2024-02-10 08:00:00', '2024-02-10 07:00:00', '2024-02-10 06:00:00', '2024-02-10 05:00:00', '2024-02-10 04:00:00', '2024-02-10 03:00:00', '2024-02-10 02:00:00', '2024-02-10 01:00:00', '2024-02-10 00:00:00', '2024-02-09 23:00:00', '2024-02-09 22:00:00', '2024-02-09 21:00:00', '2024-02-09 20:00:00', '2024-02-09 19:00:00', '2024-02-09 18:00:00', '2024-02-09 17:00:00', '2024-02-09 16:00:00', '2024-02-09 15:00:00', '2024-02-09 14:00:00', '2024-02-09 13:00:00', '2024-02-09 12:00:00', '2024-02-09 11:00:00', '2024-02-09 10:00:00', '2024-02-09 09:00:00', '2024-02-09 08:00:00', '2024-02-09 07:00:00', '2024-02-09 06:00:00', '2024-02-09 05:00:00', '2024-02-09 04:00:00', '2024-02-09 03:00:00', '2024-02-09 02:00:00', '2024-02-09 01:00:00', '2024-02-09 00:31:00', '2024-02-09 00:00:00', '2024-02-08 23:00:00', '2024-02-08 22:00:00', '2024-02-08 21:00:00', '2024-02-08 20:00:00', '2024-02-08 19:00:00', '2024-02-08 18:00:00', '2024-02-08 17:00:00', '2024-02-08 16:00:00', '2024-02-08 15:00:00', '2024-02-08 14:00:00', '2024-02-08 13:00:00', '2024-02-08 12:00:00', '2024-02-08 11:00:00', '2024-02-08 10:00:00', '2024-02-08 09:00:00', '2024-02-08 08:00:00', '2024-02-08 07:00:00', '2024-02-08 06:00:00', '2024-02-08 05:00:00', '2024-02-08 04:00:00', '2024-02-08 03:00:00', '2024-02-08 02:00:00', '2024-02-08 01:43:00', '2024-02-08 01:00:00', '2024-02-08 00:11:00', '2024-02-07 23:12:00', '2024-02-07 22:00:00', '2024-02-07 21:00:00', '2024-02-07 20:00:00', '2024-02-07 19:00:00', '2024-02-07 18:00:00']"
Japan, Ishigaki New Airport (ISG/ROIG) ,"['ROIG 101700Z AUTO 36007KT 9999 FEW038 BKN100 15/09 Q1025', 'ROIG 101600Z AUTO 01008KT 9999 FEW037 SCT040 BKN090 15/09 Q1026', 'ROIG 101500Z AUTO 36008KT 9999 FEW039 BKN100 15/09 Q1026', 'ROIG 101400Z AUTO 36008KT 9999 FEW038 OVC090 15/09 Q1026', 'ROIG 101300Z AUTO 36008KT 9999 NSC 15/09 Q1026', 'ROIG 101200Z AUTO 01009KT 9999 FEW038 BKN090 16/09 Q1026', 'ROIG 101100Z 01012KT 9999 FEW034 BKN080 16/09 Q1025', 'ROIG 101000Z 02013KT 9999 FEW030 BKN090 16/09 Q1024', 'ROIG 100900Z 02011KT 9999 FEW034 BKN070 16/10 Q1024', 'ROIG 100800Z 02012KT 9999 FEW034 BKN060 16/10 Q1023', 'ROIG 100700Z 02012KT 9999 FEW033 BKN060 17/10 Q1023', 'ROIG 100600Z 02013KT 9999 FEW031 BKN060 17/11 Q1023', 'ROIG 100500Z 02010KT 9999 SCT029 BKN060 17/12 Q1024', 'ROIG 100400Z 02015KT 9999 FEW041 BKN047 17/12 Q1024', 'ROIG 100300Z 02015KT 9999 SCT039 BKN047 17/11 Q1025', 'ROIG 100200Z 02012KT 9999 BKN034 16/11 Q1025', 'ROIG 100100Z 02012KT 9999 FEW028 BKN034 16/12 Q1025', 'ROIG 100000Z 02013KT 9999 BKN033 16/12 Q1024', 'ROIG 092300Z 01011KT 9999 FEW027 BKN033 16/12 Q1024', 'ROIG 092200Z AUTO 01009KT 9999 BKN039 BKN045 OVC050 16/12 Q1023', 'ROIG 092100Z AUTO 01008KT 9999 OVC035 16/12 Q1022', 'ROIG 092000Z AUTO 02009KT 9999 BKN027 OVC031 16/13 Q1022', 'ROIG 091900Z AUTO 02010KT 9999 OVC031 16/13 Q1022', 'ROIG 091800Z AUTO 01009KT 9999 OVC031 16/13 Q1022', 'ROIG 091700Z AUTO 36008KT 9999 SCT032 BKN034 OVC060 16/13 Q1022', 'ROIG 091600Z AUTO 02009KT 9999 FEW024 BKN028 OVC032 16/13 Q1022', 'ROIG 091500Z AUTO 01008KT 9999 FEW023 BKN030 OVC034 15/13 Q1023', 'ROIG 091400Z AUTO 01009KT 5000 BR FEW019 SCT032 OVC044 15/14 Q1023', 'ROIG 091300Z AUTO 01009KT 8000 BKN032 BKN035 OVC036 15/14 Q1022', 'ROIG 091205Z AUTO 02012KT 7000 FEW017 SCT029 BKN035 15/14 Q1022 RMK A3019', 'ROIG 091100Z 01011KT 9999 -SHRA SCT023 BKN034 16/14 Q1021', 'ROIG 091000Z 02012KT 9999 VCSH FEW017 BKN030 16/13 Q1020', 'ROIG 090900Z 01012KT 9999 VCSH FEW014 SCT025 BKN030 15/14 Q1020', 'ROIG 090800Z 01013KT 8000 -SHRA FEW008 SCT015 BKN025 15/14 Q1020', 'ROIG 090700Z 01010KT 9999 -SHRA FEW008 BKN023 15/14 Q1019', 'ROIG 090600Z 02012KT 9999 FEW015 SCT027 BKN050 16/14 Q1019', 'ROIG 090500Z 01015KT 9999 FEW012 SCT020 BKN028 16/15 Q1020', 'ROIG 090400Z 01013KT 9999 -SHRA FEW009 SCT018 BKN032 16/16 Q1020', 'ROIG 090300Z 01013KT 8000 -SHRA FEW008 SCT011 BKN019 16/15 Q1021', 'ROIG 090200Z 01013KT 9000 -SHRA SCT011 BKN023 16/15 Q1021', 'ROIG 090100Z 02012KT 8000 -SHRA SCT008 BKN018 16/15 Q1021', 'ROIG 090000Z 01014KT 5000 R04/1900D -SHRA BR SCT006 BKN012 16/15 Q1020', 'ROIG 082300Z 01012KT 5000 -SHRA BR FEW003 SCT006 BKN015 16/16 Q1019', 'ROIG 082246Z AUTO 01011KT 1500 R04/P2000N -RA BR SCT006 SCT009 BKN017 16/16 Q1019 RMK A3010', 'ROIG 082221Z AUTO 01013KT 2300 -RA BR FEW006 SCT009 BKN014 16/16 Q1018 RMK A3008', 'ROIG 082146Z AUTO 02013KT 2700 -RA BR SCT006 BKN011 BKN013 16/16 Q1018 RMK A3007', 'ROIG 082117Z AUTO 02011KT 2000 -RA BR SCT005 BKN007 OVC021 16/16 Q1018 RMK A3006', 'ROIG 082050Z AUTO 01009KT 4000 -RA BR BKN006 BKN010 OVC031 16/16 Q1017 RMK A3005', 'ROIG 082020Z AUTO 01010KT 3700 -RA BR FEW007 BKN009 OVC010 16/16 Q1017 RMK A3005', 'ROIG 081947Z AUTO 01008KT 2600 -RA BR BKN005 OVC012 16/16 Q1017 RMK A3005', 'ROIG 081920Z AUTO 02007KT 4500 -RA BR FEW007 SCT009 BKN010 16/16 Q1017 RMK A3004', 'ROIG 081800Z AUTO 02011KT 9999 -RA BKN018 OVC026 17/16 Q1017', 'ROIG 081700Z AUTO 03009KT 9999 -RA BKN016 OVC023 17/16 Q1018', 'ROIG 081600Z AUTO 03015KT 9999 FEW007 BKN010 BKN023 17/16 Q1018', 'ROIG 081500Z AUTO 02013KT 4500 -RA BR BKN010 OVC023 17/16 Q1018', 'ROIG 081400Z AUTO 02014KT 5000 -RA BR SCT016 BKN020 BKN021 17/15 Q1018', 'ROIG 081300Z AUTO 03015KT 9999 FEW014 BKN017 BKN025 17/15 Q1017', 'ROIG 081200Z AUTO 02012KT 330V040 9000 -RA SCT015 BKN017 BKN020 17/15 Q1017', 'ROIG 081100Z 01010KT 9999 -SHRA SCT015 BKN023 17/15 Q1017', 'ROIG 081000Z 01010KT 9999 BKN024 17/15 Q1016', 'ROIG 080900Z 02011KT 9999 VCSH FEW011 SCT026 BKN032 17/15 Q1016', 'ROIG 080800Z 01012KT 7000 -SHRA SCT005 BKN010 17/16 Q1015', 'ROIG 080700Z 36011KT 8000 R04/2000N -RA FEW013 SCT024 BKN038 17/16 Q1015', 'ROIG 080600Z 01010KT 9999 -RA FEW014 SCT027 BKN045 18/17 Q1015', 'ROIG 080500Z 01009KT 9999 -SHRA FEW014 BKN024 BKN041 18/17 Q1015', 'ROIG 080400Z 02010KT 9999 -SHRA FEW014 BKN024 18/17 Q1015', 'ROIG 080300Z 02012KT 9999 -SHRA BKN014 BKN024 18/17 Q1016', 'ROIG 080200Z 01011KT 9999 -SHRA SCT014 BKN022 18/17 Q1017', 'ROIG 080100Z 02014KT 9999 -SHRA FEW014 BKN033 BKN080 17/16 Q1017', 'ROIG 080000Z 01013KT 6000 -SHRA FEW007 BKN010 BKN020 17/17 Q1016', 'ROIG 072300Z 01013KT 6000 R04/2000N -SHRA FEW006 BKN011 BKN020 17/17 Q1015', 'ROIG 072251Z AUTO 02013G24KT 2200 -RA BR FEW007 SCT010 BKN017 17/17 Q1015 RMK A2999', 'ROIG 072230Z AUTO 03013KT 3700 -RA BR FEW005 BKN010 BKN013 17/17 Q1015 RMK A2997', 'ROIG 072149Z AUTO 02012KT 1400 R04/P2000N -RA BR FEW006 SCT009 BKN011 17/17 Q1014 RMK A2997', 'ROIG 072121Z AUTO 02012KT 0900 R04/2000N -RA FG SCT005 BKN008 BKN010 17/17 Q1014 RMK A2995', 'ROIG 072027Z AUTO 01011KT 6000 -RA SCT008 BKN010 BKN021 17/17 Q1014 RMK A2995', 'ROIG 072019Z AUTO 01012KT 3700 -RA BR BKN011 OVC024 17/17 Q1014 RMK A2995', 'ROIG 071943Z AUTO 02014KT 7000 -RA SCT011 BKN019 OVC036 18/17 Q1013 RMK A2994', 'ROIG 071915Z AUTO 04020KT 8000 -RA SCT012 BKN016 BKN021 18/17 Q1013 RMK A2994', 'ROIG 071800Z AUTO 03017KT 9999 -RA FEW013 SCT021 BKN023 19/16 Q1014']","['2024-02-10 17:00:00', '2024-02-10 16:00:00', '2024-02-10 15:00:00', '2024-02-10 14:00:00', '2024-02-10 13:00:00', '2024-02-10 12:00:00', '2024-02-10 11:00:00', '2024-02-10 10:00:00', '2024-02-10 09:00:00', '2024-02-10 08:00:00', '2024-02-10 07:00:00', '2024-02-10 06:00:00', '2024-02-10 05:00:00', '2024-02-10 04:00:00', '2024-02-10 03:00:00', '2024-02-10 02:00:00', '2024-02-10 01:00:00', '2024-02-10 00:00:00', '2024-02-09 23:00:00', '2024-02-09 22:00:00', '2024-02-09 21:00:00', '2024-02-09 20:00:00', '2024-02-09 19:00:00', '2024-02-09 18:00:00', '2024-02-09 17:00:00', '2024-02-09 16:00:00', '2024-02-09 15:00:00', '2024-02-09 14:00:00', '2024-02-09 13:00:00', '2024-02-09 12:05:00', '2024-02-09 11:00:00', '2024-02-09 10:00:00', '2024-02-09 09:00:00', '2024-02-09 08:00:00', '2024-02-09 07:00:00', '2024-02-09 06:00:00', '2024-02-09 05:00:00', '2024-02-09 04:00:00', '2024-02-09 03:00:00', '2024-02-09 02:00:00', '2024-02-09 01:00:00', '2024-02-09 00:00:00', '2024-02-08 23:00:00', '2024-02-08 22:46:00', '2024-02-08 22:21:00', '2024-02-08 21:46:00', '2024-02-08 21:17:00', '2024-02-08 20:50:00', '2024-02-08 20:20:00', '2024-02-08 19:47:00', '2024-02-08 19:20:00', '2024-02-08 18:00:00', '2024-02-08 17:00:00', '2024-02-08 16:00:00', '2024-02-08 15:00:00', '2024-02-08 14:00:00', '2024-02-08 13:00:00', '2024-02-08 12:00:00', '2024-02-08 11:00:00', '2024-02-08 10:00:00', '2024-02-08 09:00:00', '2024-02-08 08:00:00', '2024-02-08 07:00:00', '2024-02-08 06:00:00', '2024-02-08 05:00:00', '2024-02-08 04:00:00', '2024-02-08 03:00:00', '2024-02-08 02:00:00', '2024-02-08 01:00:00', '2024-02-08 00:00:00', '2024-02-07 23:00:00', '2024-02-07 22:51:00', '2024-02-07 22:30:00', '2024-02-07 21:49:00', '2024-02-07 21:21:00', '2024-02-07 20:27:00', '2024-02-07 20:19:00', '2024-02-07 19:43:00', '2024-02-07 19:15:00', '2024-02-07 18:00:00']"
