country,airport,METARs,UTC/Time
United-states-minor-outlying-islands, Wake Island Airport (AWK/PWAK) ,"['PWAK 150955Z AUTO 05021G26KT 4SM HZ FEW034 BKN085 23/17 A3011 RMK AO2 SLP202 T02310166', 'PWAK 150855Z AUTO 04022G28KT 5SM HZ SCT028 BKN050 BKN060 22/17 A3011 RMK AO2 PK WND 04028/45 SLP202 T02220171 52015', 'PWAK 150755Z AUTO 03022KT 4SM HZ FEW023 BKN050 BKN060 22/18 A3009 RMK AO2 PK WND 03027/25 SLP196 T02210177', 'PWAK 150655Z AUTO 02022KT 3SM HZ FEW016 FEW025 SCT041 BKN090 22/18 A3008 RMK AO2 PK WND 01030/40 SLP192 T02150175', 'PWAK 150555Z AUTO 03024KT 6SM HZ BKN065 OVC090 23/17 A3006 RMK AO2 PK WND 04027/54 SLP185 60002 T02290169 10244 20221 53007', 'PWAK 150455Z AUTO 03020KT 7SM SCT028 OVC060 23/17 A3005 RMK AO2 PK WND 03026/15 SLP182 T02330173', 'PWAK 150355Z AUTO 02021KT 8SM BKN070 OVC085 24/18 A3003 RMK AO2 PK WND 02026/31 SLP175 T02400179', 'PWAK 150255Z AUTO 02021G26KT 10SM FEW041 BKN049 BKN060 OVC070 23/18 A3004 RMK AO2 PK WND 03026/48 RAB0155E29 SLP179 P0000 60002 T02290184 57018', 'PWAK 150156Z AUTO 03018G26KT 10SM -RA SCT031 BKN038 OVC050 24/17 A3005 RMK AO2 RAB55 SLP182', 'PWAK 150055Z AUTO 02018KT 10SM BKN050 OVC070 24/19 A3007 RMK AO2 RAB16E28 SLP189 P0002 T02390185', 'PWAK 150028Z AUTO 03020KT 10SM BKN046 OVC060 22/19 A3008 RMK AO2 RAB16E28 SLP192', 'PWAK 142355Z AUTO 02018KT 10SM SCT049 BKN060 OVC085 23/19 A3009 RMK AO2 RAB04E33 SLP196 P0006 60006 T02290194 10240 20215 50002', 'PWAK 142304Z AUTO 03021G25KT 5SM RA FEW021 SCT029 BKN041 BKN050 OVC065 24/18 A3011 RMK AO2 RAB04 SLP202', 'PWAK 142255Z AUTO 03017G22KT 5SM HZ SCT027 BKN039 BKN050 OVC065 24/17 A3010 RMK AO2 SLP199 T02370172', 'PWAK 142230Z AUTO 05018KT 5SM HZ SCT019 OVC026 22/18 A3011 RMK AO2 CIG 017V026 SLP202', 'PWAK 142155Z AUTO 04017G24KT 5SM HZ BKN060 OVC090 23/17 A3010 RMK AO2 PK WND 03026/2056 SLP199 T02340174', 'PWAK 142055Z AUTO 04020G25KT 3SM HZ BKN048 OVC065 23/17 A3009 RMK AO2 PK WND 07026/17 SLP196 T02250174 52015', 'PWAK 141955Z AUTO 04016KT 3SM HZ SCT047 BKN060 22/17 A3008 RMK AO2 SLP192 T02240169', 'PWAK 141855Z AUTO 05017KT 6SM HZ FEW025 OVC047 23/17 A3007 RMK AO2 SLP189 T02250172', 'PWAK 141755Z AUTO 04018KT 7SM OVC040 22/18 A3004 RMK AO2 SLP179 60000 T02190175 10227 20213 55000', 'PWAK 141655Z AUTO 03022G27KT 9SM FEW018 SCT038 BKN047 OVC055 21/17 A3004 RMK AO2 PK WND 03027/48 RAE00 SLP179 P0000 T02140174', 'PWAK 141620Z AUTO 02021KT 10SM FEW016 BKN021 BKN029 BKN044 BKN060 OVC090 22/18 A3004 RMK AO2 RAE00 CIG 021V043 SLP179', 'PWAK 141555Z AUTO 02021G27KT 9SM -RA FEW020 BKN031 BKN042 OVC049 22/18 A3004 RMK AO2 PK WND 02027/47 RAB1458E03RAB51 SLP179 P0000 T02160176', 'PWAK 141528Z AUTO 03019G25KT 10SM SCT019 OVC038 22/18 A3004 RMK AO2 RAB1458E03 SLP179', 'PWAK 141408Z AUTO 04020KT 4SM HZ SCT022 SCT028 BKN039 OVC060 22/17 A3006 RMK AO2 RAB02E08 SLP185', 'PWAK 141355Z AUTO 04019KT 4SM HZ FEW025 SCT038 BKN048 OVC060 23/17 A3006 RMK AO2 PK WND 03027/03 SLP185 T02250170', 'PWAK 141325Z AUTO 03021KT 3SM HZ FEW024 BKN040 OVC055 22/17 A3006 RMK AO2 SLP185', 'PWAK 141255Z AUTO 03023KT 3SM HZ FEW026 BKN040 OVC049 22/17 A3007 RMK AO2 PK WND 02030/1157 RAB15E29 SLP189 P0000 T02220171', 'PWAK 141221Z AUTO 03023G29KT 4SM -RA SCT024 BKN036 OVC049 22/17 A3007 RMK AO2 RAB15 SLP189', 'PWAK 141155Z AUTO 02020KT 2 1/2SM HZ FEW019 SCT029 BKN043 OVC055 23/17 A3007 RMK AO2 PK WND 02030/18 VIS 2 1/2V3 RAB16E30 SLP189 P0000 60000 70015 T02260173 10236 20215 402500214 51009', 'PWAK 141121Z AUTO 02024G30KT 4SM -RA SCT024 OVC033 22/17 A3007 RMK AO2 RAB16 SLP189', 'PWAK 141055Z AUTO 02022KT 4SM HZ FEW020 BKN029 OVC043 23/17 A3007 RMK AO2 PK WND 02030/10 RAE05 CIG 029V043 BKN V SCT SLP189 P0000 T02290169', 'PWAK 141025Z AUTO 02022KT 6SM HZ SCT029 BKN043 OVC050 23/17 A3006 RMK AO2 RAE05 SLP185', 'PWAK 140955Z AUTO 02023G30KT 7SM -RA FEW007 FEW014 BKN027 BKN043 OVC050 22/17 A3006 RMK AO2 PK WND 01033/0858 RAE00RAB47 CIG 027V043 SLP185 P0000 T02160174', 'PWAK 140910Z AUTO 02026KT 8SM FEW009 SCT021 SCT026 BKN033 OVC044 22/18 A3005 RMK AO2 RAE00 SLP182', 'PWAK 140855Z AUTO 02026G32KT 8SM -RA FEW007 FEW012 SCT021 BKN026 BKN034 OVC045 22/18 A3004 RMK AO2 PK WND 03032/47 RAB29 SLP179 P0000 60000 T02240177 52018', 'PWAK 140829Z AUTO 03023KT 2 3/4SM -RA FEW012 SCT027 BKN034 OVC042 23/18 A3003 RMK AO2 RAB29 SLP175', 'PWAK 140755Z AUTO 02022G30KT 3SM HZ SCT028 OVC037 23/17 A3002 RMK AO2 PK WND 02032/0659 RAB20E31 SLP172 P0000 T02320174', 'PWAK 140720Z AUTO 02025KT 3SM -RA SCT028 BKN037 OVC044 23/18 A3000 RMK AO2 RAB20 SLP165', 'PWAK 140655Z AUTO 02026KT 1SM R28/P6000FT HZ SCT026 OVC036 23/18 A2999 RMK AO2 PK WND 02031/05 RAB06E15 SLP162 P0000 T02330179', 'PWAK 140625Z AUTO 02026KT 2 1/2SM HZ FEW027 BKN035 OVC049 23/18 A2999 RMK AO2 VIS 2 1/2V3 RAB06E15 SLP162', 'PWAK 140555Z AUTO 02021G27KT 1 3/4SM HZ FEW028 SCT036 OVC044 24/18 A2998 RMK AO2 PK WND 02032/0459 VIS 1 3/4V2 1/4 RAB0459E10 SLP158 P0000 60007 T02370181 10249 20218 51008', 'PWAK 140510Z AUTO 02024G32KT 6SM HZ FEW008 FEW022 SCT027 OVC037 23/18 A2997 RMK AO2 RAB0459E10 SLP155', 'PWAK 140459Z AUTO 02026G32KT 6SM -RA FEW007 SCT024 SCT030 OVC039 23/19 A2997 RMK AO2 RAB59 SLP155', 'PWAK 140411Z AUTO 02020G29KT 7SM FEW007 SCT014 BKN023 OVC039 22/19 A2996 RMK AO2 RAE11 CIG 014V023 SLP151', 'PWAK 140355Z AUTO 03022G27KT 6SM -RA SCT006 SCT013 BKN017 OVC037 22/19 A2997 RMK AO2 PK WND 02031/11 RAB0256E05RAB13 CIG 017V023 SLP155 P0000 T02200190', 'PWAK 140313Z AUTO 03023G31KT 5SM -RA SCT019 BKN025 OVC033 24/19 A2996 RMK AO2 RAB0256E05RAB13 CIG 021V030 SLP151', 'PWAK 140256Z AUTO 02025G29KT 2 1/4SM -RA FEW007 BKN022 OVC032 24/19 A2996 RMK AO2 VIS 1 3/4V2 1/4 RAB56 SLP151', 'PWAK 140205Z AUTO 01022KT 9SM FEW012 SCT020 BKN029 BKN037 OVC044 24/21 A2997 RMK AO2 CIG 020V038 SLP155', 'PWAK 140155Z AUTO 02026G31KT 10SM FEW014 SCT020 SCT030 OVC038 24/21 A2997 RMK AO2 RAB02E16 SLP155 P0001 T02410206', 'PWAK 140116Z AUTO 02027G30KT 10SM FEW010 SCT020 BKN027 BKN038 BKN060 23/20 A2999 RMK AO2 RAB02E16 CIG 027V038 SLP162', 'PWAK 140055Z AUTO 01021KT 10SM FEW006 FEW011 SCT025 BKN037 BKN050 BKN060 24/21 A3000 RMK AO2 PK WND 03030/12 RAB13E43 SLP165 P0006 T02370212', 'PWAK 140018Z AUTO 02021G30KT 5SM RA FEW015 SCT022 BKN027 OVC037 24/20 A3001 RMK AO2 RAB13 CIG 024V038 SLP168', 'PWAK 132355Z AUTO 02021KT 4SM HZ FEW011 FEW018 SCT026 BKN039 25/19 A3001 RMK AO2 PK WND 02028/40 RAB29E32 SLP168 P0000 60008 T02450193 10248 20214 58001', 'PWAK 132325Z AUTO 02021G26KT 2 3/4SM HZ SCT017 BKN026 BKN035 OVC050 24/19 A3002 RMK AO2 VIS 2 3/4V4 CIG 017V026 SLP172', 'PWAK 132255Z AUTO 02023G28KT 7SM SCT021 BKN050 OVC080 25/20 A3003 RMK AO2 PK WND 01028/50 RAE01 SLP175 P0000 T02460203', 'PWAK 132201Z AUTO 02024KT 10SM BKN017 BKN024 OVC030 23/20 A3002 RMK AO2 RAE01 CIG 017V023 BKN017 V SCT SLP172', 'PWAK 132155Z AUTO 01022G29KT 6SM -RA SCT017 BKN023 BKN031 OVC038 23/20 A3002 RMK AO2 PK WND 02029/44 RAB2057E18RAB26E40RAB47 SLP172 P0001 T02270198', 'PWAK 132126Z AUTO 03017KT 10SM -RA FEW007 SCT016 BKN021 BKN028 BKN044 OVC050 23/20 A3002 RMK AO2 RAB2057E18RAB26 SLP172', 'PWAK 132057Z AUTO 03022KT 9SM RA FEW007 SCT014 BKN020 BKN027 OVC050 22/20 A3002 RMK AO2 RAB57 CIG 020V026 SLP172', 'PWAK 132025Z AUTO 02020KT 3SM -RA BR BKN007 OVC035 22/20 A3001 RMK AO2 CIG 007V032 SLP168', 'PWAK 131955Z AUTO 02015G26KT 3SM +RA FEW010 FEW014 BKN032 BKN041 OVC050 22/20 A3001 RMK AO2 PK WND 01029/40 RAB40 SLP168 P0004 T02220197', 'PWAK 131855Z AUTO 36014KT 9SM FEW018 FEW028 SCT035 24/20 A2999 RMK AO2 SLP162 T02420195', 'PWAK 131755Z AUTO 01011KT 9SM SCT030 SCT055 24/19 A2997 RMK AO2 SLP155 60000 T02420186 10250 20240 55001', 'PWAK 131655Z AUTO 36012KT 10SM CLR 24/18 A2997 RMK AO2 SLP155 T02410178', 'PWAK 131555Z AUTO 34013KT 10SM FEW030 24/19 A2996 RMK AO2 RAE06 SLP151 P0000 T02430189', 'PWAK 131511Z AUTO 36012KT 10SM BKN030 BKN040 BKN049 BKN060 24/19 A2997 RMK AO2 RAE06 SLP155', 'PWAK 131455Z AUTO 35009KT 10SM RA SCT030 SCT047 25/19 A2997 RMK AO2 RAB53 SLP155 P0000 60000 T02480189 57009', 'PWAK 131355Z AUTO 01009KT 10SM SCT030 BKN038 25/19 A2998 RMK AO2 SLP158 T02480187', 'PWAK 131255Z AUTO 35009KT 10SM FEW026 25/19 A2999 RMK AO2 SLP162 T02480194', 'PWAK 131155Z AUTO 35011KT 10SM CLR 25/19 A3000 RMK AO2 SLP165 T02480192 10266 20248 402820235 58000', 'PWAK 131055Z AUTO 35012KT 9SM FEW025 25/20 A3000 RMK AO2 SLP165 T02500196', 'PWAK 130955Z AUTO 34011KT 10SM BKN025 BKN033 25/20 A3000 RMK AO2 SLP165 T02530196', 'PWAK 130855Z AUTO 36008KT 10SM CLR 25/19 A3000 RMK AO2 SLP165 T02540193 52014', 'PWAK 130755Z AUTO 35008KT 9SM FEW028 FEW035 25/19 A2998 RMK AO2 SLP158 T02540190', 'PWAK 130655Z AUTO 35007KT 7SM CLR 26/19 A2996 RMK AO2 SLP151 T02560190', 'PWAK 130555Z AUTO 01007KT 8SM CLR 27/19 A2996 RMK AO2 SLP151 T02650186 10282 20265 55005', 'PWAK 130455Z AUTO 02006KT 7SM CLR 27/19 A2995 RMK AO2 SLP148 T02700188', 'PWAK 130355Z AUTO 01005KT 7SM FEW028 27/19 A2996 RMK AO2 SLP151 T02710189', 'PWAK 130255Z AUTO 36006KT 8SM BKN028 28/19 A2997 RMK AO2 BKN V SCT SLP155 T02760191 57022', 'PWAK 130220Z AUTO 02006KT 7SM BKN029 28/19 A2998 RMK AO2 BKN V SCT SLP158', 'PWAK 130155Z AUTO 03006KT 8SM FEW029 28/19 A2999 RMK AO2 SLP162 T02780187', 'PWAK 130055Z AUTO 03006KT 8SM FEW028 28/19 A3002 RMK AO2 SLP172 T02800192', 'PWAK 122355Z AUTO 03008KT 8SM CLR 28/19 A3004 RMK AO2 SLP179 T02760191 10278 20235 58005', 'PWAK 122255Z AUTO 06006KT 8SM FEW027 27/19 A3006 RMK AO2 SLP185 T02720193', 'PWAK 122155Z AUTO 04006KT 8SM SCT026 27/20 A3006 RMK AO2 SLP185 T02690195', 'PWAK 122055Z AUTO 05006KT 7SM CLR 26/20 A3005 RMK AO2 SLP182 T02600196 52009', 'PWAK 121955Z AUTO 04006KT 7SM CLR 24/20 A3004 RMK AO2 SLP179 T02410196', 'PWAK 121855Z AUTO 04005KT 9SM CLR 24/19 A3003 RMK AO2 SLP175 T02360191', 'PWAK 121755Z AUTO 03006KT 9SM CLR 24/19 A3003 RMK AO2 SLP175 T02410191 10245 20237 55002', 'PWAK 121655Z AUTO 03007KT 9SM SCT027 BKN036 24/19 A3002 RMK AO2 SLP172 T02430193', 'PWAK 121625Z AUTO 04007KT 10SM SCT025 24/19 A3002 RMK AO2 SLP172', 'PWAK 121555Z AUTO 05006KT 9SM FEW025 SCT032 24/19 A3002 RMK AO2 SLP172 T02400193', 'PWAK 121455Z AUTO 05005KT 9SM SCT037 24/19 A3003 RMK AO2 SLP175 T02380191 57010', 'PWAK 121355Z AUTO 05007KT 9SM SCT027 SCT035 24/19 A3005 RMK AO2 SLP182 T02420188', 'PWAK 121330Z AUTO 05008KT 10SM BKN028 BKN035 24/19 A3006 RMK AO2 CIG 028V035 SLP185', 'PWAK 121255Z AUTO 05009KT 9SM FEW028 25/19 A3006 RMK AO2 SLP185 T02450191', 'PWAK 121155Z AUTO 07008KT 9SM CLR 24/19 A3007 RMK AO2 SLP189 T02420188 10268 20242 402850239 51003', 'PWAK 121055Z AUTO 06009KT 9SM FEW027 24/19 A3006 RMK AO2 SLP185 T02430185']","['2024-02-15 09:55:00', '2024-02-15 08:55:00', '2024-02-15 07:55:00', '2024-02-15 06:55:00', '2024-02-15 05:55:00', '2024-02-15 04:55:00', '2024-02-15 03:55:00', '2024-02-15 02:55:00', '2024-02-15 01:56:00', '2024-02-15 00:55:00', '2024-02-15 00:28:00', '2024-02-14 23:55:00', '2024-02-14 23:04:00', '2024-02-14 22:55:00', '2024-02-14 22:30:00', '2024-02-14 21:55:00', '2024-02-14 20:55:00', '2024-02-14 19:55:00', '2024-02-14 18:55:00', '2024-02-14 17:55:00', '2024-02-14 16:55:00', '2024-02-14 16:20:00', '2024-02-14 15:55:00', '2024-02-14 15:28:00', '2024-02-14 14:08:00', '2024-02-14 13:55:00', '2024-02-14 13:25:00', '2024-02-14 12:55:00', '2024-02-14 12:21:00', '2024-02-14 11:55:00', '2024-02-14 11:21:00', '2024-02-14 10:55:00', '2024-02-14 10:25:00', '2024-02-14 09:55:00', '2024-02-14 09:10:00', '2024-02-14 08:55:00', '2024-02-14 08:29:00', '2024-02-14 07:55:00', '2024-02-14 07:20:00', '2024-02-14 06:55:00', '2024-02-14 06:25:00', '2024-02-14 05:55:00', '2024-02-14 05:10:00', '2024-02-14 04:59:00', '2024-02-14 04:11:00', '2024-02-14 03:55:00', '2024-02-14 03:13:00', '2024-02-14 02:56:00', '2024-02-14 02:05:00', '2024-02-14 01:55:00', '2024-02-14 01:16:00', '2024-02-14 00:55:00', '2024-02-14 00:18:00', '2024-02-13 23:55:00', '2024-02-13 23:25:00', '2024-02-13 22:55:00', '2024-02-13 22:01:00', '2024-02-13 21:55:00', '2024-02-13 21:26:00', '2024-02-13 20:57:00', '2024-02-13 20:25:00', '2024-02-13 19:55:00', '2024-02-13 18:55:00', '2024-02-13 17:55:00', '2024-02-13 16:55:00', '2024-02-13 15:55:00', '2024-02-13 15:11:00', '2024-02-13 14:55:00', '2024-02-13 13:55:00', '2024-02-13 12:55:00', '2024-02-13 11:55:00', '2024-02-13 10:55:00', '2024-02-13 09:55:00', '2024-02-13 08:55:00', '2024-02-13 07:55:00', '2024-02-13 06:55:00', '2024-02-13 05:55:00', '2024-02-13 04:55:00', '2024-02-13 03:55:00', '2024-02-13 02:55:00', '2024-02-13 02:20:00', '2024-02-13 01:55:00', '2024-02-13 00:55:00', '2024-02-12 23:55:00', '2024-02-12 22:55:00', '2024-02-12 21:55:00', '2024-02-12 20:55:00', '2024-02-12 19:55:00', '2024-02-12 18:55:00', '2024-02-12 17:55:00', '2024-02-12 16:55:00', '2024-02-12 16:25:00', '2024-02-12 15:55:00', '2024-02-12 14:55:00', '2024-02-12 13:55:00', '2024-02-12 13:30:00', '2024-02-12 12:55:00', '2024-02-12 11:55:00', '2024-02-12 10:55:00']"
Uruguay, Montevideo Carrasco International Airport (MVD/SUMU) ,"['SUMU 151000Z 08005KT CAVOK 16/12 Q1021 NOSIG', 'SUMU 150900Z 09008KT CAVOK 17/13 Q1021 NOSIG', 'SUMU 150800Z 07004KT CAVOK 17/13 Q1021 NOSIG', 'SUMU 150700Z 08004KT CAVOK 18/14 Q1021 NOSIG', 'SUMU 150600Z 08007KT CAVOK 18/14 Q1021 NOSIG', 'SUMU 150500Z 07005KT CAVOK 19/14 Q1021 NOSIG', 'SUMU 150400Z 07007KT CAVOK 19/14 Q1021 NOSIG', 'SUMU 150300Z 08007KT CAVOK 20/15 Q1022 NOSIG', 'SUMU 150200Z 07009KT CAVOK 20/15 Q1022 NOSIG', 'SUMU 150100Z 09015KT CAVOK 20/14 Q1022 NOSIG', 'SUMU 150000Z 10015KT CAVOK 21/14 Q1021 NOSIG', 'SUMU 142300Z 10013KT CAVOK 21/15 Q1021 NOSIG', 'SUMU 142200Z 12011KT CAVOK 21/15 Q1020 NOSIG', 'SUMU 142100Z 13014KT CAVOK 21/14 Q1021 NOSIG', 'SUMU 142000Z 13014KT CAVOK 21/13 Q1021 NOSIG', 'SUMU 141900Z 13014KT 9999 FEW040 22/14 Q1021 NOSIG', 'SUMU 141800Z 13012KT 9999 FEW033 22/14 Q1022 NOSIG', 'SUMU 141700Z 14010KT 9999 FEW033 22/14 Q1023 NOSIG', 'SUMU 141600Z 13010KT 9999 SCT033 21/13 Q1023 NOSIG', 'SUMU 141500Z 12009KT 9999 FEW033 21/13 Q1023 NOSIG', 'SUMU 141400Z 12009KT 9999 FEW030 21/12 Q1024 NOSIG', 'SUMU 141300Z 14008KT 9999 FEW033 20/12 Q1024 NOSIG', 'SUMU 141200Z 14005KT 9999 FEW030 19/12 Q1024 NOSIG', 'SUMU 141100Z 00000KT 9999 FEW030 15/12 Q1024 NOSIG', 'SUMU 141000Z 00000KT CAVOK 12/10 Q1023 NOSIG', 'SUMU 140900Z 00000KT CAVOK 12/10 Q1023 NOSIG', 'SUMU 140800Z 00000KT CAVOK 12/12 Q1022 NOSIG', 'SUMU 140700Z 00000KT CAVOK 13/11 Q1022 NOSIG', 'SUMU 140600Z 06006KT 9999 BKN037 15/10 Q1023 NOSIG', 'SUMU 140500Z 11008KT 9999 BKN038 17/09 Q1023 NOSIG', 'SUMU 140400Z 11010KT 9999 BKN040 17/09 Q1023 NOSIG', 'SUMU 140300Z 15006KT 9999 SCT038 17/09 Q1023 NOSIG', 'SUMU 140200Z 16008KT 9999 SCT040 17/09 Q1023 NOSIG', 'SUMU 140100Z 15008KT 9999 FEW043 17/08 Q1023 NOSIG', 'SUMU 140000Z 15008KT 9999 SCT040 18/09 Q1022 NOSIG', 'SUMU 132300Z 16010KT 9999 SCT040 18/09 Q1022 NOSIG', 'SUMU 132200Z 18011KT 9999 BKN033 19/10 Q1022 NOSIG', 'SUMU 132100Z 17013KT 9999 BKN033 19/11 Q1022 NOSIG', 'SUMU 132000Z 17013KT 9999 BKN040 20/11 Q1022 NOSIG', 'SUMU 131900Z 18013KT 9999 BKN040 21/11 Q1022 NOSIG', 'SUMU 131800Z 18012KT 9999 BKN040 20/10 Q1022 NOSIG', 'SUMU 131700Z 18012KT 9999 BKN040 21/11 Q1022 NOSIG', 'SUMU 131600Z 17011KT 9999 BKN040 20/11 Q1022 NOSIG', 'SUMU 131500Z 18012KT 9999 BKN033 21/09 Q1022 NOSIG', 'SUMU 131400Z 16013KT 9999 BKN033 19/11 Q1022 NOSIG', 'SUMU 131300Z 17013KT 9999 BKN040 19/10 Q1021 NOSIG', 'SUMU 131200Z 18015KT 9999 BKN040 19/09 Q1021 NOSIG', 'SUMU 131100Z 19012KT 9999 OVC040 19/10 Q1020 NOSIG', 'SUMU 131000Z 18014KT 9999 BKN040 18/11 Q1019 NOSIG', 'SUMU 130900Z 18013KT 9999 BKN040 18/10 Q1019 NOSIG', 'SUMU 130800Z 17015KT 9999 BKN033 18/10 Q1018 NOSIG', 'SUMU 130700Z 17013KT 9999 BKN033 18/11 Q1018 NOSIG', 'SUMU 130600Z 18014G24KT 9999 BKN033 18/11 Q1018 NOSIG', 'SUMU 130500Z 17013G23KT 9999 OVC030 18/13 Q1018 NOSIG', 'SUMU 130400Z 17015KT 9999 OVC030 19/13 Q1018 TEMPO 19025G35KT RA', 'SUMU 130300Z 18017KT 9999 OVC033 19/12 Q1017 TEMPO 19025G35KT RA', 'SUMU 130200Z 18020G30KT 9999 OVC026 19/13 Q1016 TEMPO 19025G35KT RA', 'SUMU 130100Z 18020G30KT 9999 OVC020 20/16 Q1015 TEMPO 19025G35KT RA', 'SUMU 130029Z 18022G32KT 9999 BKN017 BKN070 20/17 Q1014 TEMPO 19025G35KT RA', 'SUMU 122300Z 19022G32KT 9000 -RA BKN010 OVC200 22/20 Q1010 TEMPO 19025G35KT RA', 'SUMU 122210Z 19021G31KT 7000 VCSH BKN010 BKN066 OVC200 23/21 Q1010 TEMPO 17015G25KT RA', 'SUMU 122130Z 22008KT 9999 2000W SHRA SCT020 BKN066 OVC200 23/21 Q1009 TEMPO 17015G25KT RA', 'SUMU 122000Z 23006KT 9000 -DZ FEW010 FEW030TCU BKN040 24/22 Q1009 TEMPO 17015G25KT RA', 'SUMU 121900Z 08006KT 6000 RA FEW040 BKN100 OVC200 24/22 Q1007 TEMPO 17015G25KT RA', 'SUMU 121800Z 14006KT 8000 -RA FEW033 OVC090 24/22 Q1008 TEMPO 19025G35KT TSRA', 'SUMU 121739Z 15004KT 9999 -RA FEW033 OVC070 23/22 Q1008 TEMPO 19025G35KT TSRA', 'SUMU 121700Z 22012KT 4500 TSRA BR FEW006 FEW040CB OVC048 23/22 Q1008 TEMPO 19025G35KT TSRA', 'SUMU 121620Z 26012KT 2000 TSRA BR FEW040CB OVC050 24/23 Q1008 TEMPO 19025G35KT TSRA', 'SUMU 121549Z 32003KT 1300 R25/1000D R19/0700D TSRA FEW040CB BKN050 BKN100 24/22 Q1008 TEMPO 19025G35KT TSRA', 'SUMU 121500Z 19012KT 8000 -RA FEW017 FEW040TCU BKN045 24/22 Q1007 TEMPO 19025G35KT TSRA', 'SUMU 121442Z 21014KT 3000 RA FEW005 FEW040TCU OVC045 24/22 Q1008 TEMPO 19025G35KT TSRA', 'SUMU 121400Z 22023KT 8000 4000SW TSRA BKN012 FEW040CB 24/22 Q1009 TEMPO 19025G35KT TSRA', 'SUMU 121344Z 22024KT 7000 TSRA SCT030 FEW040CB SCT070 BKN200 29/22 Q1008 TEMPO 19025G35KT TSRA', 'SUMU 121325Z 33016KT 9999 4000W TSSH FEW033 FEW040CB SCT070 BKN200 30/23 Q1006 TEMPO 19025G35KT TSRA', 'SUMU 121200Z 36014KT CAVOK 29/23 Q1006 TEMPO TSRA', 'SUMU 121100Z 01014KT CAVOK 27/23 Q1006 TEMPO TSRA']","['2024-02-15 10:00:00', '2024-02-15 09:00:00', '2024-02-15 08:00:00', '2024-02-15 07:00:00', '2024-02-15 06:00:00', '2024-02-15 05:00:00', '2024-02-15 04:00:00', '2024-02-15 03:00:00', '2024-02-15 02:00:00', '2024-02-15 01:00:00', '2024-02-15 00:00:00', '2024-02-14 23:00:00', '2024-02-14 22:00:00', '2024-02-14 21:00:00', '2024-02-14 20:00:00', '2024-02-14 19:00:00', '2024-02-14 18:00:00', '2024-02-14 17:00:00', '2024-02-14 16:00:00', '2024-02-14 15:00:00', '2024-02-14 14:00:00', '2024-02-14 13:00:00', '2024-02-14 12:00:00', '2024-02-14 11:00:00', '2024-02-14 10:00:00', '2024-02-14 09:00:00', '2024-02-14 08:00:00', '2024-02-14 07:00:00', '2024-02-14 06:00:00', '2024-02-14 05:00:00', '2024-02-14 04:00:00', '2024-02-14 03:00:00', '2024-02-14 02:00:00', '2024-02-14 01:00:00', '2024-02-14 00:00:00', '2024-02-13 23:00:00', '2024-02-13 22:00:00', '2024-02-13 21:00:00', '2024-02-13 20:00:00', '2024-02-13 19:00:00', '2024-02-13 18:00:00', '2024-02-13 17:00:00', '2024-02-13 16:00:00', '2024-02-13 15:00:00', '2024-02-13 14:00:00', '2024-02-13 13:00:00', '2024-02-13 12:00:00', '2024-02-13 11:00:00', '2024-02-13 10:00:00', '2024-02-13 09:00:00', '2024-02-13 08:00:00', '2024-02-13 07:00:00', '2024-02-13 06:00:00', '2024-02-13 05:00:00', '2024-02-13 04:00:00', '2024-02-13 03:00:00', '2024-02-13 02:00:00', '2024-02-13 01:00:00', '2024-02-13 00:29:00', '2024-02-12 23:00:00', '2024-02-12 22:10:00', '2024-02-12 21:30:00', '2024-02-12 20:00:00', '2024-02-12 19:00:00', '2024-02-12 18:00:00', '2024-02-12 17:39:00', '2024-02-12 17:00:00', '2024-02-12 16:20:00', '2024-02-12 15:49:00', '2024-02-12 15:00:00', '2024-02-12 14:42:00', '2024-02-12 14:00:00', '2024-02-12 13:44:00', '2024-02-12 13:25:00', '2024-02-12 12:00:00', '2024-02-12 11:00:00']"
Uruguay, Punta del Este International Airport (PDP/SULS) ,"['SULS 151000Z 30002KT CAVOK 15/13 Q1021', 'SULS 150900Z VRB02KT CAVOK 16/14 Q1021', 'SULS 150900Z VRB02KT CAVOK 16/14 Q1021', 'SULS 150800Z 06004KT CAVOK 18/14 Q1020', 'SULS 150800Z 06004KT CAVOK 18/14 Q1020', 'SULS 150700Z 08004KT 9999 SCT040 18/14 Q1020', 'SULS 150700Z 08004KT 9999 SCT040 18/14 Q1020', 'SULS 150600Z 07004KT 9999 BKN036 19/14 Q1021', 'SULS 150600Z 07004KT 9999 BKN036 19/14 Q1021', 'SULS 150500Z 07003KT 030V120 9999 BKN036 19/15 Q1021', 'SULS 150500Z 07003KT 030V120 9999 BKN036 19/15 Q1021', 'SULS 150400Z 30003KT BKN036 18/15 Q1022', 'SULS 150300Z 08003KT 040V110 CAVOK 18/15 Q1022', 'SULS 150200Z 07005KT 020V110 CAVOK 18/14 Q1022', 'SULS 150100Z 10010KT CAVOK 19/14 Q1022', 'SULS 150000Z 10011KT CAVOK 20/14 Q1021', 'SULS 150000Z 10011KT CAVOK 20/14 Q1021', 'SULS 142300Z 11012KT CAVOK 20/14 Q1021', 'SULS 142200Z 11011KT CAVOK 21/14 Q1021', 'SULS 142100Z 11011KT 070V130 9999 FEW033 23/14 Q1021', 'SULS 142000Z 12012KT 9999 FEW033 24/13 Q1021', 'SULS 141900Z 13014KT 100V170 9999 FEW033 24/13 Q1021', 'SULS 141800Z 13011KT 090V150 9999 SCT033 24/13 Q1022', 'SULS 141700Z 11008KT 070V140 9999 SCT033 24/13 Q1022', 'SULS 141600Z VRB07G17KT 9999 BKN033 23/12 Q1022', 'SULS 141500Z 17009KT 130V210 9999 SCT030 23/12 Q1023', 'SULS 141400Z 16011KT 9999 SCT030 22/13 Q1023', 'SULS 141300Z 18008KT 9999 SCT026 22/13 Q1023', 'SULS 141200Z 00000KT 9999 FEW026 20/13 Q1023', 'SULS 141100Z 32003KT 9999 FEW023 15/12 Q1023', 'SULS 141100Z 32003KT 9999 FEW023 15/12 Q1023', 'SULS 141000Z 30002KT 9999 FEW026 12/10 Q1023', 'SULS 141000Z 30002KT 9999 FEW026 12/10 Q1023', 'SULS 140900Z 30003KT CAVOK 11/09 Q1022', 'SULS 140900Z 30003KT CAVOK 11/09 Q1022', 'SULS 140800Z 33003KT CAVOK 12/10 Q1022', 'SULS 140800Z 33003KT CAVOK 12/10 Q1022', 'SULS 140700Z 30005KT 9999 FEW033 12/10 Q1022', 'SULS 140700Z 30005KT 9999 FEW033 12/10 Q1022', 'SULS 140600Z 30005KT 9999 FEW026 13/10 Q1022', 'SULS 140600Z 30005KT 9999 FEW026 13/10 Q1022', 'SULS 140500Z 15003KT 9999 SCT030 14/10 Q1022', 'SULS 140400Z 15005KT 9999 SCT030 15/09 Q1022', 'SULS 140300Z 15005KT 9999 BKN026 15/09 Q1023', 'SULS 140300Z 15005KT 9999 BKN026 15/09 Q1023', 'SULS 140200Z 15007KT 9999 BKN020 17/09 Q1023', 'SULS 140100Z 17010KT 9999 BKN026 17/09 Q1022', 'SULS 140100Z 17010KT 9999 BKN026 17/09 Q1022', 'SULS 140000Z 18010KT 9999 BKN026 18/09 Q1022', 'SULS 132300Z 17012KT 9999 BKN036 18/08 Q1022', 'SULS 132200Z 18012KT 9999 BKN036 SCT200 18/08 Q1021', 'SULS 132100Z 19014KT 9999 BKN036 SCT200 19/09 Q1021', 'SULS 132000Z 19013KT 9999 BKN040 20/10 Q1021', 'SULS 131900Z 20015KT 9999 SCT040 21/09 Q1021', 'SULS 131800Z 19015KT 9999 SCT040 22/11 Q1021', 'SULS 131707Z 20016G27KT 9999 BKN040 21/10 Q1021', 'SULS 131700Z 19014KT 9999 BKN040 21/10 Q1021', 'SULS 131600Z 18014KT 9999 BKN040 22/09 Q1021', 'SULS 131500Z 17015KT 9999 BKN040 SCT070 21/10 Q1021', 'SULS 131400Z 19016KT 9999 BKN040 20/09 Q1021', 'SULS 131300Z 19014KT 9999 OVC040 19/10 Q1021', 'SULS 131200Z 19015KT 9999 OVC040 18/09 Q1020', 'SULS 131100Z 19015KT 9999 OVC040 18/10 Q1019', 'SULS 131000Z 19016KT 9999 BKN033 18/09 Q1019', 'SULS 130900Z 19018KT 9999 BKN033 17/09 Q1018', 'SULS 130800Z 19017KT 9999 BKN033 17/09 Q1017', 'SULS 130700Z 19019KT 9999 BKN033 18/10 Q1017', 'SULS 130600Z 19019G29KT 9999 BKN033 18/1 Q1017', 'SULS 130500Z 19018G28KT 9999 BKN033 18/12 Q1016', 'SULS 130400Z 19017G27KT 9999 BKN040 18/12 Q1016', 'SULS 130300Z 19018KT 9999 FEW023 BKN040 19/12 Q1015', 'SULS 130200Z 19021G31KT 9999 OVC017 19/14 Q1015', 'SULS 130100Z 20020G30KT 8000 OVC010 20/17 Q1013 REBR', 'SULS 130000Z 21019G30KT 5000 BR BKN007 21/19 Q1011', 'SULS 122325Z 21018KT 9999 BKN010 22/20 Q1010', 'SULS 122300Z 22017G27KT 9999 FEW010 BKN017 23/21 Q1009', 'SULS 122200Z 28007KT 9999 SCT030 OVC070 23/21 Q1008', 'SULS 122100Z 29005KT 9999 FEW010 SCT036 OVC070 23/22 Q1008', 'SULS 122000Z 03002KT 9999 -RA FEW036 OVC070 23/22 Q1007', 'SULS 121900Z 27003KT 220V360 8000 RA BKN036 OVC070 23/22 Q1008', 'SULS 121800Z 23014KT 5000 RA SCT014 OVC020 23/22 Q1008', 'SULS 121700Z VRB02KT 4444 TSRA FEW004 FEW040CB OVC023 22/22 Q1008', 'SULS 121700Z VRB02KT 4444 TSRA FEW004 FEW040CB OVC023 22/22 Q1008', 'SULS 121614Z 25011KT 4000 TSRA FEW040CB OVC017 22/21 Q1007', 'SULS 121600Z 19012KT 9999 TS VCSH FEW008 FEW040CB BKN023 23/21 Q1005', 'SULS 121509Z 22018KT 6000 RA BKN015 25/21 Q1006', 'SULS 121500Z 22018KT 9999 BKN014 25/21 Q1006', 'SULS 121410Z 33015G25KT 300V360 9999 FEW017 SCT070 BKN200 FEW040TCU 35/23 Q1005', 'SULS 121400Z 34015KT 310V010 9999 FEW040TCU SCT070 BKN200 35/24 Q1005', 'SULS 121300Z 35014KT 320V020 CAVOK 33/23 Q1006', 'SULS 121200Z 36013G24KT 9999 FEW040TCU SCT070 BKN200 31/22 Q1006', 'SULS 121100Z 04005KT 9999 FEW040TCU BKN200 27/23 Q1007']","['2024-02-15 10:00:00', '2024-02-15 09:00:00', '2024-02-15 08:57:00', '2024-02-15 08:00:00', '2024-02-15 07:57:00', '2024-02-15 07:00:00', '2024-02-15 06:58:00', '2024-02-15 06:00:00', '2024-02-15 05:58:00', '2024-02-15 05:00:00', '2024-02-15 04:59:00', '2024-02-15 04:00:00', '2024-02-15 03:00:00', '2024-02-15 02:00:00', '2024-02-15 01:00:00', '2024-02-15 00:00:00', '2024-02-14 23:59:00', '2024-02-14 23:00:00', '2024-02-14 22:00:00', '2024-02-14 21:00:00', '2024-02-14 20:00:00', '2024-02-14 19:00:00', '2024-02-14 18:00:00', '2024-02-14 17:00:00', '2024-02-14 16:00:00', '2024-02-14 15:00:00', '2024-02-14 14:00:00', '2024-02-14 13:00:00', '2024-02-14 12:00:00', '2024-02-14 11:00:00', '2024-02-14 10:56:00', '2024-02-14 10:00:00', '2024-02-14 09:57:00', '2024-02-14 09:00:00', '2024-02-14 08:59:00', '2024-02-14 08:00:00', '2024-02-14 07:59:00', '2024-02-14 07:00:00', '2024-02-14 06:57:00', '2024-02-14 06:00:00', '2024-02-14 05:59:00', '2024-02-14 05:00:00', '2024-02-14 04:00:00', '2024-02-14 03:00:00', '2024-02-14 02:58:00', '2024-02-14 02:00:00', '2024-02-14 01:00:00', '2024-02-14 00:59:00', '2024-02-14 00:00:00', '2024-02-13 23:00:00', '2024-02-13 22:00:00', '2024-02-13 21:00:00', '2024-02-13 20:00:00', '2024-02-13 19:00:00', '2024-02-13 18:00:00', '2024-02-13 17:07:00', '2024-02-13 17:00:00', '2024-02-13 16:00:00', '2024-02-13 15:00:00', '2024-02-13 14:00:00', '2024-02-13 13:00:00', '2024-02-13 12:00:00', '2024-02-13 11:00:00', '2024-02-13 10:00:00', '2024-02-13 09:00:00', '2024-02-13 08:00:00', '2024-02-13 07:00:00', '2024-02-13 06:00:00', '2024-02-13 05:00:00', '2024-02-13 04:00:00', '2024-02-13 03:00:00', '2024-02-13 02:00:00', '2024-02-13 01:00:00', '2024-02-13 00:00:00', '2024-02-12 23:25:00', '2024-02-12 22:56:00', '2024-02-12 22:00:00', '2024-02-12 21:00:00', '2024-02-12 20:00:00', '2024-02-12 19:00:00', '2024-02-12 18:00:00', '2024-02-12 17:00:00', '2024-02-12 16:59:00', '2024-02-12 16:14:00', '2024-02-12 16:00:00', '2024-02-12 15:09:00', '2024-02-12 15:00:00', '2024-02-12 14:10:00', '2024-02-12 13:58:00', '2024-02-12 13:00:00', '2024-02-12 12:00:00', '2024-02-12 11:00:00']"
Uzbekistan, Bukhara International Airport (BHK/UTSB) ,"['UTSB 151000Z 19008KT CAVOK 23/M03 Q1013 R19/CLRD70 NOSIG', 'UTSB 150930Z 20008KT CAVOK 23/M03 Q1013 R19/CLRD70 NOSIG', 'UTSB 150900Z 20008KT CAVOK 24/M02 Q1014 R19/CLRD70 NOSIG', 'UTSB 150830Z 19010KT CAVOK 22/M00 Q1014 R19/CLRD70 NOSIG', 'UTSB 150800Z 19012KT CAVOK 21/M02 Q1014 R19/CLRD70 NOSIG', 'UTSB 150730Z 19012KT CAVOK 20/M01 Q1015 R19/CLRD70 NOSIG', 'UTSB 150700Z 20012KT CAVOK 20/M01 Q1015 R19/CLRD70 NOSIG', 'UTSB 150630Z 19014KT CAVOK 19/M01 Q1015 R19/CLRD70 NOSIG', 'UTSB 150600Z 20012KT CAVOK 19/M01 Q1015 R19/CLRD70 NOSIG', 'UTSB 150530Z 19014KT CAVOK 18/M01 Q1015 R19/CLRD70 NOSIG', 'UTSB 150500Z 20014KT CAVOK 16/M00 Q1015 R19/CLRD70 NOSIG', 'UTSB 150430Z 20012KT CAVOK 14/M01 Q1015 R19/CLRD70 NOSIG', 'UTSB 150400Z 20010KT CAVOK 12/M01 Q1015 R19/CLRD70 NOSIG', 'UTSB 150330Z 19010KT 8000 NSC 12/M01 Q1015 R19/CLRD70 NOSIG', 'UTSB 150300Z 20010KT 8000 NSC 12/M02 Q1015 R19/CLRD70 NOSIG', 'UTSB 150230Z 19010KT 8000 NSC 12/M01 Q1015 R19/CLRD70 NOSIG', 'UTSB 150200Z 19008KT 8000 NSC 11/M01 Q1015 R19/CLRD70 NOSIG', 'UTSB 150130Z 18008KT 6000 NSC 11/M01 Q1015 R19/CLRD70 NOSIG', 'UTSB 150100Z 19006KT 6000 NSC 11/M01 Q1014 R19/CLRD70 NOSIG', 'UTSB 150030Z 20008KT 6000 NSC 11/M01 Q1014 R19/CLRD70 NOSIG', 'UTSB 150000Z 20008KT 6000 NSC 12/M01 Q1014 R19/CLRD70 NOSIG', 'UTSB 142330Z 20008KT 6000 NSC 13/M01 Q1014 R19/CLRD70 NOSIG', 'UTSB 142300Z 19010KT 6000 NSC 12/M01 Q1014 R19/CLRD70 NOSIG', 'UTSB 142230Z 20012KT 6000 NSC 13/M01 Q1014 R19/CLRD70 NOSIG', 'UTSB 142200Z 21010KT 6000 NSC 14/M02 Q1014 R19/CLRD70 NOSIG', 'UTSB 142130Z 20010KT 6000 NSC 14/M01 Q1014 R19/CLRD70 NOSIG', 'UTSB 142100Z 19010KT 6000 NSC 14/M01 Q1014 R19/CLRD70 NOSIG', 'UTSB 142030Z 19010KT CAVOK 14/M01 Q1014 R19/CLRD70 NOSIG', 'UTSB 142000Z 19010KT CAVOK 14/M01 Q1014 R19/CLRD70 NOSIG', 'UTSB 141930Z 18008KT CAVOK 14/M01 Q1014 R19/CLRD70 NOSIG', 'UTSB 141900Z 20008KT CAVOK 14/00 Q1014 R19/CLRD70 NOSIG', 'UTSB 141830Z 18006KT CAVOK 14/M00 Q1014 R19/CLRD70 NOSIG', 'UTSB 141800Z 19006KT 8000 NSC 14/M00 Q1014 R19/CLRD70 NOSIG', 'UTSB 141730Z 18006KT 6000 NSC 15/00 Q1014 R19/CLRD70 NOSIG', 'UTSB 141700Z 19004KT 6000 NSC 15/M00 Q1014 R19/CLRD70 NOSIG', 'UTSB 141630Z 17008KT 6000 NSC 16/M01 Q1014 R01/CLRD70 NOSIG', 'UTSB 141600Z 16008KT 6000 NSC 17/M01 Q1014 R01/CLRD70 NOSIG', 'UTSB 141530Z 16008KT 6000 NSC 18/M02 Q1014 R01/CLRD70 NOSIG', 'UTSB 141500Z 14004KT 4500 HZ NSC 18/M02 Q1015 R19/CLRD70 NOSIG', 'UTSB 141400Z 17006KT 3500 HZ NSC 19/M02 Q1015 R19/CLRD70 NOSIG', 'UTSB 141330Z 18004KT 4200 HZ NSC 19/M01 Q1015 R19/CLRD70 NOSIG', 'UTSB 141300Z 17010KT 4200 HZ NSC 21/M02 Q1015 R19/CLRD70 NOSIG', 'UTSB 141230Z 16008KT 4500 HZ NSC 22/M02 Q1015 R19/CLRD70 NOSIG', 'UTSB 141200Z 17010KT 4500 HZ NSC 23/M02 Q1015 R19/CLRD70 NOSIG', 'UTSB 141130Z 17012KT 4500 HZ NSC 23/M03 Q1015 R19/CLRD70 NOSIG', 'UTSB 141100Z 16010KT 4500 HZ NSC 24/M02 Q1015 R19/CLRD70 NOSIG', 'UTSB 141030Z 16012G24KT 6000 -DS NSC 23/M03 Q1015 R19/CLRD70 NOSIG', 'UTSB 141000Z 16012G24KT 6000 -DS NSC 23/M03 Q1016 R19/CLRD70 NOSIG', 'UTSB 140930Z 14014G24KT CAVOK 22/M03 Q1016 R19/CLRD70 NOSIG', 'UTSB 140900Z 15014KT CAVOK 21/M01 Q1017 R19/CLRD70 NOSIG', 'UTSB 140830Z 16014KT CAVOK 20/M01 Q1017 R01/CLRD70 NOSIG', 'UTSB 140800Z 17010KT 130V190 CAVOK 19/00 Q1018 R01/CLRD70 NOSIG', 'UTSB 140730Z 16010KT 130V190 CAVOK 18/00 Q1018 R01/CLRD70 NOSIG', 'UTSB 140700Z 15008KT CAVOK 18/M00 Q1019 R01/CLRD70 NOSIG', 'UTSB 140630Z 13006KT 110V170 CAVOK 17/00 Q1019 R19/CLRD70 NOSIG', 'UTSB 140600Z 12006KT CAVOK 15/00 Q1019 R19/CLRD70 NOSIG', 'UTSB 140530Z 14008KT CAVOK 14/00 Q1019 R01/CLRD70 NOSIG', 'UTSB 140500Z 13006KT CAVOK 13/01 Q1019 R01/CLRD70 NOSIG', 'UTSB 140430Z 11006KT CAVOK 11/02 Q1019 R01/CLRD70 NOSIG', 'UTSB 140400Z 10004KT CAVOK 09/02 Q1019 R01/CLRD70 NOSIG', 'UTSB 140330Z 10004KT CAVOK 08/02 Q1019 R01/CLRD70 NOSIG', 'UTSB 140300Z 12004KT 090V180 CAVOK 08/02 Q1019 R01/CLRD70 NOSIG', 'UTSB 140230Z 10010KT CAVOK 07/02 Q1019 R01/CLRD70 NOSIG', 'UTSB 140200Z 10006KT 060V120 CAVOK 07/01 Q1019 R01/CLRD70 NOSIG', 'UTSB 140130Z 10006KT CAVOK 07/01 Q1019 R01/CLRD70 NOSIG', 'UTSB 140100Z 09006KT CAVOK 06/01 Q1019 R01/CLRD70 NOSIG', 'UTSB 140030Z 09004KT CAVOK 06/01 Q1019 R01/CLRD70 NOSIG', 'UTSB 140000Z 09008KT CAVOK 06/01 Q1019 R01/CLRD70 NOSIG', 'UTSB 132330Z 10006KT CAVOK 06/01 Q1019 R01/CLRD70 NOSIG', 'UTSB 132300Z 11004KT CAVOK 07/01 Q1019 R01/CLRD70 NOSIG', 'UTSB 132230Z 10004KT CAVOK 07/01 Q1020 R01/CLRD70 NOSIG', 'UTSB 132200Z 10006KT CAVOK 08/01 Q1020 R01/CLRD70 NOSIG', 'UTSB 132130Z 10008KT CAVOK 08/01 Q1020 R01/CLRD70 NOSIG', 'UTSB 132100Z 10006KT CAVOK 08/01 Q1020 R01/CLRD70 NOSIG', 'UTSB 132030Z 09006KT CAVOK 07/02 Q1020 R01/CLRD70 NOSIG', 'UTSB 132000Z 09006KT CAVOK 07/02 Q1021 R01/CLRD70 NOSIG', 'UTSB 131930Z 09006KT CAVOK 08/02 Q1021 R01/CLRD70 NOSIG', 'UTSB 131900Z 07004KT CAVOK 08/02 Q1021 R01/CLRD70 NOSIG', 'UTSB 131830Z 08004KT CAVOK 08/03 Q1021 R01/CLRD70 NOSIG', 'UTSB 131800Z 08006KT CAVOK 09/03 Q1021 R01/CLRD70 NOSIG', 'UTSB 131730Z 09006KT CAVOK 09/03 Q1021 R01/CLRD70 NOSIG', 'UTSB 131700Z 08004KT CAVOK 09/03 Q1021 R01/CLRD70 NOSIG', 'UTSB 131630Z 07004KT CAVOK 10/03 Q1021 R01/CLRD70 NOSIG', 'UTSB 131600Z 03004KT CAVOK 11/03 Q1021 R01/CLRD70 NOSIG', 'UTSB 131530Z VRB02KT CAVOK 12/04 Q1021 R01/CLRD70 NOSIG', 'UTSB 131500Z 09004KT CAVOK 12/04 Q1021 R01/CLRD70 NOSIG', 'UTSB 131430Z 08002KT CAVOK 12/04 Q1021 R01/CLRD70 NOSIG', 'UTSB 131400Z 05004KT CAVOK 14/04 Q1021 R01/CLRD70 NOSIG', 'UTSB 131330Z 09002KT CAVOK 16/02 Q1021 R01/CLRD70 NOSIG', 'UTSB 131300Z 13004KT CAVOK 18/00 Q1020 R01/CLRD70 NOSIG', 'UTSB 131230Z 12004KT 090V150 CAVOK 18/01 Q1020 R01/CLRD70 NOSIG', 'UTSB 131200Z 12004KT CAVOK 19/M01 Q1020 R19/CLRD70 NOSIG', 'UTSB 131130Z 12006KT CAVOK 19/M00 Q1021 R01/CLRD70 NOSIG', 'UTSB 131100Z 12006KT CAVOK 19/M01 Q1021 R01/CLRD70 NOSIG', 'UTSB 131030Z 10006KT CAVOK 19/M01 Q1021 R01/CLRD70 NOSIG', 'UTSB 131000Z 11006KT 070V160 CAVOK 19/00 Q1021 R01/CLRD70 NOSIG', 'UTSB 130930Z 10006KT 060V130 CAVOK 19/01 Q1022 R01/CLRD70 NOSIG', 'UTSB 130900Z 10006KT 060V150 CAVOK 18/02 Q1022 R01/CLRD70 NOSIG', 'UTSB 130830Z 10006KT 060V140 CAVOK 18/02 Q1022 R01/CLRD70 NOSIG', 'UTSB 130800Z 12008KT 090V150 CAVOK 17/02 Q1023 R19/CLRD70 NOSIG', 'UTSB 130730Z 09008KT CAVOK 16/02 Q1023 R01/CLRD70 NOSIG', 'UTSB 130700Z 09008KT CAVOK 15/03 Q1024 R01/CLRD70 NOSIG', 'UTSB 130630Z 08008KT CAVOK 14/03 Q1024 R01/CLRD70 NOSIG', 'UTSB 130600Z 08006KT CAVOK 13/03 Q1024 R01/CLRD70 NOSIG', 'UTSB 130530Z 08006KT 050V110 CAVOK 12/04 Q1025 R01/CLRD70 NOSIG', 'UTSB 130500Z 05004KT 020V080 CAVOK 10/03 Q1025 R01/CLRD70 NOSIG', 'UTSB 130430Z 01004KT 330V030 CAVOK 08/03 Q1024 R01/CLRD70 NOSIG', 'UTSB 130400Z 01004KT CAVOK 06/03 Q1024 R01/CLRD70 NOSIG', 'UTSB 130330Z 35006KT CAVOK 05/02 Q1024 R01/CLRD70 NOSIG', 'UTSB 130300Z 34006KT CAVOK 05/02 Q1024 R01/CLRD70 NOSIG', 'UTSB 130230Z 34006KT CAVOK 05/02 Q1024 R01/CLRD70 NOSIG', 'UTSB 130200Z 34006KT CAVOK 05/02 Q1024 R01/CLRD70 NOSIG', 'UTSB 130130Z 34004KT CAVOK 05/02 Q1023 R01/CLRD70 NOSIG', 'UTSB 130100Z 05004KT CAVOK 03/03 Q1023 R01/CLRD70 NOSIG', 'UTSB 130030Z 35006KT CAVOK 05/02 Q1023 R01/CLRD70 NOSIG', 'UTSB 130000Z 35004KT CAVOK 04/02 Q1023 R01/CLRD70 NOSIG', 'UTSB 122330Z 35006KT CAVOK 05/02 Q1023 R01/CLRD70 NOSIG', 'UTSB 122300Z 34006KT CAVOK 05/02 Q1024 R01/CLRD70 NOSIG', 'UTSB 122230Z 35006KT CAVOK 05/03 Q1024 R01/CLRD70 NOSIG', 'UTSB 122200Z 35006KT CAVOK 05/03 Q1024 R01/CLRD70 NOSIG', 'UTSB 122130Z 36006KT CAVOK 05/03 Q1024 R01/CLRD70 NOSIG', 'UTSB 122100Z 34006KT CAVOK 06/03 Q1024 R01/CLRD70 NOSIG', 'UTSB 122030Z 34006KT CAVOK 06/03 Q1024 R01/CLRD70 NOSIG', 'UTSB 122000Z 35006KT CAVOK 06/03 Q1025 R01/CLRD70 NOSIG', 'UTSB 121930Z 35006KT CAVOK 07/03 Q1025 R01/CLRD70 NOSIG', 'UTSB 121900Z 35006KT CAVOK 07/03 Q1025 R01/CLRD70 NOSIG', 'UTSB 121830Z 36004KT CAVOK 08/03 Q1025 R01/CLRD70 NOSIG', 'UTSB 121800Z 02002KT CAVOK 07/03 Q1025 R01/CLRD70 NOSIG', 'UTSB 121730Z 01006KT CAVOK 08/03 Q1025 R01/CLRD70 NOSIG', 'UTSB 121700Z 36008KT CAVOK 08/04 Q1025 R01/CLRD70 NOSIG', 'UTSB 121630Z 36008KT CAVOK 09/04 Q1025 R01/CLRD70 NOSIG', 'UTSB 121600Z 36008KT CAVOK 09/04 Q1025 R01/CLRD70 NOSIG', 'UTSB 121530Z 35010KT CAVOK 10/04 Q1024 R01/CLRD70 NOSIG', 'UTSB 121500Z 36010KT CAVOK 11/04 Q1024 R01/CLRD70 NOSIG', 'UTSB 121430Z 36010KT CAVOK 12/04 Q1024 R01/CLRD70 NOSIG', 'UTSB 121400Z 36010KT CAVOK 13/04 Q1024 R01/CLRD70 NOSIG', 'UTSB 121330Z 01006KT CAVOK 14/04 Q1024 R01/CLRD70 NOSIG', 'UTSB 121300Z 02006KT CAVOK 15/04 Q1024 R01/CLRD70 NOSIG', 'UTSB 121230Z 02008KT CAVOK 16/04 Q1024 R01/CLRD70 NOSIG', 'UTSB 121200Z 02010KT CAVOK 17/03 Q1024 R01/CLRD70 NOSIG', 'UTSB 121130Z 03010KT CAVOK 18/03 Q1024 R01/CLRD70 NOSIG', 'UTSB 121100Z 03012KT CAVOK 18/03 Q1024 R01/CLRD70 NOSIG']","['2024-02-15 10:00:00', '2024-02-15 09:30:00', '2024-02-15 09:00:00', '2024-02-15 08:30:00', '2024-02-15 08:00:00', '2024-02-15 07:30:00', '2024-02-15 07:00:00', '2024-02-15 06:30:00', '2024-02-15 06:00:00', '2024-02-15 05:30:00', '2024-02-15 05:00:00', '2024-02-15 04:30:00', '2024-02-15 04:00:00', '2024-02-15 03:30:00', '2024-02-15 03:00:00', '2024-02-15 02:30:00', '2024-02-15 02:00:00', '2024-02-15 01:30:00', '2024-02-15 01:00:00', '2024-02-15 00:30:00', '2024-02-15 00:00:00', '2024-02-14 23:30:00', '2024-02-14 23:00:00', '2024-02-14 22:30:00', '2024-02-14 22:00:00', '2024-02-14 21:30:00', '2024-02-14 21:00:00', '2024-02-14 20:30:00', '2024-02-14 20:00:00', '2024-02-14 19:30:00', '2024-02-14 19:00:00', '2024-02-14 18:30:00', '2024-02-14 18:00:00', '2024-02-14 17:30:00', '2024-02-14 17:00:00', '2024-02-14 16:30:00', '2024-02-14 16:00:00', '2024-02-14 15:30:00', '2024-02-14 15:00:00', '2024-02-14 14:00:00', '2024-02-14 13:30:00', '2024-02-14 13:00:00', '2024-02-14 12:30:00', '2024-02-14 12:00:00', '2024-02-14 11:30:00', '2024-02-14 11:00:00', '2024-02-14 10:30:00', '2024-02-14 10:00:00', '2024-02-14 09:30:00', '2024-02-14 09:00:00', '2024-02-14 08:30:00', '2024-02-14 08:00:00', '2024-02-14 07:30:00', '2024-02-14 07:00:00', '2024-02-14 06:30:00', '2024-02-14 06:00:00', '2024-02-14 05:30:00', '2024-02-14 05:00:00', '2024-02-14 04:30:00', '2024-02-14 04:00:00', '2024-02-14 03:30:00', '2024-02-14 03:00:00', '2024-02-14 02:30:00', '2024-02-14 02:00:00', '2024-02-14 01:30:00', '2024-02-14 01:00:00', '2024-02-14 00:30:00', '2024-02-14 00:00:00', '2024-02-13 23:30:00', '2024-02-13 23:00:00', '2024-02-13 22:30:00', '2024-02-13 22:00:00', '2024-02-13 21:30:00', '2024-02-13 21:00:00', '2024-02-13 20:30:00', '2024-02-13 20:00:00', '2024-02-13 19:30:00', '2024-02-13 19:00:00', '2024-02-13 18:30:00', '2024-02-13 18:00:00', '2024-02-13 17:30:00', '2024-02-13 17:00:00', '2024-02-13 16:30:00', '2024-02-13 16:00:00', '2024-02-13 15:30:00', '2024-02-13 15:00:00', '2024-02-13 14:30:00', '2024-02-13 14:00:00', '2024-02-13 13:30:00', '2024-02-13 13:00:00', '2024-02-13 12:30:00', '2024-02-13 12:00:00', '2024-02-13 11:30:00', '2024-02-13 11:00:00', '2024-02-13 10:30:00', '2024-02-13 10:00:00', '2024-02-13 09:30:00', '2024-02-13 09:00:00', '2024-02-13 08:30:00', '2024-02-13 08:00:00', '2024-02-13 07:30:00', '2024-02-13 07:00:00', '2024-02-13 06:30:00', '2024-02-13 06:00:00', '2024-02-13 05:30:00', '2024-02-13 05:00:00', '2024-02-13 04:30:00', '2024-02-13 04:00:00', '2024-02-13 03:30:00', '2024-02-13 03:00:00', '2024-02-13 02:30:00', '2024-02-13 02:00:00', '2024-02-13 01:30:00', '2024-02-13 01:00:00', '2024-02-13 00:30:00', '2024-02-13 00:00:00', '2024-02-12 23:30:00', '2024-02-12 23:00:00', '2024-02-12 22:30:00', '2024-02-12 22:00:00', '2024-02-12 21:30:00', '2024-02-12 21:00:00', '2024-02-12 20:30:00', '2024-02-12 20:00:00', '2024-02-12 19:30:00', '2024-02-12 19:00:00', '2024-02-12 18:30:00', '2024-02-12 18:00:00', '2024-02-12 17:30:00', '2024-02-12 17:00:00', '2024-02-12 16:30:00', '2024-02-12 16:00:00', '2024-02-12 15:30:00', '2024-02-12 15:00:00', '2024-02-12 14:30:00', '2024-02-12 14:00:00', '2024-02-12 13:30:00', '2024-02-12 13:00:00', '2024-02-12 12:30:00', '2024-02-12 12:00:00', '2024-02-12 11:30:00', '2024-02-12 11:00:00']"
Uzbekistan, Fergana International Airport (FEG/UTFF) ,"['UTFF 151000Z VRB02KT 9999 NSC 15/M01 Q1016 R18/CLRD70', 'UTFF 150930Z VRB02KT 9999 NSC 15/M01 Q1016 R18/CLRD70', 'UTFF 150900Z VRB02KT 7000 NSC 14/M01 Q1017 R18/CLRD70', 'UTFF 150830Z 05004KT 7000 NSC 14/M01 Q1017 R18/CLRD70', 'UTFF 150800Z 03006KT 6000 NSC 13/M00 Q1017 R18/CLRD70', 'UTFF 150730Z 02004KT 010V070 8000 NSC 14/01 Q1017 R18/CLRD70', 'UTFF 150700Z 03004KT 010V070 8000 NSC 14/00 Q1017 R18/CLRD70', 'UTFF 150630Z VRB02KT 9999 NSC 14/M01 Q1018 R18/CLRD70', 'UTFF 150600Z VRB02KT 9999 NSC 13/M02 Q1018 R18/CLRD70', 'UTFF 150530Z 13004KT 9000 NSC 12/M00 Q1018 R18/CLRD70', 'UTFF 150500Z 12004KT 9000 NSC 10/M01 Q1018 R18/CLRD70', 'UTFF 150430Z 13002KT 9000 NSC 10/M01 Q1018 R18/CLRD70', 'UTFF 150400Z 15004KT 8000 NSC 08/M01 Q1018 R18/CLRD70', 'UTFF 150330Z 14004KT 8000 NSC 06/M01 Q1018 R18/CLRD70', 'UTFF 150300Z 15006KT 8000 NSC 06/M01 Q1018 R18/CLRD70', 'UTFF 150230Z 15006KT 8000 NSC 05/M01 Q1017 R18/CLRD70', 'UTFF 150200Z 14004KT 8000 NSC 05/M01 Q1018 R18/CLRD70', 'UTFF 150130Z 15006KT 8000 NSC 04/M02 Q1018 R18/CLRD70', 'UTFF 150100Z 22006KT 7000 NSC 05/M02 Q1018 R18/CLRD70', 'UTFF 150030Z 21004KT 7000 NSC 04/M02 Q1017 R18/CLRD70', 'UTFF 150000Z 00000KT 9999 NSC 06/M02 Q1017 R18/CLRD70', 'UTFF 142330Z 00000KT 9999 NSC 05/M02 Q1017 R18/CLRD70', 'UTFF 142300Z VRB02KT 9000 NSC 05/M02 Q1017 R18/CLRD70', 'UTFF 142230Z 16004KT 9000 NSC 06/M02 Q1018 R18/CLRD70', 'UTFF 142200Z 16006KT 9000 NSC 06/M02 Q1018 R18/CLRD70', 'UTFF 142130Z 16006KT 9000 NSC 06/M02 Q1018 R18/CLRD70', 'UTFF 142100Z 15004KT 8000 NSC 06/M02 Q1019 R18/CLRD70', 'UTFF 142030Z 14004KT 7000 NSC 07/M01 Q1019 R18/CLRD70', 'UTFF 142000Z 14006KT 8000 NSC 07/M01 Q1019 R18/CLRD70', 'UTFF 141930Z 15006KT 7000 NSC 06/M01 Q1020 R18/CLRD70', 'UTFF 141900Z 16008KT 6000 NSC 06/M01 Q1020 R18/CLRD70', 'UTFF 141830Z 15008KT 6000 NSC 06/M01 Q1020 R18/CLRD70', 'UTFF 141800Z 14006KT 6000 NSC 07/M01 Q1020 R18/CLRD70', 'UTFF 141730Z 14004KT 6000 NSC 06/M01 Q1021 R18/CLRD70', 'UTFF 141700Z 15006KT 6000 NSC 06/M01 Q1021 R18/CLRD70', 'UTFF 141630Z 15004KT 6000 NSC 06/M02 Q1021 R18/CLRD70', 'UTFF 141600Z 13004KT 7000 NSC 08/M01 Q1021 R18/CLRD70', 'UTFF 141530Z 17006KT 7000 NSC 08/M02 Q1021 R18/CLRD70', 'UTFF 141500Z 17004KT 6000 NSC 07/M02 Q1021 R18/CLRD70', 'UTFF 141430Z 18002KT 7000 NSC 09/M03 Q1021 R18/CLRD70', 'UTFF 141400Z 00000KT 7000 NSC 09/M03 Q1021 R18/CLRD70', 'UTFF 141330Z 03002KT 6000 NSC 13/M01 Q1021 R18/CLRD70', 'UTFF 141300Z 35004KT 6000 NSC 13/M01 Q1021 R18/CLRD70', 'UTFF 141230Z 34004KT 9000 NSC 14/M02 Q1021 R18/CLRD70', 'UTFF 141200Z 33004KT 8000 NSC 15/M02 Q1021 R18/CLRD70', 'UTFF 141130Z 33004KT 8000 NSC 16/M02 Q1021 R18/CLRD70', 'UTFF 141100Z 34004KT 300V360 9000 NSC 16/M02 Q1021 R18/CLRD70', 'UTFF 141030Z VRB02KT 9999 NSC 16/M03 Q1021 R18/CLRD70', 'UTFF 141000Z VRB02KT 9999 NSC 16/M03 Q1022 R18/CLRD70', 'UTFF 140930Z VRB02KT 9999 NSC 16/M03 Q1022 R18/CLRD70', 'UTFF 140900Z VRB02KT 9000 NSC 15/M01 Q1022 R18/CLRD70', 'UTFF 140830Z 22002KT 9000 NSC 15/M01 Q1023 R18/CLRD70', 'UTFF 140800Z 33002KT 9000 NSC 15/M01 Q1023 R18/CLRD70', 'UTFF 140730Z VRB02KT 8000 NSC 14/M00 Q1024 R18/CLRD70', 'UTFF 140700Z VRB02KT 7000 NSC 13/01 Q1024 R18/CLRD70', 'UTFF 140630Z 33004KT 300V360 7000 NSC 12/00 Q1025 R18/CLRD70', 'UTFF 140600Z 33004KT 280V360 8000 NSC 11/00 Q1025 R18/CLRD70', 'UTFF 140530Z VRB02KT 9000 NSC 11/00 Q1025 R18/CLRD70', 'UTFF 140500Z VRB02KT 9000 NSC 10/M00 Q1025 R18/CLRD70', 'UTFF 140430Z 00000KT 9999 NSC 11/M01 Q1025 R18/CLRD70', 'UTFF 140400Z 00000KT 9999 NSC 08/M01 Q1025 R18/CLRD70', 'UTFF 140330Z 00000KT 9999 NSC 07/M01 Q1025 R18/CLRD70', 'UTFF 140300Z 00000KT 9999 NSC 05/M02 Q1025 R18/CLRD70', 'UTFF 140230Z 18006KT 9999 NSC 03/M02 Q1025 R18/CLRD70', 'UTFF 140200Z 17008KT 9999 NSC 05/M02 Q1025 R18/CLRD70', 'UTFF 140130Z 16006KT 9999 NSC 04/M02 Q1025 R18/CLRD70', 'UTFF 140100Z 15004KT 7000 NSC 04/M01 Q1025 R18/CLRD70', 'UTFF 140030Z 15006KT 7000 NSC 05/M01 Q1025 R18/CLRD70', 'UTFF 140000Z 14004KT 8000 NSC 05/M01 Q1025 R18/CLRD70', 'UTFF 132330Z 14004KT 8000 NSC 05/M01 Q1025 R18/CLRD70', 'UTFF 132300Z 16006KT 5000 BR NSC 05/M01 Q1025 R18/CLRD70', 'UTFF 132230Z 14004KT 5000 BR NSC 05/M01 Q1025 R18/CLRD70', 'UTFF 132200Z 14008KT 5000 BR NSC 05/M01 Q1025 R18/CLRD70', 'UTFF 132130Z 14006KT 5000 BR NSC 04/M00 Q1025 R18/CLRD70', 'UTFF 132100Z 13004KT 5000 BR NSC 04/M00 Q1025 R18/CLRD70', 'UTFF 132030Z 15006KT 5000 BR NSC 03/M01 Q1025 R18/CLRD70', 'UTFF 132000Z 16002KT 5000 BR NSC 03/M01 Q1026 R18/CLRD70', 'UTFF 131930Z 15004KT 5000 BR NSC 03/M01 Q1026 R18/CLRD70', 'UTFF 131900Z 14002KT 5000 BR NSC 03/M01 Q1026 R18/CLRD70', 'UTFF 131830Z 14004KT 4800 BR NSC 04/M00 Q1026 R18/CLRD70', 'UTFF 131800Z 17004KT 4800 BR NSC 04/M01 Q1025 R18/CLRD70', 'UTFF 131730Z 18004KT 5000 FU NSC 04/M00 Q1026 R18/CLRD70', 'UTFF 131700Z 22004KT 5000 FU NSC 05/M00 Q1026 R18/CLRD70', 'UTFF 131630Z 21004KT 5000 FU NSC 06/M00 Q1026 R18/CLRD70', 'UTFF 131600Z 23004KT 5000 FU NSC 05/M01 Q1025 R18/CLRD70', 'UTFF 131530Z 24002KT 6000 NSC 06/M01 Q1025 R18/CLRD70', 'UTFF 131500Z 26004KT 7000 NSC 07/M00 Q1025 R18/CLRD70', 'UTFF 131430Z 00000KT 7000 NSC 09/01 Q1025 R18/CLRD70', 'UTFF 131400Z 00000KT 7000 NSC 10/01 Q1025 R18/CLRD70', 'UTFF 131330Z 04002KT 8000 NSC 11/01 Q1025 R18/CLRD70', 'UTFF 131300Z 05002KT 9000 NSC 12/01 Q1025 R18/CLRD70', 'UTFF 131230Z 04004KT 8000 NSC 13/01 Q1025 R18/CLRD70', 'UTFF 131200Z 01004KT 010V080 9000 NSC 13/01 Q1025 R18/CLRD70', 'UTFF 131130Z 01004KT 9000 NSC 13/01 Q1025 R18/CLRD70', 'UTFF 131100Z 36002KT 8000 NSC 13/01 Q1025 R18/CLRD70', 'UTFF 131030Z 04004KT 010V070 7000 NSC 13/01 Q1025 R18/CLRD70', 'UTFF 131000Z 03004KT 010V080 6000 NSC 13/02 Q1025 R18/CLRD70', 'UTFF 130930Z 01004KT 010V070 6000 NSC 13/02 Q1026 R18/CLRD70', 'UTFF 130900Z 01006KT 6000 NSC 12/02 Q1026 R18/CLRD70', 'UTFF 130830Z 01006KT 6000 NSC 12/02 Q1026 R18/CLRD70', 'UTFF 130800Z 01004KT 010V070 5000 FU NSC 11/02 Q1026 R18/CLRD70', 'UTFF 130730Z VRB02KT 5000 FU NSC 11/02 Q1027 R18/CLRD70', 'UTFF 130700Z 33006KT 6000 NSC 10/03 Q1027 R18/CLRD70', 'UTFF 130630Z VRB02KT 6000 NSC 11/02 Q1028 R18/CLRD70', 'UTFF 130600Z 00000KT 6000 NSC 10/02 Q1028 R18/CLRD70', 'UTFF 130530Z 00000KT 6000 NSC 09/02 Q1028 R18/CLRD70', 'UTFF 130500Z VRB02KT 5000 BR NSC 07/02 Q1028 R18/CLRD70', 'UTFF 130430Z VRB02KT 4900 BR NSC 06/02 Q1028 R18/CLRD70', 'UTFF 130400Z VRB02KT 4600 BR NSC 05/02 Q1027 R18/CLRD70', 'UTFF 130330Z 17004KT 3400 BR NSC 04/M01 Q1027 R18/CLRD70', 'UTFF 130300Z 15004KT 2500 BR NSC 01/M01 Q1027 R18/CLRD70', 'UTFF 130230Z 00000KT 2000 BR NSC 02/00 Q1026 R18/CLRD70', 'UTFF 130200Z 00000KT 6000 NSC 00/M03 Q1026 R18/CLRD70', 'UTFF 130130Z 00000KT 6000 NSC 01/M01 Q1026 R18/CLRD70', 'UTFF 130100Z VRB02KT 6000 NSC 01/M01 Q1026 R18/CLRD70', 'UTFF 130030Z VRB02KT 6000 NSC 01/M02 Q1026 R18/CLRD70', 'UTFF 130000Z 19002KT 6000 NSC 01/M01 Q1026 R18/CLRD70', 'UTFF 122330Z 00000KT 6000 NSC 04/01 Q1026 R18/CLRD70', 'UTFF 122300Z VRB02KT 6000 NSC 03/00 Q1026 R18/CLRD70', 'UTFF 122230Z VRB02KT 6000 NSC 04/01 Q1026 R18/CLRD70', 'UTFF 122200Z 13004KT 6000 NSC 05/01 Q1025 R18/CLRD70', 'UTFF 122130Z 10004KT 6000 NSC 06/02 Q1025 R18/CLRD70', 'UTFF 122100Z 00000KT 6000 NSC 05/01 Q1025 R18/CLRD70', 'UTFF 122030Z 00000KT 6000 NSC 05/01 Q1025 R18/CLRD70', 'UTFF 122000Z 00000KT 6000 NSC 05/02 Q1025 R18/CLRD70', 'UTFF 121930Z 00000KT 6000 NSC 06/02 Q1026 R18/CLRD70', 'UTFF 121900Z 00000KT 6000 NSC 07/02 Q1026 R18/CLRD70', 'UTFF 121830Z 00000KT 6000 NSC 07/02 Q1026 R18/CLRD70', 'UTFF 121800Z 34004KT 7000 NSC 07/02 Q1025 R18/CLRD70', 'UTFF 121730Z 35004KT 7000 NSC 07/02 Q1025 R18/CLRD70', 'UTFF 121700Z 01004KT 010V070 8000 NSC 07/02 Q1025 R18/CLRD70', 'UTFF 121630Z 35004KT 9999 NSC 08/02 Q1025 R18/CLRD70', 'UTFF 121600Z 01002KT 9999 NSC 08/02 Q1025 R18/CLRD70', 'UTFF 121530Z 00000KT 9999 NSC 08/01 Q1025 R18/CLRD70', 'UTFF 121500Z 00000KT 9999 NSC 08/00 Q1024 R18/CLRD70', 'UTFF 121430Z 01002KT 9999 NSC 09/01 Q1025 R18/CLRD70', 'UTFF 121400Z 00000KT 9999 NSC 09/01 Q1024 R18/CLRD70', 'UTFF 121330Z 00000KT 9999 NSC 10/01 Q1024 R18/CLRD70', 'UTFF 121300Z VRB02KT 8000 NSC 10/01 Q1023 R18/CLRD70 NOSIG', 'UTFF 121230Z 29006KT 5000 FU NSC 11/01 Q1024 R18/CLRD70', 'UTFF 121200Z 31004KT 5000 FU NSC 11/01 Q1023 R18/CLRD70', 'UTFF 121130Z 31006KT 5000 FU NSC 12/01 Q1023 R18/CLRD70', 'UTFF 121100Z 30008KT 5000 FU NSC 12/01 Q1023 R18/CLRD70']","['2024-02-15 10:00:00', '2024-02-15 09:30:00', '2024-02-15 09:00:00', '2024-02-15 08:30:00', '2024-02-15 08:00:00', '2024-02-15 07:30:00', '2024-02-15 07:00:00', '2024-02-15 06:30:00', '2024-02-15 06:00:00', '2024-02-15 05:30:00', '2024-02-15 05:00:00', '2024-02-15 04:30:00', '2024-02-15 04:00:00', '2024-02-15 03:30:00', '2024-02-15 03:00:00', '2024-02-15 02:30:00', '2024-02-15 02:00:00', '2024-02-15 01:30:00', '2024-02-15 01:00:00', '2024-02-15 00:30:00', '2024-02-15 00:00:00', '2024-02-14 23:30:00', '2024-02-14 23:00:00', '2024-02-14 22:30:00', '2024-02-14 22:00:00', '2024-02-14 21:30:00', '2024-02-14 21:00:00', '2024-02-14 20:30:00', '2024-02-14 20:00:00', '2024-02-14 19:30:00', '2024-02-14 19:00:00', '2024-02-14 18:30:00', '2024-02-14 18:00:00', '2024-02-14 17:30:00', '2024-02-14 17:00:00', '2024-02-14 16:30:00', '2024-02-14 16:00:00', '2024-02-14 15:30:00', '2024-02-14 15:00:00', '2024-02-14 14:30:00', '2024-02-14 14:00:00', '2024-02-14 13:30:00', '2024-02-14 13:00:00', '2024-02-14 12:30:00', '2024-02-14 12:00:00', '2024-02-14 11:30:00', '2024-02-14 11:00:00', '2024-02-14 10:30:00', '2024-02-14 10:00:00', '2024-02-14 09:30:00', '2024-02-14 09:00:00', '2024-02-14 08:30:00', '2024-02-14 08:00:00', '2024-02-14 07:30:00', '2024-02-14 07:00:00', '2024-02-14 06:30:00', '2024-02-14 06:00:00', '2024-02-14 05:30:00', '2024-02-14 05:00:00', '2024-02-14 04:30:00', '2024-02-14 04:00:00', '2024-02-14 03:30:00', '2024-02-14 03:00:00', '2024-02-14 02:30:00', '2024-02-14 02:00:00', '2024-02-14 01:30:00', '2024-02-14 01:00:00', '2024-02-14 00:30:00', '2024-02-14 00:00:00', '2024-02-13 23:30:00', '2024-02-13 23:00:00', '2024-02-13 22:30:00', '2024-02-13 22:00:00', '2024-02-13 21:30:00', '2024-02-13 21:00:00', '2024-02-13 20:30:00', '2024-02-13 20:00:00', '2024-02-13 19:30:00', '2024-02-13 19:00:00', '2024-02-13 18:30:00', '2024-02-13 18:00:00', '2024-02-13 17:30:00', '2024-02-13 17:00:00', '2024-02-13 16:30:00', '2024-02-13 16:00:00', '2024-02-13 15:30:00', '2024-02-13 15:00:00', '2024-02-13 14:30:00', '2024-02-13 14:00:00', '2024-02-13 13:30:00', '2024-02-13 13:00:00', '2024-02-13 12:30:00', '2024-02-13 12:00:00', '2024-02-13 11:30:00', '2024-02-13 11:00:00', '2024-02-13 10:30:00', '2024-02-13 10:00:00', '2024-02-13 09:30:00', '2024-02-13 09:00:00', '2024-02-13 08:30:00', '2024-02-13 08:00:00', '2024-02-13 07:30:00', '2024-02-13 07:00:00', '2024-02-13 06:30:00', '2024-02-13 06:00:00', '2024-02-13 05:30:00', '2024-02-13 05:00:00', '2024-02-13 04:30:00', '2024-02-13 04:00:00', '2024-02-13 03:30:00', '2024-02-13 03:00:00', '2024-02-13 02:30:00', '2024-02-13 02:00:00', '2024-02-13 01:30:00', '2024-02-13 01:00:00', '2024-02-13 00:30:00', '2024-02-13 00:00:00', '2024-02-12 23:30:00', '2024-02-12 23:00:00', '2024-02-12 22:30:00', '2024-02-12 22:00:00', '2024-02-12 21:30:00', '2024-02-12 21:00:00', '2024-02-12 20:30:00', '2024-02-12 20:00:00', '2024-02-12 19:30:00', '2024-02-12 19:00:00', '2024-02-12 18:30:00', '2024-02-12 18:00:00', '2024-02-12 17:30:00', '2024-02-12 17:00:00', '2024-02-12 16:30:00', '2024-02-12 16:00:00', '2024-02-12 15:30:00', '2024-02-12 15:00:00', '2024-02-12 14:30:00', '2024-02-12 14:00:00', '2024-02-12 13:30:00', '2024-02-12 13:00:00', '2024-02-12 12:30:00', '2024-02-12 12:00:00', '2024-02-12 11:30:00', '2024-02-12 11:00:00']"
Uzbekistan, Karshi Airport (KSQ/UTSK) ,"['UTSK 151000Z 20014KT CAVOK 24/M06 Q1015 R16/CLRD70', 'UTSK 150930Z 19018KT CAVOK 24/M06 Q1015 R16/CLRD70', 'UTSK 150900Z 19020KT 6000 NSC 24/M06 Q1015 R16/CLRD70', 'UTSK 150830Z 18022KT 5000 HZ NSC 24/M06 Q1016 R16/CLRD70', 'UTSK 150800Z 19018KT 5000 HZ NSC 24/M05 Q1016 R16/CLRD70', 'UTSK 150730Z 19014KT 8000 NSC 22/M05 Q1017 R16/CLRD70', 'UTSK 150700Z 20014KT CAVOK 22/M05 Q1017 R16/CLRD70', 'UTSK 150630Z 19012KT CAVOK 18/M03 Q1017 R16/CLRD70', 'UTSK 150600Z 19006KT CAVOK 18/M03 Q1017 R16/CLRD70', 'UTSK 150530Z 18006KT CAVOK 15/M03 Q1017 R16/CLRD70', 'UTSK 150500Z 18004KT 150V210 CAVOK 15/M03 Q1017 R16/CLRD70', 'UTSK 150430Z 13002KT CAVOK 11/M00 Q1017 R16/CLRD70', 'UTSK 150400Z 00000KT CAVOK 11/M01 Q1017 R16/CLRD70', 'UTSK 150330Z VRB02KT 9000 NSC 11/M03 Q1016 R16/CLRD70', 'UTSK 150300Z 14004KT CAVOK 11/M03 Q1016 R16/CLRD70', 'UTSK 150230Z VRB02KT CAVOK 11/M04 Q1016 R16/CLRD70', 'UTSK 150200Z VRB02KT CAVOK 11/M04 Q1016 R16/CLRD70', 'UTSK 150130Z 00000KT CAVOK 11/M04 Q1016 R16/CLRD70', 'UTSK 150100Z VRB02KT CAVOK 11/M04 Q1016 R16/CLRD70', 'UTSK 150030Z VRB02KT CAVOK 11/M05 Q1015 R16/CLRD70', 'UTSK 150000Z 29004KT 260V320 CAVOK 11/M05 Q1015 R16/CLRD70', 'UTSK 142330Z 26006KT 210V280 CAVOK 12/M06 Q1015 R16/CLRD70', 'UTSK 142300Z VRB02KT CAVOK 12/M06 Q1015 R16/CLRD70', 'UTSK 142230Z 14006KT CAVOK 16/M08 Q1015 R16/CLRD70', 'UTSK 142200Z 13008KT CAVOK 16/M08 Q1015 R16/CLRD70', 'UTSK 142130Z 13006KT CAVOK 17/M09 Q1015 R16/CLRD70', 'UTSK 142100Z 13008KT CAVOK 17/M09 Q1015 R16/CLRD70', 'UTSK 142030Z 13008KT CAVOK 17/M08 Q1015 R16/CLRD70', 'UTSK 142000Z 13008KT CAVOK 17/M09 Q1015 R16/CLRD70', 'UTSK 141930Z 13010KT CAVOK 18/M10 Q1016 R16/CLRD70', 'UTSK 141900Z 14012KT CAVOK 18/M10 Q1016 R16/CLRD70', 'UTSK 141830Z 14008KT CAVOK 18/M10 Q1016 R16/CLRD70', 'UTSK 141800Z 13008KT CAVOK 18/M10 Q1016 R16/CLRD70', 'UTSK 141730Z 13012KT CAVOK 18/M10 Q1016 R16/CLRD70', 'UTSK 141700Z 13012KT CAVOK 18/M10 Q1016 R16/CLRD70', 'UTSK 141630Z 13012KT CAVOK 18/M08 Q1016 R16/CLRD70', 'UTSK 141600Z 13010KT CAVOK 18/M08 Q1016 R16/CLRD70', 'UTSK 141530Z 13008KT CAVOK 16/M05 Q1017 R16/CLRD70', 'UTSK 141500Z 14010KT CAVOK 16/M05 Q1017 R16/CLRD70', 'UTSK 141430Z 14008KT CAVOK 18/M05 Q1017 R16/CLRD70', 'UTSK 141400Z 15008KT CAVOK 18/M05 Q1017 R16/CLRD70', 'UTSK 141330Z 14006KT CAVOK 21/M07 Q1016 R16/CLRD70', 'UTSK 141300Z 18008KT CAVOK 21/M07 Q1016 R16/CLRD70', 'UTSK 141230Z 20008KT CAVOK 23/M08 Q1016 R16/CLRD70', 'UTSK 141200Z 20012KT CAVOK 23/M08 Q1016 R16/CLRD70', 'UTSK 141130Z 19012KT CAVOK 25/M09 Q1016 R16/CLRD70', 'UTSK 141100Z 18014KT CAVOK 25/M09 Q1016 R16/CLRD70', 'UTSK 141030Z 19016KT 7000 NSC 25/M08 Q1017 R16/CLRD70', 'UTSK 141000Z 18014KT 9000 NSC 25/M08 Q1017 R16/CLRD70', 'UTSK 140930Z 19008KT 160V230 CAVOK 23/M04 Q1018 R16/CLRD70', 'UTSK 140900Z 21008KT CAVOK 23/M03 Q1018 R16/CLRD70', 'UTSK 140830Z 21006KT CAVOK 21/M02 Q1018 R16/CLRD70', 'UTSK 140800Z 22006KT 150V240 CAVOK 21/M02 Q1018 R16/CLRD70', 'UTSK 140730Z VRB02KT CAVOK 20/M03 Q1019 R16/CLRD70', 'UTSK 140700Z 19004KT 140V240 CAVOK 20/M03 Q1019 R16/CLRD70', 'UTSK 140630Z VRB02KT CAVOK 18/M03 Q1020 R16/CLRD70', 'UTSK 140600Z VRB02KT CAVOK 18/M03 Q1020 R16/CLRD70', 'UTSK 140530Z 00000KT CAVOK 13/M00 Q1020 R16/CLRD70', 'UTSK 140500Z 07004KT CAVOK 13/M00 Q1020 R16/CLRD70', 'UTSK 140430Z 07008KT CAVOK 08/M01 Q1020 R16/CLRD70', 'UTSK 140400Z 07008KT CAVOK 08/M01 Q1020 R16/CLRD70', 'UTSK 140330Z 07004KT 040V100 CAVOK 06/M01 Q1019 R16/CLRD70', 'UTSK 140300Z 09006KT 060V120 CAVOK 06/M01 Q1019 R16/CLRD70', 'UTSK 140230Z 08006KT CAVOK 06/M01 Q1019 R16/CLRD70', 'UTSK 140200Z 07008KT CAVOK 06/M01 Q1019 R16/CLRD70', 'UTSK 140130Z 07008KT CAVOK 06/M00 Q1019 R16/CLRD70', 'UTSK 140100Z 07010KT CAVOK 06/M00 Q1019 R16/CLRD70', 'UTSK 140030Z 07008KT CAVOK 06/M00 Q1020 R16/CLRD70', 'UTSK 140000Z 07008KT CAVOK 06/M00 Q1020 R16/CLRD70', 'UTSK 132330Z 07008KT CAVOK 06/M00 Q1020 R16/CLRD70', 'UTSK 132300Z 06004KT CAVOK 06/M00 Q1020 R16/CLRD70', 'UTSK 132230Z 07006KT CAVOK 07/M00 Q1020 R16/CLRD70', 'UTSK 132200Z 06004KT CAVOK 07/M00 Q1020 R16/CLRD70', 'UTSK 132130Z 07006KT CAVOK 08/M00 Q1020 R16/CLRD70', 'UTSK 132100Z 07006KT CAVOK 08/M00 Q1020 R16/CLRD70', 'UTSK 132030Z 07006KT CAVOK 09/M00 Q1021 R16/CLRD70', 'UTSK 132000Z 07006KT CAVOK 09/M00 Q1021 R16/CLRD70', 'UTSK 131930Z 06006KT CAVOK 10/00 Q1021 R16/CLRD70', 'UTSK 131900Z 06006KT CAVOK 10/00 Q1021 R16/CLRD70', 'UTSK 131830Z 05006KT CAVOK 11/M00 Q1021 R16/CLRD70', 'UTSK 131800Z 07006KT CAVOK 11/M00 Q1021 R16/CLRD70', 'UTSK 131730Z 07006KT CAVOK 12/M01 Q1021 R16/CLRD70', 'UTSK 131700Z 06006KT CAVOK 12/M01 Q1021 R16/CLRD70', 'UTSK 131630Z 06004KT CAVOK 13/M01 Q1021 R16/CLRD70', 'UTSK 131600Z 05004KT CAVOK 13/M01 Q1021 R16/CLRD70', 'UTSK 131530Z 06004KT 7000 NSC 14/M00 Q1021 R16/CLRD70', 'UTSK 131500Z 06004KT 5000 HZ NSC 14/M00 Q1021 R16/CLRD70', 'UTSK 131430Z 08004KT 7000 NSC 16/M01 Q1021 R16/CLRD70', 'UTSK 131400Z 00000KT CAVOK 16/M01 Q1021 R16/CLRD70', 'UTSK 131330Z 00000KT CAVOK 18/M01 Q1021 R16/CLRD70', 'UTSK 131300Z 25002KT CAVOK 18/M02 Q1021 R16/CLRD70', 'UTSK 131230Z 00000KT CAVOK 19/M02 Q1021 R16/CLRD70', 'UTSK 131200Z 27004KT CAVOK 20/M02 Q1021 R16/CLRD70', 'UTSK 131130Z 26004KT 220V300 CAVOK 20/M02 Q1021 R16/CLRD70', 'UTSK 131100Z 24006KT 210V270 CAVOK 20/M02 Q1021 R16/CLRD70', 'UTSK 131030Z 25004KT 210V310 CAVOK 19/M02 Q1022 R16/CLRD70', 'UTSK 131000Z 22004KT 190V260 CAVOK 19/M02 Q1022 R16/CLRD70', 'UTSK 130930Z 25004KT 170V300 CAVOK 19/M01 Q1022 R16/CLRD70', 'UTSK 130900Z 22004KT 170V280 CAVOK 19/M02 Q1022 R16/CLRD70', 'UTSK 130830Z 21004KT 170V250 CAVOK 18/M02 Q1023 R16/CLRD70', 'UTSK 130800Z 21004KT 150V260 CAVOK 18/M02 Q1023 R16/CLRD70', 'UTSK 130730Z 16002KT CAVOK 17/M01 Q1024 R16/CLRD70', 'UTSK 130700Z VRB02KT CAVOK 17/M01 Q1024 R16/CLRD70', 'UTSK 130630Z VRB02KT CAVOK 15/M01 Q1024 R16/CLRD70', 'UTSK 130600Z 16004KT CAVOK 15/M01 Q1024 R16/CLRD70', 'UTSK 130530Z 11004KT 070V160 CAVOK 11/M02 Q1024 R16/CLRD70', 'UTSK 130500Z 09002KT CAVOK 11/M01 Q1024 R16/CLRD70', 'UTSK 130430Z VRB02KT CAVOK 07/M02 Q1024 R16/CLRD70', 'UTSK 130400Z 09004KT CAVOK 07/M02 Q1024 R16/CLRD70', 'UTSK 130330Z 08006KT CAVOK 04/M01 Q1024 R16/CLRD70', 'UTSK 130300Z 08006KT CAVOK 04/M01 Q1024 R16/CLRD70', 'UTSK 130230Z 07006KT CAVOK 04/M02 Q1023 R16/CLRD70', 'UTSK 130200Z 07008KT CAVOK 04/M02 Q1023 R16/CLRD70', 'UTSK 130130Z 07008KT CAVOK 05/M01 Q1022 R16/CLRD70', 'UTSK 130100Z 07008KT CAVOK 05/M01 Q1022 R16/CLRD70', 'UTSK 130030Z 08006KT CAVOK 06/M01 Q1022 R16/CLRD70', 'UTSK 130000Z 08008KT CAVOK 06/M01 Q1022 R16/CLRD70', 'UTSK 122330Z 07008KT CAVOK 06/M01 Q1023 R16/CLRD70', 'UTSK 122300Z 08006KT CAVOK 06/M01 Q1023 R16/CLRD70', 'UTSK 122230Z 08006KT CAVOK 06/M00 Q1023 R16/CLRD70', 'UTSK 122200Z 09006KT CAVOK 06/M00 Q1023 R16/CLRD70', 'UTSK 122130Z 08006KT CAVOK 06/M00 Q1023 R16/CLRD70', 'UTSK 122100Z 07006KT CAVOK 06/00 Q1023 R16/CLRD70', 'UTSK 122030Z 08004KT CAVOK 07/01 Q1023 R16/CLRD70', 'UTSK 122000Z 08006KT CAVOK 07/01 Q1023 R16/CLRD70', 'UTSK 121930Z 07004KT 9000 NSC 07/02 Q1023 R16/CLRD70', 'UTSK 121900Z 00000KT CAVOK 07/02 Q1023 R16/CLRD70', 'UTSK 121830Z 00000KT CAVOK 07/02 Q1023 R16/CLRD70', 'UTSK 121800Z 00000KT CAVOK 07/02 Q1023 R16/CLRD70', 'UTSK 121730Z 31002KT CAVOK 10/02 Q1023 R16/CLRD70', 'UTSK 121700Z 31002KT CAVOK 10/02 Q1023 R16/CLRD70', 'UTSK 121630Z 32004KT CAVOK 11/01 Q1023 R16/CLRD70', 'UTSK 121600Z 32006KT CAVOK 11/01 Q1023 R16/CLRD70', 'UTSK 121530Z 35008KT CAVOK 13/01 Q1023 R16/CLRD70', 'UTSK 121500Z 35006KT CAVOK 13/01 Q1023 R16/CLRD70', 'UTSK 121430Z 35006KT CAVOK 14/01 Q1023 R16/CLRD70', 'UTSK 121400Z 35006KT CAVOK 14/01 Q1023 R16/CLRD70', 'UTSK 121330Z 35006KT CAVOK 16/M02 Q1023 R16/CLRD70', 'UTSK 121300Z 35004KT CAVOK 16/M02 Q1023 R16/CLRD70', 'UTSK 121230Z 36010KT CAVOK 18/M03 Q1023 R34/CLRD70', 'UTSK 121200Z 01012KT CAVOK 18/M03 Q1023 R34/CLRD70', 'UTSK 121130Z 35010KT CAVOK 18/M02 Q1022 R16/CLRD70', 'UTSK 121100Z 35010KT CAVOK 18/M02 Q1022 R16/CLRD70']","['2024-02-15 10:00:00', '2024-02-15 09:30:00', '2024-02-15 09:00:00', '2024-02-15 08:30:00', '2024-02-15 08:00:00', '2024-02-15 07:30:00', '2024-02-15 07:00:00', '2024-02-15 06:30:00', '2024-02-15 06:00:00', '2024-02-15 05:30:00', '2024-02-15 05:00:00', '2024-02-15 04:30:00', '2024-02-15 04:00:00', '2024-02-15 03:30:00', '2024-02-15 03:00:00', '2024-02-15 02:30:00', '2024-02-15 02:00:00', '2024-02-15 01:30:00', '2024-02-15 01:00:00', '2024-02-15 00:30:00', '2024-02-15 00:00:00', '2024-02-14 23:30:00', '2024-02-14 23:00:00', '2024-02-14 22:30:00', '2024-02-14 22:00:00', '2024-02-14 21:30:00', '2024-02-14 21:00:00', '2024-02-14 20:30:00', '2024-02-14 20:00:00', '2024-02-14 19:30:00', '2024-02-14 19:00:00', '2024-02-14 18:30:00', '2024-02-14 18:00:00', '2024-02-14 17:30:00', '2024-02-14 17:00:00', '2024-02-14 16:30:00', '2024-02-14 16:00:00', '2024-02-14 15:30:00', '2024-02-14 15:00:00', '2024-02-14 14:30:00', '2024-02-14 14:00:00', '2024-02-14 13:30:00', '2024-02-14 13:00:00', '2024-02-14 12:30:00', '2024-02-14 12:00:00', '2024-02-14 11:30:00', '2024-02-14 11:00:00', '2024-02-14 10:30:00', '2024-02-14 10:00:00', '2024-02-14 09:30:00', '2024-02-14 09:00:00', '2024-02-14 08:30:00', '2024-02-14 08:00:00', '2024-02-14 07:30:00', '2024-02-14 07:00:00', '2024-02-14 06:30:00', '2024-02-14 06:00:00', '2024-02-14 05:30:00', '2024-02-14 05:00:00', '2024-02-14 04:30:00', '2024-02-14 04:00:00', '2024-02-14 03:30:00', '2024-02-14 03:00:00', '2024-02-14 02:30:00', '2024-02-14 02:00:00', '2024-02-14 01:30:00', '2024-02-14 01:00:00', '2024-02-14 00:30:00', '2024-02-14 00:00:00', '2024-02-13 23:30:00', '2024-02-13 23:00:00', '2024-02-13 22:30:00', '2024-02-13 22:00:00', '2024-02-13 21:30:00', '2024-02-13 21:00:00', '2024-02-13 20:30:00', '2024-02-13 20:00:00', '2024-02-13 19:30:00', '2024-02-13 19:00:00', '2024-02-13 18:30:00', '2024-02-13 18:00:00', '2024-02-13 17:30:00', '2024-02-13 17:00:00', '2024-02-13 16:30:00', '2024-02-13 16:00:00', '2024-02-13 15:30:00', '2024-02-13 15:00:00', '2024-02-13 14:30:00', '2024-02-13 14:00:00', '2024-02-13 13:30:00', '2024-02-13 13:00:00', '2024-02-13 12:30:00', '2024-02-13 12:00:00', '2024-02-13 11:30:00', '2024-02-13 11:00:00', '2024-02-13 10:30:00', '2024-02-13 10:00:00', '2024-02-13 09:30:00', '2024-02-13 09:00:00', '2024-02-13 08:30:00', '2024-02-13 08:00:00', '2024-02-13 07:30:00', '2024-02-13 07:00:00', '2024-02-13 06:30:00', '2024-02-13 06:00:00', '2024-02-13 05:30:00', '2024-02-13 05:00:00', '2024-02-13 04:30:00', '2024-02-13 04:00:00', '2024-02-13 03:30:00', '2024-02-13 03:00:00', '2024-02-13 02:30:00', '2024-02-13 02:00:00', '2024-02-13 01:30:00', '2024-02-13 01:00:00', '2024-02-13 00:30:00', '2024-02-13 00:00:00', '2024-02-12 23:30:00', '2024-02-12 23:00:00', '2024-02-12 22:30:00', '2024-02-12 22:00:00', '2024-02-12 21:30:00', '2024-02-12 21:00:00', '2024-02-12 20:30:00', '2024-02-12 20:00:00', '2024-02-12 19:30:00', '2024-02-12 19:00:00', '2024-02-12 18:30:00', '2024-02-12 18:00:00', '2024-02-12 17:30:00', '2024-02-12 17:00:00', '2024-02-12 16:30:00', '2024-02-12 16:00:00', '2024-02-12 15:30:00', '2024-02-12 15:00:00', '2024-02-12 14:30:00', '2024-02-12 14:00:00', '2024-02-12 13:30:00', '2024-02-12 13:00:00', '2024-02-12 12:30:00', '2024-02-12 12:00:00', '2024-02-12 11:30:00', '2024-02-12 11:00:00']"
Uzbekistan, Namangan Airport (NMA/UTFN) ,"['UTFN 151000Z 11004KT 070V140 8000 NSC 16/01 Q1016 R28/CLRD70 NOSIG', 'UTFN 150930Z 11004KT 9999 NSC 16/M01 Q1016 R28/CLRD70 NOSIG', 'UTFN 150900Z 10004KT 070V130 9999 NSC 16/M01 Q1016 R28/CLRD70 NOSIG', 'UTFN 150830Z 12004KT 090V150 9999 NSC 16/M01 Q1016 R28/CLRD70 NOSIG', 'UTFN 150800Z 10004KT 060V140 9999 NSC 16/M02 Q1017 R28/CLRD70 NOSIG', 'UTFN 150730Z 08004KT 040V130 9000 NSC 15/M02 Q1017 R28/CLRD70 NOSIG', 'UTFN 150700Z 09004KT 050V130 8000 NSC 15/M01 Q1017 R28/CLRD70 NOSIG', 'UTFN 150630Z 10004KT 070V140 8000 NSC 13/M01 Q1018 R28/CLRD70 NOSIG', 'UTFN 150600Z 08004KT 050V120 5000 HZ NSC 13/M02 Q1018 R28/CLRD70 NOSIG', 'UTFN 150530Z 10006KT 3500 HZ NSC 12/M01 Q1018 R28/CLRD70 NOSIG', 'UTFN 150500Z 10004KT 7000 NSC 11/M01 Q1018 R28/CLRD70 NOSIG', 'UTFN 150430Z 00000KT 8000 NSC 12/M03 Q1018 R28/CLRD70 NOSIG', 'UTFN 150400Z 33004KT 280V350 9999 NSC 10/M02 Q1018 R28/CLRD70 NOSIG', 'UTFN 150330Z 30004KT 9999 NSC 07/M02 Q1018 R28/CLRD70 NOSIG', 'UTFN 150300Z 30004KT 9999 NSC 06/M03 Q1018 R28/CLRD70 NOSIG', 'UTFN 150230Z 31004KT 9999 NSC 06/M03 Q1017 R28/CLRD70 NOSIG', 'UTFN 150200Z 31006KT 9999 NSC 06/M03 Q1017 R28/CLRD70 NOSIG', 'UTFN 150130Z VRB02KT 9999 NSC 06/M03 Q1017 R28/CLRD70 NOSIG', 'UTFN 150100Z 30004KT 9999 NSC 06/M03 Q1017 R28/CLRD70 NOSIG', 'UTFN 150030Z 33006KT 9999 NSC 06/M03 Q1017 R28/CLRD70 NOSIG', 'UTFN 150000Z 33006KT 9999 NSC 07/M03 Q1017 R28/CLRD70 NOSIG', 'UTFN 142330Z 32006KT 9999 NSC 07/M03 Q1017 R28/CLRD70 NOSIG', 'UTFN 142300Z 32006KT 9999 NSC 08/M03 Q1017 R28/CLRD70 NOSIG', 'UTFN 142230Z 31006KT 9999 NSC 07/M02 Q1018 R28/CLRD70 NOSIG', 'UTFN 142200Z 32004KT 9999 NSC 07/M02 Q1018 R28/CLRD70 NOSIG', 'UTFN 142130Z 33004KT 9999 NSC 08/M02 Q1018 R28/CLRD70 NOSIG', 'UTFN 142100Z 34004KT 9999 NSC 09/M03 Q1019 R28/CLRD70 NOSIG', 'UTFN 142030Z 33006KT 8000 NSC 09/M02 Q1019 R28/CLRD70 NOSIG', 'UTFN 142000Z 34004KT 8000 NSC 09/M02 Q1019 R28/CLRD70 NOSIG', 'UTFN 141930Z VRB02KT 8000 NSC 09/M02 Q1020 R28/CLRD70 NOSIG', 'UTFN 141900Z 34004KT 8000 NSC 11/M02 Q1020 R28/CLRD70 NOSIG', 'UTFN 141830Z 35004KT 9999 NSC 11/M02 Q1020 R28/CLRD70 NOSIG', 'UTFN 141800Z 35006KT 7000 NSC 11/M02 Q1020 R28/CLRD70 NOSIG', 'UTFN 141730Z 33004KT 7000 NSC 10/M01 Q1020 R28/CLRD70 NOSIG', 'UTFN 141630Z 32004KT 9999 NSC 11/M02 Q1021 R28/CLRD70 NOSIG', 'UTFN 141600Z 35006KT 9000 NSC 12/02 Q1021 R28/CLRD70 NOSIG', 'UTFN 141530Z 35004KT 7000 NSC 11/M02 Q1021 R28/CLRD70 NOSIG', 'UTFN 141500Z 33006KT 5000 BR NSC 11/01 Q1021 R28/CLRD70 NOSIG', 'UTFN 141430Z 32004KT 5000 BR NSC 10/01 Q1021 R28/CLRD70 NOSIG', 'UTFN 141400Z 32004KT 3400 BR NSC 11/01 Q1021 R28/CLRD70 NOSIG', 'UTFN 141330Z 28004KT 7000 NSC 13/01 Q1021 R28/CLRD70 NOSIG', 'UTFN 141300Z 27004KT 7000 NSC 15/01 Q1021 R28/CLRD70 NOSIG', 'UTFN 141230Z 25002KT 9000 NSC 15/00 Q1021 R28/CLRD70 NOSIG', 'UTFN 141200Z 22002KT 9999 NSC 16/00 Q1021 R28/CLRD70 NOSIG', 'UTFN 141130Z VRB02KT 9999 NSC 17/M00 Q1021 R28/CLRD70 NOSIG', 'UTFN 141100Z VRB02KT 9999 NSC 18/M00 Q1021 R28/CLRD70 NOSIG', 'UTFN 141030Z 17004KT 110V210 9999 NSC 17/M00 Q1021 R28/CLRD70 NOSIG', 'UTFN 141000Z 14004KT 9999 NSC 17/00 Q1021 R28/CLRD70 NOSIG', 'UTFN 140930Z 15004KT 9999 NSC 17/00 Q1022 R28/CLRD70 NOSIG', 'UTFN 140900Z 13006KT 070V170 9999 NSC 16/00 Q1022 R28/CLRD70 NOSIG', 'UTFN 140830Z 14006KT 110V170 9999 NSC 16/00 Q1023 R28/CLRD70 NOSIG', 'UTFN 140800Z 12006KT 060V160 9999 NSC 15/00 Q1023 R28/CLRD70 NOSIG', 'UTFN 140730Z 13006KT 100V160 9000 NSC 15/00 Q1024 R28/CLRD70 NOSIG', 'UTFN 140700Z 12004KT 080V160 9000 NSC 14/00 Q1024 R28/CLRD70 NOSIG', 'UTFN 140630Z 11006KT 7000 NSC 13/00 Q1025 R28/CLRD70 NOSIG', 'UTFN 140600Z 09006KT 020V120 7000 NSC 13/01 Q1025 R28/CLRD70 NOSIG', 'UTFN 140530Z 07004KT 020V130 7000 NSC 12/00 Q1025 R28/CLRD70 NOSIG', 'UTFN 140500Z 06004KT 020V090 7000 NSC 11/01 Q1025 R28/CLRD70 NOSIG', 'UTFN 140430Z VRB02KT 9999 NSC 10/00 Q1025 R28/CLRD70 NOSIG', 'UTFN 140400Z 00000KT 9999 NSC 09/00 Q1026 R28/CLRD70 NOSIG', 'UTFN 140330Z 33004KT 9999 NSC 07/00 Q1026 R28/CLRD70 NOSIG', 'UTFN 140300Z 33004KT 9999 NSC 05/M01 Q1026 R28/CLRD70 NOSIG', 'UTFN 140230Z 32004KT 9999 NSC 04/M01 Q1025 R28/CLRD70 NOSIG', 'UTFN 140200Z 31002KT 9999 NSC 03/M01 Q1025 R28/CLRD70 NOSIG', 'UTFN 140130Z 33004KT 9999 NSC 04/M01 Q1025 R28/CLRD70 NOSIG', 'UTFN 140100Z VRB02KT 9000 NSC 05/M01 Q1025 R28/CLRD70 NOSIG', 'UTFN 140030Z VRB02KT 9999 NSC 05/M01 Q1025 R28/CLRD70 NOSIG', 'UTFN 140000Z 35004KT 9999 NSC 07/M01 Q1025 R28/CLRD70 NOSIG', 'UTFN 132330Z 33004KT 9999 NSC 06/M00 Q1025 R28/CLRD70 NOSIG', 'UTFN 132300Z 35004KT 9000 NSC 06/M00 Q1025 R28/CLRD70 NOSIG', 'UTFN 132230Z 02004KT 9000 NSC 07/00 Q1025 R28/CLRD70 NOSIG', 'UTFN 132200Z 33004KT 9000 NSC 07/M00 Q1025 R28/CLRD70 NOSIG', 'UTFN 132130Z 32004KT 9999 NSC 07/M00 Q1025 R28/CLRD70 NOSIG', 'UTFN 132100Z 34004KT 9999 NSC 07/M00 Q1025 R28/CLRD70 NOSIG', 'UTFN 132030Z 33004KT 9999 NSC 08/M00 Q1025 R28/CLRD70 NOSIG', 'UTFN 132000Z 34004KT 9999 NSC 09/M00 Q1025 R28/CLRD70 NOSIG', 'UTFN 131930Z VRB02KT 9999 NSC 06/M00 Q1025 R28/CLRD70 NOSIG', 'UTFN 131900Z VRB02KT 9999 NSC 08/M00 Q1025 R28/CLRD70 NOSIG', 'UTFN 131830Z VRB02KT 8000 NSC 08/M00 Q1025 R28/CLRD70 NOSIG', 'UTFN 131800Z 34004KT 280V350 9999 NSC 08/M00 Q1025 R28/CLRD70 NOSIG', 'UTFN 131730Z 32008KT 7000 NSC 09/00 Q1025 R28/CLRD70 NOSIG', 'UTFN 131700Z 32006KT 9000 NSC 09/00 Q1025 R28/CLRD70 NOSIG', 'UTFN 131630Z 31006KT 6000 NSC 08/00 Q1025 R28/CLRD70 NOSIG', 'UTFN 131600Z 32004KT 280V340 7000 NSC 08/00 Q1025 R28/CLRD70 NOSIG', 'UTFN 131530Z 33006KT 6000 NSC 09/00 Q1025 R28/CLRD70 NOSIG', 'UTFN 131500Z 33006KT 6000 NSC 09/01 Q1025 R28/CLRD70 NOSIG', 'UTFN 131430Z 32004KT 8000 NSC 09/01 Q1025 R28/CLRD70 NOSIG', 'UTFN 131400Z 30004KT 8000 NSC 10/02 Q1025 R28/CLRD70 NOSIG', 'UTFN 131330Z 23002KT 9000 NSC 11/01 Q1025 R28/CLRD70 NOSIG', 'UTFN 131300Z VRB02KT 9999 NSC 12/01 Q1025 R28/CLRD70 NOSIG', 'UTFN 131230Z 14002KT 8000 NSC 13/01 Q1025 R28/CLRD70 NOSIG', 'UTFN 131200Z 09004KT 060V120 9999 NSC 15/01 Q1025 R28/CLRD70 NOSIG', 'UTFN 131130Z 11004KT 070V140 9999 NSC 15/01 Q1025 R28/CLRD70 NOSIG', 'UTFN 131100Z VRB02KT 9999 NSC 15/00 Q1025 R28/CLRD70 NOSIG', 'UTFN 131030Z 12004KT 090V170 9999 NSC 14/01 Q1025 R28/CLRD70 NOSIG', 'UTFN 131000Z VRB02KT 8000 NSC 15/02 Q1025 R28/CLRD70 NOSIG', 'UTFN 130930Z VRB02KT 6000 NSC 13/02 Q1026 R28/CLRD70 NOSIG', 'UTFN 130900Z VRB02KT 6000 NSC 13/02 Q1026 R28/CLRD70 NOSIG', 'UTFN 130830Z VRB02KT 4300 BR NSC 13/03 Q1026 R28/CLRD70 NOSIG', 'UTFN 130800Z VRB02KT 2800 BR NSC 11/03 Q1027 R28/CLRD70 NOSIG', 'UTFN 130700Z VRB02KT 4600 BR NSC 09/02 Q1028 R28/CLRD70 NOSIG', 'UTFN 130630Z VRB02KT 4400 BR NSC 09/01 Q1028 R28/CLRD70 NOSIG', 'UTFN 130600Z VRB02KT 4200 BR NSC 08/01 Q1028 R28/CLRD70 NOSIG', 'UTFN 130530Z VRB02KT 5000 BR NSC 07/01 Q1028 R28/CLRD70 NOSIG', 'UTFN 130500Z 14002KT 4600 BR NSC 06/01 Q1028 R28/CLRD70 NOSIG', 'UTFN 130430Z 13002KT 5000 BR NSC 06/00 Q1027 R28/CLRD70 NOSIG', 'UTFN 130400Z 00000KT 5000 BR NSC 05/01 Q1027 R28/CLRD70 NOSIG', 'UTFN 130330Z 00000KT 5000 BR NSC 05/01 Q1027 R28/CLRD70 NOSIG', 'UTFN 130300Z 33002KT 5000 BR NSC 04/M00 Q1027 R28/CLRD70 NOSIG', 'UTFN 130230Z 34004KT 4900 BR NSC 05/M00 Q1027 R28/CLRD70 NOSIG', 'UTFN 130200Z 32004KT 4700 BR NSC 03/M01 Q1026 R28/CLRD70 NOSIG', 'UTFN 130130Z 32004KT 5000 BR NSC 03/M01 Q1026 R28/CLRD70 NOSIG', 'UTFN 130100Z 32004KT 3900 BR NSC 02/M01 Q1026 R28/CLRD70 NOSIG', 'UTFN 130030Z 32004KT 3800 BR NSC 03/M01 Q1026 R28/CLRD70 NOSIG', 'UTFN 130000Z 33002KT 3900 BR NSC 03/M00 Q1026 R28/CLRD70 NOSIG', 'UTFN 122330Z 33004KT 3500 BR SCT033 03/M01 Q1026 R28/CLRD70 NOSIG', 'UTFN 122300Z VRB02KT 3700 BR SCT033 03/M01 Q1026 R28/CLRD70 NOSIG', 'UTFN 122230Z 32002KT 3200 BR SCT033 03/M00 Q1026 R28/CLRD70 NOSIG', 'UTFN 122200Z 00000KT 2700 BR SCT033 04/02 Q1025 R28/CLRD70 NOSIG', 'UTFN 122130Z 00000KT 2800 BR SCT033 04/02 Q1026 R28/CLRD70 NOSIG', 'UTFN 122100Z 08002KT 2900 BR SCT033 05/01 Q1025 R28/CLRD70 NOSIG', 'UTFN 122030Z 32002KT 3100 BR SCT033 05/00 Q1025 R28/CLRD70 NOSIG', 'UTFN 122000Z 35002KT 2900 BR SCT033 05/01 Q1025 R28/CLRD70 NOSIG', 'UTFN 121930Z 00000KT 3100 BR SCT033 04/01 Q1025 R28/CLRD70 NOSIG', 'UTFN 121900Z 35002KT 3000 BR SCT033 05/02 Q1025 R28/CLRD70 NOSIG', 'UTFN 121830Z VRB02KT 2900 BR SCT033 05/02 Q1025 R28/CLRD70 NOSIG', 'UTFN 121800Z 34004KT 2900 BR NSC 06/03 Q1025 R28/CLRD70 NOSIG', 'UTFN 121730Z 00000KT 3500 BR NSC 05/02 Q1025 R28/CLRD70 NOSIG', 'UTFN 121700Z 28004KT 4600 BR NSC 06/03 Q1025 R28/CLRD70 NOSIG', 'UTFN 121630Z 24002KT 4400 BR NSC 07/03 Q1025 R28/CLRD70 NOSIG', 'UTFN 121600Z 20002KT 3500 BR NSC 07/03 Q1025 R28/CLRD70 NOSIG', 'UTFN 121530Z 00000KT 3600 BR NSC 08/03 Q1024 R28/CLRD70 NOSIG', 'UTFN 121500Z 26002KT 3400 BR NSC 09/03 Q1024 R28/CLRD70 NOSIG', 'UTFN 121430Z VRB02KT 4100 BR NSC 09/03 Q1024 R28/CLRD70 NOSIG', 'UTFN 121400Z 26004KT 4600 BR NSC 09/02 Q1024 R28/CLRD70 NOSIG', 'UTFN 121330Z 21002KT 5000 BR NSC 09/01 Q1024 R18/CLRD70 NOSIG', 'UTFN 121300Z 00000KT 5000 BR NSC 10/01 Q1023 R28/CLRD70 NOSIG', 'UTFN 121230Z 24004KT 6000 NSC 10/01 Q1023 R28/CLRD70 NOSIG', 'UTFN 121200Z 23006KT 6000 NSC 11/01 Q1023 R28/CLRD70 NOSIG', 'UTFN 121130Z 22006KT 8000 NSC 12/01 Q1023 R28/CLRD70 NOSIG', 'UTFN 121100Z 22006KT 8000 NSC 12/01 Q1023 R28/CLRD70 NOSIG']","['2024-02-15 10:00:00', '2024-02-15 09:30:00', '2024-02-15 09:00:00', '2024-02-15 08:30:00', '2024-02-15 08:00:00', '2024-02-15 07:30:00', '2024-02-15 07:00:00', '2024-02-15 06:30:00', '2024-02-15 06:00:00', '2024-02-15 05:30:00', '2024-02-15 05:00:00', '2024-02-15 04:30:00', '2024-02-15 04:00:00', '2024-02-15 03:30:00', '2024-02-15 03:00:00', '2024-02-15 02:30:00', '2024-02-15 02:00:00', '2024-02-15 01:30:00', '2024-02-15 01:00:00', '2024-02-15 00:30:00', '2024-02-15 00:00:00', '2024-02-14 23:30:00', '2024-02-14 23:00:00', '2024-02-14 22:30:00', '2024-02-14 22:00:00', '2024-02-14 21:30:00', '2024-02-14 21:00:00', '2024-02-14 20:30:00', '2024-02-14 20:00:00', '2024-02-14 19:30:00', '2024-02-14 19:00:00', '2024-02-14 18:30:00', '2024-02-14 18:00:00', '2024-02-14 17:30:00', '2024-02-14 16:30:00', '2024-02-14 16:00:00', '2024-02-14 15:30:00', '2024-02-14 15:00:00', '2024-02-14 14:30:00', '2024-02-14 14:00:00', '2024-02-14 13:30:00', '2024-02-14 13:00:00', '2024-02-14 12:30:00', '2024-02-14 12:00:00', '2024-02-14 11:30:00', '2024-02-14 11:00:00', '2024-02-14 10:30:00', '2024-02-14 10:00:00', '2024-02-14 09:30:00', '2024-02-14 09:00:00', '2024-02-14 08:30:00', '2024-02-14 08:00:00', '2024-02-14 07:30:00', '2024-02-14 07:00:00', '2024-02-14 06:30:00', '2024-02-14 06:00:00', '2024-02-14 05:30:00', '2024-02-14 05:00:00', '2024-02-14 04:30:00', '2024-02-14 04:00:00', '2024-02-14 03:30:00', '2024-02-14 03:00:00', '2024-02-14 02:30:00', '2024-02-14 02:00:00', '2024-02-14 01:30:00', '2024-02-14 01:00:00', '2024-02-14 00:30:00', '2024-02-14 00:00:00', '2024-02-13 23:30:00', '2024-02-13 23:00:00', '2024-02-13 22:30:00', '2024-02-13 22:00:00', '2024-02-13 21:30:00', '2024-02-13 21:00:00', '2024-02-13 20:30:00', '2024-02-13 20:00:00', '2024-02-13 19:30:00', '2024-02-13 19:00:00', '2024-02-13 18:30:00', '2024-02-13 18:00:00', '2024-02-13 17:30:00', '2024-02-13 17:00:00', '2024-02-13 16:30:00', '2024-02-13 16:00:00', '2024-02-13 15:30:00', '2024-02-13 15:00:00', '2024-02-13 14:30:00', '2024-02-13 14:00:00', '2024-02-13 13:30:00', '2024-02-13 13:00:00', '2024-02-13 12:30:00', '2024-02-13 12:00:00', '2024-02-13 11:30:00', '2024-02-13 11:00:00', '2024-02-13 10:30:00', '2024-02-13 10:00:00', '2024-02-13 09:30:00', '2024-02-13 09:00:00', '2024-02-13 08:30:00', '2024-02-13 08:00:00', '2024-02-13 07:00:00', '2024-02-13 06:30:00', '2024-02-13 06:00:00', '2024-02-13 05:30:00', '2024-02-13 05:00:00', '2024-02-13 04:30:00', '2024-02-13 04:00:00', '2024-02-13 03:30:00', '2024-02-13 03:00:00', '2024-02-13 02:30:00', '2024-02-13 02:00:00', '2024-02-13 01:30:00', '2024-02-13 01:00:00', '2024-02-13 00:30:00', '2024-02-13 00:00:00', '2024-02-12 23:30:00', '2024-02-12 23:00:00', '2024-02-12 22:30:00', '2024-02-12 22:00:00', '2024-02-12 21:30:00', '2024-02-12 21:00:00', '2024-02-12 20:30:00', '2024-02-12 20:00:00', '2024-02-12 19:30:00', '2024-02-12 19:00:00', '2024-02-12 18:30:00', '2024-02-12 18:00:00', '2024-02-12 17:30:00', '2024-02-12 17:00:00', '2024-02-12 16:30:00', '2024-02-12 16:00:00', '2024-02-12 15:30:00', '2024-02-12 15:00:00', '2024-02-12 14:30:00', '2024-02-12 14:00:00', '2024-02-12 13:30:00', '2024-02-12 13:00:00', '2024-02-12 12:30:00', '2024-02-12 12:00:00', '2024-02-12 11:30:00', '2024-02-12 11:00:00']"
Uzbekistan, Navoi International Airport (NVI/UTSA) ,"['UTSA 151000Z 18016KT 5000 -DS NSC 21/M03 Q1014 R25/CLRD70 NOSIG', 'UTSA 150930Z 19016KT 5000 -DS NSC 21/M03 Q1014 R25/CLRD70 NOSIG', 'UTSA 150900Z 19018KT 5000 -DS NSC 21/M04 Q1014 R25/CLRD70 NOSIG', 'UTSA 150830Z 19020KT 5000 -DS NSC 20/M04 Q1015 R25/CLRD70 NOSIG', 'UTSA 150800Z 18022KT 5000 -DS NSC 19/M04 Q1015 R25/CLRD70 NOSIG', 'UTSA 150730Z 19024KT 6000 -DS NSC 19/M04 Q1015 R25/CLRD70 NOSIG', 'UTSA 150700Z 19024KT 6000 -DS NSC 19/M04 Q1015 R25/CLRD70 NOSIG', 'UTSA 150630Z 19022KT 6000 -DS NSC 19/M05 Q1015 R25/CLRD70 NOSIG', 'UTSA 150600Z 19014KT 7000 NSC 18/M05 Q1016 R25/CLRD70 NOSIG', 'UTSA 150530Z 19014KT 7000 NSC 18/M05 Q1016 R25/CLRD70 NOSIG', 'UTSA 150500Z 19014KT 7000 NSC 16/M05 Q1016 R25/CLRD70 NOSIG', 'UTSA 150430Z 19008KT 8000 NSC 16/M04 Q1016 R25/CLRD70 NOSIG', 'UTSA 150400Z 19010KT 8000 NSC 15/M04 Q1016 R25/CLRD70 NOSIG', 'UTSA 150330Z 19010KT 7000 NSC 14/M04 Q1016 R25/CLRD70 NOSIG', 'UTSA 150300Z 20012KT 7000 NSC 13/M04 Q1015 R25/CLRD70 NOSIG', 'UTSA 150230Z 20012KT 7000 NSC 14/M04 Q1015 R25/CLRD70 NOSIG', 'UTSA 150200Z 20012KT 6000 NSC 14/M04 Q1015 R25/CLRD70 NOSIG', 'UTSA 150130Z 20014KT 6000 NSC 14/M05 Q1015 R25/CLRD70 NOSIG', 'UTSA 150100Z 20014KT 7000 NSC 14/M04 Q1015 R25/CLRD70 NOSIG', 'UTSA 150030Z 20014KT 7000 NSC 14/M04 Q1015 R25/CLRD70 NOSIG', 'UTSA 150000Z 21012KT 7000 NSC 14/M04 Q1014 R07/CLRD70 NOSIG', 'UTSA 142330Z 19014KT 7000 NSC 14/M04 Q1014 R07/CLRD70 NOSIG', 'UTSA 142300Z 19016KT 6000 NSC 14/M04 Q1015 R07/CLRD70 NOSIG', 'UTSA 142230Z 19012KT 9999 NSC 13/M04 Q1015 R07/CLRD70 NOSIG', 'UTSA 142200Z 17012KT 9999 NSC 13/M05 Q1014 R07/CLRD70 NOSIG', 'UTSA 142130Z 17012KT 9999 SCT038 13/M05 Q1015 R07/CLRD70 NOSIG', 'UTSA 142100Z 17012KT 9999 SCT045 13/M05 Q1014 R07/CLRD70 NOSIG', 'UTSA 142030Z 06008KT 180V240 9999 SCT045 14/M04 Q1015 R07/CLRD70 NOSIG', 'UTSA 142000Z 21008KT 180V240 9999 SCT045 14/M04 Q1015 R07/CLRD70 NOSIG', 'UTSA 141930Z 17010KT 9999 SCT045 15/M04 Q1015 R07/CLRD70 NOSIG', 'UTSA 141900Z 22008KT 9999 SCT049 15/M05 Q1015 R07/CLRD70 NOSIG', 'UTSA 141800Z 15016KT 9999 SCT045 16/M04 Q1015 R07/CLRD70 NOSIG', 'UTSA 141730Z 15010KT 9999 SCT044 17/M04 Q1015 R07/CLRD70 NOSIG', 'UTSA 141700Z 15012KT 9999 SCT038 18/M05 Q1015 R07/CLRD70 NOSIG', 'UTSA 141630Z 15012KT 9999 SCT040 17/M04 Q1015 R07/CLRD70 NOSIG', 'UTSA 141600Z 15010KT 9999 SCT045 17/M04 Q1015 R07/CLRD70 NOSIG', 'UTSA 141530Z 15008KT 9999 SCT041 16/M03 Q1015 R07/CLRD70 NOSIG', 'UTSA 141500Z 15008KT 9999 NSC 15/M02 Q1016 R25/CLRD70 NOSIG', 'UTSA 141400Z 15006KT 9999 NSC 16/M02 Q1016 R25/CLRD70 NOSIG', 'UTSA 141330Z 13006KT 9999 NSC 17/M02 Q1016 R25/CLRD70 NOSIG', 'UTSA 141300Z 14008KT 9999 NSC 18/M02 Q1016 R25/CLRD70 NOSIG', 'UTSA 141230Z 15008KT 9999 NSC 20/M03 Q1016 R25/CLRD70 NOSIG', 'UTSA 141200Z 16010KT 9999 NSC 21/M04 Q1016 R25/CLRD70 NOSIG', 'UTSA 141130Z 18012KT 9999 NSC 22/M05 Q1016 R25/CLRD70 NOSIG', 'UTSA 141100Z 18014KT 9999 NSC 22/M05 Q1016 R25/CLRD70 NOSIG', 'UTSA 141030Z 18016KT 9999 NSC 22/M05 Q1017 R25/CLRD70 NOSIG', 'UTSA 141000Z 18018KT 9999 NSC 22/M05 Q1017 R25/CLRD70 NOSIG', 'UTSA 140930Z 18016KT 9999 NSC 23/M08 Q1017 R25/CLRD70 NOSIG', 'UTSA 140900Z 16014KT 9999 NSC 23/M07 Q1017 R07/CLRD70 NOSIG', 'UTSA 140830Z 15012KT 9999 NSC 22/M06 Q1018 R07/CLRD70 NOSIG', 'UTSA 140800Z 15014KT 7000 NSC 22/M07 Q1018 R07/CLRD70 NOSIG', 'UTSA 140730Z 15014KT 9999 NSC 22/M07 Q1018 R07/CLRD70 NOSIG', 'UTSA 140700Z 09012KT 070M140 7000 NSC 20/M01 Q1019 R07/CLRD70 NOSIG', 'UTSA 140630Z 09014KT 7000 NSC 18/M02 Q1019 R07/CLRD70 NOSIG', 'UTSA 140600Z 09014KT 8000 NSC 17/M02 Q1019 R07/CLRD70 NOSIG', 'UTSA 140530Z 09016KT 8000 NSC 16/M02 Q1020 R07/CLRD70 NOSIG', 'UTSA 140500Z 09016KT 8000 NSC 14/M01 Q1020 R07/CLRD70 NOSIG', 'UTSA 140430Z 10008KT 8000 NSC 13/M00 Q1020 R07/CLRD70 NOSIG', 'UTSA 140400Z 09008KT 7000 NSC 10/01 Q1020 R07/CLRD70 NOSIG', 'UTSA 140330Z 09010KT 8000 NSC 08/M00 Q1020 R07/CLRD70 NOSIG', 'UTSA 140300Z 10012KT 7000 NSC 07/M00 Q1020 R07/CLRD70 NOSIG', 'UTSA 140230Z 10012KT 6000 NSC 07/00 Q1020 R07/CLRD70 NOSIG', 'UTSA 140200Z 10012KT 5000 FU NSC 07/00 Q1020 R07/CLRD70 NOSIG', 'UTSA 140130Z 10012KT 6000 NSC 07/00 Q1020 R07/CLRD70 NOSIG', 'UTSA 140100Z 10010KT 6000 NSC 08/01 Q1020 R07/CLRD70 NOSIG', 'UTSA 140030Z 10010KT 6000 NSC 07/01 Q1020 R07/CLRD70 NOSIG', 'UTSA 140000Z 10010KT 5000 FU NSC 07/01 Q1020 R07/CLRD70 NOSIG', 'UTSA 132330Z 09010KT 5000 FU NSC 06/01 Q1020 R07/CLRD70 NOSIG', 'UTSA 132300Z 10012KT 5000 FU NSC 08/02 Q1020 R07/CLRD70 NOSIG', 'UTSA 132230Z 10012KT 5000 FU NSC 07/02 Q1020 R07/CLRD70 NOSIG', 'UTSA 132200Z 10010KT 5000 FU NSC 08/01 Q1021 R07/CLRD70 NOSIG', 'UTSA 132130Z 10010KT 6000 NSC 08/02 Q1021 R07/CLRD70 NOSIG', 'UTSA 132100Z 10012KT 6000 NSC 08/01 Q1021 R07/CLRD70 NOSIG', 'UTSA 132030Z 10012KT 7000 NSC 08/01 Q1021 R07/CLRD70 NOSIG', 'UTSA 132000Z 10010KT 6000 NSC 07/00 Q1021 R07/CLRD70 NOSIG', 'UTSA 131930Z 10010KT 6000 NSC 07/01 Q1022 R07/CLRD70 NOSIG', 'UTSA 131900Z 09010KT 6000 NSC 06/00 Q1022 R07/CLRD70 NOSIG', 'UTSA 131830Z 09010KT 7000 NSC 07/00 Q1022 R07/CLRD70 NOSIG', 'UTSA 131800Z 09006KT 7000 NSC 07/M00 Q1022 R07/CLRD70 NOSIG', 'UTSA 131730Z 09010KT 9000 NSC 09/M00 Q1022 R07/CLRD70 NOSIG', 'UTSA 131700Z 15008KT 9999 NSC 08/M00 Q1022 R07/CLRD70 NOSIG', 'UTSA 131630Z 15008KT 9999 NSC 09/M00 Q1022 R07/CLRD70 NOSIG', 'UTSA 131600Z 14006KT 9999 NSC 08/00 Q1022 R07/CLRD70 NOSIG', 'UTSA 131530Z 14006KT 9999 NSC 10/00 Q1021 R07/CLRD70 NOSIG', 'UTSA 131500Z 14008KT 9999 NSC 10/00 Q1022 R07/CLRD70 NOSIG', 'UTSA 131430Z 16006KT 9999 NSC 10/00 Q1022 R07/CLRD70 NOSIG', 'UTSA 131400Z 16004KT 9999 NSC 12/M01 Q1022 R07/CLRD70 NOSIG', 'UTSA 131330Z 15004KT 9999 NSC 14/M02 Q1021 R07/CLRD70 NOSIG', 'UTSA 131300Z 16004KT 9999 NSC 16/M02 Q1022 R07/CLRD70 NOSIG', 'UTSA 131300Z 17006KT 9999 NSC 17/M02 Q1021 R07/CLRD70 NOSIG', 'UTSA 131130Z 15010KT 9999 NSC 19/M05 Q1021 R07/CLRD70 NOSIG', 'UTSA 131100Z 16008KT 9999 NSC 19/M04 Q1021 R07/CLRD70 NOSIG', 'UTSA 131030Z 16006KT 9999 NSC 19/M02 Q1021 R07/CLRD70 NOSIG', 'UTSA 131000Z 11006KT 050V190 9999 NSC 19/M02 Q1022 R07/CLRD70 NOSIG', 'UTSA 130930Z 07010KT 9999 NSC 18/01 Q1022 R07/CLRD70 NOSIG', 'UTSA 130900Z 08010KT 9999 NSC 18/01 Q1022 R07/CLRD70 NOSIG', 'UTSA 130830Z 08012KT 9000 NSC 17/02 Q1023 R07/CLRD70 NOSIG', 'UTSA 130800Z 09012KT 9000 NSC 16/02 Q1023 R07/CLRD70 NOSIG', 'UTSA 130730Z 09016KT 9999 NSC 16/01 Q1024 R07/CLRD70 NOSIG', 'UTSA 130700Z 08018KT 9999 NSC 15/M00 Q1024 R07/CLRD70 NOSIG', 'UTSA 130630Z 09016KT 9999 NSC 15/M00 Q1025 R07/CLRD70 NOSIG', 'UTSA 130600Z 09016KT 9999 NSC 14/00 Q1025 R07/CLRD70 NOSIG', 'UTSA 130530Z 10010KT 9000 NSC 13/02 Q1025 R07/CLRD70 NOSIG', 'UTSA 130500Z 08010KT 6000 NSC 10/02 Q1025 R07/CLRD70 NOSIG', 'UTSA 130430Z 09010KT 8000 NSC 08/02 Q1025 R07/CLRD70 NOSIG', 'UTSA 130400Z 08006KT 8000 NSC 05/02 Q1025 R07/CLRD70 NOSIG', 'UTSA 130330Z 07008KT 9000 NSC 05/01 Q1025 R07/CLRD70 NOSIG', 'UTSA 130300Z 05006KT 9000 NSC 05/01 Q1024 R07/CLRD70 NOSIG', 'UTSA 130230Z 07008KT 7000 NSC 03/01 Q1024 R07/CLRD70 NOSIG', 'UTSA 130200Z 09008KT 7000 NSC 04/01 Q1024 R07/CLRD70 NOSIG', 'UTSA 130130Z 09008KT 7000 NSC 03/01 Q1024 R07/CLRD70 NOSIG', 'UTSA 130100Z 09008KT 7000 NSC 03/01 Q1024 R07/CLRD70 NOSIG', 'UTSA 130030Z 09008KT 7000 NSC 03/00 Q1024 R07/CLRD70 NOSIG', 'UTSA 130000Z 09008KT 9000 NSC 04/01 Q1024 R07/CLRD70 NOSIG', 'UTSA 122330Z 08004KT 8000 NSC 04/00 Q1024 R07/CLRD70 NOSIG', 'UTSA 122300Z 09004KT 8000 NSC 04/01 Q1024 R07/CLRD70 NOSIG', 'UTSA 122230Z 09006KT 8000 NSC 04/01 Q1024 R07/CLRD70 NOSIG', 'UTSA 122200Z 08008KT 6000 NSC 01/01 Q1025 R07/CLRD70 NOSIG', 'UTSA 122130Z 07010KT 8000 NSC 05/01 Q1025 R07/CLRD70 NOSIG', 'UTSA 122100Z 08006KT 6000 NSC 04/02 Q1025 R07/CLRD70 NOSIG', 'UTSA 122030Z 09008KT 5000 BR FU NSC 05/02 Q1025 R07/CLRD70 NOSIG', 'UTSA 122000Z 08004KT 6000 NSC 05/02 Q1025 R07/CLRD70 NOSIG', 'UTSA 121930Z 09008KT 5000 BR FU NSC 05/02 Q1025 R07/CLRD70 NOSIG', 'UTSA 121900Z 08010KT 6000 NSC 05/02 Q1025 R07/CLRD70 NOSIG', 'UTSA 121830Z 09008KT 6000 NSC 05/02 Q1025 R07/CLRD70 NOSIG', 'UTSA 121800Z 09006KT 8000 NSC 05/02 Q1025 R07/CLRD70 NOSIG', 'UTSA 121730Z 09006KT 9999 NSC 06/02 Q1025 R07/CLRD70 NOSIG', 'UTSA 121700Z 04002KT 9999 NSC 09/02 Q1025 R07/CLRD70 NOSIG', 'UTSA 121630Z 06002KT 9999 NSC 09/03 Q1025 R07/CLRD70 NOSIG', 'UTSA 121600Z 09004KT 9999 NSC 09/03 Q1025 R07/CLRD70 NOSIG', 'UTSA 121530Z 05004KT 9999 NSC 10/03 Q1025 R07/CLRD70 NOSIG', 'UTSA 121500Z 05004KT 020V100 9999 NSC 11/03 Q1025 R07/CLRD70 NOSIG', 'UTSA 121430Z VRB02KT 9999 NSC 11/01 Q1025 R07/CLRD70 NOSIG', 'UTSA 121400Z 01006KT 9999 NSC 13/02 Q1024 R07/CLRD70 NOSIG', 'UTSA 121330Z 02006KT 9999 NSC 14/01 Q1024 R07/CLRD70 NOSIG', 'UTSA 121300Z 03008KT 9999 NSC 15/00 Q1024 R07/CLRD70 NOSIG', 'UTSA 121230Z 02010KT 9999 NSC 16/M00 Q1024 R07/CLRD70 NOSIG', 'UTSA 121200Z 03012KT 9999 NSC 16/00 Q1024 R07/CLRD70 NOSIG', 'UTSA 121130Z 03014KT 9999 NSC 17/M00 Q1024 R07/CLRD70 NOSIG', 'UTSA 121100Z 02012KT 9999 NSC 17/M00 Q1024 R07/CLRD70 NOSIG']","['2024-02-15 10:00:00', '2024-02-15 09:30:00', '2024-02-15 09:00:00', '2024-02-15 08:30:00', '2024-02-15 08:00:00', '2024-02-15 07:30:00', '2024-02-15 07:00:00', '2024-02-15 06:30:00', '2024-02-15 06:00:00', '2024-02-15 05:30:00', '2024-02-15 05:00:00', '2024-02-15 04:30:00', '2024-02-15 04:00:00', '2024-02-15 03:30:00', '2024-02-15 03:00:00', '2024-02-15 02:30:00', '2024-02-15 02:00:00', '2024-02-15 01:30:00', '2024-02-15 01:00:00', '2024-02-15 00:30:00', '2024-02-15 00:00:00', '2024-02-14 23:30:00', '2024-02-14 23:00:00', '2024-02-14 22:30:00', '2024-02-14 22:00:00', '2024-02-14 21:30:00', '2024-02-14 21:00:00', '2024-02-14 20:30:00', '2024-02-14 20:00:00', '2024-02-14 19:30:00', '2024-02-14 19:00:00', '2024-02-14 18:00:00', '2024-02-14 17:30:00', '2024-02-14 17:00:00', '2024-02-14 16:30:00', '2024-02-14 16:00:00', '2024-02-14 15:30:00', '2024-02-14 15:00:00', '2024-02-14 14:00:00', '2024-02-14 13:30:00', '2024-02-14 13:00:00', '2024-02-14 12:30:00', '2024-02-14 12:00:00', '2024-02-14 11:30:00', '2024-02-14 11:00:00', '2024-02-14 10:30:00', '2024-02-14 10:00:00', '2024-02-14 09:30:00', '2024-02-14 09:00:00', '2024-02-14 08:30:00', '2024-02-14 08:00:00', '2024-02-14 07:30:00', '2024-02-14 07:00:00', '2024-02-14 06:30:00', '2024-02-14 06:00:00', '2024-02-14 05:30:00', '2024-02-14 05:00:00', '2024-02-14 04:30:00', '2024-02-14 04:00:00', '2024-02-14 03:30:00', '2024-02-14 03:00:00', '2024-02-14 02:30:00', '2024-02-14 02:00:00', '2024-02-14 01:30:00', '2024-02-14 01:00:00', '2024-02-14 00:30:00', '2024-02-14 00:00:00', '2024-02-13 23:30:00', '2024-02-13 23:00:00', '2024-02-13 22:30:00', '2024-02-13 22:00:00', '2024-02-13 21:30:00', '2024-02-13 21:00:00', '2024-02-13 20:30:00', '2024-02-13 20:00:00', '2024-02-13 19:30:00', '2024-02-13 19:00:00', '2024-02-13 18:30:00', '2024-02-13 18:00:00', '2024-02-13 17:30:00', '2024-02-13 17:00:00', '2024-02-13 16:30:00', '2024-02-13 16:00:00', '2024-02-13 15:30:00', '2024-02-13 15:00:00', '2024-02-13 14:30:00', '2024-02-13 14:00:00', '2024-02-13 13:30:00', '2024-02-13 13:00:00', '2024-02-13 12:40:00', '2024-02-13 11:30:00', '2024-02-13 11:00:00', '2024-02-13 10:30:00', '2024-02-13 10:00:00', '2024-02-13 09:30:00', '2024-02-13 09:00:00', '2024-02-13 08:30:00', '2024-02-13 08:00:00', '2024-02-13 07:30:00', '2024-02-13 07:00:00', '2024-02-13 06:30:00', '2024-02-13 06:00:00', '2024-02-13 05:30:00', '2024-02-13 05:00:00', '2024-02-13 04:30:00', '2024-02-13 04:00:00', '2024-02-13 03:30:00', '2024-02-13 03:00:00', '2024-02-13 02:30:00', '2024-02-13 02:00:00', '2024-02-13 01:30:00', '2024-02-13 01:00:00', '2024-02-13 00:30:00', '2024-02-13 00:00:00', '2024-02-12 23:30:00', '2024-02-12 23:00:00', '2024-02-12 22:30:00', '2024-02-12 22:00:00', '2024-02-12 21:30:00', '2024-02-12 21:00:00', '2024-02-12 20:30:00', '2024-02-12 20:00:00', '2024-02-12 19:30:00', '2024-02-12 19:00:00', '2024-02-12 18:30:00', '2024-02-12 18:00:00', '2024-02-12 17:30:00', '2024-02-12 17:00:00', '2024-02-12 16:30:00', '2024-02-12 16:00:00', '2024-02-12 15:30:00', '2024-02-12 15:00:00', '2024-02-12 14:30:00', '2024-02-12 14:00:00', '2024-02-12 13:30:00', '2024-02-12 13:00:00', '2024-02-12 12:30:00', '2024-02-12 12:00:00', '2024-02-12 11:30:00', '2024-02-12 11:00:00']"
Uzbekistan, Nukus Airport (NCU/UTNN) ,"['UTNN 151000Z 33016KT 9999 OVC013 03/M01 Q1016 R33/CLRD60 NOSIG', 'UTNN 150930Z 33014KT 9999 OVC014 04/M00 Q1015 R33/CLRD60 NOSIG', 'UTNN 150900Z 33014KT 9999 SCT014 05/00 Q1015 R33/CLRD60 NOSIG', 'UTNN 150830Z 32012KT CAVOK 05/01 Q1015 R33/CLRD60 NOSIG', 'UTNN 150800Z 32014KT CAVOK 05/00 Q1015 R33/CLRD60 NOSIG', 'UTNN 150730Z 31012KT CAVOK 05/00 Q1015 R33/CLRD60 NOSIG', 'UTNN 150700Z 31010KT CAVOK 05/00 Q1015 R33/CLRD60 NOSIG', 'UTNN 150630Z 31010KT CAVOK 05/00 Q1014 R33/CLRD60 NOSIG', 'UTNN 150600Z 30010KT CAVOK 04/00 Q1014 R33/CLRD60 NOSIG', 'UTNN 150530Z 30010KT CAVOK 03/00 Q1013 R33/CLRD60 NOSIG', 'UTNN 150500Z 28008KT CAVOK 03/M00 Q1013 R33/CLRD60 NOSIG', 'UTNN 150430Z 29010KT CAVOK 03/M00 Q1012 R33/CLRD60 NOSIG', 'UTNN 150400Z 26008KT CAVOK 04/M01 Q1012 R33/CLRD60 NOSIG', 'UTNN 150330Z 23006KT CAVOK 05/M01 Q1011 R33/CLRD60 NOSIG', 'UTNN 150300Z 27008KT CAVOK 06/M01 Q1011 R15/CLRD60 NOSIG', 'UTNN 150230Z 23010KT CAVOK 07/M01 Q1011 R33/CLRD60 NOSIG', 'UTNN 150200Z 22008KT CAVOK 08/M01 Q1010 R33/CLRD60 NOSIG', 'UTNN 150130Z 22006KT CAVOK 08/M01 Q1010 R33/CLRD60 NOSIG', 'UTNN 150100Z 25008KT CAVOK 08/M01 Q1010 R15/CLRD60 NOSIG', 'UTNN 150030Z 23008KT CAVOK 09/M00 Q1010 R15/CLRD60 NOSIG', 'UTNN 150000Z 19008KT CAVOK 10/M00 Q1010 R33/CLRD60 NOSIG', 'UTNN 142330Z 19008KT CAVOK 10/M00 Q1010 R33/CLRD60 NOSIG', 'UTNN 142300Z 18006KT CAVOK 11/M00 Q1010 R33/CLRD60 NOSIG', 'UTNN 142230Z 16006KT CAVOK 10/M00 Q1010 R33/CLRD60 NOSIG', 'UTNN 142200Z 15006KT CAVOK 10/M00 Q1010 R33/CLRD60 NOSIG', 'UTNN 142130Z 16006KT CAVOK 10/M00 Q1010 R33/CLRD60 NOSIG', 'UTNN 142100Z 16004KT CAVOK 08/M01 Q1010 R33/CLRD60 NOSIG', 'UTNN 142030Z 17004KT CAVOK 11/M00 Q1010 R33/CLRD60 NOSIG', 'UTNN 142000Z 17004KT CAVOK 09/M01 Q1010 R33/CLRD60 NOSIG', 'UTNN 141930Z 18006KT CAVOK 12/M01 Q1011 R33/CLRD60 NOSIG', 'UTNN 141900Z 18004KT CAVOK 13/M01 Q1011 R33/CLRD60 NOSIG', 'UTNN 141830Z 19004KT CAVOK 14/M01 Q1011 R33/CLRD60 NOSIG', 'UTNN 141800Z 17004KT CAVOK 12/M01 Q1011 R33/CLRD60 NOSIG', 'UTNN 141730Z 16004KT CAVOK 13/M01 Q1011 R33/CLRD60 NOSIG', 'UTNN 141700Z 18006KT CAVOK 14/M01 Q1011 R33/CLRD60 NOSIG', 'UTNN 141630Z 18004KT CAVOK 14/M01 Q1011 R33/CLRD60 NOSIG', 'UTNN 141600Z 18006KT CAVOK 15/M01 Q1011 R33/CLRD60 NOSIG', 'UTNN 141530Z 19006KT CAVOK 16/M01 Q1012 R33/CLRD60 NOSIG', 'UTNN 141500Z 18006KT CAVOK 16/M01 Q1011 R33/CLRD60 NOSIG', 'UTNN 141430Z 17004KT CAVOK 16/M01 Q1012 R33/CLRD60 NOSIG', 'UTNN 141400Z 18004KT CAVOK 17/M00 Q1011 R33/CLRD60 NOSIG', 'UTNN 141330Z 18004KT CAVOK 18/00 Q1011 R33/CLRD60 NOSIG', 'UTNN 141300Z 17004KT CAVOK 18/00 Q1011 R15/CLRD60 NOSIG', 'UTNN 141230Z 17006KT CAVOK 19/01 Q1011 R15/CLRD60 NOSIG', 'UTNN 141200Z 16008KT CAVOK 19/M01 Q1011 R15/CLRD60 NOSIG', 'UTNN 141130Z 15010KT CAVOK 20/M00 Q1011 R15/CLRD60 NOSIG', 'UTNN 141100Z 15008KT CAVOK 20/00 Q1012 R15/CLRD60 NOSIG', 'UTNN 141030Z 15008KT CAVOK 19/M00 Q1012 R15/CLRD60 NOSIG', 'UTNN 141000Z 15008KT CAVOK 19/M00 Q1012 R15/CLRD60 NOSIG', 'UTNN 140930Z 16008KT CAVOK 19/00 Q1013 R15/CLRD60 NOSIG', 'UTNN 140900Z 16006KT CAVOK 18/00 Q1013 R15/CLRD60 NOSIG', 'UTNN 140830Z 15006KT CAVOK 18/M00 Q1014 R15/CLRD60 NOSIG', 'UTNN 140800Z 17006KT CAVOK 18/00 Q1014 R15/CLRD60 NOSIG', 'UTNN 140730Z 15008KT CAVOK 17/M00 Q1015 R15/CLRD60 NOSIG', 'UTNN 140700Z 15008KT CAVOK 16/00 Q1015 R15/CLRD60 NOSIG', 'UTNN 140630Z 16010KT CAVOK 16/M00 Q1015 R15/CLRD60 NOSIG', 'UTNN 140600Z 14012KT CAVOK 15/M01 Q1015 R15/CLRD60 NOSIG', 'UTNN 140530Z 15012KT CAVOK 14/M00 Q1015 R15/CLRD60 NOSIG', 'UTNN 140500Z 14012KT CAVOK 12/M01 Q1015 R15/CLRD60 NOSIG', 'UTNN 140430Z 14010KT CAVOK 11/M00 Q1015 R15/CLRD60 NOSIG', 'UTNN 140400Z 14010KT CAVOK 10/M00 Q1015 R15/CLRD60 NOSIG', 'UTNN 140330Z 14012KT CAVOK 09/00 Q1016 R15/CLRD60 NOSIG', 'UTNN 140300Z 14010KT CAVOK 09/00 Q1015 R15/CLRD60 NOSIG', 'UTNN 140230Z 14010KT CAVOK 09/00 Q1015 R15/CLRD60 NOSIG', 'UTNN 140200Z 14010KT CAVOK 09/00 Q1016 R15/CLRD60 NOSIG', 'UTNN 140130Z 14010KT CAVOK 09/00 Q1016 R15/CLRD60 NOSIG', 'UTNN 140100Z 14010KT CAVOK 09/00 Q1016 R15/CLRD60 NOSIG', 'UTNN 140030Z 14010KT CAVOK 09/00 Q1016 R15/CLRD60 NOSIG', 'UTNN 140000Z 14010KT CAVOK 10/M00 Q1016 R15/CLRD60 NOSIG', 'UTNN 132330Z 14010KT CAVOK 10/M00 Q1016 R15/CLRD60 NOSIG', 'UTNN 132300Z 14010KT CAVOK 10/M00 Q1017 R15/CLRD60 NOSIG', 'UTNN 132230Z 14012KT CAVOK 11/M01 Q1017 R15/CLRD60 NOSIG', 'UTNN 132200Z 14010KT CAVOK 11/M01 Q1017 R15/CLRD60 NOSIG', 'UTNN 132130Z 13010KT CAVOK 11/M01 Q1017 R15/CLRD60 NOSIG', 'UTNN 132100Z 14010KT CAVOK 12/M02 Q1017 R15/CLRD60 NOSIG', 'UTNN 132030Z 12010KT CAVOK 12/M02 Q1018 R33/CLRD60 NOSIG', 'UTNN 132000Z 12006KT CAVOK 11/M02 Q1018 R33/CLRD60 NOSIG', 'UTNN 131930Z 12006KT CAVOK 11/M01 Q1018 R33/CLRD60 NOSIG', 'UTNN 131900Z 11006KT CAVOK 11/M01 Q1018 R33/CLRD60 NOSIG', 'UTNN 131830Z 11008KT CAVOK 12/M01 Q1018 R33/CLRD60 NOSIG', 'UTNN 131800Z 11006KT CAVOK 11/00 Q1018 R33/CLRD60 NOSIG', 'UTNN 131730Z 10006KT CAVOK 11/01 Q1018 R33/CLRD60 NOSIG', 'UTNN 131700Z 11006KT CAVOK 12/00 Q1019 R33/CLRD60 NOSIG', 'UTNN 131630Z 11006KT CAVOK 13/00 Q1019 R33/CLRD60 NOSIG', 'UTNN 131600Z 11006KT CAVOK 12/01 Q1019 R33/CLRD60 NOSIG', 'UTNN 131530Z 12004KT CAVOK 13/01 Q1019 R15/CLRD60 NOSIG', 'UTNN 131500Z 11004KT CAVOK 13/01 Q1019 R15/CLRD60 NOSIG', 'UTNN 131430Z 12006KT CAVOK 14/01 Q1019 R15/CLRD60 NOSIG', 'UTNN 131400Z 12008KT CAVOK 15/01 Q1019 R15/CLRD60 NOSIG', 'UTNN 131330Z 12006KT CAVOK 16/M00 Q1019 R15/CLRD60 NOSIG', 'UTNN 131300Z 13008KT CAVOK 18/M00 Q1019 R15/CLRD60 NOSIG', 'UTNN 131230Z 14010KT CAVOK 19/M01 Q1019 R15/CLRD60 NOSIG', 'UTNN 131200Z 14010KT CAVOK 20/M01 Q1019 R15/CLRD60 NOSIG', 'UTNN 131130Z 14010KT CAVOK 20/M00 Q1019 R15/CLRD60 NOSIG', 'UTNN 131100Z 16008KT CAVOK 20/00 Q1019 R15/CLRD60 NOSIG', 'UTNN 131030Z 16008KT CAVOK 19/01 Q1019 R15/CLRD60 NOSIG', 'UTNN 131000Z 15010KT CAVOK 19/01 Q1020 R15/CLRD60 NOSIG', 'UTNN 130930Z 16012KT CAVOK 18/01 Q1020 R15/CLRD60 NOSIG', 'UTNN 130900Z 15012KT CAVOK 18/01 Q1020 R15/CLRD60 NOSIG', 'UTNN 130830Z 15010KT CAVOK 16/01 Q1021 R15/CLRD60 NOSIG', 'UTNN 130800Z 15012KT CAVOK 16/00 Q1021 R15/CLRD60 NOSIG', 'UTNN 130730Z 15010KT CAVOK 15/01 Q1022 R15/CLRD60 NOSIG', 'UTNN 130700Z 16010KT CAVOK 14/01 Q1022 R15/CLRD60 NOSIG', 'UTNN 130630Z 16008KT CAVOK 13/01 Q1023 R15/CLRD60 NOSIG', 'UTNN 130600Z 16008KT CAVOK 11/01 Q1023 R15/CLRD60 NOSIG', 'UTNN 130530Z 16008KT CAVOK 10/01 Q1022 R15/CLRD60 NOSIG', 'UTNN 130500Z 15008KT CAVOK 10/01 Q1023 R15/CLRD60 NOSIG', 'UTNN 130430Z 15008KT CAVOK 09/01 Q1022 R15/CLRD60 NOSIG', 'UTNN 130400Z 14010KT CAVOK 08/01 Q1022 R15/CLRD60 NOSIG', 'UTNN 130330Z 14010KT CAVOK 07/01 Q1022 R15/CLRD60 NOSIG', 'UTNN 130300Z 14010KT CAVOK 07/01 Q1022 R15/CLRD60 NOSIG', 'UTNN 130230Z 14010KT CAVOK 07/01 Q1022 R15/CLRD60 NOSIG', 'UTNN 130200Z 14008KT CAVOK 07/01 Q1022 R15/CLRD60 NOSIG', 'UTNN 130130Z 14010KT CAVOK 07/01 Q1022 R15/CLRD60 NOSIG', 'UTNN 130100Z 13010KT CAVOK 07/01 Q1022 R33/CLRD60 NOSIG', 'UTNN 130030Z 13010KT CAVOK 07/00 Q1022 R33/CLRD60 NOSIG', 'UTNN 130000Z 13010KT CAVOK 07/M00 Q1022 R33/CLRD60 NOSIG', 'UTNN 122330Z 13008KT CAVOK 07/M00 Q1022 R33/CLRD60 NOSIG', 'UTNN 122300Z 13008KT CAVOK 07/M00 Q1022 R33/CLRD60 NOSIG', 'UTNN 122230Z 13008KT CAVOK 07/M00 Q1022 R33/CLRD60 NOSIG', 'UTNN 122200Z 12006KT CAVOK 06/M01 Q1022 R33/CLRD60 NOSIG', 'UTNN 122130Z 11004KT CAVOK 06/M01 Q1022 R33/CLRD60 NOSIG', 'UTNN 122100Z 09004KT CAVOK 05/M01 Q1023 R33/CLRD60 NOSIG', 'UTNN 122030Z 08004KT CAVOK 05/M01 Q1023 R33/CLRD60 NOSIG', 'UTNN 122000Z 06004KT CAVOK 05/M01 Q1023 R33/CLRD60 NOSIG', 'UTNN 121930Z 04004KT CAVOK 05/M01 Q1023 R33/CLRD60 NOSIG', 'UTNN 121900Z 05004KT CAVOK 06/M01 Q1023 R33/CLRD60 NOSIG', 'UTNN 121830Z 06004KT CAVOK 07/M01 Q1023 R33/CLRD60 NOSIG', 'UTNN 121800Z 06004KT CAVOK 08/M01 Q1024 R33/CLRD60 NOSIG', 'UTNN 121730Z 05006KT CAVOK 09/M01 Q1024 R33/CLRD60 NOSIG', 'UTNN 121700Z 06008KT CAVOK 09/M00 Q1024 R33/CLRD60 NOSIG', 'UTNN 121630Z 07008KT CAVOK 09/M00 Q1024 R33/CLRD60 NOSIG', 'UTNN 121600Z 06006KT CAVOK 09/00 Q1024 R33/CLRD60 NOSIG', 'UTNN 121530Z 07008KT CAVOK 10/00 Q1024 R33/CLRD60 NOSIG', 'UTNN 121500Z 06006KT CAVOK 10/00 Q1024 R33/CLRD60 NOSIG', 'UTNN 121430Z 06006KT CAVOK 10/00 Q1024 R33/CLRD60 NOSIG', 'UTNN 121400Z 06006KT CAVOK 11/00 Q1024 R33/CLRD60 NOSIG', 'UTNN 121330Z 07006KT CAVOK 12/M00 Q1024 R33/CLRD60 NOSIG', 'UTNN 121300Z 07008KT CAVOK 12/M00 Q1024 R33/CLRD60 NOSIG', 'UTNN 121230Z 07012KT CAVOK 13/M01 Q1024 R33/CLRD60 NOSIG', 'UTNN 121200Z 06012KT CAVOK 13/M01 Q1024 R33/CLRD60 NOSIG', 'UTNN 121130Z 07010KT CAVOK 13/M01 Q1024 R33/CLRD60 NOSIG', 'UTNN 121100Z 07012KT CAVOK 13/M01 Q1024 R33/CLRD60 NOSIG']","['2024-02-15 10:00:00', '2024-02-15 09:30:00', '2024-02-15 09:00:00', '2024-02-15 08:30:00', '2024-02-15 08:00:00', '2024-02-15 07:30:00', '2024-02-15 07:00:00', '2024-02-15 06:30:00', '2024-02-15 06:00:00', '2024-02-15 05:30:00', '2024-02-15 05:00:00', '2024-02-15 04:30:00', '2024-02-15 04:00:00', '2024-02-15 03:30:00', '2024-02-15 03:00:00', '2024-02-15 02:30:00', '2024-02-15 02:00:00', '2024-02-15 01:30:00', '2024-02-15 01:00:00', '2024-02-15 00:30:00', '2024-02-15 00:00:00', '2024-02-14 23:30:00', '2024-02-14 23:00:00', '2024-02-14 22:30:00', '2024-02-14 22:00:00', '2024-02-14 21:30:00', '2024-02-14 21:00:00', '2024-02-14 20:30:00', '2024-02-14 20:00:00', '2024-02-14 19:30:00', '2024-02-14 19:00:00', '2024-02-14 18:30:00', '2024-02-14 18:00:00', '2024-02-14 17:30:00', '2024-02-14 17:00:00', '2024-02-14 16:30:00', '2024-02-14 16:00:00', '2024-02-14 15:30:00', '2024-02-14 15:00:00', '2024-02-14 14:30:00', '2024-02-14 14:00:00', '2024-02-14 13:30:00', '2024-02-14 13:00:00', '2024-02-14 12:30:00', '2024-02-14 12:00:00', '2024-02-14 11:30:00', '2024-02-14 11:00:00', '2024-02-14 10:30:00', '2024-02-14 10:00:00', '2024-02-14 09:30:00', '2024-02-14 09:00:00', '2024-02-14 08:30:00', '2024-02-14 08:00:00', '2024-02-14 07:30:00', '2024-02-14 07:00:00', '2024-02-14 06:30:00', '2024-02-14 06:00:00', '2024-02-14 05:30:00', '2024-02-14 05:00:00', '2024-02-14 04:30:00', '2024-02-14 04:00:00', '2024-02-14 03:30:00', '2024-02-14 03:00:00', '2024-02-14 02:30:00', '2024-02-14 02:00:00', '2024-02-14 01:30:00', '2024-02-14 01:00:00', '2024-02-14 00:30:00', '2024-02-14 00:00:00', '2024-02-13 23:30:00', '2024-02-13 23:00:00', '2024-02-13 22:30:00', '2024-02-13 22:00:00', '2024-02-13 21:30:00', '2024-02-13 21:00:00', '2024-02-13 20:30:00', '2024-02-13 20:00:00', '2024-02-13 19:30:00', '2024-02-13 19:00:00', '2024-02-13 18:30:00', '2024-02-13 18:00:00', '2024-02-13 17:30:00', '2024-02-13 17:00:00', '2024-02-13 16:30:00', '2024-02-13 16:00:00', '2024-02-13 15:30:00', '2024-02-13 15:00:00', '2024-02-13 14:30:00', '2024-02-13 14:00:00', '2024-02-13 13:30:00', '2024-02-13 13:00:00', '2024-02-13 12:30:00', '2024-02-13 12:00:00', '2024-02-13 11:30:00', '2024-02-13 11:00:00', '2024-02-13 10:30:00', '2024-02-13 10:00:00', '2024-02-13 09:30:00', '2024-02-13 09:00:00', '2024-02-13 08:30:00', '2024-02-13 08:00:00', '2024-02-13 07:30:00', '2024-02-13 07:00:00', '2024-02-13 06:30:00', '2024-02-13 06:00:00', '2024-02-13 05:30:00', '2024-02-13 05:00:00', '2024-02-13 04:30:00', '2024-02-13 04:00:00', '2024-02-13 03:30:00', '2024-02-13 03:00:00', '2024-02-13 02:30:00', '2024-02-13 02:00:00', '2024-02-13 01:30:00', '2024-02-13 01:00:00', '2024-02-13 00:30:00', '2024-02-13 00:00:00', '2024-02-12 23:30:00', '2024-02-12 23:00:00', '2024-02-12 22:30:00', '2024-02-12 22:00:00', '2024-02-12 21:30:00', '2024-02-12 21:00:00', '2024-02-12 20:30:00', '2024-02-12 20:00:00', '2024-02-12 19:30:00', '2024-02-12 19:00:00', '2024-02-12 18:30:00', '2024-02-12 18:00:00', '2024-02-12 17:30:00', '2024-02-12 17:00:00', '2024-02-12 16:30:00', '2024-02-12 16:00:00', '2024-02-12 15:30:00', '2024-02-12 15:00:00', '2024-02-12 14:30:00', '2024-02-12 14:00:00', '2024-02-12 13:30:00', '2024-02-12 13:00:00', '2024-02-12 12:30:00', '2024-02-12 12:00:00', '2024-02-12 11:30:00', '2024-02-12 11:00:00']"
Uzbekistan, Samarkand International Airport (SKD/UTSS) ,"['UTSS 151000Z 29006KT 240V320 9999 NSC 20/M00 Q1015 R27/CLRD70 NOSIG', 'UTSS 150930Z 29008KT 9999 NSC 20/01 Q1015 R27/CLRD70 NOSIG', 'UTSS 150900Z 29006KT 270V340 9999 NSC 19/M00 Q1016 R27/CLRD70 NOSIG', 'UTSS 150830Z 30006KT 280V350 9999 NSC 18/00 Q1016 R27/CLRD70 NOSIG', 'UTSS 150800Z 31006KT 280V350 9999 NSC 17/M00 Q1016 R27/CLRD70 NOSIG', 'UTSS 150730Z 33004KT 280V020 9999 NSC 17/M01 Q1016 R27/CLRD70 NOSIG', 'UTSS 150700Z 34004KT 280V040 9999 NSC 16/M02 Q1017 R27/CLRD70 NOSIG', 'UTSS 150630Z 29006KT 250V350 9999 NSC 15/M03 Q1017 R27/CLRD70 NOSIG', 'UTSS 150600Z 31006KT 280V030 9999 NSC 14/M03 Q1017 R27/CLRD70 NOSIG', 'UTSS 150530Z 32006KT 280V350 9999 NSC 14/M03 Q1017 R27/CLRD70 NOSIG', 'UTSS 150500Z 29010KT 9999 NSC 13/M04 Q1017 R27/CLRD70 NOSIG', 'UTSS 150430Z 29008KT 9999 NSC 12/M04 Q1017 R27/CLRD70 NOSIG', 'UTSS 150400Z 29010KT 9999 NSC 12/M04 Q1017 R27/CLRD70 NOSIG', 'UTSS 150330Z 29010KT 9999 NSC 11/M03 Q1017 R27/CLRD70 NOSIG', 'UTSS 150300Z 29004KT 9999 NSC 10/M03 Q1016 R27/CLRD70 NOSIG', 'UTSS 150230Z 29008KT 9999 NSC 11/M04 Q1016 R27/CLRD70 NOSIG', 'UTSS 150200Z 31012KT 9999 NSC 13/M04 Q1016 R09/CLRD70 NOSIG', 'UTSS 150130Z 21010KT 180V240 9999 NSC 18/M09 Q1015 R09/CLRD70 NOSIG', 'UTSS 150100Z 20006KT 150V230 9999 NSC 14/M06 Q1015 R09/CLRD70 NOSIG', 'UTSS 150030Z 16006KT 120V190 9999 NSC 12/M05 Q1015 R09/CLRD70 NOSIG', 'UTSS 150000Z 14004KT 100V170 9999 NSC 11/M05 Q1015 R09/CLRD70 NOSIG', 'UTSS 142330Z 16006KT 9999 NSC 15/M07 Q1015 R09/CLRD70 NOSIG', 'UTSS 142300Z 16004KT 9999 NSC 15/M07 Q1015 R09/CLRD70 NOSIG', 'UTSS 142230Z 17006KT 150V220 9999 NSC 14/M05 Q1015 R09/CLRD70 NOSIG', 'UTSS 142200Z 16006KT 9999 NSC 14/M05 Q1015 R09/CLRD70 NOSIG', 'UTSS 142130Z 16006KT 9999 NSC 12/M04 Q1016 R09/CLRD70 NOSIG', 'UTSS 142100Z 16004KT 100V210 9999 NSC 11/M04 Q1016 R09/CLRD70 NOSIG', 'UTSS 142030Z VRB02KT 9999 NSC 12/M04 Q1016 R09/CLRD70 NOSIG', 'UTSS 142000Z 17004KT 140V220 9999 NSC 14/M05 Q1016 R09/CLRD70 NOSIG', 'UTSS 141930Z 16008KT 9999 NSC 13/M04 Q1016 R27/CLRD70 NOSIG', 'UTSS 141900Z 16008KT 9999 NSC 13/M03 Q1016 R27/CLRD70 NOSIG', 'UTSS 141830Z 15008KT 110V220 9999 NSC 13/M02 Q1016 R27/CLRD70 NOSIG', 'UTSS 141800Z 15008KT 9999 NSC 12/M02 Q1017 R27/CLRD70 NOSIG', 'UTSS 141730Z 13006KT 110V170 9999 NSC 12/M02 Q1017 R09/CLRD70 NOSIG', 'UTSS 141700Z VRB02KT 9999 NSC 12/M01 Q1017 R09/CLRD70 NOSIG', 'UTSS 141630Z VRB02KT 9999 NSC 12/M02 Q1017 R27/CLRD70 NOSIG', 'UTSS 141600Z 14004KT 100V160 9999 NSC 13/M02 Q1017 R27/CLRD70 NOSIG', 'UTSS 141530Z VRB02KT 9999 NSC 13/M01 Q1018 R27/CLRD70 NOSIG', 'UTSS 141500Z 16004KT 100V220 9999 NSC 14/M02 Q1018 R27/CLRD70 NOSIG', 'UTSS 141430Z VRB02KT 9999 NSC 14/M01 Q1018 R27/CLRD70 NOSIG', 'UTSS 141400Z 00000KT 9999 NSC 14/M02 Q1018 R27/CLRD70 NOSIG', 'UTSS 141330Z 00000KT 9999 NSC 17/M02 Q1018 R09/CLRD70 NOSIG', 'UTSS 141300Z VRB02KT 9999 NSC 17/M03 Q1017 R09/CLRD70 NOSIG', 'UTSS 141230Z 31006KT 9999 NSC 19/M05 Q1017 R09/CLRD70 NOSIG', 'UTSS 141200Z 32004KT 290V350 9999 NSC 21/M06 Q1017 R09/CLRD70 NOSIG', 'UTSS 141130Z VRB02KT 9999 NSC 22/M08 Q1017 R09/CLRD70 NOSIG', 'UTSS 141100Z 30004KT 210V020 9999 NSC 22/M08 Q1017 R09/CLRD70 NOSIG', 'UTSS 141030Z 31006KT 280V030 9999 NSC 22/M06 Q1017 R27/CLRD70 NOSIG', 'UTSS 141000Z VRB02KT 9999 NSC 23/M07 Q1018 R27/CLRD70 NOSIG', 'UTSS 140930Z 07006KT 040V100 9999 NSC 22/M05 Q1018 R09/CLRD70 NOSIG', 'UTSS 140900Z 07006KT 020V130 9999 NSC 21/M07 Q1018 R09/CLRD70 NOSIG', 'UTSS 140830Z 08008KT 050V120 9999 NSC 21/M05 Q1018 R09/CLRD70 NOSIG', 'UTSS 140800Z 08010KT 9999 NSC 21/M08 Q1019 R09/CLRD70 NOSIG', 'UTSS 140730Z 10010KT 9999 NSC 21/M05 Q1019 R09/CLRD70 NOSIG', 'UTSS 140700Z 12012KT 9999 NSC 20/M06 Q1020 R09/CLRD70 NOSIG', 'UTSS 140630Z 11012KT 9999 NSC 19/M06 Q1020 R09/CLRD70 NOSIG', 'UTSS 140600Z 12010KT 9999 NSC 19/M06 Q1021 R09/CLRD70 NOSIG', 'UTSS 140530Z 12010KT 9999 NSC 17/M05 Q1021 R09/CLRD70 NOSIG', 'UTSS 140500Z 14010KT 9999 NSC 15/M05 Q1021 R09/CLRD70 NOSIG', 'UTSS 140430Z 15012KT 9999 NSC 14/M06 Q1021 R09/CLRD70 NOSIG', 'UTSS 140400Z 15012KT 9999 NSC 12/M06 Q1021 R09/CLRD70 NOSIG', 'UTSS 140330Z 14010KT 9999 NSC 10/M05 Q1021 R09/CLRD70 NOSIG', 'UTSS 140300Z 08006KT 9999 NSC 07/M04 Q1021 R09/CLRD70 NOSIG', 'UTSS 140230Z 09004KT 050150 9999 NSC 07/M05 Q1020 R09/CLRD70 NOSIG', 'UTSS 140200Z 14004KT 110V180 9999 NSC 08/M05 Q1021 R09/CLRD70 NOSIG', 'UTSS 140130Z 14008KT 9999 NSC 09/M05 Q1021 R09/CLRD70 NOSIG', 'UTSS 140100Z 14012KT 9999 NSC 09/M05 Q1021 R09/CLRD70 NOSIG', 'UTSS 140030Z 14012KT 9999 NSC 10/M05 Q1021 R09/CLRD70 NOSIG', 'UTSS 140000Z 13010KT 9999 NSC 08/M03 Q1021 R09/CLRD70 NOSIG', 'UTSS 132330Z 14010KT 9999 NSC 087/M032 Q1021 R09/CLRD70 NOSIG', 'UTSS 132300Z 13006KT 9999 NSC 07/M02 Q1021 R09/CLRD70 NOSIG', 'UTSS 132230Z 14008KT 110V170 9999 NSC 07/M02 Q1021 R09/CLRD70 NOSIG', 'UTSS 132200Z 14010KT 9999 NSC 07/M02 Q1021 R09/CLRD70 NOSIG', 'UTSS 132130Z 12008KT 9999 NSC 07/M01 Q1021 R09/CLRD70 NOSIG', 'UTSS 132100Z 12006KT 9999 NSC 06/M00 Q1022 R09/CLRD70 NOSIG', 'UTSS 132030Z 14008KT 9999 NSC 07/00 Q1022 R09/CLRD70 NOSIG', 'UTSS 132000Z 12008KT 9999 NSC 06/01 Q1022 R09/CLRD70 NOSIG', 'UTSS 131930Z 12004KT 9999 NSC 07/01 Q1022 R09/CLRD70 NOSIG', 'UTSS 131900Z 11004KT 9999 NSC 07/02 Q1022 R09/CLRD70 NOSIG', 'UTSS 131830Z 14006KT 9999 NSC 07/02 Q1022 R09/CLRD70 NOSIG', 'UTSS 131800Z 13008KT 9999 NSC 08/02 Q1023 R09/CLRD70 NOSIG', 'UTSS 131730Z 14008KT 9999 NSC 09/02 Q1022 R09/CLRD70 NOSIG', 'UTSS 131700Z 14008KT 9999 NSC 09/03 Q1023 R09/CLRD70 NOSIG', 'UTSS 131630Z 15008KT 9999 NSC 09/03 Q1023 R09/CLRD70 NOSIG', 'UTSS 131600Z 16004KT 9999 NSC 10/02 Q1022 R09/CLRD70 NOSIG', 'UTSS 131530Z 16004KT 9999 NSC 10/02 Q1022 R09/CLRD70 NOSIG', 'UTSS 131500Z 16004KT 9999 NSC 10/01 Q1022 R09/CLRD70 NOSIG', 'UTSS 131430Z 13004KT 9999 NSC 10/01 Q1022 R09/CLRD70 NOSIG', 'UTSS 131400Z 12006KT 9999 NSC 10/01 Q1022 R09/CLRD70 NOSIG', 'UTSS 131330Z 00000KT 9999 NSC 12/01 Q1022 R09/CLRD70 NOSIG', 'UTSS 131300Z 35004KT 9999 NSC 14/01 Q1021 R09/CLRD70 NOSIG', 'UTSS 131230Z 32004KT 290V360 9999 NSC 16/M00 Q1021 R27/CLRD70 NOSIG', 'UTSS 131200Z 32006KT 280V360 9999 NSC 17/M04 Q1021 R27/CLRD70 NOSIG', 'UTSS 131130Z 34004KT 280V030 9999 NSC 17/M03 Q1021 R27/CLRD70 NOSIG', 'UTSS 131100Z 34006KT 280V040 9999 NSC 18/M03 Q1021 R27/CLRD70 NOSIG', 'UTSS 131030Z 33004KT 280V060 9999 NSC 18/M04 Q1022 R09/CLRD70 NOSIG', 'UTSS 131000Z 25004KT 190V350 9999 NSC 19/M04 Q1022 R09/CLRD70 NOSIG', 'UTSS 130930Z 08004KT 9999 NSC 18/M04 Q1022 R09/CLRD70 NOSIG', 'UTSS 130900Z 13004KT 070V230 9999 NSC 18/M04 Q1022 R09/CLRD70 NOSIG', 'UTSS 130830Z 14008KT 080V170 9999 NSC 17/M01 Q1023 R09/CLRD70 NOSIG', 'UTSS 130800Z 13008KT 090V170 9999 NSC 17/01 Q1023 R09/CLRD70 NOSIG', 'UTSS 130730Z 12008KT 090V150 9999 NSC 15/01 Q1024 R09/CLRD70 NOSIG', 'UTSS 130700Z 12012KT 9999 NSC 14/M00 Q1024 R09/CLRD70 NOSIG', 'UTSS 130630Z 12012KT 9999 NSC 14/M01 Q1025 R09/CLRD70 NOSIG', 'UTSS 130600Z 11010KT 9999 NSC 13/00 Q1025 R09/CLRD70 NOSIG', 'UTSS 130530Z 12012KT 9999 NSC 12/01 Q1025 R09/CLRD70 NOSIG', 'UTSS 130500Z 12010KT 090V150 9999 NSC 11/00 Q1025 R09/CLRD70 NOSIG', 'UTSS 130430Z 12010KT 9999 NSC 10/M00 Q1025 R09/CLRD70 NOSIG', 'UTSS 130400Z 12012KT 9999 NSC 08/M01 Q1025 R09/CLRD70 NOSIG', 'UTSS 130330Z 13010KT 9999 NSC 07/M01 Q1025 R09/CLRD70 NOSIG', 'UTSS 130300Z 14012KT 9999 NSC 06/M02 Q1024 R09/CLRD70 NOSIG', 'UTSS 130230Z 12012KT 9999 NSC 06/M02 Q1024 R09/CLRD70 NOSIG', 'UTSS 130200Z 13010KT 9999 NSC 06/M02 Q1024 R09/CLRD70 NOSIG', 'UTSS 130130Z 14012KT 9999 NSC 06/M02 Q1024 R09/CLRD70 NOSIG', 'UTSS 130100Z 13010KT 9999 NSC 05/M02 Q1024 R09/CLRD70 NOSIG', 'UTSS 130030Z 16012KT 9999 NSC 04/M02 Q1024 R27/CLRD70 NOSIG', 'UTSS 130000Z 13012KT 9999 NSC 05/M01 Q1024 R09/CLRD70 NOSIG', 'UTSS 122330Z 14010KT 9999 NSC 05/M01 Q1024 R09/CLRD70 NOSIG', 'UTSS 122300Z 12010KT 9999 NSC 05/M01 Q1024 R09/CLRD70 NOSIG', 'UTSS 122230Z 10008KT 9999 NSC 02/M01 Q1024 R09/CLRD70 NOSIG', 'UTSS 122200Z 10006KT 9999 NSC 02/M01 Q1024 R09/CLRD70 NOSIG', 'UTSS 122130Z 12006KT 9999 NSC 04/M00 Q1024 R09/CLRD70 NOSIG', 'UTSS 122100Z 12008KT 9999 NSC 04/00 Q1024 R09/CLRD70 NOSIG', 'UTSS 122030Z 13008KT 9999 NSC 05/00 Q1025 R09/CLRD70 NOSIG', 'UTSS 122000Z 14006KT 9999 NSC 05/00 Q1025 R09/CLRD70 NOSIG', 'UTSS 121930Z 14008KT 9999 NSC 06/00 Q1025 R09/CLRD70 NOSIG', 'UTSS 121900Z 15008KT 9999 NSC 06/00 Q1025 R09/CLRD70 NOSIG', 'UTSS 121830Z 15010KT 9999 NSC 06/M00 Q1025 R09/CLRD70 NOSIG', 'UTSS 121800Z 14008KT 9999 NSC 07/M00 Q1025 R09/CLRD70 NOSIG', 'UTSS 121730Z 15008KT 9999 NSC 07/00 Q1025 R09/CLRD70 NOSIG', 'UTSS 121700Z 14008KT 110V170 9999 NSC 07/M00 Q1025 R09/CLRD70 NOSIG', 'UTSS 121630Z 14008KT 9999 NSC 08/M00 Q1025 R09/CLRD70 NOSIG', 'UTSS 121600Z 14008KT 9999 NSC 08/M00 Q1025 R09/CLRD70 NOSIG', 'UTSS 121530Z 15008KT 9999 NSC 08/M00 Q1025 R09/CLRD70 NOSIG', 'UTSS 121500Z 15010KT 9999 NSC 08/00 Q1025 R09/CLRD70 NOSIG', 'UTSS 121430Z 15008KT 9999 NSC 08/01 Q1025 R09/CLRD70 NOSIG', 'UTSS 121400Z 14008KT 110V170 9999 NSC 09/00 Q1025 R09/CLRD70 NOSIG', 'UTSS 121330Z 15006KT 110V170 9999 NSC 09/00 Q1024 R09/CLRD70 NOSIG', 'UTSS 121300Z 14008KT 9999 NSC 10/01 Q1024 R09/CLRD70 NOSIG', 'UTSS 121230Z 14010KT 9999 NSC 11/00 Q1024 R09/CLRD70 NOSIG', 'UTSS 121200Z 12010KT 9999 NSC 12/00 Q1024 R09/CLRD70 NOSIG', 'UTSS 121130Z 12012KT 9999 NSC 13/M01 Q1024 R09/CLRD70 NOSIG', 'UTSS 121100Z 13010KT 080V170 9999 NSC 14/02 Q1024 R09/CLRD70 NOSIG']","['2024-02-15 10:00:00', '2024-02-15 09:30:00', '2024-02-15 09:00:00', '2024-02-15 08:30:00', '2024-02-15 08:00:00', '2024-02-15 07:30:00', '2024-02-15 07:00:00', '2024-02-15 06:30:00', '2024-02-15 06:00:00', '2024-02-15 05:30:00', '2024-02-15 05:00:00', '2024-02-15 04:30:00', '2024-02-15 04:00:00', '2024-02-15 03:30:00', '2024-02-15 03:00:00', '2024-02-15 02:30:00', '2024-02-15 02:00:00', '2024-02-15 01:30:00', '2024-02-15 01:00:00', '2024-02-15 00:30:00', '2024-02-15 00:00:00', '2024-02-14 23:30:00', '2024-02-14 23:00:00', '2024-02-14 22:30:00', '2024-02-14 22:00:00', '2024-02-14 21:30:00', '2024-02-14 21:00:00', '2024-02-14 20:30:00', '2024-02-14 20:00:00', '2024-02-14 19:30:00', '2024-02-14 19:00:00', '2024-02-14 18:30:00', '2024-02-14 18:00:00', '2024-02-14 17:30:00', '2024-02-14 17:00:00', '2024-02-14 16:30:00', '2024-02-14 16:00:00', '2024-02-14 15:30:00', '2024-02-14 15:00:00', '2024-02-14 14:30:00', '2024-02-14 14:00:00', '2024-02-14 13:30:00', '2024-02-14 13:00:00', '2024-02-14 12:30:00', '2024-02-14 12:00:00', '2024-02-14 11:30:00', '2024-02-14 11:00:00', '2024-02-14 10:30:00', '2024-02-14 10:00:00', '2024-02-14 09:30:00', '2024-02-14 09:00:00', '2024-02-14 08:30:00', '2024-02-14 08:00:00', '2024-02-14 07:30:00', '2024-02-14 07:00:00', '2024-02-14 06:30:00', '2024-02-14 06:00:00', '2024-02-14 05:30:00', '2024-02-14 05:00:00', '2024-02-14 04:30:00', '2024-02-14 04:00:00', '2024-02-14 03:30:00', '2024-02-14 03:00:00', '2024-02-14 02:30:00', '2024-02-14 02:00:00', '2024-02-14 01:30:00', '2024-02-14 01:00:00', '2024-02-14 00:30:00', '2024-02-14 00:00:00', '2024-02-13 23:30:00', '2024-02-13 23:00:00', '2024-02-13 22:30:00', '2024-02-13 22:00:00', '2024-02-13 21:30:00', '2024-02-13 21:00:00', '2024-02-13 20:30:00', '2024-02-13 20:00:00', '2024-02-13 19:30:00', '2024-02-13 19:00:00', '2024-02-13 18:30:00', '2024-02-13 18:00:00', '2024-02-13 17:30:00', '2024-02-13 17:00:00', '2024-02-13 16:30:00', '2024-02-13 16:00:00', '2024-02-13 15:30:00', '2024-02-13 15:00:00', '2024-02-13 14:30:00', '2024-02-13 14:00:00', '2024-02-13 13:30:00', '2024-02-13 13:00:00', '2024-02-13 12:30:00', '2024-02-13 12:00:00', '2024-02-13 11:30:00', '2024-02-13 11:00:00', '2024-02-13 10:30:00', '2024-02-13 10:00:00', '2024-02-13 09:30:00', '2024-02-13 09:00:00', '2024-02-13 08:30:00', '2024-02-13 08:00:00', '2024-02-13 07:30:00', '2024-02-13 07:00:00', '2024-02-13 06:30:00', '2024-02-13 06:00:00', '2024-02-13 05:30:00', '2024-02-13 05:00:00', '2024-02-13 04:30:00', '2024-02-13 04:00:00', '2024-02-13 03:30:00', '2024-02-13 03:00:00', '2024-02-13 02:30:00', '2024-02-13 02:00:00', '2024-02-13 01:30:00', '2024-02-13 01:00:00', '2024-02-13 00:30:00', '2024-02-13 00:00:00', '2024-02-12 23:30:00', '2024-02-12 23:00:00', '2024-02-12 22:30:00', '2024-02-12 22:00:00', '2024-02-12 21:30:00', '2024-02-12 21:00:00', '2024-02-12 20:30:00', '2024-02-12 20:00:00', '2024-02-12 19:30:00', '2024-02-12 19:00:00', '2024-02-12 18:30:00', '2024-02-12 18:00:00', '2024-02-12 17:30:00', '2024-02-12 17:00:00', '2024-02-12 16:30:00', '2024-02-12 16:00:00', '2024-02-12 15:30:00', '2024-02-12 15:00:00', '2024-02-12 14:30:00', '2024-02-12 14:00:00', '2024-02-12 13:30:00', '2024-02-12 13:00:00', '2024-02-12 12:30:00', '2024-02-12 12:00:00', '2024-02-12 11:30:00', '2024-02-12 11:00:00']"
Uzbekistan, Tashkent International Airport (TAS/UTTT) ,"['UTTT 151000Z 18004KT 7000 NSC 19/01 Q1015 R08L/CLRD70 NOSIG', 'UTTT 150930Z 18004KT 7000 NSC 20/01 Q1015 R08L/CLRD70 NOSIG', 'UTTT 150900Z 20004KT 170V240 7000 NSC 19/01 Q1015 R08L/CLRD70 NOSIG', 'UTTT 150830Z 21004KT 170V240 7000 NSC 19/01 Q1016 R08R/CLRD70 NOSIG', 'UTTT 150800Z 20006KT 170V230 7000 NSC 19/00 Q1016 R08R/CLRD70 NOSIG', 'UTTT 150730Z 20008G18KT 180V240 7000 NSC 18/01 Q1016 R08R/CLRD70 NOSIG', 'UTTT 150700Z 18008KT 7000 NSC 17/03 Q1016 R08R/CLRD70 NOSIG', 'UTTT 150630Z 19008KT 160V220 7000 NSC 16/02 Q1016 R08R/CLRD70 NOSIG', 'UTTT 150600Z 21004KT 160V260 7000 NSC 16/01 Q1016 R08R/CLRD70 NOSIG', 'UTTT 150530Z 21006KT 160V250 7000 NSC 15/02 Q1015 R08R/CLRD70 NOSIG', 'UTTT 150500Z 25004KT 7000 NSC 16/01 Q1015 R08R/CLRD70 NOSIG', 'UTTT 150430Z 08006KT 7000 NSC 14/03 Q1014 R08R/CLRD70 NOSIG', 'UTTT 150400Z 07006KT CAVOK 13/01 Q1014 R08R/CLRD70 NOSIG', 'UTTT 150330Z 08010KT CAVOK 11/01 Q1014 R08R/CLRD70 NOSIG', 'UTTT 150300Z 07008KT CAVOK 11/M00 Q1014 R08R/CLRD70 NOSIG', 'UTTT 150230Z 08008KT 9999 SCT046 10/M01 Q1014 R08R/CLRD70 NOSIG', 'UTTT 150200Z 08008KT CAVOK 10/M01 Q1014 R08R/CLRD70 NOSIG', 'UTTT 150130Z 07006KT CAVOK 09/M00 Q1014 R08R/CLRD70 NOSIG', 'UTTT 150100Z 07008KT CAVOK 11/M02 Q1014 R08R/CLRD70 NOSIG', 'UTTT 150030Z 06010KT CAVOK 11/M02 Q1014 R08R/CLRD70 NOSIG', 'UTTT 150000Z 09006KT CAVOK 10/M01 Q1014 R08R/CLRD70 NOSIG', 'UTTT 142330Z 13006KT 090V210 CAVOK 12/M02 Q1015 R08R/CLRD70 NOSIG', 'UTTT 142300Z 10008KT 080V140 CAVOK 10/M02 Q1015 R08R/CLRD70 NOSIG', 'UTTT 142230Z 08006KT CAVOK 11/M02 Q1015 R08R/CLRD70 NOSIG', 'UTTT 142200Z 09008KT CAVOK 10/M01 Q1015 R08R/CLRD70 NOSIG', 'UTTT 142130Z 08010KT CAVOK 10/M01 Q1015 R08R/CLRD70 NOSIG', 'UTTT 142100Z 07010KT CAVOK 12/M02 Q1015 R08R/CLRD70 NOSIG', 'UTTT 142030Z 06010KT CAVOK 12/M03 Q1015 R08R/CLRD70 NOSIG', 'UTTT 142000Z 06008KT CAVOK 12/M02 Q1016 R08R/CLRD70 NOSIG', 'UTTT 141930Z 07008KT CAVOK 10/M01 Q1016 R08R/CLRD70 NOSIG', 'UTTT 141900Z 06008KT CAVOK 12/M02 Q1016 R08R/CLRD70 NOSIG', 'UTTT 141830Z 07008KT CAVOK 12/M01 Q1016 R08R/CLRD70 NOSIG', 'UTTT 141800Z 07006KT CAVOK 11/M00 Q1017 R08R/CLRD70 NOSIG', 'UTTT 141730Z 03006KT CAVOK 13/M01 Q1017 R08R/CLRD70 NOSIG', 'UTTT 141700Z 08008KT CAVOK 10/01 Q1017 R08R/CLRD70 NOSIG', 'UTTT 141630Z 08008KT CAVOK 10/01 Q1018 R08R/CLRD70 NOSIG', 'UTTT 141600Z 09008KT CAVOK 11/00 Q1018 R08R/CLRD70 NOSIG', 'UTTT 141530Z 08010KT CAVOK 10/00 Q1018 R08R/CLRD70 NOSIG', 'UTTT 141500Z 08010KT CAVOK 11/M00 Q1018 R08R/CLRD70 NOSIG', 'UTTT 141430Z 07008KT CAVOK 13/M02 Q1018 R08R/CLRD70 NOSIG', 'UTTT 141400Z 09008KT CAVOK 12/M01 Q1018 R08R/CLRD70 NOSIG', 'UTTT 141330Z 08006KT CAVOK 14/M01 Q1018 R08R/CLRD70 NOSIG', 'UTTT 141300Z 06004KT 350V100 CAVOK 17/M02 Q1018 R08R/CLRD70 NOSIG', 'UTTT 141230Z 31004KT 270V050 CAVOK 20/M04 Q1018 R08R/CLRD70 NOSIG', 'UTTT 141200Z 30004KT 260V360 CAVOK 20/M03 Q1018 R08R/CLRD70 NOSIG', 'UTTT 141130Z 28006KT CAVOK 20/M02 Q1018 R08R/CLRD70 NOSIG', 'UTTT 141100Z 26004KT CAVOK 21/M00 Q1018 R08R/CLRD70 NOSIG', 'UTTT 141030Z 27004KT 230V350 CAVOK 22/M02 Q1018 R08R/CLRD70 NOSIG', 'UTTT 141000Z 19004KT 080V220 CAVOK 22/M08 Q1019 R08R/CLRD70 NOSIG', 'UTTT 140930Z 24004KT 180V300 CAVOK 22/M05 Q1019 R08R/CLRD70 NOSIG', 'UTTT 140900Z VRB02KT CAVOK 22/M03 Q1019 R08R/CLRD70 NOSIG', 'UTTT 140830Z 20004KT 130V270 CAVOK 21/M05 Q1020 R08R/CLRD70 NOSIG', 'UTTT 140800Z 19002KT CAVOK 21/M03 Q1020 R08R/CLRD70 NOSIG', 'UTTT 140730Z 15002KT CAVOK 21/M02 Q1020 R08R/CLRD70 NOSIG', 'UTTT 140700Z VRB02KT CAVOK 19/M01 Q1021 R08R/CLRD70 NOSIG', 'UTTT 140630Z 09006KT CAVOK 18/M02 Q1021 R08R/CLRD70 NOSIG', 'UTTT 140600Z 09006KT CAVOK 17/M02 Q1021 R08R/CLRD70 NOSIG', 'UTTT 140530Z 08008KT CAVOK 16/M01 Q1021 R08R/CLRD70 NOSIG', 'UTTT 140500Z 07006KT CAVOK 14/M01 Q1022 R08R/CLRD70 NOSIG', 'UTTT 140430Z 07006KT CAVOK 13/M01 Q1022 R08R/CLRD70 NOSIG', 'UTTT 140400Z 07006KT CAVOK 10/02 Q1022 R08R/CLRD70 NOSIG', 'UTTT 140330Z 08006KT CAVOK 08/M01 Q1022 R08R/CLRD70 NOSIG', 'UTTT 140300Z 09006KT CAVOK 05/M02 Q1022 R08R/CLRD70 NOSIG', 'UTTT 140230Z 07008KT CAVOK 06/M02 Q1022 R08R/CLRD70 NOSIG', 'UTTT 140200Z 07006KT CAVOK 05/M03 Q1022 R08R/CLRD70 NOSIG', 'UTTT 140130Z 10004KT CAVOK 07/M02 Q1022 R08R/CLRD70 NOSIG', 'UTTT 140100Z 12004KT 080V150 CAVOK 07/M02 Q1022 R08R/CLRD70 NOSIG', 'UTTT 140030Z 07006KT CAVOK 06/M03 Q1022 R08R/CLRD70 NOSIG', 'UTTT 140000Z 00000KT CAVOK 06/M02 Q1022 R08R/CLRD70 NOSIG', 'UTTT 132330Z 05004KT CAVOK 07/M01 Q1022 R08R/CLRD70 NOSIG', 'UTTT 132300Z 07004KT CAVOK 05/M01 Q1022 R08R/CLRD70 NOSIG', 'UTTT 132230Z 00000KT CAVOK 05/M01 Q1022 R08R/CLRD70 NOSIG', 'UTTT 132200Z 00000KT CAVOK 06/M00 Q1022 R08R/CLRD70 NOSIG', 'UTTT 132130Z 00000KT CAVOK 05/M00 Q1023 R08R/CLRD70 NOSIG', 'UTTT 132100Z 00000KT CAVOK 06/M01 Q1023 R08R/CLRD70 NOSIG', 'UTTT 132030Z 10004KT CAVOK 07/M00 Q1023 R08R/CLRD70 NOSIG', 'UTTT 132000Z 06004KT CAVOK 07/M00 Q1023 R08R/CLRD70 NOSIG', 'UTTT 131930Z 08004KT CAVOK 07/M00 Q1023 R08R/CLRD70 NOSIG', 'UTTT 131900Z 07004KT CAVOK 07/01 Q1024 R08R/CLRD70 NOSIG', 'UTTT 131830Z 07006KT 4000 BR NSC 07/02 Q1024 R08R/CLRD70 NOSIG', 'UTTT 131800Z 10006KT 4000 BR NSC 08/04 Q1024 R08R/CLRD70 NOSIG', 'UTTT 131730Z 07004KT 4000 BR NSC 07/03 Q1024 R08R/CLRD70 NOSIG', 'UTTT 131700Z 07006KT CAVOK 08/02 Q1024 R08R/CLRD70 NOSIG', 'UTTT 131630Z 10006KT CAVOK 09/04 Q1024 R08R/CLRD70 NOSIG', 'UTTT 131600Z 07006KT CAVOK 09/04 Q1024 R08R/CLRD70 NOSIG', 'UTTT 131530Z VRB02KT CAVOK 11/04 Q1024 R08R/CLRD70 NOSIG', 'UTTT 131500Z 00000KT CAVOK 11/04 Q1024 R08R/CLRD70 NOSIG', 'UTTT 131430Z 32004KT CAVOK 12/05 Q1024 R08R/CLRD70 NOSIG', 'UTTT 131400Z 33004KT CAVOK 12/05 Q1024 R08R/CLRD70 NOSIG', 'UTTT 131330Z 32004KT CAVOK 12/05 Q1024 R08R/CLRD70 NOSIG', 'UTTT 131300Z 31006KT CAVOK 13/05 Q1024 R08R/CLRD70 NOSIG', 'UTTT 131230Z 32004KT 290V060 7000 NSC 14/04 Q1023 R08L/CLRD70 NOSIG', 'UTTT 131200Z 33006KT 300V360 7000 NSC 14/04 Q1024 R08L/CLRD70 NOSIG', 'UTTT 131130Z 31006KT 280V350 7000 NSC 15/04 Q1024 R08L/CLRD70 NOSIG', 'UTTT 131100Z 31008KT 5000 FU NSC 15/04 Q1024 R08L/CLRD70 NOSIG', 'UTTT 131030Z 30006KT 280V340 4000 FU NSC 15/05 Q1024 R08R/CLRD70 NOSIG', 'UTTT 131000Z 27006KT 4000 FU NSC 15/04 Q1024 R08R/CLRD70 NOSIG', 'UTTT 130930Z 25004KT 190V290 4000 FU NSC 15/04 Q1025 R08R/CLRD70 NOSIG', 'UTTT 130900Z 26004KT 4000 FU NSC 14/03 Q1025 R08R/CLRD70 NOSIG', 'UTTT 130830Z VRB02KT 3000 FU NSC 14/05 Q1025 R08R/CLRD70 NOSIG', 'UTTT 130800Z 23004KT 190V280 3000 FU NSC 12/05 Q1026 R08R/CLRD70 NOSIG', 'UTTT 130730Z 19004KT 2700 FU NSC 11/05 Q1026 R08R/CLRD70 NOSIG', 'UTTT 130700Z 19004KT 160V220 2400 FU NSC 10/05 Q1027 R08R/CLRD70 NOSIG', 'UTTT 130630Z 19004KT 130V240 2600 FU NSC 10/04 Q1027 R08R/CLRD70 NOSIG', 'UTTT 130600Z VRB02KT 2400 BR NSC 09/04 Q1028 R08R/CLRD70 NOSIG', 'UTTT 130530Z 19004KT 1900 BR NSC 08/05 Q1028 R08R/CLRD70 NOSIG', 'UTTT 130500Z 19004KT 140V220 1700 BR NSC 06/04 Q1028 R08R/CLRD70 NOSIG', 'UTTT 130430Z VRB02KT 1600 BR NSC 06/04 Q1028 R08R/CLRD70 TEMPO 0700 FG', 'UTTT 130400Z 00000KT 1600 BR NSC 05/03 Q1028 R08R/CLRD70 NOSIG', 'UTTT 130330Z VRB02KT 1600 BR NSC 04/03 Q1027 R08R/CLRD70 NOSIG', 'UTTT 130300Z VRB02KT 1600 BR NSC 04/02 Q1027 R08R/CLRD70 NOSIG', 'UTTT 130230Z VRB02KT 1500 BR NSC 03/02 Q1026 R08R/CLRD70 NOSIG', 'UTTT 130200Z 00000KT 1700 R08R/P2000D BR NSC 03/02 Q1026 R08R/CLRD70 NOSIG', 'UTTT 130130Z 00000KT 1700 R08R/P2000N BR NSC 02/01 Q1026 R08R/CLRD70 NOSIG', 'UTTT 130100Z VRB02KT 1600 R08R/P2000N BR NSC 03/02 Q1026 R08R/CLRD70 NOSIG', 'UTTT 130030Z VRB02KT 1300 R08R/P2000D BR NSC 03/01 Q1026 R08R/CLRD70 NOSIG', 'UTTT 130000Z 00000KT 1300 R08R/P2000D BR NSC 03/02 Q1026 R08R/CLRD70 NOSIG', 'UTTT 122330Z 01004KT 330V040 1400 R08R/P2000 BR NSC 04/03 Q1026 R08R/CLRD70 NOSIG', 'UTTT 122300Z 00000KT 1200 R08R/P2000D BR NSC 04/02 Q1027 R08R/CLRD70 NOSIG', 'UTTT 122230Z 06002KT 1500 R08R/P2000N BR NSC 04/03 Q1027 R08R/CLRD70 NOSIG', 'UTTT 122200Z VRB02KT 1400 R08R/P2000D BR NSC 04/03 Q1027 R08R/CLRD70 NOSIG', 'UTTT 122130Z 02004KT 300V080 1700 R08R/P2000D BR SCT011 05/03 Q1027 R08R/CLRD70 NOSIG', 'UTTT 122100Z 04004KT 360V100 1800 R08R/P2000U BR OVC006 05/03 Q1027 R08R/CLRD70 NOSIG RMK BASE600', 'UTTT 122030Z 08004KT 040V100 1900 R08R/P2000U BR OVC006 05/03 Q1027 R08R/CLRD70 NOSIG RMK BASE600', 'UTTT 122000Z 03006KT 360V060 2000 BR OVC005 05/03 Q1027 R08R/CLRD70 NOSIG RMK BASE560', 'UTTT 121930Z 03006KT 2300 BR OVC005 05/04 Q1027 R08R/CLRD70 NOSIG RMK BASE560', 'UTTT 121900Z 08006KT 1900 R08R/P2000 BR OVC005 05/04 Q1027 R08R/CLRD70 NOSIG RMK BASE560', 'UTTT 121830Z 08006KT 1700 R08R/P2000N BR OVC006 05/03 Q1028 R08R/CLRD70 NOSIG RMK BASE630', 'UTTT 121800Z 08004KT 040V120 2100 BR OVC006 05/04 Q1028 R08R/CLRD70 NOSIG RMK BASE630', 'UTTT 121730Z 00000KT 4000 BR OVC006 05/03 Q1028 R08R/CLRD70 NOSIG RMK BASE600', 'UTTT 121700Z 00000KT 4000 BR OVC006 05/03 Q1028 R08R/CLRD70 NOSIG RMK BASE600', 'UTTT 121630Z VRB02KT 4000 BR OVC005 04/03 Q1028 R08R/CLRD70 TEMPO 2000 BR BKN004 RMK BASE500', 'UTTT 121600Z 18004KT 120V220 4000 BR OVC004 04/03 Q1028 R08R/CLRD70 TEMPO 2000 BR BKN004 RMK BASE460', 'UTTT 121530Z 17004KT 120V220 4000 BR OVC004 04/03 Q1028 R08R/CLRD70 TEMPO 2000 BR BKN004 RMK BASE460', 'UTTT 121500Z 15004KT 110V180 4000 BR OVC004 04/03 Q1028 R08R/CLRD70 TEMPO 2000 BR BKN004 RMK BASE460', 'UTTT 121430Z VRB02KT 4000 BR BKN004 04/03 Q1028 R08R/CLRD70 TEMPO 2000 BR BKN004 RMK BASE400', 'UTTT 121400Z 16006KT 020V190 4000 BR SCT005 04/03 Q1028 R08R/CLRD70 NOSIG RMK BASE500', 'UTTT 121330Z 17006KT 4000 BR FEW006 04/03 Q1027 R08R/CLRD70 NOSIG RMK BASE660', 'UTTT 121300Z 18006KT 140V200 4000 BR FEW006 05/03 Q1027 R08R/CLRD70 NOSIG RMK BASE660', 'UTTT 121230Z 18006KT 130V200 5000 BR NSC 06/03 Q1027 R08R/CLRD70 NOSIG', 'UTTT 121200Z 20006KT 5000 BR NSC 06/03 Q1027 R08R/CLRD70 NOSIG', 'UTTT 121130Z 17006KT 140V200 4000 BR NSC 06/03 Q1027 R26R/CLRD70 NOSIG', 'UTTT 121100Z 16006KT 130V200 4000 BR NSC 07/03 Q1027 R26R/CLRD70 NOSIG']","['2024-02-15 10:00:00', '2024-02-15 09:30:00', '2024-02-15 09:00:00', '2024-02-15 08:30:00', '2024-02-15 08:00:00', '2024-02-15 07:30:00', '2024-02-15 07:00:00', '2024-02-15 06:30:00', '2024-02-15 06:00:00', '2024-02-15 05:30:00', '2024-02-15 05:00:00', '2024-02-15 04:30:00', '2024-02-15 04:00:00', '2024-02-15 03:30:00', '2024-02-15 03:00:00', '2024-02-15 02:30:00', '2024-02-15 02:00:00', '2024-02-15 01:30:00', '2024-02-15 01:00:00', '2024-02-15 00:30:00', '2024-02-15 00:00:00', '2024-02-14 23:30:00', '2024-02-14 23:00:00', '2024-02-14 22:30:00', '2024-02-14 22:00:00', '2024-02-14 21:30:00', '2024-02-14 21:00:00', '2024-02-14 20:30:00', '2024-02-14 20:00:00', '2024-02-14 19:30:00', '2024-02-14 19:00:00', '2024-02-14 18:30:00', '2024-02-14 18:00:00', '2024-02-14 17:30:00', '2024-02-14 17:00:00', '2024-02-14 16:30:00', '2024-02-14 16:00:00', '2024-02-14 15:30:00', '2024-02-14 15:00:00', '2024-02-14 14:30:00', '2024-02-14 14:00:00', '2024-02-14 13:30:00', '2024-02-14 13:00:00', '2024-02-14 12:30:00', '2024-02-14 12:00:00', '2024-02-14 11:30:00', '2024-02-14 11:00:00', '2024-02-14 10:30:00', '2024-02-14 10:00:00', '2024-02-14 09:30:00', '2024-02-14 09:00:00', '2024-02-14 08:30:00', '2024-02-14 08:00:00', '2024-02-14 07:30:00', '2024-02-14 07:00:00', '2024-02-14 06:30:00', '2024-02-14 06:00:00', '2024-02-14 05:30:00', '2024-02-14 05:00:00', '2024-02-14 04:30:00', '2024-02-14 04:00:00', '2024-02-14 03:30:00', '2024-02-14 03:00:00', '2024-02-14 02:30:00', '2024-02-14 02:00:00', '2024-02-14 01:30:00', '2024-02-14 01:00:00', '2024-02-14 00:30:00', '2024-02-14 00:00:00', '2024-02-13 23:30:00', '2024-02-13 23:00:00', '2024-02-13 22:30:00', '2024-02-13 22:00:00', '2024-02-13 21:30:00', '2024-02-13 21:00:00', '2024-02-13 20:30:00', '2024-02-13 20:00:00', '2024-02-13 19:30:00', '2024-02-13 19:00:00', '2024-02-13 18:30:00', '2024-02-13 18:00:00', '2024-02-13 17:30:00', '2024-02-13 17:00:00', '2024-02-13 16:30:00', '2024-02-13 16:00:00', '2024-02-13 15:30:00', '2024-02-13 15:00:00', '2024-02-13 14:30:00', '2024-02-13 14:00:00', '2024-02-13 13:30:00', '2024-02-13 13:00:00', '2024-02-13 12:30:00', '2024-02-13 12:00:00', '2024-02-13 11:30:00', '2024-02-13 11:00:00', '2024-02-13 10:30:00', '2024-02-13 10:00:00', '2024-02-13 09:30:00', '2024-02-13 09:00:00', '2024-02-13 08:30:00', '2024-02-13 08:00:00', '2024-02-13 07:30:00', '2024-02-13 07:00:00', '2024-02-13 06:30:00', '2024-02-13 06:00:00', '2024-02-13 05:30:00', '2024-02-13 05:00:00', '2024-02-13 04:30:00', '2024-02-13 04:00:00', '2024-02-13 03:30:00', '2024-02-13 03:00:00', '2024-02-13 02:30:00', '2024-02-13 02:00:00', '2024-02-13 01:30:00', '2024-02-13 01:00:00', '2024-02-13 00:30:00', '2024-02-13 00:00:00', '2024-02-12 23:30:00', '2024-02-12 23:00:00', '2024-02-12 22:30:00', '2024-02-12 22:00:00', '2024-02-12 21:30:00', '2024-02-12 21:00:00', '2024-02-12 20:30:00', '2024-02-12 20:00:00', '2024-02-12 19:30:00', '2024-02-12 19:00:00', '2024-02-12 18:30:00', '2024-02-12 18:00:00', '2024-02-12 17:30:00', '2024-02-12 17:00:00', '2024-02-12 16:30:00', '2024-02-12 16:00:00', '2024-02-12 15:30:00', '2024-02-12 15:00:00', '2024-02-12 14:30:00', '2024-02-12 14:00:00', '2024-02-12 13:30:00', '2024-02-12 13:00:00', '2024-02-12 12:30:00', '2024-02-12 12:00:00', '2024-02-12 11:30:00', '2024-02-12 11:00:00']"
Uzbekistan, Termez Airport (TMJ/UTST) ,"['UTST 151000Z 09006KT 050V120 CAVOK 24/M04 Q1017 R25/CLRD70 NOSIG', 'UTST 150930Z 07004KT 040V100 CAVOK 23/M04 Q1017 R25/CLRD70 NOSIG', 'UTST 150900Z 11004KT 080V140 CAVOK 23/M03 Q1018 R25/CLRD70 NOSIG', 'UTST 150830Z 09004KT 060V130 CAVOK 22/M04 Q1018 R25/CLRD70 NOSIG', 'UTST 150800Z 08004KT 050V130 CAVOK 21/M03 Q1019 R25/CLRD70 NOSIG', 'UTST 150730Z 13002KT CAVOK 21/M01 Q1019 R25/CLRD70 NOSIG', 'UTST 150700Z VRB02KT CAVOK 19/M01 Q1020 R25/CLRD70 NOSIG', 'UTST 150630Z VRB02KT CAVOK 18/M00 Q1020 R25/CLRD70 NOSIG', 'UTST 150600Z 10004KT 070V130 CAVOK 17/M00 Q1020 R25/CLRD70 NOSIG', 'UTST 150530Z VRB02KT CAVOK 16/M01 Q1020 R25/CLRD70 NOSIG', 'UTST 150500Z 00000KT CAVOK 14/M01 Q1020 R25/CLRD70 NOSIG', 'UTST 150430Z VRB02KT CAVOK 12/M00 Q1020 R25/CLRD70 NOSIG', 'UTST 150400Z VRB02KT 9999 FEW066CB 10/M01 Q1020 R25/CLRD70 NOSIG', 'UTST 150330Z VRB02KT 9999 FEW066CB 08/M00 Q1020 R25/CLRD70 NOSIG', 'UTST 150300Z 05002KT 9999 FEW066CB 07/M01 Q1019 R25/CLRD70 NOSIG', 'UTST 150230Z 02004KT CAVOK 07/M01 Q1019 R25/CLRD70 NOSIG', 'UTST 150200Z 03006KT CAVOK 08/M01 Q1019 R25/CLRD70 NOSIG', 'UTST 150130Z 05004KT CAVOK 07/M01 Q1019 R25/CLRD70 NOSIG', 'UTST 150100Z 03006KT CAVOK 08/M01 Q1019 R25/CLRD70 NOSIG', 'UTST 150030Z 02004KT CAVOK 07/M01 Q1019 R25/CLRD70 NOSIG', 'UTST 150000Z 03004KT CAVOK 08/M01 Q1019 R25/CLRD70 NOSIG', 'UTST 142330Z 04004KT CAVOK 08/M01 Q1019 R25/CLRD70 NOSIG', 'UTST 142300Z 04006KT CAVOK 08/M01 Q1019 R25/CLRD70 NOSIG', 'UTST 142230Z 02006KT CAVOK 09/M01 Q1019 R25/CLRD70 NOSIG', 'UTST 142200Z 05008KT CAVOK 09/M01 Q1019 R25/CLRD70 NOSIG', 'UTST 142130Z 03008KT CAVOK 10/M01 Q1019 R25/CLRD70 NOSIG', 'UTST 142100Z 04006KT CAVOK 10/M01 Q1019 R25/CLRD70 NOSIG', 'UTST 142030Z 03006KT CAVOK 10/M01 Q1019 R25/CLRD70 NOSIG', 'UTST 142000Z 03008KT CAVOK 11/M01 Q1020 R25/CLRD70 NOSIG', 'UTST 141930Z 02008KT CAVOK 11/M02 Q1020 R25/CLRD70 NOSIG', 'UTST 141900Z 02008KT CAVOK 12/M02 Q1020 R25/CLRD70 NOSIG', 'UTST 141830Z 03006KT CAVOK 11/M02 Q1020 R25/CLRD70 NOSIG', 'UTST 141800Z 04004KT CAVOK 11/M02 Q1020 R25/CLRD70 NOSIG', 'UTST 141730Z 02004KT CAVOK 11/M01 Q1020 R25/CLRD70 NOSIG', 'UTST 141700Z 00000KT CAVOK 12/M01 Q1020 R25/CLRD70 NOSIG', 'UTST 141630Z 00000KT CAVOK 12/M02 Q1020 R25/CLRD70 NOSIG', 'UTST 141600Z 06006KT CAVOK 14/M03 Q1020 R25/CLRD70 NOSIG', 'UTST 141530Z 05004KT CAVOK 14/M02 Q1020 R25/CLRD70 NOSIG', 'UTST 141500Z 11004KT CAVOK 15/M02 Q1020 R25/CLRD70 NOSIG', 'UTST 141430Z 11002KT CAVOK 17/M02 Q1020 R25/CLRD70 NOSIG', 'UTST 141400Z 10004KT CAVOK 17/M03 Q1019 R25/CLRD70 NOSIG', 'UTST 141330Z 11004KT CAVOK 19/M03 Q1019 R25/CLRD70 NOSIG', 'UTST 141300Z 12006KT CAVOK 20/M04 Q1019 R25/CLRD70 NOSIG', 'UTST 141230Z 12008KT CAVOK 22/M04 Q1019 R25/CLRD70 NOSIG', 'UTST 141200Z 12008KT CAVOK 23/M06 Q1019 R25/CLRD70 NOSIG', 'UTST 141130Z 11008KT 080V140 CAVOK 24/M06 Q1019 R25/CLRD70 NOSIG', 'UTST 141100Z 12008KT 090V150 CAVOK 24/M06 Q1019 R25/CLRD70 NOSIG', 'UTST 141030Z 12008KT CAVOK 24/M07 Q1019 R25/CLRD70 NOSIG', 'UTST 141000Z 12010KT 100V160 CAVOK 24/M06 Q1019 R25/CLRD70 NOSIG', 'UTST 140930Z 11008KT CAVOK 24/M05 Q1020 R25/CLRD70 NOSIG', 'UTST 140900Z 09006KT 060V150 CAVOK 23/M05 Q1020 R25/CLRD70 NOSIG', 'UTST 140830Z 10006KT 020V140 CAVOK 23/M04 Q1020 R25/CLRD70 NOSIG', 'UTST 140800Z 12006KT 080V160 CAVOK 23/M05 Q1021 R25/CLRD70 NOSIG', 'UTST 140730Z 09006KT 030V120 CAVOK 22/M04 Q1021 R25/CLRD70 NOSIG', 'UTST 140700Z 07004KT 030V120 CAVOK 21/M04 Q1022 R25/CLRD70 NOSIG', 'UTST 140630Z 09004KT 060V130 CAVOK 20/M03 Q1022 R25/CLRD70 NOSIG', 'UTST 140600Z 05006KT CAVOK 18/M00 Q1023 R25/CLRD70 NOSIG', 'UTST 140530Z 04004KT CAVOK 16/M01 Q1023 R25/CLRD70 NOSIG', 'UTST 140500Z 03004KT CAVOK 14/M00 Q1023 R25/CLRD70 NOSIG', 'UTST 140430Z 03006KT CAVOK 12/M00 Q1023 R25/CLRD70 NOSIG', 'UTST 140400Z 02010KT CAVOK 10/M01 Q1023 R25/CLRD70 NOSIG', 'UTST 140330Z 03006KT CAVOK 08/M00 Q1022 R25/CLRD70 NOSIG', 'UTST 140300Z 02006KT CAVOK 07/M00 Q1022 R25/CLRD70 NOSIG', 'UTST 140230Z 03006KT CAVOK 07/M01 Q1022 R25/CLRD70 NOSIG', 'UTST 140200Z 03006KT CAVOK 07/M00 Q1022 R25/CLRD70 NOSIG', 'UTST 140130Z 02008KT CAVOK 07/M00 Q1022 R25/CLRD70 NOSIG', 'UTST 140100Z 02008KT CAVOK 07/M01 Q1022 R25/CLRD70 NOSIG', 'UTST 140030Z 04006KT CAVOK 07/M00 Q1022 R25/CLRD70 NOSIG', 'UTST 140000Z 02008KT CAVOK 07/M00 Q1022 R25/CLRD70 NOSIG', 'UTST 132330Z 03006KT CAVOK 07/M00 Q1022 R25/CLRD70 NOSIG', 'UTST 132300Z 03004KT CAVOK 08/M00 Q1022 R25/CLRD70 NOSIG', 'UTST 132230Z 03008KT CAVOK 09/M00 Q1021 R25/CLRD70 NOSIG', 'UTST 132200Z 03008KT CAVOK 09/M00 Q1021 R25/CLRD70 NOSIG', 'UTST 132130Z 03008KT CAVOK 09/M00 Q1022 R25/CLRD70 NOSIG', 'UTST 132100Z 03010KT CAVOK 09/00 Q1022 R25/CLRD70 NOSIG', 'UTST 132030Z 03010KT CAVOK 10/00 Q1022 R25/CLRD70 NOSIG', 'UTST 132000Z 03008KT CAVOK 10/00 Q1022 R25/CLRD70 NOSIG', 'UTST 131930Z 03008KT CAVOK 10/M00 Q1022 R25/CLRD70 NOSIG', 'UTST 131900Z 03010KT CAVOK 11/M01 Q1022 R25/CLRD70 NOSIG', 'UTST 131830Z 03008KT CAVOK 11/M02 Q1022 R25/CLRD70 NOSIG', 'UTST 131800Z 04004KT CAVOK 10/M01 Q1022 R25/CLRD70 NOSIG', 'UTST 131730Z 04008KT CAVOK 12/M01 Q1022 R25/CLRD70 NOSIG', 'UTST 131700Z 05006KT CAVOK 12/M00 Q1022 R25/CLRD70 NOSIG', 'UTST 131630Z 06006KT CAVOK 11/00 Q1022 R25/CLRD70 NOSIG', 'UTST 131600Z 08004KT CAVOK 13/M00 Q1022 R25/CLRD70 NOSIG', 'UTST 131530Z 08004KT CAVOK 14/00 Q1022 R25/CLRD70 NOSIG', 'UTST 131500Z 12004KT CAVOK 15/M00 Q1022 R25/CLRD70 NOSIG', 'UTST 131430Z 12004KT CAVOK 16/M01 Q1021 R25/CLRD70 NOSIG', 'UTST 131400Z 13004KT CAVOK 16/M01 Q1021 R25/CLRD70 NOSIG', 'UTST 131330Z 14004KT CAVOK 17/M01 Q1021 R25/CLRD70 NOSIG', 'UTST 131300Z 13006KT CAVOK 19/M02 Q1021 R25/CLRD70 NOSIG', 'UTST 131230Z 12006KT CAVOK 20/M03 Q1021 R25/CLRD70 NOSIG', 'UTST 131200Z 12008KT CAVOK 21/M03 Q1021 R25/CLRD70 NOSIG', 'UTST 131130Z 12008KT CAVOK 22/M02 Q1021 R25/CLRD70 NOSIG', 'UTST 131100Z VRB02KT CAVOK 22/M02 Q1021 R25/CLRD70 NOSIG', 'UTST 131030Z 11006KT 070V150 CAVOK 22/M01 Q1021 R25/CLRD70 NOSIG', 'UTST 131000Z 12004KT 070V180 CAVOK 22/M02 Q1022 R25/CLRD70 NOSIG', 'UTST 130930Z 14006KT CAVOK 22/M02 Q1022 R25/CLRD70 NOSIG', 'UTST 130900Z 11006KT 030V160 CAVOK 22/M03 Q1022 R25/CLRD70 NOSIG', 'UTST 130830Z 11004KT 080V160 CAVOK 21/M02 Q1022 R25/CLRD70 NOSIG', 'UTST 130800Z 11004KT 070V130 CAVOK 20/M01 Q1023 R25/CLRD70 NOSIG', 'UTST 130730Z 10004KT 060V150 CAVOK 20/M00 Q1024 R25/CLRD70 NOSIG', 'UTST 130700Z 05004KT 020V100 CAVOK 18/00 Q1024 R25/CLRD70 NOSIG', 'UTST 130630Z 03006KT CAVOK 17/00 Q1024 R25/CLRD70 NOSIG', 'UTST 130600Z 03006KT CAVOK 15/01 Q1024 R25/CLRD70 NOSIG', 'UTST 130530Z 02006KT CAVOK 14/02 Q1024 R25/CLRD70 NOSIG', 'UTST 130500Z 02006KT CAVOK 12/02 Q1024 R25/CLRD70 NOSIG', 'UTST 130430Z 02006KT CAVOK 10/02 Q1025 R25/CLRD70 NOSIG', 'UTST 130400Z 02004KT CAVOK 08/02 Q1025 R25/CLRD70 NOSIG', 'UTST 130330Z 03006KT CAVOK 07/01 Q1025 R25/CLRD70 NOSIG', 'UTST 130300Z 02006KT CAVOK 06/01 Q1024 R25/CLRD70 NOSIG', 'UTST 130230Z 02006KT CAVOK 05/01 Q1024 R25/CLRD70 NOSIG', 'UTST 130200Z 01004KT CAVOK 05/01 Q1024 R25/CLRD70 NOSIG', 'UTST 130130Z 03002KT CAVOK 05/01 Q1024 R25/CLRD70 NOSIG', 'UTST 130100Z 03006KT CAVOK 05/01 Q1024 R25/CLRD70 NOSIG', 'UTST 130030Z 05004KT CAVOK 04/01 Q1024 R25/CLRD70 NOSIG', 'UTST 130000Z 06004KT CAVOK 05/01 Q1023 R25/CLRD70 NOSIG', 'UTST 122330Z 05004KT CAVOK 06/01 Q1023 R25/CLRD70 NOSIG', 'UTST 122300Z 02004KT CAVOK 07/01 Q1023 R25/CLRD70 NOSIG', 'UTST 122230Z 03004KT CAVOK 07/01 Q1023 R25/CLRD70 NOSIG', 'UTST 122200Z 02004KT CAVOK 07/01 Q1024 R25/CLRD70 NOSIG', 'UTST 122130Z 02002KT CAVOK 07/02 Q1024 R25/CLRD70 NOSIG', 'UTST 122100Z 04004KT 7000 NSC 08/02 Q1024 R25/CLRD70 NOSIG', 'UTST 122030Z 04004KT 7000 NSC 08/02 Q1024 R25/CLRD70 NOSIG', 'UTST 122000Z 07004KT 7000 NSC 09/02 Q1024 R25/CLRD70 NOSIG', 'UTST 121930Z 11002KT 6000 NSC 09/02 Q1024 R25/CLRD70 NOSIG', 'UTST 121900Z 12004KT 6000 NSC 10/02 Q1024 R25/CLRD70 NOSIG', 'UTST 121830Z 11004KT 6000 NSC 10/02 Q1023 R25/CLRD70 NOSIG', 'UTST 121800Z 12004KT 6000 NSC 10/02 Q1023 R25/CLRD70 NOSIG', 'UTST 121730Z 00000KT 6000 NSC 11/02 Q1023 R25/CLRD70 NOSIG', 'UTST 121700Z 12004KT 5000 HZ NSC 10/02 Q1023 R25/CLRD70 NOSIG', 'UTST 121630Z 12002KT CAVOK 12/02 Q1022 R25/CLRD70 NOSIG', 'UTST 121600Z VRB02KT CAVOK 12/02 Q1022 R25/CLRD70 NOSIG', 'UTST 121530Z 20002KT CAVOK 14/01 Q1022 R25/CLRD70 NOSIG', 'UTST 121500Z 21004KT CAVOK 14/01 Q1022 R25/CLRD70 NOSIG', 'UTST 121430Z 23004KT CAVOK 15/01 Q1022 R25/CLRD70 NOSIG', 'UTST 121400Z 23004KT CAVOK 16/M00 Q1022 R25/CLRD70 NOSIG', 'UTST 121330Z 23004KT CAVOK 17/M01 Q1022 R25/CLRD70 NOSIG', 'UTST 121300Z 20002KT CAVOK 19/M01 Q1021 R25/CLRD70 NOSIG', 'UTST 121230Z 19004KT CAVOK 20/M01 Q1021 R25/CLRD70 NOSIG', 'UTST 121200Z 17004KT 140V200 CAVOK 21/M02 Q1021 R25/CLRD70 NOSIG', 'UTST 121130Z 19004KT 150V220 CAVOK 21/M03 Q1021 R25/CLRD70 NOSIG', 'UTST 121100Z 15002KT CAVOK 21/M02 Q1021 R25/CLRD70 NOSIG']","['2024-02-15 10:00:00', '2024-02-15 09:30:00', '2024-02-15 09:00:00', '2024-02-15 08:30:00', '2024-02-15 08:00:00', '2024-02-15 07:30:00', '2024-02-15 07:00:00', '2024-02-15 06:30:00', '2024-02-15 06:00:00', '2024-02-15 05:30:00', '2024-02-15 05:00:00', '2024-02-15 04:30:00', '2024-02-15 04:00:00', '2024-02-15 03:30:00', '2024-02-15 03:00:00', '2024-02-15 02:30:00', '2024-02-15 02:00:00', '2024-02-15 01:30:00', '2024-02-15 01:00:00', '2024-02-15 00:30:00', '2024-02-15 00:00:00', '2024-02-14 23:30:00', '2024-02-14 23:00:00', '2024-02-14 22:30:00', '2024-02-14 22:00:00', '2024-02-14 21:30:00', '2024-02-14 21:00:00', '2024-02-14 20:30:00', '2024-02-14 20:00:00', '2024-02-14 19:30:00', '2024-02-14 19:00:00', '2024-02-14 18:30:00', '2024-02-14 18:00:00', '2024-02-14 17:30:00', '2024-02-14 17:00:00', '2024-02-14 16:30:00', '2024-02-14 16:00:00', '2024-02-14 15:30:00', '2024-02-14 15:00:00', '2024-02-14 14:30:00', '2024-02-14 14:00:00', '2024-02-14 13:30:00', '2024-02-14 13:00:00', '2024-02-14 12:30:00', '2024-02-14 12:00:00', '2024-02-14 11:30:00', '2024-02-14 11:00:00', '2024-02-14 10:30:00', '2024-02-14 10:00:00', '2024-02-14 09:30:00', '2024-02-14 09:00:00', '2024-02-14 08:30:00', '2024-02-14 08:00:00', '2024-02-14 07:30:00', '2024-02-14 07:00:00', '2024-02-14 06:30:00', '2024-02-14 06:00:00', '2024-02-14 05:30:00', '2024-02-14 05:00:00', '2024-02-14 04:30:00', '2024-02-14 04:00:00', '2024-02-14 03:30:00', '2024-02-14 03:00:00', '2024-02-14 02:30:00', '2024-02-14 02:00:00', '2024-02-14 01:30:00', '2024-02-14 01:00:00', '2024-02-14 00:30:00', '2024-02-14 00:00:00', '2024-02-13 23:30:00', '2024-02-13 23:00:00', '2024-02-13 22:30:00', '2024-02-13 22:00:00', '2024-02-13 21:30:00', '2024-02-13 21:00:00', '2024-02-13 20:30:00', '2024-02-13 20:00:00', '2024-02-13 19:30:00', '2024-02-13 19:00:00', '2024-02-13 18:30:00', '2024-02-13 18:00:00', '2024-02-13 17:30:00', '2024-02-13 17:00:00', '2024-02-13 16:30:00', '2024-02-13 16:00:00', '2024-02-13 15:30:00', '2024-02-13 15:00:00', '2024-02-13 14:30:00', '2024-02-13 14:00:00', '2024-02-13 13:30:00', '2024-02-13 13:00:00', '2024-02-13 12:30:00', '2024-02-13 12:00:00', '2024-02-13 11:30:00', '2024-02-13 11:00:00', '2024-02-13 10:30:00', '2024-02-13 10:00:00', '2024-02-13 09:30:00', '2024-02-13 09:00:00', '2024-02-13 08:30:00', '2024-02-13 08:00:00', '2024-02-13 07:30:00', '2024-02-13 07:00:00', '2024-02-13 06:30:00', '2024-02-13 06:00:00', '2024-02-13 05:30:00', '2024-02-13 05:00:00', '2024-02-13 04:30:00', '2024-02-13 04:00:00', '2024-02-13 03:30:00', '2024-02-13 03:00:00', '2024-02-13 02:30:00', '2024-02-13 02:00:00', '2024-02-13 01:30:00', '2024-02-13 01:00:00', '2024-02-13 00:30:00', '2024-02-13 00:00:00', '2024-02-12 23:30:00', '2024-02-12 23:00:00', '2024-02-12 22:30:00', '2024-02-12 22:00:00', '2024-02-12 21:30:00', '2024-02-12 21:00:00', '2024-02-12 20:30:00', '2024-02-12 20:00:00', '2024-02-12 19:30:00', '2024-02-12 19:00:00', '2024-02-12 18:30:00', '2024-02-12 18:00:00', '2024-02-12 17:30:00', '2024-02-12 17:00:00', '2024-02-12 16:30:00', '2024-02-12 16:00:00', '2024-02-12 15:30:00', '2024-02-12 15:00:00', '2024-02-12 14:30:00', '2024-02-12 14:00:00', '2024-02-12 13:30:00', '2024-02-12 13:00:00', '2024-02-12 12:30:00', '2024-02-12 12:00:00', '2024-02-12 11:30:00', '2024-02-12 11:00:00']"
Uzbekistan, Urgench International Airport (UGC/UTNU) ,"['UTNU 151000Z 29012KT CAVOK 13/03 Q1013 R31/CLRD70 NOSIG', 'UTNU 150930Z 29012KT CAVOK 13/04 Q1013 R31/CLRD70 NOSIG', 'UTNU 150900Z 28012KT CAVOK 14/04 Q1013 R31/CLRD70 NOSIG', 'UTNU 150830Z 27012KT CAVOK 13/05 Q1013 R31/CLRD70 NOSIG', 'UTNU 150800Z 26012KT CAVOK 13/04 Q1013 R31/CLRD70 NOSIG', 'UTNU 150730Z 28012KT CAVOK 13/04 Q1013 R31/CLRD70 NOSIG', 'UTNU 150700Z 28012KT CAVOK 13/03 Q1013 R31/CLRD70 NOSIG', 'UTNU 150630Z 26008KT CAVOK 13/03 Q1013 R31/CLRD70 NOSIG', 'UTNU 150600Z 26010KT CAVOK 12/02 Q1013 R31/CLRD70 NOSIG', 'UTNU 150500Z 25008KT CAVOK 11/01 Q1012 R31/CLRD70 NOSIG', 'UTNU 150430Z 26008KT CAVOK 11/01 Q1012 R31/CLRD70 NOSIG', 'UTNU 150400Z 24008KT CAVOK 11/00 Q1012 R31/CLRD70 NOSIG', 'UTNU 150330Z 24008KT CAVOK 11/00 Q1012 R31/CLRD70 NOSIG', 'UTNU 150300Z 24008KT CAVOK 11/00 Q1011 R31/CLRD70 NOSIG', 'UTNU 150230Z 24008KT CAVOK 11/00 Q1011 R31/CLRD70 NOSIG', 'UTNU 150200Z 24008KT CAVOK 12/M00 Q1011 R31/CLRD70 NOSIG', 'UTNU 150130Z 23008KT CAVOK 12/M00 Q1011 R31/CLRD70 NOSIG', 'UTNU 150100Z 24008KT CAVOK 12/M00 Q1011 R31/CLRD70 NOSIG', 'UTNU 150030Z 24008KT CAVOK 13/M00 Q1011 R31/CLRD70 NOSIG', 'UTNU 142330Z 22008KT CAVOK 12/M00 Q1011 R31/CLRD70 NOSIG', 'UTNU 142300Z 22006KT CAVOK 12/00 Q1011 R31/CLRD70 NOSIG', 'UTNU 142230Z 21006KT CAVOK 11/01 Q1011 R31/CLRD70 NOSIG', 'UTNU 142200Z 00000KT CAVOK 07/01 Q1011 R31/CLRD70 NOSIG', 'UTNU 142130Z 00000KT CAVOK 00/02 Q1011 R31/CLRD70 NOSIG', 'UTNU 142100Z 00000KT CAVOK 08/01 Q1011 R31/CLRD70 NOSIG', 'UTNU 142030Z 00000KT CAVOK 11/01 Q1011 R31/CLRD70 NOSIG', 'UTNU 142000Z 25002KT 9000 NSC 10/01 Q1011 R31/CLRD70 NOSIG', 'UTNU 141930Z 22004KT 8000 NSC 11/01 Q1011 R31/CLRD70 NOSIG', 'UTNU 141900Z VRB02KT 8000 NSC 11/00 Q1011 R31/CLRD70 NOSIG', 'UTNU 141830Z 22004KT 8000 NSC 12/00 Q1012 R31/CLRD70 NOSIG', 'UTNU 141800Z 22004KT 8000 NSC 14/00 Q1012 R31/CLRD70 NOSIG', 'UTNU 141730Z 21004KT 4500 HZ NSC 13/01 Q1012 R31/CLRD70 NOSIG', 'UTNU 141700Z 21004KT 3200 HZ NSC 14/00 Q1012 R31/CLRD70 NOSIG', 'UTNU 141630Z 20004KT 3200 NSC 11/03 Q1012 R31/CLRD70 NOSIG', 'UTNU 141600Z 00000KT 4500 HZ NSC 12/03 Q1012 R31/CLRD70 NOSIG', 'UTNU 141530Z 00000KT 4500 NSC 12/03 Q1012 R31/CLRD70 NOSIG', 'UTNU 141400Z 12002KT 4900 HZ NSC 15/03 Q1012 R31/CLRD70 NOSIG', 'UTNU 141330Z 11004KT 7000 NSC 16/03 Q1012 R31/CLRD70 NOSIG', 'UTNU 141300Z 12004KT CAVOK 18/02 Q1012 R13/CLRD70 NOSIG', 'UTNU 141230Z 13004KT CAVOK 20/02 Q1012 R13/CLRD70 NOSIG', 'UTNU 141200Z 15006KT CAVOK 20/01 Q1012 R13/CLRD70 NOSIG', 'UTNU 141130Z 14006KT CAVOK 21/M00 Q1012 R13/CLRD70 NOSIG', 'UTNU 141100Z 14004KT CAVOK 21/M00 Q1012 R13/CLRD70 NOSIG', 'UTNU 141030Z 14006KT CAVOK 21/00 Q1013 R13/CLRD70 NOSIG', 'UTNU 141000Z 13008KT CAVOK 21/M00 Q1013 R13/CLRD70 NOSIG', 'UTNU 140930Z 14008KT CAVOK 20/01 Q1013 R13/CLRD70 NOSIG', 'UTNU 140900Z 13008KT CAVOK 20/01 Q1013 R13/CLRD70 NOSIG', 'UTNU 140830Z 15006KT CAVOK 19/01 Q1014 R13/CLRD70 NOSIG', 'UTNU 140800Z 12010KT CAVOK 18/02 Q1014 R13/CLRD70 NOSIG', 'UTNU 140730Z 12010KT CAVOK 17/02 Q1015 R13/CLRD70 NOSIG', 'UTNU 140700Z 13010KT CAVOK 16/02 Q1015 R13/CLRD70 NOSIG', 'UTNU 140630Z 13010KT CAVOK 15/02 Q1015 R13/CLRD70 NOSIG', 'UTNU 140600Z 13012KT CAVOK 13/02 Q1016 R31/CLRD70 NOSIG', 'UTNU 140530Z 12010KT 8000 NSC 11/03 Q1016 R13/CLRD70 NOSIG', 'UTNU 140500Z 12008KT CAVOK 09/02 Q1016 R13/CLRD70 NOSIG', 'UTNU 140430Z 10006KT CAVOK 07/01 Q1016 R13/CLRD70 NOSIG', 'UTNU 140400Z 11004KT CAVOK 06/01 Q1017 R13/CLRD70 NOSIG', 'UTNU 140330Z 11008KT CAVOK 05/01 Q1016 R13/CLRD70 NOSIG', 'UTNU 140300Z 11008KT CAVOK 04/00 Q1016 R13/CLRD70 NOSIG', 'UTNU 140230Z 11008KT CAVOK 04/01 Q1016 R13/CLRD70 NOSIG', 'UTNU 140200Z 11006KT CAVOK 04/00 Q1016 R13/CLRD70 NOSIG', 'UTNU 140130Z 10008KT CAVOK 04/00 Q1016 R13/CLRD70 NOSIG', 'UTNU 140100Z 10008KT CAVOK 04/00 Q1017 R13/CLRD70 NOSIG', 'UTNU 140030Z 11006KT CAVOK 05/00 Q1017 R13/CLRD70 NOSIG', 'UTNU 140000Z 11008KT CAVOK 04/00 Q1017 R13/CLRD70 NOSIG', 'UTNU 132330Z 10006KT CAVOK 05/M00 Q1017 R13/CLRD70 NOSIG', 'UTNU 132300Z 11006KT CAVOK 05/M00 Q1017 R13/CLRD70 NOSIG', 'UTNU 132230Z 11006KT CAVOK 05/00 Q1018 R13/CLRD70 NOSIG', 'UTNU 132200Z 11008KT CAVOK 06/00 Q1018 R13/CLRD70 NOSIG', 'UTNU 132130Z 10008KT CAVOK 06/00 Q1018 R13/CLRD70 NOSIG', 'UTNU 132100Z 11008KT CAVOK 07/00 Q1018 R13/CLRD70 NOSIG', 'UTNU 132030Z 12006KT CAVOK 08/00 Q1018 R13/CLRD70 NOSIG', 'UTNU 132000Z 13006KT CAVOK 08/M00 Q1019 R13/CLRD70 NOSIG', 'UTNU 131930Z 13004KT CAVOK 08/00 Q1019 R13/CLRD70 NOSIG', 'UTNU 131900Z 12006KT CAVOK 09/00 Q1019 R13/CLRD70 NOSIG', 'UTNU 131830Z 12004KT CAVOK 10/M00 Q1019 R13/CLRD70 NOSIG', 'UTNU 131800Z 13006KT CAVOK 09/00 Q1019 R13/CLRD70 NOSIG', 'UTNU 131730Z 12006KT CAVOK 11/M00 Q1019 R13/CLRD70 NOSIG', 'UTNU 131700Z 12008KT CAVOK 11/00 Q1019 R13/CLRD70 NOSIG', 'UTNU 131630Z 11006KT CAVOK 11/00 Q1019 R13/CLRD70 NOSIG', 'UTNU 131600Z 11006KT CAVOK 11/00 Q1019 R13/CLRD70 NOSIG', 'UTNU 131530Z 12006KT CAVOK 12/01 Q1019 R13/CLRD70 NOSIG', 'UTNU 131500Z 11006KT CAVOK 12/01 Q1019 R13/CLRD70 NOSIG', 'UTNU 131430Z 11006KT CAVOK 13/01 Q1019 R31/CLRD70 NOSIG', 'UTNU 131400Z 10006KT CAVOK 14/02 Q1019 R31/CLRD70 NOSIG', 'UTNU 131330Z 10006KT CAVOK 16/02 Q1019 R31/CLRD70 NOSIG', 'UTNU 131300Z 12006KT CAVOK 18/M00 Q1019 R31/CLRD70 NOSIG', 'UTNU 131230Z 13012KT CAVOK 20/M01 Q1019 R13/CLRD70 NOSIG', 'UTNU 131200Z 13012KT CAVOK 20/M02 Q1019 R13/CLRD70 NOSIG', 'UTNU 131130Z 15014KT CAVOK 20/M01 Q1019 R13/CLRD70 NOSIG', 'UTNU 131100Z 15014KT CAVOK 20/M01 Q1019 R13/CLRD70 NOSIG', 'UTNU 131030Z 15014KT CAVOK 20/M01 Q1019 R13/CLRD70 NOSIG', 'UTNU 131000Z 14014KT CAVOK 20/M00 Q1020 R13/CLRD70 NOSIG', 'UTNU 130930Z 15012KT CAVOK 19/01 Q1020 R13/CLRD70 NOSIG', 'UTNU 130900Z 15012KT CAVOK 19/01 Q1021 R13/CLRD70 NOSIG', 'UTNU 130830Z 15012KT CAVOK 18/02 Q1021 R13/CLRD70 NOSIG', 'UTNU 130800Z 15010KT CAVOK 17/02 Q1022 R31/CLRD70 NOSIG', 'UTNU 130730Z 15010KT CAVOK 16/03 Q1023 R31/CLRD70 NOSIG', 'UTNU 130700Z 15010KT CAVOK 15/03 Q1023 R13/CLRD70 NOSIG', 'UTNU 130630Z 14008KT CAVOK 13/03 Q1023 R13/CLRD70 NOSIG', 'UTNU 130600Z 13010KT CAVOK 11/03 Q1023 R13/CLRD70 NOSIG', 'UTNU 130530Z 14010KT CAVOK 10/02 Q1023 R13/CLRD70 NOSIG', 'UTNU 130430Z 11006KT CAVOK 06/02 Q1023 R13/CLRD70 NOSIG', 'UTNU 130400Z 10006KT CAVOK 04/01 Q1023 R13/CLRD70 NOSIG', 'UTNU 130330Z 09008KT CAVOK 03/00 Q1023 R13/CLRD70 NOSIG', 'UTNU 130300Z 08008KT CAVOK 03/00 Q1023 R13/CLRD70 NOSIG', 'UTNU 130230Z 10008KT CAVOK 03/00 Q1023 R13/CLRD70 NOSIG', 'UTNU 130200Z 11008KT CAVOK 04/01 Q1023 R13/CLRD70 NOSIG', 'UTNU 130130Z 10008KT CAVOK 05/01 Q1023 R13/CLRD70 NOSIG', 'UTNU 130100Z 12006KT CAVOK 05/01 Q1023 R13/CLRD70 NOSIG', 'UTNU 130030Z 12008KT CAVOK 05/01 Q1022 R13/CLRD70 NOSIG', 'UTNU 130000Z 13006KT CAVOK 06/01 Q1022 R31/CLRD70 NOSIG', 'UTNU 122330Z 11006KT CAVOK 06/01 Q1022 R13/CLRD70 NOSIG', 'UTNU 122300Z 11008KT CAVOK 06/01 Q1023 R13/CLRD70 NOSIG', 'UTNU 122230Z 11008KT CAVOK 07/02 Q1023 R13/CLRD70 NOSIG', 'UTNU 122200Z 10006KT CAVOK 07/02 Q1023 R13/CLRD70 NOSIG', 'UTNU 122130Z 13008KT CAVOK 07/02 Q1023 R31/CLRD70 NOSIG', 'UTNU 122100Z 11006KT CAVOK 07/01 Q1023 R31/CLRD70 NOSIG', 'UTNU 122030Z 11006KT CAVOK 07/01 Q1023 R31/CLRD70 NOSIG', 'UTNU 122000Z 11006KT CAVOK 07/01 Q1024 R31/CLRD70 NOSIG', 'UTNU 121930Z 11006KT CAVOK 08/01 Q1024 R31/CLRD70 NOSIG', 'UTNU 121900Z 11006KT CAVOK 08/01 Q1024 R31/CLRD70 NOSIG', 'UTNU 121830Z 10006KT CAVOK 08/01 Q1024 R31/CLRD70 NOSIG', 'UTNU 121800Z 10006KT CAVOK 09/01 Q1024 R31/CLRD70 NOSIG', 'UTNU 121730Z 10006KT CAVOK 09/01 Q1024 R31/CLRD70 NOSIG', 'UTNU 121700Z 10006KT CAVOK 09/01 Q1024 R31/CLRD70 NOSIG', 'UTNU 121630Z 09006KT CAVOK 09/02 Q1024 R31/CLRD70 NOSIG', 'UTNU 121600Z 09006KT CAVOK 09/02 Q1024 R13/CLRD70 NOSIG', 'UTNU 121530Z 08008KT CAVOK 09/02 Q1024 R13/CLRD70 NOSIG', 'UTNU 121500Z 08008KT CAVOK 10/02 Q1024 R13/CLRD70 NOSIG', 'UTNU 121430Z 09008KT CAVOK 10/02 Q1024 R13/CLRD70 NOSIG', 'UTNU 121400Z 08006KT CAVOK 11/02 Q1024 R31/CLRD70 NOSIG', 'UTNU 121330Z 09006KT CAVOK 12/02 Q1024 R31/CLRD70 NOSIG', 'UTNU 121300Z 10014KT CAVOK 13/03 Q1024 R13/CLRD70 NOSIG', 'UTNU 121230Z 10014KT CAVOK 14/03 Q1024 R13/CLRD70 NOSIG', 'UTNU 121200Z 09014KT CAVOK 15/03 Q1024 R13/CLRD70 NOSIG', 'UTNU 121130Z 09014KT CAVOK 15/03 Q1024 R13/CLRD70 NOSIG', 'UTNU 121100Z 10012KT CAVOK 14/02 Q1024 R13/CLRD70 NOSIG']","['2024-02-15 10:00:00', '2024-02-15 09:30:00', '2024-02-15 09:00:00', '2024-02-15 08:30:00', '2024-02-15 08:00:00', '2024-02-15 07:30:00', '2024-02-15 07:00:00', '2024-02-15 06:30:00', '2024-02-15 06:00:00', '2024-02-15 05:00:00', '2024-02-15 04:30:00', '2024-02-15 04:00:00', '2024-02-15 03:30:00', '2024-02-15 03:00:00', '2024-02-15 02:30:00', '2024-02-15 02:00:00', '2024-02-15 01:30:00', '2024-02-15 01:00:00', '2024-02-15 00:30:00', '2024-02-14 23:30:00', '2024-02-14 23:00:00', '2024-02-14 22:30:00', '2024-02-14 22:00:00', '2024-02-14 21:30:00', '2024-02-14 21:00:00', '2024-02-14 20:30:00', '2024-02-14 20:00:00', '2024-02-14 19:30:00', '2024-02-14 19:00:00', '2024-02-14 18:30:00', '2024-02-14 18:00:00', '2024-02-14 17:30:00', '2024-02-14 17:00:00', '2024-02-14 16:30:00', '2024-02-14 16:00:00', '2024-02-14 15:30:00', '2024-02-14 14:00:00', '2024-02-14 13:30:00', '2024-02-14 13:00:00', '2024-02-14 12:30:00', '2024-02-14 12:00:00', '2024-02-14 11:30:00', '2024-02-14 11:00:00', '2024-02-14 10:30:00', '2024-02-14 10:00:00', '2024-02-14 09:30:00', '2024-02-14 09:00:00', '2024-02-14 08:30:00', '2024-02-14 08:00:00', '2024-02-14 07:30:00', '2024-02-14 07:00:00', '2024-02-14 06:30:00', '2024-02-14 06:00:00', '2024-02-14 05:30:00', '2024-02-14 05:00:00', '2024-02-14 04:30:00', '2024-02-14 04:00:00', '2024-02-14 03:30:00', '2024-02-14 03:00:00', '2024-02-14 02:30:00', '2024-02-14 02:00:00', '2024-02-14 01:30:00', '2024-02-14 01:00:00', '2024-02-14 00:30:00', '2024-02-14 00:00:00', '2024-02-13 23:30:00', '2024-02-13 23:00:00', '2024-02-13 22:30:00', '2024-02-13 22:00:00', '2024-02-13 21:30:00', '2024-02-13 21:00:00', '2024-02-13 20:30:00', '2024-02-13 20:00:00', '2024-02-13 19:30:00', '2024-02-13 19:00:00', '2024-02-13 18:30:00', '2024-02-13 18:00:00', '2024-02-13 17:30:00', '2024-02-13 17:00:00', '2024-02-13 16:30:00', '2024-02-13 16:00:00', '2024-02-13 15:30:00', '2024-02-13 15:00:00', '2024-02-13 14:30:00', '2024-02-13 14:00:00', '2024-02-13 13:30:00', '2024-02-13 13:00:00', '2024-02-13 12:30:00', '2024-02-13 12:00:00', '2024-02-13 11:30:00', '2024-02-13 11:00:00', '2024-02-13 10:30:00', '2024-02-13 10:00:00', '2024-02-13 09:30:00', '2024-02-13 09:00:00', '2024-02-13 08:30:00', '2024-02-13 08:00:00', '2024-02-13 07:30:00', '2024-02-13 07:00:00', '2024-02-13 06:30:00', '2024-02-13 06:00:00', '2024-02-13 05:30:00', '2024-02-13 04:30:00', '2024-02-13 04:00:00', '2024-02-13 03:30:00', '2024-02-13 03:00:00', '2024-02-13 02:30:00', '2024-02-13 02:00:00', '2024-02-13 01:30:00', '2024-02-13 01:00:00', '2024-02-13 00:30:00', '2024-02-13 00:00:00', '2024-02-12 23:30:00', '2024-02-12 23:00:00', '2024-02-12 22:30:00', '2024-02-12 22:00:00', '2024-02-12 21:30:00', '2024-02-12 21:00:00', '2024-02-12 20:30:00', '2024-02-12 20:00:00', '2024-02-12 19:30:00', '2024-02-12 19:00:00', '2024-02-12 18:30:00', '2024-02-12 18:00:00', '2024-02-12 17:30:00', '2024-02-12 17:00:00', '2024-02-12 16:30:00', '2024-02-12 16:00:00', '2024-02-12 15:30:00', '2024-02-12 15:00:00', '2024-02-12 14:30:00', '2024-02-12 14:00:00', '2024-02-12 13:30:00', '2024-02-12 13:00:00', '2024-02-12 12:30:00', '2024-02-12 12:00:00', '2024-02-12 11:30:00', '2024-02-12 11:00:00']"
Vanuatu, Luganville Santo-Pekoa International Airport (SON/NVSS) ,"['NVSS 151000Z AUTO 23003KT //// // NCD 27/26 Q1004', 'NVSS 150900Z 24003KT 9999 FEW015CB SCT018 BKN040 27/27 Q1004', 'NVSS 150600Z 25003KT 9999 TS FEW018CB SCT020 BKN040 29/27 Q1002', 'NVSS 150500Z 18003KT 9999 SCT018 BKN110 30/27 Q1002 RERA', 'NVSS 150400Z 18005KT 9999 -SHRA SCT018 BKN040 30/27 Q1002', 'NVSS 150300Z 25005KT 210V310 9999 SCT018 BKN300 29/28 Q1002 RERA', 'NVSS 150200Z 19005KT 160V300 9999 -SHRA FEW012 BKN018 OVC040 29/27 Q1003', 'NVSS 150100Z 22006KT 9999 SCT020 BKN300 32/27 Q1004', 'NVSS 150000Z 17006KT 130V240 9999 SCT020 BKN110 32/26 Q1004', 'NVSS 142300Z 16005KT 110V200 9999 SCT020 BKN110 31/26 Q1004', 'NVSS 142100Z 19006KT 130V240 9999 SCT020 BKN290 30/26 Q1004', 'NVSS 142000Z 22004KT 9999 SCT020 BKN300 28/26 Q1004', 'NVSS 141900Z 24003KT 9999 SCT020 BKN300 27/26 Q1004', 'NVSS 141800Z 23004KT 9999 FEW020 27/26 Q1003', 'NVSS 141500Z 24004KT 160V290 9999 FEW025 27/26 Q1003', 'NVSS 141200Z VRB02KT 9999 SCT020 27/26 Q1005', 'NVSS 140900Z 26003KT 9999 SCT020 27/26 Q1005', 'NVSS 140800Z AUTO 23002KT //// // NCD 27/26 Q1005', 'NVSS 140700Z AUTO 22004KT //// // NCD 28/26 Q1004', 'NVSS 140600Z 23004KT 190V290 9999 FEW018CB SCT020 BKN040 29/26 Q1003 RERA', 'NVSS 140500Z 23006KT 180V280 9999 -SHRA FEW012 SCT018 BKN040 29/26 Q1003 INTER 0500/0700 7000 RA FEW008 BKN018 OVC090', 'NVSS 140400Z 23008KT 170V300 9999 FEW018CB SCT020 BKN040 30/26 Q1003', 'NVSS 140300Z 24008KT 190V290 9999 FEW018CB SCT020 31/26 Q1003', 'NVSS 140100Z 23007KT 190V300 9999 SCT020 31/26 Q1004', 'NVSS 140000Z 24006KT 190V310 9999 SCT020 31/26 Q1005', 'NVSS 132300Z 24008KT 190V290 9999 FEW025 31/26 Q1005', 'NVSS 132200Z 23006KT 180V280 9999 FEW025 30/25 Q1005', 'NVSS 132100Z 24004KT 190V290 9999 FEW025 29/25 Q1005', 'NVSS 132000Z 24004KT 9999 FEW025 27/24 Q1004', 'NVSS 131900Z VRB02KT 9999 FEW025 25/24 Q1004', 'NVSS 131800Z 28003KT 9999 FEW025 25/23 Q1004', 'NVSS 131500Z 27003KT 9999 SCT020 26/24 Q1004', 'NVSS 131200Z 25003KT 9999 SCT020 25/24 Q1006', 'NVSS 130900Z 24004KT 9999 BKN020 28/24 Q1005', 'NVSS 130600Z 24006KT 9999 FEW025 30/24 Q1004', 'NVSS 130500Z 24008KT 9999 FEW025 30/24 Q1003', 'NVSS 130400Z 26007KT 9999 FEW025 31/24 Q1003', 'NVSS 130300Z 25007KT 9999 FEW025 31/24 Q1004', 'NVSS 130200Z 24006KT 9999 FEW025 31/25 Q1005', 'NVSS 130100Z 25007KT 9999 FEW025 31/25 Q1005', 'NVSS 130000Z 23007KT 9999 FEW025 31/25 Q1006', 'NVSS 122300Z 23007KT 9999 FEW025 30/25 Q1006', 'NVSS 122200Z 23005KT 9999 FEW025 29/25 Q1007', 'NVSS 122100Z 24003KT 9999 FEW025 28/24 Q1007', 'NVSS 121800Z 25003KT 9999 FEW020 24/22 Q1005', 'NVSS 121200Z VRB02KT 9999 FEW020 24/24 Q1007']","['2024-02-15 10:00:00', '2024-02-15 09:00:00', '2024-02-15 06:00:00', '2024-02-15 05:00:00', '2024-02-15 04:00:00', '2024-02-15 03:00:00', '2024-02-15 02:00:00', '2024-02-15 01:00:00', '2024-02-15 00:00:00', '2024-02-14 23:00:00', '2024-02-14 21:00:00', '2024-02-14 20:00:00', '2024-02-14 19:00:00', '2024-02-14 18:00:00', '2024-02-14 15:00:00', '2024-02-14 12:00:00', '2024-02-14 09:00:00', '2024-02-14 08:00:00', '2024-02-14 07:00:00', '2024-02-14 06:00:00', '2024-02-14 05:00:00', '2024-02-14 04:00:00', '2024-02-14 03:00:00', '2024-02-14 01:00:00', '2024-02-14 00:00:00', '2024-02-13 23:00:00', '2024-02-13 22:00:00', '2024-02-13 21:00:00', '2024-02-13 20:00:00', '2024-02-13 19:00:00', '2024-02-13 18:00:00', '2024-02-13 15:00:00', '2024-02-13 12:00:00', '2024-02-13 09:00:00', '2024-02-13 06:00:00', '2024-02-13 05:00:00', '2024-02-13 04:00:00', '2024-02-13 03:00:00', '2024-02-13 02:00:00', '2024-02-13 01:00:00', '2024-02-13 00:00:00', '2024-02-12 23:00:00', '2024-02-12 22:00:00', '2024-02-12 21:00:00', '2024-02-12 18:00:00', '2024-02-12 12:00:00']"
Vanuatu, Port Vila Bauerfield International Airport (VLI/NVVV) ,"['NVVV 151000Z 14009KT 9999 FEW018TCU BKN020 BKN040 27/26 Q1005 RERA', 'NVVV 150900Z 14009KT 9999 FEW008 FEW018TCU BKN020 28/27 Q1005 RERA', 'NVVV 150700Z 14010KT 9999 FEW015 BKN018 OVC040 28/27 Q1005', 'NVVV 150600Z 13010KT 9999 SCT015 BKN018 BKN040 28/27 Q1004', 'NVVV 150500Z 14011KT 9999 SCT015 BKN018 OVC035 28/27 Q1003', 'NVVV 150400Z 13012KT 9999 SCT012 SCT018 BKN035 28/27 Q1003', 'NVVV 150300Z 13011KT 9999 FEW015 BKN018 OVC040 30/28 Q1003', 'NVVV 150200Z 14010KT 9999 FEW015 BKN018 OVC040 29/27 Q1004', 'NVVV 150100Z 13014KT 2000 +SHRA SCT008 BKN015 OVC035 28/27 Q1005', 'NVVV 150000Z 13013KT 9999 FEW010 BKN015 OVC040 29/27 Q1004', 'NVVV 142300Z 13014KT 9999 FEW010 BKN015 OVC040 29/27 Q1005', 'NVVV 142100Z 14008KT 9999 -SHRA FEW010 BKN018 OVC040 28/27 Q1005 INTER 2100/2300 8000 SHRA FEW006 BKN016 OVC038', 'NVVV 141900Z 14007KT 9999 -SHRA FEW010 BKN018 27/26 Q1004', 'NVVV 141800Z 15006KT 9999 FEW010 BKN018 OVC110 27/26 Q1004 RERA', 'NVVV 141700Z 14004KT 9999 -RA FEW010 BKN018 OVC100 27/26 Q1004', 'NVVV 141600Z 13007KT 9999 -SHRA FEW010 BKN018 BKN040 27/26 Q1003', 'NVVV 141500Z 15008KT 9999 -SHRA FEW010 BKN018 BKN040 27/26 Q1003', 'NVVV 141400Z 11007KT 9999 SHRA FEW010 BKN018 OVC040 27/26 Q1004', 'NVVV 141300Z 14007KT 9999 -SHRA FEW010 BKN018 27/26 Q1005', 'NVVV 141200Z 15007KT 9999 BKN018 27/26 Q1005', 'NVVV 141100Z 14004KT 4000 SHRA FEW010 BKN018 28/27 Q1005', 'NVVV 141000Z VRB02KT 9999 BKN018 27/27 Q1006', 'NVVV 140900Z 10004KT 9999 SCT020 28/26 Q1005', 'NVVV 140800Z 15006KT 9999 -SHRA FEW008 FEW015TCU BKN018 28/27 Q1005 INTER 0800/1000 8000 SHRA SCT006 FEW015TCU OVC038', 'NVVV 140700Z 16006KT 9999 FEW018TCU BKN020 28/27 Q1004 RERA', 'NVVV 140600Z 15005KT 9999 -SHRA FEW008 FEW15TCU BKN018 28/27 Q1004 INTER 0600/0800 8000 SHRA SCT010 BKN016 OVC038', 'NVVV 140500Z 17010KT 140V120 9999 VCSH FEW008 FEW017TCU BKN018 29/27 Q1003 INTER 0500/0700 8000 SHRA FEW010 BKN018 OVC090', 'NVVV 140400Z 17010KT140V200 9999 FEW018TCU BKN020 30/27 Q1003', 'NVVV 140300Z 16007KT 9999 FEW010 FEW016TCU BKN018 30/27 Q1004 RERA', 'NVVV 140100Z 15010KT 120V190 9999 -DZ FEW018TCU BKN020 30/26 Q1005', 'NVVV 140000Z 15010KT 9999 FEW018TCU BKN020 30/27 Q1005', 'NVVV 132300Z 14012KT 9999 VCSH FEW018TCU BKN020 29/26 Q1005 INTER 2300/0100 8000 SHRA FEW010 BKN016 OVC038', 'NVVV 132200Z 15011KT 9999 FEW016TCU BKN018 29/27 Q1005 RERA', 'NVVV 132100Z 14009KT 9999 -SHRA FEW008 FEW015TCU BKN018 OVC100 28/27 Q1005 INTER 2100/2300 8000 RA SCT010 BKN014 FEW020CB OVC060', 'NVVV 132000Z 15006KT 9999 FEW010 BKN018 27/28 Q1005', 'NVVV 131900Z 14008KT 9999 FEW010 FEW015CB BKN018 27/26 Q1004 RERA', 'NVVV 131800Z 15003KT 9999 -RA SCT018 BKN040 OVC090 27/26 Q1004', 'NVVV 131700Z 14004KT 9999 BKN018 OVC090 27/26 Q1004 RERA', 'NVVV 131600Z 17004KT 9999 BKN018 BKN110 27/26 Q1004 RERA', 'NVVV 131500Z 13004KT 9999 BKN018 BKN040 26/26 Q1004 RERA', 'NVVV 131400Z 16004KT 9999 BKN018 BKN040 26/26 Q1005', 'NVVV 131300Z 12003KT 9999 BKN018 BKN040 26/26 Q1006', 'NVVV 131200Z VRB02KT 9999 BKN018 BKN040 26/25 Q1006', 'NVVV 131100Z VRB02KT 9999 BKN018 BKN040 27/26 Q1006 RERA', 'NVVV 131000Z VRB02KT 9999 BKN020 26/26 Q1006', 'NVVV 130900Z VRB02KT 9999 BKN020 27/26 Q1006', 'NVVV 130800Z VRB02KT 9999 FEW020 FEW025TCU 27/25 Q1005', 'NVVV 130700Z 13004KT 9999 FEW020 FEW025TCU 29/26 Q1005', 'NVVV 130600Z 15009KT 9999 BKN020 30/25 Q1004', 'NVVV 130500Z 15009KT 9999 BKN018 FEW020TCU 29/25 Q1004', 'NVVV 130400Z 12011KT 9999 VCSH FEW010 BKN018 FEW020TCU BKN040 29/26 Q1004', 'NVVV 130300Z 11012KT 9999 BKN018 FEW020TCU BKN040 30/26 Q1004', 'NVVV 130100Z 13008KT 9999 FEW010 BKN018 29/26 Q1005', 'NVVV 130000Z 11006KT 3000 SHRA SCT010 FEW015TCU BKN018 28/27 Q1006 INTER 0000/0200 2000 +SHRA SCT008 BKN014TCU OVC038', 'NVVV 122300Z VRB01KT 9999 SCT018 28/27 Q1006 RERA', 'NVVV 122100Z VRB01KT 9999 FEW010 BKN018 BKN040 26/25 Q1007 RERA', 'NVVV 121900Z VRB01KT 6000 SHRA SCT006 BKN018 OVC030 25/25 Q1006', 'NVVV 121800Z VRB02KT 9999 -SHRA FEW012 SCT018 OVC040 25/25 Q1005', 'NVVV 121700Z VRB02KT 9999 -SHRA FEW010 SCT018 FEW020TCU BKN040 25/25 Q1005', 'NVVV 121600Z VRB01KT 9999 FEW018 24/24 Q1005', 'NVVV 121500Z VRB02KT 9999 FEW018 24/24 Q1005', 'NVVV 121400Z VRB02KT 9999 FEW018 24/24 Q1005', 'NVVV 121300Z VRB02KT 9999 FEW018 25/25 Q1006', 'NVVV 121200Z 00000KT 9999 FEW018 26/25 Q1007']","['2024-02-15 10:00:00', '2024-02-15 09:00:00', '2024-02-15 07:00:00', '2024-02-15 06:00:00', '2024-02-15 05:00:00', '2024-02-15 04:00:00', '2024-02-15 03:00:00', '2024-02-15 02:00:00', '2024-02-15 01:00:00', '2024-02-15 00:00:00', '2024-02-14 23:00:00', '2024-02-14 21:00:00', '2024-02-14 19:00:00', '2024-02-14 18:00:00', '2024-02-14 17:00:00', '2024-02-14 16:00:00', '2024-02-14 15:00:00', '2024-02-14 14:00:00', '2024-02-14 13:00:00', '2024-02-14 12:00:00', '2024-02-14 11:00:00', '2024-02-14 10:00:00', '2024-02-14 09:00:00', '2024-02-14 08:00:00', '2024-02-14 07:00:00', '2024-02-14 06:00:00', '2024-02-14 05:00:00', '2024-02-14 04:00:00', '2024-02-14 03:00:00', '2024-02-14 01:00:00', '2024-02-14 00:00:00', '2024-02-13 23:00:00', '2024-02-13 22:00:00', '2024-02-13 21:00:00', '2024-02-13 20:00:00', '2024-02-13 19:00:00', '2024-02-13 18:00:00', '2024-02-13 17:00:00', '2024-02-13 16:00:00', '2024-02-13 15:00:00', '2024-02-13 14:00:00', '2024-02-13 13:00:00', '2024-02-13 12:00:00', '2024-02-13 11:00:00', '2024-02-13 10:00:00', '2024-02-13 09:00:00', '2024-02-13 08:00:00', '2024-02-13 07:00:00', '2024-02-13 06:00:00', '2024-02-13 05:00:00', '2024-02-13 04:00:00', '2024-02-13 03:00:00', '2024-02-13 01:00:00', '2024-02-13 00:00:00', '2024-02-12 23:00:00', '2024-02-12 21:00:00', '2024-02-12 19:00:00', '2024-02-12 18:00:00', '2024-02-12 17:00:00', '2024-02-12 16:00:00', '2024-02-12 15:00:00', '2024-02-12 14:00:00', '2024-02-12 13:00:00', '2024-02-12 12:00:00']"
Vanuatu, Tanna Whitegrass Airport (TAH/NVVW) ,"['NVVW 150900Z 15004KT 9999 SCT020 BKN040 27/26 Q1007 RERA', 'NVVW 150200Z 15008KT 9999 SCT020 OVC040 31/26 Q1005', 'NVVW 142000Z 13004KT 9999 BKN020 28/26 Q1006', 'NVVW 141900Z 13003KT 9999 BKN020 28/25 Q1005', 'NVVW 141800Z VRB02KT 9999 SCT020 BKN040 27/26 Q1004', 'NVVW 141500Z VRB02KT 9999 SCT020 27/26 Q1004', 'NVVW 141200Z 19004KT 9999 SCT020 27/26 Q1006 RERA', 'NVVW 140900Z 13003KT 9999 SCT020 BKN040 27/27 Q1006 RERA', 'NVVW 140600Z 18008KT 9999 BKN020 30/27 Q1004', 'NVVW 140400Z 18008KT 9999 BKN020 31/28 Q1004', 'NVVW 140300Z 18012KT 9999 SCT020 BKN040 31/28 Q1004', 'NVVW 140200Z 18012KT 9999 BKN020 31/28 Q1002', 'NVVW 140000Z 18008KT 9999 BKN020 30/28 Q1005', 'NVVW 132300Z 18009KT 9999 BKN020 29/27 Q1005', 'NVVW 132200Z 18006KT 9999 BKN020 29/27 Q1006', 'NVVW 132100Z 18006KT 9999 BKN020 29/26 Q1006', 'NVVW 132000Z VRB02KT 9999 BKN020 27/26 Q1005', 'NVVW 131900Z VRB02KT 9999 SCT020 BKN040 26/25 Q1005', 'NVVW 131800Z 13004KT 9999 SCT020 BKN040 26/25 Q1004', 'NVVW 131200Z 00000KT 9999 SCT020 BKN040 27/26 Q1006', 'NVVW 130900Z VRB02KT 9999 SCT020 BKN040 27/26 Q1006', 'NVVW 130600Z 18005KT 9999 SCT020 BKN040 29/27 Q1004', 'NVVW 130500Z 18008KT 9999 BKN020 30/27 Q1004', 'NVVW 130400Z 18011KT 9999 BKN020 30/27 Q1004', 'NVVW 130300Z 18010KT 9999 ?SHRA BKN018 BKN040 29/27 Q1005', 'NVVW 130200Z 18010KT 9999 BKN020 30/27 Q1005', 'NVVW 130100Z 18009KT 9999 BKN020 30/27 Q1005', 'NVVW 130000Z 18006KT 9999 SCT020 BKN040 30/27 Q1006', 'NVVW 122300Z 18006KT 9999 SCT020 29/27 Q1006', 'NVVW 122200Z 18006KT 9999 BKN020 29/27 Q1006', 'NVVW 122100Z 18005KT 9999 SCT020 29/26 Q1006']","['2024-02-15 09:00:00', '2024-02-15 02:00:00', '2024-02-14 20:00:00', '2024-02-14 19:00:00', '2024-02-14 18:00:00', '2024-02-14 15:00:00', '2024-02-14 12:00:00', '2024-02-14 09:00:00', '2024-02-14 06:00:00', '2024-02-14 04:00:00', '2024-02-14 03:00:00', '2024-02-14 02:00:00', '2024-02-14 00:00:00', '2024-02-13 23:00:00', '2024-02-13 22:00:00', '2024-02-13 21:00:00', '2024-02-13 20:00:00', '2024-02-13 19:00:00', '2024-02-13 18:00:00', '2024-02-13 12:00:00', '2024-02-13 09:00:00', '2024-02-13 06:00:00', '2024-02-13 05:00:00', '2024-02-13 04:00:00', '2024-02-13 03:00:00', '2024-02-13 02:00:00', '2024-02-13 01:00:00', '2024-02-13 00:00:00', '2024-02-12 23:00:00', '2024-02-12 22:00:00', '2024-02-12 21:00:00']"
Venezuela, Barcelona Jose Antonio Anzoategui International Airport (BLA/SVBC) ,"['SVBC 151003Z AUTO 14003KT NCD 24/24 Q1014', 'SVBC 151000Z 00000KT 9999 FEW010 26/XX Q1015', 'SVBC 150903Z AUTO 10002KT NCD 25/24 Q1013', 'SVBC 150803Z AUTO 10003KT NCD 25/24 Q1013', 'SVBC 150703Z AUTO 17001KT NCD 25/24 Q1014', 'SVBC 150603Z AUTO 13001KT NCD 26/24 Q1014', 'SVBC 150503Z AUTO 24001KT NCD 26/24 Q1014', 'SVBC 150403Z AUTO 18001KT NCD 26/24 Q1014', 'SVBC 150303Z AUTO 22002KT NCD 27/24 Q1014', 'SVBC 150203Z AUTO 25002KT NCD 28/24 Q1013', 'SVBC 150103Z AUTO 02006KT NCD 29/24 Q1013', 'SVBC 150003Z AUTO 01006KT NCD 30/23 Q1012', 'SVBC 142303Z AUTO 01007KT NCD 32/22 Q1012', 'SVBC 142300Z 03008KT 9999 FEW010 30/XX Q1012', 'SVBC 142203Z AUTO ///08KT NCD 33/23 Q1012', 'SVBC 142200Z 02015KT 9999 FEW010 33/XX Q1012', 'SVBC 142103Z AUTO 01008KT NCD 34/23 Q1012', 'SVBC 142100Z 02010KT 9999 FEW010 33/XX Q1011', 'SVBC 142003Z AUTO 34009KT NCD 32/23 Q1012', 'SVBC 142000Z 04010KT 9999 FEW010 34/XX Q1011', 'SVBC 141903Z AUTO 35011KT NCD 32/23 Q1013', 'SVBC 141900Z 36015KT 9999 FEW010 35/XX Q1012', 'SVBC 141803Z AUTO 33013KT NCD 33/23 Q1014', 'SVBC 141703Z AUTO 35009KT NCD 32/23 Q1015', 'SVBC 141603Z AUTO 36005KT NCD 32/23 Q1016', 'SVBC 141600Z 36005KT 9999 FEW010 33/XX Q1015', 'SVBC 141503Z AUTO 26003KT NCD 31/24 Q1017', 'SVBC 141500Z 00000KT 9999 FEW010 32/XX Q1016', 'SVBC 141403Z AUTO 15003KT NCD 28/25 Q1017', 'SVBC 141300Z 00000KT 9999 FEW010 28/XX Q1016', 'SVBC 141300Z 00000KT 9999 FEW010 28/XX Q1016', 'SVBC 140000Z 02007KT 9999 FEW010 29/XX Q1011', 'SVBC 132300Z 03013KT 9999 FEW013 30/XX Q1011', 'SVBC 132250Z 040159KT 9999 FEW013 34/XX Q1010', 'SVBC 131850Z 03012KT 9999 FEW013 35/XX Q1011', 'SVBC 131850Z 04012KT 9999 FEW013 35/XX Q1013', 'SVBC 131650Z 34008KT 9999 FEW010 35/XX Q1013', 'SVBC 131550Z 35010KT 9999 FEW010 34/XX Q1015', 'SVBC 131350Z 32008KT 9999 FEW010 31/XX Q1016', 'SVBC 131250Z 00000KT 9999 FEW010 29/XX Q1015', 'SVBC 131100Z 00000KT 9999 FEW010 26/XX Q1014', 'SVBC 131100Z 00000KT 9999 FEW010 26/XX Q1014', 'SVBC 131000Z 00000KT 9999 FEW010 26/XX Q1013', 'SVBC 131000Z 00000KT 9999 FEW010 26/XX Q1013', 'SVBC 130100Z 00000KT 9999 FEW010 27/XX Q1011', 'SVBC 122300Z 34010KT 9999 FEW010 29/XX Q1011', 'SVBC 122200Z 34009KT 9999 FEW010 29/XX Q1010', 'SVBC 121900Z 04010KT 9999 FEW010 35/XX Q1011', 'SVBC 121500Z 00000KT 9999 FEW010 31/XX Q1015', 'SVBC 121400Z 00000KT 9999 FEW010 30/XX Q1015', 'SVBC 121400Z 00000KT 9999 FEW010 30/XX Q1015', 'SVBC 121100Z 00000KT 9999 FEW010 28/XX Q1013', 'SVBC 121100Z 00000KT 9999 FEW010 28/XX Q1013']","['2024-02-15 10:03:00', '2024-02-15 09:43:00', '2024-02-15 09:03:00', '2024-02-15 08:03:00', '2024-02-15 07:03:00', '2024-02-15 06:03:00', '2024-02-15 05:03:00', '2024-02-15 04:03:00', '2024-02-15 03:03:00', '2024-02-15 02:03:00', '2024-02-15 01:03:00', '2024-02-15 00:03:00', '2024-02-14 23:03:00', '2024-02-14 23:00:00', '2024-02-14 22:03:00', '2024-02-14 21:57:00', '2024-02-14 21:03:00', '2024-02-14 20:50:00', '2024-02-14 20:03:00', '2024-02-14 19:52:00', '2024-02-14 19:03:00', '2024-02-14 18:46:00', '2024-02-14 18:03:00', '2024-02-14 17:03:00', '2024-02-14 16:03:00', '2024-02-14 15:57:00', '2024-02-14 15:03:00', '2024-02-14 14:57:00', '2024-02-14 14:03:00', '2024-02-14 13:00:00', '2024-02-14 12:47:00', '2024-02-14 00:00:00', '2024-02-13 23:00:00', '2024-02-13 21:56:00', '2024-02-13 18:50:00', '2024-02-13 18:06:00', '2024-02-13 16:50:00', '2024-02-13 15:50:00', '2024-02-13 13:50:00', '2024-02-13 12:50:00', '2024-02-13 11:00:00', '2024-02-13 10:56:00', '2024-02-13 10:00:00', '2024-02-13 09:53:00', '2024-02-13 01:00:00', '2024-02-12 23:00:00', '2024-02-12 22:00:00', '2024-02-12 19:00:00', '2024-02-12 15:00:00', '2024-02-12 14:00:00', '2024-02-12 13:59:00', '2024-02-12 11:00:00', '2024-02-12 10:56:00']"
Venezuela, Barquisimeto Jacinto Lara International Airport (BRM/SVBM) ,"['SVBM 151003Z AUTO 08005KT NCD 22/20 Q1015', 'SVBM 150903Z AUTO 09006KT NCD 22/20 Q1015', 'SVBM 150803Z AUTO 11006KT NCD 22/20 Q1015', 'SVBM 150703Z AUTO 07007KT NCD 22/20 Q1015', 'SVBM 150603Z AUTO 03003KT NCD 23/20 Q1016', 'SVBM 150503Z AUTO 11003KT NCD 23/20 Q1016', 'SVBM 150403Z AUTO 11005KT NCD 23/20 Q1017', 'SVBM 150303Z AUTO 06005KT NCD 24/20 Q1016', 'SVBM 150203Z AUTO 09008KT NCD 24/19 Q1016', 'SVBM 150103Z AUTO 11007KT NCD 25/20 Q1015', 'SVBM 150003Z AUTO 35009KT NCD 27/19 Q1015', 'SVBM 142303Z AUTO 18010KT NCD 30/17 Q1014', 'SVBM 142203Z AUTO 18010KT NCD 31/15 Q1014', 'SVBM 142103Z AUTO 16014KT NCD 31/14 Q1014', 'SVBM 142003Z AUTO 17012KT NCD 31/15 Q1014', 'SVBM 141903Z AUTO 14013KT NCD 30/16 Q1015', 'SVBM 141803Z AUTO 14012KT NCD 30/18 Q1016', 'SVBM 141703Z AUTO 11012KT NCD 28/18 Q1018', 'SVBM 141603Z AUTO 13012KT NCD 25/18 Q1019', 'SVBM 141600Z /////KT 9999 SCT016 30/18 Q1017', 'SVBM 141503Z AUTO 13014KT NCD 24/18 Q1018', 'SVBM 141403Z AUTO 08006KT NCD 21/20 Q1018', 'SVBM 141200Z /////KT 8000 BR OVC013 22/18 Q1018', 'SVBM 132100Z /////KT 9999 SCT016 31/17 Q1015', 'SVBM 131900Z /////KT 9999 SCT016 32/17 Q1014', 'SVBM 131800Z /////KT 9999 SCT016 31/17 Q1015', 'SVBM 131700Z /////KT 9999 SCT016 31/17 Q1017', 'SVBM 131600Z /////KT 9999 SCT016 30/17 Q1017', 'SVBM 131500Z /////KT 9999 SCT016 30/17 Q1018', 'SVBM 131400Z /////KT 9999 SCT016 27/18 Q1019', 'SVBM 131200Z /////KT 9999 BKN016 23/18 Q1018', 'SVBM 122102Z /////KT 9999 FEW016 32/18 Q1014', 'SVBM 121707Z ///// 9999 FEW016 30/18 Q1017', 'SVBM 121603Z /////KT 9999 SCT016 29/19 Q1017', 'SVBM 121502Z /////KT 9999 SCT016 27/19 Q1017', 'SVBM 121200Z /////KT 9999 SCT016 23/20 Q1016']","['2024-02-15 10:03:00', '2024-02-15 09:03:00', '2024-02-15 08:03:00', '2024-02-15 07:03:00', '2024-02-15 06:03:00', '2024-02-15 05:03:00', '2024-02-15 04:03:00', '2024-02-15 03:03:00', '2024-02-15 02:03:00', '2024-02-15 01:03:00', '2024-02-15 00:03:00', '2024-02-14 23:03:00', '2024-02-14 22:03:00', '2024-02-14 21:03:00', '2024-02-14 20:03:00', '2024-02-14 19:03:00', '2024-02-14 18:03:00', '2024-02-14 17:03:00', '2024-02-14 16:03:00', '2024-02-14 16:00:00', '2024-02-14 15:03:00', '2024-02-14 14:03:00', '2024-02-14 12:00:00', '2024-02-13 21:00:00', '2024-02-13 19:00:00', '2024-02-13 18:00:00', '2024-02-13 17:00:00', '2024-02-13 16:00:00', '2024-02-13 15:00:00', '2024-02-13 14:00:00', '2024-02-13 12:00:00', '2024-02-12 21:02:00', '2024-02-12 17:07:00', '2024-02-12 16:03:00', '2024-02-12 15:02:00', '2024-02-12 12:00:00']"
Venezuela, Caracas Simon Bolivar International Airport (CCS/SVMI) ,"['SVMI 151003Z AUTO 29001KT NCD 24/22 Q1014', 'SVMI 151000Z 09006KT 9999 SCT016 SCT080 26/21 Q1014', 'SVMI 150903Z AUTO 29001KT NCD 24/22 Q1013', 'SVMI 150900Z 07005KT 9999 SCT016 SCT080 26/21 Q1014', 'SVMI 150803Z AUTO 07003KT NCD 25/22 Q1013', 'SVMI 150800Z 00000KT 9999 SCT016 BKN080 26/22 Q1014', 'SVMI 150703Z AUTO 08003KT NCD 25/22 Q1014', 'SVMI 150700Z 00000KT 9999 SCT016 BKN080 27/22 Q1013', 'SVMI 150603Z AUTO 08005KT NCD 25/23 Q1015', 'SVMI 150600Z 00000KT 9999 SCT016 BKN080 27/23 Q1013', 'SVMI 150503Z AUTO 08008KT NCD 26/23 Q1015', 'SVMI 150500Z 07005KT 9999 SCT016 BKN080 28/23 Q1013', 'SVMI 150403Z AUTO 08010KT NCD 26/23 Q1015', 'SVMI 150400Z 09005KT 9999 SCT016 BKN080 28/24 Q1014', 'SVMI 150303Z AUTO 07010KT NCD 26/23 Q1015', 'SVMI 150300Z 11007KT 9999 SCT016 BKN080 29/24 Q1014', 'SVMI 150203Z AUTO 08010KT NCD 26/23 Q1015', 'SVMI 150200Z 11005KT 9999 SCT016 BKN080 29/25 Q1014', 'SVMI 150103Z AUTO 08009KT NCD 26/23 Q1014', 'SVMI 150100Z 09005KT 9999 SCT016 BKN080 30/25 Q1013', 'SVMI 150003Z AUTO 08008KT NCD 26/23 Q1014', 'SVMI 150000Z 09006KT 9999 SCT016 BKN080 30/26 Q1013', 'SVMI 142303Z AUTO 07008KT NCD 26/23 Q1013', 'SVMI 142203Z AUTO 09012KT NCD 28/22 Q1013', 'SVMI 142200Z 09005KT 9999 SCT016 SCT080 32/27 Q1012', 'SVMI 142103Z AUTO 07008KT NCD 28/23 Q1013', 'SVMI 142003Z AUTO 06009KT NCD 29/22 Q1013', 'SVMI 141903Z AUTO 06007KT NCD 28/23 Q1014', 'SVMI 141900Z 09005KT 9999 FEW016 SCT080 32/26 Q1013', 'SVMI 141803Z AUTO 07008KT NCD 28/23 Q1015', 'SVMI 141800Z 11006KT 9999 FEW016 SCT080 31/26 Q1013', 'SVMI 141703Z AUTO 06007KT NCD 29/23 Q1016', 'SVMI 141700Z 11006KT 9999 FEW013 SCT080 30/26 Q1015', 'SVMI 141603Z AUTO 06007KT NCD 29/22 Q1016', 'SVMI 141600Z 11004KT 9999 FEW013 SCT080 29/24 Q1015', 'SVMI 141503Z AUTO 32003KT NCD 30/23 Q1017', 'SVMI 141500Z 09002KT 9999 FEW013 SCT070 28/25 Q1016', 'SVMI 141403Z AUTO 03003KT NCD 28/21 Q1017', 'SVMI 141400Z 09004KT 9999 FEW013 SCT070 27/24 Q1016', 'SVMI 141300Z 09002KT 9999 FEW016 SCT070 26/24 Q1014', 'SVMI 141200Z 09004KT 9999 FEW016 SCT070 26/24 Q1014', 'SVMI 141100Z 09006KT 9999 FEW016 SCT070 26/23 Q1014', 'SVMI 141000Z 07004KT 9999 FEW016 SCT080 25/23 Q1014', 'SVMI 140900Z 07004KT 9999 FEW016 SCT070 25/23 Q1013', 'SVMI 140800Z 07002KT 9999 FEW016 SCT080 24/21 Q1013', 'SVMI 140700Z 07002KT 9999 FEW016 SCT080 24/20 Q1013', 'SVMI 140600Z 07004KT 9999 FEW016 SCT070 24/22 Q1013', 'SVMI 140500Z 00000KT 9999 FEW016 SCT080 24/22 Q1012', 'SVMI 140400Z 00000KT 9999 FEW016 SCT070 24/21 Q1012', 'SVMI 140300Z 09002KT 9999 SCT016 BKN070 25/22 Q1013', 'SVMI 140200Z 09004KT 9999 SCT016 SCT080 25/21 Q1013', 'SVMI 140200Z 09004KT 9999 SCT016 SCT080 25/21 Q1013', 'SVMI 140100Z 11002KT 9999 SCT016 SCT080 25/22 Q1013', 'SVMI 140000Z 11004KT 9999 SCT016 SCT080 25/23 Q1013', 'SVMI 140000Z 11004KT 9999 SCT016 SCT080 25/23 Q1013', 'SVMI 132300Z 09002KT 9999 SCT016 SCT080 26/22 Q1013', 'SVMI 132200Z 09006KT 9999 SCT016 SCT080 27/24 Q1013', 'SVMI 132200Z 09006KT 9999 SCT016 SCT080 27/24 Q1013', 'SVMI 132100Z 09002KT 9999 SCT016 SCT080 27/24 Q1012', 'SVMI 132000Z 09004KT 9999 SCT016 SCT080 29/25 Q1012', 'SVMI 132000Z 09004KT 9999 SCT016 SCT080 29/25 Q1012', 'SVMI 131900Z 09006KT 9999 FEW016 SCT080 33/27 Q1013', 'SVMI 131800Z 09002KT 9999 FEW016 SCT080 33/25 Q1016', 'SVMI 131700Z 09002KT 9999 FEW016 SCT080 33/25 Q1016', 'SVMI 131600Z 09004KT 9999 FEW016 SCT070 30/26 Q1016', 'SVMI 131500Z 09006KT 9999 FEW016 SCT070 26/24 Q1015', 'SVMI 131400Z 09004KT 9999 FEW016 SCT070 27/24 Q1015', 'SVMI 131300Z 09006KT 9999 FEW016 SCT070 26/24 Q1015', 'SVMI 130900Z 09002KT 9999 FEW013 SCT080 25/22 Q1014', 'SVMI 130800Z 09004KT 9999 SCT016 SCT070 25/21 Q1013', 'SVMI 130700Z 00000KT 9999 SCT016 SCT070 24/22 Q1013', 'SVMI 130600Z 00000KT 9999 SCT016 SCT070 24/21 Q1013', 'SVMI 130500Z 11002KT 9999 SCT016 BKN070 24/20 Q1013', 'SVMI 130400Z 11006KT 9999 SCT016 BKN070 24/22 Q1012', 'SVMI 130300Z 09002KT 9999 SCT016 BKN070 25/22 Q1012', 'SVMI 130200Z 09002KT SCT016 BKN070 25/21 Q1012', 'SVMI 130100Z 09004KT SCT016 BKN070 25/21 Q1012', 'SVMI 130000Z 09008KT SCT016 SCT070 25/22 Q1012', 'SVMI 122300Z 09008KT SCT016 SCT070 25/22 Q1012', 'SVMI 122200Z 09002KT 9999 FEW016 SCT070 25/23 Q1014', 'SVMI 122100Z 09004KT 9999 FEW016 SCT070 26/24 Q1014', 'SVMI 122000Z 09006KT 9999 FEW016 SCT070 29/28 Q1013 \x03', 'SVMI 121900Z 09008KT 9999 FEW0165 SCT070 33/27 Q1013', 'SVMI 121800Z 09006KT 9999 FEW013 SCT070 32/27 Q1015', 'SVMI 121700Z 09008KT 9999 FEW013 SCT070 30/26 Q1015', 'SVMI 121600Z 11002KT 9999 FEW016 SCT070 29/25 Q1015', 'SVMI 121500Z 11004KT 9999 FEW016 SCT070 28/24 Q1015', 'SVMI 121400Z 09002KT 9999 FEW013 SCT070 27/23 Q1015', 'SVMI 121200Z 09002KT 9999 SCT016 SCT080 25/22 Q1014', 'SVMI 121100Z 09004KT 9999 SCT016 SCT080 25/21 Q1014']","['2024-02-15 10:03:00', '2024-02-15 10:00:00', '2024-02-15 09:03:00', '2024-02-15 09:00:00', '2024-02-15 08:03:00', '2024-02-15 08:00:00', '2024-02-15 07:03:00', '2024-02-15 07:00:00', '2024-02-15 06:03:00', '2024-02-15 06:00:00', '2024-02-15 05:03:00', '2024-02-15 05:00:00', '2024-02-15 04:03:00', '2024-02-15 04:00:00', '2024-02-15 03:03:00', '2024-02-15 03:00:00', '2024-02-15 02:03:00', '2024-02-15 02:00:00', '2024-02-15 01:03:00', '2024-02-15 00:59:00', '2024-02-15 00:03:00', '2024-02-15 00:00:00', '2024-02-14 23:03:00', '2024-02-14 22:03:00', '2024-02-14 22:00:00', '2024-02-14 21:03:00', '2024-02-14 20:03:00', '2024-02-14 19:03:00', '2024-02-14 19:00:00', '2024-02-14 18:03:00', '2024-02-14 18:00:00', '2024-02-14 17:03:00', '2024-02-14 17:00:00', '2024-02-14 16:03:00', '2024-02-14 16:00:00', '2024-02-14 15:03:00', '2024-02-14 14:50:00', '2024-02-14 14:03:00', '2024-02-14 14:00:00', '2024-02-14 13:00:00', '2024-02-14 12:00:00', '2024-02-14 11:00:00', '2024-02-14 10:00:00', '2024-02-14 09:00:00', '2024-02-14 08:00:00', '2024-02-14 07:00:00', '2024-02-14 06:00:00', '2024-02-14 05:00:00', '2024-02-14 04:00:00', '2024-02-14 03:00:00', '2024-02-14 02:00:00', '2024-02-14 01:51:00', '2024-02-14 01:00:00', '2024-02-14 00:00:00', '2024-02-13 23:58:00', '2024-02-13 23:00:00', '2024-02-13 22:00:00', '2024-02-13 21:59:00', '2024-02-13 21:00:00', '2024-02-13 20:00:00', '2024-02-13 19:59:00', '2024-02-13 19:00:00', '2024-02-13 18:00:00', '2024-02-13 17:00:00', '2024-02-13 16:00:00', '2024-02-13 15:00:00', '2024-02-13 14:00:00', '2024-02-13 13:00:00', '2024-02-13 09:00:00', '2024-02-13 08:00:00', '2024-02-13 07:00:00', '2024-02-13 06:00:00', '2024-02-13 05:00:00', '2024-02-13 04:00:00', '2024-02-13 03:00:00', '2024-02-13 02:00:00', '2024-02-13 01:00:00', '2024-02-13 00:00:00', '2024-02-12 23:00:00', '2024-02-12 22:00:00', '2024-02-12 21:00:00', '2024-02-12 20:00:00', '2024-02-12 19:00:00', '2024-02-12 18:00:00', '2024-02-12 17:00:00', '2024-02-12 16:00:00', '2024-02-12 15:00:00', '2024-02-12 14:00:00', '2024-02-12 12:00:00', '2024-02-12 11:00:00']"
Venezuela, Ciudad Bolivar Tomas de Heres Airport (CBL/SVCB) ,"['SVCB 151003Z AUTO 11005KT NCD 25/21 Q1013', 'SVCB 150903Z AUTO 10005KT NCD 25/22 Q1013', 'SVCB 150803Z AUTO 09007KT NCD 26/22 Q1013', 'SVCB 150703Z AUTO 07008KT NCD 26/22 Q1013', 'SVCB 150603Z AUTO 08009KT NCD 27/21 Q1013', 'SVCB 150503Z AUTO 07007KT NCD 27/21 Q1013', 'SVCB 150403Z AUTO 09008KT NCD 28/21 Q1013', 'SVCB 150303Z AUTO 09008KT NCD 29/21 Q1013', 'SVCB 150203Z AUTO 10008KT NCD 30/21 Q1013', 'SVCB 150103Z AUTO 12005KT NCD 31/21 Q1012', 'SVCB 150003Z AUTO 13005KT NCD 32/20 Q1011', 'SVCB 142303Z AUTO 06005KT NCD 33/19 Q1010', 'SVCB 142203Z AUTO 03006KT NCD 34/19 Q1010', 'SVCB 142103Z AUTO 06006KT NCD 35/19 Q1010', 'SVCB 142003Z AUTO 12007KT NCD 34/19 Q1011', 'SVCB 141903Z AUTO 14008KT NCD 33/20 Q1012', 'SVCB 141803Z AUTO 09009KT NCD 33/20 Q1013', 'SVCB 141703Z AUTO 08009KT NCD 32/20 Q1014', 'SVCB 141603Z AUTO 09009KT NCD 30/22 Q1015', 'SVCB 141503Z AUTO 08008KT NCD 30/22 Q1016', 'SVCB 141403Z AUTO 08006KT NCD 28/22 Q1016']","['2024-02-15 10:03:00', '2024-02-15 09:03:00', '2024-02-15 08:03:00', '2024-02-15 07:03:00', '2024-02-15 06:03:00', '2024-02-15 05:03:00', '2024-02-15 04:03:00', '2024-02-15 03:03:00', '2024-02-15 02:03:00', '2024-02-15 01:03:00', '2024-02-15 00:03:00', '2024-02-14 23:03:00', '2024-02-14 22:03:00', '2024-02-14 21:03:00', '2024-02-14 20:03:00', '2024-02-14 19:03:00', '2024-02-14 18:03:00', '2024-02-14 17:03:00', '2024-02-14 16:03:00', '2024-02-14 15:03:00', '2024-02-14 14:03:00']"
Venezuela, El Vigia Juan Pablo Perez Alfonso Airport (VIG/SVVG) ,"['SVVG 142000Z 00000KT 9999 FEW030 34/// Q1009', 'SVVG 141800Z 00000KT 7000 HZ FEW027 34/// Q1011', 'SVVG 141700Z 00000KT 7000 HZ FEW027 SCT100 29/// Q1013', 'SVVG 141400Z 00000KT 7000 HZ FEW027 SCT100 29/// Q1013', 'SVVG 141300Z 00000KT 7000 HZ SCT027 27/// Q1013']","['2024-02-14 20:00:00', '2024-02-14 18:00:00', '2024-02-14 17:00:00', '2024-02-14 14:00:00', '2024-02-14 13:00:00']"
Vietnam, Can Tho International Airport (VCA/VVCT) ,"['VVCT 151000Z 10009KT CAVOK 31/22 Q1012 NOSIG', 'VVCT 150930Z 10012KT 9999 FEW015 32/22 Q1012 NOSIG', 'VVCT 150900Z 08010KT 9999 FEW015 32/22 Q1012 NOSIG', 'VVCT 150830Z 10011KT 9999 FEW015 SCT050 32/22 Q1012 NOSIG', 'VVCT 150800Z 09012KT 9999 FEW015 BKN050 34/22 Q1012 NOSIG', 'VVCT 150730Z 09010KT 9999 FEW015 BKN050 34/22 Q1012 NOSIG', 'VVCT 150700Z 08010KT 9999 FEW015 SCT050 33/22 Q1012 NOSIG', 'VVCT 150630Z 08011KT 9999 FEW015 SCT050 32/22 Q1013 NOSIG', 'VVCT 150600Z 08013KT 9999 FEW015 SCT050 33/22 Q1013 NOSIG', 'VVCT 150530Z 07012KT 9999 FEW015 SCT050 33/22 Q1013 NOSIG', 'VVCT 150500Z 08014KT 9999 FEW015 33/22 Q1014 NOSIG', 'VVCT 150430Z 09013KT CAVOK 33/23 Q1014 NOSIG', 'VVCT 150400Z 10013KT CAVOK 33/23 Q1014 NOSIG', 'VVCT 150330Z 09013KT CAVOK 32/24 Q1015 NOSIG', 'VVCT 150300Z 09012KT CAVOK 31/23 Q1015 NOSIG', 'VVCT 150230Z 08012KT CAVOK 29/24 Q1015 NOSIG', 'VVCT 150200Z 08012KT CAVOK 29/24 Q1015 NOSIG', 'VVCT 150130Z 08013KT CAVOK 29/24 Q1014 NOSIG', 'VVCT 150100Z 09010KT CAVOK 27/24 Q1014 NOSIG', 'VVCT 150030Z 10007KT 9999 FEW015 27/24 Q1014 NOSIG', 'VVCT 150000Z 09004KT 9999 FEW015 25/24 Q1013 NOSIG', 'VVCT 142330Z 10004KT 9999 FEW015 25/23 Q1013 NOSIG', 'VVCT 142300Z 10004KT 9999 FEW015 25/23 Q1013 NOSIG', 'VVCT 142230Z 10003KT 9999 FEW015 25/23 Q1013 NOSIG', 'VVCT 142200Z 09003KT 9999 FEW015 25/23 Q1012 NOSIG', 'VVCT 142130Z 10004KT 9999 FEW015 25/23 Q1012 NOSIG', 'VVCT 142100Z 10005KT 9999 FEW015 25/23 Q1012 NOSIG', 'VVCT 142000Z 12006KT 9999 FEW015 25/23 Q1012 NOSIG', 'VVCT 141930Z 10004KT 9999 FEW015 25/23 Q1012 NOSIG', 'VVCT 141900Z 09004KT 9999 FEW015 26/23 Q1012 NOSIG', 'VVCT 141830Z 09006KT 9999 FEW015 26/23 Q1013 NOSIG', 'VVCT 141800Z 10006KT 9999 FEW015 26/23 Q1013 NOSIG', 'VVCT 141730Z 10008KT 9999 FEW015 26/24 Q1013 NOSIG', 'VVCT 141700Z 10007KT 9999 FEW015 26/24 Q1013 NOSIG', 'VVCT 141630Z 10006KT 9999 FEW015 26/23 Q1013 NOSIG', 'VVCT 141600Z VRB03KT 9999 FEW015 27/23 Q1014 NOSIG', 'VVCT 141530Z VRB03KT 9999 FEW015 26/24 Q1014 NOSIG', 'VVCT 141500Z 10006KT 9999 FEW015 26/24 Q1014 NOSIG', 'VVCT 141430Z 10006KT 9999 FEW015 27/24 Q1014 NOSIG', 'VVCT 141400Z 10006KT 9999 FEW015 27/23 Q1014 NOSIG', 'VVCT 141330Z 09005KT 9999 FEW015 27/23 Q1013 NOSIG', 'VVCT 141300Z 09004KT 9999 FEW015 27/23 Q1013 NOSIG', 'VVCT 141230Z 09006KT 9999 FEW015 28/23 Q1013 NOSIG', 'VVCT 141200Z 10007KT 9999 FEW015 29/22 Q1012 NOSIG', 'VVCT 141130Z 10009KT 9999 FEW015 29/22 Q1012 NOSIG', 'VVCT 141100Z 10008KT 9999 FEW015 29/22 Q1012 NOSIG', 'VVCT 141030Z 10009KT 9999 FEW017 30/22 Q1011 NOSIG', 'VVCT 141000Z 10010KT 9999 FEW017 31/22 Q1011 NOSIG', 'VVCT 140930Z 08012KT 9999 FEW017 32/22 Q1011 NOSIG', 'VVCT 140900Z 09011KT 9999 FEW017 33/23 Q1010 NOSIG', 'VVCT 140830Z 08012KT 9999 SCT017 33/23 Q1010 NOSIG', 'VVCT 140800Z 07012KT 9999 SCT017 33/22 Q1011 NOSIG', 'VVCT 140730Z 07011KT 9999 SCT017 34/23 Q1011 NOSIG', 'VVCT 140700Z 07012KT 9999 FEW017 33/23 Q1011 NOSIG', 'VVCT 140630Z 07014KT 9999 FEW017 33/22 Q1012 NOSIG', 'VVCT 140600Z 07012KT 9999 FEW017 33/23 Q1012 NOSIG', 'VVCT 140530Z 06013KT 9999 FEW017 33/23 Q1013 NOSIG', 'VVCT 140500Z 08012KT 9999 FEW017 33/23 Q1013 NOSIG', 'VVCT 140430Z 07011KT 9999 FEW015 32/24 Q1014 NOSIG', 'VVCT 140400Z 06013KT 9999 FEW015 32/24 Q1015 NOSIG', 'VVCT 140330Z 07012KT 9999 FEW015 31/24 Q1015 NOSIG', 'VVCT 140300Z 08013KT 9999 FEW015 31/24 Q1015 NOSIG', 'VVCT 140230Z 07012KT 9999 FEW015 30/24 Q1015 NOSIG', 'VVCT 140200Z 07012KT 9999 FEW015 29/24 Q1015 NOSIG', 'VVCT 140130Z 07011KT CAVOK 29/24 Q1015 NOSIG', 'VVCT 140100Z 08009KT CAVOK 28/24 Q1015 NOSIG', 'VVCT 140030Z 09007KT CAVOK 27/24 Q1014 NOSIG', 'VVCT 140000Z 09005KT CAVOK 26/23 Q1014 NOSIG', 'VVCT 132330Z 09005KT 9999 FEW015 25/23 Q1014 NOSIG', 'VVCT 132300Z 09005KT 9999 FEW015 26/24 Q1013 NOSIG', 'VVCT 132230Z 08005KT 9999 FEW015 25/23 Q1013 NOSIG', 'VVCT 132200Z 07005KT 9999 FEW015 25/23 Q1013 NOSIG', 'VVCT 132130Z 07005KT 9999 FEW015 25/23 Q1013 NOSIG', 'VVCT 132100Z 08005KT 9999 FEW015 26/23 Q1013 NOSIG', 'VVCT 132030Z 08007KT 9999 FEW015 26/23 Q1013 NOSIG', 'VVCT 132000Z 08007KT 9999 FEW015 26/23 Q1013 NOSIG', 'VVCT 131930Z 07006KT 9999 FEW015 26/23 Q1013 NOSIG', 'VVCT 131900Z 08007KT 9999 FEW015 26/23 Q1013 NOSIG', 'VVCT 131830Z 09004KT 9999 FEW015 26/23 Q1014 NOSIG', 'VVCT 131800Z 09004KT 9999 FEW015 26/23 Q1014 NOSIG', 'VVCT 131730Z 09004KT 9999 FEW015 26/23 Q1014 NOSIG', 'VVCT 131700Z 10003KT 9999 FEW015 26/23 Q1015 NOSIG', 'VVCT 131630Z 11006KT 9999 FEW015 26/23 Q1015 NOSIG', 'VVCT 131600Z 11008KT 9999 FEW015 26/23 Q1015 NOSIG', 'VVCT 131530Z 09006KT 9999 FEW015 26/23 Q1015 NOSIG', 'VVCT 131500Z 07006KT 9999 FEW015 26/23 Q1015 NOSIG', 'VVCT 131430Z 07006KT 9999 FEW015 26/23 Q1015 NOSIG', 'VVCT 131400Z 08008KT 9999 FEW015 26/23 Q1014 NOSIG', 'VVCT 131330Z 08011KT 9999 FEW015 27/23 Q1014 NOSIG', 'VVCT 131300Z 08007KT 9999 FEW015 27/23 Q1014 NOSIG', 'VVCT 131230Z 09007KT 9999 FEW015 27/23 Q1013 NOSIG', 'VVCT 131200Z 08010KT 9999 FEW015 28/23 Q1013 NOSIG', 'VVCT 131130Z 08010KT 9999 FEW015 28/22 Q1013 NOSIG', 'VVCT 131100Z 09012KT 9999 FEW015 28/22 Q1012 NOSIG', 'VVCT 131030Z 08013KT 9999 FEW015 29/22 Q1012 NOSIG', 'VVCT 131000Z 07016KT 9999 FEW015 31/22 Q1012 NOSIG', 'VVCT 130930Z 07013KT 9999 FEW015 31/21 Q1012 NOSIG', 'VVCT 130900Z 07014KT 9999 FEW015 32/21 Q1012 NOSIG', 'VVCT 130830Z 07014KT 9999 FEW015 33/21 Q1012 NOSIG', 'VVCT 130800Z 08013KT 9999 FEW015 33/21 Q1012 NOSIG', 'VVCT 130730Z 09013KT 9999 FEW015 33/21 Q1012 NOSIG', 'VVCT 130700Z 09012KT 9999 FEW015 33/21 Q1013 NOSIG', 'VVCT 130630Z 06014KT 9999 FEW015 33/21 Q1013 NOSIG', 'VVCT 130600Z 08011KT 9999 FEW015 34/22 Q1014 NOSIG', 'VVCT 130530Z 06007KT 9999 FEW015 33/23 Q1014 NOSIG', 'VVCT 130500Z 06007KT 9999 FEW015 32/24 Q1015 NOSIG', 'VVCT 130430Z 05007KT 9999 FEW015 31/24 Q1015 NOSIG', 'VVCT 130400Z 06007KT 9999 FEW015 31/23 Q1016 NOSIG', 'VVCT 130330Z 05006KT 9999 FEW015 30/23 Q1016 NOSIG', 'VVCT 130300Z 05006KT 9999 FEW015 29/23 Q1016 NOSIG', 'VVCT 130230Z 05007KT 9999 FEW015 29/24 Q1016 NOSIG', 'VVCT 130200Z 05006KT 9999 FEW015 28/23 Q1016 NOSIG', 'VVCT 130130Z 04005KT 9999 FEW015 27/23 Q1016 NOSIG', 'VVCT 130100Z 03004KT 9999 FEW015 26/23 Q1015 NOSIG', 'VVCT 130030Z VRB03KT 9999 FEW015 25/24 Q1015 NOSIG', 'VVCT 130000Z VRB03KT 9999 FEW015 24/23 Q1015 NOSIG', 'VVCT 122330Z 04003KT 9999 FEW015 23/23 Q1015 NOSIG', 'VVCT 122300Z 26004KT 9999 FEW015 23/23 Q1014 NOSIG', 'VVCT 122230Z 04003KT 8000 FEW015 23/23 Q1014 NOSIG', 'VVCT 122200Z 06004KT 8000 FEW015 23/23 Q1014 NOSIG', 'VVCT 122130Z 03002KT 8000 FEW015 24/23 Q1014 NOSIG', 'VVCT 122100Z 08003KT 8000 FEW015 24/22 Q1014 NOSIG', 'VVCT 122030Z VRB03KT 8000 NSC 24/22 Q1014 NOSIG', 'VVCT 122000Z VRB01KT 8000 NSC 24/23 Q1014 NOSIG', 'VVCT 121900Z 09003KT 8000 NSC 24/23 Q1015 NOSIG', 'VVCT 121830Z 07004KT 8000 NSC 25/23 Q1015 NOSIG', 'VVCT 121800Z 09004KT 8000 NSC 25/22 Q1016 NOSIG', 'VVCT 121730Z 09003KT 8000 NSC 25/22 Q1016 NOSIG', 'VVCT 121700Z VRB02KT 8000 NSC 24/22 Q1016 NOSIG', 'VVCT 121630Z 04003KT CAVOK 25/22 Q1017 NOSIG', 'VVCT 121600Z 08005KT CAVOK 25/22 Q1017 NOSIG', 'VVCT 121530Z 09005KT CAVOK 26/22 Q1017 NOSIG', 'VVCT 121500Z 10005KT CAVOK 26/22 Q1017 NOSIG', 'VVCT 121430Z 10004KT CAVOK 26/22 Q1017 NOSIG', 'VVCT 121400Z 09004KT CAVOK 26/22 Q1016 NOSIG', 'VVCT 121330Z 09004KT 9999 FEW015 26/21 Q1016 NOSIG', 'VVCT 121300Z 11004KT 9999 FEW015 27/21 Q1016 NOSIG', 'VVCT 121230Z 09005KT 9999 FEW015 27/21 Q1015 NOSIG', 'VVCT 121200Z 09004KT 9999 FEW015 28/21 Q1015 NOSIG', 'VVCT 121130Z 09005KT 9999 FEW015 28/21 Q1014 NOSIG', 'VVCT 121100Z 10005KT 9999 FEW015 29/20 Q1014 NOSIG']","['2024-02-15 10:00:00', '2024-02-15 09:30:00', '2024-02-15 09:00:00', '2024-02-15 08:30:00', '2024-02-15 08:00:00', '2024-02-15 07:30:00', '2024-02-15 07:00:00', '2024-02-15 06:30:00', '2024-02-15 06:00:00', '2024-02-15 05:30:00', '2024-02-15 05:00:00', '2024-02-15 04:30:00', '2024-02-15 04:00:00', '2024-02-15 03:30:00', '2024-02-15 03:00:00', '2024-02-15 02:30:00', '2024-02-15 02:00:00', '2024-02-15 01:30:00', '2024-02-15 01:00:00', '2024-02-15 00:30:00', '2024-02-15 00:00:00', '2024-02-14 23:30:00', '2024-02-14 23:00:00', '2024-02-14 22:30:00', '2024-02-14 22:00:00', '2024-02-14 21:30:00', '2024-02-14 21:00:00', '2024-02-14 20:00:00', '2024-02-14 19:30:00', '2024-02-14 19:00:00', '2024-02-14 18:30:00', '2024-02-14 18:00:00', '2024-02-14 17:30:00', '2024-02-14 17:00:00', '2024-02-14 16:30:00', '2024-02-14 16:00:00', '2024-02-14 15:30:00', '2024-02-14 15:00:00', '2024-02-14 14:30:00', '2024-02-14 14:00:00', '2024-02-14 13:30:00', '2024-02-14 13:00:00', '2024-02-14 12:30:00', '2024-02-14 12:00:00', '2024-02-14 11:30:00', '2024-02-14 11:00:00', '2024-02-14 10:30:00', '2024-02-14 10:00:00', '2024-02-14 09:30:00', '2024-02-14 09:00:00', '2024-02-14 08:30:00', '2024-02-14 08:00:00', '2024-02-14 07:30:00', '2024-02-14 07:00:00', '2024-02-14 06:30:00', '2024-02-14 06:00:00', '2024-02-14 05:30:00', '2024-02-14 05:00:00', '2024-02-14 04:30:00', '2024-02-14 04:00:00', '2024-02-14 03:30:00', '2024-02-14 03:00:00', '2024-02-14 02:30:00', '2024-02-14 02:00:00', '2024-02-14 01:30:00', '2024-02-14 01:00:00', '2024-02-14 00:30:00', '2024-02-14 00:00:00', '2024-02-13 23:30:00', '2024-02-13 23:00:00', '2024-02-13 22:30:00', '2024-02-13 22:00:00', '2024-02-13 21:30:00', '2024-02-13 21:00:00', '2024-02-13 20:30:00', '2024-02-13 20:00:00', '2024-02-13 19:30:00', '2024-02-13 19:00:00', '2024-02-13 18:30:00', '2024-02-13 18:00:00', '2024-02-13 17:30:00', '2024-02-13 17:00:00', '2024-02-13 16:30:00', '2024-02-13 16:00:00', '2024-02-13 15:30:00', '2024-02-13 15:00:00', '2024-02-13 14:30:00', '2024-02-13 14:00:00', '2024-02-13 13:30:00', '2024-02-13 13:00:00', '2024-02-13 12:30:00', '2024-02-13 12:00:00', '2024-02-13 11:30:00', '2024-02-13 11:00:00', '2024-02-13 10:30:00', '2024-02-13 10:00:00', '2024-02-13 09:30:00', '2024-02-13 09:00:00', '2024-02-13 08:30:00', '2024-02-13 08:00:00', '2024-02-13 07:30:00', '2024-02-13 07:00:00', '2024-02-13 06:30:00', '2024-02-13 06:00:00', '2024-02-13 05:30:00', '2024-02-13 05:00:00', '2024-02-13 04:30:00', '2024-02-13 04:00:00', '2024-02-13 03:30:00', '2024-02-13 03:00:00', '2024-02-13 02:30:00', '2024-02-13 02:00:00', '2024-02-13 01:30:00', '2024-02-13 01:00:00', '2024-02-13 00:30:00', '2024-02-13 00:00:00', '2024-02-12 23:30:00', '2024-02-12 23:00:00', '2024-02-12 22:30:00', '2024-02-12 22:00:00', '2024-02-12 21:30:00', '2024-02-12 21:00:00', '2024-02-12 20:30:00', '2024-02-12 20:00:00', '2024-02-12 19:00:00', '2024-02-12 18:30:00', '2024-02-12 18:00:00', '2024-02-12 17:30:00', '2024-02-12 17:00:00', '2024-02-12 16:30:00', '2024-02-12 16:00:00', '2024-02-12 15:30:00', '2024-02-12 15:00:00', '2024-02-12 14:30:00', '2024-02-12 14:00:00', '2024-02-12 13:30:00', '2024-02-12 13:00:00', '2024-02-12 12:30:00', '2024-02-12 12:00:00', '2024-02-12 11:30:00', '2024-02-12 11:00:00']"
Vietnam, Da Nang International Airport (DAD/VVDN) ,"['VVDN 151000Z 11005KT 9999 FEW015 BKN040 24/21 Q1017 NOSIG', 'VVDN 150930Z 08004KT 8000 FEW013 BKN030 25/21 Q1017 NOSIG', 'VVDN 150900Z 10005KT 050V140 8000 SCT010 BKN030 24/21 Q1017 NOSIG', 'VVDN 150830Z 11005KT 8000 SCT013 BKN030 25/21 Q1016 NOSIG', 'VVDN 150800Z 09005KT 060V130 8000 SCT013 BKN030 25/22 Q1016 NOSIG', 'VVDN 150730Z 11004KT 080V150 8000 SCT013 BKN030 25/21 Q1017 NOSIG', 'VVDN 150700Z 10003KT 8000 SCT013 BKN030 24/21 Q1017 NOSIG', 'VVDN 150630Z 11004KT 7000 -RA FEW010 SCT013 BKN030 24/21 Q1017 NOSIG', 'VVDN 150600Z 09003KT 040V150 6000 -RA SCT010 SCT013 BKN030 24/22 Q1017 TEMPO TL0620 4500 RA BR', 'VVDN 150530Z VRB02KT 4500 -RA BR FEW010 SCT013 BKN030 24/22 Q1018 BECMG TL0630 7000 -RA', 'VVDN 150500Z 11003KT 070V140 7000 -RA SCT013 BKN030 24/22 Q1018 NOSIG', 'VVDN 150430Z 11003KT 060V130 7000 SCT013 BKN030 24/22 Q1018 NOSIG', 'VVDN 150400Z VRB02KT 7000 -RA SCT009 BKN030 24/22 Q1019 TEMPO 4000 RA BR', 'VVDN 150330Z VRB02KT 6000 -RA SCT009 BKN030 24/22 Q1019 TEMPO 4000 RA BR', 'VVDN 150300Z VRB01KT 7000 -RA SCT010 BKN030 24/22 Q1019 NOSIG', 'VVDN 150230Z VRB02KT 7000 SCT009 BKN030 24/22 Q1019 NOSIG', 'VVDN 150200Z 00000KT 7000 -RA SCT010 BKN040 24/22 Q1019 NOSIG', 'VVDN 150130Z 00000KT 7000 -RA SCT009 BKN030 23/21 Q1019 NOSIG', 'VVDN 150100Z 00000KT 7000 -RA FEW009 SCT013 BKN040 23/21 Q1018 NOSIG', 'VVDN 150030Z 00000KT 6000 SCT013 BKN040 23/22 Q1018 NOSIG', 'VVDN 150000Z 00000KT 6000 SCT015 BKN040 23/22 Q1018 NOSIG', 'VVDN 142330Z VRB01KT 4500 BR SCT015 BKN040 23/21 Q1017 BECMG TL0030 6000 NSW', 'VVDN 142300Z 16002KT 8000 SCT015 BKN040 23/21 Q1017 NOSIG', 'VVDN 142230Z VRB01KT 9999 SCT015 BKN040 23/21 Q1016 NOSIG', 'VVDN 142200Z 19002KT 9999 SCT013 BKN030 23/21 Q1016 NOSIG', 'VVDN 142130Z 21002KT 9999 SCT013 BKN030 23/21 Q1016 NOSIG', 'VVDN 142100Z VRB02KT 9999 SCT013 BKN030 23/21 Q1015 NOSIG', 'VVDN 142030Z VRB01KT 9999 SCT012 BKN030 23/21 Q1015 NOSIG', 'VVDN 142000Z 22003KT 9999 SCT013 BKN030 23/21 Q1015 NOSIG', 'VVDN 141930Z VRB02KT 9999 SCT013 BKN030 23/21 Q1015 NOSIG', 'VVDN 141900Z 24002KT 9999 SCT013 BKN030 23/21 Q1015 NOSIG', 'VVDN 141830Z 24002KT 9999 SCT013 BKN030 23/21 Q1016 NOSIG', 'VVDN 141800Z 22003KT 9999 SCT013 BKN030 23/21 Q1016 NOSIG', 'VVDN 141730Z 21004KT 9999 SCT013 BKN030 23/21 Q1016 NOSIG', 'VVDN 141700Z 22002KT 9999 SCT013 BKN030 23/21 Q1016 NOSIG', 'VVDN 141630Z 20003KT 9999 SCT013 BKN030 23/21 Q1017 NOSIG', 'VVDN 141600Z 19002KT 9999 SCT013 BKN030 24/21 Q1017 NOSIG', 'VVDN 141530Z 16002KT 9999 SCT013 BKN030 23/21 Q1017 NOSIG', 'VVDN 141500Z 17003KT 130V200 9999 SCT013 BKN030 23/21 Q1017 NOSIG', 'VVDN 141430Z 15004KT 9999 SCT013 BKN030 24/21 Q1017 NOSIG', 'VVDN 141400Z 14004KT 9999 SCT013 BKN030 24/21 Q1018 NOSIG', 'VVDN 141330Z 15004KT 9999 FEW013 BKN030 24/21 Q1018 NOSIG', 'VVDN 141300Z 12005KT 9999 FEW015 BKN040 24/21 Q1017 NOSIG', 'VVDN 141230Z 13006KT 060V160 9999 SCT015 BKN040 24/21 Q1017 NOSIG', 'VVDN 141200Z 12006KT 9999 SCT015 BKN040 24/21 Q1017 NOSIG', 'VVDN 141130Z 11004KT 060V160 9999 SCT015 BKN050 24/21 Q1017 NOSIG', 'VVDN 141100Z 11006KT 9999 SCT012 BKN050 24/21 Q1016 NOSIG', 'VVDN 141030Z 10007KT 9999 SCT013 BKN050 24/21 Q1016 NOSIG', 'VVDN 141000Z 11008KT 9999 FEW015 BKN040 24/21 Q1016 NOSIG', 'VVDN 140930Z 10006KT 060V130 9999 FEW015 SCT050 24/21 Q1016 NOSIG', 'VVDN 140900Z 11009KT 060V150 9999 FEW013 BKN050 24/21 Q1015 NOSIG', 'VVDN 140830Z 11008KT 050V140 9999 FEW015 BKN050 25/21 Q1015 NOSIG', 'VVDN 140800Z 11008KT 9999 FEW015 BKN050 25/20 Q1015 NOSIG', 'VVDN 140730Z 11009KT 9999 FEW015 BKN050 25/21 Q1015 NOSIG', 'VVDN 140700Z 12008KT 9999 FEW015 SCT060 25/20 Q1016 NOSIG', 'VVDN 140630Z 12006KT 080V160 9999 FEW015 SCT060 27/20 Q1016 NOSIG', 'VVDN 140600Z 12006KT 070V160 9999 FEW015 SCT060 27/20 Q1017 NOSIG', 'VVDN 140530Z 12007KT 080V160 9999 SCT015 SCT060 26/20 Q1017 NOSIG', 'VVDN 140500Z 10006KT 060V130 9999 SCT015 SCT060 26/20 Q1018 NOSIG', 'VVDN 140430Z 14006KT 080V180 9999 SCT015 SCT060 26/20 Q1018 NOSIG', 'VVDN 140400Z 12005KT 9999 SCT015 SCT060 26/21 Q1019 NOSIG', 'VVDN 140330Z 15003KT 100V210 9999 SCT015 SCT060 26/19 Q1019 NOSIG', 'VVDN 140300Z 18003KT 110V230 9999 SCT015 SCT060 25/19 Q1020 NOSIG', 'VVDN 140230Z 18003KT 140V270 9999 FEW015 SCT050 25/19 Q1020 NOSIG', 'VVDN 140200Z VRB03KT 9999 FEW015 SCT050 25/19 Q1020 NOSIG', 'VVDN 140130Z VRB01KT 9999 FEW015 BKN050 23/19 Q1020 NOSIG', 'VVDN 140100Z 24002KT 9999 FEW015 BKN050 23/20 Q1019 NOSIG', 'VVDN 140030Z VRB01KT 9999 FEW015 SCT050 23/20 Q1019 NOSIG', 'VVDN 140000Z VRB01KT 9999 FEW015 SCT050 22/20 Q1019 NOSIG', 'VVDN 132330Z 18002KT 9999 FEW015 SCT060 21/19 Q1018 NOSIG', 'VVDN 132300Z 21002KT 9999 FEW015 SCT050 21/19 Q1018 NOSIG', 'VVDN 132230Z 23002KT 9999 FEW015 BKN040 22/19 Q1018 NOSIG', 'VVDN 132200Z 21001KT 9999 FEW015 BKN040 22/19 Q1017 NOSIG', 'VVDN 132130Z 20002KT 9999 FEW015 BKN040 22/19 Q1017 NOSIG', 'VVDN 132100Z 20001KT 9999 FEW015 BKN040 22/20 Q1017 NOSIG', 'VVDN 132030Z VRB01KT 9999 FEW015 BKN040 22/19 Q1017 NOSIG', 'VVDN 132000Z 22001KT 9999 FEW015 BKN040 22/19 Q1017 NOSIG', 'VVDN 131930Z 20002KT 9999 FEW015 BKN040 22/19 Q1017 NOSIG', 'VVDN 131900Z 24002KT 9999 FEW015 BKN040 22/20 Q1018 NOSIG', 'VVDN 131830Z 22002KT 9999 FEW015 BKN040 22/19 Q1018 NOSIG', 'VVDN 131800Z VRB02KT 9999 FEW015 BKN040 22/19 Q1019 NOSIG', 'VVDN 131730Z 24001KT 9999 FEW015 BKN040 22/20 Q1019 NOSIG', 'VVDN 131700Z 25002KT 9999 FEW015 BKN040 22/20 Q1019 NOSIG', 'VVDN 131630Z 25001KT 9999 FEW015 BKN050 22/20 Q1019 NOSIG', 'VVDN 131600Z 25001KT 9999 FEW015 BKN050 22/20 Q1020 NOSIG', 'VVDN 131530Z 24002KT 9999 -RA SCT015 BKN050 23/20 Q1020 NOSIG', 'VVDN 131500Z 25001KT 9999 -RA SCT015 BKN050 23/20 Q1020 NOSIG', 'VVDN 131430Z VRB01KT 9999 FEW015 SCT050 23/20 Q1020 NOSIG', 'VVDN 131400Z VRB01KT 9999 FEW015 SCT050 23/19 Q1020 NOSIG', 'VVDN 131330Z VRB01KT 9999 FEW015 SCT050 23/19 Q1020 NOSIG', 'VVDN 131300Z VRB02KT 9999 FEW015 SCT050 23/19 Q1019 NOSIG', 'VVDN 131230Z 11003KT 9999 FEW015 BKN050 23/19 Q1019 NOSIG', 'VVDN 131200Z VRB02KT 9999 SCT015 SCT050 23/19 Q1019 NOSIG', 'VVDN 131130Z 07003KT 9999 SCT015 SCT050 23/19 Q1019 NOSIG', 'VVDN 131100Z 10004KT 9999 SCT015 SCT050 23/19 Q1019 NOSIG', 'VVDN 131030Z 10004KT 050V130 9999 FEW015 SCT050 24/19 Q1018 NOSIG', 'VVDN 131000Z 09004KT 050V120 9999 FEW015 SCT050 24/19 Q1018 NOSIG', 'VVDN 130930Z 10005KT 060V130 9999 FEW015 24/19 Q1018 NOSIG', 'VVDN 130900Z 10006KT 060V130 9999 FEW015 25/19 Q1018 NOSIG', 'VVDN 130830Z 10006KT 9999 FEW015 25/18 Q1018 NOSIG', 'VVDN 130800Z 12005KT 9999 FEW015 25/18 Q1018 NOSIG', 'VVDN 130730Z 12007KT 070V160 9999 FEW015 25/18 Q1018 NOSIG', 'VVDN 130700Z 12007KT 9999 SCT015 25/18 Q1018 NOSIG', 'VVDN 130630Z 10007KT 050V140 9999 FEW015 26/18 Q1019 NOSIG', 'VVDN 130600Z 10006KT 040V160 9999 FEW015 26/18 Q1019 NOSIG', 'VVDN 130530Z 13006KT 070V170 9999 FEW015 27/16 Q1020 NOSIG', 'VVDN 130500Z 13006KT 070V170 9999 FEW015 26/18 Q1020 NOSIG', 'VVDN 130430Z 11005KT 060V140 9999 FEW015 26/18 Q1021 NOSIG', 'VVDN 130400Z 11005KT 050V160 9999 FEW015 26/17 Q1021 NOSIG', 'VVDN 130330Z 12004KT 070V170 9999 SCT015 25/18 Q1022 NOSIG', 'VVDN 130300Z 16003KT 120V220 9999 FEW015 25/17 Q1022 NOSIG', 'VVDN 130230Z VRB01KT 9999 FEW015 25/18 Q1022 NOSIG', 'VVDN 130200Z 00000KT 9999 FEW015 25/19 Q1022 NOSIG', 'VVDN 130130Z 00000KT 9999 FEW015 SCT050 23/18 Q1021 NOSIG', 'VVDN 130100Z 00000KT 9999 FEW015 SCT050 22/18 Q1021 NOSIG', 'VVDN 130030Z 00000KT 9999 FEW015 BKN050 20/18 Q1021 NOSIG', 'VVDN 130000Z 22002KT 9999 SCT015 SCT040 19/18 Q1021 NOSIG', 'VVDN 122330Z VRB01KT 9999 SCT015 SCT040 19/18 Q1021 NOSIG', 'VVDN 122300Z 22002KT 8000 FEW015 BKN040 19/17 Q1020 NOSIG', 'VVDN 122230Z VRB01KT 8000 FEW015 BKN040 19/17 Q1020 NOSIG', 'VVDN 122200Z 21001KT 8000 FEW015 BKN040 19/17 Q1020 NOSIG', 'VVDN 122130Z 21002KT 8000 FEW015 SCT040 19/18 Q1020 NOSIG', 'VVDN 122100Z 00000KT 8000 FEW015 SCT040 19/17 Q1020 NOSIG', 'VVDN 122030Z 00000KT 8000 FEW015 SCT040 19/17 Q1020 NOSIG', 'VVDN 122000Z 00000KT 8000 FEW015 SCT040 19/17 Q1020 NOSIG', 'VVDN 121930Z 00000KT 8000 FEW015 SCT060 19/17 Q1020 NOSIG', 'VVDN 121900Z VRB01KT 8000 FEW015 SCT050 20/17 Q1020 NOSIG', 'VVDN 121830Z VRB01KT 8000 FEW015 BKN050 20/18 Q1021 NOSIG', 'VVDN 121800Z 00000KT 8000 FEW015 SCT060 20/18 Q1022 NOSIG', 'VVDN 121730Z 24002KT 8000 FEW015 SCT040 20/18 Q1022 NOSIG', 'VVDN 121700Z 25002KT 8000 FEW015 SCT060 20/18 Q1022 NOSIG', 'VVDN 121630Z 24004KT 200V270 8000 FEW015 SCT050 20/18 Q1022 NOSIG', 'VVDN 121600Z 24002KT 8000 FEW015 SCT040 20/18 Q1023 NOSIG', 'VVDN 121530Z 11001KT 8000 FEW015 SCT040 20/18 Q1023 NOSIG', 'VVDN 121500Z VRB01KT 8000 FEW015 20/18 Q1023 NOSIG', 'VVDN 121430Z 35003KT 8000 FEW015 21/18 Q1023 NOSIG', 'VVDN 121400Z 33003KT 8000 FEW015 SCT070 21/18 Q1022 NOSIG', 'VVDN 121330Z 36002KT 9999 FEW015 SCT070 21/19 Q1023 NOSIG', 'VVDN 121300Z 02001KT 9999 FEW015 BKN070 21/18 Q1022 NOSIG', 'VVDN 121230Z 03005KT 9999 FEW015 BKN070 21/19 Q1022 NOSIG', 'VVDN 121200Z 03006KT 9999 FEW015 BKN070 21/18 Q1022 NOSIG', 'VVDN 121130Z 03006KT 9999 FEW015 BKN060 21/18 Q1022 NOSIG', 'VVDN 121100Z 02010KT 9999 FEW015 BKN060 21/19 Q1022 NOSIG']","['2024-02-15 10:00:00', '2024-02-15 09:30:00', '2024-02-15 09:00:00', '2024-02-15 08:30:00', '2024-02-15 08:00:00', '2024-02-15 07:30:00', '2024-02-15 07:00:00', '2024-02-15 06:30:00', '2024-02-15 06:00:00', '2024-02-15 05:30:00', '2024-02-15 05:00:00', '2024-02-15 04:30:00', '2024-02-15 04:00:00', '2024-02-15 03:30:00', '2024-02-15 03:00:00', '2024-02-15 02:30:00', '2024-02-15 02:00:00', '2024-02-15 01:30:00', '2024-02-15 01:00:00', '2024-02-15 00:30:00', '2024-02-15 00:00:00', '2024-02-14 23:30:00', '2024-02-14 23:00:00', '2024-02-14 22:30:00', '2024-02-14 22:00:00', '2024-02-14 21:30:00', '2024-02-14 21:00:00', '2024-02-14 20:30:00', '2024-02-14 20:00:00', '2024-02-14 19:30:00', '2024-02-14 19:00:00', '2024-02-14 18:30:00', '2024-02-14 18:00:00', '2024-02-14 17:30:00', '2024-02-14 17:00:00', '2024-02-14 16:30:00', '2024-02-14 16:00:00', '2024-02-14 15:30:00', '2024-02-14 15:00:00', '2024-02-14 14:30:00', '2024-02-14 14:00:00', '2024-02-14 13:30:00', '2024-02-14 13:00:00', '2024-02-14 12:30:00', '2024-02-14 12:00:00', '2024-02-14 11:30:00', '2024-02-14 11:00:00', '2024-02-14 10:30:00', '2024-02-14 10:00:00', '2024-02-14 09:30:00', '2024-02-14 09:00:00', '2024-02-14 08:30:00', '2024-02-14 08:00:00', '2024-02-14 07:30:00', '2024-02-14 07:00:00', '2024-02-14 06:30:00', '2024-02-14 06:00:00', '2024-02-14 05:30:00', '2024-02-14 05:00:00', '2024-02-14 04:30:00', '2024-02-14 04:00:00', '2024-02-14 03:30:00', '2024-02-14 03:00:00', '2024-02-14 02:30:00', '2024-02-14 02:00:00', '2024-02-14 01:30:00', '2024-02-14 01:00:00', '2024-02-14 00:30:00', '2024-02-14 00:00:00', '2024-02-13 23:30:00', '2024-02-13 23:00:00', '2024-02-13 22:30:00', '2024-02-13 22:00:00', '2024-02-13 21:30:00', '2024-02-13 21:00:00', '2024-02-13 20:30:00', '2024-02-13 20:00:00', '2024-02-13 19:30:00', '2024-02-13 19:00:00', '2024-02-13 18:30:00', '2024-02-13 18:00:00', '2024-02-13 17:30:00', '2024-02-13 17:00:00', '2024-02-13 16:30:00', '2024-02-13 16:00:00', '2024-02-13 15:30:00', '2024-02-13 15:00:00', '2024-02-13 14:30:00', '2024-02-13 14:00:00', '2024-02-13 13:30:00', '2024-02-13 13:00:00', '2024-02-13 12:30:00', '2024-02-13 12:00:00', '2024-02-13 11:30:00', '2024-02-13 11:00:00', '2024-02-13 10:30:00', '2024-02-13 10:00:00', '2024-02-13 09:30:00', '2024-02-13 09:00:00', '2024-02-13 08:30:00', '2024-02-13 08:00:00', '2024-02-13 07:30:00', '2024-02-13 07:00:00', '2024-02-13 06:30:00', '2024-02-13 06:00:00', '2024-02-13 05:30:00', '2024-02-13 05:00:00', '2024-02-13 04:30:00', '2024-02-13 04:00:00', '2024-02-13 03:30:00', '2024-02-13 03:00:00', '2024-02-13 02:30:00', '2024-02-13 02:00:00', '2024-02-13 01:30:00', '2024-02-13 01:00:00', '2024-02-13 00:30:00', '2024-02-13 00:00:00', '2024-02-12 23:30:00', '2024-02-12 23:00:00', '2024-02-12 22:30:00', '2024-02-12 22:00:00', '2024-02-12 21:30:00', '2024-02-12 21:00:00', '2024-02-12 20:30:00', '2024-02-12 20:00:00', '2024-02-12 19:30:00', '2024-02-12 19:00:00', '2024-02-12 18:30:00', '2024-02-12 18:00:00', '2024-02-12 17:30:00', '2024-02-12 17:00:00', '2024-02-12 16:30:00', '2024-02-12 16:00:00', '2024-02-12 15:30:00', '2024-02-12 15:00:00', '2024-02-12 14:30:00', '2024-02-12 14:00:00', '2024-02-12 13:30:00', '2024-02-12 13:00:00', '2024-02-12 12:30:00', '2024-02-12 12:00:00', '2024-02-12 11:30:00', '2024-02-12 11:00:00']"
Virgin-islands-us, St. Croix Henry E. Rohlsen Airport (STX/TISX) ,"['TISX 150953Z AUTO 36005KT 10SM CLR 23/22 A3002 RMK AO2 SLP165 T02330217 $', 'TISX 150853Z AUTO 36005KT 9SM CLR 23/22 A3001 RMK AO2 SLP159 T02330217 56008 $', 'TISX 150753Z AUTO 36005KT 10SM CLR 23/22 A3001 RMK AO2 SLP160 T02330217 $', 'TISX 150653Z AUTO 36005KT 10SM FEW021 23/22 A3002 RMK AO2 SLP164 T02330217 $', 'TISX 150553Z AUTO 36005KT 10SM FEW018 24/22 A3003 RMK AO2 SLP168 T02390222 10261 20239 58012 $', 'TISX 150453Z AUTO 36005KT 10SM CLR 24/22 A3005 RMK AO2 SLP174 T02390222 $', 'TISX 150353Z AUTO 36004KT 10SM FEW017 24/22 A3006 RMK AO2 SLP176 T02440222 403000233 $', 'TISX 150253Z AUTO 02003KT 10SM FEW020 24/22 A3007 RMK AO2 SLP180 T02440222 51001 $', 'TISX 150228Z AUTO 36004KT 10SM BKN018 25/23 A3007 RMK AO2 T02500228 $', 'TISX 150153Z AUTO 01004KT 10SM CLR 25/22 A3007 RMK AO2 SLP179 T02500222 $', 'TISX 150102Z 00000KT 10SM SCT017 25/22 A3006 RMK AO2 T02500222 $', 'TISX 150053Z 03003KT 10SM BKN017 25/23 A3006 RMK AO2 SLP179 T02500228 $', 'TISX 142353Z 00000KT 10SM FEW018 26/23 A3006 RMK AO2 SLP176 T02610228 10300 20261 51010 $', 'TISX 142253Z 11004KT 10SM SCT018 27/23 A3005 RMK AO2 SLP173 T02670228 $', 'TISX 142153Z 12005KT 10SM CLR 28/23 A3004 RMK AO2 SLP170 T02780228 $', 'TISX 142053Z 13006KT 10SM CLR 29/23 A3003 RMK AO2 SLP166 T02890228 55006 $', 'TISX 141953Z 11007KT 10SM CLR 29/23 A3002 RMK AO2 SLP165 T02940228 $', 'TISX 141853Z 12008KT 10SM FEW002 30/23 A3003 RMK AO2 SLP167 T03000233 $', 'TISX 141753Z 12009KT 10SM CLR 29/23 A3004 RMK AO2 SLP172 T02940228 10300 20267 58026 $', 'TISX 141653Z 14008KT 10SM CLR 30/23 A3008 RMK AO2 SLP183 T03000233 $', 'TISX 141553Z 14008KT 10SM CLR 29/23 A3010 RMK AO2 SLP192 T02940233 $', 'TISX 141453Z 15009KT 10SM CLR 29/23 A3012 RMK AO2 SLP198 T02940233 50008 $', 'TISX 141353Z 13007KT 10SM FEW018 SCT030 29/23 A3013 RMK AO2 SLP200 T02890228 $', 'TISX 141253Z 12007KT 10SM FEW019 28/23 A3011 RMK AO2 SLP194 T02780233 $', 'TISX 141153Z 08004KT 10SM FEW018 SCT030 26/24 A3009 RMK AO2 SLP189 T02610239 10261 20233 53018 $', 'TISX 141128Z 03003KT 10SM FEW017 SCT022 BKN043 24/23 A3009 RMK AO2 T02440228 $', 'TISX 141053Z AUTO 02003KT 10SM FEW020 SCT034 24/22 A3007 RMK AO2 SLP182 T02390222 $', 'TISX 140953Z AUTO 36003KT 10SM FEW003 FEW017 23/22 A3005 RMK AO2 SLP176 T02330217 $', 'TISX 140853Z AUTO 02004KT 10SM CLR 23/22 A3004 RMK AO2 SLP171 T02330222 55004 $', 'TISX 140824Z AUTO 01004KT 10SM FEW002 24/22 A3004 RMK AO2 T02390222 $', 'TISX 140753Z AUTO 36004KT 10SM CLR 24/22 A3004 RMK AO2 SLP169 T02390222 $', 'TISX 140653Z AUTO 01004KT 10SM CLR 24/22 A3004 RMK AO2 SLP171 T02390222 $', 'TISX 140553Z AUTO 01003KT 10SM CLR 24/22 A3005 RMK AO2 SLP175 T02390222 10267 20239 58008 $', 'TISX 140453Z AUTO 01004KT 10SM CLR 24/22 A3007 RMK AO2 SLP180 T02390222 $', 'TISX 140353Z AUTO 02004KT 10SM CLR 24/22 A3007 RMK AO2 SLP182 T02440222 403000233', 'TISX 140253Z AUTO 36004KT 10SM CLR 24/22 A3008 RMK AO2 SLP183 T02440222 51010', 'TISX 140153Z AUTO 01003KT 10SM CLR 24/22 A3007 RMK AO2 SLP182 T02440222', 'TISX 140053Z AUTO 01004KT 10SM FEW018 25/23 A3006 RMK AO2 SLP179 T02500228', 'TISX 132353Z 11005KT 10SM FEW020 27/23 A3005 RMK AO2 SLP173 T02670228 10300 20267 53014', 'TISX 132253Z 11004KT 10SM FEW019 FEW025 27/23 A3002 RMK AO2 SLP165 T02720228', 'TISX 132153Z 12006KT 10SM CLR 28/23 A3001 RMK AO2 SLP162 T02780228', 'TISX 132053Z 12008KT 10SM FEW019 29/23 A3001 RMK AO2 SLP160 T02890233 55008', 'TISX 131953Z 13007KT 10SM FEW016 SCT023 29/24 A3000 RMK AO2 SLP158 T02890239', 'TISX 131853Z 12007KT 10SM CLR 30/24 A3001 RMK AO2 SLP160 T03000239', 'TISX 131753Z 10009KT 10SM FEW015 29/23 A3003 RMK AO2 SLP167 60000 T02940233 10300 20256 58024', 'TISX 131653Z 13010KT 10SM CLR 30/24 A3006 RMK AO2 SLP176 T03000239', 'TISX 131553Z 11010KT 10SM FEW044 30/24 A3008 RMK AO2 SLP185 T03000239', 'TISX 131453Z 13010KT 10SM FEW019 29/23 A3010 RMK AO2 SLP191 60000 T02940233 50009', 'TISX 131353Z 12010KT 10SM FEW018 29/23 A3011 RMK AO2 SLP194 T02890233', 'TISX 131253Z 12009KT 10SM FEW020 SCT070 28/23 A3009 RMK AO2 RAB03E21 SLP188 P0000 T02780233', 'TISX 131153Z 04003KT 10SM SCT018 SCT030 BKN048 26/23 A3007 RMK AO2 SLP182 60000 T02560233 10256 20233 52023', 'TISX 131053Z AUTO 09008KT 10SM FEW020 OVC050 26/23 A3005 RMK AO2 RAE04 SLP175 P0000 T02560228 $', 'TISX 131015Z AUTO 03003KT 10SM SCT020 SCT041 BKN050 24/23 A3004 RMK AO2 RAE04 P0000 T02440228 $', 'TISX 130953Z AUTO 07003KT 7SM RA SCT020 BKN027 OVC050 25/22 A3003 RMK AO2 RAB51 SLP167 P0000 T02500222 $', 'TISX 130853Z AUTO 02004KT 10SM FEW022 SCT029 BKN041 24/22 A3001 RMK AO2 SLP160 T02390217 55007 $', 'TISX 130753Z AUTO 03004KT 10SM FEW019 SCT027 SCT035 23/21 A3000 RMK AO2 SLP158 T02330211 $', 'TISX 130653Z AUTO 05004KT 10SM CLR 24/22 A3001 RMK AO2 SLP160 T02390217 $', 'TISX 130553Z AUTO 05004KT 10SM FEW020 FEW030 23/21 A3003 RMK AO2 SLP166 T02330211 10250 20233 58018 $', 'TISX 130453Z AUTO 04005KT 10SM CLR 23/21 A3005 RMK AO2 SLP175 T02330211 $', 'TISX 130353Z AUTO 03004KT 10SM CLR 23/21 A3006 RMK AO2 SLP179 T02330206 403060233', 'TISX 130253Z AUTO 05005KT 10SM CLR 24/21 A3008 RMK AO2 SLP184 T02390211 51011', 'TISX 130153Z AUTO 02005KT 10SM CLR 23/21 A3008 RMK AO2 SLP183 T02330206', 'TISX 130053Z 05004KT 10SM CLR 25/21 A3007 RMK AO2 SLP180 T02500206', 'TISX 122353Z 07006KT 10SM CLR 25/21 A3005 RMK AO2 SLP173 T02500206 10300 20250 51015', 'TISX 122253Z 07007KT 10SM FEW031 26/21 A3003 RMK AO2 SLP169 T02610206', 'TISX 122221Z 07008KT 10SM SCT026 SCT032 27/21 A3003 RMK AO2 T02670206', 'TISX 122153Z 08009KT 10SM BKN027 27/21 A3002 RMK AO2 SLP164 T02720206', 'TISX 122053Z 07012G19KT 10SM FEW031 28/21 A3001 RMK AO2 SLP159 T02830211 55009', 'TISX 121953Z 07014KT 10SM FEW021 SCT035 28/21 A3000 RMK AO2 SLP156 T02830206', 'TISX 121907Z 11013KT 10SM FEW021 SCT035 30/21 A3001 RMK AO2 T03000206', 'TISX 121853Z 10014KT 10SM CLR 29/20 A3001 RMK AO2 SLP160 T02940200', 'TISX 121803Z 11013KT 10SM FEW002 BKN032 30/20 A3002 RMK AO2 T03000200', 'TISX 121753Z 11014KT 10SM BKN030 BKN036 30/21 A3003 RMK AO2 SLP168 T03000206 10306 20256 58021', 'TISX 121653Z 08012KT 10SM BKN028 OVC036 28/22 A3006 RMK AO2 SLP177 T02830217', 'TISX 121610Z 07012G21KT 10SM SCT028 BKN036 BKN042 28/21 A3007 RMK AO2 T02830206', 'TISX 121553Z 07013KT 10SM SCT030 BKN035 OVC049 28/21 A3008 RMK AO2 SLP185 T02830211', 'TISX 121453Z 05015KT 10SM FEW031 BKN065 29/21 A3009 RMK AO2 SLP188 T02890206 50005', 'TISX 121353Z 07013KT 10SM CLR 28/21 A3010 RMK AO2 SLP191 T02830206', 'TISX 121253Z 08010KT 10SM CLR 28/21 A3009 RMK AO2 SLP187 T02780211', 'TISX 121153Z 06009KT 10SM FEW050 BKN070 26/22 A3008 RMK AO2 SLP183 T02610217 10261 20239 53016', 'TISX 121053Z AUTO 05004KT 10SM FEW025 BKN040 BKN065 24/21 A3006 RMK AO2 SLP178 T02440211']","['2024-02-15 09:53:00', '2024-02-15 08:53:00', '2024-02-15 07:53:00', '2024-02-15 06:53:00', '2024-02-15 05:53:00', '2024-02-15 04:53:00', '2024-02-15 03:53:00', '2024-02-15 02:53:00', '2024-02-15 02:28:00', '2024-02-15 01:53:00', '2024-02-15 01:02:00', '2024-02-15 00:53:00', '2024-02-14 23:53:00', '2024-02-14 22:53:00', '2024-02-14 21:53:00', '2024-02-14 20:53:00', '2024-02-14 19:53:00', '2024-02-14 18:53:00', '2024-02-14 17:53:00', '2024-02-14 16:53:00', '2024-02-14 15:53:00', '2024-02-14 14:53:00', '2024-02-14 13:53:00', '2024-02-14 12:53:00', '2024-02-14 11:53:00', '2024-02-14 11:28:00', '2024-02-14 10:53:00', '2024-02-14 09:53:00', '2024-02-14 08:53:00', '2024-02-14 08:24:00', '2024-02-14 07:53:00', '2024-02-14 06:53:00', '2024-02-14 05:53:00', '2024-02-14 04:53:00', '2024-02-14 03:53:00', '2024-02-14 02:53:00', '2024-02-14 01:53:00', '2024-02-14 00:53:00', '2024-02-13 23:53:00', '2024-02-13 22:53:00', '2024-02-13 21:53:00', '2024-02-13 20:53:00', '2024-02-13 19:53:00', '2024-02-13 18:53:00', '2024-02-13 17:53:00', '2024-02-13 16:53:00', '2024-02-13 15:53:00', '2024-02-13 14:53:00', '2024-02-13 13:53:00', '2024-02-13 12:53:00', '2024-02-13 11:53:00', '2024-02-13 10:53:00', '2024-02-13 10:15:00', '2024-02-13 09:53:00', '2024-02-13 08:53:00', '2024-02-13 07:53:00', '2024-02-13 06:53:00', '2024-02-13 05:53:00', '2024-02-13 04:53:00', '2024-02-13 03:53:00', '2024-02-13 02:53:00', '2024-02-13 01:53:00', '2024-02-13 00:53:00', '2024-02-12 23:53:00', '2024-02-12 22:53:00', '2024-02-12 22:21:00', '2024-02-12 21:53:00', '2024-02-12 20:53:00', '2024-02-12 19:53:00', '2024-02-12 19:07:00', '2024-02-12 18:53:00', '2024-02-12 18:03:00', '2024-02-12 17:53:00', '2024-02-12 16:53:00', '2024-02-12 16:10:00', '2024-02-12 15:53:00', '2024-02-12 14:53:00', '2024-02-12 13:53:00', '2024-02-12 12:53:00', '2024-02-12 11:53:00', '2024-02-12 10:53:00']"
Virgin-islands-us, St. Thomas Cyril E. King Airport (STT/TIST) ,"['TIST 150953Z AUTO 00000KT 10SM 23/23 A3002 RMK AO2 SLP166 T02330228 PNO $', 'TIST 150853Z AUTO 09003KT 10SM 23/23 A3001 RMK AO2 SLP162 6//// T02330228 55005 PNO $', 'TIST 150753Z AUTO 03003KT 10SM 24/23 A3000 RMK AO2 SLP160 T02390233 PNO $', 'TIST 150653Z AUTO 08003KT 10SM 23/23 A3001 RMK AO2 SLP162 T02330233 PNO $', 'TIST 150553Z AUTO 00000KT 10SM 24/24 A3002 RMK AO2 SLP167 6//// T02440239 10261 20244 58012 PNO $', 'TIST 150453Z AUTO 08003KT 10SM 24/24 A3004 RMK AO2 SLP172 T02440239 PNO $', 'TIST 150353Z AUTO 07003KT 10SM 25/24 A3005 RMK AO2 SLP176 T02500239 402830239 PNO $', 'TIST 150253Z AUTO 06004KT 10SM 25/23 A3006 RMK AO2 SLP179 6//// T02500233 50005 PNO $', 'TIST 150153Z AUTO 06004KT 10SM 25/23 A3006 RMK AO2 SLP179 T02500233 PNO $', 'TIST 142353Z 11006KT 10SM 26/24 A3004 RMK AO2 SLP174 6//// T02610239 10283 20261 51012 PNO $', 'TIST 142253Z 11006KT 10SM SCT030 27/24 A3003 RMK AO2 SLP170 T02670239 PNO $', 'TIST 142153Z 14006KT 10SM 27/24 A3002 RMK AO2 SLP167 T02670239 PNO $', 'TIST 142053Z 13008KT 10SM CLR 27/24 A3001 RMK AO2 SLP162 6//// T02720239 55011 PNO $', 'TIST 141953Z 14007KT 10SM FEW030 28/24 A3001 RMK AO2 SLP161 T02780239 PNO $', 'TIST 141853Z 15007KT 10SM SCT030 28/24 A3002 RMK AO2 SLP166 T02780239 PNO $', 'TIST 141753Z 16006KT 10SM FEW023 SCT100 28/24 A3004 RMK AO2 SLP173 6//// T02780239 10278 20261 58022 PNO $', 'TIST 141653Z 16007KT 10SM FEW025 28/24 A3006 RMK AO2 SLP180 T02780239 PNO $', 'TIST 141553Z 16006KT 10SM SCT025 28/24 A3009 RMK AO2 SLP190 T02780239 PNO $', 'TIST 141453Z 16008KT 10SM FEW025 27/24 A3011 RMK AO2 SLP195 6//// T02720244 50008 PNO $', 'TIST 141353Z 14008KT 10SM SCT020 SCT100 27/24 A3011 RMK AO2 SLP196 T02720239 PNO $', 'TIST 141253Z 13006KT 10SM FEW030 27/24 A3010 RMK AO2 SLP192 T02670239 PNO $', 'TIST 141153Z 08003KT 10SM FEW030 26/24 A3008 RMK AO2 SLP187 6//// 7//// T02610244 10261 20239 53019 PNO $', 'TIST 141053Z 08004KT 10SM FEW030 24/24 A3006 RMK AO2 SLP179 T02440239 PNO $', 'TIST 140953Z AUTO 08004KT 10SM 24/24 A3004 RMK AO2 SLP174 T02440239 PNO $', 'TIST 140853Z 09003KT 10SM 24/24 A3003 RMK AO2 SLP169 6//// T02440239 56004 PNO $', 'TIST 140753Z 07003KT 10SM 24/24 A3003 RMK AO2 SLP169 T02440239 PNO $', 'TIST 140653Z 07003KT 10SM 24/24 A3003 RMK AO2 SLP170 T02440239 PNO $', 'TIST 140553Z 00000KT 10SM 25/24 A3004 RMK AO2 SLP173 6//// T02500239 10261 20250 58008 PNO $', 'TIST 140453Z 07003KT 10SM 25/24 A3006 RMK AO2 SLP179 T02500244 PNO $', 'TIST 140353Z 09004KT 10SM 26/24 A3006 RMK AO2 SLP180 T02560244 402830233 PNO $', 'TIST 140253Z 12005KT 10SM 26/24 A3006 RMK AO2 SLP181 6//// T02610244 51010 PNO $', 'TIST 140153Z 07003KT 10SM 26/24 A3006 RMK AO2 SLP180 T02560244 PNO $', 'TIST 140053Z 08005KT 10SM CLR 26/24 A3005 RMK AO2 SLP177 T02610244 PNO $', 'TIST 132353Z 11007KT 10SM FEW030 26/24 A3003 RMK AO2 SLP171 6//// T02610244 10283 20261 53014 PNO $', 'TIST 132253Z 12008KT 10SM SCT040 27/24 A3001 RMK AO2 SLP163 T02670244 PNO $', 'TIST 132153Z 11007KT 10SM SCT040 27/24 A3000 RMK AO2 SLP160 T02720244 PNO $', 'TIST 132053Z 13010KT 10SM SCT033 27/24 A2999 RMK AO2 SLP157 6//// T02720244 55009 PNO $', 'TIST 131953Z 12009KT 10SM SCT030 28/24 A2999 RMK AO2 SLP155 T02780244 PNO $', 'TIST 131853Z 13009KT 10SM SCT030 28/24 A3000 RMK AO2 SLP159 T02830244 PNO $', 'TIST 131753Z 14008KT 10SM SCT033 28/24 A3002 RMK AO2 SLP166 6//// T02830244 10283 20250 56024 PNO $', 'TIST 131653Z 13009KT 10SM SCT030 28/24 A3004 RMK AO2 SLP173 T02830239 PNO $', 'TIST 131453Z 13011KT 10SM SCT034 28/24 A3009 RMK AO2 SLP190 6//// T02780239 50010 PNO $', 'TIST 131353Z 13009KT 10SM SCT029 27/24 A3010 RMK AO2 SLP192 T02720239 PNO $', 'TIST 131253Z 11011KT 10SM SCT030 27/24 A3007 RMK AO2 SLP184 T02670239 PNO $', 'TIST 131153Z 09006KT 10SM SCT030 25/23 A3006 RMK AO2 SLP181 6//// 7//// T02500233 10250 20239 51021 PNO $', 'TIST 131053Z 08005KT 10SM 24/23 A3005 RMK AO2 SLP176 T02390233 PNO $', 'TIST 130953Z 07005KT 10SM 24/23 A3003 RMK AO2 SLP168 T02390228 PNO $', 'TIST 130853Z 07006KT 10SM 24/23 A3000 RMK AO2 SLP160 6//// T02390228 55006 PNO $', 'TIST 130753Z 07006KT 10SM 24/23 A2999 RMK AO2 SLP157 T02440228 PNO $', 'TIST 130653Z 08007KT 10SM 24/23 A3000 RMK AO2 SLP160 T02390228 PNO $', 'TIST 130553Z 08006KT 10SM 24/23 A3002 RMK AO2 SLP166 6//// T02390228 10250 20233 58017 PNO $', 'TIST 130453Z 09006KT 10SM 24/22 A3004 RMK AO2 SLP174 T02390222 PNO $', 'TIST 130353Z 09005KT 10SM 24/22 A3006 RMK AO2 SLP179 T02390217 402890239 PNO $', 'TIST 130253Z 08006KT 10SM 24/21 A3007 RMK AO2 SLP183 6//// T02440211 51010 PNO $', 'TIST 130153Z 08006KT 10SM 24/21 A3007 RMK AO2 SLP183 T02440211 PNO $', 'TIST 130053Z 08007KT 10SM 25/21 A3006 RMK AO2 SLP180 T02500211 PNO $', 'TIST 122353Z 07006KT 10SM FEW030 25/21 A3004 RMK AO2 SLP173 6//// T02500211 10278 20250 53013 PNO $', 'TIST 122253Z 08007KT 10SM FEW050 26/21 A3003 RMK AO2 SLP169 T02560211 PNO $', 'TIST 122153Z 08010KT 10SM FEW050 26/21 A3002 RMK AO2 SLP165 T02610206 PNO $', 'TIST 122053Z 10007KT 10SM FEW035 27/21 A3000 RMK AO2 SLP161 6//// T02720206 55005 PNO $', 'TIST 121953Z 14012KT 10SM FEW035 27/22 A3000 RMK AO2 SLP158 T02720222 PNO $', 'TIST 121853Z 14012KT 10SM FEW030 28/22 A3000 RMK AO2 SLP160 T02780217 PNO $', 'TIST 121753Z 13014KT 10SM FEW039 27/21 A3002 RMK AO2 SLP166 6//// T02720211 10289 20250 58025 PNO $', 'TIST 121653Z 13012KT 10SM FEW041 28/21 A3005 RMK AO2 SLP176 T02780211 PNO $', 'TIST 121553Z 14014G18KT 10SM 27/21 A3008 RMK AO2 SLP185 T02720206 PNO $', 'TIST 121453Z 09007G16KT 050V130 10SM 28/19 A3009 RMK AO2 SLP191 6//// T02830189 50009 PNO $', 'TIST 121353Z 08012KT 10SM FEW030 28/19 A3010 RMK AO2 SLP192 T02780189 PNO $', 'TIST 121253Z 08012KT 10SM 26/19 A3008 RMK AO2 SLP187 T02610194 PNO $', 'TIST 121153Z 07014KT 10SM 25/21 A3007 RMK AO2 SLP182 6//// 7//// T02500206 10250 20244 53016 PNO $', 'TIST 121053Z 07011G20KT 10SM 24/21 A3005 RMK AO2 SLP177 T02440206 PNO $']","['2024-02-15 09:53:00', '2024-02-15 08:53:00', '2024-02-15 07:53:00', '2024-02-15 06:53:00', '2024-02-15 05:53:00', '2024-02-15 04:53:00', '2024-02-15 03:53:00', '2024-02-15 02:53:00', '2024-02-15 01:53:00', '2024-02-14 23:53:00', '2024-02-14 22:53:00', '2024-02-14 21:53:00', '2024-02-14 20:53:00', '2024-02-14 19:53:00', '2024-02-14 18:53:00', '2024-02-14 17:53:00', '2024-02-14 16:53:00', '2024-02-14 15:53:00', '2024-02-14 14:53:00', '2024-02-14 13:53:00', '2024-02-14 12:53:00', '2024-02-14 11:53:00', '2024-02-14 10:53:00', '2024-02-14 09:53:00', '2024-02-14 08:53:00', '2024-02-14 07:53:00', '2024-02-14 06:53:00', '2024-02-14 05:53:00', '2024-02-14 04:53:00', '2024-02-14 03:53:00', '2024-02-14 02:53:00', '2024-02-14 01:53:00', '2024-02-14 00:53:00', '2024-02-13 23:53:00', '2024-02-13 22:53:00', '2024-02-13 21:53:00', '2024-02-13 20:53:00', '2024-02-13 19:53:00', '2024-02-13 18:53:00', '2024-02-13 17:53:00', '2024-02-13 16:53:00', '2024-02-13 14:53:00', '2024-02-13 13:53:00', '2024-02-13 12:53:00', '2024-02-13 11:53:00', '2024-02-13 10:53:00', '2024-02-13 09:53:00', '2024-02-13 08:53:00', '2024-02-13 07:53:00', '2024-02-13 06:53:00', '2024-02-13 05:53:00', '2024-02-13 04:53:00', '2024-02-13 03:53:00', '2024-02-13 02:53:00', '2024-02-13 01:53:00', '2024-02-13 00:53:00', '2024-02-12 23:53:00', '2024-02-12 22:53:00', '2024-02-12 21:53:00', '2024-02-12 20:53:00', '2024-02-12 19:53:00', '2024-02-12 18:53:00', '2024-02-12 17:53:00', '2024-02-12 16:53:00', '2024-02-12 15:53:00', '2024-02-12 14:53:00', '2024-02-12 13:53:00', '2024-02-12 12:53:00', '2024-02-12 11:53:00', '2024-02-12 10:53:00']"
Yemen, Aden International Airport (ADE/OYAA) ,"['OYAA 151000Z 08019KT 8000 FEW018 29/22 Q1015 NOSIG', 'OYAA 150900Z 08016G26KT 8000 FEW018 29/22 Q1016 NOSIG', 'OYAA 150800Z 07016G26KT 8000 SCT018 29/21 Q1017 NOSIG', 'OYAA 150700Z 09020KT 8000 SCT018 29/22 Q1018 NOSIG', 'OYAA 150600Z 07020KT 8000 SCT018 28/22 Q1018 NOSIG', 'OYAA 150500Z 08020KT 8000 SCT020 27/22 Q1017 NOSIG', 'OYAA 150400Z 07019KT 8000 BKN020 27/23 Q1016 NOSIG RMK MIN 25.4', 'OYAA 150300Z 07019KT 8000 SCT020 26/22 Q1015 NOSIG', 'OYAA 150200Z 07018KT 8000 SCT020 26/22 Q1014 NOSIG', 'OYAA 150100Z 10018KT 8000 SCT020 26/22 Q1014 NOSIG', 'OYAA 150000Z 09018KT 8000 SCT020 27/23 Q1013 NOSIG', 'OYAA 142300Z 07017KT 8000 SCT020 27/23 Q1013 NOSIG', 'OYAA 142200Z 08018KT 8000 SCT020 26/22 Q1013 NOSIG', 'OYAA 142100Z 10016KT 8000 SCT020 27/22 Q1014 NOSIG', 'OYAA 142000Z 07019KT 8000 SCT020 27/24 Q1015 NOSIG', 'OYAA 141900Z 08015KT 8000 SCT020 27/24 Q1015 NOSIG', 'OYAA 141800Z 07017KT 8000 SCT020 27/23 Q1015 NOSIG', 'OYAA 141700Z 10015KT 8000 FEW018 BKN200 27/23 Q1015 NOSIG', 'OYAA 141600Z 10016KT 8000 FEW018 BKN200 27/23 Q1014 NOSIG', 'OYAA 141500Z 08019KT 8000 FEW018 BKN200 28/22 Q1013 NOSIG', 'OYAA 141400Z 08017KT 8000 FEW018 BKN200 28/22 Q1013 NOSIG', 'OYAA 141300Z 11016KT 8000 FEW018 SCT200 29/22 Q1012 NOSIG', 'OYAA 141200Z 11015KT 8000 FEW018 SCT200 29/22 Q1013 NOSIG', 'OYAA 141100Z 10018KT 8000 SCT018 BKN200 29/22 Q1013 NOSIG', 'OYAA 141000Z 09017KT 8000 FEW018TCU SCT025 29/22 Q1014 NOSIG', 'OYAA 140900Z 08019KT 8000 FEW018TCU SCT025 29/22 Q1015 NOSIG', 'OYAA 140800Z 09019KT 8000 FEW018TCU SCT025 29/22 Q1016 NOSIG', 'OYAA 140700Z 08017KT 8000 FEW018TCU SCT025 29/22 Q1016 NOSIG', 'OYAA 140600Z 09020KT 8000 SCT018 BKN025 28/23 Q1016 NOSIG', 'OYAA 140400Z 08018KT 8000 SCT020 27/23 Q1014 NOSIG', 'OYAA 140300Z 07019KT 8000 SCT020 26/22 Q1014 NOSIG', 'OYAA 140200Z 07019KT 8000 HZ BKN020 26/22 Q1013 NOSIG', 'OYAA 140100Z 07017KT 8000 HZ SCT020 26/22 Q1013 NOSIG', 'OYAA 140000Z 09018KT 8000 SCT020 27/23 Q1013', 'OYAA 132300Z 08020KT 8000 SCT020 27/23 Q1013', 'OYAA 132200Z 08019KT 8000 SCT020 27/23 Q1013', 'OYAA 132100Z 07018KT 8000 SCT020 27/23 Q1014 NOSIG', 'OYAA 132000Z 06018KT 8000 FEW020 SCT200 27/23 Q1015 NOSIG', 'OYAA 131900Z 06016KT 8000 FEW020 SCT200 27/22 Q1015 NOSIG', 'OYAA 131800Z 07017KT 8000 FEW020 SCT200 27/22 Q1015 NOSIG', 'OYAA 131700Z 06014KT 8000 FEW020 SCT200 27/22 Q1015 NOSIG', 'OYAA 131600Z 07015KT 8000 FEW020 SCT200 Q1014 NOSIG', 'OYAA 131500Z 08016KT 8000 FEW020 SCT200 28/22 Q1013 NOSIG', 'OYAA 131400Z 10015KT 8000 FEW020 SCT200 28/22 Q1013 NOSIG', 'OYAA 131300Z 10015KT 8000 FEW020 29/23 Q1012 NOSIG', 'OYAA 131200Z 10014KT 8000 FEW020 29/22 Q1013 NOSIG', 'OYAA 131100Z 09016KT 8000 FEW020 29/22 Q1013 NOSIG', 'OYAA 131000Z 09016KT 8000 FEW020 29/22 Q1014 NOSIG', 'OYAA 130900Z 08016KT 8000 FEW020 29/22 Q1015 NOSIG', 'OYAA 130800Z 10016KT 8000 FEW018 SCT200 29/22 Q1016 NOSIG', 'OYAA 130700Z 08015KT 8000 SCT020 BKN200 29/23 Q10017 NOSIG', 'OYAA 130600Z 09016KT 8000 SCT020 BKN200 28/22 Q1016 NOSIG', 'OYAA 130500Z 09015KT 8000 SCT020 BKN200 28/23 Q1016 NOSIG', 'OYAA 130400Z 10015KT 8000 BKN020 27/23 Q1015 RMK MIN 25.4', 'OYAA 130300Z 09015KT 8000 SCT020 26/23 Q1014 NOSIG', 'OYAA 130200Z 07014KT 9999 SCT020 27/23 Q1013 NOSIG', 'OYAA 130100Z 07014KT 9999 BKN020 27/22 Q1013 NOSIG', 'OYAA 130000Z 09013KT 9999 BKN020 27/23 Q1013 NOSIG', 'OYAA 122300Z 08016KT 9999 SCT020 27/23 Q1013 NOSIG', 'OYAA 122200Z 07014KT 9999 SCT020 27/23 Q1014 NOSIG', 'OYAA 122100Z 06015KT 9999 SCT020 27/23 Q1014 NOSIG', 'OYAA 122000Z 09011KT 9999 FEW020 SCT200 27/23 Q1015 NOSIG', 'OYAA 121900Z 11012KT 9999 FEW020 SCT200 27/23 Q1015 NOSIG', 'OYAA 121800Z 10012KT 9999 FEW020 SCT200 27/22 Q1015 NOSIG', 'OYAA 121700Z 10010KT 9999 FEW020 SCT200 27/23 Q1015 NOSIG', 'OYAA 121600Z 10010KT 9999 FEW018 SCT200 27/23 Q1014 NOSIG', 'OYAA 121500Z 11011KT 9999 FEW018 SCT200 28/23 Q1014 NOSIG', 'OYAA 121400Z 10011KT 9999 FEW018 SCT200 28/22 Q1013 NOSIG', 'OYAA 121300Z 12012KT 9999 FEW018 29/23 Q1013 NOSIG', 'OYAA 121200Z 12012KT 9999 FEW018 29/22 Q1013 NOSIG', 'OYAA 121100Z 10014KT 9999 SCT018 29/22 Q1014 NOSIG']","['2024-02-15 10:00:00', '2024-02-15 09:00:00', '2024-02-15 08:00:00', '2024-02-15 07:00:00', '2024-02-15 06:00:00', '2024-02-15 05:00:00', '2024-02-15 04:00:00', '2024-02-15 03:00:00', '2024-02-15 02:00:00', '2024-02-15 01:00:00', '2024-02-15 00:00:00', '2024-02-14 23:00:00', '2024-02-14 22:00:00', '2024-02-14 21:00:00', '2024-02-14 20:00:00', '2024-02-14 19:00:00', '2024-02-14 18:00:00', '2024-02-14 17:00:00', '2024-02-14 16:00:00', '2024-02-14 15:00:00', '2024-02-14 14:00:00', '2024-02-14 13:00:00', '2024-02-14 12:00:00', '2024-02-14 11:00:00', '2024-02-14 10:00:00', '2024-02-14 09:00:00', '2024-02-14 08:00:00', '2024-02-14 07:00:00', '2024-02-14 06:00:00', '2024-02-14 04:00:00', '2024-02-14 03:00:00', '2024-02-14 02:00:00', '2024-02-14 01:00:00', '2024-02-14 00:00:00', '2024-02-13 23:00:00', '2024-02-13 22:00:00', '2024-02-13 21:00:00', '2024-02-13 20:00:00', '2024-02-13 19:00:00', '2024-02-13 18:00:00', '2024-02-13 17:00:00', '2024-02-13 16:00:00', '2024-02-13 15:00:00', '2024-02-13 14:00:00', '2024-02-13 13:00:00', '2024-02-13 12:00:00', '2024-02-13 11:00:00', '2024-02-13 10:00:00', '2024-02-13 09:00:00', '2024-02-13 08:00:00', '2024-02-13 07:00:00', '2024-02-13 06:00:00', '2024-02-13 05:00:00', '2024-02-13 04:00:00', '2024-02-13 03:00:00', '2024-02-13 02:00:00', '2024-02-13 01:00:00', '2024-02-13 00:00:00', '2024-02-12 23:00:00', '2024-02-12 22:00:00', '2024-02-12 21:00:00', '2024-02-12 20:00:00', '2024-02-12 19:00:00', '2024-02-12 18:00:00', '2024-02-12 17:00:00', '2024-02-12 16:00:00', '2024-02-12 15:00:00', '2024-02-12 14:00:00', '2024-02-12 13:00:00', '2024-02-12 12:00:00', '2024-02-12 11:00:00']"
