country,airport,METARs,UTC/Time
Algeria, Adrar Airport (AZR/DAUA) ,"['DAUA 031400Z 04016KT CAVOK 23/M02 Q1026', 'DAUA 031300Z 06018KT CAVOK 21/M03 Q1026', 'DAUA 031200Z 04015KT CAVOK 20/M02 Q1027', 'DAUA 031100Z 02010KT CAVOK 17/M03 Q1028', 'DAUA 031000Z 01011KT CAVOK 14/M05 Q1028', 'DAUA 030900Z 03010KT CAVOK 10/M06 Q1027', 'DAUA 030800Z 02006KT CAVOK 05/M09 Q1026', 'DAUA 030700Z 02008KT CAVOK 04/M09 Q1026', 'DAUA 030600Z 03010KT CAVOK 05/M08 Q1025', 'DAUA 030500Z 05011KT CAVOK 06/M08 Q1025', 'DAUA 030400Z 04009KT CAVOK 05/M09 Q1024', 'DAUA 030300Z 04010KT CAVOK 06/M08 Q1025', 'DAUA 030200Z 03011KT CAVOK 07/M08 Q1025', 'DAUA 030100Z 04010KT CAVOK 09/M08 Q1025', 'DAUA 030000Z 02012KT CAVOK 09/M08 Q1025', 'DAUA 022300Z 03010KT CAVOK 11/M07 Q1026', 'DAUA 022200Z 01011KT CAVOK 12/M08 Q1025', 'DAUA 022000Z 01011KT CAVOK 13/M09 Q1025', 'DAUA 021900Z 03010KT CAVOK 16/M08 Q1024', 'DAUA 021800Z 02011KT CAVOK 18/M07 Q1024', 'DAUA 021700Z 04015KT CAVOK 21/M09 Q1024', 'DAUA 021600Z 02014KT CAVOK 22/M09 Q1024', 'DAUA 021500Z 03015KT CAVOK 22/M10 Q1025', 'DAUA 021400Z 02010KT CAVOK 21/M08 Q1025', 'DAUA 021300Z 01012KT CAVOK 20/M06 Q1026', 'DAUA 021200Z 02010KT CAVOK 18/M03 Q1028', 'DAUA 021100Z 03011KT CAVOK 15/M03 Q1029', 'DAUA 021000Z 04012KT CAVOK 12/M02 Q1029', 'DAUA 020900Z 02011KT CAVOK 09/M03 Q1028', 'DAUA 020800Z 02012KT CAVOK 05/M03 Q1028', 'DAUA 020700Z 01011KT CAVOK 03/M04 Q1027', 'DAUA 020600Z 01010KT CAVOK 04/M05 Q1027', 'DAUA 020500Z 01009KT CAVOK 05/M05 Q1026', 'DAUA 020400Z 01008KT CAVOK 05/M05 Q1026', 'DAUA 020300Z 02007KT CAVOK 07/M05 Q1026', 'DAUA 020200Z 02009KT CAVOK 09/M04 Q1026', 'DAUA 020100Z 04008KT CAVOK 10/M05 Q1027', 'DAUA 020000Z 03014KT CAVOK 12/M04 Q1027', 'DAUA 012300Z 02012KT CAVOK 14/M05 Q1027', 'DAUA 012100Z 02014KT CAVOK 15/M07 Q1027', 'DAUA 012000Z 03012KT CAVOK 17/M07 Q1026', 'DAUA 011900Z 02012KT CAVOK 18/M07 Q1026', 'DAUA 011800Z 02012KT CAVOK 20/M07 Q1025', 'DAUA 011700Z 03014KT CAVOK 22/M06 Q1025', 'DAUA 011600Z 02014KT CAVOK 22/M04 Q1025', 'DAUA 011500Z 02016KT CAVOK 22/M03 Q1025', 'DAUA 011400Z 05010KT CAVOK 21/M03 Q1026', 'DAUA 011300Z 04016KT CAVOK 19/M03 Q1027', 'DAUA 011100Z 05017KT CAVOK 16/M02 Q1029', 'DAUA 011000Z 04016KT CAVOK 14/M02 Q1029', 'DAUA 010900Z 05018KT CAVOK 11/M02 Q1029', 'DAUA 010800Z 03010KT CAVOK 07/M03 Q1029', 'DAUA 010700Z 02009KT CAVOK 06/M04 Q1028', 'DAUA 010600Z 02012KT CAVOK 07/M04 Q1027', 'DAUA 010500Z 02012KT CAVOK 08/M03 Q1027', 'DAUA 010400Z 02010KT CAVOK 08/M04 Q1027', 'DAUA 010300Z 03010KT CAVOK 09/M04 Q1027', 'DAUA 010200Z 03015KT CAVOK 10/M04 Q1027', 'DAUA 010100Z 04011KT CAVOK 11/M04 Q1027', 'DAUA 010000Z 03012KT CAVOK 12/M04 Q1017', 'DAUA 312300Z 03013KT CAVOK 13/M05 Q1027', 'DAUA 312200Z 04012KT CAVOK 14/M04 Q1027', 'DAUA 312100Z 03013KT CAVOK 15/M05 Q1026', 'DAUA 312000Z 03016KT CAVOK 17/M05 Q1026', 'DAUA 311900Z 03010KT 9000 NSC 18/M05 Q1025', 'DAUA 311800Z 04014KT 9000 NSC 20/M06 Q1025', 'DAUA 311700Z 04016KT 9000 NSC 22/M05 Q1024', 'DAUA 311600Z 05022KT 9000 NSC 23/M04 Q1024']","['2024-02-03 14:00:00', '2024-02-03 13:00:00', '2024-02-03 12:00:00', '2024-02-03 11:00:00', '2024-02-03 10:00:00', '2024-02-03 09:00:00', '2024-02-03 08:00:00', '2024-02-03 07:00:00', '2024-02-03 06:00:00', '2024-02-03 05:00:00', '2024-02-03 04:00:00', '2024-02-03 03:00:00', '2024-02-03 02:00:00', '2024-02-03 01:00:00', '2024-02-03 00:00:00', '2024-02-02 23:00:00', '2024-02-02 22:00:00', '2024-02-02 20:00:00', '2024-02-02 19:00:00', '2024-02-02 18:00:00', '2024-02-02 17:00:00', '2024-02-02 16:00:00', '2024-02-02 15:00:00', '2024-02-02 14:00:00', '2024-02-02 13:00:00', '2024-02-02 12:00:00', '2024-02-02 11:00:00', '2024-02-02 10:00:00', '2024-02-02 09:00:00', '2024-02-02 08:00:00', '2024-02-02 07:00:00', '2024-02-02 06:00:00', '2024-02-02 05:00:00', '2024-02-02 04:00:00', '2024-02-02 03:00:00', '2024-02-02 02:00:00', '2024-02-02 01:00:00', '2024-02-02 00:00:00', '2024-02-01 23:00:00', '2024-02-01 21:00:00', '2024-02-01 20:00:00', '2024-02-01 19:00:00', '2024-02-01 18:00:00', '2024-02-01 17:00:00', '2024-02-01 16:00:00', '2024-02-01 15:00:00', '2024-02-01 14:00:00', '2024-02-01 13:00:00', '2024-02-01 11:00:00', '2024-02-01 10:00:00', '2024-02-01 09:00:00', '2024-02-01 08:00:00', '2024-02-01 07:00:00', '2024-02-01 06:00:00', '2024-02-01 05:00:00', '2024-02-01 04:00:00', '2024-02-01 03:00:00', '2024-02-01 02:00:00', '2024-02-01 01:00:00', '2024-02-01 00:00:00', '2024-01-31 23:00:00', '2024-01-31 22:00:00', '2024-01-31 21:00:00', '2024-01-31 20:00:00', '2024-01-31 19:00:00', '2024-01-31 18:00:00', '2024-01-31 17:00:00', '2024-01-31 16:00:00']"
Algeria, Algiers Houari Boumediene Airport (ALG/DAAG) ,"['DAAG 031430Z 07012KT 9999 FEW026 17/11 Q1032', 'DAAG 031400Z 06011KT 9999 FEW026 17/10 Q1032', 'DAAG 031330Z 05010KT 9999 FEW026 17/10 Q1032', 'DAAG 031300Z 06009KT 030V090 9999 FEW026 17/10 Q1032', 'DAAG 031230Z 03009KT 9999 FEW030 17/10 Q1033', 'DAAG 031200Z 04008KT 010V080 9999 FEW030 17/10 Q1033', 'DAAG 031130Z 05008KT 020V080 9999 FEW030 17/10 Q1034', 'DAAG 031100Z 05005KT 010V080 9999 FEW026 17/09 Q1034', 'DAAG 031030Z 03005KT 010V080 9999 FEW026 17/09 Q1034', 'DAAG 031000Z 05003KT 020V110 9999 FEW026 16/09 Q1034', 'DAAG 030930Z VRB02KT 9999 FEW026 SCT053 15/10 Q1034', 'DAAG 030900Z VRB02KT 9000 FEW026 SCT053 14/10 Q1034', 'DAAG 030830Z 21003KT 170V260 8000 FEW026 SCT053 12/09 Q1033', 'DAAG 030800Z 21003KT 7000 FEW026 BKN046 10/09 Q1033', 'DAAG 030730Z 24002KT 7000 FEW026 BKN046 09/08 Q1033', 'DAAG 030700Z 21004KT 6000 FEW026 BKN046 08/07 Q1033', 'DAAG 030630Z 22004KT 8000 FEW026 SCT050 08/07 Q1033', 'DAAG 030600Z 21004KT 7000 FEW023 08/07 Q1032', 'DAAG 030530Z 17001KT 7000 FEW023 09/08 Q1032', 'DAAG 030500Z 20002KT 9000 FEW023 09/08 Q1032', 'DAAG 030430Z 16002KT 8000 FEW023 SCT044 09/08 Q1032', 'DAAG 030400Z 00000KT 8000 FEW023 SCT073 10/09 Q1032', 'DAAG 030330Z 22003KT 8000 FEW023 SCT050 09/08 Q1032', 'DAAG 030300Z 21004KT 9999 FEW023 BKN046 10/09 Q1032', 'DAAG 030200Z 19004KT 9999 FEW023 BKN040 10/09 Q1032', 'DAAG 030130Z 19003KT 9999 FEW026 BKN046 09/08 Q1032', 'DAAG 030100Z 25002KT 9999 FEW026 BKN046 10/09 Q1032', 'DAAG 030030Z 22002KT 9999 FEW026 BKN046 10/09 Q1032', 'DAAG 030000Z 24003KT 9999 FEW026 BKN046 10/09 Q1032', 'DAAG 022330Z 24003KT 9999 FEW026 BKN046 11/09 Q1032', 'DAAG 022300Z 22003KT 9999 FEW026 BKN046 10/09 Q1032', 'DAAG 022230Z 22004KT 9000 FEW026 BKN046 12/10 Q1032', 'DAAG 022200Z 22002KT 9999 FEW026 BKN046 12/10 Q1032', 'DAAG 022130Z 08001KT 9999 FEW026 BKN046 12/10 Q1032', 'DAAG 022030Z 04004KT 010V070 9999 FEW026 BKN046 15/10 Q1032', 'DAAG 022000Z 34003KT 9999 FEW026 BKN046 15/09 Q1032', 'DAAG 021900Z 35002KT 9999 FEW026 BKN046 15/10 Q1032', 'DAAG 021830Z 36003KT 9999 FEW026 BKN046 15/09 Q1032', 'DAAG 021800Z 01004KT 340V040 9999 FEW026 BKN046 15/09 Q1032', 'DAAG 021730Z 35004KT 9999 FEW026 BKN046 15/10 Q1031', 'DAAG 021700Z 35005KT 9999 FEW026 BKN046 15/09 Q1031', 'DAAG 021630Z 36007KT 9999 FEW026 SCT050 16/10 Q1031', 'DAAG 021600Z 01009KT 9999 FEW026 SCT040 16/09 Q1031', 'DAAG 021530Z 34006KT 310V010 9999 FEW026 BKN040 15/09 Q1031', 'DAAG 021500Z 34007KT 310V010 9999 FEW026 BKN036 16/08 Q1031', 'DAAG 021430Z 35007KT 9999 FEW023 BKN040 16/08 Q1031', 'DAAG 021400Z VRB05KT 9999 FEW026 SCT040 16/08 Q1032', 'DAAG 021330Z VRB03KT 9999 FEW023 SCT040 16/10 Q1032', 'DAAG 021300Z VRB02KT 9999 FEW023 BKN040 15/09 Q1032', 'DAAG 021230Z 01003KT 330V060 9999 FEW023 BKN040 15/08 Q1032', 'DAAG 021200Z 10003KT 050V150 9999 FEW020 SCT040 15/09 Q1033', 'DAAG 021130Z VRB01KT 9999 FEW020 SCT040 15/09 Q1033', 'DAAG 021100Z VRB02KT 9999 FEW020 SCT040 15/10 Q1033', 'DAAG 021030Z VRB02KT 8000 FEW020 SCT040 14/09 Q1033', 'DAAG 021000Z VRB02KT 8000 FEW020 SCT040 13/09 Q1033', 'DAAG 020930Z 26003KT 230V310 8000 FEW020 SCT040 12/08 Q1033', 'DAAG 020900Z 28003KT 6000 FEW020 SCT040 11/08 Q1033', 'DAAG 020830Z 25004KT 6000 FEW020 SCT040 09/07 Q1032', 'DAAG 020800Z 21005KT 6000 FEW020 SCT040 08/07 Q1032', 'DAAG 020730Z 23002KT 4000 BR FEW015 SCT040 07/06 Q1032', 'DAAG 020700Z 20003KT 3000 BR FEW010 SCT040 06/05 Q1032', 'DAAG 020630Z 17003KT 6000 FEW010 04/04 Q1032', 'DAAG 020600Z 12003KT 6000 FEW010 05/05 Q1032', 'DAAG 020530Z 19003KT 6000 FEW010 05/04 Q1031', 'DAAG 020500Z 21003KT 6000 FEW010 06/06 Q1031', 'DAAG 020430Z 20004KT 6000 FEW008 05/04 Q1031', 'DAAG 020400Z 21003KT 6000 FEW008 05/04 Q1031', 'DAAG 020330Z 21003KT 4000 BR FEW008 05/05 Q1031', 'DAAG 020300Z 19003KT 3000 BR FEW008 06/05 Q1031', 'DAAG 020230Z 14002KT 3000 BR FEW008 05/04 Q1031', 'DAAG 020200Z 19002KT 3000 BR FEW008 08/07 Q1031', 'DAAG 020130Z 26001KT 4000 BR FEW008 07/07 Q1032', 'DAAG 020100Z 22005KT 4000 BR FEW008 07/06 Q1033', 'DAAG 020030Z 18003KT 3000 BR FEW006 06/06 Q1033', 'DAAG 020000Z 09002KT 0900 R23/P2000N R27/2000N FG FEW006 07/07 Q1033', 'DAAG 012330Z 00000KT 0900 R23/P2000N R27/0650N FG FEW006 07/07 Q1033', 'DAAG 012300Z 00000KT 0800 R23/P2000N R27/P2000N FG FEW010 07/07 Q1033', 'DAAG 012230Z 19002KT 6000 FEW016 08/07 Q1033', 'DAAG 012200Z 15003KT 8000 FEW020 08/07 Q1033', 'DAAG 012130Z 10003KT 8000 FEW020 08/07 Q1033', 'DAAG 012100Z 07002KT 8000 FEW023 10/08 Q1033', 'DAAG 012030Z 18002KT 8000 FEW023 10/08 Q1033', 'DAAG 012000Z 18003KT 9999 FEW023 10/08 Q1033', 'DAAG 011930Z 10002KT 9999 FEW023 11/09 Q1033', 'DAAG 011900Z 08002KT 9999 FEW023 12/09 Q1033', 'DAAG 011830Z 07003KT 9999 FEW023 13/10 Q1033', 'DAAG 011800Z 06004KT 9999 FEW023 13/09 Q1033', 'DAAG 011730Z 06004KT 9999 FEW023 13/10 Q1032', 'DAAG 011700Z 06005KT 9999 FEW023 15/10 Q1032', 'DAAG 011630Z 05005KT 9999 FEW023 15/10 Q1033', 'DAAG 011600Z 05006KT 9999 SCT023 15/10 Q1033', 'DAAG 011530Z 03007KT 360V110 9999 SCT023 16/09 Q1033', 'DAAG 011500Z 04007KT 9999 SCT023 16/09 Q1033', 'DAAG 011430Z 06004KT 030V090 9999 SCT023 16/09 Q1033', 'DAAG 011400Z 07005KT 020V110 9999 SCT023 16/10 Q1033', 'DAAG 011330Z 07008KT 040V100 9999 FEW023 BKN050 16/10 Q1033', 'DAAG 011300Z 04009KT 9999 FEW020 BKN050 16/10 Q1034', 'DAAG 011230Z 06009KT 9999 FEW023 BKN050 16/10 Q1034', 'DAAG 011200Z 04009KT 9999 FEW020 BKN050 16/10 Q1034', 'DAAG 011130Z 05007KT 8000 FEW020 BKN040 16/11 Q1035', 'DAAG 011100Z 04007KT 4000 BR SCT010 BKN040 16/12 Q1035', 'DAAG 011030Z VRB02KT 3000 BR SCT010 BKN040 16/11 Q1035', 'DAAG 011000Z 25005KT 3000 BR SCT010 BKN040 15/11 Q1035', 'DAAG 010930Z 25004KT 3000 BR SCT010 BKN040 15/11 Q1034', 'DAAG 010900Z 23003KT 3000 BR SCT010 BKN040 14/11 Q1034', 'DAAG 010830Z VRB02KT 3000 BR SCT010 BKN040 14/11 Q1034', 'DAAG 010800Z 23003KT 2000 BR FEW020 BKN040 13/11 Q1034', 'DAAG 010730Z 23004KT 4000 BR FEW020 BKN040 13/11 Q1034', 'DAAG 010700Z 20003KT 4500 BR FEW020 BKN040 13/12 Q1033', 'DAAG 010630Z 21003KT 5000 FEW020 BKN040 13/11 Q1033', 'DAAG 010600Z 21003KT 6000 FEW020 BKN040 13/11 Q1033', 'DAAG 010530Z 21003KT 6000 FEW020 BKN040 13/12 Q1033', 'DAAG 010500Z 22003KT 6000 FEW020 BKN040 13/12 Q1033', 'DAAG 010430Z 19002KT 6000 FEW020 BKN040 13/12 Q1033', 'DAAG 010400Z 19002KT 6000 FEW020 BKN040 13/11 Q1033', 'DAAG 010330Z 17002KT 6000 FEW020 BKN040 13/12 Q1033', 'DAAG 010300Z 00000KT 6000 FEW020 BKN040 13/12 Q1033', 'DAAG 010230Z 11001KT 6000 FEW020 BKN040 13/12 Q1033', 'DAAG 010200Z 00000KT 6000 FEW020 BKN040 14/12 Q1033', 'DAAG 010130Z VRB01KT 6000 FEW020 BKN036 14/12 Q1033', 'DAAG 010100Z 20003KT 6000 FEW020 BKN036 13/12 Q1033', 'DAAG 010030Z 20001KT 6000 FEW020 BKN036 14/12 Q1033', 'DAAG 010000Z 00000KT 6000 FEW020 BKN036 14/12 Q1034', 'DAAG 312330Z 19002KT 6000 FEW020 BKN036 14/12 Q1034', 'DAAG 312300Z 00000KT 6000 FEW020 BKN036 15/12 Q1034', 'DAAG 312230Z VRB01KT 6000 FEW023 BKN036 15/12 Q1034', 'DAAG 312200Z 00000KT 6000 FEW023 BKN036 15/12 Q1034', 'DAAG 312130Z 05002KT 6000 FEW023 BKN036 14/12 Q1034', 'DAAG 312100Z 06004KT 6000 FEW023 BKN036 15/12 Q1034', 'DAAG 312030Z 04003KT 6000 FEW023 BKN040 15/12 Q1034', 'DAAG 312000Z 06004KT 7000 FEW023 BKN040 15/12 Q1033', 'DAAG 311930Z 07002KT 7000 FEW023 BKN040 15/12 Q1033', 'DAAG 311900Z 07004KT 6000 SCT026 BKN040 15/12 Q1033', 'DAAG 311830Z 07004KT 6000 SCT026 BKN040 15/11 Q1033', 'DAAG 311800Z 07004KT 6000 SCT026 BKN040 15/11 Q1033', 'DAAG 311730Z 07005KT 6000 SCT026 BKN040 16/11 Q1033', 'DAAG 311700Z 06005KT 6000 SCT026 BKN040 16/10 Q1033', 'DAAG 311630Z 06004KT 6000 SCT026 BKN040 17/09 Q1033', 'DAAG 311600Z 04006KT 6000 SCT026 BKN040 17/09 Q1033', 'DAAG 311530Z 03006KT 6000 SCT026 BKN040 17/10 Q1033']","['2024-02-03 14:30:00', '2024-02-03 14:00:00', '2024-02-03 13:30:00', '2024-02-03 13:00:00', '2024-02-03 12:30:00', '2024-02-03 12:00:00', '2024-02-03 11:30:00', '2024-02-03 11:00:00', '2024-02-03 10:30:00', '2024-02-03 10:00:00', '2024-02-03 09:30:00', '2024-02-03 09:00:00', '2024-02-03 08:30:00', '2024-02-03 08:00:00', '2024-02-03 07:30:00', '2024-02-03 07:00:00', '2024-02-03 06:30:00', '2024-02-03 06:00:00', '2024-02-03 05:30:00', '2024-02-03 05:00:00', '2024-02-03 04:30:00', '2024-02-03 04:00:00', '2024-02-03 03:30:00', '2024-02-03 03:00:00', '2024-02-03 02:00:00', '2024-02-03 01:30:00', '2024-02-03 01:00:00', '2024-02-03 00:30:00', '2024-02-03 00:00:00', '2024-02-02 23:30:00', '2024-02-02 23:00:00', '2024-02-02 22:30:00', '2024-02-02 22:00:00', '2024-02-02 21:30:00', '2024-02-02 20:30:00', '2024-02-02 20:00:00', '2024-02-02 19:00:00', '2024-02-02 18:30:00', '2024-02-02 18:00:00', '2024-02-02 17:30:00', '2024-02-02 17:00:00', '2024-02-02 16:30:00', '2024-02-02 16:00:00', '2024-02-02 15:30:00', '2024-02-02 15:00:00', '2024-02-02 14:30:00', '2024-02-02 14:00:00', '2024-02-02 13:30:00', '2024-02-02 13:00:00', '2024-02-02 12:30:00', '2024-02-02 12:00:00', '2024-02-02 11:30:00', '2024-02-02 11:00:00', '2024-02-02 10:30:00', '2024-02-02 10:00:00', '2024-02-02 09:30:00', '2024-02-02 09:00:00', '2024-02-02 08:30:00', '2024-02-02 08:00:00', '2024-02-02 07:30:00', '2024-02-02 07:00:00', '2024-02-02 06:30:00', '2024-02-02 06:00:00', '2024-02-02 05:30:00', '2024-02-02 05:00:00', '2024-02-02 04:30:00', '2024-02-02 04:00:00', '2024-02-02 03:30:00', '2024-02-02 03:00:00', '2024-02-02 02:30:00', '2024-02-02 02:00:00', '2024-02-02 01:30:00', '2024-02-02 01:00:00', '2024-02-02 00:30:00', '2024-02-02 00:00:00', '2024-02-01 23:30:00', '2024-02-01 23:00:00', '2024-02-01 22:30:00', '2024-02-01 22:00:00', '2024-02-01 21:30:00', '2024-02-01 21:00:00', '2024-02-01 20:30:00', '2024-02-01 20:00:00', '2024-02-01 19:30:00', '2024-02-01 19:00:00', '2024-02-01 18:30:00', '2024-02-01 18:00:00', '2024-02-01 17:30:00', '2024-02-01 17:00:00', '2024-02-01 16:30:00', '2024-02-01 16:00:00', '2024-02-01 15:30:00', '2024-02-01 15:00:00', '2024-02-01 14:30:00', '2024-02-01 14:00:00', '2024-02-01 13:30:00', '2024-02-01 13:00:00', '2024-02-01 12:30:00', '2024-02-01 12:00:00', '2024-02-01 11:30:00', '2024-02-01 11:00:00', '2024-02-01 10:30:00', '2024-02-01 10:00:00', '2024-02-01 09:30:00', '2024-02-01 09:00:00', '2024-02-01 08:30:00', '2024-02-01 08:00:00', '2024-02-01 07:30:00', '2024-02-01 07:00:00', '2024-02-01 06:30:00', '2024-02-01 06:00:00', '2024-02-01 05:30:00', '2024-02-01 05:00:00', '2024-02-01 04:30:00', '2024-02-01 04:00:00', '2024-02-01 03:30:00', '2024-02-01 03:00:00', '2024-02-01 02:30:00', '2024-02-01 02:00:00', '2024-02-01 01:30:00', '2024-02-01 01:00:00', '2024-02-01 00:30:00', '2024-02-01 00:00:00', '2024-01-31 23:30:00', '2024-01-31 23:00:00', '2024-01-31 22:30:00', '2024-01-31 22:00:00', '2024-01-31 21:30:00', '2024-01-31 21:00:00', '2024-01-31 20:30:00', '2024-01-31 20:00:00', '2024-01-31 19:30:00', '2024-01-31 19:00:00', '2024-01-31 18:30:00', '2024-01-31 18:00:00', '2024-01-31 17:30:00', '2024-01-31 17:00:00', '2024-01-31 16:30:00', '2024-01-31 16:00:00', '2024-01-31 15:30:00']"
Algeria, Annaba Rabah Bitat Airport (AAE/DABB) ,"['DABB 031430Z 02008KT 9999 FEW020 16/12 Q1031', 'DABB 031400Z 02008KT 9999 FEW020 17/12 Q1031', 'DABB 031330Z 03006KT 9999 FEW020 16/11 Q1031', 'DABB 031300Z 03005KT 9999 FEW020 FEW023TCU SCT200 15/11 Q1031', 'DABB 031230Z 04005KT 9999 FEW020 FEW023TCU BKN200 18/10 Q1032', 'DABB 031200Z 06003KT 9999 FEW020 FEW023TCU BKN200 17/09 Q1032', 'DABB 031130Z 00000KT 9999 FEW020 FEW023TCU BKN200 16/10 Q1032', 'DABB 031100Z VRB02KT 9999 FEW020 FEW023TCU BKN200 16/11 Q1033', 'DABB 031030Z 25006KT 9999 FEW020 FEW023TCU SCT200 16/12 Q1033', 'DABB 031000Z 24006KT 9999 FEW020 FEW023TCU SCT200 15/12 Q1033', 'DABB 030930Z 24008KT 9999 FEW020 FEW023TCU 14/12 Q1033', 'DABB 030900Z 23006KT 9999 FEW020 FEW023TCU 13/12 Q1033', 'DABB 030830Z 24006KT 7000 FEW020 FEW023TCU 12/11 Q1032', 'DABB 030800Z 23003KT 7000 FEW020 FEW023TCU 11/10 Q1032', 'DABB 030730Z 21003KT 6000 FEW020 SCT033 09/08 Q1032', 'DABB 030700Z 23003KT 6000 FEW020 SCT033 08/07 Q1031', 'DABB 030630Z 22002KT 6000 FEW020 08/07 Q1031', 'DABB 030600Z 23005KT 8000 FEW020 08/07 Q1031', 'DABB 030530Z 22004KT 8000 FEW020 08/07 Q1031', 'DABB 030500Z 24004KT 8000 FEW020 SCT033 08/07 Q1030', 'DABB 030400Z 21005KT 8000 FEW020 SCT033 09/08 Q1031', 'DABB 030330Z 18003KT 8000 FEW020 SCT033 09/08 Q1030', 'DABB 030300Z 18004KT 6000 FEW020 SCT033 08/06 Q1030', 'DABB 030230Z 19003KT 140V260 4000 BR FEW020 SCT033 09/08 Q1030', 'DABB 030200Z VRB02KT 9999 FEW020 SCT033 09/08 Q1030', 'DABB 030130Z 24003KT 9999 FEW020 SCT033 10/09 Q1030', 'DABB 030100Z 23003KT 9999 FEW020 SCT033 10/09 Q1030', 'DABB 030030Z 19003KT 9999 FEW020 SCT033 10/09 Q1030', 'DABB 030000Z 24002KT 9999 FEW020 SCT033 10/09 Q1030', 'DABB 022330Z VRB01KT 9999 FEW020 SCT033 11/10 Q1030', 'DABB 022300Z 20002KT 9999 FEW020 SCT033 11/10 Q1030', 'DABB 022230Z 00000KT 9999 FEW020 SCT030 11/10 Q1030', 'DABB 022200Z 24001KT 9999 FEW020 SCT033 11/10 Q1030', 'DABB 022130Z 24002KT 9999 FEW020 SCT033 11/10 Q1030', 'DABB 022030Z 11002KT 8000 FEW020 SCT033 12/11 Q1029', 'DABB 022000Z 12004KT 8000 FEW020 SCT033 13/11 Q1029', 'DABB 021900Z 04008KT 8000 FEW020 SCT033 14/11 Q1029', 'DABB 021830Z 03010KT 8000 FEW020 SCT033 14/12 Q1028', 'DABB 021800Z 01010KT 8000 FEW020 SCT033 14/11 Q1028', 'DABB 021730Z 01010KT 7000 FEW020 SCT033 14/11 Q1028', 'DABB 021700Z 01010KT 7000 FEW020 SCT033 14/11 Q1028', 'DABB 021630Z 01011KT 7000 FEW020 FEW023TCU SCT033 15/11 Q1027', 'DABB 021600Z 35007KT 7000 FEW020 FEW023TCU BKN033 14/11 Q1027', 'DABB 021530Z 34008KT 7000 FEW020 FEW023TCU BKN033 14/11 Q1027', 'DABB 021500Z 33011KT 7000 -RA FEW020 FEW023TCU BKN033 13/11 Q1026', 'DABB 021430Z VRB01KT 5000 -RA FEW020 BKN033 14/11 Q1026', 'DABB 021400Z 31009KT 6000 -RA FEW020 BKN033 14/10 Q1026', 'DABB 021330Z 31007KT 5000 -RA FEW020 BKN033 14/11 Q1026', 'DABB 021300Z 32013KT 7000 FEW020 BKN033 14/12 Q1026', 'DABB 021230Z VRB04KT 7000 -RA FEW020 BKN033 14/13 Q1027', 'DABB 021200Z 24007KT 7000 -RA FEW020 BKN033 13/13 Q1027 RERA', 'DABB 021130Z 25011KT 2000 RA FEW020 BKN033 13/12 Q1027', 'DABB 021100Z 25010KT 6000 FEW020 BKN033 13/12 Q1028', 'DABB 021030Z 25008KT 6000 -RA FEW020 BKN033 13/12 Q1028 RERA', 'DABB 021000Z 26006KT 2000 RA FEW020 BKN033 13/11 Q1028', 'DABB 020930Z 23009KT 6000 -RA FEW020 BKN033 12/11 Q1028', 'DABB 020900Z 24006KT 3000 -RA FEW020 BKN033 12/11 Q1028', 'DABB 020830Z 26009KT 5000 -RA FEW020 BKN033 13/10 Q1027', 'DABB 020800Z 24009KT 7000 FEW020 BKN033 12/11 Q1027', 'DABB 020730Z 24010KT 7000 FEW020 BKN033 12/11 Q1027', 'DABB 020700Z 24007KT 7000 FEW020 BKN040 12/11 Q1027', 'DABB 020630Z 27008KT 7000 FEW020 SCT033 BKN100 12/10 Q1027', 'DABB 020600Z 27010KT 9999 FEW020 SCT033 12/09 Q1027', 'DABB 020530Z 23010KT 9999 FEW020 SCT033 12/09 Q1027', 'DABB 020500Z 24010KT 9999 FEW020 SCT033 12/09 Q1027', 'DABB 020430Z 24011KT 9999 FEW020 SCT033 12/09 Q1027', 'DABB 020400Z 24012KT 9999 FEW020 SCT033 12/09 Q1027', 'DABB 020330Z 25010KT 9999 FEW020 SCT033 12/09 Q1028', 'DABB 020300Z 25010KT 9999 FEW020 SCT033 12/09 Q1028', 'DABB 020230Z 26010KT 9999 FEW020 SCT033 13/09 Q1028', 'DABB 020200Z 27011KT 9999 FEW020 SCT033 12/09 Q1028', 'DABB 020130Z 27011KT 9999 FEW020 SCT033 12/08 Q1029', 'DABB 020100Z 28011KT 9999 FEW020 SCT033 12/09 Q1029', 'DABB 020030Z 27010KT 9999 FEW020 SCT033 12/09 Q1029', 'DABB 020000Z 28009KT 9999 FEW020 SCT033 12/09 Q1029', 'DABB 012330Z 27009KT 9999 FEW020 SCT033 13/09 Q1029', 'DABB 012300Z 24010KT 9999 FEW020 SCT033 12/09 Q1030', 'DABB 012230Z 25008KT 9999 FEW020 SCT033 12/09 Q1030', 'DABB 012200Z 22008KT 9999 FEW020 SCT033 12/09 Q1030', 'DABB 012130Z 23006KT 9999 FEW020 SCT033 12/09 Q1030', 'DABB 012100Z 22004KT 190V250 9999 FEW020 SCT033 12/09 Q1030', 'DABB 012030Z 25003KT 9999 FEW020 SCT033 13/08 Q1030', 'DABB 012000Z VRB02KT 9999 FEW020 SCT033 13/08 Q1031', 'DABB 011930Z VRB02KT 9999 FEW020 SCT033 11/08 Q1030', 'DABB 011900Z 24003KT 9999 FEW020 SCT033 12/08 Q1030', 'DABB 011830Z VRB02KT 9999 FEW020 BKN033 12/08 Q1030', 'DABB 011800Z VRB02KT 9999 FEW020 BKN033 13/08 Q1030', 'DABB 011730Z 34003KT 9999 FEW020 BKN033 14/08 Q1030', 'DABB 011700Z 35007KT 310V100 9999 FEW020 BKN033 14/08 Q1030', 'DABB 011630Z 36011KT 9999 FEW020 SCT033 14/08 Q1030', 'DABB 011600Z 35006KT 320V030 9999 FEW020 SCT033 15/09 Q1030', 'DABB 011530Z 01003KT 340V060 9999 FEW020 SCT033 15/08 Q1030', 'DABB 011500Z 35007KT 9999 FEW020 BKN033 15/09 Q1031', 'DABB 011430Z 00000KT 9999 FEW020 BKN033 15/08 Q1031', 'DABB 011400Z 35006KT 9999 FEW020 BKN033 15/08 Q1031', 'DABB 011330Z 36009KT 9999 FEW020 BKN033 15/08 Q1031', 'DABB 011300Z 01006KT 9999 FEW020 BKN033 15/08 Q1032', 'DABB 011230Z 36007KT 9999 FEW020 BKN033 15/08 Q1032', 'DABB 011200Z 01005KT 9999 FEW020 BKN040 15/08 Q1032', 'DABB 011130Z 02005KT 350V060 9999 FEW020 BKN033 15/08 Q1033', 'DABB 011100Z 36005KT 9999 FEW020 BKN040 15/08 Q1033', 'DABB 011030Z 36006KT 9999 FEW020 BKN033 15/08 Q1033', 'DABB 011000Z 35006KT 9999 FEW020 BKN033 14/08 Q1034', 'DABB 010930Z 36005KT 9999 FEW020 BKN033 14/09 Q1033', 'DABB 010900Z 35005KT 8000 FEW020 BKN033 14/11 Q1033', 'DABB 010830Z VRB01KT 8000 FEW020 BKN033 13/11 Q1033', 'DABB 010800Z VRB01KT 8000 FEW020 BKN033 13/11 Q1033', 'DABB 010730Z 25003KT 8000 FEW020 BKN033 12/11 Q1032', 'DABB 010700Z 24003KT 8000 FEW020 BKN033 12/11 Q1032', 'DABB 010630Z VRB01KT 8000 FEW020 BKN033 12/11 Q1032', 'DABB 010600Z VRB02KT 8000 FEW016 BKN033 12/11 Q1032', 'DABB 010530Z 23003KT 8000 FEW016 BKN033 12/11 Q1032', 'DABB 010500Z 34003KT 8000 FEW016 BKN033 12/11 Q1032', 'DABB 010430Z 23003KT 6000 FEW016 BKN033 12/11 Q1032', 'DABB 010400Z 23003KT 6000 FEW016 BKN033 12/11 Q1032', 'DABB 010330Z 00000KT 6000 FEW016 BKN033 12/11 Q1032', 'DABB 010300Z VRB01KT 6000 FEW016 BKN033 12/11 Q1032', 'DABB 010230Z 23001KT 6000 FEW016 BKN033 12/11 Q1032', 'DABB 010200Z 00000KT 6000 FEW016 BKN033 12/11 Q1032', 'DABB 010130Z 00000KT 6000 FEW016 BKN033 12/11 Q1032', 'DABB 010100Z 00000KT 6000 FEW016 BKN033 13/11 Q1032', 'DABB 010030Z VRB01KT 6000 FEW016 BKN033 13/11 Q1033', 'DABB 010000Z VRB02KT 6000 FEW016 BKN033 13/12 Q1033', 'DABB 312330Z 25002KT 6000 FEW016 BKN033 13/11 Q1033', 'DABB 312300Z VRB01KT 6000 FEW016 BKN033 13/11 Q1033', 'DABB 312230Z VRB01KT 6000 FEW016 BKN033 13/12 Q1033', 'DABB 312200Z VRB02KT 6000 FEW016 BKN033 13/12 Q1033', 'DABB 312130Z 22001KT 7000 FEW016 BKN033 13/12 Q1033', 'DABB 312100Z VRB02KT 7000 FEW016 BKN033 13/12 Q1033', 'DABB 312030Z 13004KT 7000 FEW016 BKN033 12/11 Q1033', 'DABB 312000Z 07003KT 030V120 7000 FEW016 BKN033 12/11 Q1033', 'DABB 311930Z 11004KT 8000 FEW016 BKN033 13/11 Q1033', 'DABB 311900Z 08005KT 9999 FEW020 BKN040 13/11 Q1033', 'DABB 311830Z 06006KT 9999 FEW020 BKN040 14/12 Q1033', 'DABB 311800Z 05008KT 9999 FEW020 BKN040 14/12 Q1033', 'DABB 311730Z 04009KT 9999 FEW020 SCT040 14/12 Q1032', 'DABB 311700Z 03010KT 9999 FEW020 SCT040 14/11 Q1032', 'DABB 311630Z 02012KT 9999 FEW020 14/11 Q1032', 'DABB 311600Z 01012KT 9999 FEW020 15/12 Q1032', 'DABB 311530Z 01013KT 9999 FEW020 16/12 Q1032']","['2024-02-03 14:30:00', '2024-02-03 14:00:00', '2024-02-03 13:30:00', '2024-02-03 13:00:00', '2024-02-03 12:30:00', '2024-02-03 12:00:00', '2024-02-03 11:30:00', '2024-02-03 11:00:00', '2024-02-03 10:30:00', '2024-02-03 10:00:00', '2024-02-03 09:30:00', '2024-02-03 09:00:00', '2024-02-03 08:30:00', '2024-02-03 08:00:00', '2024-02-03 07:30:00', '2024-02-03 07:00:00', '2024-02-03 06:30:00', '2024-02-03 06:00:00', '2024-02-03 05:30:00', '2024-02-03 05:00:00', '2024-02-03 04:00:00', '2024-02-03 03:30:00', '2024-02-03 03:00:00', '2024-02-03 02:30:00', '2024-02-03 02:00:00', '2024-02-03 01:30:00', '2024-02-03 01:00:00', '2024-02-03 00:30:00', '2024-02-03 00:00:00', '2024-02-02 23:30:00', '2024-02-02 23:00:00', '2024-02-02 22:30:00', '2024-02-02 22:00:00', '2024-02-02 21:30:00', '2024-02-02 20:30:00', '2024-02-02 20:00:00', '2024-02-02 19:00:00', '2024-02-02 18:30:00', '2024-02-02 18:00:00', '2024-02-02 17:30:00', '2024-02-02 17:00:00', '2024-02-02 16:30:00', '2024-02-02 16:00:00', '2024-02-02 15:30:00', '2024-02-02 15:00:00', '2024-02-02 14:30:00', '2024-02-02 14:00:00', '2024-02-02 13:30:00', '2024-02-02 13:00:00', '2024-02-02 12:30:00', '2024-02-02 12:00:00', '2024-02-02 11:30:00', '2024-02-02 11:00:00', '2024-02-02 10:30:00', '2024-02-02 10:00:00', '2024-02-02 09:30:00', '2024-02-02 09:00:00', '2024-02-02 08:30:00', '2024-02-02 08:00:00', '2024-02-02 07:30:00', '2024-02-02 07:00:00', '2024-02-02 06:30:00', '2024-02-02 06:00:00', '2024-02-02 05:30:00', '2024-02-02 05:00:00', '2024-02-02 04:30:00', '2024-02-02 04:00:00', '2024-02-02 03:30:00', '2024-02-02 03:00:00', '2024-02-02 02:30:00', '2024-02-02 02:00:00', '2024-02-02 01:30:00', '2024-02-02 01:00:00', '2024-02-02 00:30:00', '2024-02-02 00:00:00', '2024-02-01 23:30:00', '2024-02-01 23:00:00', '2024-02-01 22:30:00', '2024-02-01 22:00:00', '2024-02-01 21:30:00', '2024-02-01 21:00:00', '2024-02-01 20:30:00', '2024-02-01 20:00:00', '2024-02-01 19:30:00', '2024-02-01 19:00:00', '2024-02-01 18:30:00', '2024-02-01 18:00:00', '2024-02-01 17:30:00', '2024-02-01 17:00:00', '2024-02-01 16:30:00', '2024-02-01 16:00:00', '2024-02-01 15:30:00', '2024-02-01 15:00:00', '2024-02-01 14:30:00', '2024-02-01 14:00:00', '2024-02-01 13:30:00', '2024-02-01 13:00:00', '2024-02-01 12:30:00', '2024-02-01 12:00:00', '2024-02-01 11:30:00', '2024-02-01 11:00:00', '2024-02-01 10:30:00', '2024-02-01 10:00:00', '2024-02-01 09:30:00', '2024-02-01 09:00:00', '2024-02-01 08:30:00', '2024-02-01 08:00:00', '2024-02-01 07:30:00', '2024-02-01 07:00:00', '2024-02-01 06:30:00', '2024-02-01 06:00:00', '2024-02-01 05:30:00', '2024-02-01 05:00:00', '2024-02-01 04:30:00', '2024-02-01 04:00:00', '2024-02-01 03:30:00', '2024-02-01 03:00:00', '2024-02-01 02:30:00', '2024-02-01 02:00:00', '2024-02-01 01:30:00', '2024-02-01 01:00:00', '2024-02-01 00:30:00', '2024-02-01 00:00:00', '2024-01-31 23:30:00', '2024-01-31 23:00:00', '2024-01-31 22:30:00', '2024-01-31 22:00:00', '2024-01-31 21:30:00', '2024-01-31 21:00:00', '2024-01-31 20:30:00', '2024-01-31 20:00:00', '2024-01-31 19:30:00', '2024-01-31 19:00:00', '2024-01-31 18:30:00', '2024-01-31 18:00:00', '2024-01-31 17:30:00', '2024-01-31 17:00:00', '2024-01-31 16:30:00', '2024-01-31 16:00:00', '2024-01-31 15:30:00']"
Algeria, Batna International Airport (BLJ/DABT) ,"['DABT 031400Z 17005KT 9999 SCT023 SCT200 13/00 Q1032', 'DABT 031300Z 11005KT 9999 SCT023 SCT200 13/00 Q1032', 'DABT 031200Z 04005KT 9999 SCT023 13/02 Q1033', 'DABT 031100Z 07005KT 9999 SCT020 12/01 Q1033', 'DABT 031000Z 10005KT 9999 SCT020 10/05 Q1031', 'DABT 030900Z 13005KT 8000 FEW020 09/06 Q1033', 'DABT 030800Z 00000KT 8000 SCT026 06/05 Q1031', 'DABT 030700Z 00000KT 8000 SCT026 03/02 Q1032', 'DABT 030600Z 00000KT 9999 SCT026 04/04 Q1031', 'DABT 030500Z 00000KT 9999 BKN026 05/04 Q1031', 'DABT 030400Z 00000KT 9999 BKN026 05/04 Q1031', 'DABT 030300Z 00000KT 9999 BKN026 06/05 Q1031', 'DABT 030200Z 00000KT 9999 BKN026 06/05 Q1031', 'DABT 030100Z 00000KT 9999 BKN026 06/05 Q1031', 'DABT 030000Z 00000KT 9999 BKN026 06/05 Q1031', 'DABT 022300Z 26003KT 9999 BKN026 05/04 Q1031', 'DABT 022200Z VRB02KT 9999 BKN026 06/06 Q1030', 'DABT 022000Z 35004KT 9999 BKN026 08/04 Q1030', 'DABT 021900Z 34006KT 9999 BKN026 08/04 Q1030', 'DABT 021800Z 34012KT 9999 BKN026 09/04 Q1029', 'DABT 021700Z 32008KT 9999 BKN026 10/03 Q1029', 'DABT 021600Z 33014KT 9999 BKN026 10/02 Q1028', 'DABT 021500Z 33018KT 9999 BKN026 11/02 Q1028', 'DABT 021400Z 32016KT 9999 BKN026 12/01 Q1028', 'DABT 021300Z 31017KT 9999 BKN026 12/01 Q1028', 'DABT 021200Z 30016KT 9999 BKN026 11/02 Q1029', 'DABT 021100Z 30014KT 9999 BKN026 12/02 Q1030', 'DABT 021000Z 28008KT 9999 BKN026 10/03 Q1030', 'DABT 020900Z 00000KT 9999 BKN023 08/05 Q1030', 'DABT 020800Z 00000KT 9999 BKN023 06/04 Q1030', 'DABT 020700Z 00000KT 9999 BKN026 04/03 Q1030', 'DABT 020600Z 00000KT 9999 BKN026 04/03 Q1030', 'DABT 020500Z 00000KT 9999 BKN026 04/02 Q1030', 'DABT 020400Z 00000KT 9999 FEW026 SCT100 04/03 Q1030', 'DABT 020300Z 23003KT CAVOK 03/02 Q1030', 'DABT 020200Z VRB02KT CAVOK 02/01 Q1030', 'DABT 020100Z 00000KT CAVOK 02/02 Q1031', 'DABT 012300Z 00000KT 8000 NSC 03/02 Q1031', 'DABT 012200Z 21003KT 8000 NSC 03/02 Q1032', 'DABT 012100Z VRB02KT 8000 NSC 03/01 Q1031', 'DABT 012000Z 00000KT CAVOK 04/03 Q1031', 'DABT 011900Z 13004KT 8000 NSC 05/03 Q1031', 'DABT 011800Z 12004KT 8000 NSC 06/03 Q1031', 'DABT 011700Z 14004KT 6000 NSC 09/04 Q1031', 'DABT 011600Z 20004KT 5000 NSC 11/05 Q1031', 'DABT 011500Z 20004KT 4000 BR NSC 10/06 Q1032', 'DABT 011400Z VRB02KT 4000 BR BKN020 10/07 Q1032', 'DABT 011300Z 22004KT 4000 BR OVC020 08/07 Q1033', 'DABT 011200Z 31003KT 4000 BR OVC020 08/07 Q1034', 'DABT 011100Z VRB02KT 4000 BR BKN020 07/07 Q1034', 'DABT 011000Z 25003KT 3000 BR BKN020 06/06 Q1034', 'DABT 010915Z 21004KT 2000 BR NSC 06/06 Q1034', 'DABT 010800Z VRB02KT 0100 FG VV/// 04/04 Q1033', 'DABT 010700Z VRB02KT 0100 FG VV/// 03/03 Q1033', 'DABT 010600Z VRB02KT 0500 FG NSC 03/03 Q1033', 'DABT 010500Z 22003KT 0500 FG NSC 01/01 Q1033', 'DABT 010400Z 21003KT 0500 FG NSC 02/02 Q1033', 'DABT 010300Z VRB02KT 3000 BR NSC M00/M01 Q1033', 'DABT 010225Z VRB02KT 3000 BR NSC M00/M01 Q1033', 'DABT 010200Z VRB02KT CAVOK 00/M01 Q1033', 'DABT 010100Z 11004KT CAVOK 02/M00 Q1033', 'DABT 010000Z VRB02KT CAVOK 02/M01 Q1033', 'DABT 312300Z VRB02KT CAVOK 03/M00 Q1034', 'DABT 312200Z 00000KT CAVOK 05/01 Q1033', 'DABT 312100Z 18003KT CAVOK 05/01 Q1033', 'DABT 312000Z 34003KT CAVOK 07/01 Q1033', 'DABT 311900Z 15004KT CAVOK 08/03 Q1033', 'DABT 311800Z 25004KT CAVOK 09/02 Q1033', 'DABT 311700Z 30005KT 8000 NSC 13/02 Q1032', 'DABT 311600Z 33004KT 270V010 8000 NSC 16/03 Q1032']","['2024-02-03 14:00:00', '2024-02-03 13:00:00', '2024-02-03 12:00:00', '2024-02-03 11:00:00', '2024-02-03 10:00:00', '2024-02-03 09:00:00', '2024-02-03 08:00:00', '2024-02-03 07:00:00', '2024-02-03 06:00:00', '2024-02-03 05:00:00', '2024-02-03 04:00:00', '2024-02-03 03:00:00', '2024-02-03 02:00:00', '2024-02-03 01:00:00', '2024-02-03 00:00:00', '2024-02-02 23:00:00', '2024-02-02 22:00:00', '2024-02-02 20:00:00', '2024-02-02 19:00:00', '2024-02-02 18:00:00', '2024-02-02 17:00:00', '2024-02-02 16:00:00', '2024-02-02 15:00:00', '2024-02-02 14:00:00', '2024-02-02 13:00:00', '2024-02-02 12:00:00', '2024-02-02 11:00:00', '2024-02-02 10:00:00', '2024-02-02 09:00:00', '2024-02-02 08:00:00', '2024-02-02 07:00:00', '2024-02-02 06:00:00', '2024-02-02 05:00:00', '2024-02-02 04:00:00', '2024-02-02 03:00:00', '2024-02-02 02:00:00', '2024-02-02 01:00:00', '2024-02-01 23:00:00', '2024-02-01 22:00:00', '2024-02-01 21:00:00', '2024-02-01 20:00:00', '2024-02-01 19:00:00', '2024-02-01 18:00:00', '2024-02-01 17:00:00', '2024-02-01 16:00:00', '2024-02-01 15:00:00', '2024-02-01 14:00:00', '2024-02-01 13:00:00', '2024-02-01 12:00:00', '2024-02-01 11:00:00', '2024-02-01 10:00:00', '2024-02-01 09:15:00', '2024-02-01 08:00:00', '2024-02-01 07:00:00', '2024-02-01 06:00:00', '2024-02-01 05:00:00', '2024-02-01 04:00:00', '2024-02-01 03:00:00', '2024-02-01 02:25:00', '2024-02-01 02:00:00', '2024-02-01 01:00:00', '2024-02-01 00:00:00', '2024-01-31 23:00:00', '2024-01-31 22:00:00', '2024-01-31 21:00:00', '2024-01-31 20:00:00', '2024-01-31 19:00:00', '2024-01-31 18:00:00', '2024-01-31 17:00:00', '2024-01-31 16:00:00']"
